{"version": 0.6, "generator": "Overpass API 0.7.62.8 e802775f", "osm3s": {"timestamp_osm_base": "2025-12-01T17:19:07Z", "copyright": "The data included in this document is from www.openstreetmap.org. The data is made available under ODbL."}, "elements": [{"type": "node", "id": 33583381, "lat": 40.7042025, "lon": -74.0171127}, {"type": "node", "id": 33583383, "lat": 40.704029, "lon": -74.0176271}, {"type": "node", "id": 33583384, "lat": 40.7039989, "lon": -74.0176371}, {"type": "node", "id": 33583385, "lat": 40.7034289, "lon": -74.0176203}, {"type": "node", "id": 33583387, "lat": 40.7016586, "lon": -74.0161415}, {"type": "node", "id": 33583388, "lat": 40.7012989, "lon": -74.0157066}, {"type": "node", "id": 33583389, "lat": 40.7014665, "lon": -74.0148029}, {"type": "node", "id": 33583390, "lat": 40.7013283, "lon": -74.0144682}, {"type": "node", "id": 33583391, "lat": 40.7012856, "lon": -74.0141876}, {"type": "node", "id": 33583392, "lat": 40.7014367, "lon": -74.0140182}, {"type": "node", "id": 33583393, "lat": 40.7023527, "lon": -74.0139082}, {"type": "node", "id": 33583394, "lat": 40.7031923, "lon": -74.0145237}, {"type": "node", "id": 166878927, "lat": 40.7008491, "lon": -74.015138}, {"type": "node", "id": 194613652, "lat": 40.706078, "lon": -74.0193432}, {"type": "node", "id": 194614188, "lat": 40.7046472, "lon": -74.0180795}, {"type": "node", "id": 194614516, "lat": 40.7046966, "lon": -74.0174667}, {"type": "node", "id": 194615673, "lat": 40.7038939, "lon": -74.0176647}, {"type": "node", "id": 194615674, "lat": 40.7034978, "lon": -74.0176453}, {"type": "node", "id": 194615676, "lat": 40.7032631, "lon": -74.0175512}, {"type": "node", "id": 194615678, "lat": 40.7020281, "lon": -74.0165153}, {"type": "node", "id": 194615680, "lat": 40.7016281, "lon": -74.0161079}, {"type": "node", "id": 246872846, "lat": 40.7064219, "lon": -74.0189137}, {"type": "node", "id": 246872847, "lat": 40.7062321, "lon": -74.0190485}, {"type": "node", "id": 246872849, "lat": 40.7060696, "lon": -74.0189174}, {"type": "node", "id": 246872851, "lat": 40.7058602, "lon": -74.0190083}, {"type": "node", "id": 246872852, "lat": 40.7056065, "lon": -74.0185622}, {"type": "node", "id": 246872853, "lat": 40.705974, "lon": -74.0182503}, {"type": "node", "id": 246872854, "lat": 40.7059253, "lon": -74.0180764}, {"type": "node", "id": 246872855, "lat": 40.705481, "lon": -74.0180167}, {"type": "node", "id": 246872856, "lat": 40.7052279, "lon": -74.0178698}, {"type": "node", "id": 246872857, "lat": 40.7050692, "lon": -74.0177171}, {"type": "node", "id": 246872858, "lat": 40.7049214, "lon": -74.0175057}, {"type": "node", "id": 246872859, "lat": 40.7048629, "lon": -74.017389}, {"type": "node", "id": 246872862, "lat": 40.704554, "lon": -74.0181188}, {"type": "node", "id": 246872864, "lat": 40.7065016, "lon": -74.0192436}, {"type": "node", "id": 560636265, "lat": 40.7032771, "lon": -74.0141339, "tags": {"addr:city": "New York", "addr:housenumber": "1", "addr:postcode": "10004", "addr:state": "NY", "addr:street": "Battery Park Plaza", "amenity": "cafe", "branch": "State St & Pearl Streets", "brand": "Starbucks", "brand:wikidata": "Q37158", "cuisine": "coffee_shop", "name": "Starbucks", "official_name": "Starbucks Coffee", "phone": "+1 212-482-1180", "ref": "16686", "takeaway": "yes", "website": "https://www.starbucks.com/store-locator/store/16686/state-st-pearl-streets-1-battery-park-plaza-new-york-ny-100041405-us", "wheelchair": "limited"}}, {"type": "node", "id": 605033094, "lat": 40.7024491, "lon": -74.0169147}, {"type": "node", "id": 607910829, "lat": 40.7013274, "lon": -74.0140845, "tags": {"barrier": "kerb", "kerb": "lowered", "tactile_paving": "yes", "wheelchair": "yes"}}, {"type": "node", "id": 1078821289, "lat": 40.7037137, "lon": -74.017674}, {"type": "node", "id": 1251359558, "lat": 40.7032963, "lon": -74.0106023}, {"type": "node", "id": 1251359559, "lat": 40.70364, "lon": -74.0107121}, {"type": "node", "id": 1251359561, "lat": 40.7033909, "lon": -74.0103552}, {"type": "node", "id": 1251359562, "lat": 40.7036644, "lon": -74.0106494, "tags": {"barrier": "kerb", "kerb": "lowered", "tactile_paving": "no", "wheelchair": "yes"}}, {"type": "node", "id": 1251359565, "lat": 40.7033324, "lon": -74.0104518, "tags": {"barrier": "kerb", "kerb": "lowered", "tactile_paving": "yes", "wheelchair": "yes"}}, {"type": "node", "id": 1251958153, "lat": 40.7048959, "lon": -74.0139431}, {"type": "node", "id": 1251958161, "lat": 40.705336, "lon": -74.0136237}, {"type": "node", "id": 1251958176, "lat": 40.7048408, "lon": -74.0134269}, {"type": "node", "id": 1251958243, "lat": 40.7052955, "lon": -74.0134387}, {"type": "node", "id": 1251958261, "lat": 40.7052856, "lon": -74.013703}, {"type": "node", "id": 1251958263, "lat": 40.7052245, "lon": -74.0134038}, {"type": "node", "id": 1251959556, "lat": 40.7064642, "lon": -74.0143777}, {"type": "node", "id": 1280366091, "lat": 40.7047243, "lon": -74.0137297}, {"type": "node", "id": 1280366094, "lat": 40.7048909, "lon": -74.0134041}, {"type": "node", "id": 1430380104, "lat": 40.7056391, "lon": -74.0180636}, {"type": "node", "id": 1430380105, "lat": 40.7056478, "lon": -74.0186871}, {"type": "node", "id": 1430380109, "lat": 40.7057107, "lon": -74.0189842}, {"type": "node", "id": 1430380131, "lat": 40.706076, "lon": -74.0187335}, {"type": "node", "id": 1430380148, "lat": 40.7064251, "lon": -74.0186877}, {"type": "node", "id": 1430380152, "lat": 40.7064527, "lon": -74.0186906}, {"type": "node", "id": 1430380154, "lat": 40.7064926, "lon": -74.0191268}, {"type": "node", "id": 1430380155, "lat": 40.7064991, "lon": -74.0192082}, {"type": "node", "id": 1430380157, "lat": 40.706513, "lon": -74.0188029}, {"type": "node", "id": 1430380158, "lat": 40.7065155, "lon": -74.0188397}, {"type": "node", "id": 1430380159, "lat": 40.7065165, "lon": -74.0190321}, {"type": "node", "id": 1430380160, "lat": 40.7065219, "lon": -74.0189339}, {"type": "node", "id": 1659428446, "lat": 40.7012755, "lon": -74.0156798}, {"type": "node", "id": 1659428450, "lat": 40.702068, "lon": -74.0140269}, {"type": "node", "id": 1659428451, "lat": 40.7020497, "lon": -74.0165358}, {"type": "node", "id": 1659428480, "lat": 40.7023902, "lon": -74.0139647}, {"type": "node", "id": 1659428494, "lat": 40.7032074, "lon": -74.017523}, {"type": "node", "id": 1659428500, "lat": 40.7033174, "lon": -74.0175775}, {"type": "node", "id": 1659428503, "lat": 40.7033688, "lon": -74.0175986}, {"type": "node", "id": 1659428507, "lat": 40.7035855, "lon": -74.01449}, {"type": "node", "id": 1659428508, "lat": 40.703461, "lon": -74.0176328}, {"type": "node", "id": 1695334031, "lat": 40.7041095, "lon": -74.0143912}, {"type": "node", "id": 2033946685, "lat": 40.7072305, "lon": -74.0123877, "tags": {"amenity": "cafe", "name": "Bean And Bean", "wheelchair": "no"}}, {"type": "node", "id": 2034011016, "lat": 40.7043817, "lon": -74.0130472, "tags": {"addr:city": "New York", "addr:housenumber": "2", "addr:postcode": "10004", "addr:state": "NY", "addr:street": "Broadway", "amenity": "cafe", "branch": "2 Broadway", "brand": "Starbucks", "brand:wikidata": "Q37158", "cuisine": "coffee_shop", "diet:vegan": "yes", "drink:soy_milk": "yes", "indoor_seating": "yes", "internet_access": "wlan", "name": "Starbucks", "official_name": "Starbucks Coffee", "opening_hours": "Mo-Fr 05:30-19:30; Sa, Su 07:00-20:00", "outdoor_seating": "no", "phone": "+1 212-344-4290", "ref": "12804", "takeaway": "yes", "website": "https://www.starbucks.com/store-locator/store/12804/2-broadway-2-broadway-new-york-ny-100042207-us", "wheelchair": "yes"}}, {"type": "node", "id": 2044048263, "lat": 40.702856, "lon": -74.0172629, "tags": {"amenity": "ferry_terminal", "ferry": "yes", "name": "Battery Park", "operator": "Statue Cruises", "public_transport": "stop_position"}}, {"type": "node", "id": 2044075085, "lat": 40.7047225, "lon": -74.0188491}, {"type": "node", "id": 2044075089, "lat": 40.7047414, "lon": -74.0189029}, {"type": "node", "id": 2044075090, "lat": 40.7047301, "lon": -74.0188793}, {"type": "node", "id": 2044075092, "lat": 40.7036167, "lon": -74.0176668}, {"type": "node", "id": 2044075105, "lat": 40.7051301, "lon": -74.0190428}, {"type": "node", "id": 2044075112, "lat": 40.7035982, "lon": -74.017663}, {"type": "node", "id": 2044075126, "lat": 40.7038028, "lon": -74.0176739}, {"type": "node", "id": 2044075134, "lat": 40.7063301, "lon": -74.0192889}, {"type": "node", "id": 2044075135, "lat": 40.7047597, "lon": -74.0189237}, {"type": "node", "id": 2044075143, "lat": 40.7056676, "lon": -74.0192156}, {"type": "node", "id": 2044075161, "lat": 40.7059663, "lon": -74.0193088}, {"type": "node", "id": 2053820744, "lat": 40.7049752, "lon": -74.0175902}, {"type": "node", "id": 2183010450, "lat": 40.7061255, "lon": -74.0110467, "tags": {"amenity": "restaurant", "check_date": "2025-08-14", "name": "Bobby Van's", "wheelchair": "no"}}, {"type": "node", "id": 2183010451, "lat": 40.7034829, "lon": -74.011087, "tags": {"amenity": "restaurant", "cuisine": "indian", "name": "Bombay Cuisine", "wheelchair": "no"}}, {"type": "node", "id": 2183010458, "lat": 40.7059471, "lon": -74.0116452, "tags": {"addr:housenumber": "40", "addr:street": "Broad Street", "amenity": "cafe", "brand": "Joe & The Juice", "brand:wikidata": "Q26221514", "cuisine": "coffee_shop", "indoor_seating": "yes", "name": "Joe & The Juice", "outdoor_seating": "no", "takeaway": "yes", "wheelchair": "yes"}}, {"type": "node", "id": 2183010462, "lat": 40.7035248, "lon": -74.0108884, "tags": {"addr:housenumber": "66", "addr:postcode": "10004", "addr:street": "Pearl Street", "amenity": "cafe", "branch": "Coffee Shop Four", "cuisine": "coffee_shop", "internet_access": "wlan", "internet_access:fee": "no", "name": "787 Coffee", "opening_hours": "Mo-Su 07:00-20:00", "outdoor_seating": "sidewalk", "phone": "+1 646-449-9200", "website": "https://www.787coffee.com/", "wheelchair": "no"}}, {"type": "node", "id": 2183010488, "lat": 40.7051728, "lon": -74.011298, "tags": {"addr:city": "New York", "addr:housenumber": "55", "addr:postcode": "10004", "addr:state": "NY", "addr:street": "Broad Street", "amenity": "cafe", "branch": "55 Broad Street", "brand": "Starbucks", "brand:wikidata": "Q37158", "cuisine": "coffee_shop", "diet:vegan": "yes", "drink:soy_milk": "yes", "indoor_seating": "yes", "internet_access": "wlan", "name": "Starbucks", "official_name": "Starbucks Coffee", "opening_hours": "Mo-Su 07:00-18:00", "outdoor_seating": "no", "phone": "+1 212-742-2490", "ref": "16214", "takeaway": "yes", "website": "https://www.starbucks.com/store-locator/store/16214/55-broad-street-55-broad-street-new-york-ny-100042501-us", "wheelchair": "yes"}}, {"type": "node", "id": 2186614181, "lat": 40.7051928, "lon": -74.0109499, "tags": {"amenity": "restaurant", "name": "Hale & Hearty Soup", "wheelchair": "yes"}}, {"type": "node", "id": 2234390144, "lat": 40.7031607, "lon": -74.0174956}, {"type": "node", "id": 2275856091, "lat": 40.7046581, "lon": -74.0131273, "tags": {"name": "MTA New York City Transit HQ", "office": "government"}}, {"type": "node", "id": 2824828249, "lat": 40.7054375, "lon": -74.0138074, "tags": {"addr:housenumber": "25", "addr:postcode": "10004", "addr:street": "Broadway", "name": "Satellite Innovations", "office": "company", "website": "https://www.satelliteinnovations.io/"}}, {"type": "node", "id": 2824828280, "lat": 40.7033341, "lon": -74.0106724, "tags": {"addr:housenumber": "38", "addr:postcode": "10004", "addr:street": "Water Street", "amenity": "restaurant", "cuisine": "chinese", "indoor_seating": "yes", "name": "3 Times Dim Sum", "outdoor_seating": "yes", "phone": "+1-646-895-9297", "website": "https://www.3times.com", "wheelchair": "yes"}}, {"type": "node", "id": 2824828301, "lat": 40.7041158, "lon": -74.0104083}, {"type": "node", "id": 2824828390, "lat": 40.7041146, "lon": -74.0117291, "tags": {"addr:housenumber": "88", "addr:postcode": "10004", "addr:street": "Broad Street", "amenity": "pub", "indoor_seating": "yes", "name": "Broadstone Bar & Kitchen", "outdoor_seating": "yes", "wheelchair": "yes"}}, {"type": "node", "id": 2824828419, "lat": 40.7013239, "lon": -74.0148823}, {"type": "node", "id": 2824828421, "lat": 40.7013344, "lon": -74.0149056}, {"type": "node", "id": 2824828703, "lat": 40.7032715, "lon": -74.0112108}, {"type": "node", "id": 2824828707, "lat": 40.7032773, "lon": -74.0111891}, {"type": "node", "id": 2824828713, "lat": 40.703292, "lon": -74.0111938}, {"type": "node", "id": 2824828725, "lat": 40.7033245, "lon": -74.0106108}, {"type": "node", "id": 2824828726, "lat": 40.7033229, "lon": -74.0114356}, {"type": "node", "id": 2824828735, "lat": 40.7033438, "lon": -74.0112107}, {"type": "node", "id": 2824828746, "lat": 40.7033599, "lon": -74.0112395}, {"type": "node", "id": 2824828769, "lat": 40.7034277, "lon": -74.0114475}, {"type": "node", "id": 2824828784, "lat": 40.7034711, "lon": -74.0112521}, {"type": "node", "id": 2824828820, "lat": 40.7035925, "lon": -74.0106965}, {"type": "node", "id": 2824829036, "lat": 40.7039737, "lon": -74.0103728}, {"type": "node", "id": 2824829049, "lat": 40.7040287, "lon": -74.0102975}, {"type": "node", "id": 2824829092, "lat": 40.7041726, "lon": -74.0105208}, {"type": "node", "id": 2824829206, "lat": 40.7042378, "lon": -74.0106561}, {"type": "node", "id": 2824829212, "lat": 40.7042991, "lon": -74.0104836}, {"type": "node", "id": 2824829234, "lat": 40.7044189, "lon": -74.0107579}, {"type": "node", "id": 2824829239, "lat": 40.7044486, "lon": -74.0106617}, {"type": "node", "id": 2824829283, "lat": 40.7047118, "lon": -74.010504}, {"type": "node", "id": 2824829296, "lat": 40.7047547, "lon": -74.0104395}, {"type": "node", "id": 2824829401, "lat": 40.7047963, "lon": -74.0105641}, {"type": "node", "id": 2824829405, "lat": 40.7048243, "lon": -74.0110154}, {"type": "node", "id": 2824829407, "lat": 40.7048365, "lon": -74.0107205}, {"type": "node", "id": 2824829408, "lat": 40.7048448, "lon": -74.0106291}, {"type": "node", "id": 2824829409, "lat": 40.7048503, "lon": -74.01063}, {"type": "node", "id": 2824829410, "lat": 40.7048509, "lon": -74.0107228}, {"type": "node", "id": 2824829411, "lat": 40.7048526, "lon": -74.0106043}, {"type": "node", "id": 2824829414, "lat": 40.7048795, "lon": -74.0105996}, {"type": "node", "id": 2824829420, "lat": 40.7048971, "lon": -74.010566}, {"type": "node", "id": 2824829441, "lat": 40.7049877, "lon": -74.0110411}, {"type": "node", "id": 2824829448, "lat": 40.7050208, "lon": -74.0106775}, {"type": "node", "id": 2837384392, "lat": 40.7057886, "lon": -74.0112224, "tags": {"addr:housenumber": "41", "addr:postcode": "10004", "addr:street": "Broad Street", "amenity": "school", "check_date": "2025-08-14", "name": "Lehman Manhattan Preparatory School", "wheelchair": "yes"}}, {"type": "node", "id": 2915596861, "lat": 40.7066535, "lon": -74.0123807, "tags": {"addr:city": "New York", "addr:housenumber": "56", "addr:postcode": "10004", "addr:state": "NY", "addr:street": "Broadway", "amenity": "college", "name": "The King's College", "phone": "+1 212-659-7200", "website": "https://www.tkc.edu/", "wheelchair": "yes"}}, {"type": "node", "id": 3151692835, "lat": 40.7059851, "lon": -74.0170998, "tags": {"addr:city": "New York", "addr:postcode": "10280", "addr:street": "Little West Street", "amenity": "restaurant", "name": "Inatesso"}}, {"type": "node", "id": 3190230455, "lat": 40.7062033, "lon": -74.011905, "tags": {"addr:city": "New York", "addr:housenumber": "30", "addr:postcode": "10004", "addr:state": "NY", "addr:street": "Broad Street", "amenity": "cafe", "brand": "Bluestone Lane", "brand:wikidata": "Q130381059", "cuisine": "australian;coffee_shop", "name": "Bluestone Lane"}}, {"type": "node", "id": 3239326415, "lat": 40.7045322, "lon": -74.0109178, "tags": {"addr:housenumber": "26", "addr:street": "South William Street", "amenity": "restaurant", "name": "Luke's Lobster", "website": "https://lukeslobster.com/fidi", "wheelchair": "yes"}}, {"type": "node", "id": 3738776600, "lat": 40.7043867, "lon": -74.0106192}, {"type": "node", "id": 3926398285, "lat": 40.7073841, "lon": -74.012574, "tags": {"addr:city": "New York", "addr:housenumber": "65", "addr:postcode": "10006", "addr:state": "NY", "addr:street": "Broadway", "amenity": "restaurant", "name": "Variety Cafe", "phone": "+1-212-430-6888", "wheelchair": "no"}}, {"type": "node", "id": 4032952259, "lat": 40.7070526, "lon": -74.0161532}, {"type": "node", "id": 4032952260, "lat": 40.7073085, "lon": -74.0160121}, {"type": "node", "id": 4032952266, "lat": 40.7078166, "lon": -74.0162506}, {"type": "node", "id": 4032952271, "lat": 40.7076384, "lon": -74.0158866}, {"type": "node", "id": 4032952274, "lat": 40.7072954, "lon": -74.0164526}, {"type": "node", "id": 4032952283, "lat": 40.7050309, "lon": -74.0172425}, {"type": "node", "id": 4032952287, "lat": 40.7071722, "lon": -74.0164047}, {"type": "node", "id": 4032961989, "lat": 40.70496, "lon": -74.0169276}, {"type": "node", "id": 4206997147, "lat": 40.7070081, "lon": -74.0139099, "tags": {"barrier": "kerb", "kerb": "lowered", "tactile_paving": "yes", "wheelchair": "yes"}}, {"type": "node", "id": 4402057816, "lat": 40.7065633, "lon": -74.0129228, "tags": {"addr:housenumber": "47", "addr:postcode": "10006", "addr:street": "Broadway", "amenity": "restaurant", "branch": "47 Broadway", "brand": "TGI Fridays", "brand:wikidata": "Q1524184", "cocktails": "yes", "cuisine": "american", "drink:beer": "yes", "drink:wine": "yes", "level": "0", "name": "TGI Fridays", "opening_hours": "Su-We 11:30-22:00; Th-Sa 11:30-11:00", "phone": "+1 212-483-8322", "website": "https://locations.tgifridays.com/ny/new-york/47-broadway.html", "wheelchair": "yes"}}, {"type": "node", "id": 4843854724, "lat": 40.7032493, "lon": -74.0110052, "tags": {"addr:postcode": "10004", "amenity": "pub", "name": "The Dead Rabbit", "opening_hours": "Mo-Su 11:00-04:00", "phone": "+1-646-422-7906", "website": "https://www.deadrabbitnyc.com/", "wheelchair": "no"}}, {"type": "node", "id": 4860141724, "lat": 40.7046891, "lon": -74.0105964, "tags": {"addr:housenumber": "10", "addr:postcode": "10004", "amenity": "restaurant", "cuisine": "chinese", "name": "No. 1", "opening_hours": "Mo-Fr 11:00-21:30; Sa-Su 15:30-21:30", "phone": "+12129520890"}}, {"type": "node", "id": 4876525166, "lat": 40.7036386, "lon": -74.0144799}, {"type": "node", "id": 4899954121, "lat": 40.7037798, "lon": -74.0109286, "tags": {"amenity": "cafe", "brand": "Le Pain Quotidien", "brand:wikidata": "Q2046903", "cuisine": "coffee_shop", "indoor_seating": "yes", "name": "Le Pain Quotidien", "name:en": "Le Pain Quotidien", "outdoor_seating": "yes", "takeaway": "yes", "wheelchair": "yes"}}, {"type": "node", "id": 4913377823, "lat": 40.7041988, "lon": -74.0117201, "tags": {"amenity": "cafe", "brand": "Gregorys Coffee", "brand:wikidata": "Q28229714", "indoor_seating": "yes", "name": "Gregorys Coffee", "note": "lack of apostrophe in name is not a typo", "opening_hours": "Mo-Th 06:30-17:00; Fr 06:30-16:00", "outdoor_seating": "no", "wheelchair": "yes"}}, {"type": "node", "id": 4942694536, "lat": 40.7039608, "lon": -74.0118856, "tags": {"addr:city": "New York", "addr:housenumber": "20", "addr:postcode": "10004", "addr:state": "NY", "addr:street": "Stone Street", "amenity": "cafe", "branch": "Financial District", "brand": "Caf\u00e9 Grumpy", "cuisine": "coffee_shop", "indoor_seating": "yes", "name": "Caf\u00e9 Grumpy", "opening_hours": "Mo-Fr 07:00-17:00; Sa, Su 08:00-15:00", "outdoor_seating": "yes", "phone": "+1-646-838-9306", "website": "https://cafegrumpy.com/locations/financial-district"}}, {"type": "node", "id": 5101299223, "lat": 40.7070263, "lon": -74.0132592, "tags": {"addr:housenumber": "27", "addr:street": "Trinity Place", "amenity": "restaurant", "name": "Sale & Pepe", "wheelchair": "yes"}}, {"type": "node", "id": 5209054495, "lat": 40.7066849, "lon": -74.0137949}, {"type": "node", "id": 5209054497, "lat": 40.706364, "lon": -74.0142569}, {"type": "node", "id": 5209054498, "lat": 40.7065043, "lon": -74.0139931}, {"type": "node", "id": 5209054500, "lat": 40.7065489, "lon": -74.0139305}, {"type": "node", "id": 5209054504, "lat": 40.7063447, "lon": -74.0142955}, {"type": "node", "id": 5209054506, "lat": 40.7065917, "lon": -74.0138802}, {"type": "node", "id": 5209054508, "lat": 40.706652, "lon": -74.0138232}, {"type": "node", "id": 5209054509, "lat": 40.706448, "lon": -74.0140846}, {"type": "node", "id": 5332665135, "lat": 40.7061301, "lon": -74.0114781, "tags": {"addr:city": "New York", "addr:housenumber": "30", "addr:postcode": "10004", "addr:state": "NY", "addr:street": "Broad Street", "email": "alexlogerfo@ssconcretepolshing.com", "name": "Southside Concrete Polishing", "office": "company", "phone": "+1-646-760-4442", "website": "https://ssconcretepolishing.com/", "wheelchair": "yes"}}, {"type": "node", "id": 5337272121, "lat": 40.7036814, "lon": -74.0123807, "tags": {"amenity": "pub", "cuisine": "american;pub", "drink:beer": "draught", "drink:liquor": "yes", "drink:wine": "yes", "name": "The White Horse Tavern", "opening_hours": "Mo-Sa 10:00-01:00", "opening_hours:kitchen": "Mo-Tu 11:00-21:00; We-Sa 11:00-22:00", "phone": "+1-212-668-9046", "sport": "darts", "website": "https://www.whitehorsetavernny.com", "wheelchair": "no"}}, {"type": "node", "id": 5455437321, "lat": 40.7023065, "lon": -74.0107645, "tags": {"addr:city": "New York", "addr:housenumber": "125", "addr:postcode": "10004", "addr:state": "NY", "addr:street": "Broad Street", "name": "American Civil Liberties Union", "office": "association", "short_name": "ACLU"}}, {"type": "node", "id": 5461888238, "lat": 40.7053339, "lon": -74.0139867, "tags": {"addr:city": "New York", "addr:housenumber": "11", "addr:postcode": "10004", "addr:state": "NY", "addr:street": "Broadway", "addr:unit": "Suite 1005", "email": "a.johnson@lawapj.com", "fax": "+1-212-430-6797", "name": "Andrew P. Johnson, PC", "office": "lawyer", "phone": "+1-212-693-3355", "website": "https://www.lawapj.com/"}}, {"type": "node", "id": 5810383921, "lat": 40.7066673, "lon": -74.0135136, "tags": {"addr:city": "New York", "addr:housenumber": "17", "addr:postcode": "10006", "addr:state": "NY", "addr:street": "Trinity Place", "amenity": "restaurant", "cuisine": "pizza;sushi", "diet:dairy_free": "yes", "diet:gluten_free": "yes", "diet:kosher": "only", "diet:vegan": "yes", "drive_through": "no", "name": "Bravo Kosher Pizza", "not:brand:wikidata": "Q64055574", "opening_hours": "Mo-Th 10:00-19:00", "outdoor_seating": "yes", "phone": "+1-212-344-1111", "website": "https://www.bravokosherdowntown.com/", "wheelchair": "yes"}}, {"type": "node", "id": 5889771445, "lat": 40.7052679, "lon": -74.0145708, "tags": {"addr:housenumber": "11", "addr:postcode": "10004", "addr:street": "Greenwich Street", "admin_level": "4", "branch": "Lower Manhattan", "government": "transportation", "name": "New York State Department of Motor Vehicles", "office": "government", "opening_hours": "Mo-Fr 08:30-16:00", "operator": "New York State Department of Motor Vehicles", "operator:short": "NYSDMV", "operator:wikidata": "Q17109616", "phone": "+1 212-645-5550", "short_name": "DMV", "website": "https://dmv.ny.gov/office/lower-manhattan-greenwich-st"}}, {"type": "node", "id": 5955392985, "lat": 40.7027759, "lon": -74.012773, "tags": {"amenity": "cafe", "brand": "Starbucks", "brand:wikidata": "Q37158", "check_date": "2018-10-04", "cuisine": "coffee_shop", "name": "Starbucks", "official_name": "Starbucks Coffee", "takeaway": "yes"}}, {"type": "node", "id": 5978556699, "lat": 40.7039598, "lon": -74.0124974, "tags": {"amenity": "bar", "indoor_seating": "yes", "name": "London & Martin Co.", "outdoor_seating": "no"}}, {"type": "node", "id": 5978556700, "lat": 40.7035005, "lon": -74.0129805, "tags": {"addr:housenumber": "27", "addr:street": "Whitehall Street", "amenity": "cafe", "name": "Flavors", "wheelchair": "yes"}}, {"type": "node", "id": 5978556702, "lat": 40.7048978, "lon": -74.0122892, "tags": {"addr:city": "New York", "addr:housenumber": "20", "addr:postcode": "10004", "addr:state": "NY", "addr:street": "Beaver Street", "amenity": "restaurant", "check_date": "2025-08-14", "cuisine": "pizza", "name": "Pizza Etalia", "wheelchair": "no"}}, {"type": "node", "id": 5978556705, "lat": 40.7061538, "lon": -74.0128132, "tags": {"addr:housenumber": "42", "addr:street": "Broadway", "amenity": "cafe", "indoor_seating": "yes", "name": "Gregory\u2019s Coffee", "opening_hours": "Mo-Fr 06:00-18:00; Sa,Su 07:00-17:00", "outdoor_seating": "yes", "wheelchair": "yes"}}, {"type": "node", "id": 5978556715, "lat": 40.7055604, "lon": -74.0124709, "tags": {"addr:housenumber": "75", "addr:street": "New Street", "amenity": "restaurant", "cuisine": "caribbean", "name": "Sophie\u2019s", "wheelchair": "yes"}}, {"type": "node", "id": 5978556716, "lat": 40.7056747, "lon": -74.0125085, "tags": {"addr:housenumber": "69", "addr:street": "New Street", "amenity": "restaurant", "cuisine": "mexican", "name": "El Toro", "phone": "+1-212-363-3900", "wheelchair": "yes"}}, {"type": "node", "id": 5978556743, "lat": 40.7048564, "lon": -74.0123904, "tags": {"amenity": "restaurant", "check_date": "2025-08-14", "name": "Yip\u2019s", "wheelchair": "yes"}}, {"type": "node", "id": 5978557992, "lat": 40.7057076, "lon": -74.0123841, "tags": {"addr:housenumber": "69", "addr:street": "New Street", "amenity": "restaurant", "cuisine": "pizza", "name": "The Grotto", "wheelchair": "no"}}, {"type": "node", "id": 6020091159, "lat": 40.7065551, "lon": -74.0136373, "tags": {"addr:housenumber": "11", "addr:street": "Trinity Place", "amenity": "restaurant", "cuisine": "irish", "name": "Blarney Stone", "wheelchair": "yes"}}, {"type": "node", "id": 6297395784, "lat": 40.7041817, "lon": -74.0171767}, {"type": "node", "id": 6297395887, "lat": 40.7041482, "lon": -74.0173106}, {"type": "node", "id": 6297396392, "lat": 40.7024281, "lon": -74.0168948}, {"type": "node", "id": 6297397190, "lat": 40.7041653, "lon": -74.0175639}, {"type": "node", "id": 6297397467, "lat": 40.7042328, "lon": -74.0170536}, {"type": "node", "id": 6297397469, "lat": 40.7041932, "lon": -74.0171399}, {"type": "node", "id": 6297397470, "lat": 40.7042143, "lon": -74.0170839}, {"type": "node", "id": 6297397471, "lat": 40.7042821, "lon": -74.0169861}, {"type": "node", "id": 6297397473, "lat": 40.7043422, "lon": -74.0169233}, {"type": "node", "id": 6297397474, "lat": 40.70431, "lon": -74.0169524}, {"type": "node", "id": 6297397475, "lat": 40.7044664, "lon": -74.0168493}, {"type": "node", "id": 6297397476, "lat": 40.7044222, "lon": -74.0168724}, {"type": "node", "id": 6297397477, "lat": 40.7046098, "lon": -74.0167832}, {"type": "node", "id": 6297397478, "lat": 40.7045341, "lon": -74.0168141}, {"type": "node", "id": 6297397483, "lat": 40.7042612, "lon": -74.0170105}, {"type": "node", "id": 6297397596, "lat": 40.7041629, "lon": -74.017243}, {"type": "node", "id": 6297397603, "lat": 40.7041545, "lon": -74.0172814}, {"type": "node", "id": 6297397830, "lat": 40.7014867, "lon": -74.0147836}, {"type": "node", "id": 6297397838, "lat": 40.7013759, "lon": -74.0144976}, {"type": "node", "id": 6297397839, "lat": 40.7014641, "lon": -74.0144742}, {"type": "node", "id": 6297397840, "lat": 40.7013828, "lon": -74.0145201}, {"type": "node", "id": 6297397841, "lat": 40.7015965, "lon": -74.0147454}, {"type": "node", "id": 6297397842, "lat": 40.7015142, "lon": -74.0145157}, {"type": "node", "id": 6297410845, "lat": 40.7015139, "lon": -74.0147994}, {"type": "node", "id": 6297410858, "lat": 40.7014827, "lon": -74.0145332}, {"type": "node", "id": 6326774864, "lat": 40.7047082, "lon": -74.0150568}, {"type": "node", "id": 6326774865, "lat": 40.704726, "lon": -74.0151461}, {"type": "node", "id": 6326774866, "lat": 40.7047424, "lon": -74.0152293}, {"type": "node", "id": 6326774867, "lat": 40.7047461, "lon": -74.0152706}, {"type": "node", "id": 6326774868, "lat": 40.7047439, "lon": -74.0152822}, {"type": "node", "id": 6326774869, "lat": 40.7047385, "lon": -74.0153094}, {"type": "node", "id": 6326774870, "lat": 40.7047353, "lon": -74.0153449}, {"type": "node", "id": 6326774871, "lat": 40.7047373, "lon": -74.0153615}, {"type": "node", "id": 6326774872, "lat": 40.7047506, "lon": -74.015429}, {"type": "node", "id": 6326774873, "lat": 40.704769, "lon": -74.0155615, "tags": {"barrier": "kerb", "kerb": "lowered", "tactile_paving": "yes"}}, {"type": "node", "id": 6326774874, "lat": 40.7047783, "lon": -74.0156911}, {"type": "node", "id": 6326774876, "lat": 40.7047796, "lon": -74.0157878}, {"type": "node", "id": 6326774877, "lat": 40.7047755, "lon": -74.0159154}, {"type": "node", "id": 6326774878, "lat": 40.7047678, "lon": -74.0160111}, {"type": "node", "id": 6326774879, "lat": 40.7047414, "lon": -74.0162994}, {"type": "node", "id": 6326774880, "lat": 40.7047331, "lon": -74.0164284}, {"type": "node", "id": 6326774881, "lat": 40.7047287, "lon": -74.0165906}, {"type": "node", "id": 6326774882, "lat": 40.7047284, "lon": -74.0166673}, {"type": "node", "id": 6326774883, "lat": 40.7047291, "lon": -74.0166918}, {"type": "node", "id": 6326774884, "lat": 40.7047315, "lon": -74.0167063}, {"type": "node", "id": 6326774985, "lat": 40.7047561, "lon": -74.0167606}, {"type": "node", "id": 6326774986, "lat": 40.7047597, "lon": -74.01678}, {"type": "node", "id": 6326779634, "lat": 40.7041713, "lon": -74.0172136}, {"type": "node", "id": 6326794325, "lat": 40.7045625, "lon": -74.0144594}, {"type": "node", "id": 6326794326, "lat": 40.704592, "lon": -74.0145506}, {"type": "node", "id": 6326794327, "lat": 40.7046397, "lon": -74.0147303}, {"type": "node", "id": 6326794328, "lat": 40.7046753, "lon": -74.0148975, "tags": {"barrier": "kerb", "kerb": "lowered", "tactile_paving": "yes", "wheelchair": "yes"}}, {"type": "node", "id": 6326822634, "lat": 40.7047442, "lon": -74.0162677, "tags": {"barrier": "kerb"}}, {"type": "node", "id": 6326825586, "lat": 40.702651, "lon": -74.0142242}, {"type": "node", "id": 6326825587, "lat": 40.7027569, "lon": -74.0143213}, {"type": "node", "id": 6326825588, "lat": 40.7028372, "lon": -74.0143816}, {"type": "node", "id": 6326825589, "lat": 40.7029109, "lon": -74.0144272}, {"type": "node", "id": 6326825590, "lat": 40.7029998, "lon": -74.0144674}, {"type": "node", "id": 6326825591, "lat": 40.7031323, "lon": -74.0145119}, {"type": "node", "id": 6326825592, "lat": 40.7032388, "lon": -74.0145306, "tags": {"barrier": "kerb", "kerb": "lowered", "tactile_paving": "yes"}}, {"type": "node", "id": 6326825593, "lat": 40.7032937, "lon": -74.0145345}, {"type": "node", "id": 6326825594, "lat": 40.7033496, "lon": -74.0145305}, {"type": "node", "id": 6326825595, "lat": 40.7034502, "lon": -74.0145157}, {"type": "node", "id": 6326825596, "lat": 40.7039977, "lon": -74.0144118}, {"type": "node", "id": 6326825597, "lat": 40.7041919, "lon": -74.0143749}, {"type": "node", "id": 6326825598, "lat": 40.7043337, "lon": -74.0143501}, {"type": "node", "id": 6326825601, "lat": 40.7044115, "lon": -74.014334}, {"type": "node", "id": 6326825602, "lat": 40.7044415, "lon": -74.014334}, {"type": "node", "id": 6326825603, "lat": 40.704472, "lon": -74.0143407}, {"type": "node", "id": 6326825604, "lat": 40.7044934, "lon": -74.0143524, "tags": {"barrier": "kerb", "kerb": "lowered", "tactile_paving": "yes", "wheelchair": "yes"}}, {"type": "node", "id": 6326825605, "lat": 40.7045111, "lon": -74.0143675}, {"type": "node", "id": 6326825606, "lat": 40.7045315, "lon": -74.0143917}, {"type": "node", "id": 6326825607, "lat": 40.7045479, "lon": -74.0144235, "tags": {"barrier": "kerb", "kerb": "lowered", "tactile_paving": "yes"}}, {"type": "node", "id": 6326825608, "lat": 40.7045518, "lon": -74.0144319}, {"type": "node", "id": 6326857019, "lat": 40.7021796, "lon": -74.013876}, {"type": "node", "id": 6326857020, "lat": 40.7021644, "lon": -74.0138777}, {"type": "node", "id": 6326857021, "lat": 40.7021537, "lon": -74.0138804}, {"type": "node", "id": 6326857022, "lat": 40.7021466, "lon": -74.0138851}, {"type": "node", "id": 6326857023, "lat": 40.7021384, "lon": -74.0138938}, {"type": "node", "id": 6326857024, "lat": 40.7021326, "lon": -74.0139055}, {"type": "node", "id": 6326857025, "lat": 40.7021295, "lon": -74.0139169}, {"type": "node", "id": 6326857026, "lat": 40.7021199, "lon": -74.0139478, "tags": {"barrier": "kerb", "kerb": "lowered", "tactile_paving": "yes", "wheelchair": "yes"}}, {"type": "node", "id": 6326857027, "lat": 40.7021072, "lon": -74.0139793}, {"type": "node", "id": 6326857028, "lat": 40.7020894, "lon": -74.0140041}, {"type": "node", "id": 6326857030, "lat": 40.7020436, "lon": -74.0140416}, {"type": "node", "id": 6326857031, "lat": 40.7020106, "lon": -74.0140544}, {"type": "node", "id": 6326857032, "lat": 40.7019938, "lon": -74.0140571}, {"type": "node", "id": 6326857033, "lat": 40.7019562, "lon": -74.0140577}, {"type": "node", "id": 6326857034, "lat": 40.7014956, "lon": -74.0140222}, {"type": "node", "id": 6326857036, "lat": 40.7014143, "lon": -74.0140222}, {"type": "node", "id": 6326857037, "lat": 40.7013884, "lon": -74.0140316}, {"type": "node", "id": 6326857039, "lat": 40.7013416, "lon": -74.0140665}, {"type": "node", "id": 6326857041, "lat": 40.7013157, "lon": -74.0141007}, {"type": "node", "id": 6326857042, "lat": 40.7012999, "lon": -74.0141369}, {"type": "node", "id": 6326857043, "lat": 40.7012828, "lon": -74.014243}, {"type": "node", "id": 6326857046, "lat": 40.7012886, "lon": -74.0142948}, {"type": "node", "id": 6326857047, "lat": 40.7012983, "lon": -74.0143433}, {"type": "node", "id": 6326857051, "lat": 40.7013527, "lon": -74.0145029}, {"type": "node", "id": 6326857066, "lat": 40.7022344, "lon": -74.0138772, "tags": {"barrier": "kerb", "kerb": "lowered", "tactile_paving": "yes", "wheelchair": "yes"}}, {"type": "node", "id": 6326857067, "lat": 40.7022808, "lon": -74.0138782, "tags": {"barrier": "kerb", "kerb": "lowered", "tactile_paving": "yes", "wheelchair": "yes"}}, {"type": "node", "id": 6326857068, "lat": 40.7023151, "lon": -74.0138794}, {"type": "node", "id": 6326857069, "lat": 40.7023329, "lon": -74.0138874}, {"type": "node", "id": 6326857071, "lat": 40.7023708, "lon": -74.0139382, "tags": {"barrier": "kerb", "kerb": "lowered", "tactile_paving": "yes", "wheelchair": "yes"}}, {"type": "node", "id": 6326857073, "lat": 40.7024234, "lon": -74.0140017}, {"type": "node", "id": 6326857074, "lat": 40.7024984, "lon": -74.0140669}, {"type": "node", "id": 6326858991, "lat": 40.7012994, "lon": -74.0149013}, {"type": "node", "id": 6326858992, "lat": 40.7012862, "lon": -74.0148644}, {"type": "node", "id": 6326858993, "lat": 40.7012754, "lon": -74.0148349}, {"type": "node", "id": 6347184545, "lat": 40.7058861, "lon": -74.0129692, "tags": {"addr:city": "New York", "addr:housenumber": "32", "addr:postcode": "10004", "addr:state": "NY", "addr:street": "Broadway", "addr:unit": "Suite 811", "contact:facebook": "https://www.facebook.com/michaeljredenburg", "description": "Michael J. Redenburg is a personal injury attorney in Manhattan helping car accident victims cover their rightful compensation.", "name": "Michael J. Redenburg, Esq. P.C.", "office": "lawyer", "opening_hours": "Mo-Tu, Fr 09:00-17:00; We-Th 09:00-18:00", "phone": "+1-212-240-9465", "website": "https://mjrlaw-ny.com/"}}, {"type": "node", "id": 6356484485, "lat": 40.70412, "lon": -74.0120699, "tags": {"amenity": "restaurant", "name": "Toro Loco"}}, {"type": "node", "id": 6381998626, "lat": 40.7013614, "lon": -74.01405}, {"type": "node", "id": 6419018960, "lat": 40.7046174, "lon": -74.0146416}, {"type": "node", "id": 6475062686, "lat": 40.7059216, "lon": -74.0129774, "tags": {"addr:housenumber": "32", "addr:street": "Broadway", "amenity": "restaurant", "cuisine": "sushi", "fixme": "fix node position", "indoor_seating": "yes", "name": "Bento Nouveau", "opening_hours": "Mo-Th 09:00-20:00; Sa,Su 10:00-18:00", "outdoor_seating": "no", "wheelchair": "no"}}, {"type": "node", "id": 6566728885, "lat": 40.7042695, "lon": -74.0117256, "tags": {"amenity": "restaurant", "check_date:opening_hours": "2023-09-06", "indoor_seating": "yes", "name": "Pok\u00e9bab", "opening_hours:signed": "no", "outdoor_seating": "no", "wheelchair": "yes"}}, {"type": "node", "id": 6661207828, "lat": 40.7040489, "lon": -74.0111939, "tags": {"addr:city": "New York", "addr:housenumber": "85", "addr:postcode": "10004", "addr:state": "NY", "addr:street": "Broad Street", "name": "Veryday", "office": "company", "website": "https://www.veryday.com/", "wikidata": "Q310207"}}, {"type": "node", "id": 6791086295, "lat": 40.704059, "lon": -74.011355, "tags": {"brand": "WeWork", "brand:wikidata": "Q19995004", "fee": "yes", "name": "WeWork", "office": "coworking"}}, {"type": "node", "id": 7072589176, "lat": 40.7049872, "lon": -74.0139401}, {"type": "node", "id": 7072589177, "lat": 40.7050721, "lon": -74.0139015}, {"type": "node", "id": 7072589179, "lat": 40.7050603, "lon": -74.0133783}, {"type": "node", "id": 7072589180, "lat": 40.7050218, "lon": -74.0133785}, {"type": "node", "id": 7072589181, "lat": 40.7050847, "lon": -74.0133785}, {"type": "node", "id": 7208978990, "lat": 40.705112, "lon": -74.0177666}, {"type": "node", "id": 7237595276, "lat": 40.7077901, "lon": -74.0161894}, {"type": "node", "id": 7682576633, "lat": 40.700997, "lon": -74.0150255}, {"type": "node", "id": 7682576645, "lat": 40.7011113, "lon": -74.0149312}, {"type": "node", "id": 7685535298, "lat": 40.7053268, "lon": -74.0136437}, {"type": "node", "id": 7685535299, "lat": 40.7053095, "lon": -74.0136702}, {"type": "node", "id": 7685535300, "lat": 40.7052601, "lon": -74.0137382}, {"type": "node", "id": 7685535302, "lat": 40.7051087, "lon": -74.0138774}, {"type": "node", "id": 7685535303, "lat": 40.7050212, "lon": -74.0139287}, {"type": "node", "id": 7685535304, "lat": 40.7049577, "lon": -74.0139461}, {"type": "node", "id": 7685535305, "lat": 40.7049287, "lon": -74.0139474}, {"type": "node", "id": 7685535306, "lat": 40.704871, "lon": -74.0139357}, {"type": "node", "id": 7685535307, "lat": 40.7048441, "lon": -74.013922}, {"type": "node", "id": 7685535308, "lat": 40.7048151, "lon": -74.0139002}, {"type": "node", "id": 7685535309, "lat": 40.7047823, "lon": -74.0138676}, {"type": "node", "id": 7685535310, "lat": 40.7047612, "lon": -74.0138371}, {"type": "node", "id": 7685535311, "lat": 40.7047277, "lon": -74.0137457}, {"type": "node", "id": 7685535312, "lat": 40.7047203, "lon": -74.0136775}, {"type": "node", "id": 7685535313, "lat": 40.7047235, "lon": -74.0136393}, {"type": "node", "id": 7685535314, "lat": 40.7047307, "lon": -74.0135932}, {"type": "node", "id": 7685535315, "lat": 40.7047404, "lon": -74.0135565}, {"type": "node", "id": 7685535316, "lat": 40.7047676, "lon": -74.0135002}, {"type": "node", "id": 7685535317, "lat": 40.7047953, "lon": -74.0134633}, {"type": "node", "id": 7685535318, "lat": 40.7049492, "lon": -74.0133877}, {"type": "node", "id": 7685535319, "lat": 40.7049172, "lon": -74.0133954}, {"type": "node", "id": 7685535320, "lat": 40.7051261, "lon": -74.0133808}, {"type": "node", "id": 7685535321, "lat": 40.7051656, "lon": -74.0133874}, {"type": "node", "id": 7685535322, "lat": 40.7052672, "lon": -74.0134212}, {"type": "node", "id": 7685535323, "lat": 40.7053242, "lon": -74.0134687}, {"type": "node", "id": 7685535324, "lat": 40.7053339, "lon": -74.0134854}, {"type": "node", "id": 7685535325, "lat": 40.7053451, "lon": -74.0135136}, {"type": "node", "id": 7685535326, "lat": 40.7053504, "lon": -74.013547}, {"type": "node", "id": 7685535327, "lat": 40.7053454, "lon": -74.0135959}, {"type": "node", "id": 7685535328, "lat": 40.7047389, "lon": -74.0137909}, {"type": "node", "id": 7685539641, "lat": 40.7053093, "lon": -74.0134506}, {"type": "node", "id": 7685539642, "lat": 40.7051999, "lon": -74.0133954}, {"type": "node", "id": 7685539643, "lat": 40.7049947, "lon": -74.0133807}, {"type": "node", "id": 7685539644, "lat": 40.7048605, "lon": -74.0134167}, {"type": "node", "id": 7685539645, "lat": 40.7048129, "lon": -74.0134468}, {"type": "node", "id": 7685539646, "lat": 40.704784, "lon": -74.013478}, {"type": "node", "id": 7685539647, "lat": 40.7047549, "lon": -74.0135213}, {"type": "node", "id": 7685539648, "lat": 40.704721, "lon": -74.0137126}, {"type": "node", "id": 7685539649, "lat": 40.7053506, "lon": -74.0135706}, {"type": "node", "id": 7706733771, "lat": 40.7063749, "lon": -74.0144154}, {"type": "node", "id": 7706739263, "lat": 40.7046699, "lon": -74.0148739}, {"type": "node", "id": 7706983307, "lat": 40.706363, "lon": -74.0143666}, {"type": "node", "id": 7717760985, "lat": 40.7046131, "lon": -74.0116878, "tags": {"addr:city": "New York", "addr:housenumber": "74", "addr:postcode": "10004", "addr:state": "NY", "addr:street": "Broad Street", "amenity": "restaurant", "branch": "Financial District", "brand": "Tacombi", "brand:wikidata": "Q123165959", "cuisine": "mexican", "indoor_seating": "yes", "name": "Tacombi", "opening_hours": "Mo-Su 11:00-23:00", "outdoor_seating": "yes", "phone": "+1 917-261-7136", "reservation": "yes", "reservation:website": "https://resy.com/cities/ny/tacombi-financial-district", "website": "https://www.tacombi.com/"}}, {"type": "node", "id": 7725157347, "lat": 40.704774, "lon": -74.0174795}, {"type": "node", "id": 7725157367, "lat": 40.7058257, "lon": -74.0180844}, {"type": "node", "id": 7725157368, "lat": 40.7057438, "lon": -74.0180797}, {"type": "node", "id": 7725157369, "lat": 40.7055685, "lon": -74.0180469}, {"type": "node", "id": 7725157370, "lat": 40.7053809, "lon": -74.0179711}, {"type": "node", "id": 7725157371, "lat": 40.7053026, "lon": -74.0179255}, {"type": "node", "id": 7725157372, "lat": 40.7050322, "lon": -74.01767}, {"type": "node", "id": 7725157373, "lat": 40.704731, "lon": -74.0175233}, {"type": "node", "id": 7725157374, "lat": 40.7047212, "lon": -74.0174552}, {"type": "node", "id": 7725276182, "lat": 40.7047555, "lon": -74.0174984}, {"type": "node", "id": 7725295496, "lat": 40.7047905, "lon": -74.0174627}, {"type": "node", "id": 7725295497, "lat": 40.7048323, "lon": -74.0174202}, {"type": "node", "id": 7725312114, "lat": 40.7045758, "lon": -74.0182132}, {"type": "node", "id": 7725334454, "lat": 40.7058414, "lon": -74.0180831}, {"type": "node", "id": 7725334476, "lat": 40.7055903, "lon": -74.018052}, {"type": "node", "id": 7725334478, "lat": 40.7050523, "lon": -74.0176957}, {"type": "node", "id": 7725379242, "lat": 40.7057216, "lon": -74.0192325}, {"type": "node", "id": 7728046048, "lat": 40.704983, "lon": -74.0170329}, {"type": "node", "id": 7728046049, "lat": 40.7049989, "lon": -74.0171027}, {"type": "node", "id": 7728046134, "lat": 40.7071019, "lon": -74.0164329}, {"type": "node", "id": 7728046137, "lat": 40.7065687, "lon": -74.016645}, {"type": "node", "id": 7728046138, "lat": 40.7064036, "lon": -74.0167102}, {"type": "node", "id": 7728046141, "lat": 40.7058734, "lon": -74.0169107}, {"type": "node", "id": 7728046142, "lat": 40.7057002, "lon": -74.0169832}, {"type": "node", "id": 7728046155, "lat": 40.7073847, "lon": -74.0159802}, {"type": "node", "id": 7728046165, "lat": 40.7064964, "lon": -74.0163508}, {"type": "node", "id": 7728046168, "lat": 40.7049654, "lon": -74.016949}, {"type": "node", "id": 7728046169, "lat": 40.7076573, "lon": -74.0158954}, {"type": "node", "id": 7728046170, "lat": 40.7072541, "lon": -74.0164664}, {"type": "node", "id": 7728046171, "lat": 40.7072398, "lon": -74.0164315}, {"type": "node", "id": 7728046172, "lat": 40.7072261, "lon": -74.0164141}, {"type": "node", "id": 7728046173, "lat": 40.7072134, "lon": -74.0164067}, {"type": "node", "id": 7728046174, "lat": 40.707191, "lon": -74.016402}, {"type": "node", "id": 7728046175, "lat": 40.7050727, "lon": -74.0172029}, {"type": "node", "id": 7728046176, "lat": 40.7050588, "lon": -74.0172129}, {"type": "node", "id": 7728046177, "lat": 40.7050497, "lon": -74.0172241}, {"type": "node", "id": 7728046179, "lat": 40.7052645, "lon": -74.0171262}, {"type": "node", "id": 7728046180, "lat": 40.7052785, "lon": -74.0171252}, {"type": "node", "id": 7728046181, "lat": 40.7052896, "lon": -74.0171262}, {"type": "node", "id": 7728046182, "lat": 40.7052978, "lon": -74.0171295}, {"type": "node", "id": 7728046183, "lat": 40.7053057, "lon": -74.0171312}, {"type": "node", "id": 7728046184, "lat": 40.7053158, "lon": -74.0171305}, {"type": "node", "id": 7728046186, "lat": 40.7061957, "lon": -74.0164375}, {"type": "node", "id": 7728046187, "lat": 40.7062825, "lon": -74.0164079}, {"type": "node", "id": 7728046188, "lat": 40.7064236, "lon": -74.0163682}, {"type": "node", "id": 7728046189, "lat": 40.7065791, "lon": -74.0163314}, {"type": "node", "id": 7728046190, "lat": 40.7066777, "lon": -74.0163007}, {"type": "node", "id": 7728046191, "lat": 40.7069687, "lon": -74.016188}, {"type": "node", "id": 7728046192, "lat": 40.7071173, "lon": -74.016117}, {"type": "node", "id": 7728046193, "lat": 40.7071946, "lon": -74.0160704}, {"type": "node", "id": 7728058580, "lat": 40.7048868, "lon": -74.0174427}, {"type": "node", "id": 7728058582, "lat": 40.7063739, "lon": -74.0163804}, {"type": "node", "id": 8638404695, "lat": 40.7023437, "lon": -74.0105085, "tags": {"addr:city": "New York", "addr:housenumber": "125", "addr:postcode": "10004", "addr:state": "NY", "addr:street": "Broad Street", "name": "Sullivan & Cromwell LLP", "office": "lawyer", "phone": "+1 212 558-3175", "website": "https://www.sullcrom.com"}}, {"type": "node", "id": 9025308623, "lat": 40.7041266, "lon": -74.0103867}, {"type": "node", "id": 9025308625, "lat": 40.7044111, "lon": -74.0105524}, {"type": "node", "id": 9025308626, "lat": 40.7041928, "lon": -74.0104765}, {"type": "node", "id": 9168415889, "lat": 40.7012617, "lon": -74.0148011}, {"type": "node", "id": 9168454046, "lat": 40.7011974, "lon": -74.0148552}, {"type": "node", "id": 9369136019, "lat": 40.7047161, "lon": -74.015097, "tags": {"barrier": "kerb", "kerb": "lowered", "tactile_paving": "no"}}, {"type": "node", "id": 9369136021, "lat": 40.7047795, "lon": -74.0157679, "tags": {"barrier": "kerb", "kerb": "lowered", "tactile_paving": "yes"}}, {"type": "node", "id": 9369136024, "lat": 40.7048487, "lon": -74.0174035}, {"type": "node", "id": 9371193670, "lat": 40.704975, "lon": -74.0169951}, {"type": "node", "id": 9371193679, "lat": 40.704629, "lon": -74.0167795, "tags": {"barrier": "kerb", "kerb": "flush", "tactile_paving": "yes", "wheelchair": "yes"}}, {"type": "node", "id": 9371193684, "lat": 40.7047048, "lon": -74.0167781}, {"type": "node", "id": 9371193687, "lat": 40.7047499, "lon": -74.0167409}, {"type": "node", "id": 9371204326, "lat": 40.7047565, "lon": -74.0161341}, {"type": "node", "id": 9371204350, "lat": 40.704779, "lon": -74.0158521}, {"type": "node", "id": 9371204351, "lat": 40.7047735, "lon": -74.0156086}, {"type": "node", "id": 9371204352, "lat": 40.7047609, "lon": -74.0154966}, {"type": "node", "id": 9371204353, "lat": 40.704736, "lon": -74.0153279}, {"type": "node", "id": 9371204354, "lat": 40.7047455, "lon": -74.0152444}, {"type": "node", "id": 9371204355, "lat": 40.7047464, "lon": -74.0152591}, {"type": "node", "id": 9371204445, "lat": 40.7046506, "lon": -74.0167763}, {"type": "node", "id": 9371204588, "lat": 40.7043751, "lon": -74.0169001}, {"type": "node", "id": 9371729334, "lat": 40.7042455, "lon": -74.0170343}, {"type": "node", "id": 9371729376, "lat": 40.7041552, "lon": -74.0175158, "tags": {"barrier": "bollard"}}, {"type": "node", "id": 9371729377, "lat": 40.7041514, "lon": -74.0174871, "tags": {"barrier": "bollard"}}, {"type": "node", "id": 9371729378, "lat": 40.7041476, "lon": -74.0174569, "tags": {"barrier": "bollard"}}, {"type": "node", "id": 9371729379, "lat": 40.7041457, "lon": -74.0174273, "tags": {"barrier": "bollard"}}, {"type": "node", "id": 9371729380, "lat": 40.704143, "lon": -74.0173955, "tags": {"barrier": "bollard"}}, {"type": "node", "id": 9371812392, "lat": 40.7038883, "lon": -74.0144326}, {"type": "node", "id": 9371812394, "lat": 40.7036778, "lon": -74.0144725, "tags": {"barrier": "kerb", "kerb": "lowered", "tactile_paving": "yes", "wheelchair": "yes"}}, {"type": "node", "id": 9371812429, "lat": 40.7050094, "lon": -74.0171488}, {"type": "node", "id": 9371812437, "lat": 40.7030884, "lon": -74.0145016, "tags": {"barrier": "kerb", "kerb": "lowered", "tactile_paving": "yes", "wheelchair": "yes"}}, {"type": "node", "id": 9898775045, "lat": 40.704909, "lon": -74.0139448, "tags": {"barrier": "kerb", "kerb": "raised", "tactile_paving": "no", "wheelchair": "no"}}, {"type": "node", "id": 9955765017, "lat": 40.7028662, "lon": -74.0139375, "tags": {"addr:housenumber": "17", "addr:postcode": "10004", "addr:street": "State Street", "name": "SKP NYC", "office": "company"}}, {"type": "node", "id": 9958079173, "lat": 40.7039393, "lon": -74.0112193, "tags": {"addr:city": "New York", "addr:housenumber": "85", "addr:postcode": "10004", "addr:state": "NY", "addr:street": "Broad Street", "addr:unit": "Floor 8", "air_conditioning": "yes", "brand:wikidata": "Q2918660", "description": "New York Headquarters", "level": "8", "name": "Duolingo", "office": "company", "website": "https://duolingo.com"}}, {"type": "node", "id": 10168364245, "lat": 40.7068647, "lon": -74.0136495, "tags": {"barrier": "kerb", "kerb": "lowered", "tactile_paving": "yes", "wheelchair": "yes"}}, {"type": "node", "id": 10268906107, "lat": 40.7062579, "lon": -74.0114037, "tags": {"addr:city": "New York", "addr:housenumber": "30", "addr:postcode": "10004", "addr:state": "NY", "addr:street": "Broad Street", "amenity": "restaurant", "cuisine": "italian", "name": "Serafina Vino e Cucina", "opening_hours": "Fr-Sa 12:00-22:00; Su off", "phone": "+1-347-647-9030", "website": "https://serafinavinoecucina.com/"}}, {"type": "node", "id": 10292285810, "lat": 40.7055913, "lon": -74.0166826}, {"type": "node", "id": 10292285841, "lat": 40.705218, "lon": -74.0171428}, {"type": "node", "id": 10292285842, "lat": 40.7050413, "lon": -74.0172352}, {"type": "node", "id": 10292285843, "lat": 40.7051883, "lon": -74.0171554}, {"type": "node", "id": 10292285858, "lat": 40.7058524, "lon": -74.016922, "tags": {"barrier": "kerb", "kerb": "lowered", "tactile_paving": "yes", "wheelchair": "yes"}}, {"type": "node", "id": 10292285859, "lat": 40.7057274, "lon": -74.0169714, "tags": {"barrier": "kerb", "kerb": "lowered", "tactile_paving": "yes", "wheelchair": "yes"}}, {"type": "node", "id": 10315959486, "lat": 40.7064028, "lon": -74.0144036, "tags": {"highway": "street_lamp"}}, {"type": "node", "id": 10315971065, "lat": 40.7067275, "lon": -74.0137584}, {"type": "node", "id": 10315971066, "lat": 40.7069271, "lon": -74.0136479, "tags": {"barrier": "kerb", "kerb": "lowered", "tactile_paving": "yes", "wheelchair": "yes"}}, {"type": "node", "id": 10315971073, "lat": 40.7068879, "lon": -74.0136312}, {"type": "node", "id": 10315971074, "lat": 40.7069189, "lon": -74.0136349}, {"type": "node", "id": 10315971075, "lat": 40.7069126, "lon": -74.013628}, {"type": "node", "id": 10315971076, "lat": 40.7069054, "lon": -74.0136261}, {"type": "node", "id": 10315971077, "lat": 40.706897, "lon": -74.0136261}, {"type": "node", "id": 10315971142, "lat": 40.7067043, "lon": -74.0141518}, {"type": "node", "id": 10315971143, "lat": 40.7066724, "lon": -74.0141972}, {"type": "node", "id": 10315971144, "lat": 40.7066485, "lon": -74.014234}, {"type": "node", "id": 10315971145, "lat": 40.7066226, "lon": -74.0142692}, {"type": "node", "id": 10315971146, "lat": 40.7066, "lon": -74.0142981}, {"type": "node", "id": 10315971147, "lat": 40.7065757, "lon": -74.0143208}, {"type": "node", "id": 10315971148, "lat": 40.7065046, "lon": -74.0143588}, {"type": "node", "id": 10315971149, "lat": 40.7065365, "lon": -74.0143445}, {"type": "node", "id": 10315971150, "lat": 40.7067392, "lon": -74.0141065}, {"type": "node", "id": 10315971151, "lat": 40.706768, "lon": -74.0140792}, {"type": "node", "id": 10315971152, "lat": 40.706806, "lon": -74.0140554}, {"type": "node", "id": 10315971153, "lat": 40.7069406, "lon": -74.0139916}, {"type": "node", "id": 10315971154, "lat": 40.706945, "lon": -74.0139777}, {"type": "node", "id": 10315971155, "lat": 40.7069686, "lon": -74.013968}, {"type": "node", "id": 10315971156, "lat": 40.7069802, "lon": -74.0139819}, {"type": "node", "id": 10315971157, "lat": 40.706973, "lon": -74.0139745}, {"type": "node", "id": 10315971158, "lat": 40.7069918, "lon": -74.0139674}, {"type": "node", "id": 10315971159, "lat": 40.7069998, "lon": -74.0139499}, {"type": "node", "id": 10315971160, "lat": 40.7070055, "lon": -74.0139321}, {"type": "node", "id": 10315971161, "lat": 40.7070077, "lon": -74.0138877}, {"type": "node", "id": 10315971162, "lat": 40.7070049, "lon": -74.0138609}, {"type": "node", "id": 10315971163, "lat": 40.7069995, "lon": -74.0138357}, {"type": "node", "id": 10315971164, "lat": 40.706935, "lon": -74.0136651}, {"type": "node", "id": 10315971170, "lat": 40.7069776, "lon": -74.0139792}, {"type": "node", "id": 10315971189, "lat": 40.7068511, "lon": -74.0136603}, {"type": "node", "id": 10315971257, "lat": 40.7063696, "lon": -74.0143941}, {"type": "node", "id": 10315971264, "lat": 40.7063557, "lon": -74.014339}, {"type": "node", "id": 10316226060, "lat": 40.7053492, "lon": -74.0135326}, {"type": "node", "id": 10316226075, "lat": 40.7051667, "lon": -74.0138334}, {"type": "node", "id": 10316226076, "lat": 40.7052184, "lon": -74.0137863}, {"type": "node", "id": 10316226185, "lat": 40.7050025, "lon": -74.0133801, "tags": {"barrier": "kerb", "kerb": "raised", "tactile_paving": "no", "wheelchair": "no"}}, {"type": "node", "id": 10665137474, "lat": 40.7052408, "lon": -74.0127902, "tags": {"addr:city": "New York", "addr:floor": "5", "addr:housenumber": "26", "addr:postcode": "10004", "addr:state": "NY", "addr:street": "Broadway", "amenity": "school", "contact:facebook": "UASBYW.US", "fax": "+1-212-668-0635", "grades": "9-12", "internet_access": "no", "name": "Urban Assembly School of Business for Young Women", "phone": "+1-212-668-0169", "polling_station": "yes", "ref": "M316", "religion": "none", "school:gender": "female", "website": "https://www.uasbfyw.org/", "wheelchair": "yes"}}, {"type": "node", "id": 10665280266, "lat": 40.7052186, "lon": -74.013179, "tags": {"addr:city": "New York", "addr:housenumber": "7", "addr:postcode": "10004", "addr:state": "NY", "addr:street": "Beaver Street", "amenity": "school", "fax": "+1-646-826-8175", "grades": "9-12", "name": "Richard R. Green High School of Teaching", "phone": "+1-646-826-8174", "ref": "M580", "religion": "none", "school:gender": "mixed", "website": "https://www.rrghst.org/", "wheelchair": "yes"}}, {"type": "node", "id": 10693842130, "lat": 40.7071263, "lon": -74.0164226, "tags": {"barrier": "kerb", "kerb": "lowered", "tactile_paving": "yes", "wheelchair": "yes"}}, {"type": "node", "id": 10693842138, "lat": 40.7064145, "lon": -74.0167054, "tags": {"barrier": "kerb", "kerb": "lowered", "tactile_paving": "yes", "wheelchair": "yes"}}, {"type": "node", "id": 10693842140, "lat": 40.70647, "lon": -74.0163567, "tags": {"barrier": "kerb", "kerb": "lowered", "tactile_paving": "yes"}}, {"type": "node", "id": 10693842141, "lat": 40.7065479, "lon": -74.0166522, "tags": {"barrier": "kerb", "kerb": "lowered", "tactile_paving": "yes", "wheelchair": "yes"}}, {"type": "node", "id": 10757806380, "lat": 40.7072563, "lon": -74.0123018, "tags": {"addr:city": "New York", "addr:housenumber": "65", "addr:postcode": "10006", "addr:state": "NY", "addr:street": "Broadway", "amenity": "restaurant", "cuisine": "italian;chinese;mexican", "name": "Slow Food Market"}}, {"type": "node", "id": 10815518004, "lat": 40.7021644, "lon": -74.0110864, "tags": {"addr:city": "New York", "addr:housenumber": "22", "addr:postcode": "10004", "addr:state": "NY", "addr:street": "South Street", "brand": "Claviscar", "email": "info@claviscar.com", "name": "Claviscar", "office": "corporate_office", "opening_hours": "24/7", "operator": "Claviscar", "website": "https://www.claviscar.com"}}, {"type": "node", "id": 10906413973, "lat": 40.7026356, "lon": -74.0117836, "tags": {"addr:city": "New York", "addr:housenumber": "1", "addr:postcode": "10004", "addr:state": "NY", "addr:street": "New York Plaza", "amenity": "cafe", "branch": "Water St @ Broad (inside)", "brand": "Starbucks", "brand:wikidata": "Q37158", "cuisine": "coffee_shop", "level": "-1", "location": "underground", "name": "Starbucks", "official_name": "Starbucks Coffee", "opening_hours": "Mo-Fr 06:00-17:00", "phone": "+1 212-785-8409", "ref": "1008845", "takeaway": "yes", "website": "https://www.starbucks.com/store-locator/store/1008845/water-st-broad-inside-1-new-york-plaza-new-york-ny-100041901-us"}}, {"type": "node", "id": 11013387695, "lat": 40.7013388, "lon": -74.0144894}, {"type": "node", "id": 11016298815, "lat": 40.7025362, "lon": -74.0160859}, {"type": "node", "id": 11016298816, "lat": 40.7025313, "lon": -74.0160779}, {"type": "node", "id": 11016298817, "lat": 40.7025218, "lon": -74.0160699}, {"type": "node", "id": 11016298818, "lat": 40.7025106, "lon": -74.0160657}, {"type": "node", "id": 11016298819, "lat": 40.702498, "lon": -74.0160673}, {"type": "node", "id": 11016298820, "lat": 40.7024874, "lon": -74.0160729}, {"type": "node", "id": 11016298821, "lat": 40.7024783, "lon": -74.0160823}, {"type": "node", "id": 11016298822, "lat": 40.7024735, "lon": -74.016093}, {"type": "node", "id": 11016298823, "lat": 40.7024718, "lon": -74.0161038}, {"type": "node", "id": 11016298824, "lat": 40.7024732, "lon": -74.0161138}, {"type": "node", "id": 11016298825, "lat": 40.7024789, "lon": -74.0161232}, {"type": "node", "id": 11016298826, "lat": 40.7024879, "lon": -74.0161309}, {"type": "node", "id": 11016298827, "lat": 40.7025001, "lon": -74.0161343}, {"type": "node", "id": 11016298828, "lat": 40.7025121, "lon": -74.016134}, {"type": "node", "id": 11016298829, "lat": 40.7025207, "lon": -74.0161307}, {"type": "node", "id": 11016298830, "lat": 40.7025297, "lon": -74.0161231}, {"type": "node", "id": 11016298831, "lat": 40.7025359, "lon": -74.0161145}, {"type": "node", "id": 11016298832, "lat": 40.7025384, "lon": -74.0161056}, {"type": "node", "id": 11016298833, "lat": 40.7025389, "lon": -74.0160953}, {"type": "node", "id": 11016695778, "lat": 40.7041433, "lon": -74.0173542}, {"type": "node", "id": 11016695779, "lat": 40.7041679, "lon": -74.0175766}, {"type": "node", "id": 11016695786, "lat": 40.7041462, "lon": -74.0174349}, {"type": "node", "id": 11016695787, "lat": 40.7041546, "lon": -74.0175114}, {"type": "node", "id": 11016695852, "lat": 40.7030346, "lon": -74.017408}, {"type": "node", "id": 11016695856, "lat": 40.7028151, "lon": -74.0172279}, {"type": "node", "id": 11016695880, "lat": 40.7041641, "lon": -74.0175584}, {"type": "node", "id": 11016695986, "lat": 40.7020413, "lon": -74.0165278, "tags": {"ferry": "yes", "public_transport": "stop_position"}}, {"type": "node", "id": 11016696162, "lat": 40.7014746, "lon": -74.0147951}, {"type": "node", "id": 11016696214, "lat": 40.7018389, "lon": -74.0140487}, {"type": "node", "id": 11016696215, "lat": 40.7019044, "lon": -74.0140537}, {"type": "node", "id": 11016696216, "lat": 40.7018717, "lon": -74.0140512}, {"type": "node", "id": 11016696222, "lat": 40.7018001, "lon": -74.0140457}, {"type": "node", "id": 11016696223, "lat": 40.7017331, "lon": -74.0140405}, {"type": "node", "id": 11016696224, "lat": 40.7017666, "lon": -74.0140431}, {"type": "node", "id": 11040253936, "lat": 40.7033524, "lon": -74.0103684}, {"type": "node", "id": 11040253937, "lat": 40.7033578, "lon": -74.0103562}, {"type": "node", "id": 11040253938, "lat": 40.7033793, "lon": -74.010348}, {"type": "node", "id": 11040253939, "lat": 40.7033689, "lon": -74.0103491, "tags": {"barrier": "kerb", "kerb": "lowered", "tactile_paving": "no"}}, {"type": "node", "id": 11040253940, "lat": 40.703658, "lon": -74.0106321}, {"type": "node", "id": 11040253941, "lat": 40.7036603, "lon": -74.0106693}, {"type": "node", "id": 11040253942, "lat": 40.703663, "lon": -74.0106605}, {"type": "node", "id": 11040253943, "lat": 40.7036621, "lon": -74.0106404}, {"type": "node", "id": 11040253970, "lat": 40.7033106, "lon": -74.0106064}, {"type": "node", "id": 11040280505, "lat": 40.7036537, "lon": -74.0106831}, {"type": "node", "id": 11040280510, "lat": 40.7036289, "lon": -74.0106019}, {"type": "node", "id": 11040280524, "lat": 40.7034277, "lon": -74.0103933}, {"type": "node", "id": 11040280525, "lat": 40.703617, "lon": -74.0105896}, {"type": "node", "id": 11040350793, "lat": 40.7042511, "lon": -74.0106636}, {"type": "node", "id": 11064559007, "lat": 40.7070451, "lon": -74.0125704, "tags": {"level": "32", "name": "Framestore", "office": "it"}}, {"type": "node", "id": 11172371587, "lat": 40.7039315, "lon": -74.0123687, "tags": {"amenity": "restaurant", "cuisine": "italian", "indoor_seating": "yes", "name": "Antica", "outdoor_seating": "yes"}}, {"type": "node", "id": 11172400856, "lat": 40.7065445, "lon": -74.0112372, "tags": {"addr:housenumber": "22", "addr:street": "Broad Street", "amenity": "cafe", "brand": "Blue Bottle Coffee", "brand:en": "Blue Bottle Coffee", "brand:ja": "\u30d6\u30eb\u30fc\u30dc\u30c8\u30eb\u30b3\u30fc\u30d2\u30fc", "brand:wikidata": "Q4928917", "cuisine": "coffee_shop", "indoor_seating": "yes", "name": "Blue Bottle Coffee", "name:en": "Blue Bottle Coffee", "name:ja": "\u30d6\u30eb\u30fc\u30dc\u30c8\u30eb\u30b3\u30fc\u30d2\u30fc", "outdoor_seating": "yes", "takeaway": "yes"}}, {"type": "node", "id": 11374474057, "lat": 40.707674, "lon": -74.015944}, {"type": "node", "id": 11374486400, "lat": 40.7072723, "lon": -74.0164601}, {"type": "node", "id": 11416159859, "lat": 40.7076501, "lon": -74.0158876}, {"type": "node", "id": 11416159860, "lat": 40.7068384, "lon": -74.016239}, {"type": "node", "id": 11416159861, "lat": 40.7072467, "lon": -74.016042}, {"type": "node", "id": 11416176593, "lat": 40.7077991, "lon": -74.0162574}, {"type": "node", "id": 11416176596, "lat": 40.7076213, "lon": -74.0163263}, {"type": "node", "id": 11416176599, "lat": 40.7078033, "lon": -74.01622, "tags": {"barrier": "gate"}}, {"type": "node", "id": 11416176621, "lat": 40.7073174, "lon": -74.0164441}, {"type": "node", "id": 11416176636, "lat": 40.7076603, "lon": -74.0159057}, {"type": "node", "id": 11486138023, "lat": 40.7062326, "lon": -74.0132146, "tags": {"addr:city": "New York", "addr:housenumber": "39", "addr:postcode": "10006", "addr:state": "NY", "addr:street": "Broadway", "addr:unit": "2430", "name": "HKM Employment Attorneys LLP", "office": "lawyer", "opening_hours": "Mo-Fr 08:00-18:00; Sa-Su 08:00-16:00", "phone": "+1-212-451-9533", "website": "https://hkm.com/new-york/"}}, {"type": "node", "id": 11760994850, "lat": 40.7032995, "lon": -74.0107985, "tags": {"addr:housenumber": "34", "addr:street": "Water Street", "amenity": "restaurant", "name": "Susukino Ramen", "opening_hours": "Mo-Fr 11:00-22:00; Sa, Su 12:00-22:00", "phone": "+1 212-884-6191"}}, {"type": "node", "id": 12100372936, "lat": 40.7043697, "lon": -74.011809, "tags": {"addr:city": "New York", "addr:housenumber": "80", "addr:postcode": "10004", "addr:state": "NY", "addr:street": "Broad Street", "addr:unit": "Suite 703", "contact:facebook": "workingsolutionsnyc", "contact:instagram": "workingsolutionsnyc", "contact:twitter": "LawOfficeofCQD", "email": "slack@workingsolutionsnyc.com", "image": "https://local-platform.s3.us-east-2.amazonaws.com/intake_location/logo/192187/sMJIonhso1GOjQnFnJEFgDHPMbwce2tPTLn1DIzs.jpg", "language:en": "yes", "language:es": "yes", "language:ur": "yes", "name": "Working Solutions Law Firm", "office": "lawyer", "opening_hours": "24/7", "payment:cheque": "yes", "payment:credit_cards": "yes", "payment:online_payment": "yes", "phone": "+1-646-699-3083", "phone:tollfree": "+1-833-967-5692", "start_date": "2014-08-01", "website": "https://www.workingsolutionsnyc.com/"}}, {"type": "node", "id": 12290955806, "lat": 40.706852, "lon": -74.0173293, "tags": {"addr:city": "New York", "addr:housenumber": "75", "addr:postcode": "10280", "addr:state": "NY", "addr:street": "Battery Place", "description": "This is a facility for park operations, composting, and sustainability initiatives for the BPCA.", "government": "public_service", "name": "Battery Park City Authority Operations Facility", "office": "government", "operator": "Battery Park City Authority", "source": "https://bpca.ny.gov/community/bpc-parks-happenings-september-2024/;https://bpca.ny.gov//wp-content/uploads/2022/03/BPC-Sustainability-Plan.pdf", "website": "https://bpca.ny.gov/home/"}}, {"type": "node", "id": 12339677014, "lat": 40.7044333, "lon": -74.0107111, "tags": {"entrance": "yes"}}, {"type": "node", "id": 12343131929, "lat": 40.7034461, "lon": -74.0113645}, {"type": "node", "id": 12343164637, "lat": 40.7039991, "lon": -74.010338}, {"type": "node", "id": 12355026163, "lat": 40.7050172, "lon": -74.0107175, "tags": {"entrance": "main"}}, {"type": "node", "id": 12355026164, "lat": 40.7049909, "lon": -74.011006, "tags": {"entrance": "yes"}}, {"type": "node", "id": 12643783750, "lat": 40.7046128, "lon": -74.0112906, "tags": {"amenity": "school", "mascot": "Phoenix", "name": "Millenium High School"}}, {"type": "node", "id": 13064363257, "lat": 40.7053265, "lon": -74.0112644, "tags": {"addr:city": "New York", "addr:housenumber": "55", "addr:postcode": "10004", "addr:state": "NY", "addr:street": "Broad Street", "consulting": "marketing", "name": "HVR Studio", "office": "consulting", "website": "https://www.hvrstudio.net"}}, {"type": "node", "id": 13165461201, "lat": 40.707305, "lon": -74.0137268, "tags": {"addr:housenumber": "77", "addr:street": "Greenwich Street", "amenity": "cafe", "name": "Ateaz Cafe"}}, {"type": "way", "id": 5029111, "nodes": [6297397841, 6297397842, 6297410858, 6297397839, 6297397840, 6297397838, 6326857051, 11013387695, 33583390, 6326857047, 6326857046, 6326857043, 33583391, 6326857042, 6326857041, 607910829, 6326857039, 6381998626, 6326857037, 6326857036, 33583392, 6326857034, 11016696223, 11016696224, 11016696222, 11016696214, 11016696216, 11016696215, 6326857033, 6326857032, 6326857031, 6326857030, 1659428450, 6326857028, 6326857027, 6326857026, 6326857025, 6326857024, 6326857023, 6326857022, 6326857021, 6326857020, 6326857019, 6326857066, 6326857067, 6326857068, 6326857069, 33583393, 6326857071, 1659428480, 6326857073, 6326857074, 6326825586, 6326825587, 6326825588, 6326825589, 6326825590, 9371812437, 6326825591, 33583394, 6326825592, 6326825593, 6326825594, 6326825595, 1659428507, 4876525166, 9371812394, 9371812392, 6326825596, 1695334031, 6326825597, 6326825598, 6326825601, 6326825602, 6326825603, 6326825604, 6326825605, 6326825606, 6326825607, 6326825608, 6326794325, 6326794326, 6419018960, 6326794327, 7706739263, 6326794328, 6326774864, 9369136019, 6326774865, 6326774866, 9371204354, 9371204355, 6326774867, 6326774868, 6326774869, 9371204353, 6326774870, 6326774871, 6326774872, 9371204352, 6326774873, 9371204351, 6326774874, 9369136021, 6326774876, 9371204350, 6326774877, 6326774878, 9371204326, 6326822634, 6326774879, 6326774880, 6326774881, 6326774882, 6326774883, 6326774884, 9371193687, 6326774985, 6326774986, 9371193684, 9371204445, 9371193679, 6297397477, 6297397478, 6297397475, 6297397476, 9371204588, 6297397473, 6297397474, 6297397471, 6297397483, 9371729334, 6297397467, 6297397470, 33583381, 6297397469, 6297395784, 6326779634, 6297397596, 6297397603, 6297395887, 11016695778, 9371729380, 9371729379, 11016695786, 9371729378, 9371729377, 11016695787, 9371729376, 11016695880, 6297397190, 11016695779, 33583383, 33583384, 194615673, 2044075126, 1078821289, 2044075092, 2044075112, 194615674, 1659428508, 33583385, 1659428503, 1659428500, 194615676, 1659428494, 2234390144, 11016695852, 2044048263, 11016695856, 605033094, 6297396392, 1659428451, 11016695986, 194615678, 33583387, 194615680, 33583388, 1659428446, 166878927, 7682576633, 7682576645, 9168454046, 9168415889, 6326858993, 6326858992, 6326858991, 2824828419, 2824828421, 33583389, 11016696162, 6297397830, 6297410845, 6297397841], "tags": {"addr:city": "New York", "addr:postcode": "10004", "addr:state": "NY", "ele": "3", "gnis:feature_id": "943167", "leisure": "park", "name": "Battery Park", "name:etymology:wikidata": "Q56344492", "name:sr": "\u0411\u0430\u0442\u0435\u0440\u0438 \u043f\u0430\u0440\u043a", "name:sr-Latn": "Bateri park", "operator": "New York City Department of Parks and Recreation", "operator:short": "NYC Parks", "operator:type": "government", "operator:wikidata": "Q1894232", "website": "https://www.thebattery.org/", "wikidata": "Q13689", "wikipedia": "en:The Battery (Manhattan)"}}, {"type": "way", "id": 109267278, "nodes": [1251359559, 2824828820, 2824828725, 11040253970, 1251359558, 1251359565, 11040253936, 11040253937, 11040253939, 11040253938, 1251359561, 11040280524, 11040280525, 11040280510, 11040253940, 11040253943, 1251359562, 11040253942, 11040253941, 11040280505, 1251359559], "tags": {"addr:city": "New York", "addr:state": "NY", "leisure": "park", "name": "Coenties Slip", "operator": "New York City Department of Parks and Recreation", "operator:short": "NYC Parks", "operator:type": "government", "operator:wikidata": "Q1894232", "source": "survey"}}, {"type": "way", "id": 112692313, "nodes": [1251958176, 7685539644, 1280366094, 7685535319, 7685535318, 7685539643, 10316226185, 7072589180, 7072589179, 7072589181, 7685535320, 7685535321, 7685539642, 1251958263, 7685535322, 1251958243, 7685539641, 7685535323, 7685535324, 7685535325, 10316226060, 7685535326, 7685539649, 7685535327, 1251958161, 7685535298, 7685535299, 1251958261, 7685535300, 10316226076, 10316226075, 7685535302, 7072589177, 7685535303, 7072589176, 7685535304, 7685535305, 9898775045, 1251958153, 7685535306, 7685535307, 7685535308, 7685535309, 7685535310, 7685535328, 7685535311, 1280366091, 7685539648, 7685535312, 7685535313, 7685535314, 7685535315, 7685539647, 7685535316, 7685539646, 7685535317, 7685539645, 1251958176], "tags": {"ele": "5", "gnis:feature_id": "944522", "leisure": "park", "name": "Bowling Green", "website": "https://www.nycgovparks.org/parks/bowling-green", "wikidata": "Q895455", "wikipedia": "en:Bowling Green (New York City)"}}, {"type": "way", "id": 129700421, "nodes": [246872846, 246872847, 246872849, 1430380131, 246872851, 1430380109, 1430380105, 246872852, 246872853, 246872854, 7725334454, 7725157367, 7725157368, 1430380104, 7725334476, 7725157369, 246872855, 7725157370, 7725157371, 246872856, 7208978990, 246872857, 7725334478, 7725157372, 2053820744, 246872858, 7728058580, 246872859, 9369136024, 7725295497, 7725295496, 7725157347, 7725276182, 7725157373, 7725157374, 194614516, 194614188, 246872862, 7725312114, 2044075085, 2044075090, 2044075089, 2044075135, 2044075105, 2044075143, 7725379242, 2044075161, 194613652, 2044075134, 246872864, 1430380155, 1430380154, 1430380159, 1430380160, 1430380158, 1430380157, 1430380152, 1430380148, 246872846], "tags": {"dog": "no", "ele": "0", "gnis:feature_id": "2057413", "leisure": "park", "name": "Wagner Park", "operator": "Battery City Park Authotity", "website": "https://bpcparks.org/whats-here/parks/wagner-park/", "wikidata": "Q49551978"}}, {"type": "way", "id": 278053528, "nodes": [2824829296, 2824829283, 2824829401, 2824829411, 2824829409, 2824829408, 2824829407, 2824829410, 2824829405, 2824829441, 12355026164, 12355026163, 2824829448, 2824829414, 2824829420, 2824829296], "tags": {"addr:city": "New York", "addr:housenumber": "44", "addr:postcode": "10005", "addr:state": "NY", "addr:street": "Beaver Street", "building": "yes", "government": "yes", "height": "54.4", "name": "New York City Department of Sanitation", "nycdoitt:bin": "1000850", "office": "government"}}, {"type": "way", "id": 278053589, "nodes": [2824828707, 2824828703, 2824828746, 2824828726, 2824828769, 12343131929, 2824828784, 2824828735, 2824828713, 2824828707], "tags": {"addr:city": "New York", "addr:country": "US", "addr:housenumber": "54", "addr:postcode": "10004", "addr:state": "NY", "addr:street": "Pearl Street", "amenity": "restaurant", "bar": "yes", "building": "yes", "cuisine": "american", "description": "Fraunces Tavern is a historic landmark & the oldest & most historic bar in the city. It's known as the watering hole for many of the founding fathers.", "height": "14.6", "indoor_seating": "yes", "name": "Fraunces Tavern", "nycdoitt:bin": "1078965", "opening_hours": "Mo-Th 11:30-00:00; Fr 11:30-01:00; Sa 11:00-01:00; Su 11:00-00:00", "outdoor_seating": "yes", "phone": "+1-212-968-1776", "website": "https://frauncestavern.com/", "wheelchair": "yes", "wikidata": "Q2947539"}}, {"type": "way", "id": 400782868, "nodes": [4032952271, 11416159859, 7728046169, 11416176636, 11374474057, 7237595276, 11416176599, 4032952266, 11416176593, 11416176596, 11416176621, 4032952274, 11374486400, 7728046170, 7728046171, 7728046172, 7728046173, 7728046174, 4032952287, 10693842130, 7728046134, 7728046137, 10693842141, 10693842138, 7728046138, 7728046141, 10292285858, 10292285859, 7728046142, 7728046184, 7728046183, 7728046182, 7728046181, 7728046180, 7728046179, 10292285841, 10292285843, 7728046175, 7728046176, 7728046177, 10292285842, 4032952283, 9371812429, 7728046049, 7728046048, 9371193670, 7728046168, 4032961989, 10292285810, 7728046186, 7728046187, 7728058582, 7728046188, 10693842140, 7728046165, 7728046189, 7728046190, 11416159860, 7728046191, 4032952259, 7728046192, 7728046193, 11416159861, 4032952260, 7728046155, 4032952271], "tags": {"leisure": "park"}}, {"type": "way", "id": 538080002, "nodes": [7706733771, 10315959486, 1251959556, 10315971148, 10315971149, 10315971147, 10315971146, 10315971145, 10315971144, 10315971143, 10315971142, 10315971150, 10315971151, 10315971152, 10315971153, 10315971154, 10315971155, 10315971157, 10315971170, 10315971156, 10315971158, 10315971159, 10315971160, 4206997147, 10315971161, 10315971162, 10315971163, 10315971164, 10315971066, 10315971074, 10315971075, 10315971076, 10315971077, 10315971073, 10168364245, 10315971189, 10315971065, 5209054495, 5209054508, 5209054506, 5209054500, 5209054498, 5209054509, 5209054497, 5209054504, 10315971264, 7706983307, 10315971257, 7706733771], "tags": {"addr:city": "New York", "addr:housenumber": "2", "addr:postcode": "10006", "addr:state": "NY", "addr:street": "Edgar Street", "leisure": "park", "name": "Elizabeth H. Berger Plaza", "operator": "New York City Department of Parks and Recreation", "operator:short": "NYC Parks", "operator:type": "public", "operator:wikidata": "Q1894232", "website": "https://www.nycgovparks.org/planning-and-building/capital-project-tracker/project/5994", "wikidata": "Q24192795", "wikipedia": "en:Elizabeth H. Berger Plaza"}}, {"type": "way", "id": 975290222, "nodes": [2824829036, 2824829092, 9025308626, 2824828301, 9025308623, 2824829049, 12343164637, 2824829036], "tags": {"addr:housenumber": "79", "addr:postcode": "10004", "addr:street": "Pearl Street", "amenity": "restaurant", "atm": "yes", "bar": "yes", "brewery": "yes", "check_date": "2023-04-04", "cuisine": "american;barbecue", "diet:gluten_free": "yes", "diet:vegan": "yes", "diet:vegetarian": "yes", "internet_access": "wlan", "internet_access:fee": "customers", "level": "0", "name": "Route 66 Smokehouse", "opening_hours": "Su-We 11:00-22:00; Th-Sa 11:00-23:00", "outdoor_seating": "yes", "phone": "+12129431602", "website": "https://www.route66smokehouse.com/", "wheelchair": "no"}}, {"type": "way", "id": 975290224, "nodes": [2824829234, 12339677014, 2824829239, 3738776600, 9025308625, 2824829212, 2824829206, 11040350793, 2824829234], "tags": {"addr:city": "New York", "addr:housenumber": "45", "addr:postcode": "10004", "addr:state": "NY", "addr:street": "Stone Street", "amenity": "bar", "name": "Havana Social", "theme": "irish"}}, {"type": "way", "id": 1186021650, "nodes": [11016298815, 11016298816, 11016298817, 11016298818, 11016298819, 11016298820, 11016298821, 11016298822, 11016298823, 11016298824, 11016298825, 11016298826, 11016298827, 11016298828, 11016298829, 11016298830, 11016298831, 11016298832, 11016298833, 11016298815], "tags": {"addr:city": "New York", "addr:state": "NY", "amenity": "cafe", "building": "yes", "name": "Pixie Scout Canteen", "outdoor_seating": "yes", "seasonal": "yes", "website": "https://www.pixiescout.com/canteen"}}]}