{"version": 0.6, "generator": "Overpass API 0.7.62.8 e802775f", "osm3s": {"timestamp_osm_base": "2025-12-01T16:37:13Z", "copyright": "The data included in this document is from www.openstreetmap.org. The data is made available under ODbL."}, "elements": [{"type": "node", "id": 357579360, "lat": 40.7849967, "lon": -73.9502957, "tags": {"addr:housenumber": "1700", "addr:postcode": "10128", "addr:street": "3rd Avenue", "alt_name": "Isidor & Ida Strauss School", "amenity": "school", "contact:instagram": "https://www.instagram.com/ps198m", "contact:twitter": "https://twitter.com/ps198m", "ele": "16", "fax": "+1 212-410-1731", "gnis:feature_id": "961488", "name": "Public School 198", "phone": "+1 212-289-3702", "short_name": "PS 198", "website": "https://www.ps198m.org"}}, {"type": "node", "id": 357581052, "lat": 40.7851696, "lon": -73.9499962, "tags": {"amenity": "school", "ele": "19", "gnis:feature_id": "961888", "name": "Public School 86"}}, {"type": "node", "id": 357621600, "lat": 40.7847222, "lon": -73.95, "tags": {"amenity": "school", "ele": "15", "gnis:feature_id": "2083945", "name": "Public School 77"}}, {"type": "node", "id": 357648600, "lat": 40.7836269, "lon": -73.9522654, "tags": {"amenity": "school", "ele": "27", "gnis:feature_id": "2493092", "name": "Public School M333 Manhattan School for Children"}}, {"type": "node", "id": 2339993119, "lat": 40.7883305, "lon": -73.9477757}, {"type": "node", "id": 2339993120, "lat": 40.7884284, "lon": -73.9480088}, {"type": "node", "id": 2339993121, "lat": 40.7885496, "lon": -73.9476131}, {"type": "node", "id": 2339993122, "lat": 40.7886491, "lon": -73.94785}, {"type": "node", "id": 2339994466, "lat": 40.7876139, "lon": -73.9473482}, {"type": "node", "id": 2339994472, "lat": 40.7873512, "lon": -73.9467037}, {"type": "node", "id": 2339994474, "lat": 40.7871478, "lon": -73.947686}, {"type": "node", "id": 2339994476, "lat": 40.7868752, "lon": -73.9470503}, {"type": "node", "id": 2357937268, "lat": 40.7859465, "lon": -73.9507027, "tags": {"addr:city": "New York", "addr:country": "US", "addr:housenumber": "1491", "addr:postcode": "10029", "addr:state": "NY", "addr:street": "Lexington Avenue", "amenity": "cafe", "branch": "96th & Lexington", "brand": "Starbucks", "brand:wikidata": "Q37158", "cuisine": "coffee_shop", "diet:vegan": "yes", "drink:soy_milk": "yes", "internet_access": "wlan", "name": "Starbucks", "official_name": "Starbucks Coffee", "opening_hours": "Mo-Fr 05:00-21:30; Sa, Su 06:00-20:30", "phone": "+1 212-369-0313", "takeaway": "yes", "toilets": "no", "website": "https://www.starbucks.com/store-locator/store/19114/96th-lexington-1491-lexington-avenue-new-york-ny-100297307-us"}}, {"type": "node", "id": 2724130504, "lat": 40.7830915, "lon": -73.950658}, {"type": "node", "id": 2724133132, "lat": 40.7833717, "lon": -73.947522}, {"type": "node", "id": 2724147097, "lat": 40.785681, "lon": -73.9499015}, {"type": "node", "id": 2724147106, "lat": 40.7857381, "lon": -73.9498595}, {"type": "node", "id": 2724147108, "lat": 40.7857724, "lon": -73.9498119}, {"type": "node", "id": 2724147256, "lat": 40.7862498, "lon": -73.951466}, {"type": "node", "id": 2724147263, "lat": 40.7862786, "lon": -73.9515346}, {"type": "node", "id": 2724147273, "lat": 40.7863334, "lon": -73.9514948}, {"type": "node", "id": 2724147331, "lat": 40.7864873, "lon": -73.9512933}, {"type": "node", "id": 2724147342, "lat": 40.7865161, "lon": -73.9513619}, {"type": "node", "id": 2724149764, "lat": 40.7859503, "lon": -73.9501201}, {"type": "node", "id": 2724279741, "lat": 40.7854506, "lon": -73.9537693}, {"type": "node", "id": 2724279879, "lat": 40.7856892, "lon": -73.954329}, {"type": "node", "id": 2724279907, "lat": 40.7858649, "lon": -73.9547443}, {"type": "node", "id": 2724280020, "lat": 40.7859199, "lon": -73.9549277}, {"type": "node", "id": 2724280022, "lat": 40.7859207, "lon": -73.9549185}, {"type": "node", "id": 2724280023, "lat": 40.7859213, "lon": -73.9549367}, {"type": "node", "id": 2724280025, "lat": 40.7859237, "lon": -73.9549101}, {"type": "node", "id": 2724280027, "lat": 40.7859248, "lon": -73.9549448}, {"type": "node", "id": 2724280030, "lat": 40.7859286, "lon": -73.9549034}, {"type": "node", "id": 2724280032, "lat": 40.78593, "lon": -73.954951}, {"type": "node", "id": 2724280035, "lat": 40.7859327, "lon": -73.9534178}, {"type": "node", "id": 2724280038, "lat": 40.7859364, "lon": -73.9549547}, {"type": "node", "id": 2724280042, "lat": 40.7859452, "lon": -73.9549552}, {"type": "node", "id": 2724280047, "lat": 40.7859534, "lon": -73.9549515}, {"type": "node", "id": 2724280112, "lat": 40.7861687, "lon": -73.9539788}, {"type": "node", "id": 2724280123, "lat": 40.786347, "lon": -73.9543957}, {"type": "node", "id": 2724280172, "lat": 40.7864131, "lon": -73.9545562}, {"type": "node", "id": 2724280177, "lat": 40.7864182, "lon": -73.9545568}, {"type": "node", "id": 2724280179, "lat": 40.7864231, "lon": -73.9545588}, {"type": "node", "id": 2724280181, "lat": 40.7864239, "lon": -73.9546063}, {"type": "node", "id": 2724280183, "lat": 40.7864287, "lon": -73.954564}, {"type": "node", "id": 2724280185, "lat": 40.7864297, "lon": -73.9546001}, {"type": "node", "id": 2724280187, "lat": 40.7864326, "lon": -73.9545714}, {"type": "node", "id": 2724280189, "lat": 40.786434, "lon": -73.954589}, {"type": "node", "id": 2724280191, "lat": 40.7864344, "lon": -73.95458}, {"type": "node", "id": 2724283926, "lat": 40.7873253, "lon": -73.9538938, "tags": {"addr:housenumber": "1381", "addr:postcode": "10029", "addr:street": "Madison Avenue", "amenity": "cafe", "check_date": "2025-07-27", "name": "Daily Provisions", "opening_hours": "Mo-Su 07:00-21:00", "outdoor_seating": "yes"}}, {"type": "node", "id": 3589024668, "lat": 40.7872731, "lon": -73.9517102, "tags": {"addr:housenumber": "1257", "addr:postcode": "10029", "addr:street": "Park Avenue", "amenity": "restaurant", "cuisine": "caribbean", "delivery": "yes", "level": "0", "name": "T & J Jamaican Flava", "opening_hours": "06:00-20:00", "phone": "+1 212-860-8603", "takeaway": "yes"}}, {"type": "node", "id": 3589024921, "lat": 40.7870128, "lon": -73.9521098}, {"type": "node", "id": 3589024922, "lat": 40.7870862, "lon": -73.9522838}, {"type": "node", "id": 3589024923, "lat": 40.7871286, "lon": -73.9520286}, {"type": "node", "id": 3589024924, "lat": 40.7871991, "lon": -73.9521981}, {"type": "node", "id": 3590689281, "lat": 40.7839008, "lon": -73.950022, "tags": {"addr:housenumber": "1679", "addr:postcode": "10128", "addr:street": "3rd Avenue", "amenity": "restaurant", "cocktails": "yes", "delivery": "yes", "drink:beer": "yes", "drink:wine": "yes", "happy_hours": "Mo-Fr 12:00-20:00", "name": "The District Bar & Restaurant", "opening_hours": "Mo-Fr 11:00-04:00; Sa, Su 10:00-04:00", "opening_hours:kitchen": "Mo-We 11:00-23:00; Th, Fr 11:00-24:00; Sa 10:00-24:00; Su 10:00-23:00", "outdoor_seating": "yes", "phone": "+1 212-289-2005", "website": "http://thedistrictbarnyc.com"}}, {"type": "node", "id": 4133854273, "lat": 40.7879358, "lon": -73.9534358, "tags": {"addr:housenumber": "1399", "addr:street": "Madison Avenue", "amenity": "cafe", "brand": "Le Pain Quotidien", "brand:wikidata": "Q2046903", "check_date": "2025-07-27", "cuisine": "coffee_shop", "indoor_seating": "yes", "internet_access": "wlan", "name": "Le Pain Quotidien", "opening_hours": "Mo-Fr 07:00-18:00; Sa, Su 08:00-17:00", "outdoor_seating": "yes", "phone": "+16466633149", "takeaway": "yes", "website": "https://www.lepainquotidien.com/us/en/locations/97th_&_Madison/1399-Madison-Ave"}}, {"type": "node", "id": 4757891123, "lat": 40.7873339, "lon": -73.9516565, "tags": {"addr:housenumber": "1259", "addr:postcode": "10029", "addr:street": "Park Avenue", "amenity": "bar", "check_date": "2025-07-16", "cuisine": "sandwich", "drink:beer": "draught;canned", "name": "Earl's Beer & Cheese", "opening_hours": "Tu-Su 16:00-00:00", "phone": "+1 212-289-1581", "takeaway": "yes", "website": "https://www.earlsny.com"}}, {"type": "node", "id": 5501633021, "lat": 40.7840697, "lon": -73.9503873, "tags": {"addr:housenumber": "1678", "addr:street": "3rd Avenue", "amenity": "restaurant", "branch": "UES", "cocktails": "yes", "cuisine": "american", "delivery": "yes", "name": "Barking Dog", "opening_hours": "Mo-Su 08:00-22:00", "outdoor_seating": "yes", "phone": "+1 212-831-1800", "website": "https://www.barkingdognyc.com/location/barking-dog-e-94/"}}, {"type": "node", "id": 5588989245, "lat": 40.7873895, "lon": -73.9482837, "tags": {"addr:housenumber": "173", "addr:postcode": "10029", "addr:street": "East 99th Street", "amenity": "restaurant", "catering": "yes", "cocktails": "yes", "cuisine": "thai", "delivery": "yes", "diet:gluten_free": "yes", "diet:non-vegetarian": "yes", "diet:vegan": "yes", "diet:vegetarian": "yes", "drink:beer": "yes", "drink:sake": "yes", "drink:wine": "yes", "facebook": "https://www.facebook.com/profile.php?id=100063770941555", "instagram": "mrs.anthai", "name": "Mrs. An Thai", "opening_hours": "Mo-Su 10:30-23:00", "phone": "+1-212-933-9988", "takeaway": "yes", "twitter": "mrsanthai", "website": "https://www.mrsanthainyc.com"}}, {"type": "node", "id": 5672759305, "lat": 40.7873686, "lon": -73.9527035, "tags": {"addr:housenumber": "64", "addr:postcode": "10029", "addr:street": "East 97th Street", "amenity": "restaurant", "cocktails": "yes", "cuisine": "mexican", "delivery": "yes", "dish": "tacos", "drink:beer": "yes", "drink:wine": "yes", "happy_hours": "Mo-Fr 15:00-18:00", "name": "El Paso Taqueria", "opening_hours": "Mo-Su 09:30-23:00", "payment:american_express": "yes", "payment:cash": "yes", "payment:mastercard": "yes", "payment:visa": "yes", "phone": "+1-212-996-1739", "takeaway": "yes"}}, {"type": "node", "id": 5672782246, "lat": 40.7874897, "lon": -73.953786, "tags": {"addr:housenumber": "1389", "addr:postcode": "10029", "addr:street": "Madison Avenue", "amenity": "cafe", "check_date": "2025-07-16", "contact:facebook": "https://www.facebook.com/champignoncafe", "cuisine": "sandwich;breakfast;coffee_shop", "delivery": "yes", "email": "catering@champignoncafe.com", "fax": "+1 212-987-1701", "indoor_seating": "yes", "name": "Champignon Caf\u00e9", "opening_hours": "Mo-Fr 07:00-21:00; Sa, Su 07:00-19:00", "outdoor_seating": "no", "phone": "+1 212-987-1700", "seats": "14", "takeaway": "yes", "website": "https://www.champignoncafe.com"}}, {"type": "node", "id": 5672860212, "lat": 40.7876673, "lon": -73.954025, "tags": {"addr:housenumber": "1392", "addr:postcode": "10029", "addr:street": "Madison Avenue", "amenity": "cafe", "branch": "Eastside", "check_date": "2025-07-27", "cocktails": "yes", "cuisine": "italian", "delivery": "yes", "drink:beer": "yes", "drink:wine": "yes", "indoor_seating": "yes", "name": "Da Capo Aperitivo e Caffe", "opening_hours": "Mo-Th, Su 07:00-22:00; Sa, Su 08:00-20:00", "outdoor_seating": "yes", "phone": "+1 646-707-0684", "website": "https://www.dacaponyc.com/#1392madisonavenyc-section"}}, {"type": "node", "id": 5721493494, "lat": 40.7866636, "lon": -73.9501801, "tags": {"addr:housenumber": "1505", "addr:postcode": "10029", "addr:street": "Lexington Avenue", "amenity": "restaurant", "check_date": "2025-07-16", "cuisine": "mexican", "delivery": "yes", "drink:beer": "served", "drink:coffee": "yes", "drink:tea": "yes", "level": "0", "name": "El Tepeyac Taqueria", "opening_hours": "Mo-Su 08:00-23:00", "payment:american_express": "yes", "payment:discover_card": "yes", "payment:mastercard": "yes", "payment:visa": "yes", "phone": "+1 212-722-2020", "seats": "18", "takeaway": "yes", "toilets": "yes", "wheelchair": "yes"}}, {"type": "node", "id": 5780289848, "lat": 40.7834335, "lon": -73.9508414, "tags": {"addr:housenumber": "1662", "addr:postcode": "10128", "addr:street": "3rd Avenue", "amenity": "restaurant", "contact:instagram": "korali_estiatorio", "cuisine": "greek;seafood", "drink:wine": "yes", "email": "nyckorali@gmail.com", "name": "Korali Estiatorio", "opening_hours": "Mo-Su 11:30-21:30", "payment:american_express": "yes", "payment:mastercard": "yes", "payment:visa": "yes", "phone": "+1 646-964-5470", "website": "https://www.nyckorali.com/"}}, {"type": "node", "id": 5780292853, "lat": 40.7835485, "lon": -73.950757, "tags": {"addr:housenumber": "1666", "addr:street": "3rd Avenue", "amenity": "restaurant", "cocktails": "yes", "cuisine": "sushi", "drink:beer": "yes", "fax": "+1 212-828-5425", "name": "Isohama", "opening_hours": "Mo-Th, Su 12:00-15:30, 17:00-23:00; Fr, Sa 12:00-15:30, 17:00-23:30", "phone": "+1 212-828-0099", "website": "https://www.isohama.com/"}}, {"type": "node", "id": 5873568860, "lat": 40.7834917, "lon": -73.9528749, "tags": {"addr:housenumber": "1402", "addr:postcode": "10128", "addr:street": "Lexington Avenue", "amenity": "restaurant", "contact:email": "eat@sfogliarestaurant.com", "contact:facebook": "SfogliaRestaurant", "contact:instagram": "sfoglianyc", "contact:phone": "+1 212-831-1402", "contact:website": "https://www.sfogliarestaurant.com", "cuisine": "italian", "level": "0", "name": "Sfoglia", "opening_hours": "Mo, Su 17:30-21:30; Tu-Sa 17:30-22:00", "reservation": "yes"}}, {"type": "node", "id": 6055311151, "lat": 40.7883648, "lon": -73.9535158, "tags": {"addr:housenumber": "1410", "addr:postcode": "10029", "addr:street": "Madison Avenue", "amenity": "restaurant", "check_date:opening_hours": "2025-08-25", "cocktails": "yes", "cuisine": "mexican", "delivery": "yes", "drink:wine": "yes", "email": "info@treotto.com", "name": "Conmigo", "opening_hours": "Mo-Su 11:00-22:00", "phone": "+1 212-368-1684", "reservation": "yes", "website": "https://www.visual.menu/conmigo-madison/menu/brunch?category=Brunch%20Cocktails"}}, {"type": "node", "id": 6145823789, "lat": 40.7862986, "lon": -73.9515532, "tags": {"addr:housenumber": "119", "addr:postcode": "10128", "addr:street": "East 96th Street", "amenity": "restaurant", "cuisine": "italian", "delivery": "yes", "dish": "pizza", "email": "littleluzzos@gmail.com", "name": "Little Luzzo's", "opening_hours": "Mo-Fr 10:00-23:00; Sa 10:30-23:00; Su 11:30-22:00", "phone": "+1 212-369-2300", "website": "https://www.littleluzzos.com"}}, {"type": "node", "id": 6220974403, "lat": 40.783412, "lon": -73.9474709, "tags": {"access": "yes", "addr:housenumber": "1838", "addr:street": "2nd Avenue", "entrance": "yes"}}, {"type": "node", "id": 6220974406, "lat": 40.7833899, "lon": -73.9473788}, {"type": "node", "id": 6220974407, "lat": 40.783416, "lon": -73.9474406}, {"type": "node", "id": 6220974408, "lat": 40.7834088, "lon": -73.9474949}, {"type": "node", "id": 6220974409, "lat": 40.7833294, "lon": -73.9474214}, {"type": "node", "id": 6221717771, "lat": 40.7859248, "lon": -73.9498839}, {"type": "node", "id": 6221717885, "lat": 40.7858667, "lon": -73.9499271}, {"type": "node", "id": 6221717900, "lat": 40.7857662, "lon": -73.9497977}, {"type": "node", "id": 6221717911, "lat": 40.7858586, "lon": -73.9497304}, {"type": "node", "id": 6221717916, "lat": 40.7857798, "lon": -73.9498291}, {"type": "node", "id": 6221717928, "lat": 40.7856257, "lon": -73.9499421}, {"type": "node", "id": 6221717941, "lat": 40.7857602, "lon": -73.9502575}, {"type": "node", "id": 6223880813, "lat": 40.783058, "lon": -73.9506827, "tags": {"access": "yes", "addr:housenumber": "1659", "addr:street": "3rd Avenue", "entrance": "main", "wheelchair": "yes"}}, {"type": "node", "id": 6223880827, "lat": 40.7830186, "lon": -73.9504849}, {"type": "node", "id": 6223880835, "lat": 40.7829555, "lon": -73.9505334}, {"type": "node", "id": 6223880840, "lat": 40.7830283, "lon": -73.9507031}, {"type": "node", "id": 6254816613, "lat": 40.7866622, "lon": -73.9524332}, {"type": "node", "id": 6254816655, "lat": 40.7866931, "lon": -73.9525032}, {"type": "node", "id": 6270649485, "lat": 40.7871321, "lon": -73.9544023, "tags": {"addr:city": "New York", "addr:housenumber": "1378", "addr:postcode": "10128", "addr:state": "NY", "addr:street": "Madison Avenue", "amenity": "cafe", "branch": "96th & Madison", "brand": "Starbucks", "brand:wikidata": "Q37158", "check_date": "2025-07-16", "cuisine": "coffee_shop", "indoor_seating": "yes", "name": "Starbucks", "official_name": "Starbucks Coffee", "opening_hours": "05:00-21:30", "outdoor_seating": "no", "phone": "+1 212-534-7225", "takeaway": "yes", "website": "https://www.starbucks.com/store-locator/store/12003/96th-madison-1378-madison-avenue-new-york-ny-101280712-us"}}, {"type": "node", "id": 6680686138, "lat": 40.7847156, "lon": -73.9519426, "tags": {"name": "Inspir Senior Living Real Estate", "office": "estate_agent"}}, {"type": "node", "id": 6762609288, "lat": 40.7836113, "lon": -73.950714, "tags": {"addr:housenumber": "1668", "addr:postcode": "10128", "addr:street": "3rd Avenue", "amenity": "restaurant", "cuisine": "sandwich", "delivery": "yes", "name": "Fillmore Delicatessen", "opening_hours": "Mo-Fr 07:30-22:30; Sa, Su 09:00-22:30", "outdoor_seating": "yes", "phone": "+1 646-912-9488", "takeaway": "yes", "website": "http://fillmoredeli.com"}}, {"type": "node", "id": 6781789416, "lat": 40.7836719, "lon": -73.9506652, "tags": {"addr:housenumber": "1670", "addr:street": "3rd Avenue", "amenity": "restaurant", "cuisine": "italian", "delivery": "yes", "dish": "pizza", "name": "La Vita Pizza", "phone": "+1 212-722-7600", "takeaway": "yes"}}, {"type": "node", "id": 6807706733, "lat": 40.7834971, "lon": -73.9507978, "tags": {"addr:housenumber": "1664", "addr:postcode": "10128", "addr:street": "3rd Avenue", "amenity": "bar", "contact:instagram": "loveoldecity", "cuisine": "sandwich", "drink:beer": "served", "happy_hours": "Mo-Fr 15:00-20:00", "level": "0", "name": "Olde City", "wheelchair": "yes"}}, {"type": "node", "id": 7239728455, "lat": 40.7880551, "lon": -73.9537505, "tags": {"addr:housenumber": "1400", "addr:postcode": "10029", "addr:street": "Madison Avenue", "amenity": "cafe", "brand": "Joe & The Juice", "brand:wikidata": "Q26221514", "check_date": "2025-07-16", "cuisine": "coffee_shop", "drink:coffee": "yes", "indoor_seating": "yes", "name": "Joe & The Juice", "opening_hours": "Mo 07:30-19:00; Tu-Fr 07:00-19:00; Sa, Su 08:00-19:00", "outdoor_seating": "no", "takeaway": "yes", "website": "https://www.joejuice.com/stores?location=Y2876xbNJA"}}, {"type": "node", "id": 8197484224, "lat": 40.7834235, "lon": -73.947941, "tags": {"addr:housenumber": "1827", "addr:postcode": "10128", "addr:street": "2nd Avenue", "amenity": "restaurant", "branch": "Upper East Side", "cuisine": "pizza;italian", "delivery": "yes", "instagram": "enzobrunipizzagourmet", "name": "Enzo Bruni La Pizza Gourmet", "opening_hours": "Mo-Sa 11:00-23:00; Su 11:00-22:00", "outdoor_seating": "yes", "phone": "+1-917-675-6867", "reservation": "yes", "takeaway": "yes", "website": "https://enzobrunigourmet.com/"}}, {"type": "node", "id": 8284627179, "lat": 40.7832576, "lon": -73.9475535, "tags": {"addr:city": "New York", "addr:housenumber": "1834", "addr:postcode": "10128", "addr:state": "NY", "addr:street": "2nd Avenue", "amenity": "cafe", "contact:email": "madamebontecafe@gmail.com", "contact:facebook": "madamebonte", "contact:instagram": "madamebonte", "contact:phone": "+1-212-722-1122", "contact:website": "https://www.madamebonte.com/", "cuisine": "coffee_shop", "drink:coffee": "yes", "level": "0", "name": "Madame Bont\u00e9 Caf\u00e9", "opening_hours": "Mo-Su 07:00-17:00"}}, {"type": "node", "id": 8284627180, "lat": 40.7831068, "lon": -73.9481432, "tags": {"addr:housenumber": "1817", "addr:postcode": "10128", "addr:street": "2nd Avenue", "amenity": "restaurant", "cuisine": "chinese;sichuan", "delivery": "yes", "level": "0", "name": "A-Jiao Sichuan Cuisine", "opening_hours": "Mo-Su 11:00-22:00", "payment:american_express": "yes", "payment:cash": "yes", "payment:discover_card": "yes", "payment:mastercard": "yes", "payment:visa": "yes", "phone": "+1 212-828-8996", "seats": "44", "takeaway": "yes", "website": "https://www.ajiaosichuancuisine.com/", "wheelchair": "yes"}}, {"type": "node", "id": 8789936622, "lat": 40.7874667, "lon": -73.9469871}, {"type": "node", "id": 8974574626, "lat": 40.7836736, "lon": -73.9523572, "tags": {"addr:housenumber": "1417", "addr:postcode": "10128", "addr:street": "Lexington Avenue", "amenity": "cafe", "contact:email": "contact@breadnwine.net", "contact:facebook": "breadnwinestore", "contact:instagram": "breadnwinestore", "contact:phone": "+1 646-861-0070", "contact:twitter": "breadnwinestore", "cuisine": "sandwich", "delivery": "yes", "drink:beer": "bottled", "drink:wine": "served", "happy_hours": "12:00-21:00", "level": "0", "name": "Bread N Wine", "opening_hours": "Mo-Th 08:00-23:00; Fr-Su 08:00-23:30", "opening_hours:kitchen": "10:00-22:00", "takeaway": "yes", "website": "https://www.breadnwine.net"}}, {"type": "node", "id": 9089315805, "lat": 40.7841141, "lon": -73.9523871, "tags": {"addr:housenumber": "1426", "addr:postcode": "10128", "addr:street": "Lexington Avenue", "amenity": "restaurant", "cuisine": "italian", "delivery": "yes", "dish": "pizza", "name": "LaRustica", "opening_hours": "Su-We 11:00-02:00; Th-Sa 11:00-04:00", "phone": "+1 212-860-3822", "takeaway": "yes", "website": "https://www.orderlarusticapizza.com"}}, {"type": "node", "id": 9096924103, "lat": 40.7873089, "lon": -73.9539077, "tags": {"addr:housenumber": "1381", "addr:street": "Madison Avenue", "amenity": "restaurant"}}, {"type": "node", "id": 9287217315, "lat": 40.7837376, "lon": -73.9506306, "tags": {"addr:housenumber": "1672", "addr:street": "3rd Avenue", "amenity": "bar", "cuisine": "pub", "email": "info@eastendbar.com", "facebook": "eastendnyc", "name": "East End Bar & Grill", "phone": "+1 212-348-3783", "website": "http://eastendbar.com"}}, {"type": "node", "id": 9590309771, "lat": 40.7870041, "lon": -73.9540362, "tags": {"addr:city": "New York", "addr:housenumber": "50", "addr:postcode": "10128", "addr:state": "NY", "addr:street": "East 96th Street", "amenity": "cafe", "check_date": "2025-07-16", "contact:instagram": "grabsteinsbagels", "cuisine": "bagel", "delivery": "yes", "indoor_seating": "yes", "name": "Grabstein's Bagels", "opening_hours": "Mo-Su 07:00-17:00", "outdoor_seating": "yes", "payment:cash": "yes", "payment:contactless": "yes", "payment:credit_cards": "yes", "payment:debit_cards": "yes", "takeaway": "yes", "website": "https://grabsteinsbagels.square.site/"}}, {"type": "node", "id": 9719202412, "lat": 40.7873564, "lon": -73.9516331, "tags": {"addr:housenumber": "1259", "addr:postcode": "10029", "addr:street": "Park Avenue", "amenity": "bar", "cocktails": "yes", "level": "0", "name": "The Guthrie Inn"}}, {"type": "node", "id": 9719216591, "lat": 40.78739, "lon": -73.9516174, "tags": {"addr:housenumber": "1261", "addr:postcode": "10029", "addr:street": "Park Avenue", "amenity": "restaurant", "contact:facebook": "OCUISINENYC", "contact:instagram": "ocuisinenyc", "delivery": "no", "email": "inquiry@ocuisine.nyc", "level": "0", "name": "O Cuisine", "phone": "+1 212-731-9708", "reservation": "required", "takeaway": "no", "website": "http://ocuisine.nyc"}}, {"type": "node", "id": 9908595363, "lat": 40.7867032, "lon": -73.9505047, "tags": {"addr:housenumber": "1504", "addr:postcode": "10029", "addr:street": "Lexington Avenue", "amenity": "pub", "cocktails": "yes", "contact:instagram": "lexingtonpublicknyc", "drink:beer": "draught; bottled", "drink:wine": "served", "email": "LexingtonPublickNYC@gmail.com", "happy_hours": "Mo-Fr 16:00-19:00", "internet_access": "wlan", "name": "Lexington Publick", "opening_hours": "Mo-Th, Sa, Su 16:00-02:00; Fr 14:00-02:00", "phone": "+1 646-799-9494", "website": "https://www.lexingtonpublicknyc.com/"}}, {"type": "node", "id": 10179234747, "lat": 40.7830092, "lon": -73.951819, "tags": {"addr:city": "New York", "addr:housenumber": "163", "addr:postcode": "10128", "addr:state": "NY", "addr:street": "East 92nd Street", "amenity": "cafe", "name": "La Librairie des Enfants Caf\u00e9", "outdoor_seating": "yes"}}, {"type": "node", "id": 10844410470, "lat": 40.7850355, "lon": -73.951709, "tags": {"addr:housenumber": "1466", "addr:street": "Lexington Avenue", "amenity": "cafe", "branch": "Carnegie Hill", "brand": "Matto Espresso", "brand:wikidata": "Q122209496", "cuisine": "coffee_shop", "name": "Matto Espresso", "opening_hours": "Mo-Fr 06:30-18:00; Sa, Su 07:00-18:00", "phone": "+1 347-882-8000", "takeaway": "yes", "website": "https://www.matto.com/"}}, {"type": "node", "id": 10983217449, "lat": 40.7868776, "lon": -73.9499982, "tags": {"addr:housenumber": "1513", "addr:street": "Lexington Avenue", "amenity": "restaurant", "check_date": "2025-07-16", "cuisine": "sushi", "level": "0", "name": "Sushi W", "payment:cash": "yes", "payment:credit_cards": "yes", "payment:debit_cards": "yes", "reservation": "yes", "wheelchair": "yes"}}, {"type": "node", "id": 11281910246, "lat": 40.7843648, "lon": -73.95221, "tags": {"addr:housenumber": "1436", "addr:postcode": "10128", "addr:street": "Lexington Avenue", "amenity": "restaurant", "cuisine": "crepe", "drink:beer": "canned", "drink:wine": "served", "level": "0", "name": "Bonjour Mixeur", "opening_hours": "Mo-Fr 08:00-21:00; Sa, Su 09:00-21:00", "phone": "+1 212-933-4626", "website": "https://www.bonjourmixeur.com/", "wheelchair": "yes"}}, {"type": "node", "id": 11450728435, "lat": 40.7830689, "lon": -73.9511138, "tags": {"addr:housenumber": "1654", "addr:street": "3rd Avenue", "amenity": "cafe", "level": "0", "name": "Increpeable", "opening_hours": "Mo-Th 11:00-18:00; Fr, Su 11:00-17:00", "wheelchair": "yes"}}, {"type": "node", "id": 11538333631, "lat": 40.7833661, "lon": -73.947979, "tags": {"addr:housenumber": "1825", "addr:street": "2nd Avenue", "amenity": "restaurant", "cocktails": "yes", "contact:instagram": "soledad_nyc", "cuisine": "mexican", "level": "0", "name": "Soledad", "website": "https://soledadnyc.com/"}}, {"type": "node", "id": 12605079806, "lat": 40.7866046, "lon": -73.9510344, "tags": {"amenity": "school", "grades": "9-12", "mascot": "Bears", "name": "Cathedral High School"}}, {"type": "node", "id": 12616824465, "lat": 40.785411, "lon": -73.953675}, {"type": "node", "id": 12616824466, "lat": 40.7859029, "lon": -73.9533304}, {"type": "way", "id": 225188879, "nodes": [2339993121, 2339993119, 2339993120, 2339993122, 2339993121], "tags": {"gnis:feature_id": "2500962", "leisure": "park", "name": "Sunshine Playground"}}, {"type": "way", "id": 225188968, "nodes": [2339994472, 8789936622, 2339994466, 2339994474, 2339994476, 2339994472], "tags": {"leisure": "park", "name": "Cherry Tree Park", "opening_hours": "Mar 2-Oct 31 06:00-21:00; Nov 1-Mar 1 06:00-18:00"}}, {"type": "way", "id": 266923307, "nodes": [2724147256, 2724147263, 2724147273, 2724147342, 2724147331, 2724147256], "tags": {"addr:housenumber": "135", "addr:postcode": "10128", "addr:street": "East 96th Street", "building": "yes", "height": "20.8", "nycdoitt:bin": "1051698", "office": "parish", "phone": "+1 212-289-0425"}}, {"type": "way", "id": 353133685, "nodes": [3589024922, 3589024924, 3589024923, 3589024921, 6254816613, 6254816655, 3589024922], "tags": {"leisure": "park", "name": "Park Avenue Malls", "ref": "M060C", "website": "https://www.nycgovparks.org/parks/park-avenue-malls-m060c"}}, {"type": "way", "id": 664619106, "nodes": [6220974406, 6220974407, 6220974403, 6220974408, 2724133132, 6220974409, 6220974406], "tags": {"addr:housenumber": "1838", "addr:postcode": "10128", "addr:street": "2nd Avenue", "amenity": "cafe", "cuisine": "frozen_yogurt", "delivery": "yes", "dog": "no", "level": "0", "name": "Go Cups", "opening_hours": "07:00-22:00", "payment:american_express": "yes", "payment:cash": "yes", "payment:mastercard": "yes", "payment:visa": "yes", "phone": "+1 212-289-2929", "seats": "9", "surveillance": "camera", "takeaway": "yes", "wheelchair": "yes"}}, {"type": "way", "id": 664697032, "nodes": [6221717928, 6221717941, 2724149764, 6221717885, 6221717771, 6221717911, 6221717900, 2724147108, 6221717916, 2724147106, 2724147097, 6221717928], "tags": {"access": "yes", "dog": "no", "ele": "13", "gnis:feature_id": "2083564", "leisure": "park", "lit": "yes", "name": "Monterey Public Garden", "opening_hours": "24/7", "operator": "Monterey 96 Street, LLC", "wikidata": "Q49527794"}}, {"type": "way", "id": 664941289, "nodes": [6223880827, 2724130504, 6223880813, 6223880840, 6223880835, 6223880827], "tags": {"addr:housenumber": "1659", "addr:postcode": "10128", "addr:street": "3rd Avenue", "amenity": "cafe", "cuisine": "bagel", "diet:gluten_free": "yes", "drink:coffee": "yes", "indoor_seating": "yes", "level": "0", "name": "Bagel Shop", "opening_hours": "07:00-16:00", "phone": "+1 212-860-2377", "seats": "16", "takeaway": "yes", "website": "https://bagelshopnyc.com/", "wheelchair": "yes"}}, {"type": "way", "id": 1362710307, "nodes": [2724279907, 2724279879, 2724279741, 12616824465, 12616824466, 2724280035, 2724280112, 2724280123, 2724280172, 2724280177, 2724280179, 2724280183, 2724280187, 2724280191, 2724280189, 2724280185, 2724280181, 2724280047, 2724280042, 2724280038, 2724280032, 2724280027, 2724280023, 2724280020, 2724280022, 2724280025, 2724280030, 2724279907], "tags": {"amenity": "school", "check_date": "2025-07-16", "ele": "32", "gnis:feature_id": "2083561", "mascot": "Hawks", "name": "Hunter College Campus Schools", "wikidata": "Q5944289", "wikipedia": "en:Hunter College High School"}}]}