{"version": 0.6, "generator": "Overpass API 0.7.62.8 e802775f", "osm3s": {"timestamp_osm_base": "2025-12-01T03:57:59Z", "copyright": "The data included in this document is from www.openstreetmap.org. The data is made available under ODbL."}, "elements": [{"type": "node", "id": 357635685, "lat": 40.6810299, "lon": -73.9225478}, {"type": "node", "id": 2568490186, "lat": 40.6789609, "lon": -73.9210474, "tags": {"name": "Star Security Training", "office": "security", "phone": "+1-718-773-5000"}}, {"type": "node", "id": 2568490561, "lat": 40.6798698, "lon": -73.9219263}, {"type": "node", "id": 2568490574, "lat": 40.6798966, "lon": -73.9216886}, {"type": "node", "id": 2568490580, "lat": 40.6799599, "lon": -73.9211281}, {"type": "node", "id": 2568490581, "lat": 40.6799859, "lon": -73.9208977}, {"type": "node", "id": 2568490621, "lat": 40.6804181, "lon": -73.9220357}, {"type": "node", "id": 2568490626, "lat": 40.680445, "lon": -73.9217979}, {"type": "node", "id": 2568490640, "lat": 40.6805081, "lon": -73.9212374}, {"type": "node", "id": 2568490642, "lat": 40.6805318, "lon": -73.9210272}, {"type": "node", "id": 2568505360, "lat": 40.6799302, "lon": -73.9227684}, {"type": "node", "id": 2568505373, "lat": 40.6799937, "lon": -73.9228627}, {"type": "node", "id": 4636498671, "lat": 40.6805389, "lon": -73.9209646}, {"type": "node", "id": 4636498672, "lat": 40.6799905, "lon": -73.920857}, {"type": "node", "id": 4636498673, "lat": 40.6800663, "lon": -73.9201953}, {"type": "node", "id": 4636498674, "lat": 40.6806137, "lon": -73.9203052}, {"type": "node", "id": 5026597723, "lat": 40.6793219, "lon": -73.9207997, "tags": {"addr:housenumber": "38", "addr:postcode": "10012", "amenity": "restaurant", "cuisine": "mediterranean", "name": "Hundred Acres", "phone": "+1-212-475-7500"}}, {"type": "node", "id": 6164899885, "lat": 40.6785298, "lon": -73.920186, "tags": {"addr:city": "Brooklyn", "addr:housenumber": "1958", "addr:postcode": "11233", "addr:state": "NY", "addr:street": "Fulton Street", "addr:unit": "400", "alt_name": "G.A.ME", "description": "G.A.ME uses Hip-Hop, art, and social justice programming to empower poor Black and Latino communities.", "email": "grassrootsgame@gmail.com", "name": "Grassroots Artists MovEment, Inc.", "office": "association", "opening_hours": "Mo-Fr 10:00-18:00", "phone": "+1-718-618-0533", "reservation": "yes", "website": "https://gamenyc.org/"}}, {"type": "node", "id": 8548168849, "lat": 40.6799019, "lon": -73.9216419}, {"type": "node", "id": 8548168850, "lat": 40.6799535, "lon": -73.9211843}, {"type": "node", "id": 8548168862, "lat": 40.6804117, "lon": -73.9220928}, {"type": "node", "id": 8548168863, "lat": 40.6798632, "lon": -73.9219852}, {"type": "node", "id": 8548168877, "lat": 40.6798999, "lon": -73.9226767}, {"type": "node", "id": 8548168878, "lat": 40.6798976, "lon": -73.9226343}, {"type": "node", "id": 8548168879, "lat": 40.6798976, "lon": -73.9225857}, {"type": "node", "id": 8548168880, "lat": 40.679923, "lon": -73.9223596}, {"type": "node", "id": 8548168882, "lat": 40.680985, "lon": -73.9229043}, {"type": "node", "id": 8548168883, "lat": 40.6809678, "lon": -73.9229681}, {"type": "node", "id": 8548168884, "lat": 40.6807906, "lon": -73.9231228}, {"type": "node", "id": 8548168885, "lat": 40.680076, "lon": -73.9229848}, {"type": "node", "id": 8548168886, "lat": 40.6799068, "lon": -73.9227116}, {"type": "node", "id": 8548168887, "lat": 40.6799299, "lon": -73.9223156}, {"type": "node", "id": 10764452105, "lat": 40.6762522, "lon": -73.9220421, "tags": {"addr:housenumber": "372", "addr:postcode": "11233", "addr:street": "Ralph Avenue", "amenity": "restaurant", "cuisine": "american", "name": "Xcellent Soul Food"}}, {"type": "node", "id": 11943373178, "lat": 40.6791887, "lon": -73.9213687, "tags": {"name": "ABC Real Estate Services", "office": "estate_agent"}}, {"type": "node", "id": 13095002407, "lat": 40.6788513, "lon": -73.9235328, "tags": {"name": "2i Income Tax & Insurance", "office": "tax_advisor", "phone": "+1-347-425-1969"}}, {"type": "node", "id": 13095002408, "lat": 40.6788908, "lon": -73.9242607, "tags": {"alt_name": "Pay-o-matic", "name": "Payomatic", "office": "financial", "opening_hours": "Mo 07:00-21:00, Tu-We 07:00-22:00, Th 06:00-22:00, Fr 06:00-23:00, Sa 08:00-22:00, Su 08:00-20:00", "phone": "+1-516-496-1970", "website": "https://www.payomatic.com/stores/ny/Brooklyn/1294-Fulton-St/125/"}}, {"type": "node", "id": 13306808670, "lat": 40.6809169, "lon": -73.9230125}, {"type": "node", "id": 13306808674, "lat": 40.680962, "lon": -73.9229731}, {"type": "node", "id": 13311676356, "lat": 40.6805654, "lon": -73.9207311}, {"type": "node", "id": 13311676359, "lat": 40.6803114, "lon": -73.9202445}, {"type": "way", "id": 469284212, "nodes": [4636498671, 4636498672, 4636498673, 13311676359, 4636498674, 13311676356, 4636498671], "tags": {"leisure": "park", "name": "Carver Playground", "name:etymology:wikidata": "Q296898", "operator": "New York City Department of Parks and Recreation", "operator:short": "NYC Parks", "operator:type": "government", "operator:wikidata": "Q1894232", "website": "https://www.nycgovparks.org/parks/carver-playground", "wikidata": "Q34814622"}}, {"type": "way", "id": 920659577, "nodes": [8548168863, 2568490561, 2568490574, 8548168849, 8548168850, 2568490580, 2568490581, 4636498672, 4636498671, 2568490642, 2568490640, 2568490626, 2568490621, 8548168862, 8548168863], "tags": {"addr:city": "Brooklyn", "addr:housenumber": "265", "addr:postcode": "11233", "addr:state": "NY", "addr:street": "Ralph Avenue", "alt_name": "Public School 40", "amenity": "school", "ele": "16", "gnis:feature_id": "961690", "name": "Public School 40 George W. Carver", "name:etymology": "George Washington Carver", "name:etymology:wikidata": "Q296898", "operator": "New York City Department of Education", "operator:short": "NYC Public Schools", "operator:type": "public", "operator:wikidata": "Q408230", "website": "https://www.schools.nyc.gov/schools/K040"}}, {"type": "way", "id": 920659582, "nodes": [357635685, 8548168882, 8548168883, 13306808674, 13306808670, 8548168884, 8548168885, 2568505373, 2568505360, 8548168886, 8548168877, 8548168878, 8548168879, 8548168880, 8548168887, 357635685], "tags": {"ele": "15", "gnis:feature_id": "2375397", "leisure": "park", "name": "Brevoort Playground", "operator": "New York City Department of Parks and Recreation", "operator:short": "NYC Parks", "operator:type": "government", "operator:wikidata": "Q1894232", "website": "https://www.nycgovparks.org/parks/brevoort-playground", "wikidata": "Q34810586"}}]}