{"version": 0.6, "generator": "Overpass API 0.7.62.8 e802775f", "osm3s": {"timestamp_osm_base": "2025-12-01T03:59:04Z", "copyright": "The data included in this document is from www.openstreetmap.org. The data is made available under ODbL."}, "elements": [{"type": "node", "id": 357580780, "lat": 40.7634348, "lon": -73.9795833, "tags": {"amenity": "school", "ele": "20", "gnis:feature_id": "961811", "name": "Public School 69"}}, {"type": "node", "id": 1147520797, "lat": 40.7649158, "lon": -73.9829157, "tags": {"addr:city": "New York", "addr:country": "US", "addr:housenumber": "240", "addr:postcode": "10019", "addr:state": "NY", "addr:street": "West 55th Street", "amenity": "pub", "name": "McGee's Pub & Restaurant", "opening_hours": "Mo-Su 11:00-02:00", "phone": "+12129573536", "website": "http://mcgeespub.com/", "wheelchair": "limited"}}, {"type": "node", "id": 1383954690, "lat": 40.7649496, "lon": -73.979109, "tags": {"amenity": "cafe", "brand": "Starbucks", "brand:wikidata": "Q37158", "check_date": "2011-08-03", "cuisine": "coffee_shop", "diet:vegan": "yes", "drink:soy_milk": "yes", "name": "Starbucks", "official_name": "Starbucks Coffee", "takeaway": "yes"}}, {"type": "node", "id": 1383955419, "lat": 40.7653848, "lon": -73.980359, "tags": {"addr:city": "New York", "addr:housenumber": "200", "addr:postcode": "10019", "addr:street": "West 57th Street", "amenity": "restaurant", "check_date": "2025-04-10", "cuisine": "sandwich; pizza", "name": "USA Brooklyn Delicatessen", "opening_hours": "Mo-Su 07:00-20:00"}}, {"type": "node", "id": 1487472478, "lat": 40.7607113, "lon": -73.9807687, "tags": {"addr:city": "New York", "addr:country": "US", "addr:housenumber": "120", "addr:postcode": "10020", "addr:state": "NY", "addr:street": "West 51st Street", "amenity": "restaurant", "name": "Capital Grille at Time-Life", "website": "https://www.thecapitalgrille.com/", "wheelchair": "yes"}}, {"type": "node", "id": 1487569052, "lat": 40.7640653, "lon": -73.9782577, "tags": {"addr:housenumber": "119", "addr:street": "56th Street", "amenity": "restaurant", "cuisine": "burger", "name": "Le Parker Meridien Burger"}}, {"type": "node", "id": 1497326724, "lat": 40.7650339, "lon": -73.9793005, "tags": {"addr:city": "New York", "addr:housenumber": "150", "addr:postcode": "10019", "addr:street": "West 57th Street", "amenity": "restaurant", "cuisine": "russian", "name": "Russian Tea Room", "start_date": "1927", "website": "https://russiantearoomnyc.com/", "wikidata": "Q1814591", "wikipedia": "en:Russian Tea Room"}}, {"type": "node", "id": 1593328953, "lat": 40.7602407, "lon": -73.9822244}, {"type": "node", "id": 1593328960, "lat": 40.7604677, "lon": -73.9820585}, {"type": "node", "id": 1745856010, "lat": 40.7608045, "lon": -73.9786747}, {"type": "node", "id": 1745856081, "lat": 40.7614232, "lon": -73.9782277}, {"type": "node", "id": 1758217485, "lat": 40.7604723, "lon": -73.9840506, "tags": {"addr:city": "New York", "addr:country": "US", "addr:housenumber": "202", "addr:postcode": "10019", "addr:state": "NY", "addr:street": "West 49th Street", "amenity": "restaurant", "email": "playact1@aol.com", "fax": "+1-212-664-0563", "name": "The Playwright", "phone": "+1 212-262-9263", "smoking": "no", "website": "https://www.playwrighttavern.com/"}}, {"type": "node", "id": 1900975316, "lat": 40.7644259, "lon": -73.9810737, "tags": {"amenity": "cafe", "brand": "Starbucks", "brand:wikidata": "Q37158", "contact:website": "https://www.starbucks.com/store-locator/store/9675/55th-seventh-870-7th-avenue-new-york-ny-100194369-us", "cuisine": "coffee_shop", "entrance": "yes", "name": "Starbucks", "official_name": "Starbucks Coffee", "operator": "Starbucks", "takeaway": "yes"}}, {"type": "node", "id": 2610440239, "lat": 40.7634192, "lon": -73.981318, "tags": {"amenity": "cafe", "name": "Caf\u00e9 Metro"}}, {"type": "node", "id": 2610440246, "lat": 40.7604501, "lon": -73.9839884, "tags": {"addr:city": "New York", "addr:housenumber": "740", "addr:state": "NY", "addr:street": "7th Avenue", "amenity": "restaurant", "name": "Burger Man"}}, {"type": "node", "id": 2610440247, "lat": 40.7625486, "lon": -73.9824969, "tags": {"addr:city": "New York", "addr:country": "US", "addr:housenumber": "800", "addr:postcode": "10019", "addr:state": "NY", "addr:street": "7th Avenue", "amenity": "pub", "name": "Rosie O'Grady's Saloon", "website": "https://www.rosieogradys.com/", "wheelchair": "yes"}}, {"type": "node", "id": 2610440250, "lat": 40.7608044, "lon": -73.9837222, "tags": {"addr:city": "New York", "addr:housenumber": "750", "addr:postcode": "10019", "addr:state": "NY", "addr:street": "7th Avenue", "amenity": "cafe", "branch": "49th & Seventh", "brand": "Starbucks", "brand:wikidata": "Q37158", "cuisine": "coffee_shop", "name": "Starbucks", "official_name": "Starbucks Coffee", "phone": "+1 212-974-0032", "takeaway": "yes", "website": "https://www.starbucks.com/store-locator/store/11631/49th-seventh-750-seventh-avenue-new-york-ny-100196834-us"}}, {"type": "node", "id": 2610440254, "lat": 40.7633512, "lon": -73.9813706, "tags": {"addr:city": "New York", "addr:country": "US", "addr:housenumber": "837", "addr:postcode": "10019", "addr:state": "NY", "addr:street": "7th Avenue", "amenity": "pub", "name": "The Irish Pub", "theme": "irish", "website": "http://www.theirishpubnyc.com/"}}, {"type": "node", "id": 2622651509, "lat": 40.7645366, "lon": -73.9833266, "tags": {"addr:city": "New York", "addr:housenumber": "243", "addr:postcode": "10019", "addr:street": "West 54th Street", "amenity": "pub", "contact:phone": "+1 212 459 8904", "contact:website": "http://charactersnyc.com/", "name": "Characters NYC Bar & Lounge", "opening_hours": "11:00-04:00", "source": "local knowledge", "wheelchair": "no"}}, {"type": "node", "id": 2678783476, "lat": 40.7614452, "lon": -73.9837559, "tags": {"addr:city": "New York", "addr:country": "US", "addr:housenumber": "205", "addr:postcode": "10019", "addr:state": "NY", "addr:street": "West 50th Street", "amenity": "restaurant", "brand": "Applebee's Neighborhood Grill & Bar", "brand:wikidata": "Q621532", "check_date": "2024-03-07", "cuisine": "american", "name": "Applebee's", "official_name": "Applebee's Neighborhood Grill & Bar", "opening_hours": "Su-Th 07:00-24:00; Fr-Sa 07:00-01:00", "phone": "+1 212-262-2400", "website": "https://restaurants.applebees.com/en-us/ny/new-york/205-w-50th-street-98001", "website:menu": "https://www.applebees.com/en/menu?StoreNumber=98001&action=viewmenu"}}, {"type": "node", "id": 2678783479, "lat": 40.7618484, "lon": -73.9835031, "tags": {"addr:city": "New York", "addr:country": "US", "addr:housenumber": "1650", "addr:postcode": "10019", "addr:state": "NY", "addr:street": "Broadway", "amenity": "restaurant", "cuisine": "american", "name": "Ellen's Stardust Diner", "name_alt": "Ellen's Stardust Dinner", "website": "https://www.ellensstardustdiner.com/", "wikidata": "Q5364708", "wikipedia": "en:Ellen's Stardust Diner"}}, {"type": "node", "id": 2678783481, "lat": 40.7620837, "lon": -73.9833543, "tags": {"addr:city": "New York", "addr:housenumber": "156", "addr:postcode": "10019", "addr:state": "NY", "addr:street": "West 52nd Street", "amenity": "cafe", "branch": "Pickup - 52nd & 7th", "brand": "Starbucks", "brand:wikidata": "Q37158", "check_date": "2014-10-06", "cuisine": "coffee_shop", "name": "Starbucks", "official_name": "Starbucks Coffee", "phone": "+1 212-245-6479", "ref": "11393", "takeaway": "yes", "website": "https://www.starbucks.com/store-locator/store/11393/pickup-52nd-7th-156-w-52nd-st-new-york-ny-100196004-us"}}, {"type": "node", "id": 2708133479, "lat": 40.7636288, "lon": -73.9791548, "tags": {"addr:housenumber": "125", "addr:postcode": "10019", "addr:street": "West 55th Street", "amenity": "restaurant", "name": "Estiatorio Milos", "name:en": "Milos", "website": "https://www.estiatoriomilos.com/restaurant/new-york-midtown/"}}, {"type": "node", "id": 2708133494, "lat": 40.7632094, "lon": -73.9782428, "tags": {"addr:housenumber": "1361", "addr:postcode": "10019", "addr:street": "6th Avenue", "amenity": "restaurant", "cuisine": "greek;diner", "delivery": "yes", "email": "astrorestaurnant@yahoo.com", "facebook": "astrorestaurantnyc", "instagram": "astrorestaurant_nyc", "name": "Astro Restaurant", "opening_hours": "Tu-Sa 06:00-22:30; Su, Mo 06:00-21:30; Jan 1 07:00-22:30; Dec 24 06:00-20:00; Dec 25 06:00-21:30; Dec 31 06:00-20:00", "opening_hours:covid19": "07:00-21:00", "phone": "+1 212-489-6284", "start_date": "1980", "takeaway": "yes", "website": "https://astrorestaurant.com"}}, {"type": "node", "id": 2708133540, "lat": 40.7635051, "lon": -73.9809828, "tags": {"addr:city": "New York", "addr:housenumber": "159", "addr:postcode": "10019", "addr:state": "NY", "addr:street": "West 54th Street", "amenity": "bar", "brewery": "Lagunitas;Goose_Island;Bell's;Brooklyn_Lager", "cocktails": "yes", "cuisine": "salad;sandwich", "drink:beer": "yes", "drink:liquor": "yes", "drink:wine": "yes", "happy_hours": "yes", "name": "Faces and Names", "opening_hours": "Mo-Sa 11:00-04:00, Sa 12:00-04:00", "operator": "Faces and Names", "phone": "+1-212-586-9311", "reservation": "yes", "toilets": "yes", "wheelchair": "no"}}, {"type": "node", "id": 2708133546, "lat": 40.7646369, "lon": -73.9802846, "tags": {"addr:housenumber": "162", "addr:postcode": "10019", "addr:street": "West 56th Street", "amenity": "restaurant", "cuisine": "greek", "name": "Soulvlakigr"}}, {"type": "node", "id": 2708164827, "lat": 40.764288, "lon": -73.981397, "tags": {"addr:housenumber": "200", "addr:postcode": "10019", "addr:street": "West 55th Street", "alt_name": "The Corner", "amenity": "restaurant", "cocktails": "yes", "cuisine": "mexican", "drink:beer": "yes", "drink:coffee": "yes", "drink:wine": "yes", "name": "La Esquina", "opening_hours": "Mo-Su 11:00-22:00", "outdoor_seating": "sidewalk", "phone": "+1-646-613-7100", "website": "https://www.esquinanyc.com/location/la-esquina-nyc-midtown/", "wheelchair": "yes"}}, {"type": "node", "id": 2708164855, "lat": 40.7645279, "lon": -73.9819605, "tags": {"addr:housenumber": "210", "addr:postcode": "10019", "addr:street": "West 55th Street", "amenity": "bar", "cocktails": "yes", "drink:beer": "yes", "min_age": "21", "name": "PHD Terrace", "opening_hours": "We 17:00-24:00, Th 17:00-01:00, Fr-Su 17:00-24:00", "outdoor_seating": "roof", "website": "https://taogroup.com/venues/phd-lounge-new-york/"}}, {"type": "node", "id": 2708164893, "lat": 40.7641932, "lon": -73.9812315, "tags": {"addr:housenumber": "856", "addr:postcode": "10019", "addr:street": "7th Avenue", "amenity": "cafe", "name": "Premier Deli Caf\u00e9"}}, {"type": "node", "id": 2708164917, "lat": 40.7654403, "lon": -73.9835817, "tags": {"addr:city": "New York", "addr:housenumber": "930", "addr:postcode": "10019", "addr:street": "8th Avenue", "amenity": "restaurant", "cuisine": "thai", "name": "Thai Chai Kitchen", "toilets:wheelchair": "yes", "website": "https://www.chaithaikitchen.com/", "wheelchair": "yes"}}, {"type": "node", "id": 2708165339, "lat": 40.7646127, "lon": -73.9828813}, {"type": "node", "id": 2708165357, "lat": 40.7646788, "lon": -73.9830409}, {"type": "node", "id": 2708165382, "lat": 40.7648171, "lon": -73.9827334}, {"type": "node", "id": 2717323719, "lat": 40.7602955, "lon": -73.9845027, "tags": {"addr:housenumber": "1600", "addr:postcode": "10019", "addr:street": "Broadway", "amenity": "cafe", "brand": "Gong Cha", "brand:wikidata": "Q5581670", "brand:zh": "\u8ca2\u8336", "cuisine": "bubble_tea", "int_name": "Gong Cha", "name": "Gong Cha", "name:zh": "\u8ca2\u8336", "opening_hours": "Su-We 11:00-22:30; Th-Sa 11:00-23:00", "takeaway": "yes"}}, {"type": "node", "id": 2717323748, "lat": 40.7615479, "lon": -73.9837434, "tags": {"addr:city": "New York", "addr:housenumber": "1634", "addr:postcode": "10019", "addr:street": "Broadway", "amenity": "restaurant", "cuisine": "chinese", "name": "Nanking", "website": "https://www.nankingrestaurantgroup.com/"}}, {"type": "node", "id": 2717355367, "lat": 40.7634867, "lon": -73.9847984, "tags": {"addr:housenumber": "265", "addr:postcode": "10019", "addr:street": "West 52nd Street", "amenity": "bar", "name": "Russian Vodka Room"}}, {"type": "node", "id": 2717546353, "lat": 40.7600926, "lon": -73.9825761}, {"type": "node", "id": 2717546365, "lat": 40.7601674, "lon": -73.9827477}, {"type": "node", "id": 2717546378, "lat": 40.760203, "lon": -73.9827113}, {"type": "node", "id": 2717546381, "lat": 40.7602064, "lon": -73.9827194}, {"type": "node", "id": 2717546387, "lat": 40.7603189, "lon": -73.9824107}, {"type": "node", "id": 2717546406, "lat": 40.7603852, "lon": -73.9825551}, {"type": "node", "id": 2717546409, "lat": 40.7603929, "lon": -73.9825734}, {"type": "node", "id": 2717546457, "lat": 40.7605821, "lon": -73.9824121}, {"type": "node", "id": 2717546460, "lat": 40.7605937, "lon": -73.9824399}, {"type": "node", "id": 2717546466, "lat": 40.7606339, "lon": -73.9824107}, {"type": "node", "id": 2727176211, "lat": 40.7642327, "lon": -73.9807509, "tags": {"addr:housenumber": "461", "addr:postcode": "10019", "addr:street": "7th Avenue", "amenity": "restaurant", "cuisine": "american", "drink:beer": "served", "drink:wine": "served", "email": "parkcafe@wellingtonhotel.com", "name": "Park Caf\u00e9", "opening_hours": "Mo-Fr, Su 06:00-02:00", "phone": "+1 212-315-4567", "website": "https://www.wellingtonhotel.com/dining/", "wheelchair": "limited"}}, {"type": "node", "id": 2727176217, "lat": 40.7650918, "lon": -73.9805946, "tags": {"addr:city": "New York", "addr:housenumber": "890", "addr:postcode": "10019", "addr:state": "NY", "addr:street": "7th Avenue", "air_conditioning": "yes", "amenity": "restaurant", "bar": "yes", "check_date": "2025-04-10", "cuisine": "seafood", "name": "Redeye Grill", "opening_hours": "Fr-Sa 12:00-23:00; Su-Th 12:00-22:00", "phone": "+1-212-541-9000", "website": "https://www.redeyegrill.com/", "website:menu": "https://www.redeyegrill.com/redeye-grill-menu/", "wheelchair": "no"}}, {"type": "node", "id": 2868082193, "lat": 40.7646481, "lon": -73.9829672}, {"type": "node", "id": 2868104008, "lat": 40.7648318, "lon": -73.9827242}, {"type": "node", "id": 2958284620, "lat": 40.7632835, "lon": -73.9810028, "tags": {"addr:city": "New York", "addr:housenumber": "160", "addr:postcode": "10019", "addr:street": "West 54th Street", "amenity": "pub", "name": "Old Castle", "website": "http://www.oldcastlepub.com/"}}, {"type": "node", "id": 2973075956, "lat": 40.765484, "lon": -73.9835479, "tags": {"addr:city": "New York", "addr:housenumber": "932", "addr:postcode": "10019", "addr:street": "8th Avenue", "amenity": "restaurant", "name": "Matts Grill", "website": "http://www.mattsgrill.com/"}}, {"type": "node", "id": 2973086664, "lat": 40.7653013, "lon": -73.9832463, "tags": {"addr:city": "New York", "addr:housenumber": "253", "addr:postcode": "10019", "addr:street": "West 55th Street", "amenity": "restaurant", "cuisine": "japanese", "name": "Donburiya", "opening_hours": "Mo 11:45-14:30,17:30-22:30, Tu-Fr 11:45-14:30,17:30-02:30, Sa 11:45-02:30, Su 11:45-21:00", "phone": "+12129807909", "website": "https://www.donburiyany.com/", "wheelchair": "yes"}}, {"type": "node", "id": 2973086665, "lat": 40.7653274, "lon": -73.9833108, "tags": {"addr:city": "New York", "addr:housenumber": "255", "addr:postcode": "10019", "addr:street": "West 55th Street", "amenity": "restaurant", "branch": "Hell's Kitchen", "brewery": "Kingfisher", "catering": "yes", "cuisine": "indian", "delivery": "yes", "diet:halal": "yes", "diet:vegetarian": "yes", "drink:beer": "bottled", "name": "Mughlai Indian Cuisine", "opening_hours": "Mo-Th 11:00-14:45, 17:00-21:45; Fr 11:00-14:45, 17:00-22:15; Sa 11:00-22:15; Su 11:00-21:45", "outdoor_seating": "sidewalk", "payment:cash": "yes", "payment:credit_cards": "yes", "phone": "+1-646-870-0555", "reservation": "yes", "smoking": "no", "takeaway": "yes", "toilets": "yes", "website": "https://mughlaicuisineny.com/", "wheelchair": "limited"}}, {"type": "node", "id": 2973086666, "lat": 40.7653492, "lon": -73.983373, "tags": {"addr:city": "New York", "addr:housenumber": "257", "addr:postcode": "10019", "addr:street": "West 55th Street", "amenity": "restaurant", "cuisine": "italian", "name": "Nocello", "phone": "+12127130224", "website": "https://www.nocello.net/"}}, {"type": "node", "id": 2973086668, "lat": 40.765264, "lon": -73.9831704, "tags": {"addr:city": "New York", "addr:housenumber": "251", "addr:postcode": "10019", "addr:street": "West 55th Street", "amenity": "restaurant", "cuisine": "japanese;izakaya", "level": "1", "name": "Yakitori Totto", "opening_hours": "Mo-Th 11:30-14:00, 17:30-24:00; Fr 11:30-14:00, 17:30-01:00; Sa 17:30-01:00; Su 17:30-24:00", "phone": "+1-212-245-4555", "website": "https://www.tottonyc.com", "wheelchair": "limited"}}, {"type": "node", "id": 3067940109, "lat": 40.7627917, "lon": -73.9850724, "tags": {"addr:city": "New York", "addr:housenumber": "251", "addr:postcode": "10019", "addr:street": "West 51st Street", "amenity": "pub", "name": "McHale's Pub", "official_name": "McHale's Bar & Grill", "website": "http://mchalespub.com/"}}, {"type": "node", "id": 3480352395, "lat": 40.7646902, "lon": -73.9796633, "tags": {"amenity": "cafe", "name": "Blue Dog"}}, {"type": "node", "id": 3577940193, "lat": 40.7631875, "lon": -73.9847037, "tags": {"addr:housenumber": "256", "addr:street": "West 52nd Street", "amenity": "restaurant", "bar": "yes", "cocktails": "yes", "cuisine": "russian", "drink:beer": "bottled", "drink:liquor": "yes", "drink:wine": "yes", "live_music": "yes", "name": "Russian Samovar Restaurant and Piano Bar", "opening_hours": "Mo 17:00-02:00; Tu-Th 12:00-02:00; Fr-Su 12:00-04:00", "opening_hours:kitchen": "Mo 17:00-00:00; Tu-Th 12:00-00:00; Fr-Sa 12:00-01:00; Su 12:00-04:00", "payment:credit_cards": "yes", "payment:debit_cards": "yes", "phone": "+1-212-757-0168", "reservation": "yes", "toilets": "yes", "toilets:access": "customers", "toilets:unisex": "no", "toilets:wheelchair": "no", "website": "https://www.russiansamovar.com/", "wheelchair": "yes"}}, {"type": "node", "id": 3932353663, "lat": 40.7613945, "lon": -73.981691, "tags": {"addr:city": "New York", "addr:country": "US", "addr:housenumber": "155", "addr:postcode": "10019", "addr:state": "NY", "addr:street": "West 51st Street", "amenity": "restaurant", "cuisine": "french;seafood", "name": "Le Bernardin", "opening_hours": "Mo-Th 12:00-14:30, 17:15-22:30; Fr 12:00-14:30, 17:15-23:00; Sa 17:15-23:00", "phone": "+1-212-554-1515", "stars": "3", "website": "https://www.le-bernardin.com/", "wheelchair": "yes", "wikidata": "Q6506539", "wikipedia": "en:Le Bernardin"}}, {"type": "node", "id": 3976005755, "lat": 40.7607445, "lon": -73.978532}, {"type": "node", "id": 3976008162, "lat": 40.7613592, "lon": -73.9780752}, {"type": "node", "id": 4278330892, "lat": 40.7628531, "lon": -73.9838317, "tags": {"addr:housenumber": "228", "addr:postcode": "10019", "addr:street": "West 52nd Street", "amenity": "restaurant", "cocktails": "yes", "contact:facebook": "https://www.facebook.com/GallaghersNYC", "contact:instagram": "https://www.instagram.com/gallaghersnyc", "contact:twitter": "https://twitter.com/GallaghersNYC", "cuisine": "american;steak_house", "drink:beer": "yes", "drink:wine": "yes", "name": "Gallaghers Steakhouse", "opening_hours": "Mo-Sa 11:45-23:30; Su 11:45-22:30", "phone": "+1 212-586-5000", "reservation": "yes", "start_date": "1927", "website": "https://gallaghersnysteakhouse.com/", "wikidata": "Q5518818", "wikipedia": "en:Gallagher's Steakhouse"}}, {"type": "node", "id": 4317887892, "lat": 40.7636131, "lon": -73.9849057, "tags": {"addr:postcode": "10019", "amenity": "restaurant", "cuisine": "american;breakfast;diner", "name": "Cosmic Diner", "opening_hours": "24/7", "phone": "+12123335888", "wheelchair": "yes"}}, {"type": "node", "id": 4402180605, "lat": 40.7636783, "lon": -73.9823708, "tags": {"addr:city": "New York", "addr:housenumber": "1700", "addr:postcode": "10019", "addr:state": "NY", "addr:street": "Broadway", "amenity": "cafe", "branch": "54th and Broadway", "brand": "Starbucks", "brand:wikidata": "Q37158", "check_date": "2024-06-07", "cuisine": "coffee_shop", "internet_access": "wlan", "internet_access:fee": "no", "name": "Starbucks", "official_name": "Starbucks Coffee", "phone": "+1 212-245-0761", "ref": "1010184", "takeaway": "yes", "website": "https://www.starbucks.com/store-locator/store/1010184/54th-and-broadway-1700-broadway-new-york-ny-100195905-us", "wheelchair": "yes"}}, {"type": "node", "id": 4443479889, "lat": 40.7607731, "lon": -73.9808203, "tags": {"addr:housenumber": "110", "addr:street": "West 51st Street", "amenity": "restaurant", "brand": "Ted's Montana Grill", "brand:wikidata": "Q16953170", "cuisine": "american", "name": "Ted's Montana Grill", "name:en": "Ted's Montana Grill", "opening_hours": "Su-Th 11:00-21:00; Fr,Sa 11:00-22:00"}}, {"type": "node", "id": 4479721389, "lat": 40.7643286, "lon": -73.984836, "tags": {"addr:housenumber": "891", "addr:postcode": "10019", "addr:street": "8th Avenue", "amenity": "cafe", "cuisine": "bagel", "delivery": "yes", "name": "Pick a Bagel", "opening_hours": "Mo-Su 07:00-19:00", "phone": "+1 212-582-8333", "website": "https://www.pickabagel.net/", "wheelchair": "yes"}}, {"type": "node", "id": 4545006872, "lat": 40.7601231, "lon": -73.9826461}, {"type": "node", "id": 4545006873, "lat": 40.7604822, "lon": -73.9820496}, {"type": "node", "id": 4545006874, "lat": 40.7605918, "lon": -73.9823106}, {"type": "node", "id": 4546109657, "lat": 40.7647997, "lon": -73.9828965}, {"type": "node", "id": 4546109658, "lat": 40.7648085, "lon": -73.9829189, "tags": {"amenity": "parking", "fee": "yes", "layer": "-1", "parking": "underground", "wheelchair": "yes"}}, {"type": "node", "id": 4546109659, "lat": 40.7648178, "lon": -73.9829427}, {"type": "node", "id": 4546109660, "lat": 40.7648599, "lon": -73.982704}, {"type": "node", "id": 4546109661, "lat": 40.7649092, "lon": -73.9828173}, {"type": "node", "id": 4708892894, "lat": 40.7617708, "lon": -73.9850779, "tags": {"addr:housenumber": "226", "addr:street": "West 50th Street", "amenity": "restaurant", "contact:email": "info@natsuminyc.com", "contact:facebook": "natsuminyc", "contact:instagram": "natsuminyc", "contact:phone": "+1-212-258-2988", "contact:twitter": "natsumi_nyc", "contact:website": "http://natsuminyc.com/", "cuisine": "sushi;japanese", "delivery": "yes", "name": "Natsumi", "opening_hours": "Mo-Th 16:00-18:30; Fr, Sa 15:30-23:00", "reservation": "yes", "seats": "97", "takeaway": "yes", "wheelchair": "limited"}}, {"type": "node", "id": 4755575516, "lat": 40.7633892, "lon": -73.9818081, "tags": {"addr:city": "New York", "addr:housenumber": "834", "addr:postcode": "10019", "addr:state": "NY", "addr:street": "7th Avenue", "amenity": "restaurant", "cuisine": "burger;sandwich", "email": "contact@roxydelicatessen.com", "name": "Roxy Diner & Delicatessen", "opening_hours": "Mo-Su 09:00-21:00", "phone": "+1-646-688- 3055", "website": "https://www.roxydelicatessen.com"}}, {"type": "node", "id": 4794092321, "lat": 40.7613487, "lon": -73.9822791, "tags": {"addr:housenumber": "148", "addr:postcode": "10019", "addr:street": "West 51st Street", "amenity": "restaurant", "brand": "Ruth's Chris Steak House", "brand:wikidata": "Q7382829", "cuisine": "american;steak_house", "name": "Ruth's Chris Steak House", "name:de": "Ruth's Chris Steak House", "phone": "+1 212 265 9600", "website": "https://www.ruthschris.com/"}}, {"type": "node", "id": 5425647820, "lat": 40.7619612, "lon": -73.9843717, "tags": {"addr:city": "New York", "addr:floor": "37-38", "addr:housenumber": "1633", "addr:postcode": "10019", "addr:street": "Broadway", "name": "MongoDB", "office": "it", "phone": "+1 866 237 8815", "website": "https://www.mongodb.com/"}}, {"type": "node", "id": 5489315616, "lat": 40.7645598, "lon": -73.9820354, "tags": {"addr:city": "New York", "addr:housenumber": "210", "addr:postcode": "10019", "addr:state": "NY", "addr:street": "West 55th Street", "alt_name": "Serafina Broadway", "amenity": "restaurant", "check_date": "2024-08-07", "cuisine": "italian", "name": "Serafina", "opening_hours": "Su-Th 07:00-22:00; Fr-Sa 07:00-23:00", "outdoor_seating": "sidewalk;street", "phone": "+1-212-315-1700", "website": "https://www.serafinarestaurant.com/location/serafina-broadway/", "wheelchair": "yes"}}, {"type": "node", "id": 5762488554, "lat": 40.7646319, "lon": -73.9785599, "tags": {"addr:housenumber": "124", "addr:postcode": "10019", "amenity": "bar", "name": "The Roof", "opening_hours": "Mo-Su 15:00-04:00", "phone": "+12127078008", "website": "https://www.theroofny.com/"}}, {"type": "node", "id": 5762582555, "lat": 40.7622424, "lon": -73.9832858, "tags": {"addr:housenumber": "1650", "addr:postcode": "10019", "addr:street": "Broadway", "amenity": "pub", "name": "Iridium Jazz Club", "opening_hours": "Mo-Su 18:00-00:00", "phone": "+12125822121", "wikidata": "Q1331383"}}, {"type": "node", "id": 5840679445, "lat": 40.7608042, "lon": -73.9842008, "tags": {"addr:housenumber": "1626", "addr:postcode": "10019", "addr:street": "Broadway", "air_conditioning": "yes", "amenity": "restaurant", "branch": "49th Street", "check_date": "2025-05-03", "cocktails": "yes", "name": "Junior's", "opening_hours": "Mo-Th,Su 07:00-24:00; Fr-Sa 07:00-01:00", "outdoor_seating": "no", "phone": "+1 212-365-5900", "smoking": "no", "takeaway": "yes", "toilets": "yes", "website": "https://www.juniorscheesecake.com/blog/restaurants/49thstreet/", "wheelchair": "limited"}}, {"type": "node", "id": 5922862086, "lat": 40.7611297, "lon": -73.9839743, "tags": {"addr:housenumber": "1626", "addr:street": "Broadway", "amenity": "restaurant", "name": "Junior's Deli"}}, {"type": "node", "id": 6053070785, "lat": 40.7652737, "lon": -73.9832071, "tags": {"amenity": "restaurant", "cuisine": "japanese", "name": "Soba Noodle Azuma", "wheelchair": "yes"}}, {"type": "node", "id": 6066762932, "lat": 40.7646805, "lon": -73.9824427, "tags": {"addr:housenumber": "1725", "addr:postcode": "10019", "addr:street": "Broadway", "amenity": "restaurant", "check_date": "2024-08-07", "cocktails": "yes", "cuisine": "diner", "delivery": "yes", "drink:beer": "yes", "drink:wine": "yes", "email": "applejackdiner@yahoo.com", "fax": "+1 212-586-6079", "name": "Applejack Diner", "opening_hours": "Mo-Su 07:00-22:00", "outdoor_seating": "yes", "phone": "+1 212-586-6075", "website": "https://www.applejackdiner.com/", "wheelchair": "yes"}}, {"type": "node", "id": 6201492492, "lat": 40.7624567, "lon": -73.9783185, "tags": {"addr:city": "New York", "addr:housenumber": "65", "addr:postcode": "10019", "addr:state": "NY", "addr:street": "West 54th Street", "amenity": "bar", "name": "Randolph's Bar & Lounge", "website": "https://www.randolphsnewyork.com/"}}, {"type": "node", "id": 6223911885, "lat": 40.7629409, "lon": -73.984028, "tags": {"addr:postcode": "10019", "amenity": "restaurant", "name": "Victor\u2019s Caf\u00e9", "phone": "+1-212-586-7714"}}, {"type": "node", "id": 6345862104, "lat": 40.7620218, "lon": -73.9803454, "tags": {"amenity": "cafe", "check_date": "2024-05-14", "name": "Cafe 53", "opening_hours": "24/7"}}, {"type": "node", "id": 6389664887, "lat": 40.7648888, "lon": -73.9834965, "tags": {"addr:housenumber": "248", "addr:street": "West 55th Street", "amenity": "bar", "cuisine": "mexican", "name": "Vida Verde", "website": "https://vidaverdeny.com/", "wheelchair": "limited"}}, {"type": "node", "id": 6422254286, "lat": 40.7607166, "lon": -73.9794734, "tags": {"addr:housenumber": "1290", "addr:postcode": "10019", "addr:street": "6th Avenue", "amenity": "restaurant", "cuisine": "italian", "name:es": "Barilla", "smoking": "no"}}, {"type": "node", "id": 6433889787, "lat": 40.7642411, "lon": -73.9785007, "tags": {"amenity": "restaurant", "name": "Norma\u2019s"}}, {"type": "node", "id": 6466486185, "lat": 40.7641961, "lon": -73.9832028, "tags": {"addr:postcode": "10019", "amenity": "restaurant", "check_date": "2023-01-14", "name": "Iguana New York", "wheelchair": "no"}}, {"type": "node", "id": 6475002986, "lat": 40.7612776, "lon": -73.9828873, "tags": {"addr:housenumber": "761", "addr:street": "7th Avenue", "amenity": "restaurant", "cuisine": "steak_house", "name": "Tad\u2019s Steakhouse"}}, {"type": "node", "id": 6633208285, "lat": 40.7634136, "lon": -73.9781054, "tags": {"addr:housenumber": "1375", "addr:postcode": "10019", "addr:street": "6th Avenue", "amenity": "restaurant", "cocktails": "yes", "cuisine": "italian", "delivery": "yes", "drink:beer": "served", "drink:wine": "served", "email": "party@pazzanotte.com", "facebook": "https://www.facebook.com/pazzanotte", "fax": "+1 212-977-5440", "happy_hours": "12:30-17:00", "name": "Pazza Notte", "opening_hours": "12:30-22:30", "outdoor_seating": "yes", "phone": "+1 212-765-6288", "reservation": "yes", "takeaway": "yes", "website": "https://www.pazzanotte.com/", "wheelchair": "yes"}}, {"type": "node", "id": 6648520617, "lat": 40.7638111, "lon": -73.982806, "tags": {"addr:city": "New York", "addr:housenumber": "1697", "addr:postcode": "10019", "addr:state": "NY", "addr:street": "Broadway", "amenity": "restaurant", "cuisine": "pizza", "delivery": "yes", "name": "Angelo's Pizza", "opening_hours": "Mo-Su 11:00-03:00", "origin": "italian", "phone": "+1-347-875-6198", "takeaway": "yes", "website": "https://www.angelosbroadway.com/"}}, {"type": "node", "id": 6775582688, "lat": 40.7644289, "lon": -73.9842669, "tags": {"addr:housenumber": "900", "addr:street": "8th Avenue", "amenity": "restaurant", "contact:instagram": "cascadecafenyc", "cuisine": "diner", "name": "Cascade", "opening_hours": "24/7", "phone": "+1 646-329-5143"}}, {"type": "node", "id": 6898115690, "lat": 40.7639513, "lon": -73.9819712, "tags": {"addr:housenumber": "205", "addr:postcode": "10019", "addr:street": "West 54th Street", "amenity": "bar", "cocktails": "yes", "contact:facebook": "https://www.facebook.com/flutemidtown", "contact:instagram": "https://www.instagram.com/FluteBar/", "contact:twitter": "https://twitter.com/Champagnebar", "drink:wine": "yes", "happy_hours": "Tu 16:00-20:00", "level": "-1", "name": "Fl\u00fbte", "opening_hours": "Mo, Su 16:00-01:00; Tu, We 16:00-02:00; Th 16:00-03:00; Fr, Sa 16:00-04:00", "phone": "+1 212-265-5169", "reservation": "yes", "website": "http://www.flutebar.com/"}}, {"type": "node", "id": 7055777987, "lat": 40.762939, "lon": -73.9821435, "tags": {"amenity": "restaurant", "name": "Lindys"}}, {"type": "node", "id": 7093547132, "lat": 40.7652832, "lon": -73.9804165, "tags": {"addr:city": "New York", "addr:housenumber": "900", "addr:postcode": "10019", "addr:state": "NY", "addr:street": "7th Avenue", "amenity": "restaurant", "check_date": "2025-04-10", "cuisine": "italian", "name": "Trattoria Dell'Arte", "website": "https://www.trattoriadellarte.com/"}}, {"type": "node", "id": 8757557471, "lat": 40.7613876, "lon": -73.980456, "tags": {"amenity": "restaurant", "check_date:opening_hours": "2023-09-15", "name": "Mastro's", "opening_hours:signed": "no", "payment:bitcoincash": "yes", "website": "https://www.mastrosrestaurants.com/location/mastros-steakhouse-new-york"}}, {"type": "node", "id": 8791561183, "lat": 40.7630679, "lon": -73.9834068, "tags": {"addr:housenumber": "1675", "addr:street": "Broadway", "level": "23", "name": "Saatchi & Saatchi Wellness", "office": "company", "website": "https://www.saatchiwellness.com"}}, {"type": "node", "id": 9313457709, "lat": 40.7607466, "lon": -73.9847512, "tags": {"amenity": "restaurant", "name": "The Harrison Restaurant & Bar"}}, {"type": "node", "id": 9487723017, "lat": 40.7644424, "lon": -73.9830805, "tags": {"amenity": "restaurant", "check_date": "2023-01-14", "cuisine": "steak_house", "name": "Empire Steak House"}}, {"type": "node", "id": 9611990778, "lat": 40.7627414, "lon": -73.9849799, "tags": {"addr:city": "New York", "addr:housenumber": "245A", "addr:postcode": "10019", "addr:state": "NY", "addr:street": "West 51st Street", "amenity": "restaurant", "cuisine": "japanese;ramen;sushi;yakitori;sake;shochu;cocktails", "name": "Sake Bar Hagi", "opening_hours": "Mo-We 17:00-23:00; Th 17:00-00:00; Fr 17:00-01:00; Sa 12:00-15:00,16:00-01:00; Su 12:00-15:00,16:00-23:00", "phone": "+1-212-956-2429", "website": "https://sakebar-hagi.com/"}}, {"type": "node", "id": 9784340519, "lat": 40.7624715, "lon": -73.9811369, "tags": {"addr:housenumber": "152", "addr:street": "West 52nd Street", "amenity": "cafe", "name": "Partners Coffee"}}, {"type": "node", "id": 9815615205, "lat": 40.7604274, "lon": -73.9840645, "tags": {"addr:city": "New York", "addr:housenumber": "736", "addr:state": "NY", "addr:street": "7th Avenue", "amenity": "restaurant", "cuisine": "pizza", "name": "Famous Original Ray's Pizza"}}, {"type": "node", "id": 9951354282, "lat": 40.7644509, "lon": -73.9837824, "tags": {"addr:housenumber": "254", "addr:street": "West 54th Street", "amenity": "college", "check_date": "2022-08-12", "name": "Mandl School, The College of Allied Health", "operator:type": "private", "website": "https://mandl.edu/"}}, {"type": "node", "id": 10154000117, "lat": 40.7645955, "lon": -73.9784506, "tags": {"amenity": "bar", "name": "Life Rooftop Central Park"}}, {"type": "node", "id": 10173210352, "lat": 40.7608644, "lon": -73.9786314}, {"type": "node", "id": 10215129770, "lat": 40.7607972, "lon": -73.9789137, "tags": {"name": "Vornado", "office": "estate_agent"}}, {"type": "node", "id": 10215130211, "lat": 40.7614351, "lon": -73.9789142, "tags": {"brand": "Charles Schwab", "brand:wikidata": "Q1066028", "name": "Charles Schwab", "office": "financial_advisor"}}, {"type": "node", "id": 10215147555, "lat": 40.7613084, "lon": -73.9785249, "tags": {"amenity": "restaurant", "cuisine": "steak_house", "name": "Nusr Et"}}, {"type": "node", "id": 10215152666, "lat": 40.7606653, "lon": -73.9786542, "tags": {"addr:city": "New York", "addr:housenumber": "1290", "addr:postcode": "10104", "addr:state": "NY", "addr:street": "6th Avenue", "amenity": "cafe", "branch": "52nd Btwn Fifth & Sixth", "brand": "Starbucks", "brand:wikidata": "Q37158", "cuisine": "coffee_shop", "name": "Starbucks", "official_name": "Starbucks Coffee", "opening_hours": "Mo-Fr 05:30-19:00; Sa-Su 07:00-19:00", "phone": "+1 212-977-4861", "ref": "88886", "takeaway": "yes", "website": "https://www.starbucks.com/store-locator/store/88886/52nd-btwn-fifth-sixth-1290-sixth-avenue-new-york-ny-101040101-us"}}, {"type": "node", "id": 10215153345, "lat": 40.760797, "lon": -73.9789831, "tags": {"amenity": "restaurant", "name": "Global Kitchen"}}, {"type": "node", "id": 11076895105, "lat": 40.7615722, "lon": -73.983214, "tags": {"addr:housenumber": "762", "addr:street": "7th Avenue", "amenity": "cafe", "name": "Gregory\u2019s coffee", "opening_hours": "Mo-Fr 06:00-20:30; Su,Sa 07:00-19:00"}}, {"type": "node", "id": 11296226862, "lat": 40.761374, "lon": -73.9782633}, {"type": "node", "id": 11331402045, "lat": 40.7630341, "lon": -73.9786396, "tags": {"amenity": "cafe", "brand": "Blue Bottle Coffee", "brand:en": "Blue Bottle Coffee", "brand:ja": "\u30d6\u30eb\u30fc\u30dc\u30c8\u30eb\u30b3\u30fc\u30d2\u30fc", "brand:wikidata": "Q4928917", "cuisine": "coffee_shop", "name": "Blue Bottle Coffee", "name:en": "Blue Bottle Coffee", "name:ja": "\u30d6\u30eb\u30fc\u30dc\u30c8\u30eb\u30b3\u30fc\u30d2\u30fc", "takeaway": "yes"}}, {"type": "node", "id": 11335080026, "lat": 40.7603719, "lon": -73.9807662, "tags": {"amenity": "restaurant", "name": "Avra Rockefeller Center"}}, {"type": "node", "id": 11352644136, "lat": 40.7641497, "lon": -73.9850061, "tags": {"amenity": "restaurant", "branch": "To Go", "brand": "P.F. Chang's", "brand:wikidata": "Q5360181", "cuisine": "asian", "name": "P.F. Chang's", "official_name": "P.F. Chang's China Bistro"}}, {"type": "node", "id": 11384449991, "lat": 40.7643596, "lon": -73.9815651, "tags": {"addr:housenumber": "204", "addr:postcode": "10019", "addr:street": "West 55th Street", "amenity": "restaurant", "bar": "yes", "cuisine": "american;pub;brunch", "name": "Tanner Smith's", "outdoor_seating": "street", "website": "https://tannersmiths.com"}}, {"type": "node", "id": 11384449994, "lat": 40.7644186, "lon": -73.9817038, "tags": {"addr:housenumber": "210", "addr:postcode": "10019", "addr:street": "West 55th Street", "amenity": "bar", "cocktails": "yes", "drink:liquor": "yes", "drink:wine": "yes", "indoor_seating": "yes", "name": "The Ricky", "opening_hours": "Mo-Th 16:00-24:00; Fr-Sa 16:00-02:00", "outdoor_seating": "no", "phone": "+1-646-756-2054", "website": "https://taogroup.com/venues/the-rickey-cocktail-lounge-new-york/"}}, {"type": "node", "id": 11465739196, "lat": 40.7626575, "lon": -73.980662, "tags": {"addr:city": "New York", "addr:housenumber": "145", "addr:postcode": "10019", "addr:state": "NY", "addr:street": "West 53rd Street", "amenity": "restaurant", "cuisine": "french", "email": "lagrande@boucherie.nyc", "name": "La Grande Boucherie", "opening_hours": "Mo-Fr 08:00-24:00; Sa-Su 09:00-24:00", "phone": "+1-212-510-7714", "reservation": "yes", "website": "https://www.boucherieus.com/location/boucherie-la-grande-boucherie/"}}, {"type": "node", "id": 11500492169, "lat": 40.7644156, "lon": -73.9789989, "tags": {"addr:city": "New York", "addr:housenumber": "129", "addr:postcode": "10019", "addr:state": "NY", "addr:street": "West 56th Street", "air_conditioning": "yes", "amenity": "restaurant", "check_date": "2024-12-08", "contact:instagram": "https://www.instagram.com/kinramennyc/", "cuisine": "ramen", "delivery": "yes", "level": "0", "name": "Kin Ramen", "opening_hours": "Mo-Su 12:00-15:00, 16:30-22:00", "outdoor_seating": "no", "payment:cash": "yes", "payment:contactless": "yes", "payment:credit_cards": "yes", "payment:debit_cards": "yes", "phone": "+1 212-933-9292", "takeaway": "yes", "toilets": "yes", "website": "https://kinramen.com/", "wheelchair": "no"}}, {"type": "node", "id": 11969588269, "lat": 40.7641352, "lon": -73.9830578, "tags": {"addr:housenumber": "236", "addr:street": "West 54 Street", "amenity": "bar", "name": "The Three Monkeys", "opening_hours": "Mo-Su 11:00-04:00", "phone": "+1-212-586-2080", "website": "https://www.thethreemonkeysbar.com/"}}, {"type": "node", "id": 12070389068, "lat": 40.7651959, "lon": -73.9816218, "tags": {"addr:city": "New York", "addr:housenumber": "210", "addr:state": "NY", "addr:street": "West 56th Street", "amenity": "restaurant", "branch": "Midtown West", "check_date": "2024-08-07", "cuisine": "sushi", "name": "SUGARFISH by Sushi Nozawa", "opening_hours": "Su-Th 11:30-23:00; Fr,Sa 11:30-23:30", "phone": "+1-646 630-8293", "website": "https://sugarfishsushi.com/locations/midtown-west/"}}, {"type": "node", "id": 12070394872, "lat": 40.7643677, "lon": -73.9789336, "tags": {"addr:city": "New York", "addr:housenumber": "127", "addr:state": "NY", "addr:street": "West 56th Street", "air_conditioning": "yes", "amenity": "restaurant", "bar": "yes", "changing_table": "no", "check_date": "2024-12-08", "cuisine": "thai", "delivery": "yes", "highchair": "no", "level": "0", "name": "Topaz", "opening_hours": "12:00-22:30", "payment:cash": "yes", "payment:contactless": "yes", "payment:credit_cards": "yes", "payment:debit_cards": "yes", "phone": "+1 212-957-8020", "reservation": "yes", "smoking": "no", "takeaway": "yes", "toilets": "yes", "toilets:wheelchair": "no", "website": "https://www.topazthaiauthentic.com/", "wheelchair": "no"}}, {"type": "node", "id": 12207819344, "lat": 40.7609179, "lon": -73.9823212, "tags": {"addr:city": "New York", "addr:housenumber": "80", "addr:postcode": "10011", "addr:state": "NY", "addr:street": "Fifth Avenue", "amenity": "cafe", "cuisine": "singaporean;coffee;bubble_tea", "name": "Kopifellas", "opening_hours": "Mo-Fr 09:00-21:00;Sa-Su 10:30-20:30", "phone": "+1-917-485-9846", "website": "https://www.kopifellas.com.sg/usa/"}}, {"type": "node", "id": 12286080701, "lat": 40.7620971, "lon": -73.984681, "tags": {"addr:postcode": "10019", "name": "Assured Guaranty", "office": "company", "website": "https://www.assuredguaranty.com"}}, {"type": "node", "id": 12328414023, "lat": 40.7648258, "lon": -73.980772, "tags": {"addr:city": "New York", "addr:housenumber": "870", "addr:postcode": "10019", "addr:state": "NY", "addr:street": "Seventh Avenue", "amenity": "restaurant", "branch": "Carnegie Hall", "check_date": "2025-04-10", "cuisine": "a\u00e7a\u00ed", "name": "Playa Bowls", "phone": "+1-917-231-5259", "website": "https://www.playabowls.com/location/carnegie-hall"}}, {"type": "node", "id": 12744975234, "lat": 40.7651708, "lon": -73.9805398, "tags": {"amenity": "restaurant", "check_date": "2025-04-10", "name": "888 Cafe & Bar"}}, {"type": "node", "id": 13057970730, "lat": 40.7637429, "lon": -73.9848071, "tags": {"addr:postcode": "10019", "amenity": "restaurant", "cuisine": "coffee_shop", "name": "Ground Central Coffee Company", "opening_hours": "Mo-Su 07:00-19:00", "outdoor_seating": "yes", "self_service": "yes", "takeaway": "yes", "wheelchair": "yes"}}, {"type": "node", "id": 13067936661, "lat": 40.7624706, "lon": -73.983143, "tags": {"addr:housenumber": "1668", "addr:postcode": "10019", "addr:state": "NY", "addr:street": "West 52nd Street", "amenity": "cafe", "cuisine": "coffee_shop", "indoor_seating": "yes", "level": "0", "name": "inerro", "opening_hours": "Mo-Su 07:30-19:00", "takeaway": "yes", "website": "https://inerro.co/", "wheelchair": "limited"}}, {"type": "node", "id": 13144932601, "lat": 40.765555, "lon": -73.9827084, "tags": {"addr:housenumber": "236", "addr:postcode": "10019", "addr:street": "West 56th Street", "amenity": "restaurant", "contact:facebook": "patsysitalianrestaurant", "contact:twitter": "patsysitalrest", "cuisine": "italian", "name": "Patsy's", "website": "http://patsys.com", "website:menu": "http://patsys.com/menu.html"}}, {"type": "way", "id": 458511171, "nodes": [2717546466, 2717546460, 2717546457, 2717546406, 2717546409, 2717546378, 2717546381, 2717546365, 4545006872, 2717546353, 2717546387, 1593328953, 1593328960, 4545006873, 4545006874, 2717546466], "tags": {"access": "yes", "highway": "pedestrian", "leisure": "park", "name": "745 Plaza"}}, {"type": "way", "id": 458642434, "nodes": [4546109661, 4546109657, 4546109658, 4546109659, 2708165357, 2868082193, 2708165339, 2708165382, 2868104008, 4546109660, 4546109661], "tags": {"leisure": "park"}}, {"type": "way", "id": 468472672, "nodes": [1745856081, 3976008162, 3976005755, 1745856010, 10173210352, 11296226862, 1745856081], "tags": {"leisure": "park"}}]}