{"version": 0.6, "generator": "Overpass API 0.7.62.8 e802775f", "osm3s": {"timestamp_osm_base": "2025-12-01T16:52:28Z", "copyright": "The data included in this document is from www.openstreetmap.org. The data is made available under ODbL."}, "elements": [{"type": "node", "id": 1748991482, "lat": 40.7907049, "lon": -73.9475801, "tags": {"addr:housenumber": "1636", "addr:street": "Lexington Avenue", "brand": "H&R Block", "brand:wikidata": "Q5627799", "name": "H&R Block", "office": "tax_advisor", "opening_hours": "Mo-Fr 09:00-20:00; Sa 09:00-19:00; Su 12:00-16:00", "phone": "+1 212-410-7704", "website": "https://www.hrblock.com/local-tax-offices/new-york/new-york/1636-lexington-avenue/30998"}}, {"type": "node", "id": 1748991484, "lat": 40.7892539, "lon": -73.9486313, "tags": {"addr:housenumber": "1590", "addr:postcode": "10029", "addr:street": "Lexington Avenue", "alcohol": "yes", "amenity": "restaurant", "catering": "yes", "cocktails": "yes", "cuisine": "thai", "delivery": "yes", "diet:vegan": "yes", "drink:beer": "yes", "drink:liquor": "yes", "drink:wine": "yes", "name": "Chu Ros Thai", "opening_hours": "Mo-Su 11:00-22:00", "outdoor_seating": "sidewalk", "phone": "+1-917-265-8432", "takeaway": "yes", "website": "https://churosthainyc.com/"}}, {"type": "node", "id": 1748991489, "lat": 40.7887862, "lon": -73.948637, "tags": {"addr:housenumber": "1571", "addr:postcode": "10029", "addr:street": "Lexington Avenue", "amenity": "restaurant", "catering": "yes", "delivery": "yes", "diet:vegan": "yes", "name": "Burritos y Mas", "opening_hours": "Mo-Su 11:00-22:00", "outdoor_seating": "sidewalk", "phone": "+1-646-918-4748", "takeaway": "yes", "website": "https://burritosymasnyc.com"}}, {"type": "node", "id": 1749011035, "lat": 40.7905956, "lon": -73.9476505, "tags": {"addr:housenumber": "1634", "addr:postcode": "10029", "addr:street": "Lexington Avenue", "amenity": "restaurant", "cuisine": "peruvian", "delivery": "yes", "facebook": "https://www.facebook.com/quechuanostra", "instagram": "https://www.instagram.com/quechuanostra", "name": "Quechua Nostra", "opening_hours": "Mo-Sa 10:30-22:00", "outdoor_seating": "yes", "phone": "+1 212-410-0707", "takeaway": "yes"}}, {"type": "node", "id": 1749011039, "lat": 40.7905186, "lon": -73.9477162, "tags": {"addr:housenumber": "1634", "addr:postcode": "10029", "addr:street": "Lexington Avenue", "amenity": "restaurant", "branch": "103rd St.", "check_date": "2024-05-08", "cuisine": "mexican", "delivery": "yes", "level": "0", "name": "El Aguila", "opening_hours": "24/7", "phone": "+1 212-426-2221", "takeaway": "yes", "website": "http://elaguilanewyorkrestaurant.com", "wheelchair": "no"}}, {"type": "node", "id": 1749011095, "lat": 40.7906645, "lon": -73.9476244, "tags": {"addr:housenumber": "1634", "addr:postcode": "10029", "addr:street": "Lexington Avenue", "amenity": "restaurant", "cocktails": "yes", "cuisine": "mediterranean;tapas", "drink:beer": "draught", "drink:wine": "yes", "email": "hello@tlstapasbar.com", "happy_hours": "Mo-Fr 15:00-19:00; Sa, Su 16:00-19:00", "name": "The Lexington Social", "opening_hours": "Mo-Fr 12:00-23:00; Sa, Su 11:00-23:00", "outdoor_seating": "yes", "phone": "+1 646-820-7013", "reservation": "yes", "takeaway": "yes", "website": "http://tlstapasbar.com"}}, {"type": "node", "id": 1749011119, "lat": 40.7927227, "lon": -73.9503373, "tags": {"amenity": "restaurant", "name": "Caribbean Fiesta"}}, {"type": "node", "id": 1749011123, "lat": 40.7927565, "lon": -73.9503189, "tags": {"addr:housenumber": "1546", "addr:postcode": "10029", "addr:street": "Madison Avenue", "amenity": "restaurant", "delivery": "yes", "email": "azizinus@yahoo.com", "name": "Bawarchi Indian Cuisine", "opening_hours": "11:00-22:00", "phone": "+1 212-289-7700", "takeaway": "yes", "website": "http://bawarchis.com"}}, {"type": "node", "id": 2339986430, "lat": 40.792638, "lon": -73.9489933}, {"type": "node", "id": 2339986432, "lat": 40.7928419, "lon": -73.9494796}, {"type": "node", "id": 2339986436, "lat": 40.7920095, "lon": -73.9494008}, {"type": "node", "id": 2339986444, "lat": 40.7926934, "lon": -73.949129}, {"type": "node", "id": 2339986451, "lat": 40.7922262, "lon": -73.9499192}, {"type": "node", "id": 2339986473, "lat": 40.7926217, "lon": -73.9489538}, {"type": "node", "id": 2339993119, "lat": 40.7883305, "lon": -73.9477757}, {"type": "node", "id": 2339993120, "lat": 40.7884284, "lon": -73.9480088}, {"type": "node", "id": 2339993121, "lat": 40.7885496, "lon": -73.9476131}, {"type": "node", "id": 2339993122, "lat": 40.7886491, "lon": -73.94785}, {"type": "node", "id": 2339998094, "lat": 40.7915191, "lon": -73.9456569}, {"type": "node", "id": 2339998095, "lat": 40.7917529, "lon": -73.946083}, {"type": "node", "id": 2339998097, "lat": 40.7915532, "lon": -73.9457386}, {"type": "node", "id": 2339998098, "lat": 40.7917884, "lon": -73.9461641}, {"type": "node", "id": 2339998100, "lat": 40.7919886, "lon": -73.9460312}, {"type": "node", "id": 2339998102, "lat": 40.7914596, "lon": -73.9462974}, {"type": "node", "id": 2339998103, "lat": 40.7913039, "lon": -73.9459199}, {"type": "node", "id": 2339998104, "lat": 40.7917596, "lon": -73.945482}, {"type": "node", "id": 2339998326, "lat": 40.7909757, "lon": -73.9482765}, {"type": "node", "id": 2339998327, "lat": 40.7910788, "lon": -73.9485216}, {"type": "node", "id": 2339998328, "lat": 40.7911785, "lon": -73.9487586}, {"type": "node", "id": 2339998330, "lat": 40.7908766, "lon": -73.9483492}, {"type": "node", "id": 2339998337, "lat": 40.7909793, "lon": -73.9490334}, {"type": "node", "id": 2339998338, "lat": 40.7907352, "lon": -73.948453}, {"type": "node", "id": 2761757537, "lat": 40.7883437, "lon": -73.9447412}, {"type": "node", "id": 2761757541, "lat": 40.7885147, "lon": -73.9451366}, {"type": "node", "id": 2761757551, "lat": 40.7887498, "lon": -73.9449557}, {"type": "node", "id": 2761757555, "lat": 40.7887639, "lon": -73.9449454}, {"type": "node", "id": 2761757559, "lat": 40.7887709, "lon": -73.9450058}, {"type": "node", "id": 2761757562, "lat": 40.788785, "lon": -73.9449955}, {"type": "node", "id": 2761757565, "lat": 40.7888259, "lon": -73.9443897}, {"type": "node", "id": 2761757568, "lat": 40.7888357, "lon": -73.9448931}, {"type": "node", "id": 2761757572, "lat": 40.7888645, "lon": -73.9449615}, {"type": "node", "id": 2761757575, "lat": 40.7888769, "lon": -73.9449524}, {"type": "node", "id": 2761757578, "lat": 40.7888809, "lon": -73.944962}, {"type": "node", "id": 2761757604, "lat": 40.788958, "lon": -73.9447034}, {"type": "node", "id": 2761757622, "lat": 40.7890232, "lon": -73.9448583}, {"type": "node", "id": 2761773043, "lat": 40.789677, "lon": -73.9465936}, {"type": "node", "id": 2761773069, "lat": 40.7897072, "lon": -73.9466656}, {"type": "node", "id": 2761773090, "lat": 40.7897389, "lon": -73.9465488}, {"type": "node", "id": 2761773098, "lat": 40.789769, "lon": -73.9466209}, {"type": "node", "id": 2761773344, "lat": 40.7903072, "lon": -73.9461341}, {"type": "node", "id": 2761773348, "lat": 40.7903114, "lon": -73.946131}, {"type": "node", "id": 2761773379, "lat": 40.7903667, "lon": -73.9460905}, {"type": "node", "id": 2761794282, "lat": 40.7919695, "lon": -73.9513719}, {"type": "node", "id": 2761794295, "lat": 40.792018, "lon": -73.9514841}, {"type": "node", "id": 2761794301, "lat": 40.7921193, "lon": -73.9517209}, {"type": "node", "id": 2761794302, "lat": 40.7921694, "lon": -73.9518383}, {"type": "node", "id": 2761794324, "lat": 40.7924508, "lon": -73.9510167}, {"type": "node", "id": 2761794329, "lat": 40.7924936, "lon": -73.951121}, {"type": "node", "id": 2761794335, "lat": 40.792603, "lon": -73.9513845}, {"type": "node", "id": 2761794337, "lat": 40.7926326, "lon": -73.9514937}, {"type": "node", "id": 2761794338, "lat": 40.7926447, "lon": -73.9514846}, {"type": "node", "id": 2761809232, "lat": 40.7902892, "lon": -73.9453843, "tags": {"addr:housenumber": "1883", "addr:postcode": "10029", "addr:street": "3rd Avenue", "amenity": "restaurant", "check_date": "2023-12-16", "cuisine": "latin_american", "delivery": "yes", "name": "La Isla Restaurant", "opening_hours": "Mo-Th 10:00-01:00; Fr, Sa 10:00-03:00; Su 10:00-01:00", "phone": "+1 212-534-0002", "takeaway": "yes", "website": "https://laislarestaurant104.com"}}, {"type": "node", "id": 2761809688, "lat": 40.7899696, "lon": -73.9439439}, {"type": "node", "id": 2761809722, "lat": 40.7901299, "lon": -73.9438265}, {"type": "node", "id": 2761809726, "lat": 40.7901397, "lon": -73.9438497}, {"type": "node", "id": 2761809733, "lat": 40.7901627, "lon": -73.9438024}, {"type": "node", "id": 2761809736, "lat": 40.7901704, "lon": -73.9444185}, {"type": "node", "id": 2761809737, "lat": 40.7901725, "lon": -73.9438256}, {"type": "node", "id": 2761809739, "lat": 40.7901817, "lon": -73.9442434}, {"type": "node", "id": 2761809742, "lat": 40.7901918, "lon": -73.9442672}, {"type": "node", "id": 2761809745, "lat": 40.7902084, "lon": -73.943769}, {"type": "node", "id": 2761809770, "lat": 40.7902769, "lon": -73.9443405}, {"type": "node", "id": 2761809802, "lat": 40.7903553, "lon": -73.9441163}, {"type": "node", "id": 2761809804, "lat": 40.7903654, "lon": -73.9441401}, {"type": "node", "id": 2761809809, "lat": 40.7903998, "lon": -73.9442505}, {"type": "node", "id": 2761809811, "lat": 40.7904092, "lon": -73.9442436}, {"type": "node", "id": 2761822752, "lat": 40.7909848, "lon": -73.9470267, "tags": {"addr:housenumber": "1651", "addr:postcode": "10029", "addr:street": "Lexington Avenue", "amenity": "bar", "cuisine": "american", "name": "Alison", "opening_hours": "Mo-Fr 15:00-22:00; Sa-Su 10:00-22:00"}}, {"type": "node", "id": 2761822755, "lat": 40.7916166, "lon": -73.9465711, "tags": {"addr:housenumber": "1675", "addr:postcode": "10029", "addr:street": "Lexington Avenue", "amenity": "restaurant", "cuisine": "caribbean", "name": "El Nuevo Caribeno"}}, {"type": "node", "id": 2761823097, "lat": 40.791705, "lon": -73.9461176}, {"type": "node", "id": 2761823133, "lat": 40.7919846, "lon": -73.9460221}, {"type": "node", "id": 2762327893, "lat": 40.7929592, "lon": -73.9455878, "tags": {"addr:housenumber": "1711", "addr:postcode": "10029", "addr:street": "Lexington Avenue", "amenity": "restaurant", "contact:facebook": "EHBottlingCo", "contact:instagram": "eastharlembottlingco", "delivery": "12:00-21:00", "name": "East Harlem Bottling Co", "opening_hours": "Mo-Fr 11:30-00:00; Sa, Su 11:00-00:00", "phone": "+1 646-922-7705"}}, {"type": "node", "id": 4969057548, "lat": 40.7922935, "lon": -73.9506457}, {"type": "node", "id": 4969057549, "lat": 40.7918125, "lon": -73.9509966, "tags": {"barrier": "gate"}}, {"type": "node", "id": 5782494844, "lat": 40.7885453, "lon": -73.9488126, "tags": {"addr:housenumber": "1567", "addr:street": "Lexington Avenue", "amenity": "restaurant", "cuisine": "american", "drink:beer": "bottled", "drink:wine": "served", "name": "Effy's Kitchen", "opening_hours": "10:00-21:00", "phone": "+1 646-930-3021"}}, {"type": "node", "id": 5782495642, "lat": 40.7884657, "lon": -73.9488874, "tags": {"addr:housenumber": "1567", "addr:postcode": "10029", "addr:street": "Lexington Avenue", "amenity": "restaurant", "contact:email": "cafedanversnyc@gmail.com", "cuisine": "belgian", "name": "Caf\u00e9 d'Anvers", "opening_hours": "We-Su 05:00-21:30", "phone": "+1 917-723-2005", "reservation": "yes", "website": "https://cafedanversnyc.com/"}}, {"type": "node", "id": 5801889162, "lat": 40.7889193, "lon": -73.9485485, "tags": {"addr:housenumber": "1575", "addr:postcode": "10029", "addr:street": "Lexington Avenue", "amenity": "restaurant", "contact:email": "plue.nyc@gmail.com", "contact:facebook": "plueny", "contact:instagram": "pluenyc", "cuisine": "thai", "delivery": "yes", "name": "Plue", "opening_hours": "Mo-Su 11:30-15:30, 16:45-21:30", "phone": "+1 929-635-2456", "takeaway": "yes", "website": "https://www.pluenyc.com"}}, {"type": "node", "id": 5879976048, "lat": 40.7892151, "lon": -73.9486629, "tags": {"addr:housenumber": "1590", "addr:street": "Lexington Avenue", "amenity": "restaurant", "cuisine": "pizza;italian", "name": "Supreme Eats Pizza & Pasta Corp", "phone": "+1-646-455-0303"}}, {"type": "node", "id": 5978870985, "lat": 40.7892557, "lon": -73.946623, "tags": {"addr:housenumber": "1850", "addr:postcode": "10029", "addr:street": "3rd Avenue", "amenity": "restaurant", "contact:facebook": "https://www.facebook.com/DreamersPizza/", "cuisine": "pizza", "delivery": "yes", "name": "Dreamer\u2019s Pizza", "opening_hours": "Mo-Su 11:00-23:00", "phone": "+1 212-987-5414", "website": "https://dreamerspizza.com"}}, {"type": "node", "id": 6257260410, "lat": 40.791115, "lon": -73.9486077}, {"type": "node", "id": 6257260422, "lat": 40.7911238, "lon": -73.9489274}, {"type": "node", "id": 6257260431, "lat": 40.791087, "lon": -73.9485411}, {"type": "node", "id": 6257260433, "lat": 40.7911037, "lon": -73.9488134}, {"type": "node", "id": 6257260462, "lat": 40.7911262, "lon": -73.9486343}, {"type": "node", "id": 6257260464, "lat": 40.7908806, "lon": -73.9487986, "tags": {"access": "yes", "barrier": "gate"}}, {"type": "node", "id": 6758200121, "lat": 40.7885984, "lon": -73.9487694, "tags": {"addr:housenumber": "1569", "addr:street": "Lexington Avenue", "amenity": "restaurant", "branch": "Harlem", "delivery": "yes", "drink:coffee": "yes", "drink:tea": "yes", "email": "aujusharlem@gmail.com", "level": "0", "microbrewery": "yes", "name": "Au Jus", "opening_hours": "11:00-21:00", "payment:cash": "only", "phone": "+1 212-360-7200", "seats": "26", "takeaway": "yes", "toilets": "yes", "website": "https://www.aujusnyc.com/locations-harlem/"}}, {"type": "node", "id": 7447541789, "lat": 40.7924379, "lon": -73.945947, "tags": {"office": "lawyer"}}, {"type": "node", "id": 7779545282, "lat": 40.7913221, "lon": -73.9459641, "tags": {"barrier": "gate"}}, {"type": "node", "id": 7779545283, "lat": 40.7918241, "lon": -73.9456366, "tags": {"barrier": "gate"}}, {"type": "node", "id": 7921696720, "lat": 40.7924377, "lon": -73.9509852}, {"type": "node", "id": 7921696722, "lat": 40.7918296, "lon": -73.9510384}, {"type": "node", "id": 7921696723, "lat": 40.7918438, "lon": -73.9509743}, {"type": "node", "id": 7921696724, "lat": 40.7918777, "lon": -73.9511545}, {"type": "node", "id": 7921696725, "lat": 40.7919554, "lon": -73.9513391}, {"type": "node", "id": 7921696729, "lat": 40.7922697, "lon": -73.9506634}, {"type": "node", "id": 7921696731, "lat": 40.7920773, "lon": -73.9516241}, {"type": "node", "id": 8571952437, "lat": 40.7903388, "lon": -73.9460246}, {"type": "node", "id": 8571952438, "lat": 40.790353, "lon": -73.9460582, "tags": {"access": "customers", "entrance": "main"}}, {"type": "node", "id": 8571952439, "lat": 40.7902793, "lon": -73.946068}, {"type": "node", "id": 8571998198, "lat": 40.7881634, "lon": -73.9473978, "tags": {"addr:housenumber": "1810", "addr:postcode": "10029", "addr:street": "3rd Avenue", "amenity": "restaurant", "cuisine": "chinese;japanese", "delivery": "yes", "name": "Moon House", "opening_hours": "Mo-Th 11:00-23:00; Fr, Sa 11:00-00:00; Su 12:00-23:00; Jul 4 off; Dec 25 off", "payment:american_express": "yes", "payment:cash": "yes", "payment:diners_club": "yes", "payment:discover_card": "yes", "payment:mastercard": "yes", "payment:visa": "yes", "phone": "+1 212-427-6540", "takeaway": "yes"}}, {"type": "node", "id": 8732421661, "lat": 40.7898312, "lon": -73.9482267, "tags": {"addr:city": "New York", "addr:housenumber": "129", "addr:postcode": "10029", "addr:state": "NY", "addr:street": "East 102nd Street", "amenity": "cafe", "contact:facebook": "frenchycoffeenyc", "cuisine": "coffee_shop;french", "delivery": "yes", "email": "info@frenchycoffeenyc.com", "facebook": "frenchycoffeenyc", "level": "0", "name": "Frenchy Cafe", "name:en": "Frenchy Coffee", "opening_hours": "Mo-Fr 07:00-17:00; Sa 08:00-17:00", "phone": "+1 646-891-0088", "takeaway": "yes", "website": "http://frenchycoffeenyc.com/", "wheelchair": "yes"}}, {"type": "node", "id": 8732555166, "lat": 40.7885285, "lon": -73.9451231}, {"type": "node", "id": 8793143765, "lat": 40.7926106, "lon": -73.9496448}, {"type": "node", "id": 8793143802, "lat": 40.7927454, "lon": -73.9492518}, {"type": "node", "id": 8793143808, "lat": 40.7923781, "lon": -73.9491316}, {"type": "node", "id": 8793146559, "lat": 40.7926246, "lon": -73.9496331}, {"type": "node", "id": 8793146589, "lat": 40.7922324, "lon": -73.9499148}, {"type": "node", "id": 8793169654, "lat": 40.7923913, "lon": -73.949122}, {"type": "node", "id": 9542864478, "lat": 40.791418, "lon": -73.9450229, "tags": {"addr:housenumber": "1916", "addr:postcode": "10029", "addr:street": "3rd Avenue", "amenity": "restaurant", "cuisine": "mexican", "name": "Cantinflas Mexican Deli", "opening_hours": "Mo-Sa 08:00-19:00; Su 10:00-14:00", "phone": "+1 917-388-3881", "takeaway": "yes"}}, {"type": "node", "id": 9542866767, "lat": 40.7919013, "lon": -73.9450329, "tags": {"addr:housenumber": "169", "addr:postcode": "10029", "addr:street": "East 106th Street", "amenity": "restaurant", "contact:email": "lafondanyc@gmail.com", "contact:facebook": "LaFondaNYC", "contact:instagram": "lafondanyc", "contact:phone": "+1-212-410-7292", "contact:twitter": "FondaBoricua", "contact:website": "https://lafondanyc.com", "cuisine": "caribbean;puerto_rican", "delivery": "yes", "happy_hours": "Tu-Th 16:00-19:00", "level": "0", "name": "La Fonda", "opening_hours": "Tu-Th 12:00-22:00; Fr,Sa 11:00-23:00; Su 11:00-22:00", "opening_hours:kitchen": "Tu-Th 12:00-21:00; Fr, Sa 11:00-22:00; Su 11:00-21:00", "outdoor_seating": "yes", "reservation": "yes", "takeaway": "yes"}}, {"type": "node", "id": 9542956845, "lat": 40.7901672, "lon": -73.9470764, "tags": {"addr:housenumber": "159", "addr:postcode": "10029", "addr:street": "East 103rd Street", "amenity": "restaurant", "delivery": "yes", "name": "Meli's", "opening_hours": "Mo-Sa 08:00-19:00", "phone": "+1 646-863-2178", "takeaway": "yes", "website": "https://www.melishealthyfood.com"}}, {"type": "node", "id": 9719714335, "lat": 40.7883799, "lon": -73.9487013, "tags": {"addr:housenumber": "177", "addr:postcode": "10029", "addr:street": "East 100th Street", "amenity": "bar", "cocktails": "yes", "contact:email": "bargoyananyc@gmail.com", "contact:instagram": "bargoyana", "cuisine": "brazilian", "drink:beer": "served", "drink:wine": "served", "email": "bargoyana@gmail.com", "happy_hours": "We-Fr 17:00-19:00", "level": "0", "name": "Goyana", "opening_hours": "We, Th 15:00-22:00; Fr 15:00-23:00; Sa, Su 12:00-21:00", "phone": "+1 917-213-4480", "seats": "25", "website": "https://bargoyana.com"}}, {"type": "node", "id": 10049914828, "lat": 40.7913756, "lon": -73.9450558, "tags": {"addr:housenumber": "1914", "addr:street": "3rd Avenue", "amenity": "restaurant", "branch": "Harlem", "check_date": "2023-12-16", "cuisine": "chicken", "delivery": "yes", "name": "Mad For Chicken ", "opening_hours": "12:00-22:00", "phone": "+1 646-490-4030", "website": "https://madforchicken.com/locations/harlem/"}}, {"type": "node", "id": 11404155931, "lat": 40.7901226, "lon": -73.9459722, "tags": {"addr:housenumber": "1878", "addr:street": "3rd Avenue", "amenity": "restaurant", "cuisine": "seafood; asian", "delivery": "yes", "name": "AB Fish Market", "opening_hours": "Mo-Sa 11:00-21:00; Su 12:00-20:00", "phone": "+1 646-596-7878", "takeaway": "yes", "website": "https://www.abfishmarketny.com/"}}, {"type": "node", "id": 11956612159, "lat": 40.7910824, "lon": -73.9488291}, {"type": "node", "id": 12396937575, "lat": 40.7900164, "lon": -73.9477263, "tags": {"addr:housenumber": "1629", "addr:postcode": "10029", "addr:street": "Lexington Avenue", "amenity": "cafe", "cuisine": "pizza", "level": "1", "name": "Da blanca pizzeria", "phone": "+1 646-781-9001"}}, {"type": "node", "id": 12605171178, "lat": 40.7925094, "lon": -73.9474093, "tags": {"amenity": "school", "denomination": "catholic", "grades": "9-12", "mascot": "Lions", "name": "Cristo Rey New York High School", "religion": "christian"}}, {"type": "way", "id": 225188061, "nodes": [2339986451, 8793146589, 8793143765, 8793146559, 2339986432, 8793143802, 2339986444, 2339986430, 2339986473, 8793169654, 8793143808, 2339986436, 2339986451], "tags": {"leisure": "park", "name": "Mae Grant Playground"}}, {"type": "way", "id": 225188879, "nodes": [2339993121, 2339993119, 2339993120, 2339993122, 2339993121], "tags": {"gnis:feature_id": "2500962", "leisure": "park", "name": "Sunshine Playground"}}, {"type": "way", "id": 225189359, "nodes": [2339998100, 2761823133, 2339998098, 2339998095, 2761823097, 2339998102, 7779545282, 2339998103, 2339998097, 2339998094, 2339998104, 7779545283, 2339998100], "tags": {"leisure": "park", "name": "White Playground", "ref": "M148", "website": "https://www.nycgovparks.org/parks/white-playground"}}, {"type": "way", "id": 225189391, "nodes": [2339998326, 2339998327, 6257260431, 6257260410, 6257260462, 2339998328, 6257260433, 11956612159, 6257260422, 2339998337, 6257260464, 2339998338, 2339998330, 2339998326], "tags": {"alcohol": "no", "contact:yelp": "https://www.yelp.com/biz/n-y-r-p-103rd-street-garden-new-york", "landuse": "recreation_ground", "leisure": "park", "name": "103rd Street Community Garden", "name:be": "\u0413\u0440\u0430\u043c\u0430\u0434\u0441\u043a\u0456 \u0441\u0430\u0434 103-\u0439 \u0432\u0443\u043b\u0456\u0446\u044b", "name:en": "103rd Street Community Garden", "name:pl": "Ogr\u00f3d spo\u0142eczno\u015bciowy na 103 ulicy", "name:ru": "\u041e\u0431\u0449\u0435\u0441\u0442\u0432\u0435\u043d\u043d\u044b\u0439 \u0441\u0430\u0434 \u043d\u0430 103-\u0439 \u0443\u043b\u0438\u0446\u0435", "operator": "New York Restoration Project", "start_date": "2011", "website": "https://www.nyrp.org/green-spaces/garden-details/103rd-street-community-garden/"}}, {"type": "way", "id": 271215347, "nodes": [2761757565, 2761757537, 2761757541, 8732555166, 2761757551, 2761757559, 2761757562, 2761757555, 2761757568, 2761757572, 2761757575, 2761757578, 2761757622, 2761757604, 2761757565], "tags": {"addr:housenumber": "232", "addr:postcode": "10029", "addr:street": "East 103rd Street", "alt_name": "Roberto Clemente Learning Complex", "amenity": "school", "building": "school", "height": "29.5", "name": "Public School 38", "nycdoitt:bin": "1052384", "phone": "+1 212-860-5882", "website": "https://www.ps38rclc.org/"}}, {"type": "way", "id": 271219053, "nodes": [2761773043, 2761773069, 2761773098, 2761773090, 2761773043], "tags": {"addr:housenumber": "172", "addr:postcode": "10029", "addr:street": "East 103rd Street", "amenity": "restaurant", "building": "yes", "building:levels": "1", "cuisine": "caribbean;puerto_rican;latin_american", "height": "4.2", "name": "Lechonera Tropical & Grill", "nycdoitt:bin": "1082390", "opening_hours": "Mo-Su 08:00-22:00", "phone": "+1 212-722-1344"}}, {"type": "way", "id": 271221907, "nodes": [2761809733, 2761809737, 2761809726, 2761809722, 2761809688, 2761809736, 2761809770, 2761809809, 2761809811, 2761809804, 2761809742, 2761809739, 2761809802, 2761809745, 2761809733], "tags": {"addr:housenumber": "230", "addr:postcode": "10029", "addr:street": "East 105th Street", "amenity": "school", "building": "school", "ele": "6", "gnis:feature_id": "2083767", "height": "7.5", "name": "Park East High School", "nycdoitt:bin": "1075643", "wikidata": "Q105286400"}}, {"type": "way", "id": 507390622, "nodes": [2761794338, 2761794335, 2761794329, 2761794324, 7921696720, 4969057548, 7921696729, 7921696723, 4969057549, 7921696722, 7921696724, 7921696725, 2761794282, 2761794295, 7921696731, 2761794301, 2761794302, 2761794337, 2761794338], "tags": {"alt_name": "Patrick Henry Preporatory School", "amenity": "school", "fax": "+1 212-828-7115", "instagram": "https://instagram.com/patrickhenryprepnyc", "isced:level": "0;1;2", "name": "Public School 171", "phone": "+1 212-860-5801", "twitter": "https://twitter.com/phprepnyc", "website": "https://www.ps171.org/"}}, {"type": "way", "id": 923404957, "nodes": [8571952437, 8571952439, 2761773344, 2761773348, 2761773379, 8571952438, 8571952437], "tags": {"addr:city": "New York", "addr:housenumber": "188", "addr:postcode": "10029", "addr:state": "NY", "addr:street": "East 104th Street", "amenity": "restaurant", "building": "retail", "building:levels": "1", "building:use": "retail", "check_date": "2023-03-30", "cuisine": "pizza", "delivery": "yes", "internet_access": "no", "max_level": "0", "min_level": "-1", "name": "G&J's Pizzeria", "opening_hours": "Mo-Th 11:00-21:15; Fr-Su 11:00-23:00", "payment:american_express": "yes", "payment:credit_cards": "yes", "payment:discover_card": "yes", "payment:mastercard": "yes", "payment:visa": "yes", "phone": "+1 212-369-4800", "roof:shape": "flat", "takeaway": "yes", "website": "https://www.gandjspizzerianymenu.com", "wheelchair": "limited"}}]}