{"version": 0.6, "generator": "Overpass API 0.7.62.8 e802775f", "osm3s": {"timestamp_osm_base": "2025-12-01T16:06:30Z", "copyright": "The data included in this document is from www.openstreetmap.org. The data is made available under ODbL."}, "elements": [{"type": "node", "id": 2453267235, "lat": 40.7023032, "lon": -73.8042924}, {"type": "node", "id": 2453267257, "lat": 40.7028815, "lon": -73.8024927}, {"type": "node", "id": 2453267377, "lat": 40.7046039, "lon": -73.8055093}, {"type": "node", "id": 2453267404, "lat": 40.7051131, "lon": -73.8036964}, {"type": "node", "id": 2868410092, "lat": 40.698005, "lon": -73.8066285}, {"type": "node", "id": 2868410235, "lat": 40.6980541, "lon": -73.8066589}, {"type": "node", "id": 2868410257, "lat": 40.6980817, "lon": -73.8064146}, {"type": "node", "id": 2868410259, "lat": 40.6980829, "lon": -73.8061007}, {"type": "node", "id": 2868410272, "lat": 40.6981045, "lon": -73.8066893}, {"type": "node", "id": 2868410290, "lat": 40.698124, "lon": -73.8061267}, {"type": "node", "id": 2868410296, "lat": 40.6981308, "lon": -73.8064451}, {"type": "node", "id": 2868410411, "lat": 40.6981499, "lon": -73.8060562}, {"type": "node", "id": 2868410416, "lat": 40.6981554, "lon": -73.8067208}, {"type": "node", "id": 2868410418, "lat": 40.6981566, "lon": -73.8058995}, {"type": "node", "id": 2868410422, "lat": 40.698169, "lon": -73.8058659}, {"type": "node", "id": 2868410430, "lat": 40.6981809, "lon": -73.8064761}, {"type": "node", "id": 2868410443, "lat": 40.6982101, "lon": -73.8058919}, {"type": "node", "id": 2868410460, "lat": 40.6982318, "lon": -73.8065076}, {"type": "node", "id": 2870760865, "lat": 40.7017916, "lon": -73.805341, "tags": {"addr:housenumber": "149-04", "addr:postcode": "11435", "addr:street": "Jamaica Avenue", "amenity": "restaurant", "check_date:opening_hours": "2022-06-15", "name": "El Rincon", "opening_hours:signed": "no"}}, {"type": "node", "id": 2870774577, "lat": 40.702745, "lon": -73.8051119}, {"type": "node", "id": 2870774582, "lat": 40.70281, "lon": -73.8048819}, {"type": "node", "id": 2870774714, "lat": 40.7029931, "lon": -73.805233}, {"type": "node", "id": 2870774718, "lat": 40.7030362, "lon": -73.8050178}, {"type": "node", "id": 2870774719, "lat": 40.7030426, "lon": -73.8049954}, {"type": "node", "id": 2870774721, "lat": 40.7030518, "lon": -73.8050254}, {"type": "node", "id": 2870806675, "lat": 40.7005562, "lon": -73.8083941}, {"type": "node", "id": 2870807728, "lat": 40.7005081, "lon": -73.8086239}, {"type": "node", "id": 2870807731, "lat": 40.7005504, "lon": -73.8084364}, {"type": "node", "id": 2870807732, "lat": 40.7005557, "lon": -73.8084469}, {"type": "node", "id": 2870807734, "lat": 40.7005587, "lon": -73.8083994}, {"type": "node", "id": 2870807736, "lat": 40.7005615, "lon": -73.8084}, {"type": "node", "id": 2870807742, "lat": 40.7005832, "lon": -73.8082954}, {"type": "node", "id": 2870807750, "lat": 40.7006207, "lon": -73.80865}, {"type": "node", "id": 2870807754, "lat": 40.7006453, "lon": -73.8084665}, {"type": "node", "id": 2870807764, "lat": 40.7007428, "lon": -73.8084891}, {"type": "node", "id": 2870807774, "lat": 40.7007632, "lon": -73.808337}, {"type": "node", "id": 6132132014, "lat": 40.7024564, "lon": -73.807852, "tags": {"addr:city": "Jamaica", "addr:housenumber": "90-27", "addr:postcode": "11435", "addr:state": "NY", "addr:street": "Sutphin Boulevard", "addr:unit": "#402", "name": "Law Office of Mark J. Keller", "office": "lawyer", "phone": "+1 718-297-1890", "website": "https://www.markkellerlaw.com/"}}, {"type": "node", "id": 6894162189, "lat": 40.699063, "lon": -73.8073413, "tags": {"addr:city": "Jamaica", "addr:housenumber": "93-40", "addr:postcode": "11435", "addr:state": "NY", "addr:street": "Sutphin Boulevard", "amenity": "cafe", "brand": "Tim Hortons", "brand:wikidata": "Q175106", "cuisine": "coffee_shop", "delivery": "yes", "drive_through": "no", "indoor_seating": "yes", "name": "Tim Hortons", "opening_hours": "24/7", "outdoor_seating": "no", "phone": "+1 718-725-0002", "takeaway": "yes", "website": "https://locations.timhortons.com/en/ny/jamaica/93-40-sutphin-blvd-ground-floor-jamaica-train-station/"}}, {"type": "node", "id": 6997420501, "lat": 40.70191, "lon": -73.8085258, "tags": {"addr:city": "Jamaica", "addr:housenumber": "146-09", "addr:postcode": "11435", "addr:state": "NY", "addr:street": "Jamaica Avenue", "amenity": "pub", "check_date": "2024-04-21", "name": "The Blarney"}}, {"type": "node", "id": 7857569292, "lat": 40.70215, "lon": -73.8048049, "tags": {"addr:city": "Jamaica", "addr:housenumber": "149-23", "addr:state": "NY", "addr:street": "Jamaica Avenue", "amenity": "restaurant", "bar": "yes", "delivery": "yes", "level": "0", "name": "La Nueva Placitas", "outdoor_seating": "yes", "smoking": "no", "takeaway": "yes", "wheelchair": "yes"}}, {"type": "node", "id": 9347058414, "lat": 40.7006451, "lon": -73.8081224, "tags": {"name": "Liberty Tax", "office": "accountant"}}, {"type": "node", "id": 9663947005, "lat": 40.7023347, "lon": -73.8113366, "tags": {"amenity": "restaurant"}}, {"type": "node", "id": 9663947007, "lat": 40.7022924, "lon": -73.8110397, "tags": {"amenity": "restaurant"}}, {"type": "node", "id": 9696560216, "lat": 40.6985861, "lon": -73.8068434, "tags": {"addr:housenumber": "94-14", "addr:postcode": "11435", "addr:state": "NY", "addr:street": "Sutphin Boulevard", "amenity": "restaurant", "cuisine": "jamaican", "indoor_seating": "yes", "level": "0", "name": "Yah Suh Nyce", "outdoor_seating": "no"}}, {"type": "node", "id": 11532097725, "lat": 40.7050939, "lon": -73.8036372}, {"type": "node", "id": 11532097726, "lat": 40.7043051, "lon": -73.8032656}, {"type": "node", "id": 11532097727, "lat": 40.7028063, "lon": -73.802539}, {"type": "node", "id": 11532097731, "lat": 40.7023237, "lon": -73.8043784}, {"type": "node", "id": 11532097733, "lat": 40.7046415, "lon": -73.8054594}, {"type": "node", "id": 12106137015, "lat": 40.6982476, "lon": -73.8065382, "tags": {"office": "estate_agent"}}, {"type": "way", "id": 237427159, "nodes": [2453267235, 11532097727, 2453267257, 11532097726, 11532097725, 2453267404, 11532097733, 2453267377, 11532097731, 2453267235], "tags": {"ele": "15", "gnis:feature_id": "954638", "leisure": "park", "name": "Rufus King Park", "operator": "New York City Department of Parks and Recreation", "operator:short": "NYC Parks", "operator:type": "government", "operator:wikidata": "Q1894232", "wikidata": "Q34859184"}}, {"type": "way", "id": 282895930, "nodes": [2868410259, 2868410290, 2868410411, 2868410443, 2868410422, 2868410418, 2868410259], "tags": {"addr:city": "Jamaica", "addr:country": "US", "addr:housenumber": "95-09", "addr:postcode": "11435", "addr:state": "NY", "addr:street": "Sutphin Boulevard", "amenity": "restaurant", "building": "yes", "cuisine": "mexican", "height": "7.6", "name": "El Sol De Mexico", "nycdoitt:bin": "4214526", "shop": "deli"}}, {"type": "way", "id": 282895931, "nodes": [2868410092, 2868410235, 2868410296, 2868410257, 2868410092], "tags": {"addr:city": "Jamaica", "addr:country": "US", "addr:housenumber": "95-08", "addr:postcode": "11435", "addr:state": "NY", "addr:street": "Sutphin Boulevard", "amenity": "restaurant", "building": "yes", "cuisine": "regional", "height": "7.5", "name": "G's Homestyle Cooking", "nycdoitt:bin": "4214489", "phone": "+1 718 262-9320"}}, {"type": "way", "id": 282896349, "nodes": [2868410272, 2868410416, 2868410460, 2868410430, 2868410272], "tags": {"addr:city": "Jamaica", "addr:housenumber": "95-04", "addr:postcode": "11435", "addr:street": "Sutphin Boulevard", "amenity": "restaurant", "building": "yes", "cuisine": "burger", "height": "7.4", "name": "Maxie's Luncheonette", "nycdoitt:bin": "4214487", "phone": "+1 718 526-9819"}}, {"type": "way", "id": 283167846, "nodes": [2870774718, 2870774719, 2870774582, 2870774577, 2870774714, 2870774721, 2870774718], "tags": {"addr:city": "Jamaica", "addr:housenumber": "90-36", "addr:postcode": "11435", "addr:state": "NY", "addr:street": "150th Street", "amenity": "school", "building": "yes", "height": "18.1", "name": "P.S. 882", "nycdoitt:bin": "4448758"}}, {"type": "way", "id": 283172176, "nodes": [2870806675, 2870807734, 2870807736, 2870807731, 2870807732, 2870807728, 2870807750, 2870807754, 2870807764, 2870807774, 2870807742, 2870806675], "tags": {"addr:housenumber": "146-01", "addr:postcode": "11435", "addr:street": "Archer Avenue", "building": "transportation", "height": "8.2", "name": "Long Island Rail Road Administration Building", "nycdoitt:bin": "4213907", "office": "company"}}]}