{"version": 0.6, "generator": "Overpass API 0.7.62.8 e802775f", "osm3s": {"timestamp_osm_base": "2025-12-01T17:06:55Z", "copyright": "The data included in this document is from www.openstreetmap.org. The data is made available under ODbL."}, "elements": [{"type": "node", "id": 246942723, "lat": 40.7816773, "lon": -73.9880025}, {"type": "node", "id": 246942732, "lat": 40.785419, "lon": -73.9854479}, {"type": "node", "id": 246942733, "lat": 40.7864723, "lon": -73.9847162}, {"type": "node", "id": 357616290, "lat": 40.7775, "lon": -73.9841667, "tags": {"ele": "21", "gnis:feature_id": "2078977", "leisure": "park", "name": "Seventieth Street Playground", "wikidata": "Q49559944"}}, {"type": "node", "id": 430351195, "lat": 40.7844976, "lon": -73.9860918}, {"type": "node", "id": 430354197, "lat": 40.7804705, "lon": -73.9859008}, {"type": "node", "id": 430354198, "lat": 40.7880976, "lon": -73.9835893}, {"type": "node", "id": 430354201, "lat": 40.7895365, "lon": -73.9825815}, {"type": "node", "id": 430354202, "lat": 40.7901461, "lon": -73.9816674}, {"type": "node", "id": 430354203, "lat": 40.7912479, "lon": -73.980947}, {"type": "node", "id": 430354204, "lat": 40.7927162, "lon": -73.979782}, {"type": "node", "id": 430354205, "lat": 40.7932818, "lon": -73.9792504}, {"type": "node", "id": 430354206, "lat": 40.7939236, "lon": -73.9786427}, {"type": "node", "id": 430354207, "lat": 40.7943003, "lon": -73.9781989}, {"type": "node", "id": 430354208, "lat": 40.7943168, "lon": -73.9779891}, {"type": "node", "id": 430354209, "lat": 40.7944525, "lon": -73.977695}, {"type": "node", "id": 430354210, "lat": 40.795638, "lon": -73.9763986}, {"type": "node", "id": 430354211, "lat": 40.7955228, "lon": -73.9762247}, {"type": "node", "id": 430354212, "lat": 40.7952466, "lon": -73.9764734}, {"type": "node", "id": 430354213, "lat": 40.7949166, "lon": -73.9767041}, {"type": "node", "id": 430354214, "lat": 40.7945977, "lon": -73.9768805}, {"type": "node", "id": 430354215, "lat": 40.7940546, "lon": -73.9770706}, {"type": "node", "id": 430354216, "lat": 40.7937415, "lon": -73.9771136}, {"type": "node", "id": 430354217, "lat": 40.7932488, "lon": -73.9771283}, {"type": "node", "id": 430354218, "lat": 40.7930267, "lon": -73.9771375}, {"type": "node", "id": 430354219, "lat": 40.7925634, "lon": -73.9774065}, {"type": "node", "id": 430354220, "lat": 40.7922693, "lon": -73.9777346}, {"type": "node", "id": 430354221, "lat": 40.7919526, "lon": -73.9784642}, {"type": "node", "id": 430354222, "lat": 40.7917603, "lon": -73.9789449}, {"type": "node", "id": 430354223, "lat": 40.7915906, "lon": -73.9791599}, {"type": "node", "id": 430354224, "lat": 40.7914209, "lon": -73.9793578}, {"type": "node", "id": 430354225, "lat": 40.7909854, "lon": -73.9797255}, {"type": "node", "id": 430354226, "lat": 40.7903067, "lon": -73.9801949}, {"type": "node", "id": 430354227, "lat": 40.7896393, "lon": -73.9807152}, {"type": "node", "id": 430354228, "lat": 40.789283, "lon": -73.9809415}, {"type": "node", "id": 430354229, "lat": 40.7888249, "lon": -73.9810998}, {"type": "node", "id": 430354230, "lat": 40.7882562, "lon": -73.9811759}, {"type": "node", "id": 430354234, "lat": 40.7869906, "lon": -73.9813028, "tags": {"barrier": "kerb", "kerb": "lowered"}}, {"type": "node", "id": 430354236, "lat": 40.7864469, "lon": -73.9814019}, {"type": "node", "id": 430354237, "lat": 40.7861692, "lon": -73.9815568, "tags": {"barrier": "kerb", "kerb": "lowered"}}, {"type": "node", "id": 430354238, "lat": 40.7858604, "lon": -73.9818409}, {"type": "node", "id": 430354239, "lat": 40.7854736, "lon": -73.9822405}, {"type": "node", "id": 432734894, "lat": 40.7849775, "lon": -73.9857527}, {"type": "node", "id": 432734895, "lat": 40.781378, "lon": -73.9881472}, {"type": "node", "id": 1002892570, "lat": 40.7773385, "lon": -73.9823823}, {"type": "node", "id": 1002892573, "lat": 40.77731, "lon": -73.982318}, {"type": "node", "id": 1002892577, "lat": 40.7774197, "lon": -73.982318}, {"type": "node", "id": 1329122475, "lat": 40.7810243, "lon": -73.9871678}, {"type": "node", "id": 1332863755, "lat": 40.7928303, "lon": -73.9796748}, {"type": "node", "id": 2029349826, "lat": 40.7943018, "lon": -73.9780886}, {"type": "node", "id": 2029349832, "lat": 40.7943663, "lon": -73.9778348}, {"type": "node", "id": 2029349881, "lat": 40.7955472, "lon": -73.9767202}, {"type": "node", "id": 2029349883, "lat": 40.7955666, "lon": -73.9762573}, {"type": "node", "id": 2029349885, "lat": 40.7955944, "lon": -73.9766508}, {"type": "node", "id": 2029349886, "lat": 40.7955974, "lon": -73.9762905}, {"type": "node", "id": 2029349889, "lat": 40.7956256, "lon": -73.9765555}, {"type": "node", "id": 2029349891, "lat": 40.7956371, "lon": -73.9764846}, {"type": "node", "id": 2041315651, "lat": 40.7818277, "lon": -73.9879357}, {"type": "node", "id": 2041315655, "lat": 40.7873648, "lon": -73.9840943}, {"type": "node", "id": 2041315660, "lat": 40.7853757, "lon": -73.9854782}, {"type": "node", "id": 2041315670, "lat": 40.7832625, "lon": -73.9869408}, {"type": "node", "id": 2041315671, "lat": 40.7815131, "lon": -73.9880798}, {"type": "node", "id": 2041315677, "lat": 40.7887706, "lon": -73.9831259}, {"type": "node", "id": 2041819922, "lat": 40.7859324, "lon": -73.9850878}, {"type": "node", "id": 2443892139, "lat": 40.7777547, "lon": -73.9826132, "tags": {"addr:city": "New York", "addr:country": "US", "addr:housenumber": "2045", "addr:postcode": "10023", "addr:state": "NY", "addr:street": "Broadway", "air_conditioning": "yes", "amenity": "cafe", "branch": "70th & Broadway", "brand": "Starbucks", "brand:wikidata": "Q37158", "cuisine": "coffee_shop", "indoor_seating": "yes", "internet_access": "wlan", "internet_access:fee": "no", "level": "0", "name": "Starbucks", "official_name": "Starbucks Coffee", "opening_hours": "Mo-Sa 05:30-20:30; Su 06:00-19:30", "outdoor_seating": "no", "payment:app": "yes", "payment:cards": "yes", "payment:cash": "yes", "phone": "+1 212-496-1551", "ref": "15083", "takeaway": "yes", "website": "https://www.starbucks.com/store-locator/store/15083/70th-broadway-2045-broadway-new-york-ny-100233702-us"}}, {"type": "node", "id": 2524934986, "lat": 40.780121, "lon": -73.9803132, "tags": {"addr:city": "New York", "addr:country": "US", "addr:housenumber": "307", "addr:postcode": "10023", "addr:state": "NY", "addr:street": "Amsterdam Avenue", "amenity": "restaurant", "cuisine": "thai", "name": "Sala Thai", "opening_hours": "Mo-Th, Su 11:30-22:00; Fr-Sa 11:30-22:30", "phone": "+1-212-433-3999", "website": "https://salathainyc.com"}}, {"type": "node", "id": 2550112940, "lat": 40.7761285, "lon": -73.9794669, "tags": {"addr:city": "New York", "addr:country": "US", "addr:housenumber": "221", "addr:postcode": "10023", "addr:state": "NY", "addr:street": "Columbus Avenue", "amenity": "restaurant", "cuisine": "japanese", "name": "Amber", "website": "https://www.ambergroupnyc.com/amberupperwest/"}}, {"type": "node", "id": 2550112949, "lat": 40.7775475, "lon": -73.9784645, "tags": {"addr:housenumber": "261", "addr:street": "Columbus Avenue", "amenity": "cafe", "check_date": "2025-01-29", "level": "0", "name": "72nd Eatery", "outdoor_seating": "yes", "phone": "+1-212-721-7800", "website": "https://www.72ndeatery.com", "wheelchair": "no"}}, {"type": "node", "id": 2592129994, "lat": 40.7801424, "lon": -73.980766, "tags": {"addr:city": "New York", "addr:country": "US", "addr:housenumber": "300", "addr:postcode": "10023", "addr:state": "NY", "addr:street": "Amsterdam Avenue", "air_conditioning": "yes", "amenity": "restaurant", "bar": "yes", "branch": "Upper West Side", "brewery": "yes", "cuisine": "middle_eastern", "diet:gluten_free": "yes", "diet:halal": "no", "diet:kosher": "no", "diet:lactose_free": "yes", "diet:pescetarian": "no", "diet:vegan": "yes", "diet:vegetarian": "yes", "indoor_seating": "yes", "level": "0", "name": "Miriam", "opening_hours": "Mo-Fr 10:00-22:00; Sa-Su 09:00-22:00", "outdoor_seating": "yes", "phone": "+1-646-590-2659", "reservation": "yes", "smoking": "no", "website": "https://uws.miriamrestaurant.com"}}, {"type": "node", "id": 2745010769, "lat": 40.777108, "lon": -73.9817979, "tags": {"addr:city": "New York", "addr:housenumber": "2040", "addr:postcode": "10023", "addr:state": "NY", "addr:street": "Broadway", "amenity": "cafe", "name": "Chanson", "outdoor_seating": "no", "website": "https://www.patisseriechanson.us"}}, {"type": "node", "id": 2745010771, "lat": 40.7773213, "lon": -73.9818066, "tags": {"addr:city": "New York", "addr:housenumber": "2052", "addr:postcode": "10023", "addr:state": "NY", "addr:street": "Broadway", "air_conditioning": "yes", "amenity": "restaurant", "bar": "yes", "branch": "Upper West Side", "cuisine": "sushi", "level": "0", "name": "Bondi Sushi", "opening_hours": "Mo-Su 11:00-22:00", "outdoor_seating": "no", "phone": "+1-646-629-4187", "reservation": "yes", "smoking": "no", "website": "https://bondisushi.com/", "wheelchair": "yes"}}, {"type": "node", "id": 2745018029, "lat": 40.7764286, "lon": -73.9829972, "tags": {"addr:city": "New York", "addr:housenumber": "189", "addr:postcode": "10023", "addr:state": "NY", "addr:street": "Amsterdam Avenue", "air_conditioning": "yes", "amenity": "bar", "microbrewery": "no", "name": "Vanguard Wine Bar", "outdoor_seating": "no", "smoking": "no"}}, {"type": "node", "id": 2745018094, "lat": 40.7769134, "lon": -73.9823803}, {"type": "node", "id": 2745018096, "lat": 40.7769144, "lon": -73.9824159}, {"type": "node", "id": 2745018098, "lat": 40.7769221, "lon": -73.9824155}, {"type": "node", "id": 2745018099, "lat": 40.7769249, "lon": -73.982513}, {"type": "node", "id": 2745018102, "lat": 40.7769497, "lon": -73.9825988}, {"type": "node", "id": 2745018105, "lat": 40.7769553, "lon": -73.9825953}, {"type": "node", "id": 2745018108, "lat": 40.7769609, "lon": -73.9826291}, {"type": "node", "id": 2745018114, "lat": 40.7770281, "lon": -73.9823773}, {"type": "node", "id": 2745018115, "lat": 40.7770305, "lon": -73.9824713}, {"type": "node", "id": 2745018117, "lat": 40.7770648, "lon": -73.9825542}, {"type": "node", "id": 2745038464, "lat": 40.777411, "lon": -73.9831224, "tags": {"addr:city": "New York", "addr:housenumber": "200", "addr:postcode": "10023", "addr:state": "NY", "addr:street": "West 70th Street", "air_conditioning": "yes", "amenity": "restaurant", "bar": "yes", "cuisine": "french", "level": "0", "name": "Cafe Luxembourg", "opening_hours": "Mo-Tu 08:00-23:00, We-Fr 08:00-00:00, Sa 09:00-00:00, Su 09:00-23:00", "outdoor_seating": "yes", "phone": "+1-212-873-7411", "reservation": "yes", "smoking": "no", "website": "https://cafeluxembourg.com/"}}, {"type": "node", "id": 2745038545, "lat": 40.7774084, "lon": -73.9844695}, {"type": "node", "id": 2745038548, "lat": 40.7774588, "lon": -73.9844328}, {"type": "node", "id": 2745038589, "lat": 40.7777503, "lon": -73.9852684}, {"type": "node", "id": 2745038592, "lat": 40.7777816, "lon": -73.9841978}, {"type": "node", "id": 2745038626, "lat": 40.778119, "lon": -73.985}, {"type": "node", "id": 2745087243, "lat": 40.7788967, "lon": -73.9827653, "tags": {"addr:city": "New York", "addr:housenumber": "218", "addr:postcode": "10023", "addr:state": "NY", "addr:street": "West 72nd Street", "amenity": "restaurant", "cuisine": "japanese", "name": "Shinbashi 72", "phone": "+1-212-510-7799"}}, {"type": "node", "id": 2745087404, "lat": 40.7787849, "lon": -73.9839515}, {"type": "node", "id": 2745087410, "lat": 40.7788086, "lon": -73.9840069}, {"type": "node", "id": 2745087413, "lat": 40.778815, "lon": -73.9840145}, {"type": "node", "id": 2745087415, "lat": 40.7788188, "lon": -73.9840175}, {"type": "node", "id": 2745087420, "lat": 40.7788269, "lon": -73.9840213}, {"type": "node", "id": 2745087423, "lat": 40.7788356, "lon": -73.9840222}, {"type": "node", "id": 2745087451, "lat": 40.7788683, "lon": -73.9838897}, {"type": "node", "id": 2745087496, "lat": 40.7789283, "lon": -73.9838452}, {"type": "node", "id": 2745087505, "lat": 40.7789637, "lon": -73.9839885}, {"type": "node", "id": 2745087513, "lat": 40.7789781, "lon": -73.9840223}, {"type": "node", "id": 2745087514, "lat": 40.7789788, "lon": -73.9838078}, {"type": "node", "id": 2745087535, "lat": 40.779028, "lon": -73.9839853}, {"type": "node", "id": 2745087545, "lat": 40.7790484, "lon": -73.9839702}, {"type": "node", "id": 2745119745, "lat": 40.7769663, "lon": -73.9793341, "tags": {"addr:city": "New York", "addr:country": "US", "addr:housenumber": "240", "addr:postcode": "10023", "addr:state": "NY", "addr:street": "Columbus Avenue", "amenity": "restaurant", "construction:amenity": "restaurant", "cuisine": "italian", "description": "Felice Columbus, brings the vineyards of the Tuscan Countryside to the Upper West Side.", "name": "Felice Columbus", "phone": "+1-212-931-1150", "website": "https://www.felicenyc.com/"}}, {"type": "node", "id": 2745119754, "lat": 40.7783615, "lon": -73.9815253, "tags": {"addr:city": "New York", "addr:country": "US", "addr:housenumber": "176", "addr:postcode": "10023", "addr:state": "NY", "addr:street": "West 72nd Street", "amenity": "pub", "microbrewery": "yes", "name": "Westland Roe Bar and Kitchen"}}, {"type": "node", "id": 2745321892, "lat": 40.7774878, "lon": -73.9785066, "tags": {"addr:city": "New York", "addr:country": "US", "addr:housenumber": "53", "addr:postcode": "10023", "addr:state": "NY", "addr:street": "West 72nd Street", "amenity": "bar", "check_date": "2025-01-29", "name": "Dakota Bar", "phone": "+1-212-787-0700", "website": "https://www.thedakotabar.nyc"}}, {"type": "node", "id": 2745359371, "lat": 40.7778296, "lon": -73.9793656, "tags": {"addr:housenumber": "117", "addr:postcode": "10023", "addr:street": "West 72nd Street", "amenity": "cafe", "name": "Juice Generation"}}, {"type": "node", "id": 2745359378, "lat": 40.7788474, "lon": -73.9812288, "tags": {"addr:city": "New York", "addr:housenumber": "267", "addr:postcode": "10023", "addr:state": "NY", "addr:street": "Amsterdam Avenue", "amenity": "restaurant", "branch": "Amsterdam Ave", "cuisine": "chinese", "name": "Simply Noodles", "opening_hours": "Mo-Su 11:00-21:00", "phone": "+1-212-721-1000", "website": "https://www.simplynoodlesnyc.com"}}, {"type": "node", "id": 2745359670, "lat": 40.7791535, "lon": -73.9819073}, {"type": "node", "id": 2745370256, "lat": 40.7793592, "lon": -73.9808591, "tags": {"addr:city": "New York", "addr:housenumber": "283", "addr:postcode": "10023", "addr:state": "NY", "addr:street": "Amsterdam Avenue", "air_conditioning": "yes", "amenity": "restaurant", "contact:facebook": "salumeriarosinyc", "contact:instagram": "salumeriarosinyc", "contact:twitter": "salumeriarosi", "cuisine": "italian;tuscan", "delivery": "yes", "email": "info@salumeriarosinyc.com", "happy_hours": "Mo-Fr 15:00-17:00", "level": "0", "name": "Salumeria Rosi", "opening_hours": "Mo-Fr 12:00-22:00; Sa, Su 11:00-23:00", "outdoor_seating": "yes", "phone": "+1-212-877-4800", "reservation": "yes", "smoking": "no", "takeaway": "yes", "website": "https://www.salumeriarosinyc.com"}}, {"type": "node", "id": 2745375894, "lat": 40.7794557, "lon": -73.9823346}, {"type": "node", "id": 2745375917, "lat": 40.7794858, "lon": -73.9824059}, {"type": "node", "id": 2745375920, "lat": 40.7794871, "lon": -73.982405}, {"type": "node", "id": 2745376048, "lat": 40.7796416, "lon": -73.982199}, {"type": "node", "id": 2745376076, "lat": 40.7796717, "lon": -73.9822704}, {"type": "node", "id": 2745436339, "lat": 40.7803309, "lon": -73.9799393, "tags": {"addr:city": "New York", "addr:housenumber": "164", "addr:postcode": "10023", "addr:state": "NY", "addr:street": "West 75th Street", "amenity": "restaurant", "cuisine": "italian", "name": "Sempre Oggi", "opening_hours": "Mo-Th 17:00-22:00; Fr-Sa 17:00-23:00; Su,Fr 17:00-22:00", "website": "https://www.semprenyc.com"}}, {"type": "node", "id": 2745437051, "lat": 40.7799869, "lon": -73.9801641}, {"type": "node", "id": 2745437063, "lat": 40.7800103, "lon": -73.980255}, {"type": "node", "id": 2745437065, "lat": 40.7800144, "lon": -73.980229}, {"type": "node", "id": 2745437070, "lat": 40.7800174, "lon": -73.9801418}, {"type": "node", "id": 2745437090, "lat": 40.7800592, "lon": -73.9803706}, {"type": "node", "id": 2745437107, "lat": 40.7801012, "lon": -73.9803399}, {"type": "node", "id": 2745451462, "lat": 40.780552, "lon": -73.9770196}, {"type": "node", "id": 2745451503, "lat": 40.7806357, "lon": -73.9781831}, {"type": "node", "id": 2745451519, "lat": 40.7807195, "lon": -73.9768995}, {"type": "node", "id": 2745451527, "lat": 40.7807565, "lon": -73.9780443}, {"type": "node", "id": 2745451528, "lat": 40.7807728, "lon": -73.978083}, {"type": "node", "id": 2745451531, "lat": 40.7807919, "lon": -73.9785537}, {"type": "node", "id": 2745451532, "lat": 40.7808045, "lon": -73.9785445}, {"type": "node", "id": 2745451541, "lat": 40.7808347, "lon": -73.977926}, {"type": "node", "id": 2745451544, "lat": 40.7808545, "lon": -73.9779728}, {"type": "node", "id": 2745451550, "lat": 40.780908, "lon": -73.9778725}, {"type": "node", "id": 2745451554, "lat": 40.7809552, "lon": -73.9784346}, {"type": "node", "id": 2745451562, "lat": 40.7809973, "lon": -73.9782991}, {"type": "node", "id": 2745451569, "lat": 40.7810311, "lon": -73.9783792}, {"type": "node", "id": 2745451575, "lat": 40.7810566, "lon": -73.9782559}, {"type": "node", "id": 2745451637, "lat": 40.7812265, "lon": -73.9781319}, {"type": "node", "id": 2745451638, "lat": 40.7812289, "lon": -73.9781302}, {"type": "node", "id": 2745510801, "lat": 40.7815946, "lon": -73.9880405}, {"type": "node", "id": 2745510804, "lat": 40.7816431, "lon": -73.988018}, {"type": "node", "id": 3248774671, "lat": 40.7810251, "lon": -73.981008, "tags": {"addr:city": "New York", "addr:housenumber": "2138", "addr:postcode": "10023", "addr:state": "NY", "addr:street": "Broadway", "amenity": "cafe", "branch": "75th & Broadway", "brand": "Starbucks", "brand:wikidata": "Q37158", "contact:website": "https://www.starbucks.com/store-locator/store/9267/75th-broadway-2140-broadway-new-york-ny-100238208-us", "cuisine": "coffee_shop", "diet:vegan": "yes", "drink:soy_milk": "yes", "internet_access": "wlan", "name": "Starbucks", "official_name": "Starbucks Coffee", "opening_hours": "Mo-Fr 05:30-24:00; Sa 06:00-24:00; Su 06:00-23:00", "takeaway": "yes"}}, {"type": "node", "id": 3248774672, "lat": 40.7807958, "lon": -73.9810743, "tags": {"addr:city": "New York", "addr:housenumber": "2130", "addr:postcode": "10023", "addr:state": "NY", "addr:street": "Broadway", "amenity": "restaurant", "check_date": "2024-04-28", "cuisine": "diner", "name": "Viand Cafe", "website": "https://www.viandnyc.com"}}, {"type": "node", "id": 3248816729, "lat": 40.7762456, "lon": -73.9794042, "tags": {"addr:city": "New York", "addr:housenumber": "225", "addr:state": "NY", "addr:street": "Columbus Avenue", "air_conditioning": "yes", "amenity": "restaurant", "bar": "yes", "check_date": "2025-01-29", "cuisine": "french", "delivery": "yes", "level": "0", "name": "Manny\u2019s Bistro", "outdoor_seating": "yes", "phone": "+16468820110", "smoking": "no", "takeaway": "yes"}}, {"type": "node", "id": 3262539829, "lat": 40.7771024, "lon": -73.9785029, "tags": {"addr:housenumber": "50", "addr:street": "West 72nd Street", "amenity": "bar", "name": "Riposo 72", "phone": "+1-212-799-4140"}}, {"type": "node", "id": 3271250887, "lat": 40.7781493, "lon": -73.978758, "tags": {"addr:city": "New York", "addr:housenumber": "106", "addr:postcode": "10023", "addr:state": "NY", "addr:street": "West 73rd Street", "amenity": "restaurant", "cuisine": "italian", "delivery": "yes", "email": "nycrg12@gmail.com", "name": "Arte Cafe", "opening_hours": "Mo-Fr 12:00-23:00; Sa 11:00-24:00; Su 11:00-23:00", "phone": "+1-212-501-7014", "reservation": "yes", "website": "https://www.artecafenyc.com"}}, {"type": "node", "id": 3369517394, "lat": 40.7795189, "lon": -73.9817961}, {"type": "node", "id": 3369517395, "lat": 40.7794717, "lon": -73.9818116}, {"type": "node", "id": 3369517414, "lat": 40.7792972, "lon": -73.9812776}, {"type": "node", "id": 3369517415, "lat": 40.7787689, "lon": -73.9816465}, {"type": "node", "id": 3369517416, "lat": 40.7787519, "lon": -73.9816594, "tags": {"barrier": "kerb", "kerb": "lowered", "tactile_paving": "no"}}, {"type": "node", "id": 3369517417, "lat": 40.7787431, "lon": -73.9816654}, {"type": "node", "id": 3369517418, "lat": 40.7787379, "lon": -73.9816767}, {"type": "node", "id": 3369517419, "lat": 40.7787379, "lon": -73.9816897}, {"type": "node", "id": 3369517420, "lat": 40.7788516, "lon": -73.981964}, {"type": "node", "id": 3369517421, "lat": 40.7788908, "lon": -73.9819566}, {"type": "node", "id": 3369517484, "lat": 40.7795747, "lon": -73.9834601, "tags": {"addr:housenumber": "251", "addr:street": "West 72nd Street", "amenity": "restaurant", "cuisine": "japanese", "name": "Sushi Yasaka", "phone": "+1-212-496-8460", "toilets:wheelchair": "no", "wheelchair": "limited", "wheelchair:description": "the main dining room and bathroom are downstairs and not accessible, but there is a small section with accessible tables at the entrance level. It is worth it for the great food, in my opinion!"}}, {"type": "node", "id": 3447383383, "lat": 40.775834, "lon": -73.9801978, "tags": {"addr:city": "New York", "addr:housenumber": "208", "addr:postcode": "10023", "addr:state": "NY", "addr:street": "Columbus Ave", "amenity": "restaurant", "bar": "yes", "contact:facebook": "https://www.facebook.com/El-Mitote-NY-341052132645706/", "contact:instagram": "elmitoteny", "cuisine": "mexican", "email": "hello@beyondrestgroup.com", "name": "El Mitote", "opening_hours": "Mo-Su 11:30-22:00", "outdoor_seating": "yes", "phone": "+1-212-874-2929", "takeaway": "yes", "website": "https://www.elmitoteny.com/", "wheelchair": "yes"}}, {"type": "node", "id": 4311369891, "lat": 40.7763934, "lon": -73.9793251, "tags": {"addr:postcode": "10023", "air_conditioning": "yes", "amenity": "restaurant", "check_date": "2025-01-29", "cocktails": "yes", "cuisine": "italian", "drink:beer": "bottled", "drink:liquor": "yes", "drink:wine": "yes", "level": "0", "name": "Pomodoro Rosso", "opening_hours": "Mo-Th 12:00-22:00; Fr-Sa 12:00-23:00; Su 12:00-22:00", "outdoor_seating": "yes", "phone": "+1 212 721 3009", "smoking": "no", "website": "https://www.pomodororossonyc.com/"}}, {"type": "node", "id": 4479637590, "lat": 40.7788149, "lon": -73.981253, "tags": {"addr:housenumber": "267", "addr:postcode": "10023", "addr:street": "Amsterdam Avenue", "amenity": "restaurant", "cuisine": "diner;greek", "delivery": "yes", "fax": "+1 212-873-6234", "level": "0", "name": "Utopia Diner", "opening_hours": "Mo-Su 08:00-21:00", "phone": "+1 212-873-6233", "takeaway": "yes", "website": "https://www.utopiadiner.com"}}, {"type": "node", "id": 5115906119, "lat": 40.7788455, "lon": -73.9819492, "tags": {"barrier": "kerb", "kerb": "flush", "tactile_paving": "no"}}, {"type": "node", "id": 5115907028, "lat": 40.7788746, "lon": -73.981974, "tags": {"barrier": "kerb", "kerb": "flush", "tactile_paving": "no"}}, {"type": "node", "id": 5115907033, "lat": 40.7787422, "lon": -73.9817032, "tags": {"barrier": "kerb", "kerb": "lowered", "tactile_paving": "no"}}, {"type": "node", "id": 5115916413, "lat": 40.7794164, "lon": -73.9815386, "tags": {"barrier": "kerb", "kerb": "lowered", "tactile_paving": "no"}}, {"type": "node", "id": 5115917331, "lat": 40.7794898, "lon": -73.9818057, "tags": {"barrier": "kerb", "kerb": "lowered", "tactile_paving": "no"}}, {"type": "node", "id": 5115917335, "lat": 40.7793071, "lon": -73.9812948, "tags": {"barrier": "kerb"}}, {"type": "node", "id": 5400497624, "lat": 40.7784935, "lon": -73.9809166, "tags": {"addr:housenumber": "165", "addr:street": "West 72nd Street", "amenity": "restaurant", "cuisine": "japanese", "name": "Sushi Yuki", "opening_hours": "Mo-Su 11:30-21:00", "phone": "+1-212-580-5900", "website": "https://www.kumosushiny.com"}}, {"type": "node", "id": 5400500704, "lat": 40.7779076, "lon": -73.9804064, "tags": {"addr:housenumber": "142", "addr:street": "West 72nd Street", "amenity": "restaurant", "cuisine": "japanese", "name": "Zurutto", "opening_hours": "Mo-Fr 11:30-23:00; Sa,Su 11:00-23:00", "phone": "+1-212-498-0022"}}, {"type": "node", "id": 5410696990, "lat": 40.7792505, "lon": -73.9818765}, {"type": "node", "id": 5680293321, "lat": 40.7770276, "lon": -73.978849, "tags": {"addr:city": "New York", "addr:housenumber": "249", "addr:state": "NY", "addr:street": "Columbus Avenue", "amenity": "restaurant", "check_date": "2025-01-29", "cuisine": "spanish", "level": "0", "name": "Ella Social", "outdoor_seating": "yes", "reservation": "yes", "smoking": "no", "website": "https://ellasocial.com", "wheelchair": "yes"}}, {"type": "node", "id": 5817720353, "lat": 40.7793161, "lon": -73.9808861, "tags": {"addr:city": "New York", "addr:housenumber": "279", "addr:postcode": "10023", "addr:state": "NY", "addr:street": "Amsterdam Avenue", "amenity": "cafe", "branch": "Amsterdam Ave", "brand": "Blue Bottle Coffee", "brand:en": "Blue Bottle Coffee", "brand:ja": "\u30d6\u30eb\u30fc\u30dc\u30c8\u30eb\u30b3\u30fc\u30d2\u30fc", "brand:wikidata": "Q4928917", "cuisine": "coffee_shop", "diet:vegan": "no", "diet:vegetarian": "yes", "indoor_seating": "yes", "level": "0", "name": "Blue Bottle Coffee", "name:en": "Blue Bottle Coffee", "name:ja": "\u30d6\u30eb\u30fc\u30dc\u30c8\u30eb\u30b3\u30fc\u30d2\u30fc", "opening_hours": "Mo 06:30-16:30; Tu 06:30-18:00; We 06:30-16:00; Th 06:30-15:30; Fr-Su 06:30-18:00", "outdoor_seating": "yes", "takeaway": "yes", "website": "https://bluebottlecoffee.com/cafes/amsterdam-ave", "wheelchair": "yes"}}, {"type": "node", "id": 5836577592, "lat": 40.7793832, "lon": -73.9829974, "tags": {"amenity": "cafe", "cuisine": "bubble_tea", "name": "Tea Magic", "opening_hours": "Mo-Su 11:00-19:00", "phone": "+1-212-712-2227", "website": "https://teamagicboba.com/"}}, {"type": "node", "id": 5939562686, "lat": 40.7761691, "lon": -73.9815274, "tags": {"addr:housenumber": "141", "addr:street": "West 69th Street", "amenity": "restaurant", "name": "Noi Due Carne", "opening_hours": "Mo-We 17:00-23:00; Th 17:00-00:00; Su 16:00-22:30", "phone": "+1-212-712-2223"}}, {"type": "node", "id": 5939562687, "lat": 40.7761994, "lon": -73.9815882, "tags": {"addr:housenumber": "143", "addr:street": "West 69th Street", "amenity": "cafe", "name": "Noi Due Cafe", "opening_hours": "Su 11:00-22:30; Mo-Th 11:00-23:00", "phone": "+1-212-712-2222"}}, {"type": "node", "id": 5939562688, "lat": 40.7763049, "lon": -73.9818443, "tags": {"addr:city": "New York", "addr:housenumber": "2020", "addr:postcode": "10023", "addr:state": "NY", "addr:street": "Broadway", "air_conditioning": "yes", "amenity": "restaurant", "level": "0", "name": "Westside Restaurant", "opening_hours": "Mo-Su 07:00-22:00", "phone": "+1-212-724-4000", "smoking": "no", "website": "https://westsiderestaurant.business.site/", "wheelchair": "limited"}}, {"type": "node", "id": 6207264929, "lat": 40.7795247, "lon": -73.9817796}, {"type": "node", "id": 6493242785, "lat": 40.7771326, "lon": -73.9785802, "tags": {"addr:postcode": "10023", "amenity": "bar", "check_date": "2023-06-17", "cuisine": "american", "internet_access": "wlan", "name": "Lilly's", "opening_hours": "Mo-Su 16:00-02:00", "phone": "+1 212-799-4140"}}, {"type": "node", "id": 6611164591, "lat": 40.7918335, "lon": -73.9787594}, {"type": "node", "id": 6836077126, "lat": 40.7760721, "lon": -73.9794282, "tags": {"addr:housenumber": "65 1/2", "addr:street": "West 70th Street", "amenity": "restaurant", "cocktails": "yes", "contact:email": "shalelnyc@gmail.com", "cuisine": "moroccan", "drink:beer": "yes", "drink:wine": "yes", "level": "-1", "name": "Shalel", "opening_hours": "Mo-Th, Su 17:00-01:00; Fr, Sa 17:00-02:00", "phone": "+1 212-873-2300", "website": "https://shalel.kitchen/"}}, {"type": "node", "id": 7403285555, "lat": 40.7794391, "lon": -73.9831324, "tags": {"addr:city": "New York", "addr:floor": "2", "addr:housenumber": "243", "addr:postcode": "10023", "addr:state": "NY", "addr:street": "West 72nd Street", "amenity": "school", "name": "The Paint Place", "phone": "+1-212-799-0112", "school": "art", "website": "https://www.thepaintplaceny.com"}}, {"type": "node", "id": 8326281701, "lat": 40.7943396, "lon": -73.9769999}, {"type": "node", "id": 8427233988, "lat": 40.7780161, "lon": -73.978577, "tags": {"addr:city": "New York", "addr:housenumber": "274", "addr:postcode": "10023", "addr:state": "NY", "addr:street": "Columbus Avenue", "amenity": "cafe", "cuisine": "coffee_shop", "internet_access": "wlan", "internet_access:fee": "no", "name": "Black Press Coffee", "opening_hours": "Mo-Fr 07:00-17:00; Sa-Su 07:00-18:00", "outdoor_seating": "yes", "phone": "+1-646-490-6499", "website": "https://www.blackpresscoffee.com/"}}, {"type": "node", "id": 8651758954, "lat": 40.776731, "lon": -73.978826, "tags": {"addr:city": "New York", "addr:housenumber": "71", "addr:postcode": "10023", "addr:state": "NY", "addr:street": "West 71st Street", "amenity": "restaurant", "cuisine": "italian", "name": "Polpette 71", "website": "https://www.polpetteny.com/"}}, {"type": "node", "id": 8651793617, "lat": 40.7809547, "lon": -73.9808772, "tags": {"addr:city": "New York", "addr:housenumber": "215", "addr:postcode": "10023", "addr:state": "NY", "addr:street": "West 75th Street", "air_conditioning": "yes", "amenity": "bar", "contact:facebook": "owlstail", "contact:instagram": "owlstail", "email": "info@owlstail.com", "level": "0", "microbrewery": "no", "name": "The Owl's Tail", "opening_hours": "Tu-We 15:30-22:00; Th-Fr 15:30-23:00; Sa 14:00-22:00; Su 14:00-21:00", "outdoor_seating": "yes", "phone": "+1-646-609-3906", "reservation": "accepted", "takeaway": "yes", "website": "https://www.owlstail.com"}}, {"type": "node", "id": 9442439354, "lat": 40.7788896, "lon": -73.9819718}, {"type": "node", "id": 9442439355, "lat": 40.7788631, "lon": -73.9819742}, {"type": "node", "id": 9833555786, "lat": 40.7807861, "lon": -73.9785399, "tags": {"entrance": "yes"}}, {"type": "node", "id": 9833555787, "lat": 40.7808821, "lon": -73.9778914, "tags": {"entrance": "yes"}}, {"type": "node", "id": 9895618477, "lat": 40.7817351, "lon": -73.9851809, "tags": {"barrier": "kerb", "kerb": "lowered"}}, {"type": "node", "id": 9895633506, "lat": 40.7818735, "lon": -73.9851218, "tags": {"barrier": "kerb", "kerb": "lowered"}}, {"type": "node", "id": 10039645580, "lat": 40.7893489, "lon": -73.9808996}, {"type": "node", "id": 10039645585, "lat": 40.7898925, "lon": -73.9805178}, {"type": "node", "id": 10039645592, "lat": 40.7900759, "lon": -73.9803748}, {"type": "node", "id": 10039653286, "lat": 40.786285, "lon": -73.9814852, "tags": {"barrier": "kerb", "kerb": "lowered"}}, {"type": "node", "id": 10039653287, "lat": 40.7863572, "lon": -73.9814426}, {"type": "node", "id": 10039653299, "lat": 40.7868366, "lon": -73.9813208, "tags": {"barrier": "kerb", "kerb": "lowered"}}, {"type": "node", "id": 10039656210, "lat": 40.7877686, "lon": -73.9812249, "tags": {"barrier": "kerb", "kerb": "lowered"}}, {"type": "node", "id": 10039693561, "lat": 40.7876298, "lon": -73.9812441, "tags": {"barrier": "kerb", "kerb": "lowered"}}, {"type": "node", "id": 10039741673, "lat": 40.7884365, "lon": -73.9812009}, {"type": "node", "id": 10039741679, "lat": 40.7885713, "lon": -73.9811658}, {"type": "node", "id": 10039741697, "lat": 40.789214, "lon": -73.9809654}, {"type": "node", "id": 10039776316, "lat": 40.791351, "lon": -73.979435}, {"type": "node", "id": 10039856114, "lat": 40.7810186, "lon": -73.9854808, "tags": {"barrier": "kerb"}}, {"type": "node", "id": 10039856116, "lat": 40.781164, "lon": -73.9854185, "tags": {"barrier": "kerb"}}, {"type": "node", "id": 10039861889, "lat": 40.7919062, "lon": -73.9785791}, {"type": "node", "id": 10039870527, "lat": 40.7832773, "lon": -73.9845021, "tags": {"barrier": "kerb", "kerb": "lowered"}}, {"type": "node", "id": 10039870528, "lat": 40.7833975, "lon": -73.9844085}, {"type": "node", "id": 10039870529, "lat": 40.7830695, "lon": -73.9846234}, {"type": "node", "id": 10039870530, "lat": 40.7831582, "lon": -73.9845812, "tags": {"barrier": "kerb", "kerb": "lowered"}}, {"type": "node", "id": 10055283981, "lat": 40.7818869, "lon": -73.9878942}, {"type": "node", "id": 10060777166, "lat": 40.7927323, "lon": -73.9773085}, {"type": "node", "id": 10061122333, "lat": 40.7928571, "lon": -73.977236}, {"type": "node", "id": 10064237551, "lat": 40.7792765, "lon": -73.9812698, "tags": {"barrier": "kerb", "kerb": "lowered"}}, {"type": "node", "id": 10066660844, "lat": 40.779285, "lon": -73.9812695}, {"type": "node", "id": 10074104769, "lat": 40.7807291, "lon": -73.9769227}, {"type": "node", "id": 10074104780, "lat": 40.780846, "lon": -73.9779178}, {"type": "node", "id": 10160790627, "lat": 40.7807592, "lon": -73.9865256}, {"type": "node", "id": 10160790628, "lat": 40.7807502, "lon": -73.9865298}, {"type": "node", "id": 10160790631, "lat": 40.7808736, "lon": -73.986801}, {"type": "node", "id": 10160790655, "lat": 40.7809748, "lon": -73.9870475}, {"type": "node", "id": 10160790662, "lat": 40.7807911, "lon": -73.9866025}, {"type": "node", "id": 10160790706, "lat": 40.7810167, "lon": -73.9871494}, {"type": "node", "id": 10160791135, "lat": 40.7844549, "lon": -73.983304, "tags": {"barrier": "kerb", "kerb": "lowered"}}, {"type": "node", "id": 10160791151, "lat": 40.7843439, "lon": -73.9834267, "tags": {"barrier": "kerb", "kerb": "lowered"}}, {"type": "node", "id": 10164725172, "lat": 40.784861, "lon": -73.9828781}, {"type": "node", "id": 10164725173, "lat": 40.7851548, "lon": -73.9825756}, {"type": "node", "id": 10164725174, "lat": 40.7835574, "lon": -73.9842538}, {"type": "node", "id": 10164725177, "lat": 40.7828554, "lon": -73.9847176}, {"type": "node", "id": 10164725178, "lat": 40.7824766, "lon": -73.9848723}, {"type": "node", "id": 10164725179, "lat": 40.7821736, "lon": -73.9850021}, {"type": "node", "id": 10164725180, "lat": 40.7805948, "lon": -73.9856666}, {"type": "node", "id": 10164725181, "lat": 40.7804519, "lon": -73.9859018}, {"type": "node", "id": 10164725182, "lat": 40.7805728, "lon": -73.9856429}, {"type": "node", "id": 10164725183, "lat": 40.7804376, "lon": -73.9858761}, {"type": "node", "id": 10164725184, "lat": 40.780421, "lon": -73.9858268}, {"type": "node", "id": 10164725185, "lat": 40.7804157, "lon": -73.9857901}, {"type": "node", "id": 10164725186, "lat": 40.7804228, "lon": -73.985741, "tags": {"barrier": "kerb", "kerb": "lowered"}}, {"type": "node", "id": 10164725187, "lat": 40.780473, "lon": -73.9856819, "tags": {"barrier": "kerb", "kerb": "lowered"}}, {"type": "node", "id": 10164725188, "lat": 40.7804451, "lon": -73.985704}, {"type": "node", "id": 10164725189, "lat": 40.7807395, "lon": -73.9865355}, {"type": "node", "id": 10164740291, "lat": 40.7861012, "lon": -73.9816101}, {"type": "node", "id": 10164740292, "lat": 40.7859982, "lon": -73.9816972}, {"type": "node", "id": 10164740393, "lat": 40.78659, "lon": -73.9813573}, {"type": "node", "id": 10164740403, "lat": 40.7873102, "lon": -73.9812728}, {"type": "node", "id": 10164740486, "lat": 40.7869822, "lon": -73.984363}, {"type": "node", "id": 10164740487, "lat": 40.7885399, "lon": -73.9832848}, {"type": "node", "id": 11099428487, "lat": 40.7807434, "lon": -73.9803323, "tags": {"addr:city": "New York", "addr:housenumber": "320", "addr:postcode": "10023", "addr:state": "NY", "addr:street": "Amsterdam Avenue", "amenity": "restaurant", "check_date": "2024-01-30", "happy_hours": "Mo-Fr 16:00-18:00", "indoor_seating": "yes", "name": "Playa Betty's", "opening_hours": "Mo-Th 11:00-22:00; Fr 11:00-24:00; Sa-Su 10:30-24:00", "outdoor_seating": "yes", "phone": "+1-212-712-0777", "website": "https://www.playabettys.com"}}, {"type": "node", "id": 11154832263, "lat": 40.7782804, "lon": -73.982317, "tags": {"amenity": "cafe", "brand": "Gong Cha", "brand:wikidata": "Q5581670", "brand:zh": "\u8ca2\u8336", "cuisine": "bubble_tea", "indoor_seating": "no", "int_name": "Gong Cha", "name": "Gong Cha", "name:zh": "\u8ca2\u8336", "outdoor_seating": "no", "takeaway": "only"}}, {"type": "node", "id": 11162304268, "lat": 40.7776963, "lon": -73.9790334, "tags": {"addr:housenumber": "103", "addr:street": "West 72nd Street", "amenity": "bar", "check_date": "2025-01-29", "level": "0", "name": "Malachy's Irish Pub", "wheelchair": "limited"}}, {"type": "node", "id": 11360985469, "lat": 40.7765296, "lon": -73.9792214, "tags": {"amenity": "bar", "name": "Bin 71"}}, {"type": "node", "id": 11479001393, "lat": 40.7800682, "lon": -73.9802923, "tags": {"amenity": "cafe", "cuisine": "coffee_shop", "indoor_seating": "yes", "name": "Frame", "opening_hours": "Mo-Su 07:00-17:00", "outdoor_seating": "no"}}, {"type": "node", "id": 11584626923, "lat": 40.7794718, "lon": -73.9832116, "tags": {"addr:city": "New York", "addr:housenumber": "245", "addr:postcode": "10023", "addr:state": "NY", "addr:street": "West 72nd Street", "amenity": "cafe", "cuisine": "coffee_shop", "name": "Picky Barista", "opening_hours": "Mo-Fr 07:00-19:00; Sa-Su 08:00-19:00", "outdoor_seating": "no", "phone": "+1-646-684-3037", "website": "https://pickybarista.com"}}, {"type": "node", "id": 11629642322, "lat": 40.7807729, "lon": -73.9804016, "tags": {"addr:city": "New York", "addr:housenumber": "201", "addr:postcode": "10023", "addr:state": "NY", "addr:street": "West 75th Street", "amenity": "bar", "comedy": "yes", "name": "West Side Comedy Club", "website": "https://www.westsidecomedyclub.com"}}, {"type": "node", "id": 11742807811, "lat": 40.7783584, "lon": -73.9823555, "tags": {"addr:city": "New York", "addr:floor": "2", "addr:housenumber": "2067", "addr:postcode": "10023", "addr:state": "NY", "addr:street": "Broadway", "name": "Epic Security", "office": "security", "phone": "+1-212-580-3434", "website": "https://www.epicsecurity.com/"}}, {"type": "node", "id": 11852588962, "lat": 40.7793147, "lon": -73.9837288, "tags": {"addr:city": "New York", "addr:housenumber": "250", "addr:postcode": "10023", "addr:state": "NY", "addr:street": "West 72nd Street", "amenity": "bar", "name": "Emerald Inn", "opening_hours": "Mo-Su 12:00-04:00", "phone": "+1-212-874-8840", "website": "https://www.emeraldinnnyc.com"}}, {"type": "node", "id": 11852588968, "lat": 40.7790485, "lon": -73.9831265, "tags": {"addr:city": "New York", "addr:housenumber": "228", "addr:postcode": "10023", "addr:state": "NY", "addr:street": "West 72nd Street", "amenity": "bar", "name": "Gebhard's Beer Culture", "opening_hours": "Mo-Th 15:00-24:00; Fr-Su 12:00-02:00", "phone": "+1-646-922-8544", "website": "https://www.beerculture.nyc/"}}, {"type": "node", "id": 11958687397, "lat": 40.7763311, "lon": -73.9798016, "tags": {"addr:city": "New York", "addr:housenumber": "222", "addr:postcode": "10023", "addr:state": "NY", "addr:street": "Columbus Avenue", "amenity": "cafe", "check_date": "2025-01-29", "level": "0", "name": "The Muffins Cafe", "outdoor_seating": "yes", "wheelchair": "yes"}}, {"type": "node", "id": 11990995698, "lat": 40.7793657, "lon": -73.9838442, "tags": {"addr:city": "New York", "addr:housenumber": "254", "addr:postcode": "10023", "addr:state": "NY", "addr:street": "West 72nd Street", "amenity": "restaurant", "name": "Ashford & Simpson's Sugar Bar", "opening_hours": "Mo off; Tu-We 15:00-22:00; Th 15:00-24:00; Fr-Sa 15:00; 00:00-23:00; Su 12:00-20:00", "phone": "+1-212-579-0222", "website": "https://www.sugarbarnyc.com/"}}, {"type": "node", "id": 12042549280, "lat": 40.7779752, "lon": -73.9796919, "tags": {"addr:city": "New York", "addr:housenumber": "127", "addr:postcode": "10023", "addr:state": "NY", "addr:street": "West 72nd Street", "amenity": "restaurant", "cuisine": "chinese", "name": "Legend 72", "phone": "+1-917-441-4790", "website": "https://legendgourmet.com"}}, {"type": "node", "id": 12042873185, "lat": 40.7784666, "lon": -73.9808526, "tags": {"addr:city": "New York", "addr:housenumber": "163", "addr:postcode": "10023", "addr:state": "NY", "addr:street": "West 72nd Street", "amenity": "cafe", "name": "Hungry & Healthy Marketplace", "opening_hours": "24/7", "outdoor_seating": "no", "phone": "+1-646-476-6195"}}, {"type": "node", "id": 12042873186, "lat": 40.7784392, "lon": -73.9807875, "tags": {"addr:city": "New York", "addr:housenumber": "161", "addr:postcode": "10023", "addr:state": "NY", "addr:street": "West 72nd Street", "amenity": "restaurant", "diet:kosher": "yes", "name": "Malka", "website": "https://www.malka.nyc"}}, {"type": "node", "id": 12086289679, "lat": 40.776121, "lon": -73.9837543, "tags": {"air_conditioning": "yes", "amenity": "cafe", "cuisine": "french", "level": "0", "name": "Le Petit Parisien", "outdoor_seating": "yes", "smoking": "no", "takeaway": "yes"}}, {"type": "node", "id": 12123586826, "lat": 40.7808701, "lon": -73.9806557, "tags": {"addr:city": "New York", "addr:housenumber": "207", "addr:postcode": "10024", "addr:state": "NY", "addr:street": "West 75th Street", "amenity": "restaurant", "check_date": "2024-08-21", "cuisine": "sushi", "name": "Sugarfish", "opening_hours": "Mo-Th 11:30-23:00; Fr-Sa 11:30-23:30; Su 11:30-23:00", "phone": "+1-646-974-1408", "website": "https://sugarfishsushi.com"}}, {"type": "node", "id": 12184198115, "lat": 40.7786693, "lon": -73.98431, "tags": {"leisure": "park", "name": "Septuagesimo Uno", "opening_hours": "Mo-Su 06:00-22:00"}}, {"type": "node", "id": 12610815622, "lat": 40.7793019, "lon": -73.981286}, {"type": "node", "id": 12610815623, "lat": 40.7792921, "lon": -73.9812725}, {"type": "node", "id": 12960242112, "lat": 40.776741, "lon": -73.9796743, "tags": {"addr:city": "New York", "addr:housenumber": "104", "addr:postcode": "10023", "addr:state": "NY", "addr:street": "West 71st Street", "amenity": "cafe", "check_date:currency:XBT": "2025-07-07", "contact:instagram": "https://www.instagram.com/solidstatecoffeenyc/", "contact:twitter": "https://x.com/nycsolidstate", "currency:XBT": "yes", "name": "Solid State Coffee", "opening_hours": "Mo-Fr 07:00-16:00; Sa-Su 07:00-17:30", "payment:lightning": "yes", "payment:lightning_contactless": "no", "payment:onchain": "no", "phone": "+1-646-896-1412", "website": "https://solidstatecoffee.com/"}}, {"type": "node", "id": 13165667001, "lat": 40.7808574, "lon": -73.9797415, "tags": {"addr:housenumber": "180", "addr:street": "West 76th Street", "amenity": "cafe", "name": "Sote Coffee Roasters"}}, {"type": "way", "id": 37003318, "nodes": [10039776316, 430354225, 430354226, 10039645592, 10039645585, 430354227, 10039645580, 430354228, 10039741697, 430354229, 10039741679, 10039741673, 430354230, 10039656210, 10039693561, 10164740403, 430354234, 10039653299, 10164740393, 430354236, 10039653287, 10039653286, 430354237, 10164740291, 10164740292, 430354238, 430354239, 10164725173, 10164725172, 10160791135, 10160791151, 10164725174, 10039870528, 10039870527, 10039870530, 10039870529, 10164725177, 10164725178, 10164725179, 9895633506, 9895618477, 10039856116, 10039856114, 10164725180, 10164725182, 10164725187, 10164725188, 10164725186, 10164725185, 10164725184, 10164725183, 10164725181, 430354197, 10164725189, 10160790628, 10160790627, 10160790662, 10160790631, 10160790655, 10160790706, 1329122475, 432734895, 2041315671, 2745510801, 2745510804, 246942723, 2041315651, 10055283981, 2041315670, 430351195, 432734894, 2041315660, 246942732, 2041819922, 246942733, 10164740486, 2041315655, 430354198, 10164740487, 2041315677, 430354201, 430354202, 430354203]}, {"type": "way", "id": 86336886, "nodes": [1002892570, 1002892573, 1002892577, 1002892570], "tags": {"access": "no", "leisure": "park", "name": "Sherman Square", "name:etymology:wikidata": "Q188936", "name:fa": "\u0645\u06cc\u062f\u0627\u0646 \u0634\u0631\u0645\u0646", "operator": "New York City Department of Parks and Recreation", "operator:short": "NYC Parks", "operator:type": "government", "operator:wikidata": "Q1894232", "smoking": "no", "website": "https://www.nycgovparks.org/parks/sherman-square", "wikidata": "Q5620968", "wikipedia": "en:Sherman Square"}}, {"type": "way", "id": 269235421, "nodes": [2745038545, 2745038589, 2745038626, 2745038592, 2745038548, 2745038545], "tags": {"addr:housenumber": "270", "addr:postcode": "10023", "addr:street": "West 70th Street", "amenity": "school", "building": "school", "ele": "20", "gnis:feature_id": "961491", "height": "11.2", "name": "Public School M199 Jesse Isador Straus", "nycdoitt:bin": "1030351"}}, {"type": "way", "id": 269243498, "nodes": [2745087404, 2745087410, 2745087413, 2745087415, 2745087420, 2745087423, 2745087505, 2745087513, 2745087535, 2745087545, 2745087514, 2745087496, 2745087451, 2745087404], "tags": {"addr:housenumber": "255", "addr:postcode": "10023", "addr:street": "West 71st Street", "amenity": "school", "building": "school", "gnis:feature_id": "2084022", "height": "15.5", "name": "West End Day School", "nycdoitt:bin": "1030408", "website": "https://www.westenddayschool.org/"}}, {"type": "way", "id": 269289706, "nodes": [2745375894, 2745375917, 2745375920, 2745376076, 2745376048, 2745375894], "tags": {"addr:city": "New York", "addr:housenumber": "236", "addr:postcode": "10023", "addr:state": "NY", "addr:street": "West 73rd Street", "building": "yes", "denomination": "presbyterian", "height": "25.0", "name": "Rutgers Church House", "nycdoitt:bin": "1030520", "office": "religion", "religion": "christian", "website": "https://www.rutgerschurch.org/"}}, {"type": "way", "id": 269296202, "nodes": [2745437051, 2745437065, 2745437063, 2745437090, 2745437107, 2745437070, 2745437051], "tags": {"addr:city": "New York", "addr:country": "US", "addr:housenumber": "305", "addr:postcode": "10023", "addr:state": "NY", "addr:street": "Amsterdam Avenue", "amenity": "restaurant", "building": "yes", "height": "12.0", "name": "Hummus Place", "nycdoitt:bin": "1030099"}}, {"type": "way", "id": 269297229, "nodes": [2745451462, 2745451550, 9833555787, 10074104780, 2745451541, 2745451544, 2745451527, 2745451528, 2745451503, 9833555786, 2745451531, 2745451532, 2745451554, 2745451569, 2745451562, 2745451575, 2745451637, 2745451638, 10074104769, 2745451519, 2745451462], "tags": {"addr:housenumber": "100", "addr:postcode": "10024", "addr:street": "West 77th Street", "amenity": "school", "building": "school", "ele": "27", "gnis:feature_id": "954320", "height": "18.4", "name": "Middle School 44", "nycdoitt:bin": "1030178"}}, {"type": "way", "id": 329988114, "nodes": [2745359670, 3369517421, 9442439354, 5115907028, 9442439355, 3369517420, 5115906119, 5115907033, 3369517419, 3369517418, 3369517417, 3369517416, 3369517415, 10064237551, 10066660844, 12610815623, 3369517414, 12610815622, 5115917335, 5115916413, 6207264929, 3369517394, 5115917331, 3369517395, 5410696990, 2745359670], "tags": {"ele": "23", "gnis:feature_id": "2083390", "leisure": "park", "name": "Verdi Square", "name:etymology:wikidata": "Q7317", "operator": "New York City Department of Parks and Recreation", "operator:short": "NYC Parks", "operator:type": "government", "operator:wikidata": "Q1894232", "website": "https://www.nycgovparks.org/parks/verdi-square/", "wikidata": "Q7921110"}}, {"type": "way", "id": 329988118, "nodes": [2745018108, 2745018117, 2745018115, 2745018114, 2745018094, 2745018096, 2745018098, 2745018099, 2745018105, 2745018102, 2745018108], "tags": {"area": "yes", "leisure": "park"}}, {"type": "way", "id": 1251822189, "nodes": [430354203, 430354204, 1332863755, 430354205, 430354206, 430354207, 2029349826, 430354208, 2029349832, 430354209, 2029349881, 2029349885, 2029349889, 2029349891, 430354210, 2029349886, 2029349883, 430354211, 430354212, 430354213, 430354214, 8326281701, 430354215, 430354216, 430354217, 430354218, 10061122333, 10060777166, 430354219, 430354220, 430354221, 10039861889, 6611164591, 430354222, 430354223, 430354224, 10039776316]}, {"type": "relation", "id": 17229873, "members": [{"type": "way", "ref": 37003318, "role": "outer"}, {"type": "way", "ref": 1251822189, "role": "outer"}], "tags": {"addr:city": "New York", "addr:postcode": "10024", "addr:state": "NY", "leisure": "park", "name": "Riverside Park", "operator": "New York City Department of Parks and Recreation", "operator:short": "NYC Parks", "operator:type": "government", "operator:wikidata": "Q1894232", "type": "multipolygon", "wikidata": "Q1339602", "wikipedia": "en:Riverside Park (Manhattan)"}}]}