{"version": 0.6, "generator": "Overpass API 0.7.62.8 e802775f", "osm3s": {"timestamp_osm_base": "2025-12-01T15:32:29Z", "copyright": "The data included in this document is from www.openstreetmap.org. The data is made available under ODbL."}, "elements": [{"type": "node", "id": 357620365, "lat": 40.7389359, "lon": -73.9954239, "tags": {"addr:city": "New York", "addr:housenumber": "590", "addr:postcode": "10011", "addr:street": "Avenue of the Americas", "gnis:feature_id": "2083034", "name": "The New York Foundling", "office": "ngo", "phone": "+1 212 633 9300", "website": "https://www.nyfoundling.org/", "wikidata": "Q7013548", "wikipedia": "en:New York Foundling"}}, {"type": "node", "id": 1273439123, "lat": 40.7406754, "lon": -73.9964838, "tags": {"addr:housename": "Metropolitan Gallery", "addr:housenumber": "123", "addr:street": "West 18th Street", "amenity": "school", "name": "Metropolitan Gallery / Meeting Site"}}, {"type": "node", "id": 2299770711, "lat": 40.7396323, "lon": -73.996068, "tags": {"amenity": "restaurant", "name": "Crema"}}, {"type": "node", "id": 2299770712, "lat": 40.7395688, "lon": -73.9959132, "tags": {"amenity": "restaurant", "name": "da Umberto"}}, {"type": "node", "id": 2328223904, "lat": 40.7391381, "lon": -73.9957765, "tags": {"amenity": "restaurant", "name": "The Hummus & Pita Co."}}, {"type": "node", "id": 2328279411, "lat": 40.7398784, "lon": -73.9989355, "tags": {"amenity": "restaurant", "check_date": "2024-09-12", "name": "J's Pizza"}}, {"type": "node", "id": 2377128144, "lat": 40.742976, "lon": -73.9998997, "tags": {"addr:city": "New York", "addr:country": "US", "addr:housenumber": "184", "addr:postcode": "10011", "addr:state": "NY", "addr:street": "8th Avenue", "amenity": "restaurant", "cuisine": "pizza", "name": "Donnatella", "opening_hours": "Tu-We 12:00-22:00; Th-Sa 12:00-23:00; Su 12:00-22:00", "website": "http://donatellanyc.com/"}}, {"type": "node", "id": 2377128149, "lat": 40.742595, "lon": -74.000177, "tags": {"addr:city": "New York", "addr:country": "US", "addr:housenumber": "174", "addr:postcode": "10011", "addr:state": "NY", "addr:street": "8th Avenue", "amenity": "bar", "check_date": "2024-06-19", "cocktails": "yes", "name": "Jungle Bird", "website": "https://junglebirdnyc.com/"}}, {"type": "node", "id": 2377128150, "lat": 40.7420517, "lon": -74.001097, "tags": {"addr:city": "New York", "addr:country": "US", "addr:housenumber": "151", "addr:postcode": "10011", "addr:state": "NY", "addr:street": "8th Avenue", "amenity": "restaurant", "food": "yes", "level": "0", "name": "Shaffer\u2019s", "old_name": "Flight 151", "opening_hours": "Mo-Tu 15:00-00:00; We-Fr 12:00-02:00; Sa-Su 11:00-02:00", "website": "https://shaffersnyc.com/"}}, {"type": "node", "id": 2377128154, "lat": 40.7425418, "lon": -74.0002463, "tags": {"addr:city": "New York", "addr:country": "US", "addr:housenumber": "172", "addr:postcode": "10011", "addr:state": "NY", "addr:street": "8th Avenue", "amenity": "restaurant", "branch": "Chelsea", "cuisine": "chinese", "name": "Grand Sichuan Eastern"}}, {"type": "node", "id": 2377128157, "lat": 40.7426738, "lon": -74.0001725, "tags": {"addr:city": "New York", "addr:country": "US", "addr:housenumber": "176", "addr:postcode": "10011", "addr:state": "NY", "addr:street": "8th Avenue", "amenity": "restaurant", "name": "LOULOU", "opening_hours": "Mo-Th 11:00-00:00; Fr-Su 10:00-00:00", "phone": "+1-212-337-9577", "website": "https://www.loulounyc.com/"}}, {"type": "node", "id": 2377128169, "lat": 40.7432349, "lon": -73.9997149, "tags": {"addr:city": "New York", "addr:country": "US", "addr:housenumber": "196", "addr:postcode": "10011", "addr:state": "NY", "addr:street": "8th Avenue", "amenity": "restaurant", "bar": "yes", "cuisine": "italian", "email": "lasagna6@gmail.com", "level": "0", "name": "Lasagna Ristorante", "outdoor_seating": "yes", "phone": "+1-212-242-4551", "website": "https://lasagnarestaurantchelsea.com", "wheelchair": "yes"}}, {"type": "node", "id": 2377128176, "lat": 40.7420719, "lon": -74.0006086, "tags": {"addr:city": "New York", "addr:country": "US", "addr:housenumber": "160", "addr:state": "NY", "addr:street": "8th Avenue", "amenity": "restaurant", "check_date": "2024-07-25", "cuisine": "italian", "happy_hours": "Mo-Fr 16:00-19:00", "name": "Da Andrea", "phone": "+1 212-354-5971"}}, {"type": "node", "id": 2377128178, "lat": 40.7429148, "lon": -73.9999442, "tags": {"addr:city": "New York", "addr:country": "US", "addr:housenumber": "182", "addr:postcode": "10011", "addr:state": "NY", "addr:street": "8th Avenue", "amenity": "restaurant", "cuisine": "mexican", "name": "Rocking Horse Cafe", "website": "http://rockinghorsecafe.com/"}}, {"type": "node", "id": 2377128180, "lat": 40.7411054, "lon": -74.0012613, "tags": {"addr:city": "New York", "addr:country": "US", "addr:housenumber": "124", "addr:postcode": "10011", "addr:state": "NY", "addr:street": "8th Avenue", "amenity": "cafe", "branch": "8th & 16th", "brand": "Starbucks", "brand:wikidata": "Q37158", "cuisine": "coffee_shop", "diet:vegan": "yes", "drink:soy_milk": "yes", "internet_access": "wlan", "name": "Starbucks", "official_name": "Starbucks Coffee", "opening_hours": "Mo-Fr 05:30-24:00; Sa,Su 07:00-24:00", "phone": "+1 212-462-2020", "takeaway": "yes", "website": "https://www.starbucks.com/store-locator/store/16006/8th-16th-124-eighth-avenue-new-york-ny-100115108-us"}}, {"type": "node", "id": 2377128186, "lat": 40.7434448, "lon": -73.9995835, "tags": {"addr:city": "New York", "addr:country": "US", "addr:housenumber": "198", "addr:postcode": "10011", "addr:state": "NY", "addr:street": "8th Avenue", "amenity": "restaurant", "cuisine": "mexican", "delivery": "yes", "email": "info@temerarionyc.com", "level": "0", "name": "Temerarion", "old_name": "Tello Ristorante", "phone": "+1-212-645-2100", "takeaway": "yes", "website": "https://www.temerarionyc.com"}}, {"type": "node", "id": 2384821679, "lat": 40.7384873, "lon": -74.0000074, "tags": {"amenity": "cafe", "atm": "yes", "cuisine": "bagel", "name": "Bagel and More", "opening_hours": "24/7"}}, {"type": "node", "id": 2384821767, "lat": 40.7388057, "lon": -73.9997449, "tags": {"amenity": "restaurant", "check_date": "2024-05-16", "name": "iPizzaNY"}}, {"type": "node", "id": 2384821772, "lat": 40.7388452, "lon": -73.9998143, "tags": {"addr:city": "New York", "addr:country": "US", "addr:housenumber": "203", "addr:postcode": "10001", "addr:state": "NY", "addr:street": "West 14th Street", "amenity": "cafe", "check_date": "2024-05-16", "contact:email": "donutpub@gmail.com", "contact:facebook": "donutpub", "contact:instagram": "thedonutpub", "contact:phone": "+1-646-398-7007", "contact:website": "https://www.donutpub.com/location/west-village", "cuisine": "donut", "diet:gluten_free": "yes", "diet:non-vegetarian": "yes", "diet:vegan": "yes", "name": "The Donut Pub", "opening_hours": "24/7", "takeaway": "yes", "wheelchair": "yes"}}, {"type": "node", "id": 2455777609, "lat": 40.7422344, "lon": -73.9986032, "tags": {"amenity": "bar", "lgbtq": "primary", "name": "G Lounge"}}, {"type": "node", "id": 2478897572, "lat": 40.7387142, "lon": -73.9956231, "tags": {"addr:housenumber": "574", "addr:postcode": "10011", "addr:street": "6th Avenue", "amenity": "restaurant", "cuisine": "diner", "name": "Hollywood Diner", "opening_hours": "24/7", "phone": "+1 212-691-8465"}}, {"type": "node", "id": 2478897589, "lat": 40.7394173, "lon": -73.9951134, "tags": {"addr:housenumber": "600", "addr:street": "6th Avenue", "amenity": "restaurant", "name": "Flavabom"}}, {"type": "node", "id": 2478897615, "lat": 40.7395596, "lon": -73.9954916, "tags": {"addr:housenumber": "601", "addr:postcode": "10011", "addr:street": "6th Avenue", "amenity": "restaurant", "branch": "Chelsea", "cuisine": "mexican", "name": "Guac Time", "website": "www.guactimenyc.com"}}, {"type": "node", "id": 2501879029, "lat": 40.7459975, "lon": -73.9996248}, {"type": "node", "id": 2562375149, "lat": 40.7373434, "lon": -73.9866417}, {"type": "node", "id": 2562375154, "lat": 40.7373879, "lon": -73.986746}, {"type": "node", "id": 2562375200, "lat": 40.7376517, "lon": -73.9864143}, {"type": "node", "id": 2562375208, "lat": 40.7376962, "lon": -73.9865186}, {"type": "node", "id": 2592305754, "lat": 40.7428458, "lon": -73.9999943, "tags": {"addr:city": "New York", "addr:country": "US", "addr:housenumber": "178", "addr:postcode": "10011", "addr:state": "NY", "addr:street": "8th Avenue", "amenity": "cafe", "cuisine": "ice_cream", "name": "16 Handles"}}, {"type": "node", "id": 2702838486, "lat": 40.7417521, "lon": -74.0029233}, {"type": "node", "id": 2702838547, "lat": 40.7418831, "lon": -74.0032364}, {"type": "node", "id": 2702838559, "lat": 40.741901, "lon": -74.0028157}, {"type": "node", "id": 2702838564, "lat": 40.7419091, "lon": -74.0028351}, {"type": "node", "id": 2702838604, "lat": 40.7419677, "lon": -74.0027926}, {"type": "node", "id": 2702838629, "lat": 40.7419991, "lon": -74.0031143}, {"type": "node", "id": 2702838635, "lat": 40.7420114, "lon": -74.0031436}, {"type": "node", "id": 2702838687, "lat": 40.7420783, "lon": -74.003057}, {"type": "node", "id": 2702937391, "lat": 40.7394756, "lon": -73.9968306}, {"type": "node", "id": 2702937428, "lat": 40.7396073, "lon": -73.9970573}, {"type": "node", "id": 2702937444, "lat": 40.7396504, "lon": -73.997026}, {"type": "node", "id": 2702937460, "lat": 40.7396936, "lon": -73.9966719}, {"type": "node", "id": 2702937474, "lat": 40.7397976, "lon": -73.9969188}, {"type": "node", "id": 2702966180, "lat": 40.7385721, "lon": -73.9945288}, {"type": "node", "id": 2702966183, "lat": 40.7385954, "lon": -73.9945838}, {"type": "node", "id": 2702966208, "lat": 40.738737, "lon": -73.9944082}, {"type": "node", "id": 2702966210, "lat": 40.7387534, "lon": -73.9944681}, {"type": "node", "id": 2702966211, "lat": 40.7387603, "lon": -73.9944631}, {"type": "node", "id": 2703025505, "lat": 40.7426919, "lon": -73.9996985}, {"type": "node", "id": 2703025515, "lat": 40.7427286, "lon": -73.9997859}, {"type": "node", "id": 2703025545, "lat": 40.7428458, "lon": -73.9995868}, {"type": "node", "id": 2703025546, "lat": 40.7428458, "lon": -73.9997009}, {"type": "node", "id": 2703025550, "lat": 40.7428531, "lon": -73.9996042}, {"type": "node", "id": 2703025554, "lat": 40.7428559, "lon": -73.9995902}, {"type": "node", "id": 2703025555, "lat": 40.7428597, "lon": -73.9995994}, {"type": "node", "id": 2703025558, "lat": 40.742874, "lon": -73.999654}, {"type": "node", "id": 2703025561, "lat": 40.7428785, "lon": -73.9996263}, {"type": "node", "id": 2703025562, "lat": 40.7428825, "lon": -73.9996743}, {"type": "node", "id": 2703025563, "lat": 40.7428873, "lon": -73.9995674}, {"type": "node", "id": 2703025569, "lat": 40.7429042, "lon": -73.9996077}, {"type": "node", "id": 2703033271, "lat": 40.7414099, "lon": -73.9959709}, {"type": "node", "id": 2703033304, "lat": 40.7415476, "lon": -73.9962978}, {"type": "node", "id": 2703033306, "lat": 40.7415639, "lon": -73.9963095}, {"type": "node", "id": 2703033308, "lat": 40.7415719, "lon": -73.9958529}, {"type": "node", "id": 2703033316, "lat": 40.7416283, "lon": -73.9958118}, {"type": "node", "id": 2703033339, "lat": 40.7417766, "lon": -73.9961641}, {"type": "node", "id": 2703059127, "lat": 40.7419847, "lon": -73.9954658}, {"type": "node", "id": 2703059157, "lat": 40.742076, "lon": -73.9956825}, {"type": "node", "id": 2703059246, "lat": 40.7421843, "lon": -73.9953205}, {"type": "node", "id": 2703059300, "lat": 40.7422385, "lon": -73.9949898}, {"type": "node", "id": 2703059345, "lat": 40.7422756, "lon": -73.9955372}, {"type": "node", "id": 2703059407, "lat": 40.7423716, "lon": -73.995304}, {"type": "node", "id": 2703059430, "lat": 40.7424435, "lon": -73.9948396}, {"type": "node", "id": 2703059448, "lat": 40.7424974, "lon": -73.9948002}, {"type": "node", "id": 2703059463, "lat": 40.7425407, "lon": -73.9949026}, {"type": "node", "id": 2703059470, "lat": 40.7425986, "lon": -73.9950393}, {"type": "node", "id": 2703059473, "lat": 40.7426035, "lon": -73.9951342}, {"type": "node", "id": 2703059477, "lat": 40.7426305, "lon": -73.9951144}, {"type": "node", "id": 2703115801, "lat": 40.7459146, "lon": -73.9997026}, {"type": "node", "id": 2703115811, "lat": 40.7459501, "lon": -73.9997857}, {"type": "node", "id": 2703115823, "lat": 40.7459964, "lon": -73.9997635}, {"type": "node", "id": 2703115826, "lat": 40.7460043, "lon": -73.9996407}, {"type": "node", "id": 2703115828, "lat": 40.7460081, "lon": -73.999629}, {"type": "node", "id": 2703115829, "lat": 40.746011, "lon": -73.9996357}, {"type": "node", "id": 2703115831, "lat": 40.7460141, "lon": -73.9998048}, {"type": "node", "id": 2703115835, "lat": 40.7460185, "lon": -73.9996213}, {"type": "node", "id": 2703115837, "lat": 40.7460197, "lon": -73.9998006}, {"type": "node", "id": 2703115839, "lat": 40.7460232, "lon": -73.9996322}, {"type": "node", "id": 2703115858, "lat": 40.7461109, "lon": -73.9995675}, {"type": "node", "id": 2703115867, "lat": 40.7461689, "lon": -74.00015}, {"type": "node", "id": 2703115873, "lat": 40.7463138, "lon": -74.0000431}, {"type": "node", "id": 2704040472, "lat": 40.7368544, "lon": -73.9833585}, {"type": "node", "id": 2704040473, "lat": 40.7368611, "lon": -73.9832954}, {"type": "node", "id": 2704040476, "lat": 40.7368747, "lon": -73.9832855}, {"type": "node", "id": 2704040477, "lat": 40.7368798, "lon": -73.9833399}, {"type": "node", "id": 2704040479, "lat": 40.7369213, "lon": -73.9832513}, {"type": "node", "id": 2704040482, "lat": 40.7369311, "lon": -73.9835406}, {"type": "node", "id": 2704040483, "lat": 40.7369569, "lon": -73.9835217}, {"type": "node", "id": 2704040486, "lat": 40.736977, "lon": -73.9835696}, {"type": "node", "id": 2704040487, "lat": 40.7369844, "lon": -73.9835642}, {"type": "node", "id": 2704040489, "lat": 40.7370102, "lon": -73.9831861}, {"type": "node", "id": 2704040493, "lat": 40.7370592, "lon": -73.9831502}, {"type": "node", "id": 2704040516, "lat": 40.7371747, "lon": -73.9834247}, {"type": "node", "id": 2704093189, "lat": 40.7374469, "lon": -73.9787527}, {"type": "node", "id": 2704093192, "lat": 40.7374139, "lon": -73.9783931}, {"type": "node", "id": 2704093195, "lat": 40.7375362, "lon": -73.9786879}, {"type": "node", "id": 2704093203, "lat": 40.737449, "lon": -73.9783677}, {"type": "node", "id": 2704093205, "lat": 40.737704, "lon": -73.9786949}, {"type": "node", "id": 2704093207, "lat": 40.7377224, "lon": -73.9786816}, {"type": "node", "id": 2704093210, "lat": 40.7377916, "lon": -73.9789492}, {"type": "node", "id": 2704093211, "lat": 40.7375487, "lon": -73.978263}, {"type": "node", "id": 2704093212, "lat": 40.7376099, "lon": -73.9791456}, {"type": "node", "id": 2704093229, "lat": 40.7378123, "lon": -73.9789992}, {"type": "node", "id": 2704096873, "lat": 40.7385267, "lon": -73.982055}, {"type": "node", "id": 2704096891, "lat": 40.7385798, "lon": -73.982016}, {"type": "node", "id": 2704096893, "lat": 40.7385914, "lon": -73.9822069}, {"type": "node", "id": 2704096932, "lat": 40.7386893, "lon": -73.9824368}, {"type": "node", "id": 2704096933, "lat": 40.7386901, "lon": -73.9819352}, {"type": "node", "id": 2704096939, "lat": 40.7387385, "lon": -73.9819002}, {"type": "node", "id": 2704096946, "lat": 40.7387559, "lon": -73.9825933}, {"type": "node", "id": 2704096958, "lat": 40.7388745, "lon": -73.982507}, {"type": "node", "id": 2704096965, "lat": 40.738914, "lon": -73.9822732}, {"type": "node", "id": 2704096969, "lat": 40.7389334, "lon": -73.982464}, {"type": "node", "id": 2704096972, "lat": 40.7389801, "lon": -73.98243}, {"type": "node", "id": 2826407083, "lat": 40.7426583, "lon": -73.9983133, "tags": {"addr:city": "New York", "addr:housenumber": "224", "addr:postcode": "10011", "addr:street": "West 20th Street", "amenity": "cafe", "branch": "Chelsea", "brand": "Caf\u00e9 Grumpy", "cuisine": "coffee_shop", "internet_access": "no", "name": "Caf\u00e9 Grumpy", "opening_hours": "Mo-Fr 07:00-20:00; Sa 07:30-20:00; Su 07:30-19:30", "outdoor_seating": "yes", "phone": "+1 212-255-5511", "website": "https://cafegrumpy.com/locations/chelsea/"}}, {"type": "node", "id": 2826470599, "lat": 40.7422365, "lon": -73.9949484, "tags": {"addr:city": "New York", "addr:housenumber": "131", "addr:postcode": "10011", "addr:street": "West 21st Street", "amenity": "cafe", "cuisine": "coffee_shop", "name": "Joe Pro Shop & Headquarters", "opening_hours": "Mo-Sa 08:00-17:00", "phone": "+1 212-924-7400", "website": "http://www.joenewyork.com"}}, {"type": "node", "id": 3792505152, "lat": 40.7417954, "lon": -73.9970742, "tags": {"amenity": "cafe", "cuisine": "coffee_shop", "internet_access": "wlan", "internet_access:fee": "no", "name": "FIKA 7th Avenue", "opening_hours": "Mo-Fr 07:00-19:00; Sa 09:00-17:00; Su 09:00-18:00", "phone": "+1-646-922-7994", "website": "https://www.fikanyc.com/"}}, {"type": "node", "id": 4009714818, "lat": 40.7406022, "lon": -74.0006577, "tags": {"addr:city": "New York", "addr:housenumber": "242", "addr:postcode": "10011", "addr:state": "NY", "addr:street": "West 16th Street", "amenity": "restaurant", "cuisine": "american", "delivery": "no", "name": "The Grey Dog", "opening_hours": "Su, Mo 07:00-22:30; Tu-Fr 07:00-23:30; Sa 07:30-23:30", "smoking": "no", "takeaway": "yes"}}, {"type": "node", "id": 4076729410, "lat": 40.7385511, "lon": -73.9820371}, {"type": "node", "id": 4076729416, "lat": 40.7386653, "lon": -73.9819534}, {"type": "node", "id": 4305816204, "lat": 40.7418162, "lon": -74.0000228, "tags": {"amenity": "restaurant", "name": "Westville Chelsea"}}, {"type": "node", "id": 4604252268, "lat": 40.7426475, "lon": -73.9964607, "tags": {"addr:city": "New York", "addr:housenumber": "185", "addr:postcode": "10011", "addr:state": "NY", "addr:street": "West 21st Street", "amenity": "restaurant", "cuisine": "japanese", "delivery": "no", "name": "Momoya", "opening_hours": "Mo-Su 12:00-14:30, 17:30-22:30", "outdoor_seating": "no", "phone": "+1-212-989-4466", "smoking": "no", "takeaway": "yes", "website": "https://momoyanyc.com"}}, {"type": "node", "id": 4616328313, "lat": 40.7426481, "lon": -73.9995427, "tags": {"addr:city": "New York", "addr:housenumber": "259", "addr:postcode": "10011", "addr:state": "NY", "addr:street": "West 19th Street", "amenity": "restaurant", "cuisine": "spanish", "delivery": "yes", "name": "Socarrat Paella Bar", "opening_hours": "Su-Th 11:30-23:00; Fr-Sa 11:30-23:30", "outdoor_seating": "no", "phone": "+1-212-462-1000", "smoking": "no", "takeaway": "no", "website": "https://www.socarratnyc.com/"}}, {"type": "node", "id": 4629748728, "lat": 40.7393804, "lon": -74.0012272, "tags": {"amenity": "restaurant", "name": "La Nacional", "opening_hours:signed": "no"}}, {"type": "node", "id": 4880872875, "lat": 40.7430465, "lon": -73.9961727, "tags": {"addr:city": "New York", "addr:housenumber": "197", "addr:postcode": "10011", "addr:state": "NY", "addr:street": "7th Avenue", "amenity": "restaurant", "cuisine": "mexican", "delivery": "yes", "email": "chelsea@limonjunglenyc.com", "name": "Lim\u00f3n Jungle", "opening_hours": "11:00-23:00; Fr,Sa 11:00-00:00", "payment:american_express": "yes", "payment:discover_card": "yes", "payment:mastercard": "yes", "payment:visa": "yes", "phone": "+1-212-243-1212", "reservation": "yes", "takeaway": "yes", "website": "http://limonjunglenyc.com"}}, {"type": "node", "id": 5265744995, "lat": 40.7415489, "lon": -73.99934, "tags": {"addr:housenumber": "228", "addr:street": "West 18th Street", "amenity": "restaurant", "cuisine": "venezuelan", "name": "El Cocotero"}}, {"type": "node", "id": 5265747703, "lat": 40.7388326, "lon": -73.9955295, "tags": {"addr:housenumber": "590", "addr:postcode": "10011", "addr:street": "6th Avenue", "amenity": "cafe", "branch": "Chelsea", "cuisine": "coffee_shop", "drink:beer": "yes", "drink:coffee": "yes", "drink:tea": "yes", "drink:wine": "yes", "internet_access": "wlan", "name": "Blank Street Coffee", "opening_hours": "Mo-Su 06:30-18:00"}}, {"type": "node", "id": 5265747921, "lat": 40.7384445, "lon": -73.9958164, "tags": {"addr:housenumber": "568", "addr:street": "6th Avenue", "amenity": "cafe", "brand": "Think Coffee", "brand:wikidata": "Q122209740", "cuisine": "coffee_shop", "name": "Think Coffee", "takeaway": "yes"}}, {"type": "node", "id": 5300031526, "lat": 40.7389807, "lon": -73.9950746, "tags": {"addr:city": "New York", "addr:housenumber": "64", "addr:postcode": "10011", "addr:street": "West 17th Street", "amenity": "school", "name": "The Sixth Avenue Elementary School - PS340", "operator": "The New York City Department of Education", "phone": "+1 917 305 1000", "website": "https://ps-340-sixth-avenue-elementary-school.echalksites.com/"}}, {"type": "node", "id": 5762582554, "lat": 40.7426244, "lon": -73.9969669, "tags": {"addr:postcode": "10014", "amenity": "bar", "name": "The Village Vanguard", "opening_hours": "Mo-Su 20:00-00:30", "phone": "+12122554037"}}, {"type": "node", "id": 5778906637, "lat": 40.7387302, "lon": -73.9945926, "tags": {"addr:city": "New York", "addr:housenumber": "48", "addr:postcode": "10011", "addr:state": "NY", "addr:street": "West 17th Street", "amenity": "bar", "name": "The Raines Law Room", "website": "https://www.raineslawroom.com"}}, {"type": "node", "id": 6026088130, "lat": 40.7430002, "lon": -73.9966979, "tags": {"addr:city": "New York", "addr:housenumber": "188", "addr:postcode": "10011", "addr:state": "NY", "addr:street": "7th Avenue", "amenity": "cafe", "brand": "Matto Espresso", "brand:wikidata": "Q122209496", "cuisine": "coffee_shop", "name": "Matto Espresso", "takeaway": "yes"}}, {"type": "node", "id": 6277896351, "lat": 40.7404947, "lon": -73.9980066, "tags": {"addr:housenumber": "119", "addr:postcode": "10010", "addr:street": "7th Avenue", "amenity": "restaurant", "cocktails": "yes", "contact:facebook": "https://www.facebook.com/cafeteriarestaurantnyc/", "contact:instagram": "http://instagram.com/cafeterianyc", "contact:twitter": "http://twitter.com/CAFETERIAnyc", "cuisine": "american", "delivery": "yes", "fax": "+1 212-414-1190", "name": "CAFETERIA", "opening_hours": "24/7", "phone": "+1 212-414-1717", "reservation": "yes", "website": "https://cafeteriagroup.com/"}}, {"type": "node", "id": 6462866685, "lat": 40.7386729, "lon": -74.0007672, "tags": {"amenity": "restaurant", "cuisine": "sushi", "name": "Sushi Para 88", "opening_hours": "\"Temporarily closed\"", "website": "https://www.sushipara88.com/"}}, {"type": "node", "id": 6621617759, "lat": 40.739814, "lon": -73.999021, "tags": {"amenity": "cafe", "check_date": "2024-09-12", "name": "Yanni's coffee"}}, {"type": "node", "id": 7084645155, "lat": 40.7426521, "lon": -74.0006585, "tags": {"addr:housenumber": "169", "addr:postcode": "10011", "addr:street": "8th Avenue", "amenity": "restaurant", "branch": "Chelsea", "cuisine": "gastropub", "drink:beer": "draught", "happy_hours": "Mo-Fr 11:00-19:00", "name": "Cooper's Craft & Kitchen", "opening_hours": "Mo-We, Su 11:00-02:00; Th-Sa 11:00-03:00", "phone": "+1 646-661-7711", "reservation": "yes", "website": "https://www.coopersnyc.com/"}}, {"type": "node", "id": 7087208400, "lat": 40.7411945, "lon": -73.9967198, "tags": {"addr:housenumber": "144", "addr:postcode": "10011", "addr:street": "West 19th Street", "amenity": "restaurant", "contact:instagram": "https://www.instagram.com/glurnyc", "cuisine": "thai", "delivery": "yes", "diet:vegan": "yes", "name": "Glur Thai", "opening_hours": "Mo-Fr 11:00-15:30, 17:00-21:30; Sa, Su 12:00-21:30", "phone": "+1 212-738-9898", "takeaway": "yes", "website": "https://www.glurnyc.com"}}, {"type": "node", "id": 7105939411, "lat": 40.7461686, "lon": -74.0001493, "tags": {"camera:type": "dome", "man_made": "surveillance", "surveillance:type": "camera"}}, {"type": "node", "id": 7125552538, "lat": 40.7410077, "lon": -73.9981275, "tags": {"addr:housenumber": "132", "addr:street": "7th Avenue", "amenity": "restaurant", "cuisine": "american", "name": "Motel Morris", "website": "https://www.motelmorris.com"}}, {"type": "node", "id": 7230710385, "lat": 40.7418314, "lon": -73.9975703, "tags": {"addr:housenumber": "152", "addr:postcode": "10011", "addr:street": "7th Avenue", "amenity": "restaurant", "name": "Peter McManus Cafe", "opening_hours": "Mo-Sa 11:00-04:00; Su 12:00-04:00", "wikidata": "Q7175816"}}, {"type": "node", "id": 7680594079, "lat": 40.7436917, "lon": -73.9999031, "tags": {"addr:housenumber": "201", "addr:postcode": "10011", "addr:street": "8th Avenue", "amenity": "restaurant", "level": "0", "name": "Dish Restaurant", "outdoor_seating": "yes", "phone": "+1-212-352-9800"}}, {"type": "node", "id": 7680594082, "lat": 40.7435443, "lon": -73.9995047, "tags": {"addr:housenumber": "200", "addr:postcode": "10011", "addr:street": "8th Avenue", "amenity": "restaurant", "level": "0", "name": "el coco"}}, {"type": "node", "id": 7680594083, "lat": 40.7434956, "lon": -73.9995423, "tags": {"addr:housenumber": "200", "addr:postcode": "10011", "addr:street": "8th Avenue", "amenity": "restaurant", "cuisine": "asian", "level": "0", "name": "Charm's", "opening_hours": "Mo-Th 11:30-16:00, 17:00-22:30; Fr 11:30-16:00, 17:00-23:00; Sa 12:30-23:00; Su 12:30-22:30", "phone": "+1-646-590-8994", "website": "https://www.charmsnyc.com"}}, {"type": "node", "id": 9054229226, "lat": 40.7378054, "lon": -73.9789393}, {"type": "node", "id": 9558935214, "lat": 40.7384151, "lon": -73.9989186, "tags": {"addr:housenumber": "149", "addr:street": "West 14th Street", "amenity": "restaurant", "check_date": "2024-06-10", "cuisine": "georgian", "diet:vegan": "yes", "name": "Chama Mama", "opening_hours": "Mo-Su 11:00-23:00", "outdoor_seating": "yes", "phone": "+1-646-438-9007", "website": "https://www.chamamama.com/"}}, {"type": "node", "id": 9569739936, "lat": 40.745998, "lon": -73.9996259}, {"type": "node", "id": 9569739940, "lat": 40.7459591, "lon": -73.9996608}, {"type": "node", "id": 9615063330, "lat": 40.7386552, "lon": -74.0004096, "tags": {"addr:city": "New York", "addr:postcode": "10011", "addr:state": "NY", "addr:street": "West 14th Street", "amenity": "restaurant", "cuisine": "pizza", "name": "Fresh 99 cents pizza"}}, {"type": "node", "id": 9845565310, "lat": 40.7436499, "lon": -73.9999237, "tags": {"addr:city": "New York", "addr:housenumber": "199", "addr:postcode": "10011", "addr:state": "NY", "addr:street": "8th Avenue", "amenity": "restaurant", "contact:facebook": "https://www.facebook.com/willownewyork/", "cuisine": "bistro;american", "delivery": "yes", "diet:kosher": "yes", "diet:vegan": "only", "diet:vegetarian": "yes", "name": "Willow Vegan Bistro", "opening_hours": "Mo-Th 11:30-21:30; Fr-Sa 11:30-22:30; Su 11:30-21:30", "phone": "+1-212-929-2889", "takeaway": "yes", "website": "https://willownewyork.com/", "website:menu": "https://willownewyork.com/menu/", "wikidata": "Q136351186"}}, {"type": "node", "id": 10589487715, "lat": 40.7374386, "lon": -73.9783426}, {"type": "node", "id": 10589538446, "lat": 40.7387525, "lon": -73.98189}, {"type": "node", "id": 10873983898, "lat": 40.7434197, "lon": -73.9963738, "tags": {"addr:city": "New York", "addr:housenumber": "206", "addr:postcode": "10011", "addr:state": "NY", "addr:street": "West 22nd Street", "amenity": "pub", "name": "The Cooper Still", "website": "https://www.thecopperstillnyc.com/"}}, {"type": "node", "id": 12644016263, "lat": 40.7395666, "lon": -73.9970868}, {"type": "node", "id": 12644016264, "lat": 40.7394617, "lon": -73.9968408}, {"type": "node", "id": 12644016265, "lat": 40.739507, "lon": -73.9968077}, {"type": "node", "id": 12739807569, "lat": 40.7401843, "lon": -73.9953946, "tags": {"addr:city": "New York", "addr:housenumber": "107", "addr:postcode": "10011", "addr:state": "NY", "addr:street": "West 18th Street", "amenity": "cafe", "name": "Telegraphe Caf\u00e9", "phone": "+1-212-488-5810"}}, {"type": "node", "id": 12865107393, "lat": 40.7393312, "lon": -73.9976946, "tags": {"amenity": "restaurant", "bar": "yes", "cuisine": "steak_house", "drink:beer": "yes", "drink:liquor": "yes", "drink:wine": "yes", "name": "Prime Catch NYC", "phone": "+1-646-649-2288"}}, {"type": "node", "id": 13071016173, "lat": 40.7388838, "lon": -74.0000095, "tags": {"addr:city": "New York", "addr:country": "US", "addr:housenumber": "207", "addr:postcode": "10001", "addr:state": "NY", "addr:street": "West 14th Street", "amenity": "restaurant", "cocktails": "yes", "cuisine": "cuban", "drink:beer": "yes", "email": "info@coppelianyc.com", "facebook": "coppelianyc", "instagram": "coppelianyc1", "name": "Coppelia", "opening_hours": "24/7", "phone": "+1 212-858-5001", "takeaway": "yes", "twitter": "coppelianyc", "website": "https://ilovecoppelia.com"}}, {"type": "node", "id": 13071016174, "lat": 40.7388621, "lon": -73.9999234, "tags": {"addr:city": "New York", "addr:country": "US", "addr:housenumber": "205", "addr:postcode": "10001", "addr:state": "NY", "addr:street": "West 14th Street", "amenity": "pub", "check_date": "2024-01-11", "name": "Flannery's Bar", "opening_hours:signed": "no", "website": "http://www.flannerysny.com/"}}, {"type": "way", "id": 249657372, "nodes": [2562375149, 2562375154, 2562375208, 2562375200, 2562375149], "tags": {"addr:housenumber": "17", "addr:postcode": "10003", "addr:street": "Gramercy Park South", "building": "yes", "height": "22.8", "nycdoitt:bin": "1017937"}}, {"type": "way", "id": 264625629, "nodes": [2702838486, 2702838547, 2702838635, 2702838629, 2702838687, 2702838604, 2702838564, 2702838559, 2702838486], "tags": {"addr:housenumber": "335", "addr:postcode": "10011", "addr:street": "West 16th Street", "building": "yes", "building:colour": "#DFCAAF", "building:levels": "5", "building:material": "brick", "building:part": "yes", "height": "22.6", "nycdoitt:bin": "1013048", "roof:material": "concrete", "roof:shape": "flat"}}, {"type": "way", "id": 264638572, "nodes": [2702966180, 2702966183, 2702966210, 2702966211, 2702966208, 2702966180], "tags": {"addr:housenumber": "44", "addr:postcode": "10011", "addr:street": "West 17th Street", "amenity": "restaurant", "building": "yes", "cuisine": "belgian", "height": "20.3", "name": "Petite Abeille", "nycdoitt:bin": "1015404"}}, {"type": "way", "id": 264644249, "nodes": [2703025505, 2703025515, 2703025546, 2703025562, 2703025558, 2703025561, 2703025569, 2703025563, 2703025554, 2703025555, 2703025550, 2703025545, 2703025505], "tags": {"addr:housenumber": "263", "addr:postcode": "10011", "addr:street": "West 19th Street", "amenity": "restaurant", "building": "yes", "building:levels": "1", "height": "17.8", "name": "Wisefish Poke", "nycdoitt:bin": "1013966"}}, {"type": "way", "id": 264646541, "nodes": [2703059448, 2703059430, 2703059300, 2703059407, 2703059473, 2703059477, 2703059470, 2703059463, 2703059448], "tags": {"building": "yes", "height": "46.6", "nycdoitt:bin": "1014771"}}, {"type": "way", "id": 264646543, "nodes": [2703059127, 2703059157, 2703059345, 2703059246, 2703059127], "tags": {"addr:housenumber": "136", "addr:postcode": "10011", "addr:street": "West 21st Street", "building": "yes", "height": "45.5", "nycdoitt:bin": "1014758"}}, {"type": "way", "id": 264651626, "nodes": [2703115828, 2703115829, 2703115826, 9569739936, 2501879029, 9569739940, 2703115801, 2703115811, 2703115823, 2703115831, 2703115837, 7105939411, 2703115867, 2703115873, 2703115858, 2703115839, 2703115835, 2703115828], "tags": {"addr:city": "New York", "addr:housenumber": "333", "addr:postcode": "10011", "addr:state": "NY", "addr:street": "West 23rd Street", "amenity": "cinema", "building": "college", "check_date": "2024-04-26", "height": "10.8", "name": "SVA Theater", "nycdoitt:bin": "1078542", "screen": "2", "source": "Local Knowledge;local_knowledge", "website": "https://www.svatheatre.com/", "wikidata": "Q45101554"}}, {"type": "way", "id": 264754109, "nodes": [2704040473, 2704040477, 2704040472, 2704040482, 2704040483, 2704040486, 2704040487, 2704040516, 2704040493, 2704040489, 2704040479, 2704040476, 2704040473], "tags": {"addr:housenumber": "214", "addr:postcode": "10010", "addr:street": "East 21st Street", "building": "yes", "height": "37.0", "nycdoitt:bin": "1019626"}}, {"type": "way", "id": 264760109, "nodes": [2704093229, 2704093210, 9054229226, 2704093205, 2704093207, 2704093211, 10589487715, 2704093203, 2704093192, 2704093195, 2704093189, 2704093212, 2704093229], "tags": {"addr:housenumber": "340", "addr:postcode": "10010", "addr:street": "East 24th Street", "building": "dormitory", "height": "42.2", "nycdoitt:bin": "1020597", "operator": "School of Visual Arts"}}, {"type": "way", "id": 371120098, "nodes": [2703033339, 2703033306, 2703033304, 2703033271, 2703033308, 2703033316, 2703033339], "tags": {"leisure": "park", "name": "Chelsea Green", "operator": "New York City Department of Parks and Recreation", "operator:short": "NYC Parks", "operator:type": "government", "operator:wikidata": "Q1894232", "website": "https://www.nycgovparks.org/parks/chelsea-green-park"}}, {"type": "way", "id": 753146654, "nodes": [2704096972, 2704096965, 10589538446, 2704096939, 2704096933, 4076729416, 2704096891, 4076729410, 2704096873, 2704096893, 2704096932, 2704096946, 2704096958, 2704096969, 2704096972]}, {"type": "way", "id": 1365380989, "nodes": [2702937474, 2702937444, 2702937428, 12644016263, 12644016264, 2702937391, 12644016265, 2702937460, 2702937474], "tags": {"addr:housenumber": "122", "addr:postcode": "10011", "addr:street": "West 17th Street", "amenity": "school", "mascot": "Bulldogs", "mascot:name": "Winston the Bulldog", "name": "Winston Prepatory School", "website": "https://www.winstonprep.edu", "wikidata": "Q8026117"}}, {"type": "relation", "id": 15402496, "members": [{"type": "way", "ref": 753146654, "role": "outer"}, {"type": "way", "ref": 264760109, "role": "outer"}, {"type": "way", "ref": 264754109, "role": "outer"}, {"type": "way", "ref": 249657372, "role": "outer"}, {"type": "way", "ref": 264646543, "role": "outer"}, {"type": "way", "ref": 264646541, "role": "outer"}, {"type": "way", "ref": 264625629, "role": "outer"}, {"type": "way", "ref": 264651626, "role": "outer"}], "tags": {"addr:housenumber": "209", "addr:postcode": "10010", "addr:street": "East 23rd Street", "alt_name": "SVA", "amenity": "university", "fax": "+1-212-725-3587", "name": "School of Visual Arts", "phone": "+1-212-592-2000", "short_name": "SVA", "type": "multipolygon", "website": "https://sva.edu", "wikidata": "Q1279835", "wikipedia": "en:School of Visual Arts"}}]}