{"version": 0.6, "generator": "Overpass API 0.7.62.8 e802775f", "osm3s": {"timestamp_osm_base": "2025-12-01T17:04:51Z", "copyright": "The data included in this document is from www.openstreetmap.org. The data is made available under ODbL."}, "elements": [{"type": "node", "id": 42424937, "lat": 40.8105617, "lon": -73.967223, "tags": {"highway": "motorway_junction", "noref": "yes"}}, {"type": "node", "id": 42441403, "lat": 40.8162646, "lon": -73.9615293}, {"type": "node", "id": 42441407, "lat": 40.8162461, "lon": -73.9614782}, {"type": "node", "id": 42441412, "lat": 40.816222, "lon": -73.9614252}, {"type": "node", "id": 42441415, "lat": 40.8161962, "lon": -73.9613877}, {"type": "node", "id": 42441417, "lat": 40.8161681, "lon": -73.9613545}, {"type": "node", "id": 42441419, "lat": 40.8161374, "lon": -73.9613306}, {"type": "node", "id": 42458473, "lat": 40.8036231, "lon": -73.9722212}, {"type": "node", "id": 61249177, "lat": 40.8016951, "lon": -73.9735819}, {"type": "node", "id": 61249178, "lat": 40.8023444, "lon": -73.9731319}, {"type": "node", "id": 61249179, "lat": 40.8045999, "lon": -73.9714929}, {"type": "node", "id": 61249181, "lat": 40.8063472, "lon": -73.9701252}, {"type": "node", "id": 61249182, "lat": 40.8072829, "lon": -73.9694072}, {"type": "node", "id": 61249184, "lat": 40.8086614, "lon": -73.9684344}, {"type": "node", "id": 61257626, "lat": 40.809158, "lon": -73.9681085}, {"type": "node", "id": 357620593, "lat": 40.8016979, "lon": -73.9702671, "tags": {"addr:floor": "3rd Floor", "addr:housenumber": "331", "addr:street": "Riverside Drive", "amenity": "school", "ele": "33", "email": "info@ambuddhist.org", "gnis:feature_id": "2083382", "name": "American Buddhist Study Center", "name:1951-2000": "American Buddhist Academy", "name:2000-": "American Buddhist Study Center", "phone": "+1-212-864-7424", "source:name": "https://web.archive.org/web/20191024141133id_/ambuddhist.org/about#comp-j3yhquq1imgimage", "website": "https://www.ambuddhist.org"}}, {"type": "node", "id": 570912397, "lat": 40.8057782, "lon": -73.9658657, "tags": {"addr:city": "New York", "addr:housenumber": "2885", "addr:postcode": "10025", "addr:state": "NY", "addr:street": "Broadway", "amenity": "restaurant", "cuisine": "french;loire_valley", "name": "Le Monde", "phone": "+12125313939", "website": "https://lemondenyc.com/"}}, {"type": "node", "id": 595436258, "lat": 40.8126128, "lon": -73.9654746}, {"type": "node", "id": 595436261, "lat": 40.8133193, "lon": -73.9648631}, {"type": "node", "id": 625883727, "lat": 40.7961331, "lon": -73.9750609}, {"type": "node", "id": 625884281, "lat": 40.8010765, "lon": -73.9738763}, {"type": "node", "id": 625884289, "lat": 40.8006283, "lon": -73.9741584}, {"type": "node", "id": 625884294, "lat": 40.8000584, "lon": -73.9744791}, {"type": "node", "id": 625884299, "lat": 40.7994631, "lon": -73.9746907}, {"type": "node", "id": 625884302, "lat": 40.799061, "lon": -73.9748409}, {"type": "node", "id": 625884307, "lat": 40.7988785, "lon": -73.9746768}, {"type": "node", "id": 625884311, "lat": 40.798717, "lon": -73.9746432}, {"type": "node", "id": 625884313, "lat": 40.7986643, "lon": -73.9746454}, {"type": "node", "id": 625884326, "lat": 40.7985684, "lon": -73.9746772}, {"type": "node", "id": 625884331, "lat": 40.7981691, "lon": -73.9749158}, {"type": "node", "id": 625884334, "lat": 40.7979393, "lon": -73.9750767}, {"type": "node", "id": 625884337, "lat": 40.7976979, "lon": -73.9752286}, {"type": "node", "id": 625884342, "lat": 40.7974196, "lon": -73.9753795}, {"type": "node", "id": 625884347, "lat": 40.7972133, "lon": -73.9754739}, {"type": "node", "id": 625884352, "lat": 40.7969615, "lon": -73.9755598}, {"type": "node", "id": 625884354, "lat": 40.7967985, "lon": -73.9755914}, {"type": "node", "id": 625884358, "lat": 40.7965823, "lon": -73.9755587}, {"type": "node", "id": 625884364, "lat": 40.7963686, "lon": -73.9754632}, {"type": "node", "id": 625884369, "lat": 40.7962596, "lon": -73.9753297}, {"type": "node", "id": 625884371, "lat": 40.7961818, "lon": -73.9751735}, {"type": "node", "id": 1119244578, "lat": 40.8054509, "lon": -73.9654163, "tags": {"addr:city": "New York", "addr:country": "US", "addr:housenumber": "2880", "addr:postcode": "10025", "addr:state": "NY", "addr:street": "Broadway", "amenity": "restaurant", "cuisine": "diner", "name": "Tom's Restaurant", "opening_hours": "Tu-Th 07:00-01:00; Mo,Fr-Su 00:00-24:00", "phone": "+1 212-864-6137", "website": "https://tomsrestaurant.net/", "wikidata": "Q2441394", "wikipedia": "en:Tom's Restaurant"}}, {"type": "node", "id": 1147215107, "lat": 40.8128553, "lon": -73.9629822}, {"type": "node", "id": 1147215134, "lat": 40.81301, "lon": -73.9628841}, {"type": "node", "id": 1289223589, "lat": 40.8017171, "lon": -73.9684304}, {"type": "node", "id": 1289223592, "lat": 40.8021993, "lon": -73.9680806}, {"type": "node", "id": 1289223594, "lat": 40.8022034, "lon": -73.9680757}, {"type": "node", "id": 1289223597, "lat": 40.8016019, "lon": -73.968098}, {"type": "node", "id": 1332863754, "lat": 40.8015627, "lon": -73.9735078}, {"type": "node", "id": 1705982023, "lat": 40.8162727, "lon": -73.9616846}, {"type": "node", "id": 1705982067, "lat": 40.8162739, "lon": -73.9615857}, {"type": "node", "id": 1705982125, "lat": 40.8162759, "lon": -73.961641}, {"type": "node", "id": 1705982127, "lat": 40.8139876, "lon": -73.9623085}, {"type": "node", "id": 1705982137, "lat": 40.8139095, "lon": -73.9623366}, {"type": "node", "id": 1705982150, "lat": 40.8162661, "lon": -73.9617266}, {"type": "node", "id": 1889208625, "lat": 40.8016081, "lon": -73.9736367}, {"type": "node", "id": 2262170141, "lat": 40.8032115, "lon": -73.963939, "tags": {"addr:city": "New York", "addr:country": "US", "addr:housenumber": "1020", "addr:state": "NY", "addr:street": "Amsterdam Avenue", "amenity": "bar", "name": "1020 Bar", "phone": "+1-212-531-3468", "website": "https://www.1020bar.com"}}, {"type": "node", "id": 2279017957, "lat": 40.8028091, "lon": -73.9680501, "tags": {"addr:city": "New York", "addr:country": "US", "addr:housenumber": "2791", "addr:postcode": "10025", "addr:state": "NY", "addr:street": "Broadway", "amenity": "restaurant", "cuisine": "italian", "name": "Fumo", "opening_hours": "Su-Th 11:00-22:00; Fr-Sa 11:00-23:00", "phone": "+1-646-822-2921", "website": "https://www.fumorestaurant.com/location/fumo-upper-west-side/"}}, {"type": "node", "id": 2308955225, "lat": 40.8102092, "lon": -73.9616532, "tags": {"access": "no", "barrier": "gate"}}, {"type": "node", "id": 2310498469, "lat": 40.802903, "lon": -73.9641533, "tags": {"addr:city": "New York", "addr:country": "US", "addr:housenumber": "1018", "addr:postcode": "10025", "addr:state": "NY", "addr:street": "Amsterdam Avenue", "amenity": "restaurant", "cuisine": "italian", "name": "Marlow Bistro", "phone": "+12126629020", "website": "https://www.marlowbistro.com/"}}, {"type": "node", "id": 2329798527, "lat": 40.7963145, "lon": -73.9754086}, {"type": "node", "id": 2329798535, "lat": 40.7964215, "lon": -73.9754998}, {"type": "node", "id": 2329798542, "lat": 40.7964889, "lon": -73.9755321}, {"type": "node", "id": 2329798582, "lat": 40.7966654, "lon": -73.9755782}, {"type": "node", "id": 2329798598, "lat": 40.7967347, "lon": -73.9755891}, {"type": "node", "id": 2329798608, "lat": 40.796884, "lon": -73.9755788}, {"type": "node", "id": 2329798616, "lat": 40.7970897, "lon": -73.9755208}, {"type": "node", "id": 2329798663, "lat": 40.7983548, "lon": -73.9747827}, {"type": "node", "id": 2329798667, "lat": 40.7984202, "lon": -73.9747434}, {"type": "node", "id": 2329798673, "lat": 40.7984963, "lon": -73.9747051}, {"type": "node", "id": 2329798681, "lat": 40.7987747, "lon": -73.9746457}, {"type": "node", "id": 2329798685, "lat": 40.7988308, "lon": -73.9746595}, {"type": "node", "id": 2329798687, "lat": 40.7989241, "lon": -73.9747029}, {"type": "node", "id": 2329798689, "lat": 40.7989687, "lon": -73.9747411}, {"type": "node", "id": 2329798691, "lat": 40.7990167, "lon": -73.9747883}, {"type": "node", "id": 2539225411, "lat": 40.8004797, "lon": -73.9634685}, {"type": "node", "id": 2539225445, "lat": 40.800956, "lon": -73.9631201}, {"type": "node", "id": 2539225449, "lat": 40.801031, "lon": -73.9640406}, {"type": "node", "id": 2539225453, "lat": 40.8010567, "lon": -73.9641012}, {"type": "node", "id": 2539225455, "lat": 40.8010953, "lon": -73.9641985}, {"type": "node", "id": 2539225457, "lat": 40.8012917, "lon": -73.9643698}, {"type": "node", "id": 2539225460, "lat": 40.801155, "lon": -73.9643393}, {"type": "node", "id": 2539225462, "lat": 40.8011972, "lon": -73.9644391}, {"type": "node", "id": 2539225464, "lat": 40.8013064, "lon": -73.9639426}, {"type": "node", "id": 2539225466, "lat": 40.8014389, "lon": -73.9642619}, {"type": "node", "id": 2652371191, "lat": 40.8033532, "lon": -73.9638344, "tags": {"addr:city": "New York", "addr:housenumber": "1024", "addr:postcode": "10025", "addr:street": "Amsterdam Avenue", "amenity": "restaurant", "cuisine": "italian;pizza", "name": "V&T Pizzeria", "phone": "+12126631708", "website": "https://vtrestaurantpizzeria.com"}}, {"type": "node", "id": 2706606330, "lat": 40.8034774, "lon": -73.9637428, "tags": {"addr:city": "New York", "addr:housenumber": "1028", "addr:postcode": "10025", "addr:street": "Amsterdam Avenue", "amenity": "restaurant", "brand": "Insomnia Cookies", "brand:wikidata": "Q16997024", "cuisine": "cookie", "name": "Insomnia Cookies", "shop": "pastry"}}, {"type": "node", "id": 2707987524, "lat": 40.8052024, "lon": -73.9656144, "tags": {"addr:city": "New York", "addr:housenumber": "2878", "addr:postcode": "10025", "addr:street": "Broadway", "amenity": "cafe", "check_date": "2025-05-08", "cuisine": "bubble_tea", "name": "Tea Magic", "outdoor_seating": "no"}}, {"type": "node", "id": 2761641649, "lat": 40.8015676, "lon": -73.9646575, "tags": {"addr:city": "New York", "addr:housenumber": "975", "addr:postcode": "10025", "addr:state": "NY", "addr:street": "Amsterdam Avenue", "amenity": "restaurant", "check_date": "2025-07-25", "check_date:opening_hours": "2025-07-25", "cuisine": "pizza", "name": "Super Nice Pizza", "opening_hours:signed": "no", "website": "https://supernicepizza.com"}}, {"type": "node", "id": 2761651148, "lat": 40.802193, "lon": -73.9641798, "tags": {"addr:housenumber": "995", "addr:postcode": "10025", "addr:street": "Amsterdam Avenue", "amenity": "bar", "contact:instagram": "lionsheadtavern", "name": "Lion's Head Tavern", "outdoor_seating": "yes", "website": "https://www.lionsheadnyc.com/"}}, {"type": "node", "id": 2761671634, "lat": 40.8031673, "lon": -73.9670896, "tags": {"addr:city": "New York", "addr:housenumber": "2810", "addr:postcode": "10025", "addr:state": "NY", "addr:street": "Broadway", "amenity": "cafe", "brand": "Gong Cha", "brand:wikidata": "Q5581670", "brand:zh": "\u8ca2\u8336", "cuisine": "bubble_tea", "int_name": "Gong Cha", "name": "Gong Cha", "name:zh": "\u8ca2\u8336", "outdoor_seating": "no", "phone": "+1-646-850-6566", "takeaway": "yes"}}, {"type": "node", "id": 2761671640, "lat": 40.802258, "lon": -73.9646355, "tags": {"addr:housenumber": "982", "addr:postcode": "10025", "addr:street": "Amsterdam Avenue", "amenity": "restaurant", "name": "Amity Hall Uptown", "opening_hours": "Mo 12:00-23:30; Tu-Fr 12:00-24:00; Sa 10:00-24:00; Su 10:00-23:30", "phone": "+1 646 930 2501", "website": "https://amityhalluptown.com/"}}, {"type": "node", "id": 2761671735, "lat": 40.8022794, "lon": -73.9658128}, {"type": "node", "id": 2761671763, "lat": 40.8023415, "lon": -73.9657674}, {"type": "node", "id": 2761671797, "lat": 40.8024356, "lon": -73.9656989}, {"type": "node", "id": 2761671816, "lat": 40.8024934, "lon": -73.9656567}, {"type": "node", "id": 2761671834, "lat": 40.8025446, "lon": -73.9664425}, {"type": "node", "id": 2761671843, "lat": 40.802551, "lon": -73.9656147}, {"type": "node", "id": 2761671865, "lat": 40.8026079, "lon": -73.9663963}, {"type": "node", "id": 2761671869, "lat": 40.8026132, "lon": -73.9655693}, {"type": "node", "id": 2761671871, "lat": 40.8026203, "lon": -73.9657361}, {"type": "node", "id": 2761671909, "lat": 40.8026997, "lon": -73.9662879}, {"type": "node", "id": 2761671910, "lat": 40.8027009, "lon": -73.9663285}, {"type": "node", "id": 2761671913, "lat": 40.802706, "lon": -73.9655017}, {"type": "node", "id": 2761671919, "lat": 40.8027131, "lon": -73.9663196}, {"type": "node", "id": 2761671923, "lat": 40.8027179, "lon": -73.9662366}, {"type": "node", "id": 2761671924, "lat": 40.8027326, "lon": -73.9662258}, {"type": "node", "id": 2761671931, "lat": 40.8027451, "lon": -73.9662555}, {"type": "node", "id": 2761671939, "lat": 40.8027634, "lon": -73.9654598}, {"type": "node", "id": 2761671940, "lat": 40.8027665, "lon": -73.9660834}, {"type": "node", "id": 2761671948, "lat": 40.8027811, "lon": -73.9660727}, {"type": "node", "id": 2761671950, "lat": 40.8027816, "lon": -73.9662289}, {"type": "node", "id": 2761671957, "lat": 40.8027947, "lon": -73.9662601}, {"type": "node", "id": 2761671958, "lat": 40.8027952, "lon": -73.9660771}, {"type": "node", "id": 2761671971, "lat": 40.8028188, "lon": -73.9655913}, {"type": "node", "id": 2761672008, "lat": 40.8029698, "lon": -73.9659498}, {"type": "node", "id": 2761672009, "lat": 40.8029735, "lon": -73.9661298}, {"type": "node", "id": 2761672023, "lat": 40.8030286, "lon": -73.9660895}, {"type": "node", "id": 2761677763, "lat": 40.8025473, "lon": -73.9644019, "tags": {"addr:housenumber": "992", "addr:postcode": "10025", "addr:street": "Amsterdam Avenue", "amenity": "pub", "lgbtq": "primary", "name": "Suite", "phone": "+1-212-222-4600", "website": "https://suitenyc.com/"}}, {"type": "node", "id": 2761677767, "lat": 40.8025909, "lon": -73.9643696, "tags": {"addr:city": "New York", "addr:housenumber": "994", "addr:postcode": "10025", "addr:state": "NY", "addr:street": "Amsterdam Avenue", "amenity": "restaurant", "cuisine": "indian", "diet:vegan": "yes", "name": "Roti Roll (Bombay Frankie)", "phone": "+12126661500", "website": "https://rotirollny.com/"}}, {"type": "node", "id": 2765266916, "lat": 40.8044412, "lon": -73.9661746, "tags": {"addr:city": "New York", "addr:housenumber": "2848", "addr:postcode": "10025", "addr:street": "Broadway", "amenity": "restaurant", "cuisine": "pizza", "name": "Koronet Pizza", "opening_hours": "Mo-Su 10:00-22:00", "phone": "+12122221566", "website": "https://www.koronetpizzany.com/"}}, {"type": "node", "id": 2765322415, "lat": 40.8038587, "lon": -73.9637021}, {"type": "node", "id": 2765322417, "lat": 40.8039151, "lon": -73.9633807}, {"type": "node", "id": 2765322419, "lat": 40.8039456, "lon": -73.9634535}, {"type": "node", "id": 2765322428, "lat": 40.8039815, "lon": -73.963539}, {"type": "node", "id": 2765322431, "lat": 40.8040089, "lon": -73.9636043}, {"type": "node", "id": 2765322438, "lat": 40.804028, "lon": -73.9636473}, {"type": "node", "id": 2765363739, "lat": 40.8055983, "lon": -73.9653069, "tags": {"addr:city": "New York", "addr:housenumber": "2888", "addr:postcode": "10025", "addr:state": "NY", "addr:street": "Broadway", "amenity": "restaurant", "cuisine": "japanese", "name": "Sapps", "opening_hours": "Mo-Th 11:30-20:00; Fr 11:30-23:00; Sa 12:30-23:00; Su 16:30-20:00", "phone": "+1-646-454-9092", "website": "https://www.sappsuws.com"}}, {"type": "node", "id": 2796440520, "lat": 40.8053382, "lon": -73.9664671}, {"type": "node", "id": 2796440545, "lat": 40.8055324, "lon": -73.9663267}, {"type": "node", "id": 2796440547, "lat": 40.8055522, "lon": -73.9663748}, {"type": "node", "id": 2796440551, "lat": 40.8055695, "lon": -73.967022}, {"type": "node", "id": 2796440553, "lat": 40.8055957, "lon": -73.9663433}, {"type": "node", "id": 2796440565, "lat": 40.8057454, "lon": -73.9668377}, {"type": "node", "id": 2796440566, "lat": 40.8057637, "lon": -73.9668816}, {"type": "node", "id": 2796440568, "lat": 40.805789, "lon": -73.9668062}, {"type": "node", "id": 2796448525, "lat": 40.8059481, "lon": -73.9657438, "tags": {"addr:city": "New York", "addr:housenumber": "2893", "addr:postcode": "10025", "addr:state": "NY", "addr:street": "Broadway", "amenity": "restaurant", "cuisine": "american", "name": "Community Food & Juice", "outdoor_seating": "yes", "phone": "+1 212 665 2800", "website": "http://communityrestaurant.com"}}, {"type": "node", "id": 2796448528, "lat": 40.8062968, "lon": -73.9654905, "tags": {"addr:city": "New York", "addr:housenumber": "2901", "addr:postcode": "10025", "addr:state": "NY", "addr:street": "Broadway", "amenity": "cafe", "brand": "Blue Bottle Coffee", "brand:en": "Blue Bottle Coffee", "brand:ja": "\u30d6\u30eb\u30fc\u30dc\u30c8\u30eb\u30b3\u30fc\u30d2\u30fc", "brand:wikidata": "Q4928917", "cuisine": "coffee_shop", "diet:vegan": "yes", "diet:vegetarian": "yes", "name": "Blue Bottle Coffee", "name:en": "Blue Bottle Coffee", "name:ja": "\u30d6\u30eb\u30fc\u30dc\u30c8\u30eb\u30b3\u30fc\u30d2\u30fc", "opening_hours": "Mo-Fr 06:00-19:00; Sa-Su 07:00-19:00", "outdoor_seating": "no", "takeaway": "yes", "website": "https://bluebottlecoffee.com/cafes/morningside-heights"}}, {"type": "node", "id": 2827478159, "lat": 40.803562, "lon": -73.9636828, "tags": {"addr:city": "New York", "addr:country": "US", "addr:housenumber": "1030", "addr:postcode": "10025", "addr:state": "NY", "addr:street": "Amsterdam Avenue", "amenity": "cafe", "check_date": "2024-03-26", "contact:instagram": "https://www.instagram.com/hungarianpastryshopnyc/", "cuisine": "dessert;hungarian;coffee_shop;coffee", "internet_access": "no", "name": "Hungarian Pastry Shop", "name:he": "\u05de\u05e7\u05d5\u05dd \u05d4\u05e4\u05d2\u05d9\u05e9\u05d4 \u05e2\u05dd \u05e9\u05d7\u05e8 \u05e9\u05d3\u05d4", "opening_hours": "Mo-Fr 07:30-20:30; Sa-Su 08:30-20:30", "outdoor_seating": "yes", "payment:cash": "yes", "payment:credit_cards": "yes", "payment:debit_cards": "yes", "phone": "+1 212-866-4230", "toilets:wheelchair": "no", "wheelchair": "limited"}}, {"type": "node", "id": 4630738689, "lat": 40.8037615, "lon": -73.9634913}, {"type": "node", "id": 4688127189, "lat": 40.801341, "lon": -73.965277, "tags": {"addr:housenumber": "960", "addr:postcode": "10025", "addr:street": "Amsterdam Avenue", "amenity": "restaurant", "cuisine": "thai", "name": "Thai Market", "opening_hours": "Su-Th 12:00-22:00; Fr-Sa 12:00-23:00", "phone": "+1-212-280-4575", "website": "https://thaimarketny.net/"}}, {"type": "node", "id": 5400495619, "lat": 40.8014191, "lon": -73.9652121, "tags": {"addr:housenumber": "964", "addr:street": "Amsterdam Avenue", "amenity": "restaurant", "cuisine": "japanese", "name": "Suma Sushi", "phone": "+1-212-280-5858"}}, {"type": "node", "id": 5852314821, "lat": 40.8055083, "lon": -73.9653737, "tags": {"addr:city": "New York", "addr:housenumber": "2882", "addr:postcode": "10025", "addr:state": "NY", "addr:street": "Broadway", "amenity": "cafe", "branch": "112th & Broadway", "brand": "Oren's Daily Roast", "drink:coffee": "yes", "drink:tea": "yes", "name": "Oren's Daily Roast", "opening_hours": "Mo-Fr 07:00-19:00; Sa,Su 07:00-18:00", "outdoor_seating": "no", "phone": "+1 212-749-8779", "website": "https://www.orensdailyroast.com/ContentData2.aspx?Contentid=42"}}, {"type": "node", "id": 5978745721, "lat": 40.8026396, "lon": -73.9671313, "tags": {"addr:city": "New York", "addr:housenumber": "254", "addr:postcode": "10025", "addr:state": "NY", "addr:street": "West 108th Street", "amenity": "restaurant", "check_date": "2024-09-20", "cuisine": "indian", "name": "Himalayan Curry House", "phone": "+1-212-749-7800"}}, {"type": "node", "id": 5984378186, "lat": 40.805184, "lon": -73.9664024, "tags": {"addr:city": "New York", "addr:floor": "2", "addr:housenumber": "2867", "addr:postcode": "10025", "addr:state": "NY", "addr:street": "Broadway", "amenity": "restaurant", "bar": "yes", "name": "The Heights Bar & Grill", "opening_hours": "Sa-Su 11:00-16:00; Mo-Fr 11:00-16:00", "phone": "+1-212-866-7035", "website": "https://theheightsnyc.com"}}, {"type": "node", "id": 6223570377, "lat": 40.816125, "lon": -73.96109}, {"type": "node", "id": 6223570379, "lat": 40.8160958, "lon": -73.9613056}, {"type": "node", "id": 6412865213, "lat": 40.8019345, "lon": -73.9682733}, {"type": "node", "id": 6412865233, "lat": 40.8018422, "lon": -73.968074}, {"type": "node", "id": 6412865246, "lat": 40.8021793, "lon": -73.9680204}, {"type": "node", "id": 6804416805, "lat": 40.8016449, "lon": -73.9682468}, {"type": "node", "id": 6814307793, "lat": 40.8043737, "lon": -73.9630141}, {"type": "node", "id": 6816455651, "lat": 40.8027402, "lon": -73.9642554, "tags": {"addr:city": "New York", "addr:housenumber": "998", "addr:postcode": "10025", "addr:state": "NY", "addr:street": "Amsterdam Avenue", "amenity": "bar", "name": "The Hamilton", "opening_hours": "16:00-02:00; Th 16:00-03:00; Fr-Sa 16:00-04:00", "phone": "+1-646-912-9421", "website": "https://www.thehamiltonuws.com"}}, {"type": "node", "id": 6856323619, "lat": 40.8092678, "lon": -73.9594466}, {"type": "node", "id": 6856323620, "lat": 40.8081202, "lon": -73.9602781}, {"type": "node", "id": 6856323621, "lat": 40.8073915, "lon": -73.9585812}, {"type": "node", "id": 6856323622, "lat": 40.8062749, "lon": -73.9594125}, {"type": "node", "id": 6856323623, "lat": 40.8069716, "lon": -73.9611184}, {"type": "node", "id": 6856323625, "lat": 40.8054319, "lon": -73.9655152}, {"type": "node", "id": 6856323626, "lat": 40.8103221, "lon": -73.9619205}, {"type": "node", "id": 6883897084, "lat": 40.8006719, "lon": -73.9716707, "tags": {"barrier": "kerb", "kerb": "lowered"}}, {"type": "node", "id": 6900903302, "lat": 40.8021526, "lon": -73.9679916}, {"type": "node", "id": 6900903309, "lat": 40.8022076, "lon": -73.9680528}, {"type": "node", "id": 6900903311, "lat": 40.801944, "lon": -73.9680193}, {"type": "node", "id": 6900903313, "lat": 40.8021449, "lon": -73.9679932}, {"type": "node", "id": 6900903320, "lat": 40.8022082, "lon": -73.9680599}, {"type": "node", "id": 6900903321, "lat": 40.8019443, "lon": -73.9680499}, {"type": "node", "id": 6900903322, "lat": 40.8019441, "lon": -73.9680612}, {"type": "node", "id": 6900903323, "lat": 40.8020962, "lon": -73.9680026}, {"type": "node", "id": 6900903330, "lat": 40.8022078, "lon": -73.9680647}, {"type": "node", "id": 6900903331, "lat": 40.8019439, "lon": -73.9680705}, {"type": "node", "id": 6900903333, "lat": 40.8020209, "lon": -73.9680137}, {"type": "node", "id": 6900903342, "lat": 40.8022027, "lon": -73.9680457}, {"type": "node", "id": 6900903350, "lat": 40.802206, "lon": -73.9680701}, {"type": "node", "id": 6900903362, "lat": 40.8019327, "lon": -73.9680657}, {"type": "node", "id": 6900903371, "lat": 40.8019205, "lon": -73.9680657}, {"type": "node", "id": 6996564320, "lat": 40.7997746, "lon": -73.9728448}, {"type": "node", "id": 6996564321, "lat": 40.7968275, "lon": -73.97425}, {"type": "node", "id": 6996564323, "lat": 40.8047133, "lon": -73.9687599}, {"type": "node", "id": 6996564325, "lat": 40.8094211, "lon": -73.9655494}, {"type": "node", "id": 6996564332, "lat": 40.7986637, "lon": -73.9738007}, {"type": "node", "id": 6996564333, "lat": 40.7963372, "lon": -73.9747091}, {"type": "node", "id": 6996564335, "lat": 40.8008888, "lon": -73.9714836}, {"type": "node", "id": 6996564336, "lat": 40.7978691, "lon": -73.974214}, {"type": "node", "id": 6996564337, "lat": 40.8083024, "lon": -73.9666089}, {"type": "node", "id": 6996564346, "lat": 40.7979128, "lon": -73.9742028}, {"type": "node", "id": 6996564349, "lat": 40.8005411, "lon": -73.9718326}, {"type": "node", "id": 6996564350, "lat": 40.7970755, "lon": -73.9741979}, {"type": "node", "id": 6996564360, "lat": 40.7995321, "lon": -73.9730801}, {"type": "node", "id": 6996564361, "lat": 40.796785, "lon": -73.974274}, {"type": "node", "id": 6996564363, "lat": 40.8044908, "lon": -73.9688986}, {"type": "node", "id": 6996564365, "lat": 40.8091369, "lon": -73.9657549}, {"type": "node", "id": 6996564372, "lat": 40.7984937, "lon": -73.9739205}, {"type": "node", "id": 6996564373, "lat": 40.7962456, "lon": -73.9748464}, {"type": "node", "id": 6996564375, "lat": 40.8008304, "lon": -73.971527}, {"type": "node", "id": 6996564376, "lat": 40.797813, "lon": -73.9742277}, {"type": "node", "id": 6996564377, "lat": 40.8081588, "lon": -73.9667425}, {"type": "node", "id": 6996574386, "lat": 40.8002927, "lon": -73.97221}, {"type": "node", "id": 6996574389, "lat": 40.800467, "lon": -73.97194}, {"type": "node", "id": 6996574390, "lat": 40.7970309, "lon": -73.974199}, {"type": "node", "id": 6996574403, "lat": 40.7993009, "lon": -73.9732857}, {"type": "node", "id": 6996574404, "lat": 40.7966801, "lon": -73.9743565}, {"type": "node", "id": 6996574406, "lat": 40.8037723, "lon": -73.9693779}, {"type": "node", "id": 6996574408, "lat": 40.8089754, "lon": -73.9658713, "tags": {"barrier": "kerb", "kerb": "lowered"}}, {"type": "node", "id": 6996574416, "lat": 40.79835, "lon": -73.9740176}, {"type": "node", "id": 6996574417, "lat": 40.7961768, "lon": -73.9749599}, {"type": "node", "id": 6996574419, "lat": 40.800761, "lon": -73.971581}, {"type": "node", "id": 6996574420, "lat": 40.7977649, "lon": -73.9742374}, {"type": "node", "id": 6996574422, "lat": 40.8075375, "lon": -73.9671934}, {"type": "node", "id": 6996574430, "lat": 40.8002287, "lon": -73.9723026}, {"type": "node", "id": 6996574432, "lat": 40.8003538, "lon": -73.9721109}, {"type": "node", "id": 6996574433, "lat": 40.7969617, "lon": -73.9742059}, {"type": "node", "id": 6996574435, "lat": 40.808562, "lon": -73.9663106}, {"type": "node", "id": 6996574445, "lat": 40.7990803, "lon": -73.9734644}, {"type": "node", "id": 6996574446, "lat": 40.7965765, "lon": -73.9744485}, {"type": "node", "id": 6996574448, "lat": 40.8025324, "lon": -73.9702802}, {"type": "node", "id": 6996574450, "lat": 40.8088594, "lon": -73.9659707}, {"type": "node", "id": 6996574457, "lat": 40.7981707, "lon": -73.974113}, {"type": "node", "id": 6996574458, "lat": 40.7972973, "lon": -73.9742188}, {"type": "node", "id": 6996574460, "lat": 40.8007061, "lon": -73.9716314}, {"type": "node", "id": 6996574461, "lat": 40.797672, "lon": -73.9742475}, {"type": "node", "id": 6996574463, "lat": 40.8070173, "lon": -73.96753}, {"type": "node", "id": 6996574472, "lat": 40.800023, "lon": -73.972567}, {"type": "node", "id": 6996574474, "lat": 40.8001429, "lon": -73.9724197}, {"type": "node", "id": 6996574475, "lat": 40.7969009, "lon": -73.974221}, {"type": "node", "id": 6996574477, "lat": 40.8064166, "lon": -73.967865}, {"type": "node", "id": 6996574486, "lat": 40.7988577, "lon": -73.9736562}, {"type": "node", "id": 6996574487, "lat": 40.7964887, "lon": -73.974534}, {"type": "node", "id": 6996574489, "lat": 40.8011697, "lon": -73.9712803, "tags": {"barrier": "kerb"}}, {"type": "node", "id": 6996574490, "lat": 40.8084268, "lon": -73.966472}, {"type": "node", "id": 6996574497, "lat": 40.7980528, "lon": -73.9741589}, {"type": "node", "id": 6996574500, "lat": 40.8006433, "lon": -73.9717035}, {"type": "node", "id": 6996574501, "lat": 40.7975428, "lon": -73.9742488}, {"type": "node", "id": 6996574503, "lat": 40.8060277, "lon": -73.9680742}, {"type": "node", "id": 6996574515, "lat": 40.7999638, "lon": -73.9726305}, {"type": "node", "id": 6996574516, "lat": 40.7968664, "lon": -73.9742339}, {"type": "node", "id": 6996574518, "lat": 40.8051414, "lon": -73.9685317}, {"type": "node", "id": 6996574520, "lat": 40.8108606, "lon": -73.964492, "tags": {"barrier": "kerb", "kerb": "lowered", "tactile_paving": "yes"}}, {"type": "node", "id": 6996574528, "lat": 40.7987766, "lon": -73.9737259}, {"type": "node", "id": 6996574529, "lat": 40.7964084, "lon": -73.9746198}, {"type": "node", "id": 6996574531, "lat": 40.8010361, "lon": -73.971377, "tags": {"barrier": "kerb"}}, {"type": "node", "id": 6996574532, "lat": 40.798273, "lon": -73.9740614}, {"type": "node", "id": 6996574533, "lat": 40.8083496, "lon": -73.9665613}, {"type": "node", "id": 6996574541, "lat": 40.7979827, "lon": -73.974181}, {"type": "node", "id": 6996574544, "lat": 40.8005931, "lon": -73.9717598}, {"type": "node", "id": 6996574545, "lat": 40.7971243, "lon": -73.9742014}, {"type": "node", "id": 6996574547, "lat": 40.805747, "lon": -73.9682183}, {"type": "node", "id": 7003610135, "lat": 40.8055157, "lon": -73.9642686, "tags": {"addr:city": "New York", "addr:housenumber": "544", "addr:postcode": "10025", "addr:state": "NY", "addr:street": "West 113th Street", "amenity": "restaurant", "cuisine": "greek", "name": "Symposium", "opening_hours": "Mo-Su 11:30-22:00", "phone": "+1-212-865-1011", "website": "https://www.symposiumnyc.com"}}, {"type": "node", "id": 7004392888, "lat": 40.8060976, "lon": -73.9656359, "tags": {"addr:housenumber": "2897", "addr:street": "Broadway", "alt_name": "Wu and Nussbaum", "amenity": "restaurant", "name": "Wu + Nussbaum", "old_name": "Nussbaum and Wu", "phone": "+1-212-280-5344", "website": "https://www.wunussbaum.com"}}, {"type": "node", "id": 7094126608, "lat": 40.8028842, "lon": -73.9639879}, {"type": "node", "id": 7094126610, "lat": 40.8029138, "lon": -73.9640388}, {"type": "node", "id": 7094126611, "lat": 40.8027308, "lon": -73.9641882}, {"type": "node", "id": 7616688923, "lat": 40.815956, "lon": -73.9606076}, {"type": "node", "id": 7732551647, "lat": 40.8113466, "lon": -73.9641392}, {"type": "node", "id": 7732551648, "lat": 40.8114776, "lon": -73.9640666}, {"type": "node", "id": 7732551649, "lat": 40.8114307, "lon": -73.9639582}, {"type": "node", "id": 7732551650, "lat": 40.8114228, "lon": -73.9639553}, {"type": "node", "id": 7732551651, "lat": 40.8114205, "lon": -73.9639477}, {"type": "node", "id": 7732551652, "lat": 40.8114247, "lon": -73.9639376}, {"type": "node", "id": 7732551653, "lat": 40.812254, "lon": -73.9633271}, {"type": "node", "id": 7732551654, "lat": 40.8122743, "lon": -73.9633551}, {"type": "node", "id": 7732551655, "lat": 40.81228, "lon": -73.963462}, {"type": "node", "id": 7732551656, "lat": 40.8123518, "lon": -73.9633566}, {"type": "node", "id": 7732551657, "lat": 40.8124221, "lon": -73.9632798}, {"type": "node", "id": 7732551658, "lat": 40.8124519, "lon": -73.9632514}, {"type": "node", "id": 7732551659, "lat": 40.8125564, "lon": -73.963164}, {"type": "node", "id": 7732551661, "lat": 40.8134542, "lon": -73.9625616}, {"type": "node", "id": 7732551662, "lat": 40.8136689, "lon": -73.9624172}, {"type": "node", "id": 7732551663, "lat": 40.8139748, "lon": -73.9619872}, {"type": "node", "id": 7732551664, "lat": 40.8139562, "lon": -73.9620134}, {"type": "node", "id": 7732551665, "lat": 40.8139573, "lon": -73.9620565}, {"type": "node", "id": 7732551666, "lat": 40.8140148, "lon": -73.9622978}, {"type": "node", "id": 7732571797, "lat": 40.8087133, "lon": -73.9661271}, {"type": "node", "id": 7732571798, "lat": 40.8087914, "lon": -73.9660377, "tags": {"barrier": "kerb", "kerb": "lowered"}}, {"type": "node", "id": 7732571799, "lat": 40.8098964, "lon": -73.9652099}, {"type": "node", "id": 7732571800, "lat": 40.8101005, "lon": -73.9650591}, {"type": "node", "id": 7732571802, "lat": 40.8092325, "lon": -73.9656841}, {"type": "node", "id": 7732571820, "lat": 40.8160206, "lon": -73.9612831}, {"type": "node", "id": 7732571825, "lat": 40.8160562, "lon": -73.9612913}, {"type": "node", "id": 7732571886, "lat": 40.8175566, "lon": -73.9611354}, {"type": "node", "id": 7732571887, "lat": 40.8175624, "lon": -73.961102}, {"type": "node", "id": 7732571918, "lat": 40.8175715, "lon": -73.9610682}, {"type": "node", "id": 7732571919, "lat": 40.8175861, "lon": -73.9610387}, {"type": "node", "id": 7732571920, "lat": 40.8175876, "lon": -73.9610286}, {"type": "node", "id": 7732571921, "lat": 40.8175822, "lon": -73.9610052}, {"type": "node", "id": 7732571922, "lat": 40.8175638, "lon": -73.9609594}, {"type": "node", "id": 7732571923, "lat": 40.8175384, "lon": -73.9609096}, {"type": "node", "id": 7732571924, "lat": 40.8175176, "lon": -73.9608751}, {"type": "node", "id": 7732571925, "lat": 40.8175022, "lon": -73.9608639}, {"type": "node", "id": 7732571926, "lat": 40.8168223, "lon": -73.9613609}, {"type": "node", "id": 7732571927, "lat": 40.8167321, "lon": -73.9614356}, {"type": "node", "id": 7732571928, "lat": 40.8166738, "lon": -73.9614963}, {"type": "node", "id": 7732571929, "lat": 40.8166208, "lon": -73.9615547}, {"type": "node", "id": 7732571930, "lat": 40.8165607, "lon": -73.9616364}, {"type": "node", "id": 7732571931, "lat": 40.8165169, "lon": -73.9617125}, {"type": "node", "id": 7732571932, "lat": 40.8165538, "lon": -73.9618508}, {"type": "node", "id": 7732571933, "lat": 40.8164538, "lon": -73.9618955}, {"type": "node", "id": 7732571934, "lat": 40.8136098, "lon": -73.9624528}, {"type": "node", "id": 7732571935, "lat": 40.813744, "lon": -73.9623918}, {"type": "node", "id": 7732571937, "lat": 40.8157881, "lon": -73.963005}, {"type": "node", "id": 7732571939, "lat": 40.8140512, "lon": -73.9619276}, {"type": "node", "id": 7732571940, "lat": 40.8141994, "lon": -73.9618199}, {"type": "node", "id": 7732571944, "lat": 40.8122714, "lon": -73.9633393}, {"type": "node", "id": 7732571945, "lat": 40.8122608, "lon": -73.9633307}, {"type": "node", "id": 7732571953, "lat": 40.8122374, "lon": -73.9634297}, {"type": "node", "id": 7732571954, "lat": 40.8122567, "lon": -73.9633898}, {"type": "node", "id": 7732571955, "lat": 40.8134159, "lon": -73.9625887}, {"type": "node", "id": 7732571956, "lat": 40.8124749, "lon": -73.9632302}, {"type": "node", "id": 7732571957, "lat": 40.8123049, "lon": -73.9634209}, {"type": "node", "id": 7732571958, "lat": 40.8123242, "lon": -73.9633989}, {"type": "node", "id": 7732571959, "lat": 40.8123831, "lon": -73.963319}, {"type": "node", "id": 7732571960, "lat": 40.8162387, "lon": -73.9605465}, {"type": "node", "id": 7732571961, "lat": 40.8164308, "lon": -73.9605663}, {"type": "node", "id": 7732571962, "lat": 40.8167834, "lon": -73.9607353}, {"type": "node", "id": 7732571963, "lat": 40.8168614, "lon": -73.9607863}, {"type": "node", "id": 7732571964, "lat": 40.816691, "lon": -73.9611105}, {"type": "node", "id": 7732571965, "lat": 40.8166742, "lon": -73.9610815}, {"type": "node", "id": 7732571966, "lat": 40.81655, "lon": -73.9611637}, {"type": "node", "id": 7732571967, "lat": 40.8163067, "lon": -73.9611325}, {"type": "node", "id": 7732571968, "lat": 40.8161913, "lon": -73.9611029}, {"type": "node", "id": 7732571969, "lat": 40.8160353, "lon": -73.9610721}, {"type": "node", "id": 7732571979, "lat": 40.8138354, "lon": -73.9623618}, {"type": "node", "id": 7732571993, "lat": 40.8144175, "lon": -73.9616612}, {"type": "node", "id": 7732571994, "lat": 40.8147899, "lon": -73.9613928}, {"type": "node", "id": 7732572000, "lat": 40.8166885, "lon": -73.960674}, {"type": "node", "id": 7732572001, "lat": 40.8165788, "lon": -73.9606111}, {"type": "node", "id": 7732572002, "lat": 40.8165136, "lon": -73.9605841}, {"type": "node", "id": 7732572003, "lat": 40.8163415, "lon": -73.9605532}, {"type": "node", "id": 7732572004, "lat": 40.8154961, "lon": -73.9608684}, {"type": "node", "id": 7732572005, "lat": 40.815791, "lon": -73.9606815}, {"type": "node", "id": 7732572006, "lat": 40.815682, "lon": -73.9607411}, {"type": "node", "id": 7732572007, "lat": 40.8155817, "lon": -73.9608131}, {"type": "node", "id": 7732572009, "lat": 40.8160582, "lon": -73.9605791}, {"type": "node", "id": 7732572010, "lat": 40.8162708, "lon": -73.9605453}, {"type": "node", "id": 7732572011, "lat": 40.8161764, "lon": -73.9605544}, {"type": "node", "id": 7732572012, "lat": 40.8161369, "lon": -73.9605586}, {"type": "node", "id": 7732572013, "lat": 40.816947, "lon": -73.9608261}, {"type": "node", "id": 7732572014, "lat": 40.8170381, "lon": -73.9608519}, {"type": "node", "id": 7732572015, "lat": 40.8164395, "lon": -73.9611699}, {"type": "node", "id": 7732572016, "lat": 40.8163774, "lon": -73.9611565}, {"type": "node", "id": 7732572017, "lat": 40.8165171, "lon": -73.9611709}, {"type": "node", "id": 7732572018, "lat": 40.8164682, "lon": -73.9611722}, {"type": "node", "id": 7732572019, "lat": 40.8170425, "lon": -73.9608685}, {"type": "node", "id": 7732572020, "lat": 40.8168648, "lon": -73.9609892}, {"type": "node", "id": 7732572021, "lat": 40.8162566, "lon": -73.9617622}, {"type": "node", "id": 7732654806, "lat": 40.8146712, "lon": -73.9637849}, {"type": "node", "id": 7732654807, "lat": 40.814209, "lon": -73.9641013}, {"type": "node", "id": 7732654808, "lat": 40.8135831, "lon": -73.9645761}, {"type": "node", "id": 7732654809, "lat": 40.8139197, "lon": -73.9643025}, {"type": "node", "id": 7732654813, "lat": 40.8172536, "lon": -73.9616025}, {"type": "node", "id": 7732654814, "lat": 40.8173853, "lon": -73.9614317}, {"type": "node", "id": 7732654821, "lat": 40.8170826, "lon": -73.9617919}, {"type": "node", "id": 7732654822, "lat": 40.8169307, "lon": -73.9619618}, {"type": "node", "id": 7732654823, "lat": 40.8164346, "lon": -73.9624754}, {"type": "node", "id": 7732654824, "lat": 40.8168006, "lon": -73.9620963}, {"type": "node", "id": 7732654825, "lat": 40.8159317, "lon": -73.962901}, {"type": "node", "id": 7732654826, "lat": 40.8162658, "lon": -73.9626362}, {"type": "node", "id": 7732654830, "lat": 40.8165796, "lon": -73.9623388}, {"type": "node", "id": 7732654831, "lat": 40.816105, "lon": -73.9627705}, {"type": "node", "id": 7732654832, "lat": 40.8163285, "lon": -73.9625791}, {"type": "node", "id": 7732654833, "lat": 40.8173388, "lon": -73.961501}, {"type": "node", "id": 7732654834, "lat": 40.8175116, "lon": -73.9612334}, {"type": "node", "id": 7732654835, "lat": 40.8174582, "lon": -73.961322}, {"type": "node", "id": 7785782253, "lat": 40.8113214, "lon": -73.9641561}, {"type": "node", "id": 7785782265, "lat": 40.8058977, "lon": -73.968141}, {"type": "node", "id": 7785881389, "lat": 40.8083302, "lon": -73.966579}, {"type": "node", "id": 7785881399, "lat": 40.8082407, "lon": -73.9666697}, {"type": "node", "id": 7785881400, "lat": 40.802468, "lon": -73.9703275}, {"type": "node", "id": 7785881409, "lat": 40.806355, "lon": -73.9678981}, {"type": "node", "id": 7908594136, "lat": 40.8102204, "lon": -73.9674444}, {"type": "node", "id": 7908594142, "lat": 40.8104025, "lon": -73.9673276}, {"type": "node", "id": 7908637443, "lat": 40.8084961, "lon": -73.9685451}, {"type": "node", "id": 7908637444, "lat": 40.807448, "lon": -73.9692847}, {"type": "node", "id": 7908637446, "lat": 40.8088247, "lon": -73.9683259}, {"type": "node", "id": 7908637447, "lat": 40.807603, "lon": -73.9691739}, {"type": "node", "id": 7908637449, "lat": 40.808985, "lon": -73.9682222}, {"type": "node", "id": 7908637450, "lat": 40.807764, "lon": -73.9690573}, {"type": "node", "id": 7908637459, "lat": 40.8114331, "lon": -73.9664764}, {"type": "node", "id": 7908637462, "lat": 40.80801, "lon": -73.96888}, {"type": "node", "id": 7908637465, "lat": 40.8081712, "lon": -73.9687668}, {"type": "node", "id": 7908637468, "lat": 40.8083335, "lon": -73.9686553}, {"type": "node", "id": 7908637469, "lat": 40.8071195, "lon": -73.969531}, {"type": "node", "id": 7908669907, "lat": 40.8055248, "lon": -73.9707711}, {"type": "node", "id": 7908669908, "lat": 40.8033025, "lon": -73.9724512}, {"type": "node", "id": 7908669909, "lat": 40.8041087, "lon": -73.9718653}, {"type": "node", "id": 7908669911, "lat": 40.8057018, "lon": -73.9706318}, {"type": "node", "id": 7908669912, "lat": 40.8031247, "lon": -73.9725778}, {"type": "node", "id": 7908669913, "lat": 40.8037655, "lon": -73.9721185}, {"type": "node", "id": 7908669915, "lat": 40.8058525, "lon": -73.9705157}, {"type": "node", "id": 7908669916, "lat": 40.8029658, "lon": -73.9726931}, {"type": "node", "id": 7908669917, "lat": 40.8042693, "lon": -73.9717441}, {"type": "node", "id": 7908669919, "lat": 40.8059965, "lon": -73.9704032}, {"type": "node", "id": 7908669920, "lat": 40.8028086, "lon": -73.9728057}, {"type": "node", "id": 7908669921, "lat": 40.8044437, "lon": -73.9716114}, {"type": "node", "id": 7908669922, "lat": 40.8061625, "lon": -73.9702701}, {"type": "node", "id": 7908669923, "lat": 40.8026473, "lon": -73.9729207}, {"type": "node", "id": 7908669924, "lat": 40.8047495, "lon": -73.9713776}, {"type": "node", "id": 7908669925, "lat": 40.8064855, "lon": -73.9700184}, {"type": "node", "id": 7908669926, "lat": 40.8025017, "lon": -73.9730248}, {"type": "node", "id": 7908669927, "lat": 40.804906, "lon": -73.9712585}, {"type": "node", "id": 7908669928, "lat": 40.8066458, "lon": -73.9698948}, {"type": "node", "id": 7908669929, "lat": 40.8021832, "lon": -73.9732459}, {"type": "node", "id": 7908669930, "lat": 40.8050658, "lon": -73.9711329}, {"type": "node", "id": 7908669931, "lat": 40.8068017, "lon": -73.969772}, {"type": "node", "id": 7908669932, "lat": 40.8020083, "lon": -73.9733681}, {"type": "node", "id": 7908669933, "lat": 40.8052144, "lon": -73.9710166}, {"type": "node", "id": 7908669934, "lat": 40.8069577, "lon": -73.9696529}, {"type": "node", "id": 7908669935, "lat": 40.8018572, "lon": -73.9734719}, {"type": "node", "id": 7908669936, "lat": 40.8053784, "lon": -73.9708867}, {"type": "node", "id": 7908669937, "lat": 40.8034662, "lon": -73.9723351}, {"type": "node", "id": 7908669938, "lat": 40.803944, "lon": -73.9719866}, {"type": "node", "id": 8375632341, "lat": 40.8097927, "lon": -73.960694, "tags": {"access": "no", "barrier": "gate", "door": "gate"}}, {"type": "node", "id": 8831369668, "lat": 40.8021641, "lon": -73.9661045, "tags": {"addr:housenumber": "220", "addr:postcode": "10025", "addr:street": "West 108th Street", "amenity": "school", "check_date": "2025-10-13", "contact:instagram": "ascensionschool5", "name": "West Prep Academy", "note": "Former location of the Ascension Schhol, closed spring 2023.", "website": "https://www.ms421.org/"}}, {"type": "node", "id": 9409060624, "lat": 40.8052243, "lon": -73.966289, "tags": {"addr:city": "New York", "addr:housenumber": "2869", "addr:postcode": "10025", "addr:state": "NY", "addr:street": "Broadway", "amenity": "cafe", "check_date": "2024-07-29", "cuisine": "coffee_shop", "name": "Qahwah House", "outdoor_seating": "no", "phone": "+1-646-344-1274", "website": "https://www.qahwahhouse.com"}}, {"type": "node", "id": 9654489332, "lat": 40.8007342, "lon": -73.9640621}, {"type": "node", "id": 9654489333, "lat": 40.8012107, "lon": -73.9637181}, {"type": "node", "id": 9654489334, "lat": 40.8010132, "lon": -73.9632554}, {"type": "node", "id": 9654489335, "lat": 40.8005397, "lon": -73.9636084}, {"type": "node", "id": 9787335517, "lat": 40.8028192, "lon": -73.964203, "tags": {"addr:city": "New York", "addr:housenumber": "1012", "addr:postcode": "10025", "addr:state": "NY", "addr:street": "Amsterdam Avenue", "amenity": "restaurant", "name": "Elis Wine Bar", "opening_hours": "Tu-Su 16:00-23:00", "phone": "+1-212-222-2055", "website": "https://www.eliswinebar.com"}}, {"type": "node", "id": 10054994715, "lat": 40.8128401, "lon": -73.9629514}, {"type": "node", "id": 10055027117, "lat": 40.812937, "lon": -73.9629304}, {"type": "node", "id": 10168667114, "lat": 40.8055126, "lon": -73.9621737}, {"type": "node", "id": 10168673720, "lat": 40.8065816, "lon": -73.9646949}, {"type": "node", "id": 11296195566, "lat": 40.804804, "lon": -73.9659893}, {"type": "node", "id": 11375876806, "lat": 40.8027172, "lon": -73.968113, "tags": {"addr:city": "New York", "addr:country": "US", "addr:housenumber": "2787", "addr:postcode": "10025", "addr:state": "NY", "addr:street": "Broadway", "amenity": "restaurant", "branch": "Upper West Side", "cuisine": "ramen", "name": "Kyuramen", "opening_hours": "Mo-Fr 11:00-22:00; Sa-Su 11:00-22:00", "phone": "+1-917-265-8722", "website": "https://www.kyuramen.com/"}}, {"type": "node", "id": 11377004190, "lat": 40.801089, "lon": -73.970955}, {"type": "node", "id": 11377030655, "lat": 40.8022433, "lon": -73.9701027}, {"type": "node", "id": 11377030656, "lat": 40.8023232, "lon": -73.970045}, {"type": "node", "id": 11380668226, "lat": 40.8022603, "lon": -73.9700905, "tags": {"barrier": "kerb", "kerb": "raised"}}, {"type": "node", "id": 11386507858, "lat": 40.8036171, "lon": -73.9636412, "tags": {"addr:city": "New York", "addr:housenumber": "1034", "addr:postcode": "10025", "addr:state": "NY", "addr:street": "Amsterdam Avenue", "amenity": "restaurant", "cuisine": "italian", "name": "Tartina", "opening_hours": "Mo-Fr 15:00-20:00; Sa 12:00-15:00, 17:00-23:00; Su 12:00-15:00, 17:00-20:00", "phone": "+1-646-590-0577", "website": "https://www.tartina-restaurant.com"}}, {"type": "node", "id": 11399299251, "lat": 40.8026503, "lon": -73.9681586, "tags": {"addr:city": "New York", "addr:housenumber": "2785", "addr:postcode": "10025", "addr:state": "NY", "addr:street": "Broadway", "amenity": "restaurant", "cuisine": "coffee_shop", "name": "Afternoon", "opening_hours": "Mo-Sa 07:30-20:00"}}, {"type": "node", "id": 11411443529, "lat": 40.8031476, "lon": -73.9677965, "tags": {"addr:city": "New York", "addr:housenumber": "2801", "addr:postcode": "10025", "addr:state": "NY", "addr:street": "Broadway", "amenity": "cafe", "cuisine": "coffee_shop;dessert", "name": "Omonia Cafe", "outdoor_seating": "yes", "phone": "+1-212-246-4050"}}, {"type": "node", "id": 11413866657, "lat": 40.8013886, "lon": -73.9647833, "tags": {"addr:city": "New York", "addr:housenumber": "969", "addr:postcode": "10025", "addr:state": "NY", "addr:street": "Amsterdam Avenue", "amenity": "restaurant", "cuisine": "chinese", "name": "Happy Hot Hunan Restaurant", "opening_hours": "Mo-Su 11:00-21:30", "phone": "+1-212-531-1768", "website": "https://www.happyhothunanny.com"}}, {"type": "node", "id": 11413866658, "lat": 40.8014469, "lon": -73.964743, "tags": {"addr:city": "New York", "addr:housenumber": "971", "addr:postcode": "10025", "addr:state": "NY", "addr:street": "Amsterdam Avenue", "amenity": "cafe", "cuisine": "bubble_tea", "name": "M\u00f6ge Tee", "opening_hours": "Mo-Su 12:00-22:00", "outdoor_seating": "no", "website": "https://www.mogeteeusa.com/store-locations-1/ny"}}, {"type": "node", "id": 11413869531, "lat": 40.8015058, "lon": -73.9644654, "tags": {"addr:city": "New York", "addr:housenumber": "196", "addr:postcode": "10025", "addr:state": "NY", "addr:street": "West 108th Street", "amenity": "cafe", "cuisine": "coffee_shop;dessert", "name": "Super Nice Coffee and Bakery", "opening_hours": "Mo-Fr 07:00-15:00; Sa-Su 09:00-15:00", "outdoor_seating": "no", "phone": "+1-332-257-8886", "website": "https://www.supernice.nyc"}}, {"type": "node", "id": 11415714612, "lat": 40.8013901, "lon": -73.965234, "tags": {"addr:city": "New York", "addr:housenumber": "964", "addr:postcode": "10025", "addr:state": "NY", "addr:street": "Amsterdam Avenue", "amenity": "restaurant", "cuisine": "mexican", "name": "Pancho's Antojitos Mexicano", "opening_hours": "Mo-Su 08:00-20:00", "phone": "+1-212-316-5400", "website": "https://panchos-mexicano.edan.io"}}, {"type": "node", "id": 11418737772, "lat": 40.8026229, "lon": -73.9643443, "tags": {"addr:city": "New York", "addr:housenumber": "996", "addr:postcode": "10025", "addr:state": "NY", "addr:street": "Amsterdam Avenue", "amenity": "cafe", "check_date": "2025-10-11", "name": "Durar Caf\u00e9", "outdoor_seating": "no"}}, {"type": "node", "id": 11419259550, "lat": 40.8020701, "lon": -73.9642698, "tags": {"addr:city": "New York", "addr:housenumber": "991", "addr:postcode": "10025", "addr:state": "NY", "addr:street": "Amsterdam Avenue", "check_date": "2024-08-30", "description": "Offices for neighborhood business improvement district.", "name": "Columbus Amsterdam BID", "office": "ngo", "phone": "+1-212-666-9774", "website": "https://columbusamsterdambid.org/"}}, {"type": "node", "id": 11447982727, "lat": 40.8032937, "lon": -73.9667641, "tags": {"addr:city": "New York", "addr:housenumber": "258", "addr:postcode": "10025", "addr:state": "NY", "addr:street": "West 109th Street", "amenity": "restaurant", "cuisine": "chinese", "name": "Atlas Kitchen", "opening_hours": "Mo-Su 11:30-22:00", "phone": "+1-646-928-0522", "website": "https://www.atlaskitchennyc.com"}}, {"type": "node", "id": 11599542729, "lat": 40.803001, "lon": -73.966024, "tags": {"addr:city": "New York", "addr:housenumber": "234", "addr:postcode": "10025", "addr:state": "NY", "addr:street": "West 109th Street", "entrance": "main"}}, {"type": "node", "id": 11629306855, "lat": 40.80566, "lon": -73.9664972, "tags": {"addr:city": "New York", "addr:housenumber": "610", "addr:postcode": "10025", "addr:state": "NY", "addr:street": "West 112th Street", "entrance": "main"}}, {"type": "node", "id": 11633796008, "lat": 40.8037681, "lon": -73.9662334, "tags": {"addr:city": "New York", "addr:housenumber": "556", "addr:postcode": "10025", "addr:state": "NY", "addr:street": "West 110th Street", "amenity": "school", "grades": "K-8", "name": "The School at Columbia", "operator": "Columbia University", "phone": "+1-212-851-4215", "website": "https://theschool.columbia.edu"}}, {"type": "node", "id": 11802824254, "lat": 40.8038084, "lon": -73.9636025, "tags": {"barrier": "gate", "bicycle": "no", "foot": "yes", "horse": "no", "motor_vehicle": "no"}}, {"type": "node", "id": 11802824255, "lat": 40.8038328, "lon": -73.9634399, "tags": {"barrier": "gate", "bicycle": "no", "foot": "yes", "horse": "no", "motor_vehicle": "no"}}, {"type": "node", "id": 11822867880, "lat": 40.8007919, "lon": -73.9641961, "tags": {"barrier": "gate", "foot": "yes", "motor_vehicle": "no"}}, {"type": "node", "id": 11845349839, "lat": 40.8027315, "lon": -73.9641721}, {"type": "node", "id": 11845349840, "lat": 40.8028945, "lon": -73.9639909}, {"type": "node", "id": 11853956589, "lat": 40.8011017, "lon": -73.971042}, {"type": "node", "id": 11853956590, "lat": 40.8010793, "lon": -73.9709815}, {"type": "node", "id": 11853956591, "lat": 40.8013441, "lon": -73.9707654}, {"type": "node", "id": 11853956592, "lat": 40.8016073, "lon": -73.9705687}, {"type": "node", "id": 11853956593, "lat": 40.801863, "lon": -73.9703868}, {"type": "node", "id": 11853956594, "lat": 40.8021754, "lon": -73.9701598}, {"type": "node", "id": 11853956595, "lat": 40.8026168, "lon": -73.9698354}, {"type": "node", "id": 11853956596, "lat": 40.8031117, "lon": -73.9694742}, {"type": "node", "id": 11853956597, "lat": 40.8033496, "lon": -73.9693008}, {"type": "node", "id": 11853956598, "lat": 40.8033714, "lon": -73.9692867}, {"type": "node", "id": 11853956599, "lat": 40.8033861, "lon": -73.9692773}, {"type": "node", "id": 11853956600, "lat": 40.803406, "lon": -73.9692727}, {"type": "node", "id": 11853956601, "lat": 40.8034273, "lon": -73.9692706}, {"type": "node", "id": 11853956602, "lat": 40.8034441, "lon": -73.9692747}, {"type": "node", "id": 11853956603, "lat": 40.8034547, "lon": -73.9692841}, {"type": "node", "id": 11853956604, "lat": 40.8034639, "lon": -73.9692961}, {"type": "node", "id": 11853956605, "lat": 40.8034669, "lon": -73.9693123}, {"type": "node", "id": 11853956606, "lat": 40.8034679, "lon": -73.9693304}, {"type": "node", "id": 11853956607, "lat": 40.8034613, "lon": -73.9693438}, {"type": "node", "id": 11853956608, "lat": 40.8032688, "lon": -73.9694841}, {"type": "node", "id": 11853956609, "lat": 40.8029757, "lon": -73.9696962}, {"type": "node", "id": 11853956610, "lat": 40.8027339, "lon": -73.9698787}, {"type": "node", "id": 11853956611, "lat": 40.8025743, "lon": -73.9699895}, {"type": "node", "id": 11853956612, "lat": 40.8023666, "lon": -73.970143}, {"type": "node", "id": 11853956613, "lat": 40.8020248, "lon": -73.970386}, {"type": "node", "id": 11853956614, "lat": 40.8016264, "lon": -73.9706757}, {"type": "node", "id": 11853956615, "lat": 40.8013782, "lon": -73.9708585}, {"type": "node", "id": 11853956616, "lat": 40.8037443, "lon": -73.9690541}, {"type": "node", "id": 11853956617, "lat": 40.8039904, "lon": -73.9688735}, {"type": "node", "id": 11853956618, "lat": 40.8041105, "lon": -73.9687917}, {"type": "node", "id": 11853956619, "lat": 40.8041892, "lon": -73.968734}, {"type": "node", "id": 11853956620, "lat": 40.8042359, "lon": -73.9687011}, {"type": "node", "id": 11853956621, "lat": 40.8042841, "lon": -73.9686696}, {"type": "node", "id": 11853956622, "lat": 40.804343, "lon": -73.9686153}, {"type": "node", "id": 11853956623, "lat": 40.804404, "lon": -73.9685427}, {"type": "node", "id": 11853956624, "lat": 40.8044685, "lon": -73.9684576}, {"type": "node", "id": 11853956625, "lat": 40.8045132, "lon": -73.9683912}, {"type": "node", "id": 11853956626, "lat": 40.804571, "lon": -73.9682993}, {"type": "node", "id": 11853956627, "lat": 40.8046334, "lon": -73.9682182}, {"type": "node", "id": 11853956628, "lat": 40.8046807, "lon": -73.9681619}, {"type": "node", "id": 11853956629, "lat": 40.8046979, "lon": -73.9681404}, {"type": "node", "id": 11853956630, "lat": 40.8047071, "lon": -73.9681357}, {"type": "node", "id": 11853956631, "lat": 40.8047142, "lon": -73.9681397}, {"type": "node", "id": 11853956632, "lat": 40.8047243, "lon": -73.9681484}, {"type": "node", "id": 11853956633, "lat": 40.8047467, "lon": -73.9681692}, {"type": "node", "id": 11853956634, "lat": 40.8048055, "lon": -73.9682302}, {"type": "node", "id": 11853956635, "lat": 40.8048461, "lon": -73.9682537}, {"type": "node", "id": 11853956636, "lat": 40.804905, "lon": -73.9682705}, {"type": "node", "id": 11853956637, "lat": 40.8049353, "lon": -73.9682712}, {"type": "node", "id": 11853956638, "lat": 40.8049683, "lon": -73.9682665}, {"type": "node", "id": 11853956639, "lat": 40.8050099, "lon": -73.9682537}, {"type": "node", "id": 11853956640, "lat": 40.8050642, "lon": -73.9682309}, {"type": "node", "id": 11853956641, "lat": 40.8051221, "lon": -73.9682095}, {"type": "node", "id": 11853956642, "lat": 40.805178, "lon": -73.9681813}, {"type": "node", "id": 11853956643, "lat": 40.8052668, "lon": -73.9681344}, {"type": "node", "id": 11853956644, "lat": 40.8053282, "lon": -73.9680988}, {"type": "node", "id": 11853956645, "lat": 40.8054181, "lon": -73.9680499}, {"type": "node", "id": 11853956646, "lat": 40.8054714, "lon": -73.9680197}, {"type": "node", "id": 11853956647, "lat": 40.8054962, "lon": -73.9680063}, {"type": "node", "id": 11853956648, "lat": 40.805513, "lon": -73.9679969}, {"type": "node", "id": 11853956649, "lat": 40.8055297, "lon": -73.9679895}, {"type": "node", "id": 11853956650, "lat": 40.8055404, "lon": -73.9679902}, {"type": "node", "id": 11853956651, "lat": 40.80555, "lon": -73.9679935}, {"type": "node", "id": 11853956652, "lat": 40.8055556, "lon": -73.9680009}, {"type": "node", "id": 11853956653, "lat": 40.8055607, "lon": -73.9680076}, {"type": "node", "id": 11853956654, "lat": 40.8055638, "lon": -73.968015}, {"type": "node", "id": 11853956655, "lat": 40.8055663, "lon": -73.9680284}, {"type": "node", "id": 11853956656, "lat": 40.8055663, "lon": -73.9680365}, {"type": "node", "id": 11853956657, "lat": 40.8055648, "lon": -73.9680499}, {"type": "node", "id": 11853956658, "lat": 40.8055627, "lon": -73.9680606}, {"type": "node", "id": 11853956659, "lat": 40.8055582, "lon": -73.9680707}, {"type": "node", "id": 11853956660, "lat": 40.8055455, "lon": -73.96808}, {"type": "node", "id": 11853956661, "lat": 40.805479, "lon": -73.9681122}, {"type": "node", "id": 11853956662, "lat": 40.8053034, "lon": -73.9681981}, {"type": "node", "id": 11853956663, "lat": 40.8050841, "lon": -73.9683188}, {"type": "node", "id": 11853956664, "lat": 40.8049115, "lon": -73.9684079}, {"type": "node", "id": 11853956665, "lat": 40.8047198, "lon": -73.9685143}, {"type": "node", "id": 11853956666, "lat": 40.8045863, "lon": -73.9685921}, {"type": "node", "id": 11853956667, "lat": 40.8044767, "lon": -73.9686592}, {"type": "node", "id": 11853956668, "lat": 40.8043225, "lon": -73.9687544}, {"type": "node", "id": 11853992569, "lat": 40.8042195, "lon": -73.9688194}, {"type": "node", "id": 11853992570, "lat": 40.8040823, "lon": -73.9689104}, {"type": "node", "id": 11853992571, "lat": 40.8039767, "lon": -73.9689835}, {"type": "node", "id": 11853992572, "lat": 40.803841, "lon": -73.9690747}, {"type": "node", "id": 11853992573, "lat": 40.8037735, "lon": -73.969121}, {"type": "node", "id": 11853992574, "lat": 40.8048653, "lon": -73.9680481}, {"type": "node", "id": 11853992575, "lat": 40.8048536, "lon": -73.9680313}, {"type": "node", "id": 11853992576, "lat": 40.8048455, "lon": -73.9680172}, {"type": "node", "id": 11853992577, "lat": 40.8048415, "lon": -73.9680045}, {"type": "node", "id": 11853992578, "lat": 40.8048394, "lon": -73.9679871}, {"type": "node", "id": 11853992579, "lat": 40.8048394, "lon": -73.9679696}, {"type": "node", "id": 11853992580, "lat": 40.804843, "lon": -73.9679582}, {"type": "node", "id": 11853992581, "lat": 40.8048526, "lon": -73.9679502}, {"type": "node", "id": 11853992582, "lat": 40.8048679, "lon": -73.9679441}, {"type": "node", "id": 11853992583, "lat": 40.8048882, "lon": -73.9679374}, {"type": "node", "id": 11853992584, "lat": 40.8049171, "lon": -73.9679314}, {"type": "node", "id": 11853992585, "lat": 40.8049623, "lon": -73.967928}, {"type": "node", "id": 11853992586, "lat": 40.8049998, "lon": -73.967926}, {"type": "node", "id": 11853992587, "lat": 40.8050491, "lon": -73.9679213}, {"type": "node", "id": 11853992588, "lat": 40.8051216, "lon": -73.9679153}, {"type": "node", "id": 11853992589, "lat": 40.8051582, "lon": -73.9679093}, {"type": "node", "id": 11853992590, "lat": 40.8052029, "lon": -73.9678985}, {"type": "node", "id": 11853992591, "lat": 40.8052511, "lon": -73.9678831}, {"type": "node", "id": 11853992592, "lat": 40.805278, "lon": -73.9678724}, {"type": "node", "id": 11853992593, "lat": 40.8053024, "lon": -73.9678603}, {"type": "node", "id": 11853992594, "lat": 40.8053364, "lon": -73.9678436}, {"type": "node", "id": 11853992595, "lat": 40.8053613, "lon": -73.9678281}, {"type": "node", "id": 11853992596, "lat": 40.8053826, "lon": -73.9678147}, {"type": "node", "id": 11853992597, "lat": 40.8054108, "lon": -73.9677963}, {"type": "node", "id": 11853992598, "lat": 40.8055813, "lon": -73.9676749}, {"type": "node", "id": 11853992599, "lat": 40.8056246, "lon": -73.9676447}, {"type": "node", "id": 11853992600, "lat": 40.8056714, "lon": -73.9676124}, {"type": "node", "id": 11853992601, "lat": 40.8057096, "lon": -73.9675896}, {"type": "node", "id": 11853992602, "lat": 40.8057462, "lon": -73.9675694}, {"type": "node", "id": 11853992603, "lat": 40.8057867, "lon": -73.9675484}, {"type": "node", "id": 11853992604, "lat": 40.805834, "lon": -73.9675242}, {"type": "node", "id": 11853992605, "lat": 40.8058925, "lon": -73.9674959}, {"type": "node", "id": 11853992606, "lat": 40.806, "lon": -73.9674502}, {"type": "node", "id": 11853992607, "lat": 40.8060982, "lon": -73.9674072}, {"type": "node", "id": 11853992608, "lat": 40.8061384, "lon": -73.9673917}, {"type": "node", "id": 11853992609, "lat": 40.8062219, "lon": -73.9673614}, {"type": "node", "id": 11853992610, "lat": 40.8063776, "lon": -73.9673211}, {"type": "node", "id": 11853992611, "lat": 40.8064753, "lon": -73.9672922}, {"type": "node", "id": 11853992612, "lat": 40.8065577, "lon": -73.9672646}, {"type": "node", "id": 11853992613, "lat": 40.8066738, "lon": -73.9672283}, {"type": "node", "id": 11853992614, "lat": 40.8067318, "lon": -73.9672074}, {"type": "node", "id": 11853992615, "lat": 40.8067674, "lon": -73.967194}, {"type": "node", "id": 11853992616, "lat": 40.8067837, "lon": -73.9671913}, {"type": "node", "id": 11853992617, "lat": 40.8068452, "lon": -73.9673587}, {"type": "node", "id": 11853992618, "lat": 40.8068396, "lon": -73.9673675}, {"type": "node", "id": 11853992619, "lat": 40.8068284, "lon": -73.9673796}, {"type": "node", "id": 11853992620, "lat": 40.806749, "lon": -73.9674267}, {"type": "node", "id": 11853992621, "lat": 40.8066808, "lon": -73.9674677}, {"type": "node", "id": 11853992622, "lat": 40.8066238, "lon": -73.9674959}, {"type": "node", "id": 11853992623, "lat": 40.8064785, "lon": -73.9675786}, {"type": "node", "id": 11853992624, "lat": 40.8063606, "lon": -73.9676472}, {"type": "node", "id": 11853992625, "lat": 40.8062959, "lon": -73.9676855}, {"type": "node", "id": 11853992626, "lat": 40.8062389, "lon": -73.9677171}, {"type": "node", "id": 11853992627, "lat": 40.8061488, "lon": -73.9677608}, {"type": "node", "id": 11853992628, "lat": 40.8060024, "lon": -73.9678348}, {"type": "node", "id": 11853992629, "lat": 40.8059281, "lon": -73.9678697}, {"type": "node", "id": 11853992630, "lat": 40.8058477, "lon": -73.9679087}, {"type": "node", "id": 11853992631, "lat": 40.8057796, "lon": -73.9679468}, {"type": "node", "id": 11853992632, "lat": 40.8057715, "lon": -73.9679294}, {"type": "node", "id": 11853992633, "lat": 40.8057644, "lon": -73.9679126}, {"type": "node", "id": 11853992634, "lat": 40.8057572, "lon": -73.9678944}, {"type": "node", "id": 11853992635, "lat": 40.8057445, "lon": -73.9678776}, {"type": "node", "id": 11853992636, "lat": 40.8057323, "lon": -73.9678628}, {"type": "node", "id": 11853992637, "lat": 40.8057206, "lon": -73.9678507}, {"type": "node", "id": 11853992638, "lat": 40.8057074, "lon": -73.9678379}, {"type": "node", "id": 11853992639, "lat": 40.8056926, "lon": -73.9678272}, {"type": "node", "id": 11853992640, "lat": 40.8056753, "lon": -73.9678144}, {"type": "node", "id": 11853992641, "lat": 40.8056605, "lon": -73.9678056}, {"type": "node", "id": 11853992642, "lat": 40.80564, "lon": -73.9678016}, {"type": "node", "id": 11853992643, "lat": 40.8056135, "lon": -73.9678003}, {"type": "node", "id": 11853992644, "lat": 40.8055845, "lon": -73.9678083}, {"type": "node", "id": 11853992645, "lat": 40.8055529, "lon": -73.9678231}, {"type": "node", "id": 11853992646, "lat": 40.8055158, "lon": -73.9678413}, {"type": "node", "id": 11853992647, "lat": 40.8054674, "lon": -73.9678662}, {"type": "node", "id": 11853992648, "lat": 40.8054313, "lon": -73.9678857}, {"type": "node", "id": 11853992649, "lat": 40.8053753, "lon": -73.9679159}, {"type": "node", "id": 11853992650, "lat": 40.8053351, "lon": -73.9679388}, {"type": "node", "id": 11853992651, "lat": 40.8052999, "lon": -73.9679569}, {"type": "node", "id": 11853992652, "lat": 40.8052597, "lon": -73.9679791}, {"type": "node", "id": 11853992653, "lat": 40.805218, "lon": -73.9680013}, {"type": "node", "id": 11853992654, "lat": 40.8051885, "lon": -73.9680161}, {"type": "node", "id": 11853992655, "lat": 40.805164, "lon": -73.9680275}, {"type": "node", "id": 11853992656, "lat": 40.8051381, "lon": -73.9680383}, {"type": "node", "id": 11853992657, "lat": 40.8051055, "lon": -73.9680504}, {"type": "node", "id": 11853992658, "lat": 40.8050781, "lon": -73.9680578}, {"type": "node", "id": 11853992659, "lat": 40.8050537, "lon": -73.9680625}, {"type": "node", "id": 11853992660, "lat": 40.8050246, "lon": -73.9680679}, {"type": "node", "id": 11853992661, "lat": 40.8049967, "lon": -73.9680712}, {"type": "node", "id": 11853992662, "lat": 40.8049737, "lon": -73.9680753}, {"type": "node", "id": 11853992663, "lat": 40.8049498, "lon": -73.9680753}, {"type": "node", "id": 11853992664, "lat": 40.8049259, "lon": -73.9680739}, {"type": "node", "id": 11853992665, "lat": 40.804902, "lon": -73.9680686}, {"type": "node", "id": 11853992666, "lat": 40.8048826, "lon": -73.9680625}, {"type": "node", "id": 11869942660, "lat": 40.8015943, "lon": -73.9681215}, {"type": "node", "id": 11882778358, "lat": 40.8007984, "lon": -73.9642111}, {"type": "node", "id": 11883021317, "lat": 40.7988107, "lon": -73.9736957, "tags": {"barrier": "kerb", "kerb": "lowered"}}, {"type": "node", "id": 11909145321, "lat": 40.8009955, "lon": -73.9632134, "tags": {"barrier": "gate"}}, {"type": "node", "id": 11914391041, "lat": 40.8011238, "lon": -73.9710436}, {"type": "node", "id": 11914391042, "lat": 40.8010838, "lon": -73.9709583}, {"type": "node", "id": 11914391043, "lat": 40.8010906, "lon": -73.9710271}, {"type": "node", "id": 11914391044, "lat": 40.8010795, "lon": -73.9710042}, {"type": "node", "id": 11918525976, "lat": 40.8038513, "lon": -73.9637042}, {"type": "node", "id": 11921629286, "lat": 40.8028868, "lon": -73.9640603}, {"type": "node", "id": 11921629287, "lat": 40.8028681, "lon": -73.9640898}, {"type": "node", "id": 11921629288, "lat": 40.802874, "lon": -73.9640655}, {"type": "node", "id": 11921629289, "lat": 40.8028811, "lon": -73.9640591}, {"type": "node", "id": 11921629290, "lat": 40.8028909, "lon": -73.963986}, {"type": "node", "id": 11921629291, "lat": 40.80273, "lon": -73.96418}, {"type": "node", "id": 11951420261, "lat": 40.8096557, "lon": -73.9653863}, {"type": "node", "id": 11951420262, "lat": 40.8095594, "lon": -73.9654514}, {"type": "node", "id": 11951420263, "lat": 40.8090003, "lon": -73.9658559}, {"type": "node", "id": 11951420264, "lat": 40.8084929, "lon": -73.966395}, {"type": "node", "id": 11951420265, "lat": 40.8077592, "lon": -73.9670463, "tags": {"barrier": "kerb", "kerb": "lowered"}}, {"type": "node", "id": 11951420266, "lat": 40.8073943, "lon": -73.9672858}, {"type": "node", "id": 11951420267, "lat": 40.8079437, "lon": -73.9669156}, {"type": "node", "id": 11951420268, "lat": 40.8080756, "lon": -73.9668128}, {"type": "node", "id": 11951438169, "lat": 40.8089275, "lon": -73.9659083}, {"type": "node", "id": 11963757024, "lat": 40.8158938, "lon": -73.9606295}, {"type": "node", "id": 11963757025, "lat": 40.8158202, "lon": -73.9606667, "tags": {"barrier": "kerb", "kerb": "lowered", "tactile_paving": "yes"}}, {"type": "node", "id": 11963757026, "lat": 40.816034, "lon": -73.9605858, "tags": {"barrier": "kerb", "kerb": "lowered", "tactile_paving": "yes"}}, {"type": "node", "id": 11963757033, "lat": 40.8160768, "lon": -73.9612988}, {"type": "node", "id": 12025354848, "lat": 40.8057754, "lon": -73.9679379}, {"type": "node", "id": 12066027431, "lat": 40.8053911, "lon": -73.9678091}, {"type": "node", "id": 12066051922, "lat": 40.8053964, "lon": -73.9678056}, {"type": "node", "id": 12151100052, "lat": 40.802308, "lon": -73.970056, "tags": {"barrier": "kerb", "kerb": "raised"}}, {"type": "node", "id": 12527817288, "lat": 40.8033866, "lon": -73.9676206, "tags": {"addr:housenumber": "2811", "addr:postcode": "10025", "addr:street": "Broadway", "amenity": "cafe", "brand": "Heytea", "brand:en": "Heytea", "brand:wikidata": "Q60875376", "brand:zh": "\u559c\u8336", "check_date": "2025-01-23", "cuisine": "bubble_tea", "name": "Heytea", "name:en": "Heytea", "name:zh": "\u559c\u8336", "outdoor_seating": "no", "takeaway": "yes", "website": "https://www.heytea.com"}}, {"type": "node", "id": 12527817289, "lat": 40.8034557, "lon": -73.9675683, "tags": {"addr:housenumber": "2817", "addr:postcode": "10025", "addr:street": "Broadway", "amenity": "restaurant", "check_date": "2025-03-17", "cuisine": "chinese", "name": "Nai Brother Sauerkraut Fish", "opening_hours": "Mo-Su 11:00-22:00", "phone": "+1-646-895-1015", "website": "https://www.naibrothersauerkrautfish.com"}}, {"type": "node", "id": 12801060841, "lat": 40.8023398, "lon": -73.9701621, "tags": {"barrier": "kerb", "kerb": "lowered", "tactile_paving": "yes"}}, {"type": "node", "id": 13268373185, "lat": 40.8101617, "lon": -73.9650135}, {"type": "node", "id": 13268373186, "lat": 40.8099215, "lon": -73.9651914}, {"type": "way", "id": 113723738, "nodes": [1289223589, 6804416805, 11869942660, 1289223597, 6412865233, 6900903371, 6900903362, 6900903331, 6900903322, 6900903321, 6900903311, 6900903333, 6900903323, 6900903313, 6900903302, 6412865246, 6900903342, 6900903309, 6900903320, 6900903330, 6900903350, 1289223594, 1289223592, 6412865213, 1289223589], "tags": {"ele": "33", "gnis:feature_id": "2083440", "leisure": "park", "name": "Straus Park", "name:etymology:wikidata": "Q707974", "operator": "New York City Department of Parks and Recreation", "operator:short": "NYC Parks", "operator:type": "public", "operator:wikidata": "Q1894232", "operator:wikipedia": "en:New York City Department of Parks and Recreation", "source": "bing", "wikidata": "Q7622320", "wikimedia_commons": "Category:Straus Park"}}, {"type": "way", "id": 178575123, "nodes": [7732571933, 7732571932, 7732571931, 7732571930, 7732571929, 7732571928, 7732571927, 7732571926, 7732571925, 7732571924, 7732571923, 7732571922, 7732571921, 7732571920, 7732571919, 7732571918, 7732571887, 7732571886, 7732654834, 7732654835, 7732654814, 7732654833, 7732654813, 7732654821, 7732654822, 7732654824, 7732654830, 7732654823, 7732654832, 7732654826, 7732654831, 7732654825, 7732571937, 7732654806, 7732654807, 7732654809, 7732654808, 595436261, 595436258, 7908637459, 42424937, 7908594142, 7908594136, 61257626, 7908637449, 7908637446, 61249184, 7908637443, 7908637468, 7908637465, 7908637462, 7908637450, 7908637447, 7908637444, 61249182, 7908637469, 7908669934, 7908669931, 7908669928, 7908669925, 61249181, 7908669922, 7908669919, 7908669915, 7908669911, 7908669907, 7908669936, 7908669933, 7908669930, 7908669927, 7908669924, 61249179, 7908669921, 7908669917, 7908669909, 7908669938, 7908669913, 42458473, 7908669937, 7908669908, 7908669912, 7908669916, 7908669920, 7908669923, 7908669926, 61249178, 7908669929, 7908669932, 7908669935, 61249177, 1889208625, 1332863754, 625884281, 625884289, 625884294, 625884299, 625884302, 2329798691, 2329798689, 2329798687, 625884307, 2329798685, 2329798681, 625884311, 625884313, 625884326, 2329798673, 2329798667, 2329798663, 625884331, 625884334, 625884337, 625884342, 625884347, 2329798616, 625884352, 2329798608, 625884354, 2329798598, 2329798582, 625884358, 2329798542, 2329798535, 625884364, 2329798527, 625884369, 625884371, 625883727, 6996574417, 6996564373, 6996564333, 6996574529, 6996574487, 6996574446, 6996574404, 6996564361, 6996564321, 6996574516, 6996574475, 6996574433, 6996574390, 6996564350, 6996574545, 6996574458, 6996574501, 6996574461, 6996574420, 6996564376, 6996564336, 6996564346, 6996574541, 6996574497, 6996574457, 6996574532, 6996574416, 6996564372, 6996564332, 6996574528, 11883021317, 6996574486, 6996574445, 6996574403, 6996564360, 6996564320, 6996574515, 6996574472, 6996574474, 6996574430, 6996574386, 6996574432, 6996574389, 6996564349, 6996574544, 6996574500, 6883897084, 6996574460, 6996574419, 6996564375, 6996564335, 6996574531, 6996574489, 7785881400, 6996574448, 6996574406, 6996564363, 6996564323, 6996574518, 6996574547, 7785782265, 6996574503, 7785881409, 6996574477, 6996574463, 11951420266, 6996574422, 11951420265, 11951420267, 11951420268, 6996564377, 7785881399, 6996564337, 7785881389, 6996574533, 6996574490, 11951420264, 6996574435, 7732571797, 7732571798, 6996574450, 11951438169, 6996574408, 11951420263, 6996564365, 7732571802, 6996564325, 11951420262, 11951420261, 7732571799, 13268373186, 7732571800, 13268373185, 6996574520, 7785782253, 7732551647, 7732551648, 7732551649, 7732551650, 7732551651, 7732551652, 7732551653, 7732571945, 7732571944, 7732551654, 7732571954, 7732571953, 7732551655, 7732571957, 7732571958, 7732551656, 7732571959, 7732551657, 7732551658, 7732571956, 7732551659, 10054994715, 1147215107, 10055027117, 1147215134, 7732571955, 7732551661, 7732571934, 7732551662, 7732571935, 7732571979, 1705982137, 1705982127, 7732551666, 7732551665, 7732551664, 7732551663, 7732571939, 7732571940, 7732571993, 7732571994, 7732572004, 7732572007, 7732572006, 7732572005, 11963757025, 11963757024, 7616688923, 11963757026, 7732572009, 7732572012, 7732572011, 7732571960, 7732572010, 7732572003, 7732571961, 7732572002, 7732572001, 7732572000, 7732571962, 7732571963, 7732572013, 7732572014, 7732572019, 7732572020, 7732571964, 7732571965, 7732571966, 7732572017, 7732572018, 7732572015, 7732572016, 7732571967, 7732571968, 6223570377, 7732571969, 7732571820, 7732571825, 11963757033, 6223570379, 42441419, 42441417, 42441415, 42441412, 42441407, 42441403, 1705982067, 1705982125, 1705982023, 1705982150, 7732572021, 7732571933], "tags": {"is_in:city": "New York", "is_in:state": "NY", "leisure": "park", "name": "Riverside Park", "operator": "New York City Department of Parks and Recreation", "operator:short": "NYC Parks", "operator:type": "government", "operator:wikidata": "Q1894232", "website": "https://www.nycgovparks.org/parks/riverside-park", "wikidata": "Q1339602", "wikipedia": "en:Riverside Park (Manhattan)"}}, {"type": "way", "id": 246964616, "nodes": [11882778358, 11822867880, 9654489332, 9654489335, 2539225411, 2539225445, 11909145321, 9654489334, 9654489333, 2539225464, 2539225466, 2539225457, 2539225462, 2539225460, 2539225455, 2539225453, 2539225449, 11882778358]}, {"type": "way", "id": 271202447, "nodes": [2761671735, 2761671834, 2761671865, 2761671910, 2761671919, 2761671909, 2761671923, 2761671924, 2761671931, 2761671950, 2761671957, 2761672009, 2761672023, 11599542729, 2761672008, 2761671958, 2761671948, 2761671940, 2761671871, 2761671971, 2761671939, 2761671913, 2761671869, 2761671843, 2761671816, 2761671797, 2761671763, 2761671735], "tags": {"addr:city": "New York", "addr:housenumber": "234", "addr:postcode": "10025", "addr:state": "NY", "addr:street": "West 109th Street", "alt_name": "Robert E. Simon", "amenity": "school", "building": "yes", "ele": "34", "gnis:feature_id": "2493061", "grades": "PK;0-5;SE", "height": "31.4", "name": "Public School 165", "nycdoitt:bin": "1056676", "operator": "New York City Department of Education", "operator:short": "NYC Public Schools", "operator:type": "public", "operator:wikidata": "Q408230", "ref": "M165", "short_name": "PS 165", "website": "https://www.schools.nyc.gov/schools/M165", "wheelchair": "limited"}}, {"type": "way", "id": 274978285, "nodes": [2796440551, 2796440566, 2796440565, 2796440568, 11629306855, 2796440553, 2796440547, 2796440545, 2796440520, 2796440551], "tags": {"addr:city": "New York", "addr:housenumber": "610", "addr:postcode": "10025", "addr:state": "NY", "addr:street": "West 112th Street", "amenity": "school", "building": "school", "building:levels": "12", "ele": "36", "gnis:feature_id": "2083625", "height": "41.4", "name": "Bank Street College of Education", "nycdoitt:bin": "1057331", "roof:colour": "black_with_white_lines", "wikidata": "Q2882628"}}, {"type": "way", "id": 468548548, "nodes": [4630738689, 11802824255, 2765322417, 2765322419, 2765322428, 2765322431, 2765322438, 2765322415, 11918525976, 11802824254, 4630738689], "tags": {"addr:city": "New York", "addr:housenumber": "1039", "addr:postcode": "10025", "addr:state": "NY", "addr:street": "Amsterdam Avenue", "alt_name": "West 111th Street People's Garden", "ele": "35", "gnis:feature_id": "2336413", "leisure": "park", "name": "Julia Gabriel People's Garden", "operator": "New York City Department of Parks and Recreation", "operator:short": "NYC Parks", "operator:type": "public", "operator:wikidata": "Q1894232", "operator:wikipedia": "en:New York City Department of Parks and Recreation"}}, {"type": "way", "id": 732228095, "nodes": [6856323626, 6856323625, 6814307793, 6856323623, 6856323622, 6856323621, 6856323620, 6856323619, 8375632341, 2308955225, 6856323626], "tags": {"addr:city": "Manhattan", "addr:postcode": "10027", "addr:state": "NY", "addr:street": "116th Street", "alt_name": "Columbia University in the City of New York", "amenity": "university", "name": "Columbia University", "name:es": "Universidad de Columbia", "name:ja": "\u30b3\u30ed\u30f3\u30d3\u30a2\u5927\u5b66", "name:zh": "\u54e5\u4f26\u6bd4\u4e9a\u5927\u5b66", "name:zh-Hans": "\u54e5\u4f26\u6bd4\u4e9a\u5927\u5b66", "name:zh-Hant": "\u54e5\u502b\u6bd4\u4e9e\u5927\u5b78", "website": "https://www.columbia.edu", "wikidata": "Q49088", "wikipedia": "en:Columbia University"}}, {"type": "way", "id": 759460622, "nodes": [7094126611, 11921629291, 11845349839, 7094126608, 11921629290, 11845349840, 7094126610, 11921629286, 11921629289, 11921629288, 11921629287, 7094126611], "tags": {"leisure": "park", "name": "Minerva Bernadino Green Street", "operator": "New York City Department of Parks and Recreation", "operator:short": "NYC Parks", "operator:type": "public", "operator:wikidata": "Q1894232", "operator:wikipedia": "en:New York City Department of Parks and Recreation"}}, {"type": "way", "id": 1276741631, "nodes": [11853956589, 11914391043, 11914391044, 11853956590, 11914391042, 11377004190, 11853956591, 11853956592, 11853956593, 11853956594, 11377030655, 11380668226, 12151100052, 11377030656, 11853956595, 11853956596, 11853956597, 11853956598, 11853956599, 11853956600, 11853956601, 11853956602, 11853956603, 11853956604, 11853956605, 11853956606, 11853956607, 11853956608, 11853956609, 11853956610, 11853956611, 11853956612, 12801060841, 11853956613, 11853956614, 11853956615, 11914391041, 11853956589], "tags": {"leisure": "park"}}, {"type": "way", "id": 1276741632, "nodes": [11853956616, 11853956617, 11853956618, 11853956619, 11853956620, 11853956621, 11853956622, 11853956623, 11853956624, 11853956625, 11853956626, 11853956627, 11853956628, 11853956629, 11853956630, 11853956631, 11853956632, 11853956633, 11853956634, 11853956635, 11853956636, 11853956637, 11853956638, 11853956639, 11853956640, 11853956641, 11853956642, 11853956643, 11853956644, 11853956645, 11853956646, 11853956647, 11853956648, 11853956649, 11853956650, 11853956651, 11853956652, 11853956653, 11853956654, 11853956655, 11853956656, 11853956657, 11853956658, 11853956659, 11853956660, 11853956661, 11853956662, 11853956663, 11853956664, 11853956665, 11853956666, 11853956667, 11853956668, 11853992569, 11853992570, 11853992571, 11853992572, 11853992573, 11853956616], "tags": {"leisure": "park"}}, {"type": "way", "id": 1276741633, "nodes": [11853992574, 11853992575, 11853992576, 11853992577, 11853992578, 11853992579, 11853992580, 11853992581, 11853992582, 11853992583, 11853992584, 11853992585, 11853992586, 11853992587, 11853992588, 11853992589, 11853992590, 11853992591, 11853992592, 11853992593, 11853992594, 11853992595, 11853992596, 12066027431, 12066051922, 11853992597, 11853992598, 11853992599, 11853992600, 11853992601, 11853992602, 11853992603, 11853992604, 11853992605, 11853992606, 11853992607, 11853992608, 11853992609, 11853992610, 11853992611, 11853992612, 11853992613, 11853992614, 11853992615, 11853992616, 11853992617, 11853992618, 11853992619, 11853992620, 11853992621, 11853992622, 11853992623, 11853992624, 11853992625, 11853992626, 11853992627, 11853992628, 11853992629, 11853992630, 11853992631, 12025354848, 11853992632, 11853992633, 11853992634, 11853992635, 11853992636, 11853992637, 11853992638, 11853992639, 11853992640, 11853992641, 11853992642, 11853992643, 11853992644, 11853992645, 11853992646, 11853992647, 11853992648, 11853992649, 11853992650, 11853992651, 11853992652, 11853992653, 11853992654, 11853992655, 11853992656, 11853992657, 11853992658, 11853992659, 11853992660, 11853992661, 11853992662, 11853992663, 11853992664, 11853992665, 11853992666, 11853992574], "tags": {"leisure": "park"}}, {"type": "way", "id": 1449668149, "nodes": [10168673720, 10168667114, 4630738689, 11296195566, 10168673720], "tags": {"amenity": "university", "education": "university", "name": "Columbia University", "wikipedia": "Columbia University"}}, {"type": "relation", "id": 17563989, "members": [{"type": "way", "ref": 246964616, "role": "outer"}], "tags": {"ele": "28", "gnis:feature_id": "2500841", "leisure": "park", "name": "Booker T Washington Playground", "name:etymology:wikidata": "Q319871", "operator": "New York City Department of Parks and Recreation", "operator:short": "NYC Parks", "operator:type": "public", "operator:wikidata": "Q1894232", "type": "multipolygon", "website": "https://www.nycgovparks.org/parks/booker-t-washington-playground", "wikidata": "Q34809775"}}]}