{"version": 0.6, "generator": "Overpass API 0.7.62.8 e802775f", "osm3s": {"timestamp_osm_base": "2025-12-01T16:38:15Z", "copyright": "The data included in this document is from www.openstreetmap.org. The data is made available under ODbL."}, "elements": [{"type": "node", "id": 246525111, "lat": 40.7416634, "lon": -73.9889842}, {"type": "node", "id": 246525115, "lat": 40.7427489, "lon": -73.9867133, "tags": {"barrier": "kerb", "kerb": "lowered", "tactile_paving": "yes"}}, {"type": "node", "id": 357620429, "lat": 40.7438889, "lon": -73.9822222, "tags": {"amenity": "school", "ele": "12", "gnis:feature_id": "2083088", "name": "Lexington Avenue Campus Touro College"}}, {"type": "node", "id": 1297282272, "lat": 40.7449757, "lon": -73.9831065, "tags": {"amenity": "restaurant", "bar": "yes", "cocktails": "yes", "cuisine": "american", "drink:beer": "draught", "drink:liquor": "yes", "drink:wine": "yes", "name": "Pando Park", "opening_hours": "Mo-Th 11:00-24:00, Fr-Sa 11:00-02:00, Su 11:00-24:00", "website": "https://www.pandopubs.com/location/pando-park/"}}, {"type": "node", "id": 1383961543, "lat": 40.7409651, "lon": -73.9876404, "tags": {"addr:city": "New York", "addr:housenumber": "1", "addr:postcode": "10010", "addr:state": "NY", "addr:street": "Madison Avenue", "amenity": "bank", "brand": "Charles Schwab", "brand:wikidata": "Q1066028", "name": "Charles Schwab", "office": "financial_advisor", "wheelchair": "yes"}}, {"type": "node", "id": 1709979773, "lat": 40.7451284, "lon": -73.9854212}, {"type": "node", "id": 2045635529, "lat": 40.7405189, "lon": -73.984262, "tags": {"amenity": "cafe", "brand": "Starbucks", "brand:wikidata": "Q37158", "contact:website": "https://www.starbucks.com/store-locator/store/90244/25th-lex-50-lexington-avenue-new-york-ny-100102935-us", "cuisine": "coffee_shop", "diet:vegan": "yes", "drink:soy_milk": "yes", "indoor_seating": "yes", "internet_access": "wlan", "name": "Starbucks", "official_name": "Starbucks Coffee", "opening_hours": "Mo-Fr 05:30-23:00; Sa 06:00-23:00; Su 06:00-22:00", "outdoor_seating": "no", "takeaway": "yes"}}, {"type": "node", "id": 2129755928, "lat": 40.7435315, "lon": -73.9842167, "tags": {"amenity": "pub", "internet_access": "wlan", "internet_access:fee": "no", "name": "Churchill's Pub", "toilets:wheelchair": "yes", "wheelchair": "yes"}}, {"type": "node", "id": 2300348734, "lat": 40.7424809, "lon": -73.982394, "tags": {"addr:street": "Lexington Avenue", "amenity": "restaurant", "cuisine": "indian", "drink:beer": "yes", "drink:liquor": "yes", "drink:wine": "yes", "name": "Chote Nawab", "opening_hours": "Mo-Th 11:30-15:00,17:00-23:00; Fr-Sa 11:30-15:00,17:00-24:00; Su 11:30-15:00,17:00-22:30", "phone": "+1-212-679-4603", "website": "https://www.chotenawabnyc.com/"}}, {"type": "node", "id": 2300348739, "lat": 40.7424095, "lon": -73.9824519, "tags": {"addr:city": "New York", "addr:country": "US", "addr:housenumber": "113", "addr:postcode": "10016", "addr:state": "NY", "addr:street": "Lexington Avenue", "amenity": "restaurant", "bar": "no", "cuisine": "indian", "diet:halal": "yes", "level": "1", "name": "Haandi", "opening_hours": "Mo-Fr 11:00-14:30; Sa-Su 11:00-22:00", "outdoor_seating": "no", "payment:cash": "yes", "payment:credit_cards": "yes", "payment:debit_cards": "yes", "phone": "+1-212-685-5200", "takeaway": "yes", "toilets": "yes", "website": "https://haandiny.com/", "wheelchair": "no"}}, {"type": "node", "id": 2412370159, "lat": 40.7435996, "lon": -73.98616, "tags": {"addr:city": "New York", "addr:housenumber": "66", "addr:postcode": "10010", "addr:street": "Madison Avenue", "amenity": "restaurant", "branch": "Flatiron", "cuisine": "sandwich", "drink:beer": "served", "name": "Olde City", "opening_hours": "Mo-Su 11:00-24:00", "opening_hours:kitchen": "11:00-24:00", "phone": "+1 929-281-3222", "website": "https://www.loveoldecity.com/", "wheelchair": "yes"}}, {"type": "node", "id": 2554250887, "lat": 40.7447614, "lon": -73.984989, "tags": {"addr:city": "New York", "addr:country": "US", "addr:housenumber": "9*9", "addr:postcode": "10016", "addr:state": "NY", "addr:street": "Madison Avenue", "name": "DG Interactive", "note": "A creative digital marketing agency specializing in web design, branding / logo design, online ads, brochures, and media.", "office": "company", "website": "https://dg-interactive.com/"}}, {"type": "node", "id": 2555580688, "lat": 40.7437268, "lon": -73.9814828, "tags": {"amenity": "cafe", "name": "Penelope", "website": "https://www.penelopenyc.com/"}}, {"type": "node", "id": 2555992944, "lat": 40.7446507, "lon": -73.9877715, "tags": {"addr:city": "New York", "addr:country": "US", "addr:housenumber": "244", "addr:postcode": "10001", "addr:state": "NY", "addr:street": "5th Avenue", "addr:unit": "B239", "name": "BKLTD.co", "office": "advertising_agency", "website": "https://bkltd.creativemf.com/"}}, {"type": "node", "id": 2704104122, "lat": 40.7408146, "lon": -73.983604, "tags": {"addr:city": "New York", "addr:housenumber": "61", "addr:postcode": "10010", "addr:state": "NY", "addr:street": "Lexington Avenue", "amenity": "cafe", "brand": "Yi Fang Tea", "brand:en": "Yi Fang Tea", "brand:wikidata": "Q66196395", "brand:zh": "\u4e00\u82b3\u6c34\u679c\u8336", "cuisine": "bubble_tea", "name": "Yi Fang Tea", "name:en": "Yi Fang Tea", "name:zh": "\u4e00\u82b3\u6c34\u679c\u8336", "takeaway": "yes"}}, {"type": "node", "id": 2704104197, "lat": 40.7408893, "lon": -73.9835474, "tags": {"addr:city": "New York", "addr:housenumber": "61", "addr:postcode": "10010", "addr:state": "NY", "addr:street": "Lexington Avenue", "amenity": "restaurant", "check_date:opening_hours": "2023-07-31", "cuisine": "chinese", "indoor_seating": "yes", "name": "Bao Bao Cafe", "opening_hours:signed": "no", "outdoor_seating": "no"}}, {"type": "node", "id": 2704104320, "lat": 40.7397476, "lon": -73.9830301}, {"type": "node", "id": 2704104380, "lat": 40.7401124, "lon": -73.983898}, {"type": "node", "id": 2704104382, "lat": 40.7401198, "lon": -73.9827598}, {"type": "node", "id": 2704104386, "lat": 40.7401833, "lon": -73.9827136}, {"type": "node", "id": 2704104390, "lat": 40.7402262, "lon": -73.9826825}, {"type": "node", "id": 2704104396, "lat": 40.7402898, "lon": -73.9840175}, {"type": "node", "id": 2704104406, "lat": 40.7403992, "lon": -73.9826529}, {"type": "node", "id": 2704104412, "lat": 40.7406282, "lon": -73.9837716}, {"type": "node", "id": 2704104413, "lat": 40.7406314, "lon": -73.9824864}, {"type": "node", "id": 2704104415, "lat": 40.7406437, "lon": -73.9832421}, {"type": "node", "id": 2704104436, "lat": 40.7408692, "lon": -73.9823158}, {"type": "node", "id": 2704104440, "lat": 40.7408953, "lon": -73.9830617}, {"type": "node", "id": 2704104461, "lat": 40.7411021, "lon": -73.9828772}, {"type": "node", "id": 2704104463, "lat": 40.7411137, "lon": -73.982905}, {"type": "node", "id": 2704116914, "lat": 40.7410246, "lon": -73.9813006, "tags": {"addr:housenumber": "367", "addr:postcode": "10016", "addr:street": "3rd Avenue", "amenity": "pub", "cocktails": "yes", "drink:beer": "draught", "drink:liquor": "yes", "drink:wine": "yes", "name": "Handcraft"}}, {"type": "node", "id": 2704131438, "lat": 40.7426823, "lon": -73.9822532, "tags": {"addr:city": "New York", "addr:country": "US", "addr:housenumber": "119", "addr:postcode": "10016", "addr:state": "NY", "addr:street": "Lexington Avenue", "amenity": "restaurant", "cuisine": "indian", "diet:vegetarian": "yes", "name": "Curry in a Hurry", "opening_hours": "Mo-Su 11:00-22:00", "outdoor_seating": "no", "self_service": "no", "smoking": "no", "takeaway": "yes", "website": "https://www.curryinahurrynyc.com/", "website:menu": "https://www.curryinahurrynyc.com/by6hcocr/curry-in-a-hurry-new-york-10016/menu?menu=All+Day+"}}, {"type": "node", "id": 2704131493, "lat": 40.7410605, "lon": -73.9822863, "tags": {"addr:city": "New York", "addr:housenumber": "153", "addr:postcode": "10010", "addr:state": "NY", "addr:street": "East 26th Street", "amenity": "restaurant", "cuisine": "thai", "indoor_seating": "yes", "name": "Little Basil", "outdoor_seating": "no"}}, {"type": "node", "id": 2704131516, "lat": 40.7408917, "lon": -73.981874, "tags": {"addr:housenumber": "358", "addr:postcode": "10016", "addr:street": "3rd Avenue", "amenity": "restaurant", "bar": "yes", "cocktails": "yes", "cuisine": "mexican", "drink:beer": "draught", "drink:liquor": "yes", "drink:wine": "yes", "happy_hours": "Mo-Fr 16:00-19:30,23:00-02:00", "indoor_seating": "yes", "name": "Street Taco", "opening_hours": "Mo 16:00-24:00; Tu-Th 16:00-02:00; Fr 14:00-01:30; Sa 11:30-02:00; Su 11:30-24:00", "opening_hours:kitchen": "Mo 16:00-23:00; Tu-Th 16:00-00:30; Fr 14:00-02:00; Sa 11:30-15:00,16:00-01:30; Su 11:30-15:00,16:00-23:00", "outdoor_seating": "yes", "phone": "+1-646-791-5413", "website": "https://www.streettacony.com", "wheelchair": "yes"}}, {"type": "node", "id": 2704131545, "lat": 40.7420659, "lon": -73.9826947, "tags": {"addr:housenumber": "99", "addr:postcode": "10016", "addr:street": "Lexington Avenue", "amenity": "restaurant", "cuisine": "indian", "diet:gluten_free": "yes", "diet:kosher": "yes", "diet:vegetarian": "only", "drink:espresso": "yes", "name": "Kailash Parbat", "website": "http://www.kailashparbatny.com"}}, {"type": "node", "id": 2704161393, "lat": 40.7411542, "lon": -73.9849545, "tags": {"addr:city": "New York", "addr:housenumber": "110", "addr:postcode": "10010", "addr:state": "NY", "addr:street": "East 25th Street", "addr:unit": "4C", "name": "PILOT Inc", "office": "company", "website": "https://pilot.coach/"}}, {"type": "node", "id": 2706918018, "lat": 40.7424507, "lon": -73.9836446, "tags": {"addr:housenumber": "119", "addr:postcode": "10016", "addr:street": "East 27th Street", "amenity": "pub", "cocktails": "yes", "cuisine": "pub", "drink:beer": "draught", "drink:liquor": "yes", "drink:wine": "yes", "name": "Turnmill", "phone": "+1-646-524-6060", "website": "https://www.turnmillnyc.com"}}, {"type": "node", "id": 2706918154, "lat": 40.742323, "lon": -73.9828805, "tags": {"amenity": "restaurant", "cuisine": "pakistani", "diet:halal": "yes", "name": "Lahori Kabab", "opening_hours": "Mo-Su 10:00-04:00", "phone": "+1-646-620-3183"}}, {"type": "node", "id": 2706918539, "lat": 40.7443641, "lon": -73.9843792}, {"type": "node", "id": 2706918543, "lat": 40.744391, "lon": -73.984443}, {"type": "node", "id": 2706918556, "lat": 40.7444931, "lon": -73.9842853}, {"type": "node", "id": 2706918561, "lat": 40.74452, "lon": -73.9843492}, {"type": "node", "id": 2706939803, "lat": 40.745401, "lon": -73.9848544, "tags": {"addr:housenumber": "118", "addr:postcode": "10016", "addr:street": "Madison Avenue", "amenity": "restaurant", "name": "Nonono"}}, {"type": "node", "id": 2706939893, "lat": 40.7443212, "lon": -73.9862186}, {"type": "node", "id": 2706939899, "lat": 40.7443963, "lon": -73.9861241}, {"type": "node", "id": 2706939900, "lat": 40.744409, "lon": -73.9861535}, {"type": "node", "id": 2706939903, "lat": 40.7444573, "lon": -73.9865394}, {"type": "node", "id": 2706939911, "lat": 40.7446143, "lon": -73.9860679}, {"type": "node", "id": 2706939912, "lat": 40.7446171, "lon": -73.9860568}, {"type": "node", "id": 2706939914, "lat": 40.7446292, "lon": -73.9859968}, {"type": "node", "id": 2706939915, "lat": 40.7446374, "lon": -73.9861675}, {"type": "node", "id": 2706939918, "lat": 40.7446458, "lon": -73.9860355}, {"type": "node", "id": 2706939919, "lat": 40.7446523, "lon": -73.9861564}, {"type": "node", "id": 2706939921, "lat": 40.7446674, "lon": -73.9863835}, {"type": "node", "id": 2706939922, "lat": 40.744672, "lon": -73.9862481}, {"type": "node", "id": 2706939924, "lat": 40.7446854, "lon": -73.9862381}, {"type": "node", "id": 2706939928, "lat": 40.744722, "lon": -73.9863232}, {"type": "node", "id": 2706939931, "lat": 40.7447315, "lon": -73.986328}, {"type": "node", "id": 2706939937, "lat": 40.7447559, "lon": -73.9863726}, {"type": "node", "id": 2706939939, "lat": 40.7447617, "lon": -73.9863056}, {"type": "node", "id": 2706939942, "lat": 40.7447821, "lon": -73.9863532}, {"type": "node", "id": 2706939961, "lat": 40.7449817, "lon": -73.9851367}, {"type": "node", "id": 2706939976, "lat": 40.7450426, "lon": -73.9850925}, {"type": "node", "id": 2706939988, "lat": 40.7451069, "lon": -73.9854368}, {"type": "node", "id": 2706940001, "lat": 40.7451678, "lon": -73.9853926}, {"type": "node", "id": 2709335786, "lat": 40.7452911, "lon": -73.9845959, "tags": {"addr:housenumber": "121", "addr:postcode": "10016", "addr:street": "Madison Avenue", "amenity": "cafe", "branch": "Nomad", "check_date": "2025-09-02", "craft": "caterer", "cuisine": "coffee_shop;breakfast;sandwich;salad", "delivery": "yes", "diet:vegetarian": "yes", "drink:beer": "yes", "drink:coffee": "yes", "drink:espresso": "yes", "drink:tea": "yes", "drink:wine": "yes", "name": "Slate Cafe", "opening_hours": "Mo-Fr 07:30-17:00; Sa-Su 08:00-17:00", "payment:cash": "yes", "payment:credit_cards": "yes", "payment:debit_cards": "yes", "phone": "+1-212-683-7800", "takeaway": "yes", "toilets": "yes", "website": "https://slatecafe.com", "wheelchair": "limited"}}, {"type": "node", "id": 2709335792, "lat": 40.7451962, "lon": -73.9811158, "tags": {"addr:housenumber": "128", "addr:postcode": "10016", "addr:street": "East 32nd Street", "name": "VFS Global", "office": "company", "website": "https://www.vfsglobal.com"}}, {"type": "node", "id": 2709335829, "lat": 40.7444593, "lon": -73.9813057, "tags": {"addr:housenumber": "178", "addr:postcode": "10016", "addr:street": "Lexington Avenue", "alt_name": "Vezzo Thin Crust Pizza", "amenity": "restaurant", "cuisine": "pizza", "name": "Vezzo", "opening_hours": "Mo-We 11:30-21:30; Th-Fr 11:30-22:00; Sa 12:00-22:00; Su 12:00-21:30", "phone": "+1-212-839-8300", "website": "https://www.nycthincrust.com/location/vezzo-thin-crust/"}}, {"type": "node", "id": 2709336290, "lat": 40.7450084, "lon": -73.9813013}, {"type": "node", "id": 2709336333, "lat": 40.7450754, "lon": -73.9815232}, {"type": "node", "id": 3019038940, "lat": 40.7433504, "lon": -73.9880644}, {"type": "node", "id": 3356089617, "lat": 40.7451081, "lon": -73.9842044, "tags": {"addr:housenumber": "29", "addr:street": "East 30th Street", "amenity": "restaurant", "brewery": "various", "cuisine": "irish;coffee", "happy_hours": "Mo-Su 15:00-20:00", "name": "The Crooked Knife", "opening_hours": "Mo-Su 11:00-04:00", "payment:cash": "yes", "payment:credit_cards": "yes", "phone": "+1-212-696-2593", "reservation": "yes", "takeaway": "yes", "toilets": "yes", "website": "http://www.thecrookedknife.com/"}}, {"type": "node", "id": 3356089618, "lat": 40.7449212, "lon": -73.9837645, "tags": {"amenity": "restaurant", "cuisine": "wine", "name": "Wine:30"}}, {"type": "node", "id": 3356089619, "lat": 40.7447556, "lon": -73.9839134, "tags": {"amenity": "school", "name": "Rebecca School", "wikidata": "Q7301904"}}, {"type": "node", "id": 3356089621, "lat": 40.7455156, "lon": -73.9847757, "tags": {"addr:city": "New York", "addr:housenumber": "120", "addr:postcode": "10016", "addr:state": "NY", "addr:street": "Madison Avenue", "amenity": "college", "name": "American Academy of Dramatic Arts", "phone": "+1-800-463-8990", "short_name": "AADA", "website": "https://www.aada.edu/campuses/new-york-campus-overview", "wikidata": "Q389336", "wikipedia": "en:American Academy of Dramatic Arts"}}, {"type": "node", "id": 3356089622, "lat": 40.7457391, "lon": -73.9846188, "tags": {"amenity": "restaurant", "atm": "yes", "cuisine": "pizza", "name": "Bella Napoli", "takeaway": "yes", "toilets": "yes"}}, {"type": "node", "id": 3775439864, "lat": 40.7445472, "lon": -73.9808994, "tags": {"addr:city": "New York", "addr:housenumber": "181", "addr:postcode": "10016", "addr:state": "NY", "addr:street": "Lexington Avenue", "amenity": "restaurant", "cuisine": "mediterranean", "diet:gluten_free": "yes", "diet:healthy": "yes", "diet:mediterranean": "yes", "diet:vegetarian": "yes", "name": "Leonetta", "opening_hours": "Mo-Su 09:00-21:00", "website": "https://www.leonettanyc.com/"}}, {"type": "node", "id": 3826810673, "lat": 40.7425648, "lon": -73.9827028, "tags": {"amenity": "restaurant", "cuisine": "indian", "drink:beer": "yes", "drink:liquor": "yes", "drink:wine": "yes", "happy_hours": "Mo-Su 15:00-18:00", "name": "Anjappar"}}, {"type": "node", "id": 3826815957, "lat": 40.7422289, "lon": -73.9829503, "tags": {"addr:city": "New York", "addr:housenumber": "102", "addr:postcode": "10016", "addr:state": "NY", "addr:street": "Lexington Avenue", "air_conditioning": "yes", "amenity": "restaurant", "cuisine": "nepalese", "diet:vegetarian": "yes", "name": "Taste from Everest", "opening_hours": "Mo-Su 12:00-24:00", "phone": "+1-646-609-3006", "website": "https://www.tastefromeverestny.com/"}}, {"type": "node", "id": 3826815958, "lat": 40.7421807, "lon": -73.9829817, "tags": {"amenity": "restaurant", "cuisine": "indian", "name": "Bhatti", "website": "https://www.bhattinyc.com/"}}, {"type": "node", "id": 3826816004, "lat": 40.7423183, "lon": -73.9833132, "tags": {"addr:city": "New York", "addr:housenumber": "129", "addr:postcode": "10016", "addr:street": "East 27th Street", "amenity": "restaurant", "cuisine": "indian", "name": "Pappali", "phone": "+1-212-689-1999", "website": "https://www.pippalinyc.com/"}}, {"type": "node", "id": 3826850957, "lat": 40.7429442, "lon": -73.9820503, "tags": {"amenity": "pub", "drink:beer": "draught", "drink:liquor": "yes", "name": "Sally's Bar", "outdoor_seating": "sidewalk"}}, {"type": "node", "id": 3826926964, "lat": 40.7445423, "lon": -73.9834869, "tags": {"amenity": "restaurant", "brand": "California Pizza Kitchen", "brand:wikidata": "Q15109854", "cuisine": "pizza", "name": "California Pizza Kitchen", "short_name": "CPK", "website": "https://www.cpk.com/locations/park-avenue-south/"}}, {"type": "node", "id": 3847053090, "lat": 40.7439118, "lon": -73.9813418, "tags": {"amenity": "restaurant", "name": "Lallisse"}}, {"type": "node", "id": 3932353662, "lat": 40.7415982, "lon": -73.9871904, "tags": {"addr:city": "New York", "addr:country": "US", "addr:housenumber": "11", "addr:postcode": "10010", "addr:state": "NY", "addr:street": "Madison Avenue", "amenity": "restaurant", "cuisine": "french;american", "diet:vegan": "only", "name": "Eleven Madison Park", "opening_hours": "Mo-We 17:30-22:00; Th-Su 12:00-13:00, 17:30-22:00", "phone": "+1 212-889-0905", "smoking": "no", "stars": "3", "website": "https://www.elevenmadisonpark.com/", "wikidata": "Q5359767", "wikipedia": "en:Eleven Madison Park"}}, {"type": "node", "id": 3955492426, "lat": 40.7422938, "lon": -73.983837, "tags": {"amenity": "restaurant", "name": "Jazz Standard", "wikidata": "Q1684488"}}, {"type": "node", "id": 3956967149, "lat": 40.7415974, "lon": -73.9813869, "tags": {"amenity": "restaurant", "cuisine": "italian", "name": "Coppola's", "wheelchair": "no"}}, {"type": "node", "id": 3956967453, "lat": 40.7418372, "lon": -73.9812232, "tags": {"amenity": "restaurant", "bar": "yes", "cuisine": "turkish", "diet:vegetarian": "yes", "drink:liquor": "yes", "drink:wine": "yes", "name": "Turkish Kitchen", "wheelchair": "limited"}}, {"type": "node", "id": 3960166157, "lat": 40.7446682, "lon": -73.98756, "tags": {"addr:city": "New York", "addr:housenumber": "246", "addr:postcode": "10001", "addr:state": "NY", "addr:street": "5th Avenue", "amenity": "cafe", "branch": "Nomad", "brand": "Think Coffee", "brand:wikidata": "Q122209740", "cuisine": "coffee_shop", "drink:espresso": "yes", "name": "Think Coffee", "opening_hours": "Mo-Sa 07:00-19:00; Su 08:00-15:00", "outdoor_seating": "yes", "takeaway": "yes", "website": "https://thinkcoffee.com/"}}, {"type": "node", "id": 3960166158, "lat": 40.7448447, "lon": -73.9869413, "tags": {"amenity": "restaurant", "cuisine": "steak_house", "name": "Ben & Jack's Steakhouse"}}, {"type": "node", "id": 3960166159, "lat": 40.7445855, "lon": -73.9875896, "tags": {"addr:city": "New York", "addr:housenumber": "244", "addr:postcode": "10001", "addr:state": "NY", "addr:street": "5th Avenue", "amenity": "restaurant", "bar": "yes", "cuisine": "chinese", "name": "Nomad Tea Parlour", "was:name": "Whitey's Hardware & Paints", "was:shop": "hardware", "website": "https://www.nomadteaparlour.com/"}}, {"type": "node", "id": 3960166160, "lat": 40.7447575, "lon": -73.987006, "tags": {"addr:city": "New York", "addr:housenumber": "253", "addr:street": "Fifth Avenue", "amenity": "pub", "name": "John Doe Bar & Kitchen"}}, {"type": "node", "id": 3966939347, "lat": 40.744603, "lon": -73.9854712, "tags": {"amenity": "restaurant", "name": "Milleseme", "wheelchair": "no"}}, {"type": "node", "id": 3966939353, "lat": 40.7439872, "lon": -73.9858906, "tags": {"amenity": "cafe", "name": "Seven grams", "removed:name": "Exki", "wheelchair": "yes"}}, {"type": "node", "id": 3970473673, "lat": 40.7439569, "lon": -73.9833596, "tags": {"amenity": "restaurant", "name": "Fresh & Co"}}, {"type": "node", "id": 3985008886, "lat": 40.7446132, "lon": -73.9859631}, {"type": "node", "id": 3985008887, "lat": 40.7446848, "lon": -73.9864241}, {"type": "node", "id": 4114487389, "lat": 40.7443652, "lon": -73.9813808, "tags": {"alt_name": "Asia Sariku & Sushi", "amenity": "restaurant", "cuisine": "chinese;sushi;thai", "name": "Hong Kong Noodle Sariku Sushi", "opening_hours": "Mo-Su 11:00-22:00", "phone": "+1-212-689-1025"}}, {"type": "node", "id": 4135326824, "lat": 40.7398014, "lon": -73.9829911}, {"type": "node", "id": 4135326825, "lat": 40.7398431, "lon": -73.9829607}, {"type": "node", "id": 4135326864, "lat": 40.740155, "lon": -73.9827342}, {"type": "node", "id": 4135326866, "lat": 40.7401795, "lon": -73.9827163}, {"type": "node", "id": 4234840590, "lat": 40.7447024, "lon": -73.9811337, "tags": {"amenity": "restaurant", "cuisine": "indian;chinese", "name": "Spice Symphony", "opening_hours": "Mo-Th 11:00-14:45,17:00-21:45; Fr-Sa 11:00-14:45,17:00-22:00; Su 11:00-14:45,17:00-21:45", "phone": "+1-212-545-7742", "website": "https://spicesymphony.com"}}, {"type": "node", "id": 4288405518, "lat": 40.7442428, "lon": -73.9839881, "tags": {"amenity": "pub", "name": "Tavern29", "outdoor_seating": "yes", "website": "https://tavern29.com/"}}, {"type": "node", "id": 4423853691, "lat": 40.7423513, "lon": -73.9833892, "tags": {"addr:housenumber": "125", "addr:postcode": "10016", "addr:street": "East 27th Street", "amenity": "restaurant", "bar": "yes", "cuisine": "italian;mediterranean", "drink:coffee": "yes", "drink:espresso": "yes", "name": "Covina"}}, {"type": "node", "id": 4426744326, "lat": 40.7415576, "lon": -73.9809256, "tags": {"addr:city": "New York", "addr:housenumber": "383", "addr:postcode": "10016", "addr:state": "NY", "addr:street": "3rd Avenue", "amenity": "restaurant", "brand": "bb.q Chicken", "brand:wikidata": "Q87716489", "cuisine": "korean;chicken", "delivery": "yes", "diet:halal": "yes", "drink:beer": "yes", "name": "bb.q Chicken", "opening_hours": "Mo-Su 11:00-22:00", "outdoor_seating": "no", "payment:cash": "yes", "payment:credit_cards": "yes", "payment:debit_cards": "yes", "phone": "+1-646-618-2149", "takeaway": "yes", "toilets": "yes"}}, {"type": "node", "id": 4442221391, "lat": 40.7414379, "lon": -73.9831543, "tags": {"addr:housenumber": "81", "addr:street": "Lexington Avenue", "amenity": "restaurant", "cuisine": "indian", "diet:kosher": "yes", "diet:vegan": "yes", "diet:vegetarian": "only", "fax": "+1-212-679-5811", "name": "Saravanaa Bhavan", "phone": "+1-212-684-7755", "website": "https://saravanabhavan.com/"}}, {"type": "node", "id": 4461697890, "lat": 40.7450031, "lon": -73.9873381, "tags": {"addr:postcode": "10001", "amenity": "restaurant", "cuisine": "seafood", "name": "L & W Oyster Company"}}, {"type": "node", "id": 4461699892, "lat": 40.7443707, "lon": -73.98779, "tags": {"addr:housenumber": "236", "addr:postcode": "10001", "addr:street": "5th Avenue", "amenity": "restaurant", "cuisine": "mediterranean", "name": "ilili"}}, {"type": "node", "id": 4564273493, "lat": 40.7436151, "lon": -73.9863949, "tags": {"addr:city": "New York", "addr:housenumber": "21", "addr:postcode": "10016", "addr:state": "NY", "addr:street": "East 27th Street", "amenity": "cafe", "cuisine": "coffee_shop", "drink:beer": "yes", "email": "27thstreet@birchcoffee.com", "internet_access": "no", "name": "Birch Coffee", "opening_hours": "Mo-Fr 07:00-20:00; Sa-Su 08:00-20:00", "phone": "+1 212-686-1444", "smoking": "no", "website": "http://birchcoffee.com/locations/flatiron/"}}, {"type": "node", "id": 4844210421, "lat": 40.7424702, "lon": -73.9862953, "tags": {"addr:city": "New York", "addr:housenumber": "41", "addr:postcode": "10010", "addr:street": "Madison Avenue", "amenity": "restaurant", "contact:instagram": "marksoffmadison", "cuisine": "italian", "delivery": "yes", "name": "Mark's Off Madison", "opening_hours": "Tu-Fr 11:30-14:45, 17:00-22:00; Sa 10:30-15:00,17:00-22:00; Su 10:30-15:00", "outdoor_seating": "yes", "phone": "+1 646 838 8300", "reservation": "recommended", "toilets": "customers", "website": "https://www.marksoffmadison.com"}}, {"type": "node", "id": 5145299521, "lat": 40.7417897, "lon": -73.9807467, "tags": {"addr:housenumber": "200", "addr:postcode": "10016", "addr:street": "East 28th Street", "amenity": "cafe", "brand": "Starbucks", "brand:wikidata": "Q37158", "contact:website": "https://www.starbucks.com/store-locator/store/114014/28th-3rd-393-third-ave-new-york-ny-100169065-us", "cuisine": "coffee_shop", "name": "Starbucks", "official_name": "Starbucks Coffee", "opening_hours": "Mo-Fr 05:30-19:30; Sa 06:00-19:30; Su 06:00-19:00", "takeaway": "yes"}}, {"type": "node", "id": 5218361626, "lat": 40.742372, "lon": -73.9828447, "tags": {"addr:housenumber": "108", "addr:street": "Lexington Avenue", "amenity": "restaurant", "cuisine": "indian", "name": "Dhaba", "website": "https://www.dhabanyc.com/"}}, {"type": "node", "id": 5218361627, "lat": 40.7424205, "lon": -73.9828108, "tags": {"amenity": "restaurant", "cuisine": "indian", "diet:kosher": "yes", "diet:vegan": "yes", "diet:vegetarian": "only", "name": "Pongal", "website": "https://www.pongalnyc.com"}}, {"type": "node", "id": 5265742302, "lat": 40.7406194, "lon": -73.9812508, "tags": {"amenity": "restaurant", "cuisine": "chinese", "name": "Lanzhou Beef Noodles", "takeaway": "yes"}}, {"type": "node", "id": 5265743035, "lat": 40.741373, "lon": -73.9810484, "tags": {"addr:housenumber": "375", "addr:postcode": "10016", "addr:street": "3rd Avenue", "amenity": "restaurant", "bar": "yes", "cocktails": "yes", "cuisine": "american", "drink:beer": "draught", "drink:liquor": "yes", "drink:wine": "yes", "name": "The Gem Saloon", "opening_hours": "Mo-Th 11:00-02:00; Fr-Sa 11:00-04:00; Su 11:00-02:00", "opening_hours:kitchen": "Mo-Su 11:00-23:00", "phone": "+1-646-612-7757", "website": "https://thegemsaloonnyc.com"}}, {"type": "node", "id": 5265743423, "lat": 40.7422058, "lon": -73.9809161, "tags": {"amenity": "restaurant", "cuisine": "sushi;asian", "delivery": "yes", "name": "Blue Mountain", "opening_hours": "Mo-Th 11:00-22:00; Fr-Sa 11:00-23:00; Su 12:00-21:00", "phone": "+1-212-679-9888", "takeaway": "yes", "website": "https://www.bluemountain888.com"}}, {"type": "node", "id": 5434089022, "lat": 40.7424934, "lon": -73.984422, "tags": {"addr:street": "Park Avenue South", "amenity": "restaurant", "name": "Sarabeth's", "phone": "+1 212 335 0093", "website": "https://sarabethsrestaurants.com/locations/park-avenue-south/"}}, {"type": "node", "id": 5539498695, "lat": 40.7446434, "lon": -73.9876968, "tags": {"addr:city": "New York", "addr:housenumber": "244", "addr:postcode": "10001", "addr:state": "NY", "addr:street": "5th Avenue", "addr:unit": "2307", "name": "In Order to Succeed", "office": "moving_company", "opening_hours": "Mo-Su 07:00-20:00", "phone": "+1-212-721-2222", "website": "https://inordertosucceed.com/"}}, {"type": "node", "id": 5590322294, "lat": 40.7446896, "lon": -73.9849333, "tags": {"addr:housenumber": "99", "addr:street": "Madison Avenue", "level": "15", "name": "ThoughtWorks", "office": "it", "opening_hours": "Mo-Fr 09:00-17:00", "phone": "+1-646-412-5200", "website": "https://www.thoughtworks.com/"}}, {"type": "node", "id": 5590346824, "lat": 40.744893, "lon": -73.9853026, "tags": {"addr:housenumber": "102", "addr:street": "Madison Avenue", "level": "7", "name": "Mondo", "office": "employment_agency", "opening_hours": "Mo-Fr 07:00-19:00", "phone": "+1-212-257-5111", "website": "https://www.mondo.com/"}}, {"type": "node", "id": 5590865478, "lat": 40.7450047, "lon": -73.9847089, "tags": {"addr:housenumber": "105", "addr:street": "Madison Avenue", "name": "Prosek", "office": "company", "opening_hours": "Mo-Fr 08:30-17:30", "phone": "+1-212-279-3115", "website": "https://www.prosek.com/"}}, {"type": "node", "id": 5737544261, "lat": 40.7446279, "lon": -73.9876826, "tags": {"addr:city": "New York", "addr:housenumber": "244", "addr:postcode": "10001", "addr:state": "NY", "addr:street": "5th Avenue", "addr:unit": "2778", "email": "Info@corpwellness.org", "name": "Corporate Wellness solutions", "office": "company", "phone": "+1-212-537-4421", "website": "https://www.corpwellness.org/"}}, {"type": "node", "id": 5821296207, "lat": 40.7453041, "lon": -73.9813538}, {"type": "node", "id": 5835370878, "lat": 40.7443756, "lon": -73.9843295, "tags": {"addr:housenumber": "37E", "addr:postcode": "10016", "addr:street": "East 29th Street", "amenity": "pub", "name": "Wolfe Tone's"}}, {"type": "node", "id": 5965557138, "lat": 40.7427952, "lon": -73.9833003, "tags": {"addr:city": "New York", "addr:housenumber": "118", "addr:postcode": "10016", "addr:state": "NY", "addr:street": "East 28th Street", "addr:unit": "#401", "name": "MYN North America", "office": "marketing", "phone": "+1-212-675-6582", "website": "https://www.mynnorthamerica.com/"}}, {"type": "node", "id": 6168816885, "lat": 40.7418061, "lon": -73.9846404, "tags": {"addr:housenumber": "345", "addr:street": "Park Avenue South", "amenity": "restaurant", "name": "Upland"}}, {"type": "node", "id": 6210354194, "lat": 40.7424367, "lon": -73.9887211}, {"type": "node", "id": 6243560187, "lat": 40.7427025, "lon": -73.988596}, {"type": "node", "id": 6301117347, "lat": 40.7446318, "lon": -73.9877638, "tags": {"addr:city": "New York", "addr:housenumber": "244", "addr:postcode": "10001", "addr:state": "NY", "addr:street": "5th Avenue", "addr:unit": "2642", "name": "Beluga Labs", "office": "it", "opening_hours": "Mo-Fr 09:00-18:00", "phone": "+1-855-823-5842", "website": "https://belugalab.com"}}, {"type": "node", "id": 6356581985, "lat": 40.7442489, "lon": -73.9831707, "tags": {"amenity": "restaurant", "name": "Kame Ramen"}}, {"type": "node", "id": 6412243456, "lat": 40.741893, "lon": -73.9822385, "tags": {"name": "EZ Courier", "office": "company"}}, {"type": "node", "id": 6412273637, "lat": 40.7422489, "lon": -73.9831597, "tags": {"addr:city": "New York", "addr:housenumber": "100", "addr:postcode": "10016", "addr:state": "NY", "addr:street": "Lexington Avenue", "amenity": "cafe", "drink:coffee": "yes", "drink:espresso": "yes", "drink:tea": "yes", "email": "info@blackpresscoffee.com", "name": "Black Press Coffee", "opening_hours": "Mo-Fr 07:00-18:00; Sa-Su 08:00-18:00", "website": "https://blackpresscoffee.com"}}, {"type": "node", "id": 6412293526, "lat": 40.7409361, "lon": -73.981374, "tags": {"addr:city": "New York", "addr:housenumber": "365", "addr:postcode": "10016", "addr:state": "NY", "addr:street": "3rd Avenue", "amenity": "restaurant", "cocktails": "yes", "cuisine": "italian", "delivery": "yes", "diet:kosher": "yes", "diet:vegan": "yes", "diet:vegetarian": "yes", "drink:beer": "draught", "drink:liquor": "yes", "drink:wine": "yes", "name": "Coletta Italian Vegan Restaurant", "opening_hours": "Mo-Th 16:30-22:30; Fr 16:30-23:30; Sa 11:30-23:30; Su 11:30-22:30", "phone": "+1-646-861-2889", "takeaway": "yes", "website": "https://www.colettanyc.com", "website:menu": "https://www.colettanyc.com/menu/", "wikidata": "Q136351737"}}, {"type": "node", "id": 6461971851, "lat": 40.7438954, "lon": -73.9850741, "tags": {"addr:housenumber": "27", "addr:postcode": "10016", "addr:street": "East 28th Street", "brand": "WeWork", "brand:wikidata": "Q19995004", "fee": "yes", "name": "WeWork", "office": "coworking"}}, {"type": "node", "id": 6461990216, "lat": 40.7443072, "lon": -73.9861386, "tags": {"addr:housenumber": "15", "addr:postcode": "10016", "addr:street": "East 28th Street", "amenity": "cafe", "cuisine": "breakfast;sandwich;coffee_shop", "drink:beer": "bottled", "drink:coffee": "yes", "drink:espresso": "yes", "drink:wine": "yes", "name": "Bourke Street Bakery", "opening_hours": "Mo-Su 07:00-20:00", "shop": "bakery"}}, {"type": "node", "id": 6462874433, "lat": 40.7438416, "lon": -73.9849909, "tags": {"amenity": "restaurant", "bar": "yes", "cocktails": "yes", "cuisine": "chinese;japanese", "delivery": "yes", "drink:beer": "yes", "drink:liquor": "yes", "drink:wine": "yes", "fax": "+1-212-685-1520", "happy_hours": "Mo-Th 16:00-20:00; Fr 16:00-21:00", "name": "Chef 28", "opening_hours": "Mo-Fr 11:30-22:30; Su 12:00-22:30", "phone": "+1-212-685-8871", "takeaway": "yes", "website": "https://www.chef28.com"}}, {"type": "node", "id": 6495270312, "lat": 40.7415111, "lon": -73.9809588, "tags": {"alt_name": "Dynasty Dim Sum", "amenity": "restaurant", "cuisine": "asian", "drink:beer": "yes", "drink:sake": "yes", "name": "Flame Hibachi"}}, {"type": "node", "id": 6495340586, "lat": 40.7428983, "lon": -73.9827962, "tags": {"amenity": "restaurant", "cocktails": "yes", "cuisine": "asian;indian", "drink:beer": "yes", "name": "Wok in the Clouds", "opening_hours": "Mo-Su 11:30-23:30", "phone": "+1-212-784-6494", "website": "https://wokitc.com"}}, {"type": "node", "id": 6680695929, "lat": 40.7422764, "lon": -73.9829114, "tags": {"addr:housenumber": "104", "addr:street": "Lexington Avenue", "amenity": "restaurant", "cuisine": "indian", "name": "Sahib Indian Cuisine"}}, {"type": "node", "id": 6691756268, "lat": 40.7409894, "lon": -73.9821052, "tags": {"addr:housenumber": "155", "addr:postcode": "10016", "addr:street": "East 26th Street", "level": "-1", "name": "Calta Tax", "office": "tax_advisor", "phone": "+1-212-689-6053", "service:notary": "yes"}}, {"type": "node", "id": 6691756269, "lat": 40.7409799, "lon": -73.9820828, "tags": {"addr:housenumber": "155", "addr:postcode": "10016", "addr:street": "East 26th Street", "level": "-1", "name": "Stephen A. Strauss, Esq.", "office": "lawyer", "phone": "+1-212-689-6053"}}, {"type": "node", "id": 6691756270, "lat": 40.7410254, "lon": -73.9821903, "tags": {"addr:housenumber": "155", "addr:postcode": "10016", "addr:street": "East 26th Street", "level": "1", "name": "Tri-Star Equities", "office": "estate_agent", "phone": "+1-212-751-4800"}}, {"type": "node", "id": 6737170078, "lat": 40.7423508, "lon": -73.9842674, "tags": {"name": "Twenty", "office": "company"}}, {"type": "node", "id": 6807878874, "lat": 40.7448906, "lon": -73.9836804, "tags": {"addr:housenumber": "43", "addr:street": "East 30th Street", "amenity": "restaurant", "cocktails": "yes", "contact:email": "masonjarnyc@gmail.com", "contact:facebook": "https://www.facebook.com/MasonJarNY/", "contact:instagram": "https://www.instagram.com/masonjarnyc/", "contact:twitter": "https://www.twitter.com/MasonJarNYC", "cuisine": "barbecue", "drink:beer": "yes", "name": "The Mason Jar", "opening_hours": "We 11:30-01:00; Th-Sa 11:30-02:00; Mo, Tu, Su 11:30-00:00", "phone": "+1 212-213-3587", "reservation": "yes", "website": "https://masonjarny.com/"}}, {"type": "node", "id": 6834261087, "lat": 40.7423414, "lon": -73.984547, "tags": {"amenity": "bar", "check_date": "2025-06-15", "name": "John Devon's"}}, {"type": "node", "id": 7036473776, "lat": 40.7417705, "lon": -73.9812603, "tags": {"amenity": "restaurant", "bar": "yes", "cocktails": "yes", "cuisine": "american;brunch", "drink:beer": "draught", "drink:liquor": "yes", "drink:wine": "yes", "happy_hours": "Mo-Fr 16:00-19:00", "name": "Tara Rose", "opening_hours": "Mo-Su 11:00-04:00", "opening_hours:kitchen": "Mo-Th 11:00-23:00; Fr-Sa 11:00-24:00; Su 11:00-23:00", "phone": "+1-347-265-6855", "website": "https://tararosenyc.com", "wheelchair": "yes"}}, {"type": "node", "id": 7045713638, "lat": 40.7441961, "lon": -73.9832046, "tags": {"amenity": "bar", "cocktails": "yes", "drink:beer": "draught", "drink:liquor": "yes", "drink:wine": "yes", "name": "Desmond's Tavern", "toilets": "yes", "toilets:unisex": "no"}}, {"type": "node", "id": 7112758739, "lat": 40.7408703, "lon": -73.9814116, "tags": {"alt_name": "Five Spice", "amenity": "restaurant", "cocktails": "yes", "cuisine": "vietnamese", "drink:beer": "yes", "drink:liquor": "yes", "drink:wine": "yes", "name": "5ive Spice", "phone": "+1-212-918-8128"}}, {"type": "node", "id": 7360048859, "lat": 40.7404201, "lon": -73.9859376, "tags": {"addr:housenumber": "303", "addr:postcode": "10010", "addr:street": "Park Avenue South", "amenity": "cafe", "brand": "Paris Baguette", "brand:wikidata": "Q62605260", "cuisine": "coffee_shop;french;bakery", "name": "Paris Baguette", "opening_hours": "Mo-Su 06:00-21:00", "shop": "bakery"}}, {"type": "node", "id": 7362789427, "lat": 40.7408801, "lon": -73.9855827, "tags": {"addr:city": "New York", "addr:housenumber": "325", "addr:postcode": "10010", "addr:state": "NY", "addr:street": "Park Avenue South", "amenity": "restaurant", "brand": "CAVA", "brand:wikidata": "Q85751038", "cuisine": "mediterranean", "name": "CAVA", "phone": "+1-718-360-1815", "takeaway": "yes", "website": "https://cava.com/locations/filter/tag/ny"}}, {"type": "node", "id": 7596986631, "lat": 40.7436985, "lon": -73.9845074, "tags": {"addr:city": "New York", "addr:housenumber": "43", "addr:postcode": "10016", "addr:state": "NY", "addr:street": "East 28th Street", "amenity": "restaurant", "cuisine": "korean", "email": "info@atoboynyc.com", "name": "Atoboy", "opening_hours": "17:00-21:00; Fr,Sa 17:00-22:00", "phone": "+1-646-476-7217", "website": "https://www.atoboynyc.com/"}}, {"type": "node", "id": 7678152126, "lat": 40.7406022, "lon": -73.9877902, "tags": {"addr:city": "New York", "addr:housenumber": "28", "addr:postcode": "10010", "addr:street": "East 23rd Street", "amenity": "restaurant", "cuisine": "cuban", "name": "Sophie's Cuban Cuisine", "opening_hours": "Mo-Fr 10:00-20:00", "phone": "+1-212-260-8884", "website": "https://www.sophiescuban.com/location/23rd-street/"}}, {"type": "node", "id": 8255733883, "lat": 40.7431387, "lon": -73.9871489, "tags": {"addr:city": "New York", "addr:housenumber": "19", "addr:postcode": "10010", "addr:state": "NY", "addr:street": "East 26th Street", "email": "jelliott@heavenlyharvst.org", "name": "Heavenly Harvst Foundation", "office": "association", "opening_hours": "Mo-Fr 09:00-17:00", "phone": "+1-646-448-0965", "website": "https://heavenlyharvst.org/"}}, {"type": "node", "id": 8268699406, "lat": 40.7414177, "lon": -73.9890108, "tags": {"barrier": "kerb", "kerb": "lowered"}}, {"type": "node", "id": 8268699407, "lat": 40.7414649, "lon": -73.9890345, "tags": {"barrier": "kerb", "kerb": "lowered"}}, {"type": "node", "id": 8268699408, "lat": 40.7417664, "lon": -73.988958, "tags": {"barrier": "kerb", "kerb": "lowered", "tactile_paving": "yes"}}, {"type": "node", "id": 8268734921, "lat": 40.7428499, "lon": -73.9885165, "tags": {"barrier": "kerb", "kerb": "lowered", "tactile_paving": "yes"}}, {"type": "node", "id": 8268734923, "lat": 40.7429173, "lon": -73.988475}, {"type": "node", "id": 8268734924, "lat": 40.74101, "lon": -73.9880426, "tags": {"barrier": "kerb", "kerb": "lowered", "tactile_paving": "yes"}}, {"type": "node", "id": 8268734939, "lat": 40.7410339, "lon": -73.9879619}, {"type": "node", "id": 8455829693, "lat": 40.7452485, "lon": -73.9822953, "tags": {"addr:city": "New York", "addr:housenumber": "424", "addr:postcode": "10016", "addr:state": "NY", "addr:street": "Park Avenue South", "amenity": "cafe", "branch": "29th & Park", "brand": "Starbucks", "brand:wikidata": "Q37158", "cuisine": "coffee_shop", "name": "Starbucks", "official_name": "Starbucks Coffee", "phone": "+1 212-725-0637", "ref": "16206", "takeaway": "yes", "website": "https://www.starbucks.com/store-locator/store/16206/29th-park-424-park-avenue-south-new-york-ny-100168022-us"}}, {"type": "node", "id": 8482948063, "lat": 40.743599, "lon": -73.9819737, "tags": {"addr:city": "New York", "addr:housenumber": "148", "addr:postcode": "10016", "addr:street": "Lexington Avenue", "name": "Cardoza Law", "office": "lawyer", "operator": "Yeshiva University"}}, {"type": "node", "id": 8838037168, "lat": 40.7445997, "lon": -73.9876982, "tags": {"addr:city": "New York", "addr:country": "US", "addr:housenumber": "244", "addr:postcode": "10001-7604", "addr:state": "NY", "addr:street": "5th Avenue", "addr:unit": "2111", "name": "IGRP Inc.", "office": "company", "website": "https://www.insigniagrp.com/"}}, {"type": "node", "id": 9188375882, "lat": 40.7406512, "lon": -73.9820636, "tags": {"amenity": "restaurant", "cuisine": "chinese", "diet:halal": "yes", "name": "Beef Up Noodle", "opening_hours": "Mo-Th 11:30-21:00, Fr-Sa 11:00-21:00, Su 11:30-21:00", "wheelchair": "yes"}}, {"type": "node", "id": 9491020917, "lat": 40.7454468, "lon": -73.9865063, "tags": {"amenity": "restaurant", "cuisine": "asian", "name": "Hortus NYC"}}, {"type": "node", "id": 9807347129, "lat": 40.740969, "lon": -73.9818247, "tags": {"amenity": "pub", "cocktails": "yes", "cuisine": "pub", "drink:beer": "draught", "drink:liquor": "yes", "drink:wine": "yes", "name": "Sundays Well", "opening_hours": "Mo-Fr 15:00-02:00; Sa-Su 12:00-04:00", "outdoor_seating": "garden;street", "phone": "+1-646-707-3190", "website": "https://www.sundayswellnyc.com", "wheelchair": "no"}}, {"type": "node", "id": 9882448221, "lat": 40.7430473, "lon": -73.9870659, "tags": {"addr:city": "New York", "addr:housenumber": "19", "addr:postcode": "10010", "addr:state": "NY", "addr:street": "East 26th Street", "amenity": "restaurant", "cuisine": "american", "email": "info@blackbarnrestaurant.com", "name": "BLACKBARN Restaurant", "opening_hours": "Mo-Sa 11:30-21:30; Su 11:00-15:00", "phone": "+1 212-265-5959", "website": "https://blackbarnrestaurant.com/"}}, {"type": "node", "id": 9910687143, "lat": 40.7446943, "lon": -73.9862588, "tags": {"entrance": "yes"}}, {"type": "node", "id": 9910687165, "lat": 40.7446444, "lon": -73.9861381, "tags": {"entrance": "yes"}}, {"type": "node", "id": 10179045297, "lat": 40.7410133, "lon": -73.9879858, "tags": {"barrier": "kerb", "kerb": "lowered", "tactile_paving": "yes"}}, {"type": "node", "id": 10179045314, "lat": 40.7410064, "lon": -73.9880035}, {"type": "node", "id": 10179045315, "lat": 40.7410051, "lon": -73.9880223}, {"type": "node", "id": 10179045316, "lat": 40.7414471, "lon": -73.9890365}, {"type": "node", "id": 10179045317, "lat": 40.7414242, "lon": -73.9890232}, {"type": "node", "id": 10179045318, "lat": 40.7414343, "lon": -73.9890344}, {"type": "node", "id": 10179045334, "lat": 40.7419324, "lon": -73.9889115}, {"type": "node", "id": 10179045355, "lat": 40.7420299, "lon": -73.9888805}, {"type": "node", "id": 10179045356, "lat": 40.7421768, "lon": -73.9888308}, {"type": "node", "id": 10179045357, "lat": 40.742337, "lon": -73.9887659}, {"type": "node", "id": 10179045358, "lat": 40.742542, "lon": -73.9886727}, {"type": "node", "id": 10179045359, "lat": 40.7427727, "lon": -73.9885603}, {"type": "node", "id": 10179045361, "lat": 40.7427208, "lon": -73.9885867, "tags": {"barrier": "kerb", "kerb": "lowered", "tactile_paving": "no"}}, {"type": "node", "id": 10179045362, "lat": 40.7432908, "lon": -73.9882028}, {"type": "node", "id": 10179045363, "lat": 40.7433516, "lon": -73.9881608}, {"type": "node", "id": 10179045364, "lat": 40.7433607, "lon": -73.9881503}, {"type": "node", "id": 10179045365, "lat": 40.7433676, "lon": -73.9881347}, {"type": "node", "id": 10179045366, "lat": 40.7433684, "lon": -73.9881153, "tags": {"barrier": "kerb", "kerb": "lowered", "tactile_paving": "no"}}, {"type": "node", "id": 10179045367, "lat": 40.7433642, "lon": -73.9880974}, {"type": "node", "id": 10179045372, "lat": 40.742794, "lon": -73.9867424}, {"type": "node", "id": 10179045373, "lat": 40.7427872, "lon": -73.9867274, "tags": {"barrier": "kerb", "kerb": "lowered", "tactile_paving": "yes"}}, {"type": "node", "id": 10179045374, "lat": 40.742779, "lon": -73.9867146}, {"type": "node", "id": 10179045375, "lat": 40.74276, "lon": -73.9867083}, {"type": "node", "id": 10179045376, "lat": 40.7427695, "lon": -73.9867075}, {"type": "node", "id": 10179045657, "lat": 40.7433572, "lon": -73.9881543, "tags": {"barrier": "kerb", "kerb": "lowered", "tactile_paving": "no"}}, {"type": "node", "id": 10179045675, "lat": 40.7422292, "lon": -73.9870917, "tags": {"barrier": "kerb", "kerb": "lowered", "tactile_paving": "yes"}}, {"type": "node", "id": 10179045679, "lat": 40.7421334, "lon": -73.9871614, "tags": {"barrier": "kerb", "kerb": "lowered", "tactile_paving": "yes"}}, {"type": "node", "id": 10179045690, "lat": 40.7415361, "lon": -73.9875963, "tags": {"barrier": "kerb", "kerb": "lowered", "tactile_paving": "yes"}}, {"type": "node", "id": 10179045691, "lat": 40.7416233, "lon": -73.9875329, "tags": {"barrier": "kerb", "kerb": "lowered", "tactile_paving": "yes"}}, {"type": "node", "id": 10592171291, "lat": 40.7404973, "lon": -73.9816996, "tags": {"addr:city": "New York", "addr:housenumber": "351", "addr:postcode": "10010", "addr:state": "NY", "addr:street": "3rd Avenue", "amenity": "cafe", "brand": "Matto Espresso", "brand:wikidata": "Q122209496", "cuisine": "coffee_shop", "drink:coffee": "yes", "drink:espresso": "yes", "indoor_seating": "no", "name": "Matto Espresso", "outdoor_seating": "yes", "takeaway": "yes", "website": "https://www.matto.com"}}, {"type": "node", "id": 10650625205, "lat": 40.7457045, "lon": -73.985371, "tags": {"addr:city": "New York", "addr:housenumber": "13", "addr:postcode": "10016", "addr:state": "NY", "addr:street": "East 30th Street", "amenity": "restaurant", "contact:instagram": "okdongsik", "cuisine": "korean", "email": "okdongsik@handhospitality.com", "level": "1", "name": "Okdongsik", "opening_hours": "Mo off; Tu-Su 11:00-14:30,17:00-21:00", "phone": "+1-929-237-8164", "reservation": "yes", "start_date": "2022-11", "website": "https://www.handhospitality.com/okdongsik", "website:booking": "https://resy.com/cities/ny/okdongsik"}}, {"type": "node", "id": 10758327784, "lat": 40.7428026, "lon": -73.9841476, "tags": {"addr:city": "New York", "addr:floor": "2", "addr:housenumber": "387", "addr:postcode": "10016", "addr:state": "NY", "addr:street": "Park Avenue South", "level": "1", "name": "SVB Financial Group", "name:etymology": "Silicon Valley Bank", "name:etymology:wikidata": "Q17112054", "office": "financial", "short_name": "SVB", "website": "https://www.svb.com/global", "wikidata": "Q111839764", "wikipedia": "en:SVB Financial Group"}}, {"type": "node", "id": 10797237705, "lat": 40.7449381, "lon": -73.9831337, "tags": {"addr:city": "New York", "addr:housenumber": "450", "addr:postcode": "10016", "addr:state": "NY", "addr:street": "Park Avenue South", "amenity": "cafe", "branch": "Nomad NYC", "cuisine": "coffee_shop", "cutting": "breakfast;sandwich", "drink:beer": "yes", "drink:coffee": "yes", "drink:espresso": "yes", "drink:tea": "yes", "drink:wine": "yes", "name": "Felix Roasting Co.", "opening_hours": "Mo-Su 08:00-17:00", "start_date": "2018", "website": "https://felixroastingco.com/"}}, {"type": "node", "id": 11045292805, "lat": 40.7405187, "lon": -73.9821654, "tags": {"amenity": "bar", "cuisine": "american", "name": "Common Country", "theme": "country & western", "website": "https://www.commoncountrybar.com", "wheelchair": "yes"}}, {"type": "node", "id": 11100292928, "lat": 40.7424481, "lon": -73.98357, "tags": {"addr:housenumber": "121", "addr:postcode": "10016", "addr:street": "East 27th Street", "amenity": "bar", "cocktails": "yes", "cuisine": "snack", "drink:beer": "draught", "drink:liquor": "yes", "drink:wine": "yes", "name": "J. Bespoke", "phone": "+1-212-213-2931", "website": "https://www.jbespoke.com"}}, {"type": "node", "id": 11117676696, "lat": 40.7417156, "lon": -73.9824433, "tags": {"amenity": "pub", "cocktails": "yes", "cuisine": "pub", "drink:beer": "draught", "drink:liquor": "yes", "happy_hours": "Mo-Fr 16:00-19:00", "name": "Jack Diamond's", "outdoor_seating": "sidewalk"}}, {"type": "node", "id": 11117676697, "lat": 40.7431237, "lon": -73.9823387, "tags": {"name": "Law Offices of Morris Tuchman", "office": "lawyer"}}, {"type": "node", "id": 11308445380, "lat": 40.7436376, "lon": -73.9844334, "tags": {"addr:city": "New York", "addr:housenumber": "45", "addr:postcode": "10016", "addr:state": "NY", "addr:street": "East 28th Street", "amenity": "bar", "name": "The Churchill Tavern", "opening_hours": "Mo-Su 11:30-04:00", "website": "https://thechurchillny.com"}}, {"type": "node", "id": 11750775768, "lat": 40.7434654, "lon": -73.9820481, "tags": {"addr:housenumber": "142", "addr:postcode": "10016", "addr:street": "Lexington Avenue", "name": "Ravi Batra Law Firm", "office": "lawyer", "phone": "+1-212-545-1993"}}, {"type": "node", "id": 11751648251, "lat": 40.7449876, "lon": -73.9813167}, {"type": "node", "id": 11751648252, "lat": 40.7452969, "lon": -73.9813176}, {"type": "node", "id": 11751648253, "lat": 40.7452907, "lon": -73.9813223}, {"type": "node", "id": 11751648254, "lat": 40.7452359, "lon": -73.9811742}, {"type": "node", "id": 11751648255, "lat": 40.7452297, "lon": -73.9811788}, {"type": "node", "id": 11751648256, "lat": 40.7452163, "lon": -73.9811473}, {"type": "node", "id": 11990405945, "lat": 40.7438235, "lon": -73.9860292, "tags": {"addr:housenumber": "72", "addr:street": "Madison Avenue", "amenity": "restaurant", "contact:email": "pete@roccosteakhouse.com", "contact:facebook": "RoccoSteakhouse", "contact:instagram": "roccosteakhouse", "contact:twitter": "roccosteakhouse", "cuisine": "steak", "name": "Rocco Steakhouse", "opening_hours": "Mo-Th 12:00-22:30; Fr 12:00-23:00; Sa 11:00-23:00; Su 11:00-22:00", "phone": "+1 212-696-9660", "website": "https://roccosteakhouse.com/"}}, {"type": "node", "id": 11993608158, "lat": 40.7451031, "lon": -73.9810513, "tags": {"addr:city": "New York", "addr:country": "US", "addr:housenumber": "192", "addr:postcode": "10016", "addr:state": "NY", "addr:street": "Lexington Avenue", "addr:unit": "1004", "contact:email": "casting@donaldcasecasting.com", "contact:facebook": "Donald-Case-Casting-222390384490076", "contact:fax": "+1 212 889-4074", "contact:phone": "+1 212 889-6555", "contact:website": "https://donaldcasecasting.com", "name": "Donald Case Casting", "office": "company", "opening_hours": "Mo-Fr 09:00-18:00", "payment:american_express": "yes", "payment:cheque": "yes", "payment:discover_card": "yes", "payment:mastercard": "yes", "payment:visa": "yes"}}, {"type": "node", "id": 12470628921, "lat": 40.7448189, "lon": -73.9821539, "tags": {"alt_name": "Sahola Flowers and Coffee", "amenity": "cafe", "cuisine": "coffee_shop;sandwich", "drink:coffee": "yes", "drink:espresso": "yes", "drink:tea": "yes", "name": "Sahola Cofee Shop", "opening_hours": "Mo-Th 08:00-17:00, Fr 08:00-18:00, Sa-Su 09:00-18:00", "short_name": "Sahola Flower Cafe", "website": "https://saholaflowers.com/flower-cafe/"}}, {"type": "node", "id": 12470628924, "lat": 40.7446861, "lon": -73.9818352, "tags": {"alt_name": "\u00c7ka Ka Q\u00ebllu", "amenity": "restaurant", "branch": "New York", "cocktails": "yes", "cuisine": "albanian", "drink:beer": "yes", "drink:liquor": "yes", "drink:wine": "yes", "name": "\u00c7ka ka Qellue", "opening_hours": "Mo-Su 12:00-23:00", "phone": "+1-212-213-2082", "website": "https://ckakaqellue.com"}}, {"type": "node", "id": 12605006616, "lat": 40.7406713, "lon": -73.9837409}, {"type": "node", "id": 12605006617, "lat": 40.7401948, "lon": -73.9840864}, {"type": "node", "id": 12605006618, "lat": 40.7418043, "lon": -73.9858555, "tags": {"addr:housenumber": "55", "addr:postcode": "10010", "addr:street": "East 25th Street", "amenity": "school", "grades": "9-12", "mascot": "Blue Devils", "name": "Baruch College Campus High School"}}, {"type": "node", "id": 12684331061, "lat": 40.7440307, "lon": -73.985331, "tags": {"addr:city": "New York", "addr:housenumber": "79", "addr:postcode": "10016", "addr:state": "NY", "addr:street": "Madison Avenue", "name": "Ottinger Employment Lawyers", "office": "lawyer", "opening_hours": "Mo-Fr 09:00-18:00", "phone": "+1-347-492-1904", "phone:US": "+1-866-866-0148", "start_date": "1999-01-01", "website": "https://www.ottingerlaw.com/"}}, {"type": "node", "id": 12917344529, "lat": 40.7446681, "lon": -73.9877567, "tags": {"addr:city": "New York", "addr:housenumber": "244", "addr:postcode": "10001", "addr:state": "NY", "addr:street": "5th Avenue", "contact:facebook": "61571414856900", "contact:linkedin": "hiltzik-cpa", "contact:phone": "+1-212-729-3938", "contact:pinterest": "hiltzikcpa", "contact:website": "https://hiltzikcpa.com/", "contact:yelp": "hiltzik-cpa-new-york", "contact:youtube": "hiltzikcpa", "name": "Hiltzik CPA", "office": "accountant"}}, {"type": "node", "id": 12918215844, "lat": 40.7421518, "lon": -73.9846598, "tags": {"amenity": "restaurant", "check_date": "2025-06-15", "name": "Audace"}}, {"type": "node", "id": 12918215850, "lat": 40.7434273, "lon": -73.9837129, "tags": {"amenity": "cafe", "check_date": "2025-06-15", "cuisine": "coffee_shop", "name": "Le caf\u00e9"}}, {"type": "node", "id": 13043042758, "lat": 40.7434574, "lon": -73.9846977, "tags": {"addr:housenumber": "44", "addr:postcode": "10016", "addr:street": "East 28th Street", "amenity": "restaurant", "bar": "yes", "branch": "Nomad", "cocktails": "yes", "cuisine": "italian", "delivery": "yes", "drink:beer": "yes", "drink:espresso": "yes", "drink:wine": "yes", "happy_hours": "Mo-Sa 17:00-19:00", "name": "Tarallucci e Vino", "opening_hours": "Mo-Th 17:00-22:30, Fr-Sa 17:00-23:00", "outdoor_seating": "yes", "phone": "+1-212-779-1100", "takeaway": "yes", "website": "https://www.taralluccievino.net/nomad"}}, {"type": "node", "id": 13124035507, "lat": 40.7418865, "lon": -73.9811721, "tags": {"addr:housenumber": "388", "addr:street": "3rd Avenue", "amenity": "restaurant", "check_date": "2025-09-06", "diet:vegan": "yes", "diet:vegetarian": "yes", "email": "info@candlecafe.nyc", "name": "Candle", "opening_hours": "Mo-Sa 11:00-10:30; Su 11:00-21:30", "phone": "+1-929-280-1445", "website": "https://candlecafe.nyc"}}, {"type": "way", "id": 22899286, "nodes": [8268734924, 8268699406, 10179045317, 10179045318, 10179045316, 8268699407, 246525111, 8268699408, 10179045334, 10179045355, 10179045356, 10179045357, 6210354194, 10179045358, 6243560187, 10179045361, 10179045359, 8268734921, 8268734923, 10179045362, 10179045363, 10179045657, 10179045364, 10179045365, 10179045366, 10179045367, 3019038940, 10179045372, 10179045373, 10179045374, 10179045376, 10179045375, 246525115, 10179045675, 10179045679, 10179045691, 10179045690, 8268734939, 10179045297, 10179045314, 10179045315, 8268734924], "tags": {"addr:city": "New York", "addr:housenumber": "11", "addr:postcode": "10010", "addr:state": "NY", "addr:street": "Madison Avenue", "leisure": "park", "name": "Madison Square Park", "name:en": "Madison Square Park", "name:etymology:wikidata": "Q11813", "name:ru": "\u041c\u044d\u0434\u0438\u0441\u043e\u043d-\u0441\u043a\u0432\u0435\u0440", "name:zh": "\u9ea6\u8fea\u900a\u5e7f\u573a\u516c\u56ed", "opening_hours": "06:00-23:00", "operator": "New York City Department of Parks and Recreation", "operator:short": "NYC Parks", "operator:type": "government", "operator:wikidata": "Q1894232", "phone": "+1-212-520-7600", "website": "https://madisonsquarepark.org/", "wikidata": "Q110000", "wikipedia": "en:Madison Square and Madison Square Park"}}, {"type": "way", "id": 265040081, "nodes": [2706918539, 2706918543, 2706918561, 2706918556, 2706918539], "tags": {"addr:city": "New York", "addr:country": "US", "addr:housenumber": "35", "addr:postcode": "10016", "addr:state": "NY", "addr:street": "East 29th Street", "alt_name": "UN Mission Moldova", "building": "yes", "country": "MD", "diplomatic": "embassy", "email": "unmoldova@mfa.gov.md", "embassy": "mission", "fax": "+1-212-447-4067", "height": "16.8", "name": "Permanent Mission of Moldova to the United Nations", "nycdoitt:bin": "1016930", "office": "diplomatic", "official_name": "Permanent Mission of the Republic of Moldova to the United Nations", "phone": "+1-212-447-1867", "target": "UN", "website": "https://rponuny.mfa.gov.md"}}, {"type": "way", "id": 265042463, "nodes": [2706939961, 2706939988, 1709979773, 2706940001, 2706939976, 2706939961], "tags": {"addr:city": "New York", "addr:housenumber": "110", "addr:postcode": "10016", "addr:state": "NY", "addr:street": "Madison Avenue", "amenity": "restaurant", "building": "yes", "building:colour": "#E1E7EB", "building:levels": "17", "building:material": "brick", "cuisine": "korean", "height": "46", "name": "on", "nycdoitt:bin": "1016940", "opening_hours": "12:00-14:15,18:00-23:00", "phone": "+1-917-261-4326", "roof:material": "concrete", "roof:shape": "flat", "website": "https://www.onnewyork.net/"}}, {"type": "way", "id": 395678163, "nodes": [2706939903, 2706939893, 2706939900, 2706939899, 3985008886, 2706939914, 2706939918, 2706939912, 2706939911, 9910687165, 2706939919, 2706939915, 2706939922, 2706939924, 9910687143, 2706939928, 2706939931, 2706939939, 2706939942, 2706939937, 3985008887, 2706939921, 2706939903], "tags": {"access": "private", "leisure": "park", "opening_hours": "Mo-Su 08:00-sunset"}}, {"type": "way", "id": 615618932, "nodes": [11751648252, 11751648254, 11751648255, 11751648256, 2709336290, 11751648251, 2709336333, 5821296207, 11751648253, 11751648252], "tags": {"addr:housenumber": "122", "addr:postcode": "10016", "addr:street": "East 32nd Street", "alt_name": "Korean Cultural Center New York", "amenity": "arts_centre", "building": "yes", "fixme": "tagged temporary BIN 1802251, check back for permanent BIN", "height": "36.6", "name": "Korean Cultural Center NY", "nycdoitt:bin": "1802251", "office": "diplomatic", "phone": "+1-212-759-9550", "short_name": "KCCNY", "website": "https://www.koreanculture.org"}}, {"type": "way", "id": 1361522899, "nodes": [2704104386, 2704104390, 12605006616, 2704104412, 2704104396, 12605006617, 2704104380, 2704104320, 4135326824, 4135326825, 2704104382, 4135326864, 4135326866, 2704104386]}, {"type": "way", "id": 1361522900, "nodes": [2704104415, 2704104440, 2704104463, 2704104461, 2704104436, 2704104413, 2704104406, 2704104415]}, {"type": "relation", "id": 18732725, "members": [{"type": "way", "ref": 1361522900, "role": "outer"}, {"type": "way", "ref": 1361522899, "role": "outer"}], "tags": {"amenity": "university", "ele": "9", "gnis:feature_id": "2083083", "mascot": "Bearcats", "name": "Baruch College", "operator": "Baruch College", "type": "multipolygon"}}]}