{"version": 0.6, "generator": "Overpass API 0.7.62.8 e802775f", "osm3s": {"timestamp_osm_base": "2025-12-01T15:58:12Z", "copyright": "The data included in this document is from www.openstreetmap.org. The data is made available under ODbL."}, "elements": [{"type": "node", "id": 2065796583, "lat": 40.760433, "lon": -73.922418, "tags": {"amenity": "restaurant", "cuisine": "sushi", "name": "Hei Tiki"}}, {"type": "node", "id": 2622405274, "lat": 40.761402, "lon": -73.923843, "tags": {"addr:city": "Astoria", "addr:housenumber": "32-21", "addr:postcode": "11106", "addr:street": "Broadway", "amenity": "restaurant", "cuisine": "burger", "name": "SLDR", "opening_hours": "11:00 - 00:00", "phone": "+1-718-626-5292"}}, {"type": "node", "id": 2818577537, "lat": 40.7596873, "lon": -73.926994, "tags": {"addr:housenumber": "31-01", "addr:postcode": "11106", "addr:street": "34th Avenue", "amenity": "restaurant", "branch": "Astoria", "contact:email": "nurthai@gmail.com", "contact:facebook": "nurthai", "contact:instagram": "nurthai", "name": "Nur Thai", "phone": "+1 718-874-3292", "website": "http://astoria.nurthai.com/"}}, {"type": "node", "id": 2818577544, "lat": 40.7619505, "lon": -73.9256567, "tags": {"addr:housenumber": "32-04", "addr:postcode": "11106", "addr:street": "31st Street", "amenity": "restaurant", "cuisine": "colombian", "name": "La Gata Golosa", "wheelchair": "yes"}}, {"type": "node", "id": 2846883365, "lat": 40.7616422, "lon": -73.9243893, "tags": {"addr:housenumber": "32-01", "addr:postcode": "11106", "addr:street": "Broadway", "amenity": "bar", "name": "Gilbey's of Astoria", "wheelchair": "yes"}}, {"type": "node", "id": 3236430399, "lat": 40.7631897, "lon": -73.9219964, "tags": {"addr:city": "Astoria", "addr:housenumber": "31-05", "addr:postcode": "11106", "addr:state": "NY", "addr:street": "33rd Street", "amenity": "cafe", "internet_access": "yes", "name": "Madame Sousou", "opening_hours": "06:00-21:00", "phone": "+1-718-710-6577", "smoking": "no", "wheelchair": "no"}}, {"type": "node", "id": 3577907793, "lat": 40.760701, "lon": -73.9223507, "tags": {"addr:city": "Astoria", "addr:housenumber": "34-15", "addr:postcode": "11106", "addr:state": "NY", "addr:street": "Broadway", "amenity": "restaurant", "cuisine": "italian", "name": "Bartolino's Italian Restaurant", "phone": "+1-718-728-0430", "website": "https://www.bartolinosastoria.com/", "wheelchair": "limited"}}, {"type": "node", "id": 3577907995, "lat": 40.7606408, "lon": -73.9222264, "tags": {"addr:street": "Broadway", "amenity": "restaurant", "cuisine": "asian", "name": "Fresh Bowl & Go", "wheelchair": "yes"}}, {"type": "node", "id": 3584290132, "lat": 40.7611211, "lon": -73.9232737, "tags": {"amenity": "restaurant", "branch": "New York City", "catering": "yes", "cuisine": "indian;burger", "delivery": "yes", "diet:gluten_free": "yes", "diet:halal": "only", "diet:vegan": "yes", "diet:vegetarian": "yes", "name": "Gaia Masala & Burger", "opening_hours": "Mo-Su 10:00-03:00", "phone": "+1-718-889-0530", "takeaway": "yes", "toilets": "customers"}}, {"type": "node", "id": 3814797675, "lat": 40.7621666, "lon": -73.9254791, "tags": {"amenity": "restaurant", "cuisine": "bakery;sandwich", "name": "Parisi Bakery", "phone": "+1 718-728-5288", "wheelchair": "yes"}}, {"type": "node", "id": 3817963720, "lat": 40.7604886, "lon": -73.9225318, "tags": {"amenity": "restaurant", "cuisine": "thai", "name": "Three E- Taste of Thai"}}, {"type": "node", "id": 3818703593, "lat": 40.7605169, "lon": -73.922588, "tags": {"addr:city": "Astoria", "addr:housenumber": "3414", "addr:postcode": "11106", "addr:state": "NY", "addr:street": "Broadway", "amenity": "bar", "name": "Astoria Bier and Cheese", "note": "Small appetizers and local beer. Huge selection of bottled and canned beers. Has a back patio.", "opening_hours": "12:00-23:00", "wheelchair": "yes"}}, {"type": "node", "id": 3860740161, "lat": 40.761437, "lon": -73.924556, "tags": {"addr:housenumber": "32-02", "addr:street": "Broadway", "amenity": "restaurant", "cuisine": "mexican", "name": "La Catrinas", "website": "http://www.lascatrinasnyc.com"}}, {"type": "node", "id": 3861834057, "lat": 40.761392, "lon": -73.924468, "tags": {"amenity": "bar", "name": "Break", "toilets:wheelchair": "no", "wheelchair": "no"}}, {"type": "node", "id": 3867611568, "lat": 40.7625339, "lon": -73.9262068, "tags": {"amenity": "restaurant", "cuisine": "greek", "name": "Caf\u00e9 Aliada"}}, {"type": "node", "id": 4113143108, "lat": 40.7621919, "lon": -73.9255499, "tags": {"addr:city": "Astoria", "addr:housenumber": "3015", "addr:postcode": "11106", "addr:state": "NY", "addr:street": "Broadway", "amenity": "restaurant", "cuisine": "middle_eastern", "delivery": "yes", "name": "King of Falafel & Shawarma", "opening_hours": "Mo-Su 11:00-23:00", "phone": "+1 718 340 8068", "smoking": "no", "takeaway": "yes", "website": "http://www.kofnyc.com", "wheelchair": "yes"}}, {"type": "node", "id": 4113143109, "lat": 40.7622318, "lon": -73.9256493, "tags": {"addr:city": "Astoria", "addr:housenumber": "30-11 & 30-13", "addr:postcode": "11106", "addr:state": "NY", "addr:street": "Broadway", "amenity": "restaurant", "bar": "yes", "cuisine": "american;diner;whiskey;bourbon;bar", "name": "Sanfords", "toilets:wheelchair": "yes", "wheelchair": "yes"}}, {"type": "node", "id": 4113143110, "lat": 40.7623369, "lon": -73.9258716, "tags": {"addr:city": "Astoria", "addr:housenumber": "30-05", "addr:postcode": "11106", "addr:state": "NY", "addr:street": "Broadway", "amenity": "cafe", "cuisine": "bagel;sandwich", "internet_access": "wlan", "internet_access:fee": "no", "internet_access:ssid": "LOTS O BAGELS", "level": "0", "name": "Lots O Bagels (LOB)", "phone": "+1-718-267-7777", "wheelchair": "yes"}}, {"type": "node", "id": 5500029100, "lat": 40.761211, "lon": -73.9234494, "tags": {"addr:city": "Astoria", "addr:housenumber": "33-05", "addr:postcode": "11106", "addr:state": "NY", "addr:street": "Broadway", "amenity": "restaurant", "name": "Barkada Social Club"}}, {"type": "node", "id": 5500033650, "lat": 40.7607294, "lon": -73.9224149, "tags": {"addr:city": "Astoria", "addr:housenumber": "34-13", "addr:postcode": "11106", "addr:state": "NY", "addr:street": "Broadway", "amenity": "restaurant", "cuisine": "italian", "name": "Tipp Inn", "phone": "+1-718-728-0489", "website": "http://www.tipinn.com"}}, {"type": "node", "id": 8047166431, "lat": 40.7612692, "lon": -73.9235628, "tags": {"addr:city": "Astoria", "addr:housenumber": "3301", "addr:postcode": "11106", "addr:street": "33rd Street", "amenity": "restaurant", "cuisine": "ecuadorian", "name": "Barzola", "phone": "+1-718-956-3012", "wheelchair": "yes"}}, {"type": "node", "id": 8047166470, "lat": 40.7611903, "lon": -73.9240141, "tags": {"addr:city": "Astoria", "addr:housenumber": "32-20", "addr:postcode": "11106", "addr:street": "Broadway", "amenity": "cafe", "cuisine": "greek", "name": "Omonia Cafe", "opening_hours": "6:30 - 3:00", "phone": "+1-718-274-6650", "website": "omoniacafe.com"}}, {"type": "node", "id": 8332419151, "lat": 40.761568, "lon": -73.9242011, "tags": {"addr:city": "Astoria", "addr:housenumber": "3207", "addr:postcode": "11106", "addr:street": "Broadway", "amenity": "cafe", "cuisine": "sandwich", "name": "Toast & Roast", "opening_hours": "6:00 - 22:00", "phone": "+1-718-777-0997"}}, {"type": "node", "id": 8332419153, "lat": 40.7615076, "lon": -73.9240826, "tags": {"addr:city": "Astoria", "addr:housenumber": "32-11", "addr:postcode": "11106", "addr:street": "Broadway", "amenity": "restaurant", "name": "sek'\u0259nd sun", "opening_hours": "11:00 - 00:00", "phone": "+1-917-832-6414", "website": "https://www.sekendsun.com"}}, {"type": "node", "id": 8332419154, "lat": 40.7615956, "lon": -73.9242634, "tags": {"addr:city": "Astoria", "addr:housenumber": "32-05", "addr:postcode": "11106", "addr:street": "Broadway", "amenity": "restaurant", "cuisine": "latin_american;chinese", "delivery": "yes", "name": "Nueva Victoria Restaurant", "opening_hours": "Mo-Th 12:00-22:00, Fr-Sa 12:00-23:00, Su 12:00-22:00", "phone": "+1-718-726-0819", "takeaway": "yes"}}, {"type": "node", "id": 8332419158, "lat": 40.7616206, "lon": -73.9243276, "tags": {"addr:city": "Astoria", "addr:housenumber": "32-03", "addr:postcode": "11106", "addr:street": "Broadway", "amenity": "bar", "name": "Bad Habits Astoria", "phone": "+1-347-738-5989", "website": "https://www.badhabitsastoria.com", "wheelchair": "yes"}}, {"type": "node", "id": 8392457212, "lat": 40.7608693, "lon": -73.9227268, "tags": {"addr:street": "Broadway", "name": "Archway Realty", "office": "estate_agent"}}, {"type": "node", "id": 8392457214, "lat": 40.7627202, "lon": -73.9266573, "tags": {"addr:housenumber": "29-05", "addr:postcode": "11106", "addr:street": "Broadway", "amenity": "restaurant", "cuisine": "japanese", "name": "Tamashi Ramen"}}, {"type": "node", "id": 8551226979, "lat": 40.7623557, "lon": -73.9253272, "tags": {"addr:housenumber": "31-86", "addr:postcode": "11106", "addr:street": "31st Street", "amenity": "bar", "name": "Daly's Pub"}}, {"type": "node", "id": 8599156659, "lat": 40.7610154, "lon": -73.9230367, "tags": {"addr:housenumber": "33-19", "addr:postcode": "11106", "addr:street": "Broadway", "amenity": "restaurant", "contact:email": "amylosgroup@amylos.com", "contact:facebook": "AmylosTaverna", "contact:instagram": "amylos_taverna", "cuisine": "greek", "delivery": "yes", "level": "0", "name": "Amylos Taverna", "opening_hours": "Mo-Th, Su 12:00-23:00; Fr, Sa 12:00-23:30", "phone": "+1 718-215-0228", "reservation": "recommended", "takeaway": "yes", "website": "https://www.amylos.com/", "wheelchair": "yes"}}, {"type": "node", "id": 8599156665, "lat": 40.7610262, "lon": -73.923769, "tags": {"addr:city": "Astoria", "addr:housenumber": "33-02", "addr:postcode": "10010", "addr:street": "33rd Street", "amenity": "restaurant", "cuisine": "sushi", "name": "Junko Sushi", "opening_hours": "11:30 - 23:30", "phone": "+1-718-777-1588", "website": "junkosushi.com"}}, {"type": "node", "id": 8599156687, "lat": 40.7606824, "lon": -73.922959, "tags": {"amenity": "restaurant", "name": "Trestle", "outdoor_seating": "yes"}}, {"type": "node", "id": 8599211031, "lat": 40.7610456, "lon": -73.9230836, "tags": {"addr:city": "Astoria", "addr:housenumber": "33-19", "addr:postcode": "11106", "addr:street": "Broadway", "amenity": "restaurant", "cuisine": "mediterranean", "level": "0", "name": "Michael's Restaurant", "wheelchair": "yes"}}, {"type": "node", "id": 8942067797, "lat": 40.7626517, "lon": -73.9261051, "tags": {"addr:housenumber": "31-90", "addr:street": "30th Street", "amenity": "restaurant", "cuisine": "brazilian", "name": "Pao De Queijo"}}, {"type": "node", "id": 8942067800, "lat": 40.7622738, "lon": -73.9257392, "tags": {"addr:street": "Broadway", "amenity": "restaurant", "name": "Broadway Station"}}, {"type": "node", "id": 8942090276, "lat": 40.7615895, "lon": -73.9248568, "tags": {"addr:housenumber": "31-16", "addr:street": "Broadway", "amenity": "restaurant", "name": "Piperi Gyro"}}, {"type": "node", "id": 8942090280, "lat": 40.7619161, "lon": -73.9249421, "tags": {"addr:city": "Astoria", "addr:housenumber": "31-01", "addr:postcode": "11106", "addr:state": "NY", "addr:street": "Broadway", "amenity": "cafe", "branch": "31-01 Broadway", "brand": "Starbucks", "brand:wikidata": "Q37158", "cuisine": "coffee_shop", "name": "Starbucks", "official_name": "Starbucks Coffee", "phone": "+1 718-777-1305", "ref": "20069", "takeaway": "yes", "website": "https://www.starbucks.com/store-locator/store/20069/31-01-broadway-31-01-broadway-astoria-ny-111062594-us", "wheelchair": "yes"}}, {"type": "node", "id": 8942090286, "lat": 40.7614163, "lon": -73.9248951, "tags": {"addr:housenumber": "31-18", "addr:street": "Broadway", "amenity": "restaurant", "name": "Salvatoria"}}, {"type": "node", "id": 8942090287, "lat": 40.7616099, "lon": -73.9249179, "tags": {"amenity": "restaurant", "cuisine": "greek", "name": "Bahari"}}, {"type": "node", "id": 8942134593, "lat": 40.7609496, "lon": -73.9236046, "tags": {"level": "1", "name": "Law Office Of Jimmy C Solomon", "office": "lawyer", "phone": "+1 718 278 5900"}}, {"type": "node", "id": 8942134594, "lat": 40.7609728, "lon": -73.9235876, "tags": {"addr:housenumber": "33-08", "addr:street": "Broadway", "amenity": "restaurant", "name": "3308 Eats And Drinks"}}, {"type": "node", "id": 9923265673, "lat": 40.7602927, "lon": -73.9225131, "tags": {"addr:city": "Astoria", "addr:housenumber": "32-06", "addr:postcode": "11106", "addr:state": "NY", "addr:street": "35th Street", "amenity": "restaurant", "cuisine": "thai", "email": "Chickitoutastoria@gmail.com", "name": "Chick It Out \"Khao Man Gai\"", "opening_hours": "11:00-21:30", "phone": "+19178326013", "website": "https://www.chickitoutastoria.com"}}, {"type": "node", "id": 11014744777, "lat": 40.7617418, "lon": -73.9251669, "tags": {"addr:city": "Astoria", "addr:housenumber": "31-06", "addr:postcode": "11106", "addr:state": "NY", "addr:street": "Broadway", "amenity": "bar", "name": "McLoughlin's"}}, {"type": "node", "id": 11484375207, "lat": 40.7610034, "lon": -73.9264209, "tags": {"addr:housenumber": "32-44", "addr:street": "31st Street", "amenity": "restaurant", "cuisine": "mexican", "delivery": "yes", "name": "Mi Espiguita", "opening_hours": "Mo-Fr 11:00-20:00; Sa 11:00-21:00; Su 10:00-21:00", "phone": "+1 718-777-1993", "takeaway": "yes"}}, {"type": "node", "id": 12133056406, "lat": 40.7593073, "lon": -73.9261544, "tags": {"addr:city": "Astoria", "addr:housenumber": "3207", "addr:postcode": "11106", "addr:state": "NY", "addr:street": "34th Avenue", "amenity": "restaurant", "cuisine": "mexican", "email": "mayahuelcorp@gmail.com", "name": "Mayahuel", "opening_hours": "Mo-Fr 16:00-23:00; Sa-Su 11:00-23:00", "phone": "+1-347-639-0409", "website": "https://www.mayahuelastoria.com/", "website:menu": "https://www.mayahuelastoria.com/menus/"}}, {"type": "node", "id": 12133056407, "lat": 40.7601536, "lon": -73.9266299, "tags": {"addr:city": "Astoria", "addr:housenumber": "32-71", "addr:postcode": "11106", "addr:state": "NY", "addr:street": "31st Street", "amenity": "restaurant", "catering": "yes", "cuisine": "sushi;japanese", "delivery": "yes", "name": "Abi Sushi", "opening_hours": "Mo-Sa 12:00-22:00, Su 15:30-22:00", "takeaway": "yes"}}, {"type": "node", "id": 12169093627, "lat": 40.7639597, "lon": -73.9223772, "tags": {"addr:housenumber": "32-03", "amenity": "restaurant", "cuisine": "mexican", "drink:beer": "yes", "indoor_seating": "yes", "level": "0", "name": "El Rey del Taco", "outdoor_seating": "yes", "phone": "+1 347-488-6120", "takeaway": "yes", "wheelchair": "yes"}}, {"type": "node", "id": 12729352579, "lat": 40.76315, "lon": -73.9282227, "tags": {"addr:housenumber": "25-08", "addr:postcode": "11106", "addr:street": "Broadway", "amenity": "restaurant", "contact:email": "bunddumplinghouse@gmail.com", "cuisine": "shanghaiese", "delivery": "yes", "dish": "dumpling", "level": "0", "name": "Bund Dumpling House", "opening_hours": "Mo-Th 11:30-15:30, 16:30-21:30; Fr 11:30-15:00, 16:30-21:45; Sa 11:30-21:45; Su 11:30-21:30", "phone": "+1 718-971-5465", "takeaway": "yes", "website": "https://www.bundumplingsnyc.com/"}}, {"type": "node", "id": 12829477259, "lat": 40.7611527, "lon": -73.923323, "tags": {"addr:street": "Broadway", "amenity": "restaurant", "cuisine": "thai", "diet:halal": "only", "name": "Eatzy Thai"}}, {"type": "node", "id": 12829503001, "lat": 40.7611827, "lon": -73.9233892, "tags": {"addr:street": "Broadway", "amenity": "bar", "name": "Rosalie's"}}]}