{"version": 0.6, "generator": "Overpass API 0.7.62.8 e802775f", "osm3s": {"timestamp_osm_base": "2025-12-01T15:31:30Z", "copyright": "The data included in this document is from www.openstreetmap.org. The data is made available under ODbL."}, "elements": [{"type": "node", "id": 357635484, "lat": 40.6138013, "lon": -74.0293093}, {"type": "node", "id": 2552502317, "lat": 40.6170981, "lon": -74.0338612, "tags": {"addr:housenumber": "9510", "addr:postcode": "11209", "addr:street": "3rd Avenue", "amenity": "pub", "bar": "yes", "drink:beer": "draught", "drink:liquor": "yes", "drink:wine": "yes", "name": "The Wicked Monk", "opening_hours": "Mo-Th 12:00-02:00, Fr 12:00-03:00, Sa 11:00-03:00, Su 11:00-02:00", "opening_hours:kitchen": "Mo-We 12:00-22:00, Th-Fr 12:00-24:00, Sa-Su 11:00-22:00", "phone": "+1-347-497-5152", "theme": "irish", "website": "https://www.wickedmonk.com"}}, {"type": "node", "id": 2552509936, "lat": 40.6150438, "lon": -74.0343037, "tags": {"addr:housenumber": "9723", "addr:postcode": "11209", "addr:street": "3rd Avenue", "name": "Ianelli Construction", "office": "construction"}}, {"type": "node", "id": 2552542724, "lat": 40.6173362, "lon": -74.0333855, "tags": {"addr:housenumber": "9419", "addr:postcode": "11209", "addr:street": "3rd Avenue", "amenity": "cafe", "cuisine": "bagel;sandwich;breakfast", "drink:coffee": "yes", "drink:espresso": "yes", "name": "Mr. Bagel's Cafe", "opening_hours": "Mo-Fr 06:00-19:30; Sa-Su 06:00-17:30", "outdoor_seating": "sidewalk", "phone": "+1-718-836-3000"}}, {"type": "node", "id": 2552542725, "lat": 40.6172654, "lon": -74.0334135, "tags": {"addr:housenumber": "9425", "addr:postcode": "11209", "addr:street": "3rd Avenue", "brand": "RE/MAX", "brand:wikidata": "Q965845", "name": "Re/Max Edge", "office": "estate_agent", "website": "https://www.remax.com/real-estate-offices/remax-edge-group-brooklyn-ny/101949796"}}, {"type": "node", "id": 2552542733, "lat": 40.6156072, "lon": -74.0315241, "tags": {"addr:housenumber": "9520", "addr:postcode": "11209", "addr:street": "4th Avenue", "name": "82 Realty Group", "office": "estate_agent", "phone": "+1-347-497-5637", "service:notary": "yes", "website": "http://82realtygroup.com"}}, {"type": "node", "id": 2552542740, "lat": 40.6155131, "lon": -74.0316022, "tags": {"addr:housenumber": "9526", "addr:postcode": "11209", "addr:street": "4th Avenue", "amenity": "restaurant", "cuisine": "diner", "delivery": "yes", "drink:coffee": "yes", "name": "The Coffee Club Diner", "phone": "+1-718-567-3953"}}, {"type": "node", "id": 2552542745, "lat": 40.6152954, "lon": -74.0342126, "tags": {"amenity": "pub", "cocktails": "yes", "drink:beer": "draught", "drink:liquor": "yes", "name": "Kitty Kiernan's", "payment:cash": "only", "theme": "irish"}}, {"type": "node", "id": 2552544634, "lat": 40.617533, "lon": -74.033308, "tags": {"addr:housenumber": "9413", "addr:postcode": "11209", "addr:street": "3rd Avenue", "amenity": "cafe", "drink:coffee": "yes", "drink:espresso": "yes", "name": "Pep", "opening_hours": "Mo-Fr 07:00-19:00; Sa 08:00-18:00; Su 09:00-18:00", "phone": "+1-929-397-0094", "shop": "pastry", "website": "https://pepbakery.com"}}, {"type": "node", "id": 2552554713, "lat": 40.6172947, "lon": -74.0303617}, {"type": "node", "id": 2552554726, "lat": 40.6167276, "lon": -74.0311969, "tags": {"addr:housenumber": "380", "addr:postcode": "11209", "addr:street": "94th Street", "alt_name": "Trust Travel & Tours", "level": "1", "name": "Ismail Ali", "office": "travel_agent", "phone": "+1-718-748-8883"}}, {"type": "node", "id": 2552554732, "lat": 40.6167315, "lon": -74.0304835, "tags": {"addr:housenumber": "9265", "addr:postcode": "11209", "addr:street": "4th Avenue", "level": "1", "name": "Premier Capital Funding", "office": "financial", "phone": "+1-877-563-4226"}}, {"type": "node", "id": 2552554761, "lat": 40.6167977, "lon": -74.0304064, "tags": {"entrance": "yes"}}, {"type": "node", "id": 2552554765, "lat": 40.6168492, "lon": -74.0305553}, {"type": "node", "id": 2552554766, "lat": 40.6167824, "lon": -74.0304192}, {"type": "node", "id": 2552554768, "lat": 40.6168281, "lon": -74.030381}, {"type": "node", "id": 2552554773, "lat": 40.6169195, "lon": -74.0305664}, {"type": "node", "id": 2552554787, "lat": 40.6171647, "lon": -74.0300973}, {"type": "node", "id": 2552554791, "lat": 40.617182, "lon": -74.0301326}, {"type": "node", "id": 2552554794, "lat": 40.6172019, "lon": -74.0308727}, {"type": "node", "id": 2552554802, "lat": 40.6172487, "lon": -74.0300262}, {"type": "node", "id": 2552554814, "lat": 40.6172986, "lon": -74.0307895}, {"type": "node", "id": 2552554816, "lat": 40.6173112, "lon": -74.0303951}, {"type": "node", "id": 2552554826, "lat": 40.6173372, "lon": -74.0311433}, {"type": "node", "id": 2552554829, "lat": 40.6173576, "lon": -74.0311257}, {"type": "node", "id": 2552554837, "lat": 40.6173812, "lon": -74.0311729}, {"type": "node", "id": 2552554841, "lat": 40.6173952, "lon": -74.0303239}, {"type": "node", "id": 2552554868, "lat": 40.6174574, "lon": -74.0311073}, {"type": "node", "id": 2552563877, "lat": 40.6156949, "lon": -74.0344229, "tags": {"name": "PGB Group", "office": "construction", "phone": "+1-718-684-6200", "website": "https://www.pgbnyc.com"}}, {"type": "node", "id": 2552563959, "lat": 40.6187954, "lon": -74.0331687, "tags": {"addr:housenumber": "9224", "addr:postcode": "11209", "addr:street": "3rd Avenue", "amenity": "pub", "cocktails": "yes", "cuisine": "pub", "drink:beer": "yes", "drink:liquor": "yes", "drink:wine": "yes", "live_music": "yes", "name": "Delia's Lounge", "opening_hours": "Mo-Su 14:00-01:00", "outdoor_seating": "sidewalk;street", "phone": "+1-718-491-8700", "website": "https://www.deliaslounge.com"}}, {"type": "node", "id": 2552794414, "lat": 40.6140463, "lon": -74.0323576, "tags": {"addr:housenumber": "9733", "addr:postcode": "11209", "addr:street": "4th Avenue", "name": "Pavlounis & Sfouggatakis Attorneys at Law", "office": "lawyer", "phone": "+1-718-787-1430", "website": "https://www.pslegalny.com"}}, {"type": "node", "id": 2552795189, "lat": 40.6148165, "lon": -74.0305866}, {"type": "node", "id": 2552795196, "lat": 40.6148214, "lon": -74.0305414}, {"type": "node", "id": 2552795206, "lat": 40.6148356, "lon": -74.0305703}, {"type": "node", "id": 2552795212, "lat": 40.6148443, "lon": -74.030643}, {"type": "node", "id": 2552795219, "lat": 40.6148635, "lon": -74.0306265}, {"type": "node", "id": 2552795229, "lat": 40.6148994, "lon": -74.0306994}, {"type": "node", "id": 2552795245, "lat": 40.6149682, "lon": -74.030337}, {"type": "node", "id": 2552795254, "lat": 40.6149956, "lon": -74.0303926}, {"type": "node", "id": 2552795262, "lat": 40.6150151, "lon": -74.0302653}, {"type": "node", "id": 2552795267, "lat": 40.615026, "lon": -74.0302876}, {"type": "node", "id": 2552795275, "lat": 40.6150734, "lon": -74.0305508}, {"type": "node", "id": 2552795286, "lat": 40.6150972, "lon": -74.0301951}, {"type": "node", "id": 2552795287, "lat": 40.6150983, "lon": -74.0306013}, {"type": "node", "id": 2552795289, "lat": 40.615099, "lon": -74.0302686}, {"type": "node", "id": 2552795312, "lat": 40.6151232, "lon": -74.0302479}, {"type": "node", "id": 2552795374, "lat": 40.6152, "lon": -74.0304738}, {"type": "node", "id": 2552795376, "lat": 40.6152002, "lon": -74.0305142}, {"type": "node", "id": 2552795381, "lat": 40.6152057, "lon": -74.0305253}, {"type": "node", "id": 2552795389, "lat": 40.6152242, "lon": -74.0304531}, {"type": "node", "id": 2552795399, "lat": 40.6152438, "lon": -74.0304928}, {"type": "node", "id": 2552817400, "lat": 40.6190397, "lon": -74.0281385, "tags": {"addr:housenumber": "9001", "addr:postcode": "11209", "addr:street": "5th Avenue", "name": "Hamilton Estates Co", "office": "estate_agent"}}, {"type": "node", "id": 2552817402, "lat": 40.6191536, "lon": -74.0284165, "tags": {"addr:housenumber": "9002", "addr:postcode": "11209", "addr:street": "5th Avenue", "name": "Ted Bouzalas Realty", "office": "estate_agent", "phone": "+1-718-833-2700"}}, {"type": "node", "id": 2552817413, "lat": 40.6180713, "lon": -74.0293407, "tags": {"addr:housenumber": "9128", "addr:postcode": "11209", "addr:street": "5th Avenue", "amenity": "restaurant", "cuisine": "latin_american", "name": "Campo Bello", "opening_hours": "Mo-Sa 10:30-21:00", "phone": "+1-718-680-7888", "website": "https://campobellorestaurant.com/brooklyn/"}}, {"type": "node", "id": 2552817972, "lat": 40.6182643, "lon": -74.027853}, {"type": "node", "id": 2552818033, "lat": 40.6183811, "lon": -74.0280919}, {"type": "node", "id": 2552818091, "lat": 40.6184885, "lon": -74.0283116}, {"type": "node", "id": 2552818138, "lat": 40.6185906, "lon": -74.0285205}, {"type": "node", "id": 2715672796, "lat": 40.6175743, "lon": -74.0284384}, {"type": "node", "id": 2715672799, "lat": 40.6179126, "lon": -74.0291302}, {"type": "node", "id": 2715672801, "lat": 40.6186025, "lon": -74.0285448}, {"type": "node", "id": 4627468312, "lat": 40.6152522, "lon": -74.0288665}, {"type": "node", "id": 4627468313, "lat": 40.6149455, "lon": -74.0282344}, {"type": "node", "id": 4627468314, "lat": 40.6116136, "lon": -74.0309706}, {"type": "node", "id": 4627468315, "lat": 40.6112406, "lon": -74.0323229}, {"type": "node", "id": 4729842647, "lat": 40.6162856, "lon": -74.0308594}, {"type": "node", "id": 4729842652, "lat": 40.6162718, "lon": -74.030824}, {"type": "node", "id": 4729842653, "lat": 40.6165062, "lon": -74.0306244}, {"type": "node", "id": 4729842654, "lat": 40.6165647, "lon": -74.0307469}, {"type": "node", "id": 5840570545, "lat": 40.6166822, "lon": -74.0310713, "tags": {"addr:housenumber": "9402", "addr:postcode": "11209", "addr:street": "4th Avenue", "amenity": "cafe", "branch": "Bay Ridge", "drink:coffee": "yes", "drink:espresso": "yes", "name": "Pasticceria Rocco", "opening_hours": "Mo-Th, Su 07:30-22:00; Sa, Su 07:30-01:00", "outdoor_seating": "sidewalk", "phone": "+1 718-745-2590", "shop": "pastry", "website": "https://roccospastry.com"}}, {"type": "node", "id": 6008589295, "lat": 40.6166185, "lon": -74.0310953, "tags": {"alt_name": "Hunter's Steak House", "amenity": "restaurant", "cuisine": "steak_house", "drink:beer": "yes", "drink:liquor": "yes", "drink:wine": "yes", "name": "Hunter's Steak & Ale House", "opening_hours": "Tu-Th 12:00-21:00; Fr-Sa 12:00-22:00; Su 12:00-21:00", "outdoor_seating": "sidewalk", "phone": "+1-718-238-8899", "website": "https://hunterssteakhouse.com"}}, {"type": "node", "id": 6008589478, "lat": 40.6159722, "lon": -74.0313613, "tags": {"addr:housenumber": "9502", "addr:street": "4th Avenue", "amenity": "restaurant", "cuisine": "diner", "name": "Fort Hamilton Diner", "phone": "+1-718-238-5151"}}, {"type": "node", "id": 6008596990, "lat": 40.6169051, "lon": -74.0305724, "tags": {"entrance": "main"}}, {"type": "node", "id": 6008597456, "lat": 40.6180734, "lon": -74.0300202, "tags": {"addr:housenumber": "9201", "addr:street": "4th Avenue", "amenity": "restaurant", "cuisine": "pizza", "name": "UNO Chicago Grill"}}, {"type": "node", "id": 6008597571, "lat": 40.6179668, "lon": -74.0305288, "tags": {"addr:housenumber": "9218", "addr:street": "4th Avenue", "amenity": "restaurant", "cuisine": "middle_eastern", "name": "First Oasis Restaurant", "phone": "+1-718-238-4505"}}, {"type": "node", "id": 7039049117, "lat": 40.617345, "lon": -74.027382, "tags": {"amenity": "restaurant", "name": "Landy\u2019s"}}, {"type": "node", "id": 7039049121, "lat": 40.6172681, "lon": -74.027453, "tags": {"office": "lawyer"}}, {"type": "node", "id": 7039049123, "lat": 40.6172961, "lon": -74.0274325, "tags": {"office": "accountant"}}, {"type": "node", "id": 7072414497, "lat": 40.6190008, "lon": -74.033078, "tags": {"addr:housenumber": "9214", "addr:street": "3rd Avenue", "alt_name": "Ridge Realty", "estate_agent": "yes", "fax": "+1-718-833-8388", "name": "Brooklyn Insurance", "office": "insurance", "phone": "+1-718-833-8383"}}, {"type": "node", "id": 7072414498, "lat": 40.6191017, "lon": -74.0330313, "tags": {"addr:housenumber": "9208", "addr:street": "3rd Avenue", "amenity": "restaurant", "bar": "yes", "cocktails": "yes", "cuisine": "mexican", "drink:beer": "yes", "drink:liquor": "yes", "name": "Las Margaritas", "opening_hours": "Mo-Su 11:00-23:00", "phone": "+1-718-333-5119"}}, {"type": "node", "id": 7072426842, "lat": 40.6192573, "lon": -74.0329705, "tags": {"addr:city": "Brooklyn", "addr:housenumber": "9202", "addr:postcode": "11209", "addr:state": "NY", "addr:street": "3rd Avenue", "amenity": "cafe", "branch": "3rd Avenue & 92nd St", "brand": "Starbucks", "brand:wikidata": "Q37158", "cuisine": "coffee_shop", "drink:coffee": "yes", "drink:espresso": "yes", "drink:tea": "yes", "name": "Starbucks", "official_name": "Starbucks Coffee", "opening_hours": "Mo-Fr 05:30-21:00; Sa 06:00-21:00; Su 06:00-20:30", "phone": "+1 718-492-5331", "takeaway": "yes", "website": "https://www.starbucks.com/store-locator/store/18465/3rd-ave-92nd-st-9202-third-avenue-n-a-brooklyn-ny-112096812-us"}}, {"type": "node", "id": 8981032237, "lat": 40.6159233, "lon": -74.0308071, "tags": {"amenity": "taxi", "name": "Harbor View Car Service", "office": "taxi", "phone": "+1-718-680-2500", "website": "https://harborviewtransportation.com"}}, {"type": "node", "id": 8981032240, "lat": 40.6173373, "lon": -74.0295671, "tags": {"amenity": "bar", "cuisine": "hot_dog", "diet:vegan": "yes", "diet:vegetarian": "yes", "name": "Lock Yard", "outdoor_seating": "garden"}}, {"type": "node", "id": 8981032241, "lat": 40.6161295, "lon": -74.0306291, "tags": {"brand": "State Farm", "brand:wikidata": "Q2007336", "name": "State Farm", "office": "insurance", "phone": "+1-718-238-4020"}}, {"type": "node", "id": 8981032242, "lat": 40.6158798, "lon": -74.0308447, "tags": {"amenity": "restaurant", "cuisine": "sushi", "drink:beer": "yes", "drink:sake": "yes", "drink:wine": "yes", "name": "Shobu Sushi", "opening_hours": "Mo,We,Th 11:00-22:00; Fr 11:00-23:00; Sa 12:00-23:00; Su 12:00-22:00", "outdoor_seating": "garden", "phone": "+1-718-833-8345"}}, {"type": "node", "id": 8990368345, "lat": 40.6141788, "lon": -74.0297799}, {"type": "node", "id": 8990368346, "lat": 40.6143393, "lon": -74.0296433}, {"type": "node", "id": 9693419527, "lat": 40.6181052, "lon": -74.0334351, "tags": {"alt_name": "Townhouse 275", "amenity": "restaurant", "bar": "yes", "cocktails": "yes", "cuisine": "japanese", "delivery": "yes", "drink:beer": "yes", "drink:liquor": "yes", "drink:wine": "yes", "name": "Oishi Noodle Bar", "opening_hours": "We 17:00-22:15; Th 17:00-24:00; Fr-Sa 17:00-02:00; Su 17:00-23:00", "opening_hours:kitchen": "We 17:00-22:15; Th-Sa 17:00-23:00; Su 17:00-22:15", "phone": "+1-347-560-4001", "takeaway": "yes", "website": "https://www.oishi.nyc"}}, {"type": "node", "id": 9693419528, "lat": 40.6178284, "lon": -74.0335522, "tags": {"amenity": "restaurant", "cuisine": "american;italian;breakfast", "name": "The Common", "opening_hours": "Mo-Su 08:00-15:30", "phone": "+1-718-680-3030", "website": "https://www.thecommonbrooklyn.com"}}, {"type": "node", "id": 9776882288, "lat": 40.6185239, "lon": -74.0326171, "tags": {"addr:city": "Brooklyn", "addr:housenumber": "310", "addr:postcode": "11209", "addr:state": "NY", "addr:street": "93rd Street", "government": "legislator", "name": "New York State Assemblymember Mathylde Frontus", "office": "government", "operator": "Mathylde Frontus", "operator:wikidata": "Q66687564", "operator:wikipedia": "en:Mathylde Frontus", "phone": "+1-347-560-6302", "website": "https://nyassembly.gov/mem/Mathylde-Frontus"}}, {"type": "node", "id": 9839789959, "lat": 40.6184569, "lon": -74.032919, "tags": {"alt_name": "Guzzone-Swenson Agency", "brand": "Allstate", "brand:wikidata": "Q2645636", "name": "Allstate", "office": "insurance", "opening_hours": "Mo-Fr 09:00-17:00", "phone": "+1-718-748-0600"}}, {"type": "node", "id": 9845617100, "lat": 40.6168907, "lon": -74.0305784}, {"type": "node", "id": 9845617101, "lat": 40.6168741, "lon": -74.0305449}, {"type": "node", "id": 10243848227, "lat": 40.6110126, "lon": -74.0316874}, {"type": "node", "id": 10874803318, "lat": 40.6182356, "lon": -74.0292107, "tags": {"name": "Georgaklis & Mallas", "office": "lawyer", "phone": "+1-718-238-2400"}}, {"type": "node", "id": 10874803321, "lat": 40.6189836, "lon": -74.0281848, "tags": {"name": "Sharova Law Firm", "office": "lawyer", "phone": "+1-718-766-5153", "website": "https://www.sharovalaw.com"}}, {"type": "node", "id": 10874803323, "lat": 40.6190212, "lon": -74.0281545, "tags": {"addr:housenumber": "9001", "addr:postcode": "11209", "addr:street": "5th Avenue", "name": "James D. Bonamassa Counselor at Law", "office": "lawyer"}}, {"type": "node", "id": 10874803324, "lat": 40.6190971, "lon": -74.0284638, "tags": {"name": "Diversified Financial Services", "office": "accountant", "phone": "+1-718-833-6266"}}, {"type": "node", "id": 10874803326, "lat": 40.6190029, "lon": -74.0285428, "tags": {"name": "The Edge Tutoring Center", "office": "tutoring", "phone": "+1-718-836-3343"}}, {"type": "node", "id": 10935334477, "lat": 40.618609, "lon": -74.0302704, "tags": {"addr:housenumber": "9128", "addr:postcode": "11209", "addr:street": "4th Avenue", "name": "Blackridge Brokerage", "office": "insurance", "phone": "+1-718-836-0500"}}, {"type": "node", "id": 10935334481, "lat": 40.6186405, "lon": -74.0302578, "tags": {"addr:housenumber": "9126", "addr:postcode": "11209", "addr:street": "4th Avenue", "amenity": "taxi", "name": "A&M Car Service", "office": "taxi", "phone": "+1-718-745-5757"}}, {"type": "node", "id": 11635776191, "lat": 40.6189577, "lon": -74.0285807, "tags": {"name": "Olga Pavlakos Attorney at Law", "office": "lawyer", "phone": "+1-718-836-6032"}}, {"type": "node", "id": 11776251817, "lat": 40.6178859, "lon": -74.03352, "tags": {"amenity": "cafe", "cuisine": "coffee_shop;breakfast", "drink:coffee": "yes", "drink:espresso": "yes", "drink:tea": "yes", "name": "Milk & Honey"}}, {"type": "node", "id": 12083731736, "lat": 40.6135214, "lon": -74.0303489}, {"type": "node", "id": 12235064098, "lat": 40.6166565, "lon": -74.0336549, "tags": {"amenity": "restaurant", "name": "Malone's Chop House"}}, {"type": "way", "id": 248462073, "nodes": [2552554794, 2552554826, 2552554829, 2552554837, 2552554868, 2552554814, 2552554794], "tags": {"addr:housenumber": "9316", "addr:postcode": "11209", "addr:street": "4th Avenue", "amenity": "restaurant", "building": "yes", "cocktails": "yes", "cuisine": "japanese", "drink:beer": "yes", "drink:liquor": "yes", "drink:sake": "yes", "drink:wine": "yes", "height": "4.5", "name": "Fushimi", "nycdoitt:bin": "3155260", "opening_hours": "Mo-Th 11:30-22:30; Fr 11:30-23:30; Sa 12:00-23:30; Su 12:00-22:00", "outdoor_seating": "yes", "phone": "+1-718-833-7788", "website": "https://fushimigroup.com/bayridge/"}}, {"type": "way", "id": 248462473, "nodes": [2552554787, 2552554791, 2552554713, 2552554816, 2552554841, 2552554802, 2552554787], "tags": {"addr:housenumber": "9235", "addr:postcode": "11209", "addr:street": "4th Avenue", "alt_name": "United Food & Commercial Workers Local 2013", "building": "yes", "height": "7.7", "name": "UFCW Local 2013", "nycdoitt:bin": "3155315", "office": "union", "website": "https://www.nycclc.org/affiliate/ufcw-local-2013"}}, {"type": "way", "id": 248500490, "nodes": [2552795289, 2552795312, 2552795286, 2552795262, 2552795267, 2552795245, 2552795254, 2552795196, 2552795206, 2552795189, 2552795212, 2552795219, 2552795229, 2552795275, 2552795287, 2552795376, 2552795381, 2552795399, 2552795389, 2552795374, 2552795289], "tags": {"addr:housenumber": "420", "addr:postcode": "11209", "addr:street": "95th Street", "alt_name": "William O\u2019Connor Bayridge School", "amenity": "school", "building": "yes", "height": "17.2", "name": "William O\u2019Connor School", "nycdoitt:bin": "3329017", "operator": "ADAPT Community Network", "phone": "+1-718-680-9751", "website": "https://www.adaptcommunitynetwork.org"}}, {"type": "way", "id": 265966546, "nodes": [2715672796, 2552817972, 2552818033, 2552818091, 2552818138, 2715672801, 2715672799, 2715672796], "tags": {"amenity": "school", "name": "Public School 104"}}, {"type": "way", "id": 468179120, "nodes": [4627468312, 4627468313, 357635484, 4627468314, 10243848227, 4627468315, 12083731736, 8990368345, 8990368346, 4627468312], "tags": {"ele": "9", "gnis:feature_id": "2375137", "leisure": "park", "name": "John J. Carty Park", "operator": "NYC Parks Department", "website": "https://www.nycgovparks.org/parks/john-j-carty-park", "wikidata": "Q14706671"}}, {"type": "way", "id": 479956588, "nodes": [4729842654, 4729842653, 4729842652, 4729842647, 4729842654], "tags": {"access": "no", "alt_name": "Fort Hamilton Plaza", "ele": "21", "gnis:feature_id": "2375134", "leisure": "park", "name": "Fort Hamilton Triangle", "website": "https://www.nycgovparks.org/parks/fort-hamilton-triangle/", "wikidata": "Q34830641"}}, {"type": "way", "id": 1073233725, "nodes": [9845617100, 6008596990, 2552554773, 2552554768, 2552554761, 2552554766, 2552554765, 9845617101, 9845617100], "tags": {"addr:housenumber": "9259", "addr:postcode": "11209", "addr:street": "4th Avenue", "amenity": "bar", "drink:beer": "draught", "drink:liquor": "yes", "name": "Kelly's Tavern"}}]}