{"version": 0.6, "generator": "Overpass API 0.7.62.8 e802775f", "osm3s": {"timestamp_osm_base": "2025-12-01T16:06:30Z", "copyright": "The data included in this document is from www.openstreetmap.org. The data is made available under ODbL."}, "elements": [{"type": "node", "id": 357581140, "lat": 40.70583, "lon": -73.90389, "tags": {"amenity": "school", "ele": "32", "gnis:feature_id": "961915", "name": "Intermediate School 93"}}, {"type": "node", "id": 357586525, "lat": 40.702325, "lon": -73.9026367, "tags": {"amenity": "school", "ele": "26", "gnis:feature_id": "964003", "name": "Saint Matthias School"}}, {"type": "node", "id": 2568855838, "lat": 40.7022441, "lon": -73.9017535}, {"type": "node", "id": 2568855849, "lat": 40.7022631, "lon": -73.9017859}, {"type": "node", "id": 2568855869, "lat": 40.7023014, "lon": -73.9017468}, {"type": "node", "id": 2568855921, "lat": 40.7023348, "lon": -73.9017128}, {"type": "node", "id": 2568855945, "lat": 40.7023589, "lon": -73.9015465}, {"type": "node", "id": 2568855992, "lat": 40.7024111, "lon": -73.9016351}, {"type": "node", "id": 2568872058, "lat": 40.7048677, "lon": -73.902327, "tags": {"addr:city": "Ridgewood", "addr:housenumber": "791", "addr:postcode": "11385", "addr:state": "NY", "addr:street": "Fairview Avenue", "amenity": "restaurant", "cuisine": "burger;mediterranean", "name": "Bosna Express", "opening_hours": "Mo, We-Su 11:00-21:00", "phone": "+1-718-497-7577"}}, {"type": "node", "id": 2568876406, "lat": 40.7068011, "lon": -73.9056815, "tags": {"addr:city": "Ridgewood", "addr:housenumber": "657", "addr:postcode": "11385", "addr:state": "NY", "addr:street": "Fairview Avenue", "amenity": "pub", "brewery": "guinness;finback;various", "craft": "caterer", "cuisine": "coffee;german", "diet:vegetarian": "yes", "email": "info@gottscheerhall.com", "internet_access": "wlan", "name": "Gottscheer Hall", "opening_hours": "Mo-Su 13:00-04:00", "outdoor_seating": "no", "payment:cash": "yes", "payment:credit_cards": "yes", "payment:debit_cards": "yes", "phone": "+1-718-366-3030", "smoking": "no", "toilets": "yes", "toilets:unisex": "no", "website": "https://www.gottscheerhall.com/", "wheelchair": "no"}}, {"type": "node", "id": 5343985152, "lat": 40.7020423, "lon": -73.9066086, "tags": {"addr:city": "Ridgewood", "addr:housenumber": "758", "addr:postcode": "11385", "addr:state": "NY", "addr:street": "Seneca Avenue", "amenity": "restaurant", "atm": "yes", "brewery": "Montauk;Bushwick Brewery;", "cuisine": "nepalese", "delivery": "yes", "drink:beer": "yes", "drink:coffee": "yes", "drink:wine": "yes", "email": "whileinkathmandu@gmail.com", "internet_access": "wlan", "internet_access:fee": "no", "internet_access:ssid": "KathmanduWIFI", "name": "While In Kathmandu", "opening_hours": "Fr-Su 08:00-23:00; Mo-Th 12:00-23:00", "outdoor_seating": "backyard", "payment:cash": "only", "phone": "+1-718-386-3416", "smoking": "no", "takeaway": "yes", "toilets": "yes", "toilets:access": "customers", "toilets:number": "2", "toilets:unisex": "yes", "toilets:wheelchair": "yes", "wheelchair": "limited"}}, {"type": "node", "id": 5364830121, "lat": 40.7025681, "lon": -73.9015363, "tags": {"addr:city": "Ridgewood", "addr:housenumber": "881", "addr:postcode": "11385", "addr:state": "NY", "addr:street": "Woodward Avenue", "amenity": "restaurant", "cuisine": "thai", "delivery": "yes", "delivery:fee": "no", "delivery:min_payment": "10", "diet:vegan": "yes", "diet:vegetarian": "yes", "email": "Chachawan.nyc@gmail.com", "internet_access": "no", "name": "Chachawan Thai Restaurant", "opening_hours": "Tu 11:30-15:30; We-Sa 11:30-22:30; Su 12:00-15:30, 16:30-22:30", "payment:credit_cards": "yes", "phone": "+1-718-894-4404", "takeaway": "yes", "toilets": "yes", "toilets:unisex": "yes", "toilets:wheelchair": "yes", "website": "https://www.chachawannyc.com/", "wheelchair": "yes"}}, {"type": "node", "id": 5364995687, "lat": 40.7028088, "lon": -73.9019258, "tags": {"addr:city": "Ridgewood", "addr:housenumber": "865", "addr:postcode": "11385", "addr:state": "NY", "addr:street": "Woodward Avenue", "amenity": "restaurant", "craft": "caterer", "cuisine": "chicken;mexican", "delivery": "yes", "drink:beer": "yes", "drink:coffee": "yes", "drink:wine": "yes", "name": "Super Pollo", "opening_hours": "Mo-Th 11:00-22:00; Fr-Su 11:00-23:00", "opening_hours:url": "https://superpollo.nyc/contact-us-2/", "outdoor_seating": "veranda", "phone": "+1-718-418-0808", "reservation": "yes", "takeaway": "yes", "website": "https://superpollo.nyc/"}}, {"type": "node", "id": 5365021885, "lat": 40.702058, "lon": -73.9006591, "tags": {"addr:city": "Ridgewood", "addr:housenumber": "68-55", "addr:postcode": "11385", "addr:state": "NY", "addr:street": "Forest Avenue", "amenity": "restaurant", "cuisine": "pizza", "name": "Burek Pizza", "phone": "+1-718-576-3147"}}, {"type": "node", "id": 5365035494, "lat": 40.7023975, "lon": -73.9008093, "tags": {"addr:city": "Ridgewood", "addr:housenumber": "59-02", "addr:postcode": "11385", "addr:state": "NY", "addr:street": "Catalpa Avenue", "alt_name": "Norma's Corner Shop", "amenity": "cafe", "contact:facebook": "https://www.facebook.com/normascornershop", "cuisine": "sandwich;bagel;bakery;pastry;soup", "diet:vegan": "yes", "drink:coffee": "yes", "drink:tea": "yes", "internet_access": "wlan", "internet_access:fee": "no", "internet_access:ssid": "Garden Cake", "name": "Norma's Corner Shoppe", "opening_hours": "Mo-Su 07:00-20:00", "outdoor_seating": "sidewalk", "payment:american_express": "yes", "payment:cash": "yes", "payment:discover_card": "yes", "payment:mastercard": "yes", "payment:visa": "yes", "phone": "+1-347-294-0185", "toilets": "yes", "toilets:access": "customers", "toilets:number": "1", "toilets:unisex": "yes", "website": "https://www.normascornershoppe.com/", "wheelchair": "no"}}, {"type": "node", "id": 5366663829, "lat": 40.7049977, "lon": -73.9021872, "tags": {"addr:housenumber": "66-92", "addr:street": "Forest Avenue", "amenity": "restaurant", "cuisine": "korean", "name": "Garlic to the Chicken", "opening_hours": "Tu-Su 12:00-22:00", "phone": "+1-347-689-2670"}}, {"type": "node", "id": 5368706802, "lat": 40.7031672, "lon": -73.9029995, "tags": {"addr:city": "Ridgewood", "addr:housenumber": "818", "addr:postcode": "11385", "addr:state": "NY", "addr:street": "Woodward Avenue", "amenity": "restaurant", "atm": "no", "contact:facebook": "https://www.facebook.com/Juliasbeerandwine", "cuisine": "american", "diet:vegan": "yes", "diet:vegetarian": "yes", "drink:beer": "yes", "drink:coffee": "yes", "drink:wine": "yes", "happy_hours": "Mo-Su 16:00-19:00", "internet_access": "wlan", "internet_access:fee": "no", "internet_access:ssid": "Julia's Guest", "name": "Julia's Beer and Wine", "opening_hours": "Th, Su 11:00-24:00; Mo-We 12:00-24:00; Fr, Sa 11:00-25:00", "opening_hours:kitchen": "Mo-We 12:00-16:00; Th-Su 11:00-16:00; Mo-Th,Su 17:00-24:00; Fr-Sa 17:00-24:00", "outdoor_seating": "sidewalk", "payment:cash": "yes", "payment:credit_cards": "yes", "payment:debit_cards": "yes", "phone": "+1-917-909-1314", "toilets": "yes", "toilets:access": "permissive", "toilets:number": "1", "toilets:unisex": "yes", "toilets:wheelchair": "yes", "website": "https://juliasbeerandwine.com/", "wheelchair": "yes"}}, {"type": "node", "id": 5368787741, "lat": 40.7017554, "lon": -73.9061681, "tags": {"addr:housenumber": "778", "addr:street": "Seneca Avenue", "amenity": "cafe", "cuisine": "coffee_shop;pastry;bagel", "diet:vegan": "yes", "internet_access": "wlan", "internet_access:ssid": "Milk & Pull Guest", "name": "Milk & Pull", "opening_hours": "Su 08:00-18:00; Mo-Fr 07:00-19:00; Sa 08:00-19:00", "outdoor_seating": "yes", "payment:cash": "yes", "payment:credit_cards": "yes", "payment:debit_cards": "yes", "phone": "+1-718-821-1155", "toilets": "yes", "toilets:access": "permissive", "toilets:unisex": "yes", "toilets:wheelchair": "no", "website": "https://www.milkandpull.com/", "wheelchair": "no"}}, {"type": "node", "id": 5370668223, "lat": 40.7053606, "lon": -73.90377}, {"type": "node", "id": 5370668225, "lat": 40.7044457, "lon": -73.9038202}, {"type": "node", "id": 5370668226, "lat": 40.7050307, "lon": -73.9032094}, {"type": "node", "id": 5370668239, "lat": 40.7040886, "lon": -73.9041545}, {"type": "node", "id": 5370668242, "lat": 40.7044222, "lon": -73.9047101}, {"type": "node", "id": 5405748695, "lat": 40.7056605, "lon": -73.9030015, "tags": {"addr:housenumber": "66-56", "addr:street": "Forest Avenue", "amenity": "school", "description": "View our main website: http://www.is93.org/", "fax": "+1-718-456-9521", "name": "Intermediate School 93 Ridgewood", "phone": "+1-718-821-4882", "website": "https://www.schools.nyc.gov/SchoolPortals/24/Q093/default.htm"}}, {"type": "node", "id": 5411674660, "lat": 40.70406, "lon": -73.9038694, "tags": {"addr:housenumber": "775", "addr:street": "Madison Street", "amenity": "restaurant", "cuisine": "pizza;italian;pasta;sandwich", "delivery": "yes", "delivery:fee": "no", "delivery:min_payment": "12", "name": "Madison Pizza", "opening_hours": "Mo-Sa 11:00-02:00; Su 12:00-21:00", "payment:american_express": "yes", "payment:cash": "yes", "payment:discover_card": "yes", "payment:mastercard": "yes", "payment:visa": "yes", "phone": "+1-718-831-8555", "takeaway": "yes", "website": "http://ordermadisonpizzeria.com/"}}, {"type": "node", "id": 5418882814, "lat": 40.7063536, "lon": -73.9054469, "tags": {"addr:city": "Ridgewood", "addr:housenumber": "660", "addr:postcode": "11385", "addr:state": "NY", "addr:street": "Fairview Avenue", "amenity": "cafe", "branch": "Ridgewood", "cuisine": "guatemalan;burrito;breakfast;tacos", "delivery": "yes", "description": "A family owned and operated restaurant offering seasonal Guatemalan inspired dishes.", "diet:gluten_free": "yes", "diet:vegan": "yes", "diet:vegetarian": "yes", "drink:coffee": "yes", "internet_access": "wlan", "internet_access:fee": "no", "name": "C.Lo Cafe", "opening_hours": "Mo-Fr 07:00-17:00; Sa 08:00-17:00; Su 08:00-16:00", "payment:credit_cards": "yes", "phone": "+1-929-295-0099", "takeaway": "yes", "toilets": "no", "website": "https://www.clocafe.com/ridgewood"}}, {"type": "node", "id": 5427743460, "lat": 40.7032433, "lon": -73.9057617, "tags": {"addr:housenumber": "753", "addr:street": "Onderdonk Avenue", "amenity": "school", "name": "Supermoon Community Art Space", "website": "https://supermoomartspace.com"}}, {"type": "node", "id": 5557054100, "lat": 40.7048678, "lon": -73.905392, "tags": {"addr:housenumber": "701", "addr:street": "Woodward Avenue", "name": "Target Exterminating, Inc.", "office": "company", "opening_hours": "Mo-Su 09:00-17:00", "payment:credit_cards": "yes", "payment:debit_cards": "yes", "phone": "+1-347-756-7480", "website": "https://www.ridgewoodpestcontrol.com/"}}, {"type": "node", "id": 5697730312, "lat": 40.702567, "lon": -73.9011814, "tags": {"addr:city": "Ridgewood", "addr:housenumber": "68-38", "addr:postcode": "11385", "addr:state": "NY", "addr:street": "Forest Avenue", "amenity": "bar", "brewery": "various", "cocktails": "yes", "drink:beer": "served", "drink:liquor": "served", "happy_hours": "Mo-Su 17:00-20:00", "internet_access": "wlan", "name": "Cassette", "opening_hours": "Mo-Su 17:00-02:00", "outdoor_seating": "yes", "payment:cash": "yes", "payment:credit_cards": "yes", "payment:debit_cards": "yes", "phone": "+1-917-966-6078", "toilets": "yes", "toilets:access": "permissive", "toilets:unisex": "yes", "website": "https://sundownbar.com"}}, {"type": "node", "id": 5810746758, "lat": 40.7050758, "lon": -73.9062739, "tags": {"addr:city": "Ridgewood", "addr:housenumber": "678", "addr:postcode": "11385", "addr:state": "NY", "addr:street": "Woodward Avenue", "amenity": "bar", "atm": "yes", "cocktails": "yes", "contact:facebook": "flyingfoxtavern", "contact:instagram": "flyingfoxtavern", "diet:vegan": "limited", "diet:vegetarian": "yes", "drink:beer": "yes", "drink:liquor": "yes", "drink:wine": "yes", "name": "Flying Fox Tavern", "opening_hours": "We-Su 17:00-00:00; Mo-Tu off", "phone": "+1 718-673-6384", "toilets": "yes", "toilets:access": "permissive", "toilets:unisex": "yes"}}, {"type": "node", "id": 5926890969, "lat": 40.7047502, "lon": -73.9023202, "tags": {"addr:housenumber": "793", "addr:street": "Fairview Avenue", "amenity": "restaurant", "cocktails": "yes", "drink:beer": "yes", "drink:coffee": "yes", "drink:liquor": "yes", "drink:wine": "yes", "name": "I O Cafe", "opening_hours": "Mo-Su 10:00-04:00", "phone": "+1-718-456-1207"}}, {"type": "node", "id": 5934793658, "lat": 40.7040845, "lon": -73.901837, "tags": {"addr:city": "Ridgewood", "addr:housenumber": "67-14", "addr:postcode": "11385", "addr:state": "NY", "addr:street": "Forest Avenue", "alt_name": "Nomad Cafe", "amenity": "cafe", "contact:facebook": "https://www.facebook.com/Nomad-Cafe-Eatery-339013370229759/", "cuisine": "sandwich;bagel;breakfast", "diet:vegetarian": "yes", "drink:coffee": "yes", "internet_access": "wlan", "internet_access:fee": "no", "name": "Nomad Cafe and Eatery", "opening_hours": "Tu-Fr 07:00-18:00; Sa-Su 09:00-18:00", "outdoor_seating": "sidewalk", "phone": "+1-347-227-8136", "toilets": "yes", "toilets:unisex": "yes", "toilets:wheelchair": "no", "wheelchair": "no"}}, {"type": "node", "id": 7204685441, "lat": 40.7019067, "lon": -73.9064015, "tags": {"addr:housenumber": "766", "addr:street": "Seneca Avenue", "amenity": "restaurant", "cuisine": "mexican;tacos", "diet:vegetarian": "yes", "name": "Las Chilangas"}}, {"type": "node", "id": 8356109203, "lat": 40.7019307, "lon": -73.9034953, "tags": {"addr:city": "Ridgewood", "addr:housenumber": "853", "addr:postcode": "11385", "addr:state": "NY", "addr:street": "Onderdonk Avenue", "amenity": "restaurant", "cuisine": "american", "delivery": "yes", "description": "Restaurant and small artisinal grocery store.", "diet:vegetarian": "limited", "email": "info@rolosnyc.com", "name": "Rolo's", "phone": "+1-718-417-6567", "toilets": "yes", "toilets:access": "customers", "toilets:unisex": "yes", "website": "https://www.rolosnyc.com/"}}, {"type": "node", "id": 8685702116, "lat": 40.7026414, "lon": -73.9012082, "tags": {"addr:city": "Ridgewood", "addr:housenumber": "68-38", "addr:postcode": "11385", "addr:state": "NY", "addr:street": "Forest Avenue", "amenity": "cafe", "cocktails": "served", "cuisine": "french;italian;coffee", "diet:vegan": "limited", "diet:vegetarian": "limited", "name": "Cafe Plein Air", "opening_hours": "Tu-We 08:00-17:00; Th-Sa 08:00-21:00; Su 08:00-17:00", "phone": "+1-917-522-6133", "website": "https://cafepleinair.com/"}}, {"type": "node", "id": 8685728799, "lat": 40.7029889, "lon": -73.901376, "tags": {"addr:city": "Ridgewood", "addr:housenumber": "68-22", "addr:postcode": "11385", "addr:state": "NY", "addr:street": "Forest Avenue", "amenity": "bar", "cocktails": "yes", "diet:gluten_free": "yes", "diet:vegan": "yes", "drink:beer": "yes", "drink:wine": "yes", "email": "info@hellbendernighttimecafe.com", "name": "Hellbender Nighttime Cafe", "opening_hours": "Mo-Sa 17:00-25:00;Su 16:00-24:00", "website": "https://www.hellbendernighttimecafe.com/"}}, {"type": "node", "id": 9728496053, "lat": 40.7023066, "lon": -73.9010853, "tags": {"addr:city": "Ridgewood", "addr:housenumber": "58-58", "addr:postcode": "11385", "addr:state": "NY", "addr:street": "Catalpa Avenue", "name": "Kerzner Realty", "office": "estate_agent", "phone": "+1-718-386-6015"}}, {"type": "node", "id": 11751853080, "lat": 40.7048196, "lon": -73.9058328, "tags": {"addr:city": "Ridgewood", "addr:housenumber": "690", "addr:postcode": "11385", "addr:state": "NY", "addr:street": "Woodward Avenue", "amenity": "restaurant", "cuisine": "italian;pizza", "name": "Decades", "opening_hours": "Su-Th 17:00-22:00; Fr-Sa 17:00-23:00"}}, {"type": "node", "id": 11938485145, "lat": 40.7048812, "lon": -73.9018408, "tags": {"addr:city": "Ridgewood", "addr:housenumber": "66-89", "addr:postcode": "11385", "addr:state": "NY", "addr:street": "Forest Avenue", "amenity": "restaurant", "cuisine": "mexican;tacos", "delivery": "yes", "diet:vegan": "yes", "name": "Ridgewood Taco Factory", "opening_hours": "11:00-22:00", "payment:american_express": "yes", "payment:contactless": "yes", "payment:diners_club": "yes", "payment:discover_card": "yes", "payment:jcb": "yes", "payment:mastercard": "yes", "payment:unionpay": "yes", "payment:visa": "yes", "phone": "+1-718-456-8226"}}, {"type": "node", "id": 13326816928, "lat": 40.7045908, "lon": -73.9036685}, {"type": "node", "id": 13326816929, "lat": 40.7044025, "lon": -73.9038645}, {"type": "way", "id": 250445516, "nodes": [2568855992, 2568855945, 2568855838, 2568855849, 2568855869, 2568855921, 2568855992], "tags": {"addr:housenumber": "880", "addr:postcode": "11385", "addr:street": "Woodward Avenue", "amenity": "restaurant", "bar": "yes", "building": "yes", "cuisine": "italian", "diet:meat": "yes", "diet:vegetarian": "yes", "email": "info@ilgigantenyc.com", "height": "11.5", "name": "Il Gigante", "nycdoitt:bin": "4083114", "phone": "+1-516-927-0041"}}, {"type": "way", "id": 556805908, "nodes": [5370668239, 5370668242, 5370668223, 5370668226, 13326816928, 5370668225, 13326816929, 5370668239], "tags": {"ele": "30", "gnis:feature_id": "2352610", "leisure": "park", "name": "Rosemary's Playground", "operator": "New York City Department of Parks and Recreation", "operator:short": "NYC Parks", "operator:type": "government", "operator:wikidata": "Q1894232", "wikidata": "Q34858901"}}]}