{"version": 0.6, "generator": "Overpass API 0.7.62.8 e802775f", "osm3s": {"timestamp_osm_base": "2025-12-01T17:34:30Z", "copyright": "The data included in this document is from www.openstreetmap.org. The data is made available under ODbL."}, "elements": [{"type": "node", "id": 246538378, "lat": 40.7334125, "lon": -73.9851339}, {"type": "node", "id": 246538379, "lat": 40.7345058, "lon": -73.9843537}, {"type": "node", "id": 246538404, "lat": 40.7338819, "lon": -73.9828655}, {"type": "node", "id": 357548361, "lat": 40.732711, "lon": -73.9825978, "tags": {"addr:city": "Manhattan", "addr:housenumber": "345", "addr:postcode": "10003", "addr:street": "East 15th Street", "amenity": "school", "gnis:feature_id": "943768", "name": "High School for Health Professions and Human Services", "operator": "The New York City Department of Education", "phone": "+1 212 780 9175", "website": "https://www.hphsnyc.org/", "wikidata": "Q5756583", "wikipedia": "en:High School for Health Professions and Human Services"}}, {"type": "node", "id": 357621383, "lat": 40.7324983, "lon": -73.9827378, "tags": {"amenity": "school", "ele": "7", "gnis:feature_id": "2083892", "name": "Institute for Collaborative Education"}}, {"type": "node", "id": 1493005667, "lat": 40.7302946, "lon": -73.9831042, "tags": {"amenity": "restaurant", "check_date": "2024-11-23", "cuisine": "lebanese", "delivery": "yes", "name": "Balade", "opening_hours": "Mo-Fr 17:00-24:00; Sa-Su 11:00-23:00", "outdoor_seating": "street", "phone": "+1-212 529-6868", "takeaway": "yes", "website": "https://www.baladerestaurants.com"}}, {"type": "node", "id": 2279508475, "lat": 40.7308318, "lon": -73.983183, "tags": {"addr:housenumber": "219", "addr:postcode": "10003", "addr:street": "1st Avenue", "amenity": "cafe", "brand": "Starbucks", "brand:wikidata": "Q37158", "contact:website": "https://www.starbucks.com/store-locator/store/90278/13-th-1st-219-first-avenue-new-york-ny-100033072-us", "cuisine": "coffee_shop", "diet:vegan": "yes", "drink:coffee": "yes", "drink:espresso": "yes", "drink:soy_milk": "yes", "drink:tea": "yes", "name": "Starbucks", "official_name": "Starbucks Coffee", "opening_hours": "Mo-Fr 06:00-20:00; Sa-Su 06:00-19:30", "takeaway": "yes"}}, {"type": "node", "id": 2279533265, "lat": 40.7332351, "lon": -73.9874295}, {"type": "node", "id": 2279536009, "lat": 40.7325595, "lon": -73.9850445, "tags": {"addr:city": "New York", "addr:housenumber": "231", "addr:postcode": "10003", "addr:state": "NY", "addr:street": "2nd Avenue", "amenity": "restaurant", "bar": "yes", "cocktails": "yes", "cuisine": "mediterranean", "drink:beer": "draught", "drink:liquor": "yes", "drink:wine": "yes", "name": "The Laurels", "opening_hours": "Mo 15:00-02:00, Tu-We 10:00-02:00, Th-Sa 10:00-04:00, Su 10:00-02:00", "outdoor_seating": "yes", "phone": "+1-646-398-9002", "website": "https://thelaurelsnyc.com"}}, {"type": "node", "id": 2279542456, "lat": 40.732808, "lon": -73.9855592, "tags": {"addr:city": "New York", "addr:housenumber": "235", "addr:postcode": "10003", "addr:state": "NY", "addr:street": "East 14th Street", "addr:unit": "237", "alt_name": "International House of Pancakes", "amenity": "restaurant", "brand": "IHOP", "brand:wikidata": "Q1185675", "check_date": "2024-08-29", "cuisine": "breakfast;pancake", "name": "IHOP", "opening_hours": "24/7", "phone": "+1 212-388-1499", "source": "official website", "website": "https://restaurants.ihop.com/en-us/ny/new-york/breakfast-235-e-14th-st-237-3357"}}, {"type": "node", "id": 2287619730, "lat": 40.7302647, "lon": -73.9838635, "tags": {"addr:housenumber": "349", "addr:postcode": "10003", "addr:street": "East 12th Street", "amenity": "restaurant", "cuisine": "thai", "drink:beer": "yes", "drink:wine": "yes", "happy_hours": "Mo-Su 17:00-22:00", "name": "Thai Terminal", "opening_hours": "Mo-Th 12:00-22:15; Fr-Su 12:00-22:30"}}, {"type": "node", "id": 2494245511, "lat": 40.7300152, "lon": -73.9885939}, {"type": "node", "id": 2494246603, "lat": 40.7300232, "lon": -73.9884911}, {"type": "node", "id": 2547114752, "lat": 40.7323434, "lon": -73.9876343, "tags": {"addr:housenumber": "101", "addr:postcode": "10003", "addr:street": "3rd Avenue", "amenity": "restaurant", "bar": "yes", "cocktails": "yes", "cuisine": "american;pub;brunch", "drink:beer": "draught", "drink:liquor": "yes", "drink:wine": "yes", "name": "Linen Hall", "opening_hours": "Mo-Th 11:00-24:00; Fr-Sa 11:00-02:00", "opening_hours:kitchen": "Mo-Sa 11:00-21:00", "phone": "+1-646-602-9316", "toilets:wheelchair": "no", "website": "https://linenhallnyc.com", "wheelchair": "yes"}}, {"type": "node", "id": 2547114757, "lat": 40.7324161, "lon": -73.9875816, "tags": {"addr:housenumber": "103", "addr:postcode": "10003", "addr:street": "3rd Avenue", "amenity": "pub", "cocktails": "yes", "cuisine": "american;pub;brunch", "drink:beer": "draught", "drink:liquor": "yes", "drink:wine": "yes", "name": "The Penny Farthing", "opening_hours": "Mo-Th 11:00-24:00; Fr-Sa 11:00-02:00", "opening_hours:kitchen": "Mo-Sa 11:00-21:00", "outdoor_seating": "sidewalk", "phone": "+1-212-387-7300", "toilets": "yes", "toilets:unisex": "yes", "toilets:wheelchair": "no", "website": "https://thepennyfarthingnyc.com", "wheelchair": "yes"}}, {"type": "node", "id": 2547114825, "lat": 40.7318319, "lon": -73.9855738, "tags": {"addr:city": "New York", "addr:housenumber": "213", "addr:postcode": "10003", "addr:state": "NY", "addr:street": "2nd Avenue", "amenity": "pub", "name": "Jackdaw", "opening_hours": "Mo-Fr 11:00-23:00; Sa,Su 10:00-23:00", "outdoor_seating": "sidewalk;street"}}, {"type": "node", "id": 2547121482, "lat": 40.7304045, "lon": -73.9861256, "tags": {"addr:housenumber": "174", "addr:postcode": "10003", "addr:street": "2nd Avenue", "alt_name": "Plump Dumpling", "amenity": "restaurant", "catering": "yes", "cuisine": "malaysian;thai;vietnamese", "delivery": "yes", "diet:vegetarian": "yes", "drink:beer": "yes", "drink:sake": "yes", "drink:wine": "yes", "fax": "+1-212-254-3082", "name": "Love Mama", "old_name": "Love Ph\u1edf", "opening_hours": "Mo-Su 11:30-22:00", "outdoor_seating": "sidewalk", "phone": "+1-212-254-5370", "takeaway": "yes", "website": "https://lovemamanyc.com"}}, {"type": "node", "id": 2547122345, "lat": 40.7295404, "lon": -73.9841399}, {"type": "node", "id": 2547122878, "lat": 40.729764, "lon": -73.9846675}, {"type": "node", "id": 2547123158, "lat": 40.7299951, "lon": -73.9852476}, {"type": "node", "id": 2547123163, "lat": 40.7300155, "lon": -73.983792}, {"type": "node", "id": 2547123184, "lat": 40.7301682, "lon": -73.9851202}, {"type": "node", "id": 2547123193, "lat": 40.7302391, "lon": -73.9843196}, {"type": "node", "id": 2547123239, "lat": 40.7303722, "lon": -73.9848682}, {"type": "node", "id": 2547123271, "lat": 40.730484, "lon": -73.984878}, {"type": "node", "id": 2547136896, "lat": 40.730686, "lon": -73.9864013, "tags": {"addr:housenumber": "175", "addr:postcode": "10003", "addr:street": "2nd Avenue", "amenity": "bar", "drink:wine": "designated", "name": "Bar Veloce", "opening_hours": "Mo-Th 16:00-24:00; Fr-Sa 16:00-01:00; Su 16:00-24:00", "outdoor_seating": "sidewalk", "website": "https://www.winebarveloce.com"}}, {"type": "node", "id": 2547155234, "lat": 40.7304731, "lon": -73.9894757, "tags": {"addr:housenumber": "36", "addr:postcode": "10003", "addr:street": "3rd Avenue", "amenity": "cafe", "cuisine": "coffee_shop", "name": "Hidden Grounds"}}, {"type": "node", "id": 2547205472, "lat": 40.7323365, "lon": -73.9881158, "tags": {"amenity": "restaurant", "cuisine": "chinese", "delivery": "yes", "name": "Hunan Bistro", "phone": "+1-212-388-9855", "takeaway": "yes"}}, {"type": "node", "id": 2547205697, "lat": 40.7329807, "lon": -73.9876127}, {"type": "node", "id": 2547205708, "lat": 40.733064, "lon": -73.9875528}, {"type": "node", "id": 2547205711, "lat": 40.7330821, "lon": -73.987852}, {"type": "node", "id": 2547205729, "lat": 40.7331109, "lon": -73.9876636}, {"type": "node", "id": 2547205745, "lat": 40.7331649, "lon": -73.987791}, {"type": "node", "id": 2547205761, "lat": 40.7331928, "lon": -73.9876036}, {"type": "node", "id": 2547205765, "lat": 40.7332113, "lon": -73.9876473}, {"type": "node", "id": 2547218712, "lat": 40.7303404, "lon": -73.9820953}, {"type": "node", "id": 2547218781, "lat": 40.7305043, "lon": -73.9819761}, {"type": "node", "id": 2547218785, "lat": 40.73051, "lon": -73.9820914}, {"type": "node", "id": 2547218808, "lat": 40.7305355, "lon": -73.9819534}, {"type": "node", "id": 2547218814, "lat": 40.7305392, "lon": -73.9825675}, {"type": "node", "id": 2547218816, "lat": 40.7305411, "lon": -73.9819668}, {"type": "node", "id": 2547218820, "lat": 40.7305571, "lon": -73.981973}, {"type": "node", "id": 2547218823, "lat": 40.7305674, "lon": -73.9820291}, {"type": "node", "id": 2547218825, "lat": 40.7305725, "lon": -73.9820096}, {"type": "node", "id": 2547218827, "lat": 40.730574, "lon": -73.9820449}, {"type": "node", "id": 2547218836, "lat": 40.7305821, "lon": -73.9822627}, {"type": "node", "id": 2547218867, "lat": 40.7306702, "lon": -73.9824721}, {"type": "node", "id": 2562432504, "lat": 40.7316362, "lon": -73.9828499, "tags": {"addr:housenumber": "351", "addr:postcode": "10003", "addr:street": "East 14th Street", "alt_name": "Hakata Izakaya", "amenity": "restaurant", "bar": "yes", "cuisine": "japanese", "drink:beer": "yes", "drink:sake": "yes", "drink:wine": "yes", "name": "Rockmeisha", "opening_hours": "Tu-Su 18:00-23:00", "phone": "+1-646-360-2598"}}, {"type": "node", "id": 2562432745, "lat": 40.7325065, "lon": -73.9843101}, {"type": "node", "id": 2562432758, "lat": 40.7325441, "lon": -73.9842825}, {"type": "node", "id": 2562432770, "lat": 40.7325944, "lon": -73.9845175}, {"type": "node", "id": 2562432780, "lat": 40.7326142, "lon": -73.9842312}, {"type": "node", "id": 2562432785, "lat": 40.7326308, "lon": -73.9842704}, {"type": "node", "id": 2562432793, "lat": 40.7326643, "lon": -73.9841944}, {"type": "node", "id": 2562432805, "lat": 40.732681, "lon": -73.9842336}, {"type": "node", "id": 2562432839, "lat": 40.7327716, "lon": -73.9841158}, {"type": "node", "id": 2562432860, "lat": 40.7328596, "lon": -73.9843232}, {"type": "node", "id": 2611290567, "lat": 40.7309012, "lon": -73.9833892, "tags": {"addr:city": "New York", "addr:housenumber": "349", "addr:postcode": "10003", "addr:street": "East 13th Street", "amenity": "bar", "cocktails": "yes", "drink:beer": "draught", "drink:liquor": "yes", "drink:wine": "yes", "name": "Idaho"}}, {"type": "node", "id": 2611479030, "lat": 40.7309843, "lon": -73.983062, "tags": {"amenity": "restaurant", "branch": "Go", "brand": "Buffalo Wild Wings", "brand:wikidata": "Q509255", "cuisine": "wings", "name": "Buffalo Wild Wings", "opening_hours": "Mo-Th 11:00-01:00, Fr-Sa 11:00-02:00, Su 11:00-01:00", "short_name": "BW3", "takeaway": "yes"}}, {"type": "node", "id": 2611479031, "lat": 40.7308818, "lon": -73.9831335, "tags": {"alt_name": "Fattoush by Salma", "amenity": "restaurant", "cuisine": "mediterranean", "name": "Fattoush"}}, {"type": "node", "id": 2611479035, "lat": 40.7307963, "lon": -73.9827498, "tags": {"amenity": "restaurant", "cuisine": "indian", "name": "Veeray Da Dhaba", "opening_hours": "Mo-Su 12:00-21:00", "phone": "+1-212-777-1420"}}, {"type": "node", "id": 2611479038, "lat": 40.7304977, "lon": -73.9829866, "tags": {"addr:city": "New York", "addr:housenumber": "214", "addr:street": "1st Avenue", "amenity": "restaurant", "cuisine": "pizza", "name": "Onion Tree Pizza Co"}}, {"type": "node", "id": 2611479042, "lat": 40.7303986, "lon": -73.9830423, "tags": {"amenity": "restaurant", "check_date": "2024-11-23", "name": "Gena's Grill", "opening_hours": "Mo-Su 07:00-23:00"}}, {"type": "node", "id": 2611490850, "lat": 40.7302858, "lon": -73.9839142, "tags": {"addr:city": "New York", "addr:housenumber": "349", "addr:postcode": "10003", "addr:state": "NY", "addr:street": "East 12th Street", "amenity": "restaurant", "cuisine": "pizza", "drink:beer": "yes", "drink:wine": "yes", "name": "Motorino", "opening_hours": "Mo-Th 16:00-22:30, Fr-Su 12:00-22:30", "outdoor_seating": "sidewalk", "phone": "+1-212-777-2644", "website": "https://www.motorinony.com/location/east-village/"}}, {"type": "node", "id": 2611490851, "lat": 40.7301897, "lon": -73.9836385, "tags": {"addr:city": "New York", "addr:housenumber": "197", "addr:postcode": "10003", "addr:state": "NY", "addr:street": "1st Avenue", "alt_name": "Sarita's Mac and Cheese", "amenity": "restaurant", "cuisine": "macaroni_and_cheese", "name": "S'MAC", "opening_hours": "Mo-Su 11:00-23:00", "outdoor_seating": "sidewalk", "phone": "+1-212-358-7912", "website": "https://www.eatsmac.com"}}, {"type": "node", "id": 2611490853, "lat": 40.7303381, "lon": -73.9835297, "tags": {"amenity": "restaurant", "cuisine": "vietnamese", "drink:beer": "yes", "drink:wine": "yes", "name": "Sao Mai", "opening_hours": "Mo-Su 11:00-22:00", "phone": "+1-212-358-8880", "website": "http://saomainyc.com"}}, {"type": "node", "id": 2704022017, "lat": 40.7350205, "lon": -73.9878029, "tags": {"amenity": "school", "check_date": "2024-03-28", "fax": "+1-212-439-8705", "name": "Goethe Institut", "name:de": "Goethe Institut", "name:en": "Goethe Institute", "phone": "+1-212-439-8700", "website:de": "https://www.goethe.de/ins/us/de/sta/ney.html", "website:en": "https://www.goethe.de/ins/us/en/sta/ney.html"}}, {"type": "node", "id": 2704023647, "lat": 40.735181, "lon": -73.9860339, "tags": {"addr:city": "New York", "addr:housenumber": "184", "addr:postcode": "10003", "addr:street": "3rd Avenue", "amenity": "cafe", "name": "Gramercy Cafe", "opening_hours:signed": "no", "phone": "+1 212-982-2121", "toilets:wheelchair": "yes", "website": "http://www.gramercycafenyc.com/", "wheelchair": "yes"}}, {"type": "node", "id": 2704042931, "lat": 40.7350273, "lon": -73.9832212, "tags": {"addr:housenumber": "311", "addr:postcode": "10003", "addr:street": "2nd Avenue", "amenity": "restaurant", "cuisine": "indian", "fax": "+1-917-472-7593", "name": "Manhattan Indian Flavor", "opening_hours": "Tu-Th 11:00-15:00,16:30-22:00; Fr-Sa 11:00-15:00,16:30-22:30; Su 11:00-15:00,16:30-22:00", "phone": "+1-917-472-7593", "takeaway": "yes", "website": "https://manhattanindianflavor.com"}}, {"type": "node", "id": 2704042945, "lat": 40.7352652, "lon": -73.983052, "tags": {"addr:housenumber": "323A", "addr:postcode": "10003", "addr:street": "2nd Avenue", "amenity": "cafe", "cuisine": "crepe;coffee_shop", "drink:coffee": "yes", "drink:espresso": "yes", "drink:tea": "yes", "name": "Mon Cheri", "opening_hours": "Mo-Fr 07:00-18:30; Sa-Su 07:00-18:00", "outdoor_seating": "sidewalk", "phone": "+1-917-409-0077"}}, {"type": "node", "id": 2704042962, "lat": 40.735401, "lon": -73.9829582, "tags": {"addr:housenumber": "327", "addr:postcode": "10003", "addr:street": "2nd Avenue", "amenity": "restaurant", "bar": "yes", "cuisine": "italian", "drink:liquor": "yes", "drink:wine": "yes", "name": "L'Angeletto", "opening_hours": "Mo-Fr 16:30-22:00; Sa-Su 11:30-22:00", "outdoor_seating": "sidewalk", "phone": "+1-212-253-9600", "website": "https://langeletto.com"}}, {"type": "node", "id": 3131828039, "lat": 40.7348845, "lon": -73.9885442, "tags": {"addr:housenumber": "119", "addr:street": "East 15th Street", "amenity": "pub", "brewery": "Guinness;Stella Artois", "name": "The Headless Horseman", "opening_hours": "We 16:00-01:00; Sa 12:00-03:00; Su 12:00-23:00; Mo, Tu 16:00-00:00; Th 16:00-02:00; Fr 16:00-03:00", "payment:cash": "yes", "payment:credit_cards": "yes", "payment:debit_cards": "yes", "phone": "+1-212-777-5101", "smoking": "no", "toilets": "yes", "toilets:access": "permissive", "toilets:unisex": "no", "website": "http://headlesshorsemannyc.com/", "wheelchair": "yes"}}, {"type": "node", "id": 3238681550, "lat": 40.7332999, "lon": -73.9875824}, {"type": "node", "id": 3578036493, "lat": 40.7320364, "lon": -73.9854459, "tags": {"amenity": "bar", "cocktails": "yes", "cuisine": "american", "drink:beer": "draught", "drink:liquor": "yes", "drink:wine": "yes", "happy_hours": "Mo-Th 11:00-19:00; Fr 11:00-18:00", "name": "Little Rebel", "opening_hours": "Mo 11:00-24:00; Tu-Th 11:00-02:00; Fr-Sa 11:00-04:00; Su 11:00-24:00", "outdoor_seating": "sidewalk", "phone": "+1-646-922-7325", "website": "https://www.littlerebelnyc.com"}}, {"type": "node", "id": 3583796993, "lat": 40.7354601, "lon": -73.9861323, "tags": {"addr:city": "New York", "addr:housenumber": "145", "addr:postcode": "10003", "addr:street": "East 17th Street", "amenity": "cafe", "name": "Corbet & Conley", "opening_hours:signed": "no", "phone": "+1 212-982-3939"}}, {"type": "node", "id": 3676764311, "lat": 40.7329227, "lon": -73.9867234, "tags": {"addr:city": "New York", "addr:housenumber": "210", "addr:postcode": "10003", "addr:state": "NY", "addr:street": "East 14th Street", "amenity": "restaurant", "name": "Kyuramen", "opening_hours": "Su-Th 11:00-22:30; Fr,Sa 11:00-23:30", "phone": "+1-646-692-4120", "website": "https://www.kyuramen.com"}}, {"type": "node", "id": 3676784853, "lat": 40.7326688, "lon": -73.986116, "tags": {"addr:city": "New York", "addr:housenumber": "226", "addr:postcode": "10003", "addr:state": "NY", "addr:street": "East 14th Street", "amenity": "cafe", "branch": "Grammercy", "drink:bubble_tea": "yes", "drink:coffee": "no", "name": "ViVi Bubble Tea", "opening_hours": "Mo-Su 11:00-22:00", "payment:credit_cards": "yes", "phone": "+1-212-777-8988", "website": "https://vivibubbletea.com"}}, {"type": "node", "id": 3676858326, "lat": 40.7326652, "lon": -73.9852955, "tags": {"addr:city": "New York", "addr:housenumber": "243", "addr:postcode": "10003", "addr:state": "NY", "addr:street": "East 14th Street", "amenity": "pub", "cocktails": "yes", "cuisine": "pub;brunch", "drink:beer": "draught", "drink:liquor": "yes", "drink:wine": "yes", "happy_hours": "Mo 16:00-19:00, Tu-Th 16:00-20:00, Fr 16:00-19:00, Sa-Su 12:00-15:00", "name": "The Winslow", "opening_hours": "Mo-We 16:00-02:00, Th 16:00-03:00, Fr 16:00-04:00, Sa 12:00-04:00, Su 12:00-03:00", "phone": "+1-212-777-7717", "website": "https://thewinslownyc.com"}}, {"type": "node", "id": 3676873362, "lat": 40.7328438, "lon": -73.9857034, "tags": {"addr:city": "New York", "addr:housenumber": "233", "addr:postcode": "10003", "addr:state": "NY", "addr:street": "East 14th Street", "amenity": "bar", "brand": "Coyote Ugly Saloon", "brand:wikidata": "Q4131558", "name": "Coyote Ugly Saloon", "opening_hours": "Tu-Th 16:00-02:00; Fr 15:00-03:00; Sa 12:00-04:00; Su 12:00-03:00", "toilets": "yes", "wheelchair": "yes"}}, {"type": "node", "id": 3676873363, "lat": 40.732876, "lon": -73.9857799, "tags": {"addr:city": "New York", "addr:housenumber": "231", "addr:postcode": "10003", "addr:state": "NY", "addr:street": "East 14th Street", "amenity": "bar", "name": "Beauty Bar", "opening_hours": "Mo-Fr 17:00-04:00; Sa-Su 14:00-04:00", "phone": "+1-212-539-1389", "website": "http://thebeautybar.com/about-new-york"}}, {"type": "node", "id": 3676873366, "lat": 40.7329802, "lon": -73.9860274, "tags": {"addr:city": "New York", "addr:housenumber": "225", "addr:postcode": "10003", "addr:state": "NY", "addr:street": "East 14th Street", "amenity": "restaurant", "cuisine": "sushi", "delivery": "yes", "name": "Yaki Sushi", "opening_hours": "Mo-Fr,Su 11:00-22:00", "phone": "+1-929-468-7888", "takeaway": "yes"}}, {"type": "node", "id": 3676902927, "lat": 40.7337952, "lon": -73.9865529, "tags": {"addr:housenumber": "145", "addr:postcode": "10003", "addr:street": "3rd Avenue", "amenity": "cafe", "brand": "Starbucks", "brand:wikidata": "Q37158", "cuisine": "coffee_shop", "name": "Starbucks", "official_name": "Starbucks Coffee", "opening_hours": "Mo-Fr 05:30-19:30; Sa-Su 06:00-18:30", "takeaway": "yes", "toilets:wheelchair": "no", "wheelchair": "yes"}}, {"type": "node", "id": 3676918484, "lat": 40.7341491, "lon": -73.9862974, "tags": {"addr:city": "New York", "addr:housenumber": "155", "addr:postcode": "10003", "addr:state": "NY", "addr:street": "3rd Avenue", "amenity": "restaurant", "cuisine": "chinese", "name": "For U", "opening_hours": "Mo-Th 11:00-22:00; Fr-Sa 11:00-22:30; Su 11:00-22:00", "phone": "+1-646-822-3530", "website": "https://www.foru155.com", "wheelchair": "no"}}, {"type": "node", "id": 3676918489, "lat": 40.7344416, "lon": -73.9860982, "tags": {"addr:city": "New York", "addr:housenumber": "165", "addr:postcode": "10003", "addr:state": "NY", "addr:street": "3rd Avenue", "amenity": "cafe", "cuisine": "coffee_shop;sandwich", "drink:coffee": "yes", "drink:espresso": "yes", "drink:tea": "yes", "name": "Cupsoul", "outdoor_seating": "sidewalk", "toilets:wheelchair": "yes", "website": "https://cupsoul.com", "wheelchair": "yes"}}, {"type": "node", "id": 3676972134, "lat": 40.7316957, "lon": -73.9829911, "tags": {"addr:city": "New York", "addr:housenumber": "347", "addr:postcode": "10003", "addr:state": "NY", "addr:street": "East 14th Street", "amenity": "restaurant", "cuisine": "thai", "name": "Kati", "opening_hours": "Mo-Sa 12:00-22:30; Su 16:00-22:30", "outdoor_seating": "sidewalk", "phone": "+1-212-533-2046", "website": "https://katithai.com/"}}, {"type": "node", "id": 3677010929, "lat": 40.7318045, "lon": -73.9840953, "tags": {"addr:city": "New York", "addr:housenumber": "322", "addr:postcode": "10003", "addr:state": "NY", "addr:street": "East 14th Street", "amenity": "bar", "check_date:opening_hours": "2021-05-07", "name": "Nowhere", "opening_hours": "Mo-Su 15:00-04:00", "phone": "+1-212-477-4744", "sport": "billiards", "website": "https://www.nowherebarnyc.com/"}}, {"type": "node", "id": 4396459593, "lat": 40.7316574, "lon": -73.9856935, "tags": {"addr:housenumber": "207", "addr:postcode": "10003", "addr:street": "2nd Avenue", "amenity": "restaurant", "cocktails": "yes", "cuisine": "indian", "drink:liquor": "yes", "drink:wine": "yes", "name": "Jazba", "opening_hours": "Mo-Th 17:00-22:00; Fr-Sa 17:00-23:00; Su 17:00-22:00", "phone": "+1-646-861-3343", "website": "https://www.jazbanyc.com"}}, {"type": "node", "id": 4416202291, "lat": 40.734635, "lon": -73.9859521, "tags": {"addr:city": "New York", "addr:housenumber": "167", "addr:postcode": "10003", "addr:state": "NY", "addr:street": "3rd Avenue", "amenity": "restaurant", "cuisine": "american;grill;seafood;diner", "name": "Joe Junior", "name:en": "Joe Junior", "opening_hours": "Mo-Su 06:00-23:30", "outdoor_seating": "yes", "phone": "+1 212 473 5150", "toilets": "yes", "toilets:unisex": "yes"}}, {"type": "node", "id": 4426826906, "lat": 40.7350082, "lon": -73.9857014, "tags": {"addr:housenumber": "179", "addr:postcode": "10003", "addr:street": "3rd Avenue", "amenity": "restaurant", "bar": "yes", "cocktails": "yes", "cuisine": "italian;pizza", "drink:beer": "yes", "drink:coffee": "yes", "drink:espresso": "yes", "drink:liquor": "yes", "drink:tea": "yes", "drink:wine": "yes", "name": "Follia", "opening_hours": "Mo-Tu 16:30-21:30; We-Fr 16:30-22:00; Sa 12:00-22:00; Su 12:00-21:30", "outdoor_seating": "sidewalk", "phone": "+1-212-477-4100", "toilets:wheelchair": "yes", "website": "https://www.follianyc.com", "wheelchair": "yes"}}, {"type": "node", "id": 4502535317, "lat": 40.7302202, "lon": -73.9850087}, {"type": "node", "id": 4502535318, "lat": 40.7302454, "lon": -73.984315}, {"type": "node", "id": 4557494991, "lat": 40.732773, "lon": -73.9877871, "tags": {"addr:housenumber": "106", "addr:postcode": "10003", "addr:street": "East 13th Street", "alt_name": "Thirty Love", "amenity": "bar", "check_date": "2025-06-15", "name": "30 Love"}}, {"type": "node", "id": 4557537890, "lat": 40.7323273, "lon": -73.9873238, "tags": {"amenity": "restaurant", "internet_access": "no", "name": "Soothr", "opening_hours": "Mo-Su 12:00-16:00; Mo-Th, Su 17:00-22:00; Fr, Sa 17:00-22:30"}}, {"type": "node", "id": 4747803481, "lat": 40.7342486, "lon": -73.9837404}, {"type": "node", "id": 4747803482, "lat": 40.7341314, "lon": -73.9834614}, {"type": "node", "id": 4747803483, "lat": 40.7331585, "lon": -73.9845314}, {"type": "node", "id": 4747803484, "lat": 40.7330415, "lon": -73.9842559}, {"type": "node", "id": 5097819389, "lat": 40.7307115, "lon": -73.9854886, "tags": {"addr:housenumber": "302", "addr:street": "East 12th Street", "amenity": "restaurant", "cuisine": "italian", "diet:vegan": "yes", "name": "John's of 12th Street", "opening_hours": "Mo-Su 16:00-22:00", "phone": "+1-212-475-9531", "website": "https://www.johnsof12thstreet.com/"}}, {"type": "node", "id": 5403603958, "lat": 40.7311482, "lon": -73.9855345, "tags": {"addr:housenumber": "200", "addr:postcode": "10003", "addr:street": "2nd Avenue", "amenity": "restaurant", "cuisine": "polish", "drink:beer": "yes", "drink:coffee": "yes", "drink:tea": "yes", "drink:wine": "yes", "name": "Little Poland", "opening_hours": "Mo-Su 07:00-23:00", "outdoor_seating": "sidewalk", "phone": "+1-212-777-9728", "website": "https://www.littlepolandnyc.com"}}, {"type": "node", "id": 5415350325, "lat": 40.730937, "lon": -73.9831109, "tags": {"amenity": "restaurant", "cuisine": "noodle;chinese", "name": "Mee", "opening_hours": "Mo-Su 11:30-21:30"}}, {"type": "node", "id": 5620520170, "lat": 40.7346858, "lon": -73.9886233, "tags": {"addr:housenumber": "118", "addr:street": "East 15th Street", "amenity": "bar", "happy_hours": "Mo-Fr 12:00-19:00", "internet_access": "wlan", "internet_access:ssid": "-Sidebar WiFi-", "name": "SideBAR", "opening_hours": "Mo-Tu,Su 12:00-24:00; We 12:00-01:00; Th 12:00-02:00; Fr-Sa 12:00-04:00", "outdoor_seating": "yes", "payment:cash": "yes", "payment:credit_cards": "yes", "phone": "+1-212-677-2900", "reservation": "yes", "toilets": "yes", "website": "https://www.sidebarny.com/", "wheelchair": "yes"}}, {"type": "node", "id": 6397263568, "lat": 40.7349714, "lon": -73.9876825, "tags": {"addr:city": "New York", "addr:housenumber": "30", "addr:postcode": "10003", "addr:state": "NY", "addr:street": "Irving Place", "level": "11", "name": "Innovid", "office": "company", "phone": "+1-212-966-7555"}}, {"type": "node", "id": 6462532123, "lat": 40.7309719, "lon": -73.9886066, "tags": {"addr:housenumber": "55", "addr:postcode": "10003", "addr:street": "3rd Avenue", "amenity": "restaurant", "cocktails": "yes", "drink:beer": "draught", "drink:liquor": "yes", "drink:wine": "yes", "name": "The Smith", "outdoor_seating": "sidewalk;street", "toilets:wheelchair": "yes", "wheelchair": "yes"}}, {"type": "node", "id": 6462532126, "lat": 40.7303245, "lon": -73.9895846, "tags": {"addr:housenumber": "30", "addr:postcode": "10003", "addr:street": "3rd Avenue", "amenity": "cafe", "drink:bubble_tea": "yes", "indoor_seating": "yes", "name": "ViVi Bubble Tea", "opening_hours": "Mo-Th 11:00-21:00; Fr-Sa 11:00-01:00; Su 11:00-23:00", "outdoor_seating": "no", "toilets": "yes", "toilets:access": "customers"}}, {"type": "node", "id": 6680695932, "lat": 40.7316647, "lon": -73.9829175, "tags": {"addr:city": "New York", "addr:housenumber": "349", "addr:postcode": "10003", "addr:street": "East 14th Street", "amenity": "bar", "disused:website": "http://www.ohanlonsnyc.com", "name": "O'Hanlons Bar", "opening_hours": "Mo-Sa 08:00-04:00, Su 12:00-04:00", "outdoor_seating": "sidewalk", "phone": "+1-212-533-7333"}}, {"type": "node", "id": 6693478207, "lat": 40.7327461, "lon": -73.9883025, "tags": {"addr:housenumber": "134", "addr:postcode": "10003", "addr:street": "East 13th Street", "amenity": "cafe", "drink:coffee": "yes", "drink:espresso": "yes", "name": "Everyman Espresso", "opening_hours": "Mo-Sa 08:00-17:00; Su 09:00-17:00"}}, {"type": "node", "id": 6761624789, "lat": 40.7310697, "lon": -73.9855764, "tags": {"addr:housenumber": "196", "addr:postcode": "10003", "addr:street": "2nd Avenue", "amenity": "bar", "level": "-1", "name": "Juke Bar", "website": "https://jukebarnyc.com/"}}, {"type": "node", "id": 6910793420, "lat": 40.7310339, "lon": -73.982565, "tags": {"addr:housenumber": "228", "addr:postcode": "10009", "addr:street": "1st Avenue", "amenity": "restaurant", "cuisine": "greek;seafood", "drink:wine": "yes", "name": "Tavern Kyclades", "opening_hours": "Mo-Th 12:00-23:00; Fr-Sa 12:00-23:30; Su 12:00-22:30", "phone": "+1-212-432-0011", "reservation": "no", "website": "https://www.tavernakyclades.com/east-village"}}, {"type": "node", "id": 6910793421, "lat": 40.7311721, "lon": -73.9829309, "tags": {"amenity": "restaurant", "check_date": "2024-09-22", "diet:vegetarian": "yes", "name": "New Arc Chicken"}}, {"type": "node", "id": 7047041785, "lat": 40.7315779, "lon": -73.9895131, "tags": {"addr:postcode": "10003", "amenity": "restaurant", "name": "Cath\u00e9dral", "opening_hours": "We-Sa 18:00-23:00"}}, {"type": "node", "id": 7905888984, "lat": 40.7306355, "lon": -73.9859173, "tags": {"amenity": "restaurant", "cuisine": "italian", "name": "Cacio e Pepe", "opening_hours:signed": "no", "phone": "+1-212-505-5931"}}, {"type": "node", "id": 8309479188, "lat": 40.7288164, "lon": -73.9902623}, {"type": "node", "id": 8309479194, "lat": 40.7283519, "lon": -73.9906079}, {"type": "node", "id": 8309479195, "lat": 40.7282004, "lon": -73.9902508}, {"type": "node", "id": 8309479196, "lat": 40.7286689, "lon": -73.9899131}, {"type": "node", "id": 8887980285, "lat": 40.7302267, "lon": -73.9848554}, {"type": "node", "id": 8887980286, "lat": 40.7302438, "lon": -73.9850645}, {"type": "node", "id": 8887980287, "lat": 40.7297525, "lon": -73.9846759}, {"type": "node", "id": 8888045087, "lat": 40.7302679, "lon": -73.9843682}, {"type": "node", "id": 8888045088, "lat": 40.7297729, "lon": -73.9847239}, {"type": "node", "id": 9088344065, "lat": 40.7306929, "lon": -73.9858959, "tags": {"addr:city": "New York", "addr:housenumber": "184", "addr:postcode": "10003", "addr:state": "NY", "addr:street": "2nd Avenue", "amenity": "cafe", "cuisine": "bagel", "drive_through": "no", "name": "Tompkins Square Bagels", "opening_hours": "Mo-Fr 07:00-19:00; Sa-Su 07:00-17:00", "phone": "+1-917-472-7639", "takeaway": "yes", "website": "https://www.tompkinssquarebagels.com/"}}, {"type": "node", "id": 9285956796, "lat": 40.7325074, "lon": -73.987978, "tags": {"amenity": "restaurant", "cocktails": "yes", "cuisine": "texan;mexican", "drink:beer": "draught", "drink:liquor": "yes", "drink:wine": "yes", "name": "Yellow Rose", "opening_hours": "Mo 17:00-22:00; Tu-Fr 12:00-22:00; Sa-Su 11:00-16:00,17:00-22:00", "phone": "+1-212-529-8880", "website": "https://www.yellowrosenyc.com", "wheelchair": "limited"}}, {"type": "node", "id": 9434253289, "lat": 40.7348485, "lon": -73.9858048, "tags": {"addr:housenumber": "175", "addr:postcode": "10003", "addr:street": "3rd Avenue", "amenity": "restaurant", "cuisine": "thai", "delivery": "yes", "name": "Thai Delight", "opening_hours": "Mo-Su 12:00-16:00,17:00-22:00", "phone": "+1-212-228-9997", "takeaway": "yes", "website": "https://thaidelightnyc.com", "wheelchair": "yes"}}, {"type": "node", "id": 9434253290, "lat": 40.7347769, "lon": -73.9858522, "tags": {"addr:housenumber": "173", "addr:postcode": "10003", "addr:street": "3rd Avenue", "amenity": "restaurant", "cuisine": "georgian", "drink:beer": "yes", "drink:coffee": "yes", "drink:espresso": "yes", "drink:liquor": "yes", "drink:tea": "yes", "drink:wine": "yes", "name": "Chito Gvrito", "opening_hours": "Mo-Th 12:00-23:00; Fr-Sa 12:00-24:00; Su 11:00-22:00", "outdoor_seating": "street", "phone": "+1-646-767-0154", "website": "https://chito-gvritonyc.com", "wheelchair": "yes"}}, {"type": "node", "id": 9543885217, "lat": 40.7303032, "lon": -73.9839567, "tags": {"addr:housenumber": "345", "addr:postcode": "10003", "addr:street": "East 12th Street", "amenity": "cafe", "name": "Saltwater Coffee"}}, {"type": "node", "id": 9579314646, "lat": 40.7329596, "lon": -73.9859835, "tags": {"addr:city": "New York", "addr:housenumber": "227", "addr:postcode": "10003", "addr:state": "NY", "addr:street": "East 14th Street", "amenity": "cafe", "cuisine": "bubble_tea", "drink:bubble_tea": "yes", "drink:coffee": "no", "drink:tea": "yes", "name": "MooMooCha", "opening_hours": "Mo-Th 12:00-21:00; Fr-Sa 12:00-22:00; Su 12:00-21:00", "outdoor_seating": "no", "website": "https://www.moomoochaanyc.com/"}}, {"type": "node", "id": 9579352615, "lat": 40.7310793, "lon": -73.9883694, "tags": {"addr:housenumber": "55", "addr:postcode": "10003", "addr:street": "3rd Avenue", "amenity": "restaurant", "cuisine": "american", "name": "Rubys", "opening_hours": "Mo-Su 09:00-22:30", "outdoor_seating": "sidewalk;street", "toilets:wheelchair": "yes", "wheelchair": "yes"}}, {"type": "node", "id": 9579352616, "lat": 40.7310867, "lon": -73.9885167, "tags": {"addr:housenumber": "55", "addr:postcode": "10003", "addr:street": "3rd Avenue", "amenity": "restaurant", "cuisine": "chinese", "internet_access": "wlan", "name": "The Dolar Shop", "opening_hours": "Mo-Th 12:00-00:00; Fr 12:00-01:00; Sa 11:30-01:00; Su 11:30-00:00", "outdoor_seating": "no", "phone": "+1-646-590-0034", "toilets:wheelchair": "yes", "website": "https://dolarshop.com/", "wheelchair": "yes"}}, {"type": "node", "id": 9579377217, "lat": 40.7316535, "lon": -73.9880652, "tags": {"addr:city": "New York", "addr:housenumber": "83", "addr:postcode": "10003", "addr:state": "NY", "addr:street": "3rd Avenue", "amenity": "cafe", "cuisine": "coffee_shop;sandwich;pastry", "drink:coffee": "yes", "drink:espresso": "yes", "drink:tea": "yes", "name": "Sammy L Coffee", "opening_hours": "Mo-Th 07:00-22:00; Fr 07:00-23:00; Sa 09:00-23:00; Su 09:00-21:00", "phone": "+1-917-770-4047", "toilets:wheelchair": "no", "wheelchair": "yes"}}, {"type": "node", "id": 9666379842, "lat": 40.7326075, "lon": -73.9859694, "tags": {"addr:housenumber": "230", "addr:postcode": "10003", "addr:street": "East 14th Street", "amenity": "restaurant", "cuisine": "ramen", "name": "Kamisama", "opening_hours": "Tu-Su 17:00-23:00", "phone": "+1-341-314-4341"}}, {"type": "node", "id": 9709984690, "lat": 40.7336744, "lon": -73.9883102, "tags": {"amenity": "restaurant", "name": "Farook's Halal Cart"}}, {"type": "node", "id": 9735550663, "lat": 40.7322044, "lon": -73.9882118, "tags": {"addr:housenumber": "90", "addr:postcode": "10003", "addr:street": "3rd Avenue", "amenity": "restaurant", "cuisine": "chinese", "name": "Han Dynasty", "opening_hours": "Mo-Su 11:30-01:00", "outdoor_seating": "sidewalk;street", "phone": "+1-212-390-8685", "website": "https://www.handynasty.net/location/han-dynasty-east-village/", "wheelchair": "no"}}, {"type": "node", "id": 9876984223, "lat": 40.73211, "lon": -73.9854278, "tags": {"amenity": "bar", "cocktails": "yes", "description": "speakeasy hidden behind Chicken & the Egg", "drink:beer": "yes", "drink:liquor": "yes", "drink:wine": "yes", "name": "Sincerely, Ophelia", "website": "https://www.sincerelyophelianyc.com"}}, {"type": "node", "id": 9993249848, "lat": 40.7301919, "lon": -73.986236, "tags": {"addr:housenumber": "170", "addr:postcode": "10003", "addr:street": "2nd Avenue", "amenity": "bar", "drink:wine": "yes", "name": "Vin Sur Vingt"}}, {"type": "node", "id": 10073955920, "lat": 40.731033, "lon": -73.9856635, "tags": {"addr:housenumber": "192", "addr:postcode": "10003", "addr:street": "2nd Avenue", "amenity": "bar", "name": "12th Street Ale House"}}, {"type": "node", "id": 10073955921, "lat": 40.7313977, "lon": -73.9858961, "tags": {"amenity": "restaurant", "cocktails": "yes", "cuisine": "korean", "drink:beer": "yes", "drink:wine": "yes", "name": "Odre", "opening_hours": "Mo-Th 17:30-22:00, Fr-Sa 17:00-22:30, Su 17:00-22:00", "website": "https://odrenyc.com"}}, {"type": "node", "id": 10224616957, "lat": 40.7312238, "lon": -73.9860512, "tags": {"addr:city": "New York", "addr:housenumber": "139", "addr:postcode": "10003", "addr:state": "NY", "addr:street": "2nd Avenue", "amenity": "cafe", "branch": "2nd Avenue", "cuisine": "coffee_shop", "name": "Plantshed", "opening_hours": "Mo-Su 07:00-19:00 \"cafe\"||Mo-Su 09:00-19:00 \"shop\"", "outdoor_seating": "yes", "shop": "florist", "website": "https://www.plantshed.com/"}}, {"type": "node", "id": 10224616960, "lat": 40.7305655, "lon": -73.9864902, "tags": {"addr:housenumber": "175", "addr:postcode": "10003", "addr:street": "2nd Avenue", "amenity": "restaurant", "cuisine": "sushi", "name": "Kanoyama", "opening_hours": "Mo-Th 17:30-22:30; Fr-Sa 17:30-23:30; Su 17:30-22:30", "phone": "+1-212-777-5266", "website": "https://kanoyama.com"}}, {"type": "node", "id": 10689197471, "lat": 40.7328775, "lon": -73.9877118, "tags": {"addr:city": "New York", "addr:housenumber": "110", "addr:postcode": "10003", "addr:state": "NY", "addr:street": "3rd Avenue", "amenity": "cafe", "brand": "Matto Espresso", "brand:wikidata": "Q122209496", "cuisine": "coffee_shop", "drink:espresso": "yes", "name": "Matto Espresso", "takeaway": "yes", "wheelchair": "yes"}}, {"type": "node", "id": 10738150415, "lat": 40.7334193, "lon": -73.9838684}, {"type": "node", "id": 10738150417, "lat": 40.73325, "lon": -73.9834528}, {"type": "node", "id": 10738150418, "lat": 40.7330458, "lon": -73.9835977}, {"type": "node", "id": 10738150419, "lat": 40.7329861, "lon": -73.9837079}, {"type": "node", "id": 10738150420, "lat": 40.7331976, "lon": -73.9840257}, {"type": "node", "id": 10740069028, "lat": 40.7329767, "lon": -73.9838592}, {"type": "node", "id": 10740069029, "lat": 40.7330127, "lon": -73.9839592}, {"type": "node", "id": 10740069030, "lat": 40.7330913, "lon": -73.9840179}, {"type": "node", "id": 10756218233, "lat": 40.7302666, "lon": -73.9886172}, {"type": "node", "id": 10756218234, "lat": 40.7302316, "lon": -73.9885047}, {"type": "node", "id": 10757178646, "lat": 40.7354861, "lon": -73.985814, "tags": {"amenity": "pub", "cocktails": "yes", "cuisine": "pub", "drink:beer": "draught", "drink:liquor": "yes", "drink:wine": "yes", "name": "Triona's", "opening_hours": "Mo-We 15:00-02:00, Th-Fr 14:00-02:00, Sa-Su 11:00-02:00", "outdoor_seating": "street", "phone": "+1-646-448-4671", "website": "https://east.trionasnyc.com", "wheelchair": "yes"}}, {"type": "node", "id": 10757661198, "lat": 40.7302407, "lon": -73.9838074, "tags": {"addr:housenumber": "351", "addr:postcode": "10003", "addr:street": "East 12th Street", "amenity": "restaurant", "cuisine": "lebanese", "diet:vegan": "yes", "diet:vegetarian": "yes", "name": "Salma", "phone": "+1-917-261-4900", "website": "https://www.salmaeastvillage.com"}}, {"type": "node", "id": 10769903500, "lat": 40.7304687, "lon": -73.9904348}, {"type": "node", "id": 10769903501, "lat": 40.7301403, "lon": -73.9896563}, {"type": "node", "id": 10769903502, "lat": 40.7290523, "lon": -73.990446}, {"type": "node", "id": 10769903503, "lat": 40.7291667, "lon": -73.9908514}, {"type": "node", "id": 10769903504, "lat": 40.7297415, "lon": -73.9906752}, {"type": "node", "id": 10769979605, "lat": 40.7299309, "lon": -73.9906356}, {"type": "node", "id": 10856476937, "lat": 40.7327944, "lon": -73.9836607}, {"type": "node", "id": 10923081782, "lat": 40.7337972, "lon": -73.989668, "tags": {"addr:housenumber": "143", "addr:postcode": "10003", "addr:street": "4th Avenue", "amenity": "restaurant", "branch": "Union Square", "brand": "CAVA", "brand:wikidata": "Q85751038", "cuisine": "mediterranean", "level": "0", "name": "CAVA", "opening_hours": "Mo-Su 10:45-22:00", "phone": "+1-646-688-5067", "website": "https://cava.com/locations/union-square-ny"}}, {"type": "node", "id": 10923174175, "lat": 40.7338591, "lon": -73.9896639, "tags": {"addr:housenumber": "145", "addr:postcode": "10003", "addr:street": "4th Avenue", "amenity": "cafe", "branch": "Union Square", "name": "Le Caf\u00e9 Coffee"}}, {"type": "node", "id": 10923249690, "lat": 40.7319019, "lon": -73.9863128, "tags": {"amenity": "cafe", "name": "Butterdose"}}, {"type": "node", "id": 11090520517, "lat": 40.7305261, "lon": -73.9860255, "tags": {"amenity": "restaurant", "bar": "yes", "cocktails": "yes", "cuisine": "continental", "drink:beer": "yes", "drink:liquor": "yes", "drink:wine": "yes", "live_music": "yes", "name": "Pangea", "opening_hours": "Tu-Th 17:00-22:00; Fr-Sa 17:00-23:00; Su 16:00-22:00", "outdoor_seating": "sidewalk", "phone": "+1-212-995-0900", "website": "https://www.pangeanyc.com"}}, {"type": "node", "id": 11090520518, "lat": 40.7304624, "lon": -73.9860714, "tags": {"amenity": "restaurant", "bar": "yes", "branch": "East Village", "cocktails": "yes", "cuisine": "pizza;italian", "drink:beer": "yes", "drink:wine": "yes", "name": "Ops", "opening_hours": "Mo-Th 17:00-23:00, Fr-Sa 12:00-24:00, Su 12:00-23:00", "outdoor_seating": "sidewalk", "phone": "+1-646-755-8565", "website": "https://www.opsbk.com/east-village"}}, {"type": "node", "id": 11398926734, "lat": 40.731346, "lon": -73.9859337, "tags": {"amenity": "restaurant", "bar": "yes", "cocktails": "yes", "cuisine": "american;pub", "drink:beer": "yes", "drink:liquor": "yes", "drink:wine": "yes", "name": "Ace's", "phone": "+1-917-439-6259", "website": "https://www.aces-nyc.com"}}, {"type": "node", "id": 11463577701, "lat": 40.7324491, "lon": -73.9880197, "tags": {"amenity": "restaurant", "cuisine": "japanese", "name": "Ichibantei", "opening_hours": "Mo-Sa 11:00-03:00, Su 11:00-02:00", "website": "https://ichibantei.nyc"}}, {"type": "node", "id": 11528299370, "lat": 40.735545, "lon": -73.9882133, "tags": {"addr:housenumber": "109", "addr:street": "East 16th Street", "check_date": "2024-01-18", "government": "administrative", "level": "0", "name": "NYC Human Resources Administration", "office": "government", "wheelchair": "yes"}}, {"type": "node", "id": 11565456368, "lat": 40.7327433, "lon": -73.9862943, "tags": {"amenity": "bar", "cocktails": "yes", "drink:beer": "draught", "drink:liquor": "yes", "drink:wine": "yes", "name": "The Belfry", "opening_hours": "Mo-Th 17:00-02:00, Fr-Sa 15:00-04:00, Su 17:00-02:00", "phone": "+1-212-473-6590", "website": "https://belfrynyc.com"}}, {"type": "node", "id": 11565487891, "lat": 40.7302931, "lon": -73.9835696, "tags": {"amenity": "restaurant", "cuisine": "filipino", "name": "Naks", "opening_hours": "Mo-Sa 17:00-22:00", "website": "https://www.naks.nyc"}}, {"type": "node", "id": 11767652269, "lat": 40.732635, "lon": -73.9852239, "tags": {"addr:housenumber": "245", "addr:postcode": "10003", "addr:street": "East 14th Street", "amenity": "restaurant", "bar": "yes", "cuisine": "georgian", "drink:wine": "yes", "happy_hours": "Mo-Fr 14:00-18:00", "name": "Saperavi", "opening_hours": "Mo-Su 10:00-23:00", "phone": "+1-646-478-8669", "website": "https://saperavinyc.com"}}, {"type": "node", "id": 12333450784, "lat": 40.7308162, "lon": -73.9887471, "tags": {"addr:housenumber": "47", "addr:street": "3rd ave", "amenity": "bar", "level": "-1", "name": "Sugar Mouse", "opening_hours": "Mo-Th 15:00-01:00, Fr-Sa 15:00-02:00, Su 15:00-01:00", "sport": "billiards", "website": "https://www.sugarmousenyc.com"}}, {"type": "node", "id": 12368307474, "lat": 40.7303479, "lon": -73.9830787, "tags": {"addr:city": "New York", "addr:housenumber": "210", "addr:street": "1st Avenue", "amenity": "restaurant", "cuisine": "pizza;korean", "name": "Appa\u2019s Pizza", "opening_hours": "Mo-Su 12:00-22:00", "phone": "+1-929-280-0921", "website": "https://appaspizza.com"}}, {"type": "node", "id": 12450362420, "lat": 40.7345717, "lon": -73.9878085, "tags": {"amenity": "pub", "cocktails": "yes", "cuisine": "pub", "drink:beer": "draught", "drink:liquor": "yes", "drink:wine": "yes", "name": "Shades of Green"}}, {"type": "node", "id": 12605229934, "lat": 40.7340531, "lon": -73.9852812, "tags": {"amenity": "school", "mascot": "Owls", "name": "Friends Seminary", "phone": "+1 212-979-5030", "website": "https://www.friendsseminary.org/", "wikidata": "Q5504210", "wikipedia": "en:Friends Seminary"}}, {"type": "node", "id": 12890222605, "lat": 40.7308697, "lon": -73.9896752, "tags": {"amenity": "restaurant", "cuisine": "french", "drink:wine": "yes", "name": "Claud", "opening_hours": "Mo-Su 17:00-22:30", "phone": "+1-917-261-6791", "website": "https://www.claudnyc.com"}}, {"type": "way", "id": 247862492, "nodes": [2547205708, 2547205697, 2547205711, 2547205745, 2547205729, 2547205708], "tags": {"addr:city": "New York", "addr:housenumber": "114", "addr:postcode": "10003", "addr:street": "3rd Avenue", "amenity": "cafe", "atm": "yes", "building": "yes", "building:colour": "#6F4E40", "building:levels": "2", "building:material": "brick", "cuisine": "bagel;sandwich", "drink:coffee": "yes", "drink:smoothie": "yes", "height": "6.6", "name": "Bagel Belly", "nycdoitt:bin": "1009080", "opening_hours": "Mo-Th 06:30-15:30; Fr 06:30-16:00; Sa 07:00-16:00; Su 08:00-15:30", "outdoor_seating": "garden", "phone": "+1-212-353-2299", "roof:material": "concrete", "roof:shape": "flat", "website": "https://www.bagelbelly.com", "wheelchair": "yes"}}, {"type": "way", "id": 247862527, "nodes": [2547205761, 2547205765, 3238681550, 2279533265, 2547205708, 2547205729, 2547205761], "tags": {"addr:city": "New York", "addr:housenumber": "150", "addr:postcode": "10003", "addr:street": "East 14th Street", "amenity": "restaurant", "building": "yes", "building:colour": "#F7F8FA", "building:levels": "1", "cuisine": "korean;barbecue", "height": "4.4", "name": "Gen Korean BBQ House", "nycdoitt:bin": "1080124", "opening_hours": "Mo-Th, Su 11:00-00:00; Fr, Sa 11:00-02:00", "roof:material": "concrete", "roof:shape": "flat", "website": "https://www.genkoreanbbq.com/", "wheelchair": "yes"}}, {"type": "way", "id": 247864236, "nodes": [2547218785, 2547218827, 2547218823, 2547218825, 2547218820, 2547218816, 2547218808, 2547218781, 2547218712, 2547218814, 2547218867, 2547218836, 2547218785], "tags": {"addr:housenumber": "419", "addr:postcode": "10009", "addr:street": "East 13th Street", "amenity": "school", "building": "school", "denomination": "roman_catholic", "height": "22.6", "name": "Immaculate Conception School", "nycdoitt:bin": "1079097", "phone": "+1-212-475-2590", "religion": "christian", "website": "https://www.immaculateconceptionschoolnyc.org/"}}, {"type": "way", "id": 249663144, "nodes": [2562432793, 2562432805, 2562432785, 2562432780, 2562432758, 2562432745, 2562432770, 2562432860, 2562432839, 2562432793], "tags": {"addr:housenumber": "240", "addr:postcode": "10003", "addr:street": "2nd Avenue", "amenity": "school", "building": "school", "ele": "9", "fax": "+1-212-353-1673", "gnis:feature_id": "2076780", "height": "28.1", "name": "Manhattan Comprehensive Night And Day High School", "nycdoitt:bin": "1020416", "phone": "+1-212-353-2010", "website": "https://www.mcndhs.com"}}, {"type": "way", "id": 453531005, "nodes": [2547123163, 2547123193, 4502535318, 8888045087, 2547123271, 2547123239, 8887980285, 4502535317, 8887980286, 2547123184, 2547123158, 8888045088, 8887980287, 2547122878, 2547122345, 2547123163], "tags": {"addr:city": "New York", "addr:housenumber": "185", "addr:postcode": "10003", "addr:street": "1st Avenue", "alt_name": "P.S. 19 East Village Community School", "amenity": "school", "name": "East Village Community School", "nycdoe:ref": "M315", "old_name": "P.S. 19 Asher Levy School", "phone": "+1-212-533-5340", "short_name": "PS19 EVCS", "website": "https://www.ps19evcs.org"}}, {"type": "way", "id": 481883253, "nodes": [246538404, 10856476937, 4747803484, 4747803482, 246538404]}, {"type": "way", "id": 481883254, "nodes": [4747803483, 246538378, 246538379, 4747803481, 4747803483]}, {"type": "way", "id": 1154628504, "nodes": [10738150415, 10738150417, 10738150418, 10738150419, 10740069028, 10740069029, 10740069030, 10738150420, 10738150415], "tags": {"access": "yes", "addr:city": "New York", "addr:postcode": "10003", "addr:state": "NY", "addr:street": "2nd Avenue", "dog": "yes", "leisure": "dog_park", "name": "Stuyvesant Park Dog Run", "operator": "New York City Department of Parks and Recreation", "operator:short": "NYC Parks", "operator:type": "public", "operator:wikidata": "Q1894232", "website": "https://www.nycgovparks.org/parks/stuyvesant-square/facilities/dogareas"}}, {"type": "way", "id": 1156633380, "nodes": [10769903500, 10769903501, 10769903502, 10769903503, 10769903504, 10769979605, 10769903500], "tags": {"amenity": "college", "education": "college", "name": "Cooper Union"}}, {"type": "way", "id": 1156633381, "nodes": [8309479188, 8309479196, 8309479195, 8309479194, 8309479188], "tags": {"amenity": "college", "education": "college", "name": "Cooper Union - Academic Building"}}, {"type": "way", "id": 1156633383, "nodes": [10756218233, 10756218234, 2494246603, 2494245511, 10756218233], "tags": {"amenity": "college", "education": "college", "name": "Cooper Union President's House", "website": "https://middlestates.cooper.edu/Campus_Map_Directions.pdf"}}, {"type": "relation", "id": 7095669, "members": [{"type": "way", "ref": 481883254, "role": "outer"}, {"type": "way", "ref": 481883253, "role": "outer"}, {"type": "way", "ref": 1154628504, "role": "inner"}], "tags": {"ele": "8", "gnis:feature_id": "966670", "leisure": "park", "name": "Stuyvesant Square", "name:etymology:wikidata": "Q54954772", "operator": "New York City Department of Parks and Recreation", "operator:short": "NYC Parks", "operator:type": "government", "operator:wikidata": "Q1894232", "type": "multipolygon", "website": "https://www.nycgovparks.org/parks/stuyvesant-square", "wikidata": "Q1478163", "wikipedia": "en:Stuyvesant Square"}}, {"type": "relation", "id": 15633680, "members": [{"type": "way", "ref": 1156633380, "role": "outer"}, {"type": "way", "ref": 1156633381, "role": "outer"}, {"type": "way", "ref": 1156633383, "role": "outer"}], "tags": {"amenity": "college", "education": "college", "ele": "12", "gnis:feature_id": "947397", "name": "The Cooper Union", "type": "multipolygon", "website": "https://middlestates.cooper.edu/Campus_Map_Directions.pdf", "wikidata": "Q130981", "wikipedia": "en:Cooper Union"}}]}