{"version": 0.6, "generator": "Overpass API 0.7.62.8 e802775f", "osm3s": {"timestamp_osm_base": "2025-12-01T15:20:12Z", "copyright": "The data included in this document is from www.openstreetmap.org. The data is made available under ODbL."}, "elements": [{"type": "node", "id": 357619823, "lat": 40.7112526, "lon": -73.9427495, "tags": {"amenity": "school", "ele": "12", "gnis:feature_id": "2082277", "name": "Saint John the Evangelist Lutheran School"}}, {"type": "node", "id": 357624025, "lat": 40.7113396, "lon": -73.9427699, "tags": {"amenity": "school", "ele": "12", "gnis:feature_id": "2097577", "name": "Saint Johns Evangelical Lutheran School"}}, {"type": "node", "id": 357638283, "lat": 40.7087495, "lon": -73.945006}, {"type": "node", "id": 617357397, "lat": 40.7099117, "lon": -73.9400848}, {"type": "node", "id": 617357398, "lat": 40.7101718, "lon": -73.9373402}, {"type": "node", "id": 617357400, "lat": 40.7124115, "lon": -73.9383756}, {"type": "node", "id": 617357401, "lat": 40.7119097, "lon": -73.9404277}, {"type": "node", "id": 617357403, "lat": 40.7116478, "lon": -73.94034}, {"type": "node", "id": 617741150, "lat": 40.714447, "lon": -73.9439212, "tags": {"addr:housenumber": "752", "addr:postcode": "11211", "addr:street": "Metropolitan Avenue", "amenity": "restaurant", "cuisine": "chinese", "delivery": "yes", "level": "0", "name": "East Met West", "opening_hours": "Mo-Th 11:00-23:00; Fr, Sa 11:00-23:30; Su 11:30-23:00", "phone": "+1 718-218-7777", "takeaway": "yes", "wheelchair": "yes"}}, {"type": "node", "id": 617741196, "lat": 40.7143441, "lon": -73.9420637, "tags": {"addr:housenumber": "14", "addr:postcode": "11211", "addr:street": "Bushwick Avenue", "amenity": "restaurant", "contact:facebook": "ilpassatorebrooklyn", "contact:instagram": "ilpassatore", "delivery": "yes", "email": "ilpassatore.brooklyn@gmail.com", "level": "0", "name": "Il Passatore", "opening_hours": "17:00-22:00", "phone": "+1 718-693-3100", "reservation": "yes", "takeaway": "yes", "website": "https://ilpassatorebrooklyn.com", "wheelchair": "yes"}}, {"type": "node", "id": 2715578922, "lat": 40.7113178, "lon": -73.940306}, {"type": "node", "id": 2838700852, "lat": 40.7111555, "lon": -73.9440111, "tags": {"amenity": "restaurant", "cuisine": "mexican", "name": "La Norte\u00f1a", "outdoor_seating": "sidewalk;street"}}, {"type": "node", "id": 2838706928, "lat": 40.7125301, "lon": -73.9438874, "tags": {"addr:housenumber": "296", "addr:postcode": "11211", "addr:street": "Graham Avenue", "amenity": "cafe", "cannabis:cbd": "only", "cuisine": "snack", "diet:vegan": "yes", "drink:coffee": "yes", "drink:espresso": "yes", "name": "Muz Muz CBD Lounge", "phone": "+1-917-341-1843", "website": "https://www.yomuzmuz.com"}}, {"type": "node", "id": 2838707927, "lat": 40.7124647, "lon": -73.9412268}, {"type": "node", "id": 2838707933, "lat": 40.7124756, "lon": -73.9412531}, {"type": "node", "id": 2838707935, "lat": 40.7124781, "lon": -73.9412291}, {"type": "node", "id": 2838707941, "lat": 40.7124992, "lon": -73.9412829}, {"type": "node", "id": 2838707943, "lat": 40.7124996, "lon": -73.9411017}, {"type": "node", "id": 2838707944, "lat": 40.7125018, "lon": -73.9412577}, {"type": "node", "id": 2838707967, "lat": 40.7125556, "lon": -73.941293}, {"type": "node", "id": 2838707969, "lat": 40.7125721, "lon": -73.9411334}, {"type": "node", "id": 2838733588, "lat": 40.7139069, "lon": -73.9418565, "tags": {"addr:housenumber": "26", "addr:street": "Bushwick Avenue", "amenity": "cafe", "cuisine": "coffee_shop", "drink:coffee": "yes", "drink:espresso": "yes", "internet_access": "yes", "internet_access:fee": "no", "name": "Here", "outdoor_seating": "sidewalk"}}, {"type": "node", "id": 2839787498, "lat": 40.7132932, "lon": -73.9380494, "tags": {"addr:housenumber": "287", "addr:postcode": "11211", "addr:street": "Powers Street", "amenity": "school", "ele": "10", "gnis:feature_id": "964034", "name": "Saint Nicholas Elementary School"}}, {"type": "node", "id": 2839789068, "lat": 40.7137354, "lon": -73.941383, "tags": {"name": "Select Real Estate", "office": "estate_agent", "phone": "+1-718-387-5112"}}, {"type": "node", "id": 3153302100, "lat": 40.7120232, "lon": -73.9412907, "tags": {"addr:housenumber": "799", "addr:street": "Grand Street", "amenity": "cafe", "name": "Flower Power Cafe", "opening_hours": "Mo-Su 08:00-20:00", "phone": "+1-347-799-1611"}}, {"type": "node", "id": 3153601915, "lat": 40.7118038, "lon": -73.9436549, "tags": {"addr:housenumber": "727", "addr:street": "Grand Street", "amenity": "restaurant", "cuisine": "mexican", "name": "Grand Morelos", "phone": "+1-718-218-9441"}}, {"type": "node", "id": 3154646654, "lat": 40.7123642, "lon": -73.939496, "tags": {"addr:housenumber": "861", "addr:street": "Grand Street", "amenity": "cafe", "name": "Dumpling Cafe", "phone": "+1-718-302-8886"}}, {"type": "node", "id": 4787109621, "lat": 40.7119185, "lon": -73.9423984, "tags": {"addr:housenumber": "771", "addr:postcode": "11211", "addr:street": "Grand Street", "amenity": "bar", "name": "Masha & The Bear", "opening_hours": "Mo-Fr 13:00-01:00; Sa-Su 12:00-01:00"}}, {"type": "node", "id": 5190579540, "lat": 40.7134891, "lon": -73.9416342, "tags": {"amenity": "bar", "cocktails": "yes", "drink:beer": "draught", "drink:liquor": "yes", "drink:wine": "yes", "fixme": "find name", "opening_hours": "Mo-Fr 16:00-02:00; Sa-Su 12:00-04:00", "outdoor_seating": "sidewalk"}}, {"type": "node", "id": 5401946293, "lat": 40.7120336, "lon": -73.9412163, "tags": {"name": "TaxPrePlus", "office": "lawyer", "opening_hours": "Mo-Fr 10:00-19:00; Sa 10:00-17:00", "phone": "+1 718-366-0900"}}, {"type": "node", "id": 6211849520, "lat": 40.7135511, "lon": -73.9412857, "tags": {"addr:city": "Brooklyn", "addr:housenumber": "39", "addr:postcode": "11211", "addr:state": "NY", "addr:street": "Bushwick Avenue", "amenity": "restaurant", "cocktails": "yes", "contact:instagram": "@claudiasbklyn", "cuisine": "guatemalan;brunch", "description": "A family owned and operated restaurant offering seasonal Guatemalan inspired dishes.", "diet:gluten_free": "yes", "diet:vegan": "yes", "diet:vegetarian": "yes", "drink:beer": "yes", "drink:coffee": "yes", "drink:liquor": "yes", "drink:wine": "yes", "email": "info@claudiasbk.com", "happy_hours": "Mo-Su 16:00-19:00", "name": "Claudia's", "old_name": "C.Lo Cafe", "opening_hours": "Mo-Tu 10:00-17:00; Th-Sa 10:00-21:00; Su 10:00-17:00", "outdoor_seating": "sidewalk;street", "phone": "+1-347-987-3402", "website": "https://www.claudiasbk.com"}}, {"type": "node", "id": 6685453124, "lat": 40.7112027, "lon": -73.944062, "tags": {"addr:city": "Brooklyn", "addr:housenumber": "265", "addr:postcode": "11206", "addr:state": "NY", "addr:street": "Graham Avenue", "amenity": "restaurant", "contact:phone": "+1 347-457-5192", "contact:website": "https://creepcityninjabubbletea.com", "cuisine": "vietnamese", "diet:vegan": "limited", "diet:vegetarian": "limited", "name": "Creep City Ninja Bubble Tea", "opening_hours": "Mo-Th 11:00-21:30; Fr-Sa 11:00-22:00; Su 12:00-19:00"}}, {"type": "node", "id": 6978706688, "lat": 40.7088856, "lon": -73.9436254}, {"type": "node", "id": 6978706689, "lat": 40.7094731, "lon": -73.9437261}, {"type": "node", "id": 6978706690, "lat": 40.7093371, "lon": -73.9451068}, {"type": "node", "id": 7257110360, "lat": 40.7101673, "lon": -73.9438192, "tags": {"barrier": "gate"}}, {"type": "node", "id": 7257110364, "lat": 40.7099057, "lon": -73.9452287, "tags": {"barrier": "gate"}}, {"type": "node", "id": 8548019755, "lat": 40.7100526, "lon": -73.9452526}, {"type": "node", "id": 8548019756, "lat": 40.7093954, "lon": -73.9451458}, {"type": "node", "id": 8548019757, "lat": 40.7095289, "lon": -73.9437155}, {"type": "node", "id": 8548019758, "lat": 40.7101862, "lon": -73.9438223}, {"type": "node", "id": 9695903780, "lat": 40.7145615, "lon": -73.9425485, "tags": {"addr:housenumber": "790", "addr:postcode": "11211", "addr:street": "Metropolitan Avenue", "amenity": "bar", "cocktails": "yes", "contact:instagram": "easyloverbk", "drink:beer": "draught; bottled", "email": "info@easyloverbar.com", "happy_hours": "Mo-Fr 16:00-18:00", "level": "0", "name": "Easy Lover", "opening_hours": "Mo-Th 16:00-02:00; Fr 16:00-04:00; Sa 14:00-04:00; Su 14:00-02:00", "outdoor_seating": "yes", "website": "https://www.easyloverbar.com"}}, {"type": "node", "id": 10719829263, "lat": 40.7090127, "lon": -73.9436472}, {"type": "node", "id": 10865913691, "lat": 40.7116246, "lon": -73.9425422, "tags": {"addr:housenumber": "766", "addr:street": "Grand Street", "amenity": "cafe", "atm": "yes", "cuisine": "breakfast;sandwich;american", "internet_access": "yes", "internet_access:fee": "no", "name": "Brooklyn Standard", "outdoor_seating": "backyard", "toilets": "yes", "toilets:unisex": "yes"}}, {"type": "node", "id": 12235823234, "lat": 40.7144114, "lon": -73.9378549, "tags": {"addr:city": "Brooklyn", "addr:housenumber": "936", "addr:postcode": "11211", "addr:state": "NY", "addr:street": "Metropolitan Avenue", "name": "Primerica", "office": "financial_advisor"}}, {"type": "node", "id": 12549245008, "lat": 40.7122831, "lon": -73.9380103, "tags": {"addr:city": "Brooklyn", "addr:housenumber": "142", "addr:postcode": "11206", "addr:state": "NY", "addr:street": "Waterbury Street", "amenity": "cafe", "cuisine": "coffee_shop", "internet_access": "wlan", "name": "Three Legged Cat", "outdoor_seating": "no"}}, {"type": "node", "id": 12802287301, "lat": 40.7126543, "lon": -73.9383035, "tags": {"amenity": "cafe", "cuisine": "breakfast;sandwich;diner", "delivery": "yes", "name": "Grand Bagel Coffee Shop", "opening_hours": "Mo-Fr 05:00-18:00, Sa 05:00-16:00", "phone": "+1-929-337-6299", "takeaway": "yes"}}, {"type": "node", "id": 12844709778, "lat": 40.7116212, "lon": -73.9428081, "tags": {"amenity": "restaurant", "cuisine": "thai", "delivery": "yes", "drink:beer": "yes", "name": "Link Thai", "opening_hours": "Mo-Su 11:30-16:00, 17:00-22:00", "phone": "+1-917-909-0324", "takeaway": "yes"}}, {"type": "way", "id": 48610330, "nodes": [617357397, 617357398, 617357400, 617357401, 617357403, 2715578922, 617357397], "tags": {"addr:city": "Brooklyn", "addr:housenumber": "850", "addr:postcode": "11211", "addr:state": "NY", "addr:street": "Grand Street", "amenity": "school", "mascot": "Wolves", "name": "The High School of Enterprise, Business, and Technology", "website": "https://sites.google.com/ebtbrooklyn.com/home/", "wikidata": "Q14706363", "wikipedia": "en:High School of Enterprise, Business, & Technology"}}, {"type": "way", "id": 279664956, "nodes": [2838707927, 2838707935, 2838707933, 2838707944, 2838707941, 2838707967, 2838707969, 2838707943, 2838707927], "tags": {"addr:housenumber": "76", "addr:postcode": "11211", "addr:street": "Bushwick Avenue", "amenity": "restaurant", "brand": "Loving Hut", "brand:wikidata": "Q3491655", "building": "yes", "cuisine": "international", "diet:kosher": "yes", "diet:vegan": "only", "diet:vegetarian": "only", "height": "3.3", "name": "Loving Hut", "nycdoitt:bin": "3338198", "opening_hours": "Mo-Fr 11:30-21:30; Sa-Su 14:00-21:30", "website": "https://lovinghut.us/brooklyn/"}}, {"type": "way", "id": 745537380, "nodes": [357638283, 6978706690, 6978706689, 10719829263, 6978706688, 357638283], "tags": {"ele": "11", "gnis:feature_id": "2381032", "leisure": "park", "name": "Martinez Playground", "website": "https://www.nycgovparks.org/parks/martinez-playground", "wikidata": "Q34846943"}}, {"type": "way", "id": 920642904, "nodes": [8548019755, 7257110364, 8548019756, 8548019757, 7257110360, 8548019758, 8548019755], "tags": {"addr:city": "Brooklyn", "addr:housenumber": "223", "addr:postcode": "11206", "addr:state": "NY", "addr:street": "Graham Avenue", "amenity": "school", "mascot": "Titans", "name": "Brooklyn Latin School", "name:en": "Brooklyn Latin School", "name:la": "Schola Latina Brookliniensis", "official_name": "The Brooklyn Latin School", "operator": "New York City Department of Education", "operator:short": "NYC Public Schools", "operator:type": "public", "operator:wikidata": "Q408230", "operator:wikipedia": "en:New York City Department of Education", "school": "magnet", "short_name": "TBLS", "website": "https://brooklynlatin.org/", "wikidata": "Q4974870", "wikipedia": "en:Brooklyn Latin School"}}]}