{"version": 0.6, "generator": "Overpass API 0.7.62.8 e802775f", "osm3s": {"timestamp_osm_base": "2025-12-01T16:01:21Z", "copyright": "The data included in this document is from www.openstreetmap.org. The data is made available under ODbL."}, "elements": [{"type": "node", "id": 544354093, "lat": 40.6489384, "lon": -73.9699481}, {"type": "node", "id": 544354094, "lat": 40.6509619, "lon": -73.9648282}, {"type": "node", "id": 544354095, "lat": 40.6529882, "lon": -73.9662032}, {"type": "node", "id": 544354096, "lat": 40.6510538, "lon": -73.9713261}, {"type": "node", "id": 1332754050, "lat": 40.6483978, "lon": -73.9712498}, {"type": "node", "id": 1332754171, "lat": 40.6504758, "lon": -73.9717534}, {"type": "node", "id": 1332754316, "lat": 40.650434, "lon": -73.9718491}, {"type": "node", "id": 1942053754, "lat": 40.6510345, "lon": -73.9713392}, {"type": "node", "id": 1942053772, "lat": 40.6508506, "lon": -73.971365}, {"type": "node", "id": 2494048816, "lat": 40.6507159, "lon": -73.9714385}, {"type": "node", "id": 2494078799, "lat": 40.649886, "lon": -73.9614044, "tags": {"addr:housenumber": "1922", "addr:postcode": "11226", "addr:street": "Church Avenue", "alt_name": "C&C Multi Services", "name": "B.A.E. Multi-Service", "office": "financial", "shop": "mobile_phone"}}, {"type": "node", "id": 2715609670, "lat": 40.6490689, "lon": -73.9660417, "tags": {"barrier": "gate"}}, {"type": "node", "id": 2715609671, "lat": 40.6498685, "lon": -73.9668893}, {"type": "node", "id": 2715609673, "lat": 40.6501158, "lon": -73.9662285}, {"type": "node", "id": 2715609674, "lat": 40.6501247, "lon": -73.9662586}, {"type": "node", "id": 4166932693, "lat": 40.6489143, "lon": -73.9699307}, {"type": "node", "id": 5912943736, "lat": 40.6505286, "lon": -73.9716577}, {"type": "node", "id": 6597591264, "lat": 40.6506054, "lon": -73.9715488}, {"type": "node", "id": 6718534582, "lat": 40.6488949, "lon": -73.9713954}, {"type": "node", "id": 6767683234, "lat": 40.6530036, "lon": -73.9662704}, {"type": "node", "id": 6767683235, "lat": 40.6519461, "lon": -73.965496}, {"type": "node", "id": 7029342135, "lat": 40.6524177, "lon": -73.9677897}, {"type": "node", "id": 7641836972, "lat": 40.6495194, "lon": -73.966626}, {"type": "node", "id": 7641836973, "lat": 40.6494526, "lon": -73.9666142}, {"type": "node", "id": 7641836974, "lat": 40.6494667, "lon": -73.9664929}, {"type": "node", "id": 7641836977, "lat": 40.6490293, "lon": -73.9663815, "tags": {"barrier": "gate"}}, {"type": "node", "id": 7641836978, "lat": 40.6494967, "lon": -73.9668173, "tags": {"barrier": "gate"}}, {"type": "node", "id": 8303232636, "lat": 40.648924, "lon": -73.9714039}, {"type": "node", "id": 8303232641, "lat": 40.6488532, "lon": -73.9700869}, {"type": "node", "id": 8548116276, "lat": 40.6490683, "lon": -73.9663888}, {"type": "node", "id": 8548116277, "lat": 40.6490648, "lon": -73.9664199}, {"type": "node", "id": 9051760936, "lat": 40.64921, "lon": -73.9714877}, {"type": "node", "id": 10294485835, "lat": 40.6492514, "lon": -73.9632333, "tags": {"addr:housenumber": "1722", "addr:postcode": "11226", "addr:street": "Church Avenue", "brand": "H&R Block", "brand:wikidata": "Q5627799", "name": "H&R Block", "office": "tax_advisor", "phone": "+1-718-941-2518", "website": "https://www.hrblock.com/local-tax-offices/new-york/brooklyn/1722-church-ave/30568/"}}, {"type": "node", "id": 10311982468, "lat": 40.6504487, "lon": -73.9718418}, {"type": "node", "id": 10599995459, "lat": 40.6502408, "lon": -73.9606424, "tags": {"addr:housenumber": "2009", "addr:postcode": "11226", "addr:street": "Church Avenue", "name": "Empire BlueCross BlueShield", "office": "insurance", "opening_hours": "Mo-Fr 09:00-18:00; Sa 09:00-17:30"}}, {"type": "node", "id": 10872130118, "lat": 40.650076, "lon": -73.9601203, "tags": {"addr:housenumber": "2026A", "addr:postcode": "11226", "addr:street": "Church Avenue", "name": "American-Egyptian Travel Agency", "office": "travel_agent", "phone": "+1-347-413-9913"}}, {"type": "node", "id": 11003412887, "lat": 40.6497722, "lon": -73.9618164, "tags": {"atm": "yes", "name": "Payomatic", "office": "financial", "opening_hours": "Mo-We 07:00-21:00; Th-Fr 07:00-22:00; Sa 07:00-21:00; Su 08:00-20:00", "phone": "+1-718-856-3500", "website": "https://www.payomatic.com/stores/ny/Brooklyn/1908-Church-Ave/111/"}}, {"type": "node", "id": 11003443952, "lat": 40.6498525, "lon": -73.9630245, "tags": {"name": "C.A.M. Tranfert D'Argent", "office": "financial", "phone": "+1-718-493-2120"}}, {"type": "node", "id": 11328478764, "lat": 40.6487108, "lon": -73.9704506}, {"type": "way", "id": 43315119, "nodes": [544354093, 544354094, 6767683235, 544354095, 6767683234, 7029342135, 544354096, 1942053754, 1942053772, 2494048816, 6597591264, 5912943736, 1332754171, 10311982468, 1332754316, 9051760936, 8303232636, 6718534582, 1332754050, 11328478764, 8303232641, 4166932693, 544354093], "tags": {"alt_name": "Prospect Park Parade Grounds", "leisure": "park", "name": "Prospect Park Parade Ground", "operator": "New York City Department of Parks and Recreation", "operator:short": "NYC Parks", "operator:type": "public", "operator:wikidata": "Q1894232", "website": "https://www.nycgovparks.org/parks/parade-ground"}}, {"type": "way", "id": 265958492, "nodes": [2715609671, 7641836978, 7641836972, 7641836973, 7641836974, 8548116277, 8548116276, 7641836977, 2715609670, 2715609673, 2715609674, 2715609671], "tags": {"addr:city": "Brooklyn", "addr:housenumber": "18", "addr:postcode": "11226", "addr:state": "NY", "addr:street": "Marlborough Road", "amenity": "school", "ele": "15", "gnis:feature_id": "961573", "name": "Public School 249", "official_name": "The Caton School", "operator": "New York City Department of Education", "operator:short": "NYC Public Schools", "operator:type": "public", "operator:wikidata": "Q408230", "operator:wikipedia": "en:New York City Department of Education", "ref": "K249", "short_name": "P.S. 249", "website": "https://www.catonschool.com/"}}]}