{"version": 0.6, "generator": "Overpass API 0.7.62.8 e802775f", "osm3s": {"timestamp_osm_base": "2025-12-01T04:01:05Z", "copyright": "The data included in this document is from www.openstreetmap.org. The data is made available under ODbL."}, "elements": [{"type": "node", "id": 357619622, "lat": 40.6788962, "lon": -73.9766858, "tags": {"alt_name": "M.S. K266", "amenity": "school", "ele": "17", "gnis:feature_id": "2082195", "name": "Park Place Community Middle School", "old_name": "Middle School 266", "phone": "+1-718-230-1216", "short_name": "Park Place Community School", "website": "https://www.ms266brooklyn.org"}}, {"type": "node", "id": 357619681, "lat": 40.6800498, "lon": -73.9784952, "tags": {"amenity": "school", "ele": "11", "gnis:feature_id": "2082231", "name": "Park Slope Christian Academy", "website": "http://parkslopeacademy.com/", "website_archive": "http://web.archive.org/web/*/http://parkslopeacademy.com/"}}, {"type": "node", "id": 541991203, "lat": 40.6812822, "lon": -73.9736739}, {"type": "node", "id": 541991205, "lat": 40.6805473, "lon": -73.9731409}, {"type": "node", "id": 541991207, "lat": 40.6804628, "lon": -73.9727349}, {"type": "node", "id": 541991213, "lat": 40.6810906, "lon": -73.9727393}, {"type": "node", "id": 740166105, "lat": 40.6807847, "lon": -73.9727855}, {"type": "node", "id": 740166213, "lat": 40.6809635, "lon": -73.9737875}, {"type": "node", "id": 740166214, "lat": 40.6812135, "lon": -73.973339}, {"type": "node", "id": 1241406048, "lat": 40.6835082, "lon": -73.9720514}, {"type": "node", "id": 1241406061, "lat": 40.6837844, "lon": -73.9721025}, {"type": "node", "id": 1490626144, "lat": 40.679722, "lon": -73.9780478, "tags": {"amenity": "cafe", "cuisine": "coffee_shop;ice_cream", "internet_access": "wlan", "name": "Clever Blend", "website": "https://www.cleverblend.com", "wheelchair": "yes"}}, {"type": "node", "id": 1867751132, "lat": 40.6804992, "lon": -73.9729097}, {"type": "node", "id": 1867751133, "lat": 40.6805954, "lon": -73.9733722}, {"type": "node", "id": 1927772742, "lat": 40.6832877, "lon": -73.9727419}, {"type": "node", "id": 1927772745, "lat": 40.6833319, "lon": -73.9723642}, {"type": "node", "id": 1927772747, "lat": 40.6834719, "lon": -73.9723928}, {"type": "node", "id": 2550054002, "lat": 40.6812527, "lon": -73.9756418, "tags": {"addr:housenumber": "210", "addr:postcode": "11217", "addr:street": "Flatbush Avenue", "amenity": "cafe", "cuisine": "coffee_shop;spanish", "drink:beer": "yes", "drink:coffee": "yes", "drink:espresso": "yes", "drink:tea": "yes", "drink:wine": "yes", "name": "Thermostat", "opening_hours": "Mo-Fr 07:00-21:00; Sa-Su 08:00-22:00", "phone": "+1-347-677-3418", "website": "https://www.thermostatcoffeebar.com"}}, {"type": "node", "id": 2550054007, "lat": 40.6802145, "lon": -73.9749066, "tags": {"addr:housenumber": "242", "addr:postcode": "11217", "addr:street": "Flatbush Avenue", "amenity": "restaurant", "bar": "yes", "cocktails": "yes", "cuisine": "seafood", "drink:beer": "draught", "drink:liquor": "yes", "drink:wine": "yes", "name": "The Boil Prime", "opening_hours": "Mo,We-Th 17:00-22:00; Fr 17:00-23:00; Sa 16:00-23:00; Su 16:00-22:00", "phone": "+1-718-208-1102", "short_name": "The Boil", "website": "https://www.theboilny.com"}}, {"type": "node", "id": 2550054017, "lat": 40.6812255, "lon": -73.9760948, "tags": {"amenity": "restaurant", "bar": "yes", "cuisine": "peruvian", "drink:beer": "yes", "drink:liquor": "yes", "drink:wine": "yes", "name": "Inkaico", "opening_hours": "Mo-Su 16:00-23:00", "phone": "+1-718-576-3985", "website": "https://www.inkaicobrooklyn.com"}}, {"type": "node", "id": 2550054020, "lat": 40.6818801, "lon": -73.9762538, "tags": {"amenity": "restaurant", "bar": "yes", "cocktails": "yes", "cuisine": "american;caribbean", "drink:beer": "draught", "drink:liquor": "yes", "drink:wine": "yes", "name": "Charm", "opening_hours": "Mo-Su 12:00-22:00", "phone": "+1-347-799-2345", "website": "https://www.charmbarrestaurant.com/"}}, {"type": "node", "id": 2550054034, "lat": 40.680712, "lon": -73.9773803, "tags": {"addr:housenumber": "63", "addr:postcode": "11217", "addr:street": "5th Avenue", "amenity": "restaurant", "cuisine": "thai;ice_cream", "name": "Sky Ice", "opening_hours": "Mo 12:00-22:30; Tu 16:30-22:30; We,Th 12:00-22:30; Fr,Sa 12:00-23:00; Su 12:00-22:30", "opening_hours:kitchen": "Mo 12:00-22:00; Tu 16:30-22:00; We,Th 12:00-22:00; Fr,Sa 12:00-22:30; Su 12:00-22:00", "outdoor_seating": "street", "phone": "+1-718-230-0910", "shop": "ice_cream"}}, {"type": "node", "id": 2550054043, "lat": 40.6800284, "lon": -73.9750136, "tags": {"addr:housenumber": "80", "addr:postcode": "11217", "addr:street": "6th Avenue", "amenity": "restaurant", "cuisine": "vietnamese", "name": "Phobar", "opening_hours": "Mo-Su 11:00-21:00", "website": "https://phobar.com"}}, {"type": "node", "id": 2550054808, "lat": 40.681089, "lon": -73.9757761}, {"type": "node", "id": 2550054817, "lat": 40.6811257, "lon": -73.9756806}, {"type": "node", "id": 2550054825, "lat": 40.6811692, "lon": -73.9757224}, {"type": "node", "id": 2550054826, "lat": 40.6811726, "lon": -73.9755671}, {"type": "node", "id": 2550054837, "lat": 40.6812196, "lon": -73.9756007}, {"type": "node", "id": 2550054892, "lat": 40.6815696, "lon": -73.9764333}, {"type": "node", "id": 2550054901, "lat": 40.6816219, "lon": -73.9765681}, {"type": "node", "id": 2550054902, "lat": 40.6816229, "lon": -73.9765674}, {"type": "node", "id": 2550054906, "lat": 40.6816407, "lon": -73.9763853}, {"type": "node", "id": 2550054910, "lat": 40.6816866, "lon": -73.9765036}, {"type": "node", "id": 2550054911, "lat": 40.6816938, "lon": -73.97675}, {"type": "node", "id": 2550054921, "lat": 40.6817639, "lon": -73.9767027}, {"type": "node", "id": 2550055987, "lat": 40.6788104, "lon": -73.9767438, "tags": {"alt_name": "P77K", "amenity": "school", "fax": "+1-718-857-2667", "name": "P.S. K077", "phone": "+1718-789-1192", "website": "https://sites.google.com/view/p77k"}}, {"type": "node", "id": 2550059698, "lat": 40.681618, "lon": -73.9770909, "tags": {"addr:housenumber": "50", "addr:postcode": "11217", "addr:street": "5th Avenue", "amenity": "restaurant", "bar": "yes", "cocktails": "yes", "cuisine": "mexican", "drink:beer": "draught", "drink:liquor": "yes", "drink:wine": "yes", "name": "Bandito", "opening_hours": "Mo-Th 11:00-22:00, Fr-Sa 11:00-23:00, Su 11:00-22:00", "phone": "+1-718-230-1703", "takeaway": "yes", "toilets": "yes", "toilets:access": "customers", "website": "https://bandidobk.com", "wheelchair": "yes"}}, {"type": "node", "id": 2550059710, "lat": 40.6809947, "lon": -73.9775234, "tags": {"addr:housenumber": "70", "addr:postcode": "11217", "addr:street": "5th Avenue", "amenity": "restaurant", "contact:sms": "+1-929-969-0902", "cuisine": "sushi", "drink:beer": "yes", "drink:sake": "yes", "name": "Ishi", "opening_hours": "Tu-Su 16:00-22:00", "phone": "+1-917-909-1935"}}, {"type": "node", "id": 2550059711, "lat": 40.680792, "lon": -73.9776493, "tags": {"addr:housenumber": "72", "addr:postcode": "11217", "addr:street": "5th Avenue", "amenity": "restaurant", "atm": "yes", "cocktails": "yes", "contact:instagram": "@pizzasecret", "cuisine": "pizza;italian", "drink:beer": "bottled", "drink:espresso": "yes", "drink:liquor": "yes", "drink:wine": "yes", "name": "Pizza Secret", "opening_hours": "Mo 16:00-22:30, Tu-Th 12:00-22:30, Fr-Sa 12:00-23:00, Su 12:00-22:00", "operator": "Rosario Granieri", "outdoor_seating": "sidewalk", "phone": "+1-929-337-6245", "website": "https://pizzasecretnyc.com"}}, {"type": "node", "id": 2550059714, "lat": 40.6806505, "lon": -73.977745, "tags": {"addr:housenumber": "76A", "addr:postcode": "11217", "addr:street": "5th Avenue", "amenity": "social_facility", "fax": "+1 718 789 1094", "name": "Imani House", "office": "charity", "phone": "+1 718 638 2059", "social_facility": "outreach", "website": "https://www.imanihouse.org"}}, {"type": "node", "id": 2568848943, "lat": 40.6785586, "lon": -73.973699, "tags": {"addr:housenumber": "282", "addr:postcode": "11217", "addr:street": "Flatbush Avenue", "amenity": "restaurant", "cuisine": "sushi", "delivery": "yes", "drink:beer": "yes", "drink:sake": "yes", "name": "Ki Sushi", "opening_hours": "Mo 17:00-22:00; Tu-Th 12:30-14:30,17:00-22:00; Fr-Sa 12:30-14:30,17:00-22:45; Su 17:00-22:00", "phone": "+1-718-230-1381", "takeaway": "yes", "website": "http://kisushigroup.com"}}, {"type": "node", "id": 2568848993, "lat": 40.6789381, "lon": -73.9739578, "tags": {"addr:housenumber": "276", "addr:postcode": "11217", "addr:street": "Flatbush Avenue", "name": "US Air Force", "office": "military_recruitment"}}, {"type": "node", "id": 2573007273, "lat": 40.6832922, "lon": -73.9727044}, {"type": "node", "id": 2573007275, "lat": 40.6833109, "lon": -73.972546}, {"type": "node", "id": 2573047742, "lat": 40.6810429, "lon": -73.9745396, "tags": {"addr:city": "Brooklyn", "addr:housenumber": "62", "addr:postcode": "11217", "addr:state": "NY", "addr:street": "6th Avenue", "amenity": "cafe", "cuisine": "coffee_shop", "drink:coffee": "yes", "drink:espresso": "yes", "name": "Everbean"}}, {"type": "node", "id": 2573047889, "lat": 40.6818206, "lon": -73.9746795}, {"type": "node", "id": 2573047892, "lat": 40.6819538, "lon": -73.9749817}, {"type": "node", "id": 2573047894, "lat": 40.6821359, "lon": -73.9758469}, {"type": "node", "id": 2573047896, "lat": 40.6822099, "lon": -73.9745429}, {"type": "node", "id": 2573047898, "lat": 40.6822169, "lon": -73.974272}, {"type": "node", "id": 2573047899, "lat": 40.6824584, "lon": -73.9744013}, {"type": "node", "id": 2573047901, "lat": 40.6826589, "lon": -73.9743659}, {"type": "node", "id": 2573047908, "lat": 40.682818, "lon": -73.974384}, {"type": "node", "id": 2573047913, "lat": 40.6830279, "lon": -73.9764872}, {"type": "node", "id": 2573047927, "lat": 40.683074, "lon": -73.9764936}, {"type": "node", "id": 2573047929, "lat": 40.6829513, "lon": -73.9744293}, {"type": "node", "id": 2573047930, "lat": 40.6830207, "lon": -73.974483}, {"type": "node", "id": 2573047932, "lat": 40.6830527, "lon": -73.9744712}, {"type": "node", "id": 2573047934, "lat": 40.6831866, "lon": -73.976396}, {"type": "node", "id": 2573047936, "lat": 40.6833523, "lon": -73.9761404}, {"type": "node", "id": 2573047937, "lat": 40.6833327, "lon": -73.9757948}, {"type": "node", "id": 2573047939, "lat": 40.6833691, "lon": -73.9760094}, {"type": "node", "id": 2573069244, "lat": 40.68064, "lon": -73.9735868}, {"type": "node", "id": 2573069384, "lat": 40.6809021, "lon": -73.973492}, {"type": "node", "id": 2573098394, "lat": 40.6802759, "lon": -73.9744858, "tags": {"addr:city": "Brooklyn", "addr:housenumber": "253", "addr:postcode": "11217", "addr:state": "NY", "addr:street": "Flatbush Avenue", "amenity": "cafe", "cuisine": "coffee_shop", "drink:coffee": "yes", "drink:espresso": "yes", "indoor_seating": "yes", "internet_access": "yes", "name": "Hungry Ghost", "opening_hours": "Mo-Th 07:00-17:00; Fr-Su 07:00-20:00", "outdoor_seating": "no", "phone": "+1-718-483-8666", "toilets": "yes", "website": "https://www.hungryghostcoffee.com/location/hungry-ghost-prospect-heights/", "wheelchair": "yes"}}, {"type": "node", "id": 2573098397, "lat": 40.6798791, "lon": -73.9741991, "tags": {"addr:city": "Brooklyn", "addr:housenumber": "267", "addr:postcode": "11217", "addr:state": "NY", "addr:street": "Flatbush Avenue", "alt_name": "Morgan's BBQ", "amenity": "restaurant", "bar": "yes", "cocktails": "yes", "cuisine": "barbecue", "drink:beer": "draught", "drink:liquor": "yes", "drink:wine": "yes", "name": "Morgan's Brooklyn Barbecue", "old_name": "Elbow Room", "opening_hours": "Mo-Fr 17:00-23:00; Sa-Su 12:00-23:00", "phone": "+1-718-622-2224", "toilets": "yes", "website": "https://www.morgansbrooklynbarbecue.com"}}, {"type": "node", "id": 2573098476, "lat": 40.6804568, "lon": -73.9744631, "tags": {"addr:city": "Brooklyn", "addr:housenumber": "71", "addr:postcode": "11217", "addr:state": "NY", "addr:street": "6th Avenue", "amenity": "bar", "cocktails": "yes", "cuisine": "continental", "drink:beer": "draught", "drink:liquor": "yes", "drink:wine": "yes", "name": "Sweet Polly", "wheelchair": "yes"}}, {"type": "node", "id": 2573098486, "lat": 40.6803432, "lon": -73.974505, "tags": {"addr:city": "Brooklyn", "addr:housenumber": "75", "addr:postcode": "11217", "addr:state": "NY", "addr:street": "6th Avenue", "addr:unit": "A", "name": "CPA Office", "office": "accountant", "opening_hours": "Mo 10:00-16:00; Tu-Th 10:00-15:00; Fr 10:00-16:00", "phone": "+1 718 622 4221"}}, {"type": "node", "id": 2573099671, "lat": 40.6800232, "lon": -73.9733589}, {"type": "node", "id": 2573099684, "lat": 40.680028, "lon": -73.9733572}, {"type": "node", "id": 2573099736, "lat": 40.6800656, "lon": -73.9735661}, {"type": "node", "id": 2573099897, "lat": 40.6801539, "lon": -73.9730901}, {"type": "node", "id": 2573099911, "lat": 40.6801743, "lon": -73.97319}, {"type": "node", "id": 2573099978, "lat": 40.680324, "lon": -73.9730297}, {"type": "node", "id": 2573099985, "lat": 40.6803444, "lon": -73.9731295}, {"type": "node", "id": 2573099995, "lat": 40.6803664, "lon": -73.973237}, {"type": "node", "id": 2573100005, "lat": 40.6804087, "lon": -73.9734442}, {"type": "node", "id": 2573115154, "lat": 40.6787149, "lon": -73.9733548, "tags": {"addr:city": "Brooklyn", "addr:housenumber": "305", "addr:postcode": "11217", "addr:state": "NY", "addr:street": "Flatbush Avenue", "amenity": "restaurant", "brand": "Jet's Pizza", "brand:wikidata": "Q16997713", "cuisine": "pizza", "name": "Jet's Pizza", "opening_hours": "Mo-Su 11:00-02:00", "phone": "+1-347-295-2856", "takeaway": "yes", "website": "https://jetspizza.com/stores/new-york/brooklyn/305-flatbush-ave/"}}, {"type": "node", "id": 2573115170, "lat": 40.6790513, "lon": -73.9716118, "tags": {"addr:city": "Brooklyn", "addr:housenumber": "605", "addr:postcode": "11238", "addr:state": "NY", "addr:street": "Carlton Avenue", "amenity": "restaurant", "bar": "yes", "cocktails": "yes", "cuisine": "american;jewish;seafood", "drink:beer": "yes", "drink:liquor": "yes", "drink:wine": "yes", "name": "Gertrude's", "opening_hours": "Mo,We-Fr 17:00-22:00; Sa-Su 17:00-23:00", "outdoor_seating": "sidewalk;street", "phone": "+1-718-269-0043", "website": "https://www.gertrudes.nyc"}}, {"type": "node", "id": 2701690229, "lat": 40.6784622, "lon": -73.9731791, "tags": {"addr:housenumber": "307", "addr:postcode": "11217", "addr:street": "Flatbush Avenue", "entrance": "main", "level": "0", "wheelchair": "no"}}, {"type": "node", "id": 2701691287, "lat": 40.6782759, "lon": -73.9730469}, {"type": "node", "id": 2701691298, "lat": 40.6783229, "lon": -73.9730806}, {"type": "node", "id": 2701691316, "lat": 40.6784255, "lon": -73.9731589}, {"type": "node", "id": 2701691318, "lat": 40.6784256, "lon": -73.9731543}, {"type": "node", "id": 2701691321, "lat": 40.6784271, "lon": -73.9731679}, {"type": "node", "id": 2701691323, "lat": 40.6784307, "lon": -73.9731759}, {"type": "node", "id": 2701691324, "lat": 40.678436, "lon": -73.973182}, {"type": "node", "id": 2701691327, "lat": 40.6784425, "lon": -73.9731856}, {"type": "node", "id": 2701691329, "lat": 40.6784496, "lon": -73.9731864}, {"type": "node", "id": 2701691331, "lat": 40.6784531, "lon": -73.9731857}, {"type": "node", "id": 2701691333, "lat": 40.6784534, "lon": -73.9731281}, {"type": "node", "id": 2701691334, "lat": 40.6784564, "lon": -73.9731843}, {"type": "node", "id": 2701691336, "lat": 40.6784568, "lon": -73.9731296}, {"type": "node", "id": 2701691340, "lat": 40.6784628, "lon": -73.9731345}, {"type": "node", "id": 2701691342, "lat": 40.6784671, "lon": -73.9731726}, {"type": "node", "id": 2701691344, "lat": 40.6784673, "lon": -73.9731416}, {"type": "node", "id": 2701691346, "lat": 40.6784699, "lon": -73.973164}, {"type": "node", "id": 2701691347, "lat": 40.67847, "lon": -73.9731502}, {"type": "node", "id": 2701691350, "lat": 40.6784705, "lon": -73.9731594}, {"type": "node", "id": 2701913638, "lat": 40.6788263, "lon": -73.9734353, "tags": {"amenity": "restaurant", "cuisine": "indian", "diet:vegetarian": "yes", "fax": "+1-718-230-1167", "name": "Joy Indian Restaurant", "opening_hours": "Mo-Fr 11:30-15:00,17:00-22:00; Sa-Su 11:30-22:30", "phone": "+1-718-230-1165"}}, {"type": "node", "id": 2701919632, "lat": 40.6789707, "lon": -73.9735396, "tags": {"amenity": "restaurant", "cuisine": "greek", "delivery": "yes", "diet:vegan": "limited", "diet:vegetarian": "limited", "drink:beer": "yes", "drink:wine": "yes", "happy_hours": "Mo-Fr 15:00-18:00", "name": "Let's Go! Ya Souvlakia", "opening_hours": "Mo-Su 10:30-22:30", "outdoor_seating": "garden", "phone": "+1 347 221 1863", "takeaway": "yes", "website": "https://letsgoyasouvlakia.com"}}, {"type": "node", "id": 2701919846, "lat": 40.6790205, "lon": -73.9735756, "tags": {"amenity": "restaurant", "bar": "yes", "cocktails": "yes", "cuisine": "thai", "drink:beer": "yes", "drink:liquor": "yes", "drink:wine": "yes", "name": "Born", "opening_hours": "Mo-Th 15:00-22:00; Fr-Sa 13:30-23:00; Su 13:30-21:45", "phone": "+1 347 663 3674", "website": "https://www.bornnyc.com/"}}, {"type": "node", "id": 2701922513, "lat": 40.6791665, "lon": -73.9736811, "tags": {"amenity": "restaurant", "cuisine": "japanese;sushi", "delivery": "yes", "drink:sake": "yes", "drink:wine": "yes", "name": "Sumi", "opening_hours": "Mo-Fr 11:00-23:00; Sa 12:00-23:00; Su 13:00-23:00", "outdoor_seating": "garden", "phone": "+1-718-638-1689", "takeaway": "yes", "website": "https://sumisushitogo.com"}}, {"type": "node", "id": 2712067241, "lat": 40.67998, "lon": -73.974272, "tags": {"amenity": "restaurant", "cuisine": "sushi", "delivery": "yes", "diet:vegetarian": "yes", "fax": "+1-718-230-7588", "name": "Koto Sushi", "opening_hours": "Mo-Fr 11:30-15:30,16:30-22:30; Su 12:00-22:30", "phone": "+1-718-230-3881", "takeaway": "yes", "toilets": "yes", "toilets:access": "customers", "wheelchair": "yes"}}, {"type": "node", "id": 2712072250, "lat": 40.6807531, "lon": -73.9726314}, {"type": "node", "id": 2716388231, "lat": 40.6831195, "lon": -73.9764689}, {"type": "node", "id": 2716388232, "lat": 40.6832502, "lon": -73.9763101}, {"type": "node", "id": 2716388233, "lat": 40.6833685, "lon": -73.976088}, {"type": "node", "id": 3722347103, "lat": 40.6806397, "lon": -73.9747435, "tags": {"addr:city": "Brooklyn", "addr:housenumber": "245", "addr:postcode": "11217", "addr:state": "NY", "addr:street": "Flatbush Avenue", "amenity": "cafe", "check_date": "2024-06-20", "cuisine": "donut", "diet:vegan": "yes", "drink:coffee": "yes", "drink:espresso": "yes", "internet_access": "wlan", "name": "Doughnut Plant", "opening_hours": "Th-Sa 07:00-23:00; Su-We 07:00-21:00", "website": "https://www.doughnutplant.com/"}}, {"type": "node", "id": 3722376424, "lat": 40.6817867, "lon": -73.9750431}, {"type": "node", "id": 4526583885, "lat": 40.6801621, "lon": -73.9777509, "tags": {"amenity": "restaurant", "cuisine": "middle_eastern;brunch", "delivery": "yes", "drink:beer": "draught", "drink:wine": "yes", "name": "Miriam", "opening_hours": "Mo-Fr 10:00-22:00; Sa-Su 09:00-22:00", "outdoor_seating": "sidewalk;street", "phone": "+1-718-622-2250", "smoking": "no", "website": "https://www.miriamrestaurant.com/park-slope"}}, {"type": "node", "id": 5367308116, "lat": 40.680502, "lon": -73.9778454, "tags": {"amenity": "cafe", "cuisine": "coffee_shop", "name": "Java Andina", "opening_hours": "Mo-Fr 07:00-17:00, Sa 08:00-17:00, Su 08:00-16:00"}}, {"type": "node", "id": 5549150573, "lat": 40.6812487, "lon": -73.9767036, "tags": {"addr:housenumber": "440", "addr:postcode": "11217", "addr:street": "Bergen Street", "amenity": "restaurant", "cocktails": "no", "cuisine": "japanese", "drink:beer": "draught", "drink:liquor": "yes", "drink:sake": "yes", "drink:wine": "yes", "name": "Wasan", "opening_hours": "Mo-Su 11:30-22:30", "website": "https://www.wasan-ny.com/"}}, {"type": "node", "id": 5549150585, "lat": 40.6804355, "lon": -73.9775764, "tags": {"amenity": "restaurant", "cocktails": "yes", "cuisine": "lebanese", "drink:beer": "yes", "drink:liquor": "yes", "drink:wine": "yes", "name": "Sawa", "opening_hours": "We-Su 17:30-23:00", "phone": "+1-347-457-6761", "website": "https://www.sawa.nyc"}}, {"type": "node", "id": 5555271889, "lat": 40.6806241, "lon": -73.9777628, "tags": {"amenity": "restaurant", "cuisine": "japanese", "drink:beer": "yes", "drink:sake": "yes", "drink:wine": "yes", "name": "Momo Ramen", "phone": "+1-718-622-4813", "toilets": "yes"}}, {"type": "node", "id": 5562952069, "lat": 40.6804218, "lon": -73.9778995, "tags": {"amenity": "restaurant", "cuisine": "american", "drink:beer": "yes", "drink:coffee": "yes", "drink:espresso": "yes", "drink:juice": "yes", "drink:wine": "yes", "name": "Pure Bistro", "opening_hours": "Mo-Fr 09:00-15:00,17:00-21:00; Sa-Su 09:00-21:00", "payment:cash": "only", "phone": "+1-718-622-5314", "website": "https://purebistrobrooklyn.com"}}, {"type": "node", "id": 5562952071, "lat": 40.6813003, "lon": -73.9773182, "tags": {"amenity": "bar", "name": "Uncle Barry's", "opening_hours": "Mo-Th 15:00-02:00; Fr-Sa 15:00-04:00; Su 12:00-02:00", "outdoor_seating": "garden;street", "phone": "+1-718-622-4980", "website": "https://www.unclebarrys.com", "wheelchair": "yes"}}, {"type": "node", "id": 5562952077, "lat": 40.6811967, "lon": -73.9773859, "tags": {"amenity": "restaurant", "bar": "yes", "cocktails": "yes", "cuisine": "caribbean", "drink:beer": "draught", "drink:liquor": "yes", "drink:wine": "yes", "happy_hours": "Mo-Fr 15:00-19:00", "name": "BK9", "opening_hours": "Mo-Th 12:00-02:00; Fr 11:30-04:00; Sa 10:30-04:00; Su 10:30-02:00", "phone": "+1-718-789-2176", "website": "https://www.bk9.nyc"}}, {"type": "node", "id": 5562952078, "lat": 40.6813471, "lon": -73.9772854, "tags": {"amenity": "pub", "cocktails": "yes", "cuisine": "american;pub;brunch", "drink:beer": "draught", "drink:liquor": "yes", "drink:wine": "yes", "happy_hours": "Mo-Fr 16:00-18:30", "name": "Alchemy", "opening_hours": "Mo-Th 09:00-23:00; Fr 09:00-24:00; Sa 10:00-24:00; Su 10:00-23:00", "outdoor_seating": "garden;sidewalk;street", "phone": "+1-718-636-4385", "website": "http://alchemybrooklyn.com"}}, {"type": "node", "id": 5562952079, "lat": 40.6815124, "lon": -73.9774074, "tags": {"addr:housenumber": "428", "addr:postcode": "11217", "addr:street": "Bergen Street", "amenity": "bar", "drink:beer": "draught", "drink:liquor": "yes", "drink:wine": "yes", "name": "North Pole", "outdoor_seating": "sidewalk;street"}}, {"type": "node", "id": 5562952083, "lat": 40.6810436, "lon": -73.9774878, "tags": {"amenity": "restaurant", "cuisine": "italian;spanish;seafood;steak", "drink:wine": "yes", "name": "Convivium Osteria", "opening_hours": "Mo-Th 17:00-22:30; Fr-Sa 17:00-23:00; Su 17:00-21:30", "phone": "+1-718-857-1833", "website": "https://convivium-osteria.com", "wheelchair": "yes"}}, {"type": "node", "id": 5562952084, "lat": 40.681021, "lon": -73.9771719, "tags": {"name": "Amesly Real Estate Management", "office": "company", "phone": "+1-718-857-0635"}}, {"type": "node", "id": 5567987136, "lat": 40.6807473, "lon": -73.9776796, "tags": {"amenity": "bar", "cocktails": "yes", "drink:beer": "draught", "drink:liquor": "yes", "drink:sake": "yes", "drink:wine": "yes", "name": "Honeycomb", "opening_hours": "Tu-We 17:00-24:00, Th 17:00-01:00, Fr-Sa 16:00-02:00, Su 16:00-24:00", "theme": "audio_lounge", "website": "https://honeycombk.com"}}, {"type": "node", "id": 5625774810, "lat": 40.680309, "lon": -73.974974, "tags": {"amenity": "bar", "cocktails": "yes", "cuisine": "caribbean", "drink:beer": "yes", "drink:liquor": "yes", "drink:wine": "yes", "fax": "+1-718-230-4178", "name": "Sugarcane", "phone": "+1-718-230-3954", "website": "http://sugarcanerestaurant.com"}}, {"type": "node", "id": 5625774814, "lat": 40.6808478, "lon": -73.9756775, "tags": {"amenity": "cafe", "cuisine": "coffee_shop", "drink:coffee": "yes", "drink:espresso": "yes", "drink:tea": "yes", "name": "Joe Coffee", "opening_hours": "07:00-19:00", "start_date": "2023", "website": "https://joecoffeecompany.com/locations/bergen-street/"}}, {"type": "node", "id": 5657099772, "lat": 40.6819364, "lon": -73.9763773, "tags": {"addr:housenumber": "446B", "addr:postcode": "11217", "addr:street": "Dean Street", "amenity": "restaurant", "cuisine": "sushi;japanese", "delivery": "yes", "diet:vegetarian": "yes", "drink:beer": "yes", "drink:sake": "yes", "drink:wine": "yes", "name": "Hiroto Sushi", "opening_hours": "Tu-Su 12:00-22:30", "phone": "+1-718-638-0888", "takeaway": "yes", "website": "https://www.hirotosushi.com"}}, {"type": "node", "id": 5676615632, "lat": 40.6812713, "lon": -73.9752096, "tags": {"amenity": "pub", "cocktails": "yes", "cuisine": "mexican", "drink:beer": "draught", "drink:liquor": "yes", "drink:wine": "yes", "name": "Tiny's Cantina", "opening_hours": "Mo-Su 16:00-24:00", "phone": "+1-718-970-7007", "website": "https://tinyscantina.com"}}, {"type": "node", "id": 5676615637, "lat": 40.6807134, "lon": -73.9777025, "tags": {"alt_name": "DHCR Expert", "disused:website": "http://dhcrexpert.com", "name": "B.A. Consultants", "office": "estate_agent", "phone": "+1 718 789 8193"}}, {"type": "node", "id": 5676615641, "lat": 40.6811036, "lon": -73.9756954}, {"type": "node", "id": 5676615659, "lat": 40.6818471, "lon": -73.9761826, "tags": {"amenity": "restaurant", "bar": "yes", "cocktails": "yes", "cuisine": "pizza;italian", "drink:beer": "draught", "drink:liquor": "yes", "drink:wine": "yes", "name": "Patsy's Pizzeria", "opening_hours": "Mo-Th 12:00-22:00; Fr,Sa 12:00-23:00; Su 12:00-22:00", "outdoor_seating": "garden", "phone": "+1 718 622 2268", "website": "https://patsyspizza.nyc"}}, {"type": "node", "id": 5680230788, "lat": 40.6817726, "lon": -73.9749757, "tags": {"entrance": "yes", "name": "Dean Entrance"}}, {"type": "node", "id": 5680230789, "lat": 40.6818569, "lon": -73.9748539}, {"type": "node", "id": 5680230790, "lat": 40.6817547, "lon": -73.9748901}, {"type": "node", "id": 5680230791, "lat": 40.6825627, "lon": -73.9743745}, {"type": "node", "id": 5680230792, "lat": 40.6824156, "lon": -73.974199}, {"type": "node", "id": 5680230793, "lat": 40.6822653, "lon": -73.9745006}, {"type": "node", "id": 5680230801, "lat": 40.6822618, "lon": -73.9744843}, {"type": "node", "id": 5712402437, "lat": 40.6819661, "lon": -73.9768617, "tags": {"addr:housenumber": "36", "addr:postcode": "11217", "addr:street": "5th Avenue", "amenity": "restaurant", "atm": "yes", "bar": "yes", "cocktails": "yes", "cuisine": "latin_american", "delivery": "yes", "drink:beer": "draught", "drink:coffee": "yes", "drink:espresso": "yes", "drink:liquor": "yes", "drink:wine": "yes", "happy_hours": "Mo-Fr 15:00-19:00", "name": "Yayo's", "old_name": "El Viejo Yayo", "opening_hours": "Tu-Su 11:00-22:00", "phone": "+1-718-622-8922", "smoking": "no", "takeaway": "yes", "website": "https://yayosrestaurant.business.site"}}, {"type": "node", "id": 5712452819, "lat": 40.6800952, "lon": -73.9743553, "tags": {"amenity": "restaurant", "cocktails": "yes", "cuisine": "caribbean", "drink:beer": "draught", "drink:liquor": "yes", "drink:wine": "yes", "name": "Bird Pepper", "opening_hours": "Tu-Th 16:00-23:00, Fr 16:00-24:00, Sa 12:00-24:00, Su 12:00-22:00", "opening_hours:kitchen": "Tu-Th 16:00-22:00, Fr 16:00-01:00, Sa 12:00-01:00, Su 12:00-23:00", "phone": "+1-718-541-5458", "website": "https://www.birdpeppercuisine.com"}}, {"type": "node", "id": 5712453223, "lat": 40.679831, "lon": -73.9739893, "tags": {"amenity": "restaurant", "bar": "yes", "cocktails": "yes", "cuisine": "persian", "drink:liquor": "yes", "drink:tea": "yes", "drink:wine": "yes", "name": "Sofreh", "opening_hours": "Tu-Sa 18:00-22:00; Su 18:00-21:30", "phone": "+1-646-798-1690", "website": "https://www.sofrehnyc.com"}}, {"type": "node", "id": 5836979837, "lat": 40.6783768, "lon": -73.9729346}, {"type": "node", "id": 5836979838, "lat": 40.6784295, "lon": -73.9730199, "tags": {"entrance": "yes", "level": "0", "wheelchair": "yes"}}, {"type": "node", "id": 5836979839, "lat": 40.6783973, "lon": -73.9730356}, {"type": "node", "id": 5836979840, "lat": 40.6784262, "lon": -73.9730048}, {"type": "node", "id": 5864322719, "lat": 40.6830487, "lon": -73.9761528}, {"type": "node", "id": 5864322720, "lat": 40.6830334, "lon": -73.9762225}, {"type": "node", "id": 5864322721, "lat": 40.6831768, "lon": -73.9763064}, {"type": "node", "id": 5864322722, "lat": 40.6832206, "lon": -73.9762561}, {"type": "node", "id": 5864322723, "lat": 40.6830365, "lon": -73.9762748}, {"type": "node", "id": 5864322724, "lat": 40.6830507, "lon": -73.9763151}, {"type": "node", "id": 5864322725, "lat": 40.6830705, "lon": -73.9763379}, {"type": "node", "id": 5864322726, "lat": 40.6832795, "lon": -73.9761722}, {"type": "node", "id": 5864322727, "lat": 40.6831387, "lon": -73.9763379}, {"type": "node", "id": 5864322728, "lat": 40.6832348, "lon": -73.9760053}, {"type": "node", "id": 5864322729, "lat": 40.6831021, "lon": -73.9763486}, {"type": "node", "id": 5864322730, "lat": 40.6832714, "lon": -73.9759986}, {"type": "node", "id": 5864322731, "lat": 40.683307, "lon": -73.9760153}, {"type": "node", "id": 5864322732, "lat": 40.6831585, "lon": -73.9760442}, {"type": "node", "id": 5864322733, "lat": 40.6833223, "lon": -73.9760515}, {"type": "node", "id": 5864322734, "lat": 40.6833167, "lon": -73.9760971}, {"type": "node", "id": 5864322735, "lat": 40.6830894, "lon": -73.9760992}, {"type": "node", "id": 5965114169, "lat": 40.6801128, "lon": -73.9777842, "tags": {"alt_name": "Skewers by Miriam", "amenity": "restaurant", "cuisine": "middle_eastern", "drink:beer": "yes", "drink:wine": "yes", "name": "Miriam Street Food", "opening_hours": "Mo-Su 11:30-22:00", "outdoor_seating": "street", "phone": "+1-347-464-5477", "website": "https://miriamstreetfood.com"}}, {"type": "node", "id": 5980081426, "lat": 40.6832558, "lon": -73.9736454, "tags": {"addr:housenumber": "673", "addr:postcode": "11217", "addr:street": "Atlantic Avenue", "amenity": "restaurant", "bar": "yes", "cuisine": "caribbean;soul_food", "diet:vegetarian": "yes", "happy_hours": "Mo-Th 16:00-19:00", "name": "The Simpson", "opening_hours": "Mo-Th 11:00-23:00; Fr-Sa 11:00-24:00; Su 11:00-23:00", "phone": "+1-347-763-2711"}}, {"type": "node", "id": 6053655803, "lat": 40.6804101, "lon": -73.9750463, "tags": {"alt_name": "Udon Muteki", "amenity": "restaurant", "cuisine": "japanese", "drink:beer": "yes", "drink:liquor": "yes", "drink:wine": "yes", "name": "Muteki Udon", "opening_hours": "Mo,We-Su 12:00-22:00", "phone": "+1-917-688-3407", "website": "https://mutekiudon.com"}}, {"type": "node", "id": 6053655807, "lat": 40.6803585, "lon": -73.9750094, "tags": {"alt_name": "Davids Financial", "amenity": "money_transfer", "atm": "yes", "description": "check cashing, bill pay, Western Union & MoneyGram money wires", "money_transfer": "MoneyGram;Western Union", "name": "Davids Check Cashing", "office": "financial", "website": "http://www.davidsfinancial.com"}}, {"type": "node", "id": 6064292203, "lat": 40.6810032, "lon": -73.9745532, "tags": {"addr:city": "Brooklyn", "addr:housenumber": "64", "addr:postcode": "11217", "addr:state": "NY", "addr:street": "6th Avenue", "amenity": "bar", "cafe": "yes", "cocktails": "yes", "drink:beer": "yes", "drink:coffee": "yes", "drink:espresso": "yes", "drink:liquor": "yes", "name": "Shaka Shaka Tiki", "old_name": "Companion", "opening_hours": "Mo-Tu 16:00-24:00, We-Su 16:00-24:00", "phone": "+1-347-689-3184"}}, {"type": "node", "id": 6224335411, "lat": 40.6836693, "lon": -73.9728163, "tags": {"barrier": "gate", "opening_hours": "Mo-Su 06:00-22:00"}}, {"type": "node", "id": 6224335434, "lat": 40.6838029, "lon": -73.9721066, "tags": {"barrier": "gate", "opening_hours": "Mo-Su 07:00-22:00"}}, {"type": "node", "id": 6224335438, "lat": 40.684123, "lon": -73.972212, "tags": {"barrier": "gate", "opening_hours": "Mo-Su 07:00-22:00"}}, {"type": "node", "id": 6501194994, "lat": 40.6814403, "lon": -73.9772244, "tags": {"addr:housenumber": "52", "addr:postcode": "11217", "addr:street": "5th Avenue", "alt_name": "Five Spice", "amenity": "restaurant", "cuisine": "vietnamese", "drink:coffee": "yes", "drink:tea": "yes", "name": "5ive Spice", "opening_hours": "Mo-Su 12:00-22:00", "phone": "+1-718-857-3483", "website": "https://5ivespicebk.com"}}, {"type": "node", "id": 6644584701, "lat": 40.6810767, "lon": -73.9771418, "tags": {"amenity": "restaurant", "bar": "yes", "cuisine": "sushi", "drink:sake": "yes", "name": "Koi Omakase", "opening_hours": "Mo-Th 13:00-15:00, 17:00-22:30; Fr-Sa 13:00-15:00, 17:00-23:30; Su 13:00-15:00, 17:00-22:30", "phone": "+1-917-728-7563", "website": "https://koiomakase.square.site"}}, {"type": "node", "id": 6677492128, "lat": 40.6835055, "lon": -73.9720771}, {"type": "node", "id": 6677492142, "lat": 40.6841182, "lon": -73.9721644}, {"type": "node", "id": 6677492143, "lat": 40.6841247, "lon": -73.9722504}, {"type": "node", "id": 6677492144, "lat": 40.6840548, "lon": -73.9728558}, {"type": "node", "id": 6677492146, "lat": 40.6840203, "lon": -73.9728843}, {"type": "node", "id": 6677492150, "lat": 40.6832896, "lon": -73.9727263}, {"type": "node", "id": 6677492165, "lat": 40.6833234, "lon": -73.9724399}, {"type": "node", "id": 6677492166, "lat": 40.6833281, "lon": -73.9723981}, {"type": "node", "id": 6680404242, "lat": 40.6806896, "lon": -73.9777186, "tags": {"addr:housenumber": "76", "addr:postcode": "11217", "addr:street": "5th Avenue", "amenity": "cafe", "brand": "Kung Fu Tea", "brand:wikidata": "Q66023886", "cuisine": "bubble_tea", "drink:coffee": "no", "drink:tea": "yes", "name": "Kung Fu Tea", "opening_hours": "Mo-Th 11:30-20:30; Fr-Sa 11:30-21:00; Su 11:30-20:30", "takeaway": "yes"}}, {"type": "node", "id": 6808438332, "lat": 40.6809465, "lon": -73.9759334, "tags": {"amenity": "restaurant", "cuisine": "sushi", "name": "Idashi", "opening_hours": "Mo-Su 16:30-22:30", "phone": "+1-646-813-6888", "start_date": "2024", "website": "https://idashiny.com"}}, {"type": "node", "id": 7274355985, "lat": 40.6811098, "lon": -73.9757114}, {"type": "node", "id": 8220976347, "lat": 40.6808205, "lon": -73.9756123, "tags": {"alt_name": "Goto Niban", "amenity": "bar", "cuisine": "japanese;snack", "drink:beer": "yes", "drink:liquor": "no", "drink:sake": "yes", "drink:wine": "yes", "name": "Bar Goto", "outdoor_seating": "sidewalk;street", "website": "https://www.bargoto.com"}}, {"type": "node", "id": 8395365609, "lat": 40.6811961, "lon": -73.9755839, "tags": {"entrance": "main"}}, {"type": "node", "id": 8395365610, "lat": 40.6810814, "lon": -73.9757569, "tags": {"entrance": "yes"}}, {"type": "node", "id": 8395365611, "lat": 40.6810741, "lon": -73.9757375}, {"type": "node", "id": 9060500664, "lat": 40.6808313, "lon": -73.9728317}, {"type": "node", "id": 9060500669, "lat": 40.6810946, "lon": -73.972759}, {"type": "node", "id": 9060500672, "lat": 40.6806102, "lon": -73.9726824}, {"type": "node", "id": 9060500674, "lat": 40.6807788, "lon": -73.9727567}, {"type": "node", "id": 9518300466, "lat": 40.6819483, "lon": -73.9738202, "tags": {"addr:housenumber": "29", "addr:postcode": "11217", "addr:street": "6th Avenue", "name": "Pacific Park Campus", "office": "educational_institution"}}, {"type": "node", "id": 12456130217, "lat": 40.6811024, "lon": -73.9755327, "tags": {"addr:housenumber": "216", "addr:postcode": "11217", "addr:street": "Flatbush Avenue", "amenity": "cafe", "cuisine": "persian", "name": "Sofreh Cafe", "opening_hours": "Mo-Fr 09:00-17:00, Sa-Su 09:00-16:00", "phone": "+1-929-294-9240", "website": "https://www.sofrehnyc.com/sofrehcafe"}}, {"type": "node", "id": 12641782071, "lat": 40.678272, "lon": -73.9730277, "tags": {"addr:city": "Brooklyn", "addr:housenumber": "315", "addr:postcode": "11217", "addr:state": "NY", "addr:street": "Flatbush Avenue", "contact:facebook": "https://www.facebook.com/brownstonelawBrooklynny/", "contact:instagram": "https://www.instagram.com/brownstonelawny/", "contact:linkedin": "https://www.linkedin.com/company/brownstone-law-brooklyn-ny/about", "name": "Brownstone Law", "office": "lawyer", "opening_hours": "Mo-Fr 10:00-18:00", "phone": "+1 347-305-4912", "website": "https://www.brownstonelaw.com/federal-appeals/new-york/"}}, {"type": "node", "id": 12717228690, "lat": 40.6818821, "lon": -73.9738442, "tags": {"addr:housenumber": "29", "addr:postcode": "11217", "addr:street": "6th Avenue", "alt_name": "Bridges: A School for Exploration and Equity", "amenity": "school", "fax": "+1-718-802-3297", "name": "Bridges MS915", "phone": "+1-718-875-1021", "ref:nycschools": "K915", "website": "https://www.ms915brooklyn.org"}}, {"type": "node", "id": 12717228691, "lat": 40.6818159, "lon": -73.9738683, "tags": {"addr:housenumber": "29", "addr:postcode": "11217", "addr:street": "6th Avenue", "amenity": "school", "name": "Design Works High School", "phone": "+1-929-489-3880", "ref:nycschools": "K963"}}, {"type": "way", "id": 43221632, "nodes": [541991203, 740166213, 2573069384, 2573069244, 1867751133, 541991205, 1867751132, 541991207, 9060500672, 2712072250, 9060500674, 740166105, 9060500664, 541991213, 9060500669, 740166214, 541991203], "tags": {"leisure": "park", "name": "Dean Playground", "operator": "NYC Parks Department", "website": "https://www.nycgovparks.org/parks/dean-playground", "wikidata": "Q34825725"}}, {"type": "way", "id": 182428278, "nodes": [6677492146, 6224335411, 1927772742, 6677492150, 2573007273, 2573007275, 6677492165, 6677492166, 1927772745, 1927772747, 6677492128, 1241406048, 1241406061, 6224335434, 6677492142, 6224335438, 6677492143, 6677492144, 6677492146], "tags": {"leisure": "park", "name": "South Oxford Park", "opening_hours": "Mo-Su 07:00-22:00", "wikidata": "Q116205065"}}, {"type": "way", "id": 248163723, "nodes": [2550054906, 2550054892, 2550054901, 2550054902, 2550054911, 2550054921, 2550054910, 2550054906], "tags": {"addr:housenumber": "39", "addr:postcode": "11217", "addr:street": "5th Avenue", "amenity": "pub", "building": "yes", "cuisine": "pub", "height": "4.3", "name": "McMahon's", "nycdoitt:bin": "3018478", "outdoor_seating": "roof", "phone": "+1 718 230 4549"}}, {"type": "way", "id": 250992428, "nodes": [2573047927, 2716388231, 2573047934, 2716388232, 2573047936, 2716388233, 2573047939, 2573047937, 2573047932, 2573047930, 2573047929, 2573047908, 2573047901, 5680230791, 2573047899, 5680230792, 2573047898, 5680230801, 5680230793, 2573047896, 2573047889, 5680230789, 5680230790, 5680230788, 3722376424, 2573047892, 2573047894, 2573047913, 2573047927]}, {"type": "way", "id": 251002708, "nodes": [2573099671, 2573099736, 2573100005, 2573099995, 2573099684, 2573099671], "tags": {"addr:city": "Brooklyn", "addr:housenumber": "516", "addr:postcode": "11217", "addr:state": "NY", "addr:street": "Bergen Street", "building": "yes", "government": "city", "height": "9.0", "name": "NYC Department of Housing Preservation & Development", "nycdoitt:bin": "3028043", "office": "government"}}, {"type": "way", "id": 251002715, "nodes": [2573099897, 2573099911, 2573099985, 2573099978, 2573099897], "tags": {"addr:city": "Brooklyn", "addr:housenumber": "522", "addr:postcode": "11217", "addr:state": "NY", "addr:street": "Bergen Street", "building": "yes", "height": "7.5", "name": "Radix Media", "nycdoitt:bin": "3028045", "office": "company", "opening_hours": "Mo-Fr 09:00-17:00", "website": "https://radixmedia.org"}}, {"type": "way", "id": 617474313, "nodes": [2701691298, 2701691318, 2701691316, 2701691321, 2701691323, 2701691324, 2701691327, 2701691329, 2701691331, 2701691334, 2701690229, 2701691342, 2701691346, 2701691350, 2701691347, 2701691344, 2701691340, 2701691336, 2701691333, 5836979838, 5836979840, 5836979839, 5836979837, 2701691287, 2701691298], "tags": {"addr:housenumber": "307", "addr:postcode": "11217", "addr:street": "Flatbush Avenue", "amenity": "restaurant", "bar": "yes", "cocktails": "yes", "cuisine": "mexican", "drink:beer": "draught", "drink:liquor": "yes", "drink:wine": "yes", "happy_hours": "Mo-Fr 16:00-19:00", "level": "0", "name": "Burrito Bar and Kitchen", "opening_hours": "Mo-Th 12:00-23:00+, Fr-Sa 12:00-24:00+, Su 11:00-23:00+", "outdoor_seating": "sidewalk", "takeaway": "yes", "website": "https://burritobarbrooklyn.com", "wheelchair": "limited"}}, {"type": "way", "id": 620716943, "nodes": [5864322734, 5864322726, 5864322722, 5864322721, 5864322727, 5864322729, 5864322725, 5864322724, 5864322723, 5864322720, 5864322719, 5864322735, 5864322732, 5864322728, 5864322730, 5864322731, 5864322733, 5864322734]}, {"type": "way", "id": 903964406, "nodes": [2550054837, 8395365609, 2550054826, 2550054817, 5676615641, 7274355985, 8395365611, 8395365610, 2550054808, 2550054825, 2550054837], "tags": {"addr:housenumber": "212", "addr:postcode": "11217", "addr:street": "Flatbush Avenue", "alt_name": "Gahm by Mokbar", "amenity": "restaurant", "bar": "yes", "cocktails": "yes", "cuisine": "korean;ramen", "drink:beer": "yes", "drink:liquor": "yes", "drink:wine": "yes", "level": "0", "name": "Gahm", "opening_hours": "Tu-Su 17:00-22:00", "phone": "+1-347-987-3042", "website": "https://www.mokbar.com/new-page-2"}}, {"type": "relation", "id": 8610205, "members": [{"type": "way", "ref": 250992428, "role": "outer"}, {"type": "way", "ref": 620716943, "role": "inner"}], "tags": {"addr:city": "Brooklyn", "addr:housename": "Barclays Center", "addr:housenumber": "620", "addr:postcode": "11217", "addr:state": "NY", "addr:street": "Atlantic Avenue", "building": "civic", "height": "35", "layer": "1", "leisure": "stadium", "name": "Barclays Center", "nycdoitt:bin": "3398156", "operator": "Anschutz Entertainment Group", "phone": "+19176186100", "sport": "basketball;hockey", "team": "Brooklyn Nets;New York Islanders", "type": "multipolygon", "website": "https://www.barclayscenter.com/", "wheelchair": "yes", "wikidata": "Q807966", "wikipedia": "en:Barclays Center"}}]}