{"version": 0.6, "generator": "Overpass API 0.7.62.8 e802775f", "osm3s": {"timestamp_osm_base": "2025-12-01T17:15:59Z", "copyright": "The data included in this document is from www.openstreetmap.org. The data is made available under ODbL."}, "elements": [{"type": "node", "id": 357579488, "lat": 40.7564673, "lon": -73.9334733}, {"type": "node", "id": 357618189, "lat": 40.7544444, "lon": -73.9311111, "tags": {"amenity": "school", "ele": "12", "gnis:feature_id": "2080394", "name": "Queens Lutheran School"}}, {"type": "node", "id": 1475399324, "lat": 40.7579088, "lon": -73.9328158}, {"type": "node", "id": 1475399326, "lat": 40.7581589, "lon": -73.9333209}, {"type": "node", "id": 1475399328, "lat": 40.7577426, "lon": -73.9337007}, {"type": "node", "id": 1475399329, "lat": 40.7566896, "lon": -73.9339216}, {"type": "node", "id": 1475399330, "lat": 40.7573942, "lon": -73.9325488}, {"type": "node", "id": 1683222646, "lat": 40.7556257, "lon": -73.9280317, "tags": {"amenity": "restaurant", "cuisine": "french", "name": "Caf\u00e9 Triskell", "website": "http://www.cafetriskell.co/"}}, {"type": "node", "id": 2297263367, "lat": 40.7576594, "lon": -73.9330149}, {"type": "node", "id": 2495111045, "lat": 40.7563693, "lon": -73.928987, "tags": {"addr:city": "Astoria", "addr:postcode": "11106", "addr:street": "36th Avenue", "amenity": "restaurant", "cuisine": "brazilian", "name": "Copacabana", "phone": "+1 718 545-3685"}}, {"type": "node", "id": 2846595098, "lat": 40.7555033, "lon": -73.9271504, "tags": {"addr:housenumber": "34-01", "addr:postcode": "11106", "addr:street": "36th Avenue", "amenity": "restaurant", "name": "Taco Veloz", "phone": "+1 718-885-5470"}}, {"type": "node", "id": 2846621603, "lat": 40.7573471, "lon": -73.9263824, "tags": {"addr:housenumber": "33-09", "addr:postcode": "11106", "addr:street": "35th Avenue", "alt_name": "The Henry Gradstein School", "amenity": "school", "ele": "12", "gnis:feature_id": "961410", "name": "Public School 166"}}, {"type": "node", "id": 2846916794, "lat": 40.7585537, "lon": -73.929091, "tags": {"addr:housenumber": "30-01", "addr:postcode": "11106", "addr:street": "35th Avenue", "amenity": "restaurant", "delivery": "yes", "name": "The Grand 35th Avenue Diner", "opening_hours": "Mo-Su 07:00-21:00", "phone": "+1 718-806-1811", "takeaway": "yes"}}, {"type": "node", "id": 2846965662, "lat": 40.7578849, "lon": -73.9321866, "tags": {"addr:housenumber": "25-35", "addr:postcode": "11106", "addr:street": "36th Avenue", "amenity": "restaurant", "name": "Malagueta"}}, {"type": "node", "id": 2846995250, "lat": 40.7571637, "lon": -73.931277, "tags": {"addr:housenumber": "29-06", "addr:postcode": "11106", "addr:street": "36th Avenue", "amenity": "restaurant", "cuisine": "bengladeshi", "name": "Aladdin Sweets and Restaurant", "phone": "+1 718-784-2554"}}, {"type": "node", "id": 2846995279, "lat": 40.7570898, "lon": -73.9311189, "tags": {"addr:city": "Astoria", "addr:housenumber": "29-12", "addr:postcode": "11106", "addr:street": "36th Avenue", "amenity": "restaurant", "contact:instagram": "sabrosuramexicana", "cuisine": "mexican", "delivery": "yes", "name": "Sabrosura Mexican Restaurant", "opening_hours": "Mo-Su 06:00-01:00", "phone": "+1 718-433-4541", "website": "https://sabrosuramexicana.com"}}, {"type": "node", "id": 2853055063, "lat": 40.7548098, "lon": -73.9269073}, {"type": "node", "id": 2853055303, "lat": 40.7549527, "lon": -73.9272134}, {"type": "node", "id": 2853055307, "lat": 40.7549717, "lon": -73.927198}, {"type": "node", "id": 2853055323, "lat": 40.7550246, "lon": -73.9271553}, {"type": "node", "id": 2853055329, "lat": 40.7550418, "lon": -73.92672}, {"type": "node", "id": 2853055331, "lat": 40.7550447, "lon": -73.9271391}, {"type": "node", "id": 2853055368, "lat": 40.7551847, "lon": -73.9270261}, {"type": "node", "id": 3212388257, "lat": 40.7557723, "lon": -73.9277067, "tags": {"addr:city": "New York", "addr:country": "US", "addr:housenumber": "33-07", "addr:postcode": "11106", "addr:state": "NY", "addr:street": "36th Avenue", "amenity": "restaurant", "cuisine": "venezuelan;arepa", "description": "Authentic Venezuelan Cuisine \"Sabor Venezolano\".", "fixme": "Check if the information is correct, if the location is correct, and if the establishment/POI still exists", "happy_hours": "Mo-Fr 15:00-19:00", "name": "Arepas Caf\u00e9", "old_website": "http://arepasnyc.com/", "opening_hours": "Mo-Fr 12:00-22:00; Sa 11:00-23:00; Su 11:00-22:00", "opening_hours:brunch": "Mo-Fr 12:00-21:00; Sa-Su 11:00-21:00", "payment:contactless": "yes", "payment:credit_cards": "yes", "payment:debit_cards": "yes", "pets_allowed": "yes", "phone": "+1 718-937-3835", "website": "https://arepascafe.squarespace.com/"}}, {"type": "node", "id": 3569402112, "lat": 40.7583125, "lon": -73.9331125, "tags": {"addr:housenumber": "35-57", "addr:street": "Crescent Street", "amenity": "restaurant", "contact:instagram": "samiskababhouse", "cuisine": "afghan", "delivery": "yes", "name": "Sami's Kabab House", "opening_hours": "12:00-22:00", "phone": "+1 718-433-0666", "takeaway": "yes", "wheelchair": "yes"}}, {"type": "node", "id": 3570753793, "lat": 40.7552407, "lon": -73.9271915, "tags": {"amenity": "restaurant", "cuisine": "ecuadorian", "name": "Ecuadorian Restaurant II", "wheelchair": "limited"}}, {"type": "node", "id": 3573487193, "lat": 40.7552627, "lon": -73.9272533, "tags": {"amenity": "bar", "name": "Veronica's Bar", "wheelchair": "yes"}}, {"type": "node", "id": 3814104411, "lat": 40.755897, "lon": -73.9260327}, {"type": "node", "id": 3814104412, "lat": 40.7559875, "lon": -73.9262356}, {"type": "node", "id": 3814104413, "lat": 40.755621, "lon": -73.9262472}, {"type": "node", "id": 3814104414, "lat": 40.7557115, "lon": -73.9264501}, {"type": "node", "id": 3862899358, "lat": 40.757024, "lon": -73.93099, "tags": {"amenity": "restaurant", "name": "Boishaki Restaurant"}}, {"type": "node", "id": 3865328757, "lat": 40.7578136, "lon": -73.9275072, "tags": {"addr:city": "Astoria", "addr:housenumber": "34-55", "addr:postcode": "11106", "addr:state": "NY", "addr:street": "32nd Street", "amenity": "pub", "contact:instagram": "https://www.instagram.com/snowdonianyc/", "name": "Snowdonia", "opening_hours": "Tu-Su 17:00-24:00", "phone": "+1 347 730 5783", "website": "https://snowdonia.nyc/", "website:menu": "https://snowdonia.nyc/main-menu", "wheelchair": "yes"}}, {"type": "node", "id": 5057453101, "lat": 40.7566589, "lon": -73.9294381, "tags": {"addr:housenumber": "35-55", "addr:postcode": "11106", "addr:street": "31st Street", "amenity": "restaurant", "cuisine": "mexican", "name": "Chano's Cantina", "opening_hours": "Mo-Fr 12:00-23:00; Sa 11:00-00:00; Su 12:00-00:00", "phone": "+1 917-832-7261", "website": "https://www.chanoscantina.com/"}}, {"type": "node", "id": 5686408267, "lat": 40.7575483, "lon": -73.9269653, "tags": {"addr:housenumber": "34-56", "addr:street": "35th Avenue", "amenity": "cafe", "contact:instagram": "https://www.instagram.com/coffeeaveny/", "internet_access": "yes", "internet_access:fee": "customers", "name": "Coffee Ave", "opening_hours": "Mo-Su 06:00-20:00", "outdoor_seating": "yes", "wheelchair": "no"}}, {"type": "node", "id": 5805307866, "lat": 40.7563367, "lon": -73.92954, "tags": {"addr:housenumber": "31-06", "addr:street": "36th Avenue", "amenity": "bar"}}, {"type": "node", "id": 5805307868, "lat": 40.7562584, "lon": -73.9293522, "tags": {"addr:housenumber": "31-12", "addr:street": "36th Avenue", "amenity": "restaurant", "cuisine": "mexican;tacos", "name": "Fresco Tortillas", "wheelchair": "yes"}}, {"type": "node", "id": 5805320716, "lat": 40.7563143, "lon": -73.9294719, "tags": {"addr:housenumber": "31-08", "addr:street": "36th Avenue", "amenity": "restaurant", "name": "LIC Bagel", "phone": "+1-718-361-9500", "wheelchair": "yes"}}, {"type": "node", "id": 5805320749, "lat": 40.7571943, "lon": -73.9268304, "tags": {"addr:housenumber": "33-02", "addr:street": "35th Avenue", "amenity": "restaurant", "cuisine": "pizza", "name": "Napoli Pizza & Pasta"}}, {"type": "node", "id": 9673540187, "lat": 40.7575512, "lon": -73.9333277}, {"type": "node", "id": 9673540194, "lat": 40.756553, "lon": -73.9332479}, {"type": "node", "id": 9673540195, "lat": 40.7564664, "lon": -73.9333591}, {"type": "node", "id": 9673540196, "lat": 40.7565028, "lon": -73.9332967}, {"type": "node", "id": 9673540197, "lat": 40.75646, "lon": -73.9334147}, {"type": "node", "id": 9673540198, "lat": 40.7564817, "lon": -73.9333241}, {"type": "node", "id": 9673540200, "lat": 40.7577698, "lon": -73.9336697}, {"type": "node", "id": 11278151796, "lat": 40.7546481, "lon": -73.9308065, "tags": {"government": "social_security", "name": "Social Security Administration", "office": "government", "operator": "Social Security Administration", "operator:short": "SSA", "operator:wikidata": "Q2824618"}}, {"type": "node", "id": 11278151801, "lat": 40.7581951, "lon": -73.9281803, "tags": {"addr:city": "Astoria", "addr:housenumber": "34-39", "addr:postcode": "11106", "addr:state": "NY", "addr:street": "31st Street", "amenity": "restaurant", "contact:instagram": "https://www.instagram.com/sottolalunanyc/", "cuisine": "italian", "email": "sottolalunanyc@gmail.com", "name": "Sotto La Luna", "opening_hours": "Mo-Th 16:00-22:00; Fr 12:00-23:00; Sa 12:00-23:00; Su 12:00-22:00", "phone": "+1 631 380 3569", "website": "https://www.sottolalunanyc.com/", "website:menu": "https://www.sottolalunanyc.com/menu"}}, {"type": "node", "id": 11278151804, "lat": 40.7583101, "lon": -73.9281031, "tags": {"addr:city": "Astoria", "addr:housenumber": "34-39", "addr:postcode": "11106", "addr:state": "NY", "addr:street": "31st Street", "amenity": "restaurant", "cuisine": "spanish", "diet:vegan": "yes", "email": "salaastorianyc@gmail.com", "name": "Sala Astoria", "opening_hours": "Mo-Th 15:00-22:00; Fr 15:00-23:00; Sa 12:00-23:00; Su 12:00-21:30", "phone": "+1-929-556-3037", "website": "https://www.salarestaurants.com/", "website:menu": "https://www.salarestaurants.com/menu"}}, {"type": "node", "id": 11481565735, "lat": 40.7565937, "lon": -73.9300873, "tags": {"addr:housenumber": "30-16", "addr:street": "36th Avenue", "amenity": "restaurant", "cuisine": "chinese", "name": "Sun Wah"}}, {"type": "node", "id": 12133056406, "lat": 40.7593073, "lon": -73.9261544, "tags": {"addr:city": "Astoria", "addr:housenumber": "3207", "addr:postcode": "11106", "addr:state": "NY", "addr:street": "34th Avenue", "amenity": "restaurant", "cuisine": "mexican", "email": "mayahuelcorp@gmail.com", "name": "Mayahuel", "opening_hours": "Mo-Fr 16:00-23:00; Sa-Su 11:00-23:00", "phone": "+1-347-639-0409", "website": "https://www.mayahuelastoria.com/", "website:menu": "https://www.mayahuelastoria.com/menus/"}}, {"type": "node", "id": 12133056408, "lat": 40.7585613, "lon": -73.9279023, "tags": {"addr:city": "Astoria", "addr:housenumber": "34-39", "addr:postcode": "11106", "addr:state": "NY", "addr:street": "31st Street", "amenity": "restaurant", "cuisine": "colombian", "name": "Arepa Lady Astoria", "website": "https://www.thearepalady.com/location/arepa-lady-astoria/"}}, {"type": "node", "id": 12133056409, "lat": 40.7584495, "lon": -73.9279813, "tags": {"addr:city": "Astoria", "addr:housenumber": "34-39", "addr:postcode": "11106", "addr:state": "NY", "addr:street": "31st Street", "amenity": "bar", "contact:instagram": "https://www.instagram.com/mistereverything_nyc/", "name": "Mister Everything", "opening_hours": "Th 18:00-22:00; Fr-Sa 18:00-23:00"}}, {"type": "node", "id": 12133056410, "lat": 40.7583845, "lon": -73.928045, "tags": {"addr:city": "Astoria", "addr:housenumber": "34-39", "addr:postcode": "11106", "addr:state": "NY", "addr:street": "31st Street", "amenity": "restaurant", "contact:instagram": "https://www.instagram.com/urbanveganroots/", "diet:vegan": "yes", "name": "Urban Vegan Roots", "opening_hours": "Mo-Th 11:00-22:00; Fr 11:00-23:00; Sa 10:00-23:00; Su 10:00-22:00", "phone": "+1 516-490-6895", "website": "https://www.urbanveganroots.com/", "website:menu": "https://www.urbanveganroots.com/menu"}}, {"type": "node", "id": 12133056411, "lat": 40.7581078, "lon": -73.9281495, "tags": {"addr:city": "Astoria", "addr:housenumber": "31-05", "addr:postcode": "11106", "addr:state": "NY", "addr:street": "35th Avenue", "amenity": "cafe", "contact:instagram": "https://www.instagram.com/elevenses_cafe/", "internet_access": "yes", "internet_access:fee": "customers", "name": "Elevenses", "opening_hours": "Tu-Fr 08:00-16:30; Sa-Su 09:00-17:00", "outdoor_seating": "no"}}, {"type": "node", "id": 12947481677, "lat": 40.7561953, "lon": -73.9286279, "tags": {"amenity": "restaurant", "catering": "yes", "cuisine": "sushi", "delivery": "yes", "name": "Sake Kawa", "opening_hours": "Mo-Th 11:00-22:30, Fr-Sa 11:00-23:00, Su 12:00-22:00", "phone": "+1-718-777-0117", "takeaway": "yes", "website": "https://sakekawalic.com"}}, {"type": "node", "id": 13344400974, "lat": 40.75557, "lon": -73.9278846, "tags": {"addr:city": "Long Island City", "addr:housenumber": "33-10", "addr:postcode": "11106", "addr:state": "NY", "addr:street": "36th Avenue", "amenity": "bar", "contact:facebook": "https://www.facebook.com/people/Dive-Bar-Queens/61559335403167/", "description": "Dive Bar LIC is a nautical-themed bar located in Long Island City, NY. We offer a lively atmosphere with Latin energy, featuring frozen drinks, cocktails, and classic dive bar snacks & host a variety of events, including live music, UFC fights.", "name": "Dive Bar LIC", "opening_hours": "Mon To Thu : 5 pm-2 am || Fri : 5 pm-4 am || Sat : 1 pm - 4:00 am || Sun : 1 pm \u2013 2:00 am", "phone": "718-304-8154", "website": "https://www.divebarlic.com/"}}, {"type": "way", "id": 134164229, "nodes": [1475399329, 9673540187, 1475399328, 9673540200, 1475399326, 1475399324, 2297263367, 1475399330, 9673540194, 9673540196, 9673540198, 9673540195, 9673540197, 357579488, 1475399329], "tags": {"ele": "8", "gnis:feature_id": "2351643", "leisure": "park", "name": "Dutch Kills Playground", "name:etymology": "Dutch Kills", "name:etymology:wikidata": "Q2165205", "operator": "New York City Department of Parks and Recreation", "operator:short": "NYC Parks", "operator:type": "public", "operator:wikidata": "Q1894232", "operator:wikipedia": "en:New York City Department of Parks and Recreation", "website": "https://www.nycgovparks.org/parks/dutch-kills-playground/", "wikidata": "Q49484659"}}, {"type": "way", "id": 281342718, "nodes": [2853055368, 2853055329, 2853055063, 2853055303, 2853055307, 2853055323, 2853055331, 2853055368], "tags": {"addr:housenumber": "34-12", "addr:postcode": "11106", "addr:street": "36th Avenue", "amenity": "school", "building": "school", "height": "21.7", "mascot": "String", "mascot:iconography": "Bees", "name": "Baccalaureate School for Global Education", "nycdoitt:bin": "4009499", "wikidata": "Q4838607", "wikipedia": "en:Baccalaureate School for Global Education"}}, {"type": "way", "id": 377995615, "nodes": [3814104412, 3814104411, 3814104413, 3814104414, 3814104412], "tags": {"leisure": "park", "name": "A.R.R.O.W. Community Garden"}}]}