{"version": 0.6, "generator": "Overpass API 0.7.62.8 e802775f", "osm3s": {"timestamp_osm_base": "2025-12-01T04:05:13Z", "copyright": "The data included in this document is from www.openstreetmap.org. The data is made available under ODbL."}, "elements": [{"type": "node", "id": 357551782, "lat": 40.7028209, "lon": -73.9251941}, {"type": "node", "id": 1669166583, "lat": 40.7028595, "lon": -73.9252061}, {"type": "node", "id": 1669166584, "lat": 40.7034716, "lon": -73.9225227}, {"type": "node", "id": 1669166585, "lat": 40.7021122, "lon": -73.9238674}, {"type": "node", "id": 1669166586, "lat": 40.7042382, "lon": -73.9238654}, {"type": "node", "id": 2568669177, "lat": 40.7054103, "lon": -73.9258671, "tags": {"addr:city": "Brooklyn", "addr:housenumber": "4", "addr:postcode": "11237", "addr:state": "NY", "addr:street": "Irving Avenue", "amenity": "bar", "contact:instagram": "https://www.instagram.com/heaven__nyc", "name": "Heaven"}}, {"type": "node", "id": 2568677454, "lat": 40.7052863, "lon": -73.924297, "tags": {"addr:housenumber": "339", "addr:postcode": "11237", "addr:street": "Troutman Street", "amenity": "bar", "cocktails": "yes", "cuisine": "pub", "description": "e-sports bar", "drink:beer": "draught", "drink:liquor": "yes", "drink:wine": "yes", "name": "BrookLAN", "opening_hours": "Mo-Th 17:00-01:00, Fr 17:00-03:00, Sa 14:00-03:00, Su 14:00-01:00", "outdoor_seating": "sidewalk", "theme": "esports", "website": "https://www.brooklan.com"}}, {"type": "node", "id": 2568677473, "lat": 40.7050225, "lon": -73.924656, "tags": {"addr:city": "Brooklyn", "addr:housenumber": "45", "addr:postcode": "11237", "addr:state": "NY", "addr:street": "Irving Avenue", "amenity": "cafe", "cuisine": "coffee_shop;sandwich", "drink:beer": "yes", "drink:coffee": "yes", "drink:espresso": "yes", "drink:wine": "yes", "internet_access": "wlan", "name": "Nook", "opening_hours": "Mo 07:30-22:00; Tu 07:30-23:00; We-Th 07:30-22:00; Fr 07:30-24:00; Sa 08:30-24:00; Su 08:30-18:00", "outdoor_seating": "yes", "phone": "+1-718-734-2880", "website": "https://nookbk.com"}}, {"type": "node", "id": 2568678035, "lat": 40.7055751, "lon": -73.9220857}, {"type": "node", "id": 2568678042, "lat": 40.7056246, "lon": -73.9221728}, {"type": "node", "id": 2568678052, "lat": 40.7056514, "lon": -73.9222198}, {"type": "node", "id": 2568678084, "lat": 40.7057393, "lon": -73.9223742}, {"type": "node", "id": 2568678249, "lat": 40.7061009, "lon": -73.9228538}, {"type": "node", "id": 2568678256, "lat": 40.7061427, "lon": -73.9229278}, {"type": "node", "id": 2568678272, "lat": 40.7062336, "lon": -73.9228382}, {"type": "node", "id": 2568678275, "lat": 40.7062708, "lon": -73.9226855}, {"type": "node", "id": 2568678281, "lat": 40.7063139, "lon": -73.9227591}, {"type": "node", "id": 2568678317, "lat": 40.706593, "lon": -73.9235919}, {"type": "node", "id": 2568678321, "lat": 40.7066252, "lon": -73.9236485}, {"type": "node", "id": 2568678327, "lat": 40.7067451, "lon": -73.9234846}, {"type": "node", "id": 2568678328, "lat": 40.706756, "lon": -73.923361}, {"type": "node", "id": 2568678329, "lat": 40.7067567, "lon": -73.9235026}, {"type": "node", "id": 2568678333, "lat": 40.7067928, "lon": -73.9234183}, {"type": "node", "id": 2568823078, "lat": 40.706715, "lon": -73.9205244, "tags": {"addr:housenumber": "60", "addr:postcode": "11237", "addr:street": "Saint Nicholas Avenue", "amenity": "cafe", "cuisine": "breakfast;sandwich;coffee_shop", "drink:coffee": "yes", "drink:espresso": "yes", "drink:tea": "yes", "internet_access": "wlan", "name": "La Cantine", "opening_hours": "Mo-Su 09:00-17:30", "outdoor_seating": "sidewalk"}}, {"type": "node", "id": 2568823707, "lat": 40.7063817, "lon": -73.9223531}, {"type": "node", "id": 2568823716, "lat": 40.7064206, "lon": -73.9224285}, {"type": "node", "id": 2568823730, "lat": 40.7065182, "lon": -73.9218658}, {"type": "node", "id": 2568823731, "lat": 40.7065193, "lon": -73.9218677}, {"type": "node", "id": 2568823739, "lat": 40.706577, "lon": -73.9221567}, {"type": "node", "id": 2568823740, "lat": 40.7065798, "lon": -73.9218038}, {"type": "node", "id": 2568823742, "lat": 40.7065881, "lon": -73.921818}, {"type": "node", "id": 2568823747, "lat": 40.7066191, "lon": -73.9222289}, {"type": "node", "id": 2568823755, "lat": 40.7066769, "lon": -73.9219705}, {"type": "node", "id": 2568823759, "lat": 40.7066889, "lon": -73.9221587}, {"type": "node", "id": 2568823765, "lat": 40.7067109, "lon": -73.9220288}, {"type": "node", "id": 2568823770, "lat": 40.7067315, "lon": -73.9216486}, {"type": "node", "id": 2568823778, "lat": 40.7067564, "lon": -73.921983}, {"type": "node", "id": 2568823782, "lat": 40.7067866, "lon": -73.9215931}, {"type": "node", "id": 2568823785, "lat": 40.7067947, "lon": -73.9220487}, {"type": "node", "id": 2568823789, "lat": 40.706809, "lon": -73.9217815}, {"type": "node", "id": 2568823801, "lat": 40.706861, "lon": -73.9218709}, {"type": "node", "id": 2568823806, "lat": 40.7068792, "lon": -73.9217521}, {"type": "node", "id": 2568823815, "lat": 40.7069161, "lon": -73.9218155}, {"type": "node", "id": 2568823959, "lat": 40.7072971, "lon": -73.9224373}, {"type": "node", "id": 2568823975, "lat": 40.7074078, "lon": -73.9223234}, {"type": "node", "id": 2568823986, "lat": 40.7075121, "lon": -73.9224984}, {"type": "node", "id": 2568824892, "lat": 40.7083488, "lon": -73.9203645, "tags": {"addr:housenumber": "48", "addr:postcode": "11237", "addr:street": "Cypress Avenue", "amenity": "bar", "contact:instagram": "VACATIONSBK", "cuisine": "burger", "disused:amenity": "bar", "email": "EVENTS@VACATIONSBK.COM", "name": "Vacations Bar & Rooftop", "opening_hours": "Tu-Th 17:00-02:00; Fr 17:00-04:00; Sa 14:00-04:00; Su 14:00-00:00", "operator": "Runaway BK", "phone": "+1-929-614-5409", "website": "https://www.vacationsbk.com/", "website:menu": "https://www.vacationsbk.com/menu"}}, {"type": "node", "id": 2762362706, "lat": 40.7040188, "lon": -73.9233824}, {"type": "node", "id": 2762362709, "lat": 40.7036803, "lon": -73.9227873}, {"type": "node", "id": 2839722924, "lat": 40.7089004, "lon": -73.9226274}, {"type": "node", "id": 2839722932, "lat": 40.7089754, "lon": -73.9225293}, {"type": "node", "id": 2839722934, "lat": 40.7089828, "lon": -73.9227496}, {"type": "node", "id": 2839722935, "lat": 40.7089855, "lon": -73.9225441}, {"type": "node", "id": 2839722939, "lat": 40.7090127, "lon": -73.9225568}, {"type": "node", "id": 3182075611, "lat": 40.7073487, "lon": -73.9223842}, {"type": "node", "id": 3182075612, "lat": 40.7074532, "lon": -73.922559}, {"type": "node", "id": 3182081163, "lat": 40.7074003, "lon": -73.9226153}, {"type": "node", "id": 4305837196, "lat": 40.7050765, "lon": -73.9201938, "tags": {"addr:housenumber": "91", "addr:street": "Wyckoff Avenue", "amenity": "restaurant", "cuisine": "mexican", "diet:vegan": "yes", "diet:vegetarian": "yes", "name": "Mesa Azteca", "opening_hours": "Mo-Su 11:00-22:30", "phone": "+1-347-378-2838", "takeaway": "yes", "website": "https://www.mesaaztecany.com/"}}, {"type": "node", "id": 4837696323, "lat": 40.7060306, "lon": -73.9236202, "tags": {"addr:city": "Brooklyn", "addr:housenumber": "381", "addr:postcode": "11237", "addr:street": "Troutman Street", "amenity": "bar", "craft": "brewery", "drink:beer": "draught", "drink:liquor": "no", "drink:wine": "no", "email": "info@kcbcbeer.com", "internet_access": "wlan", "internet_access:ssid": "KCBC Guest", "name": "Kings County Brewers Collective", "opening_hours": "Mo-Th 17:00-23:00; Fr 17:00-24:00; Sa 12:00-24:00; Su 12:00-21:00", "phone": "+1-929-234-6557", "takeaway": "yes", "toilets": "yes", "toilets:access": "permissive", "toilets:unisex": "yes", "toilets:wheelchair": "yes", "website": "https://kcbcbeer.com/", "wheelchair": "yes"}}, {"type": "node", "id": 5149564376, "lat": 40.7084829, "lon": -73.9218793, "tags": {"addr:city": "Brooklyn", "addr:housenumber": "476", "addr:postcode": "11237", "addr:state": "NY", "addr:street": "Jefferson Street", "name": "Metropolis Moving", "office": "company", "opening_hours": "Mo-Su 09:00-18:00", "phone": "+1-718-710-4520", "website": "https://metropolismoving.com/"}}, {"type": "node", "id": 5163881289, "lat": 40.7046454, "lon": -73.924545, "tags": {"addr:housenumber": "44", "addr:street": "Irving Avenue", "amenity": "restaurant", "cocktails": "yes", "cuisine": "venezuelan;arepa", "delivery": "yes", "diet:vegetarian": "yes", "drink:beer": "yes", "drink:wine": "yes", "name": "Arepera Guacuco", "opening_hours": "Mo-Th 11:45-22:30; Fr 11:45-23:30; Sa 10:45-23:30; Su 10:45-22:15", "payment:cash": "yes", "payment:credit_cards": "yes", "phone": "+1-347-305-3300", "reservation": "yes", "takeaway": "yes", "toilets": "yes", "toilets:access": "customers", "website": "https://www.guacuconyc.com/", "wheelchair": "yes"}}, {"type": "node", "id": 5178499860, "lat": 40.7061395, "lon": -73.9224225, "tags": {"addr:city": "Brooklyn", "addr:housenumber": "30", "addr:postcode": "11237", "addr:state": "NY", "addr:street": "Wyckoff Avenue", "amenity": "cafe", "check_date": "2025-04-10", "cuisine": "coffee_shop", "diet:vegan": "yes", "internet_access": "wlan", "internet_access:fee": "no", "name": "Wyckoff Starr", "opening_hours": "Mo-Fr 07:00-18:00; Sa,Su 08:00-18:00", "payment:cash": "yes", "payment:credit_cards": "yes", "phone": "+1-718-484-9766", "takeaway": "yes", "website": "https://wyckoffstarrcoffeeshop.business.site/"}}, {"type": "node", "id": 5348290122, "lat": 40.7081836, "lon": -73.9196099, "tags": {"addr:city": "Ridgewood", "addr:housenumber": "205", "addr:postcode": "11385", "addr:street": "Cypress Avenue", "amenity": "bar", "atm": "yes", "cocktails": "yes", "contact:facebook": "https://www.facebook.com/thekeepny", "drink:beer": "yes", "drink:wine": "yes", "happy_hours": "yes", "name": "The Keep", "opening_hours": "Sa, Su 12:00-28:00; Mo-Fr 16:00-28:00", "organic": "yes", "outdoor_seating": "backyard", "payment:cash": "only", "phone": "+1-718-381-0400", "toilets:unisex": "yes", "toilets:wheelchair": "yes", "website": "https://www.thekeepny.com/", "wheelchair": "limited"}}, {"type": "node", "id": 5363844200, "lat": 40.7055273, "lon": -73.9225462, "tags": {"addr:city": "Brooklyn", "addr:housenumber": "234", "addr:postcode": "11237", "addr:street": "Starr Street", "addr:unit": "#3", "amenity": "pub", "check_date": "2025-04-10", "cocktails": "yes", "cuisine": "mexican", "drink:beer": "draught", "drink:liquor": "yes", "drink:wine": "yes", "name": "Calabrije's Margaritas & Tacos", "opening_hours": "Mo, Su 17:00-23:00; Tu-Th 17:00-24:00; Fr, Sa 17:00-25:00", "payment:cash": "yes", "payment:credit_cards": "yes", "phone": "+1-718-484-2110", "toilets": "yes", "website": "https://www.calabrijesnyc.com/"}}, {"type": "node", "id": 5423479085, "lat": 40.7054658, "lon": -73.922194}, {"type": "node", "id": 5423479097, "lat": 40.70563, "lon": -73.9224825}, {"type": "node", "id": 5423479098, "lat": 40.7067757, "lon": -73.9201704}, {"type": "node", "id": 5423479099, "lat": 40.7068632, "lon": -73.9191324}, {"type": "node", "id": 5423479101, "lat": 40.7072159, "lon": -73.9197265}, {"type": "node", "id": 5423479105, "lat": 40.7064179, "lon": -73.9195776}, {"type": "node", "id": 5550525387, "lat": 40.7050054, "lon": -73.9230385, "tags": {"addr:housenumber": "214", "addr:street": "Starr Street", "amenity": "bar", "brewery": "various", "check_date": "2025-04-10", "cocktails": "yes", "contact:facebook": "https://www.facebook.com/StarrBarBK", "contact:instagram": "https://www.instagram.com/StarrBarBK", "contact:twitter": "https://twitter.com/StarrBarBK", "cuisine": "burger;mexican;wrap", "description": "Nightlife venue in Bushwick, Brooklyn that celebrates and supports movements for social justice.", "diet:gluten_free": "yes", "diet:vegan": "yes", "drink:wine": "yes", "happy_hours": "Su-Mo 17:00-19:00", "internet_access": "wlan", "internet_access:ssid": "StarrBar Guest", "leisure": "dance", "name": "Starr Bar", "opening_hours": "Mo-We, Su 17:00-26:00; Th-Sa 17:00-28:00", "opening_hours:kitchen": "Su-Mo 18:00-23:00", "payment:cash": "yes", "payment:credit_cards": "yes", "payment:credit_cards:min_payment": "10", "payment:debit_cards": "yes", "phone": "+1-718-821-1100", "sport": "billiards", "toilets": "yes", "toilets:unisex": "yes", "toilets:wheelchair": "yes", "website": "https://starrbar.com/", "wheelchair": "no"}}, {"type": "node", "id": 5623442598, "lat": 40.7058302, "lon": -73.9237933, "tags": {"addr:housenumber": "369", "addr:street": "Troutman Street", "amenity": "bar", "indoor_seating": "yes", "name": "The Johnson's", "opening_hours": "Mo-Su 14:00-04:00", "outdoor_seating": "yes", "payment:cash": "yes", "payment:credit_cards": "yes", "phone": "+1-718-417-7100", "sport": "billiards", "toilets": "yes", "wheelchair": "yes"}}, {"type": "node", "id": 5624790243, "lat": 40.7055984, "lon": -73.9224758, "tags": {"addr:city": "Brooklyn", "addr:housenumber": "234", "addr:postcode": "11237", "addr:state": "NY", "addr:street": "Starr Street", "alt_name": "Craft Beer Bar", "amenity": "bar", "brewery": "various", "name": "The Sampler Bushwick", "opening_hours": "Mo-We, Su 12:00-24:00; Th-Sa 12:00-26:00", "payment:cash": "yes", "payment:credit_cards": "yes", "phone": "+1-718-552-2330", "toilets": "yes", "website": "https://thesamplerbk.com/", "wheelchair": "yes"}}, {"type": "node", "id": 5625446393, "lat": 40.7067737, "lon": -73.9228508, "tags": {"addr:housenumber": "19", "addr:street": "Wyckoff Avenue", "amenity": "restaurant", "cuisine": "seafood", "name": "Sea Wolf", "opening_hours": "Mo-Th, Su 11:00-23:00; Fr, Sa 11:00-24:00", "payment:cash": "yes", "payment:credit_cards": "yes", "phone": "+1-718-366-3272", "reservation": "yes", "takeaway": "yes", "website": "https://seawolfbk.com/", "wheelchair": "yes"}}, {"type": "node", "id": 5625450294, "lat": 40.7070059, "lon": -73.9226871, "tags": {"addr:housenumber": "411", "addr:street": "Troutman Street", "alt_name": "Lot 45", "amenity": "bar", "brewery": "various", "happy_hours": "Tu-Fr 19:00-20:00", "name": "Lot 45 Bushwick", "opening_hours": "Tu-Th 19:00-02:00; Fr-Sa 21:45-04:00; Su 19:00-22:00", "outdoor_seating": "yes", "payment:cash": "yes", "payment:credit_cards": "yes", "payment:debit_cards": "yes", "phone": "+1-347-505-9155", "toilets": "yes", "toilets:wheelchair": "yes", "wheelchair": "yes"}}, {"type": "node", "id": 5625462945, "lat": 40.7068582, "lon": -73.9223165, "tags": {"addr:housenumber": "420", "addr:street": "Troutman Street", "amenity": "cafe", "internet_access": "wlan", "name": "AP Cafe", "opening_hours": "Mo-Fr 08:00-18:00; Sa, Su 08:30-19:00", "payment:cash": "yes", "payment:credit_cards": "yes", "phone": "+1-347-404-6147", "takeaway": "yes", "website": "https://apcafenyc.com/", "wheelchair": "yes"}}, {"type": "node", "id": 5625467798, "lat": 40.7074513, "lon": -73.9217751, "tags": {"amenity": "bar", "drink:beer": "draught", "drink:liquor": "yes", "drink:wine": "yes", "happy_hours": "Mo-Fr 17:00-19:00", "name": "Little Beaver", "opening_hours": "Mo-Th 17:00-02:00; Fr-Sa 14:00-03:00+; Su 17:00-02:00", "outdoor_seating": "patio;street", "payment:cash": "yes", "payment:credit_cards": "yes", "payment:debit_cards": "yes", "phone": "+1-347-305-3344", "website": "https://littlebeaverbk.com"}}, {"type": "node", "id": 5625524072, "lat": 40.7079507, "lon": -73.9216704, "tags": {"addr:housenumber": "445", "addr:street": "Troutman Street", "amenity": "pub", "name": "Echo Bravo Bar", "opening_hours": "Fr, Sa 12:00-28:00; Mo, Su 12:00-24:00; Tu-Th 12:00-26:00", "outdoor_seating": "yes", "payment:cash": "yes", "payment:credit_cards": "yes", "payment:debit_cards": "yes", "phone": "+1-347-542-4117", "reservation": "yes", "sport": "yes", "toilets": "yes", "toilets:wheelchair": "yes", "website": "https://www.echobravobar.com/", "wheelchair": "yes"}}, {"type": "node", "id": 5625524341, "lat": 40.7071565, "lon": -73.9212797, "tags": {"addr:housenumber": "40", "addr:postcode": "11237", "addr:street": "Saint Nicholas Avenue", "amenity": "bar", "cocktails": "yes", "drink:beer": "draught", "drink:kombucha": "draught", "drink:liquor": "yes", "drink:wine": "yes", "happy_hours": "Su-Th 00:00-04:00", "name": "Pearl's Social & Billy Club", "opening_hours": "Mo-Fr 14:00-04:00", "outdoor_seating": "sidewalk", "payment:cash": "yes", "payment:credit_cards": "yes", "payment:debit_cards": "yes", "phone": "+1-347-627-9985", "toilets": "yes", "website": "https://pearlssocial.com/", "wheelchair": "yes"}}, {"type": "node", "id": 5625533849, "lat": 40.7057323, "lon": -73.9217649, "tags": {"addr:housenumber": "46", "addr:postcode": "11237", "addr:street": "Wyckoff Avenue", "amenity": "restaurant", "check_date": "2025-04-10", "cuisine": "indian", "delivery": "yes", "diet:vegetarian": "yes", "name": "Desi Grill", "opening_hours": "Mo-Su 11:00-23:00", "payment:cash": "yes", "payment:credit_cards": "yes", "phone": "+1-718-381-9777", "takeaway": "yes", "website": "http://desigrillindiancuisinebk.com/"}}, {"type": "node", "id": 5625538922, "lat": 40.7056487, "lon": -73.9216186, "tags": {"addr:housenumber": "50", "addr:postcode": "11237", "addr:street": "Wyckoff Avenue", "amenity": "pub", "cocktails": "yes", "cuisine": "cajun", "drink:beer": "draught", "drink:liquor": "yes", "drink:wine": "yes", "email": "heavywoodsbar@gmail.com", "happy_hours": "Mo-Fr 14:00-19:00", "name": "Heavy Woods", "opening_hours": "Mo-Su 11:00-04:00", "opening_hours:kitchen": "Su-Th 11:00-23:00; Fr-Sa 11:00-24:00", "outdoor_seating": "sidewalk", "payment:cash": "yes", "payment:credit_cards": "yes", "phone": "+1-929-234-3500", "sport": "billiards", "takeaway": "yes", "toilets": "yes", "toilets:unisex": "yes", "website": "https://www.heavywoodsbar.com/", "wheelchair": "yes"}}, {"type": "node", "id": 5626983263, "lat": 40.7051123, "lon": -73.9202649, "tags": {"addr:housenumber": "89", "addr:street": "Wyckoff Avenue", "amenity": "bar", "brewery": "various", "email": "lefthandpathbk@gmail.com", "internet_access": "wlan", "internet_access:fee": "no", "name": "Left Hand Path", "opening_hours": "Mo-Th 17:00-28:00; Fr 16:00-28:00; Sa, Su 14:00-28:00", "opening_hours:kitchen": "We-Su 17:00-26:00", "outdoor_seating": "yes", "payment:cash": "yes", "payment:credit_cards": "yes", "toilets": "yes", "toilets:access": "permissive", "toilets:unisex": "yes", "toilets:wheelchair": "yes", "website": "https://lefthandpathbk.com/"}}, {"type": "node", "id": 5627234875, "lat": 40.7046057, "lon": -73.9194468, "tags": {"addr:housenumber": "113", "addr:street": "Wyckoff Avenue", "name": "Koko Cargo Express", "office": "company", "phone": "+1-718-416-3267"}}, {"type": "node", "id": 5640436022, "lat": 40.7085819, "lon": -73.9211012, "tags": {"addr:housenumber": "467", "addr:street": "Troutman Street", "email": "volk.meg@gmail.com", "name": "Meg Volk, Talent Scout", "office": "company", "phone": "+1-515-289-6178", "website": "https://megvolk.com/"}}, {"type": "node", "id": 5679657868, "lat": 40.7074483, "lon": -73.9229012, "tags": {"addr:housenumber": "436", "addr:street": "Jefferson Street", "amenity": "restaurant", "cocktails": "yes", "cuisine": "italian", "diet:vegetarian": "yes", "drink:beer": "yes", "drink:coffee": "served", "drink:liquor": "yes", "drink:wine": "yes", "email": "info@farobk.com", "name": "Faro", "opening_hours": "Mo-Sa 18:00-23:00; Su 17:00-22:00", "organic": "yes", "payment:cash": "yes", "payment:debit_cards": "yes", "phone": "+1-718-381-8201", "reservation": "recommended", "website": "https://farobk.com/"}}, {"type": "node", "id": 5697641883, "lat": 40.7042927, "lon": -73.9194903, "tags": {"addr:city": "Brooklyn", "addr:housenumber": "96", "addr:postcode": "11237", "addr:state": "NY", "addr:street": "Wyckoff Avenue", "amenity": "restaurant", "cuisine": "dominican", "delivery": "yes", "drink:coffee": "served", "name": "Sazon Nu\u00f1ez", "opening_hours": "Mo-Su 10:30-21:30", "phone": "+1-347-750-7894", "takeaway": "yes"}}, {"type": "node", "id": 5732816122, "lat": 40.707838, "lon": -73.92256, "tags": {"addr:city": "Brooklyn", "addr:housenumber": "2", "addr:postcode": "11237", "addr:state": "NY", "addr:street": "Saint Nicholas Avenue", "addr:unit": "45;49", "email": "messages@nycreativetherapists.com", "healthcare": "psychotherapist", "name": "New York Art Therapists", "office": "therapist", "phone": "+1-917-293-4642", "website": "https://nycreativetherapists.com/"}}, {"type": "node", "id": 5937855588, "lat": 40.7049815, "lon": -73.9234111, "tags": {"addr:city": "Brooklyn", "addr:housenumber": "207", "addr:state": "NY", "addr:street": "Starr Street", "amenity": "cafe", "contact:instagram": "@pitangabk", "cuisine": "health_food;sandwich;juice", "drink:coffee": "yes", "drink:espresso": "yes", "name": "Pitanga", "opening_hours": "Mo-Su 09:00-16:00", "phone": "+1-718-456-1048", "website": "https://www.pitangabk.com/"}}, {"type": "node", "id": 5937855590, "lat": 40.7051296, "lon": -73.9232653, "tags": {"addr:housenumber": "207", "addr:street": "Starr Street", "addr:unit": "C", "check_date": "2025-04-10", "name": "Donny & Saul Security", "office": "company", "phone": "+1-347-686-1112"}}, {"type": "node", "id": 6558575360, "lat": 40.7068038, "lon": -73.9229328, "tags": {"addr:city": "Brooklyn", "addr:housenumber": "17", "addr:postcode": "11237", "addr:state": "NY", "addr:street": "Wyckoff Avenue", "amenity": "restaurant", "bar": "yes", "diet:vegan": "yes", "diet:vegetarian": "yes", "drink:beer": "yes", "drink:liquor": "yes", "drink:wine": "yes", "name": "The Gradient", "opening_hours": "Su 11:00-24:00; Mo-Th 12:00-26:00; Fr 12:00-28:00; Sa 11:00-28:00", "phone": "+1-804-370-4945", "toilets:wheelchair": "yes", "website": "https://thegradientbk.com", "wheelchair": "yes"}}, {"type": "node", "id": 6872279129, "lat": 40.7058096, "lon": -73.9219002, "tags": {"amenity": "cafe", "check_date": "2025-04-10", "cuisine": "breakfast;sandwich", "drink:coffee": "yes", "drink:espresso": "yes", "name": "Hala Coffee & Kitchen", "phone": "+1-718-821-1850", "toilets": "yes", "toilets:access": "customers"}}, {"type": "node", "id": 6872279133, "lat": 40.7058618, "lon": -73.9219914, "tags": {"addr:city": "Brooklyn", "addr:housenumber": "40", "addr:postcode": "11237", "addr:state": "NY", "addr:street": "Wyckoff Avenue", "amenity": "cafe", "check_date": "2025-04-10", "cuisine": "bagel;breakfast;sandwich", "delivery": "yes", "drink:coffee": "yes", "drink:tea": "yes", "name": "The Bad Bagel", "opening_hours": "Mo-Su 08:00-18:00", "phone": "+1-929-324-3130", "toilets": "no", "website": "https://thebadbagel.com"}}, {"type": "node", "id": 6879539642, "lat": 40.7056695, "lon": -73.9224054, "tags": {"amenity": "bar", "level": "1", "name": "Kismet Garden", "opening_hours": "Mo- Su 17:30-23:00+ \"weather permitting\"", "operator": "The Turk's Inn", "outdoor_seating": "only"}}, {"type": "node", "id": 6939545877, "lat": 40.7035412, "lon": -73.9225428}, {"type": "node", "id": 6939545878, "lat": 40.7021128, "lon": -73.9239416}, {"type": "node", "id": 6939557887, "lat": 40.7042398, "lon": -73.9237924}, {"type": "node", "id": 7536644762, "lat": 40.7059819, "lon": -73.9214907, "tags": {"addr:city": "Brooklyn", "addr:housenumber": "49", "addr:postcode": "11237", "addr:state": "NY", "addr:street": "Wyckoff Avenue", "addr:unit": "Brooklyn Desks coworking", "description": "Cetera Labs offers eCommerce development and support services worldwide", "name": "Cetera Labs", "office": "company", "opening_hours": "24/7", "phone": "+1-347-620-0902", "website": "https://ceteralabs.com/"}}, {"type": "node", "id": 9595950536, "lat": 40.707848, "lon": -73.920557, "tags": {"addr:housenumber": "321", "addr:postcode": "11237", "addr:street": "Starr Street", "amenity": "restaurant", "catering": "yes", "cocktails": "yes", "cuisine": "thai", "delivery": "yes", "name": "Tong", "opening_hours": "Mo-Th 12:00-15:00,17:00-22:00; Fr-Sa 12:00-15:00,17:00-22:30; Su 12:00-15:00,17:00-22:00", "phone": "+1-718-366-0586", "takeaway": "yes", "website": "https://www.tongbrooklyn.com"}}, {"type": "node", "id": 9595950537, "lat": 40.7079761, "lon": -73.9204264, "tags": {"addr:housenumber": "321", "addr:postcode": "11237", "addr:street": "Starr Street", "amenity": "restaurant", "cuisine": "ramen", "drink:beer": "yes", "drink:sake": "yes", "name": "Za-Ya", "opening_hours": "Tu-Sa 17:00-21:00", "phone": "+1-929-460-5929", "website": "https://www.za-ya.com"}}, {"type": "node", "id": 9595950539, "lat": 40.7081895, "lon": -73.9202089, "tags": {"addr:housenumber": "321", "addr:postcode": "11237", "addr:street": "Starr Street", "amenity": "cafe", "cuisine": "texan;breakfast", "drink:coffee": "yes", "name": "Kings Kolache", "opening_hours": "Tu-Su 08:00-15:00", "takeaway": "only", "website": "https://www.kingskolache.com"}}, {"type": "node", "id": 9668112183, "lat": 40.7059366, "lon": -73.9236866, "tags": {"addr:city": "Brooklyn", "addr:housenumber": "379", "addr:postcode": "11237", "addr:state": "NY", "addr:street": "Troutman Street", "addr:unit": "Space B", "amenity": "pub", "brewery": "no", "drink:beer": "no", "drink:sake": "yes", "microbrewery": "yes", "name": "Kato Sake Works", "opening_hours": "Tu-Fr 17:00-23:00; Sa 13:00-23:00; Su 13:00-22:00", "website": "https://www.katosakeworks.com/"}}, {"type": "node", "id": 10032204061, "lat": 40.7059175, "lon": -73.9239412, "tags": {"addr:housenumber": "369", "addr:street": "Troutman Street", "amenity": "restaurant", "cuisine": "burger", "delivery": "yes", "indoor_seating": "yes", "name": "Strange Flavor Burger Shack", "outdoor_seating": "yes", "phone": "+1-347-687-9471", "takeaway": "yes", "toilets": "yes", "toilets:wheelchair": "yes", "website": "https://www.strangeflavor.me/", "wheelchair": "yes"}}, {"type": "node", "id": 11074193405, "lat": 40.7060935, "lon": -73.9223428, "tags": {"amenity": "restaurant", "cuisine": "mediterranean", "name": "Queen"}}, {"type": "node", "id": 11334987760, "lat": 40.7059005, "lon": -73.9220539, "tags": {"addr:housenumber": "36", "addr:street": "Wyckoff Street", "amenity": "bar", "name": "Carousel", "sport": "billiards", "toilets": "yes", "toilets:unisex": "yes"}}, {"type": "node", "id": 12269398149, "lat": 40.7062229, "lon": -73.9212463, "tags": {"addr:city": "Brooklyn", "addr:housenumber": "1329", "addr:postcode": "11237", "addr:state": "NY", "addr:street": "Willoughby Avenue", "amenity": "bar", "contact:instagram": "selva_nyc", "name": "Selva"}}, {"type": "node", "id": 12269406401, "lat": 40.7061778, "lon": -73.9211621, "tags": {"addr:city": "Brooklyn", "addr:housenumber": "1329", "addr:postcode": "11237", "addr:state": "NY", "addr:street": "Willoughby Avenue", "amenity": "cafe", "contact:instagram": "thebunker_bk", "cuisine": "coffee_shop", "name": "Bunker Bk Cafe", "opening_hours": "08:00-17:00"}}, {"type": "node", "id": 12533953501, "lat": 40.7061629, "lon": -73.9210971, "tags": {"amenity": "restaurant", "name": "The Monkey King"}}, {"type": "node", "id": 12533959601, "lat": 40.7082603, "lon": -73.9233998, "tags": {"addr:housenumber": "1241", "addr:street": "Flushing Avenue", "amenity": "bar", "name": "The Red Pavilion"}}, {"type": "node", "id": 12623522121, "lat": 40.7063118, "lon": -73.9210831, "tags": {"addr:city": "Brooklyn", "addr:housenumber": "1329", "addr:postcode": "11237", "addr:state": "NY", "addr:street": "Willoughby Avenue", "addr:unit": "211", "amenity": "bar", "name": "Ra-Ra Rhino"}}, {"type": "node", "id": 13059688101, "lat": 40.7081541, "lon": -73.9241243, "tags": {"addr:housenumber": "33", "addr:postcode": "11237", "addr:street": "Gardner Avenue", "name": "Four Seasons", "office": "company", "phone": "+1-718-386-7800"}}, {"type": "node", "id": 13059688104, "lat": 40.7078051, "lon": -73.9240306, "tags": {"addr:housenumber": "220", "addr:postcode": "11237", "addr:street": "Ingraham Street", "name": "Soulong Sogok Inc.", "office": "company", "phone": "+1-718-417-9888"}}, {"type": "node", "id": 13059688107, "lat": 40.7081643, "lon": -73.9245092, "tags": {"addr:housenumber": "220", "addr:postcode": "11237", "addr:street": "Ingraham Street", "name": "Skysunco", "office": "company", "phone": "+1-718-808-5551", "website": "https://skysunco.com"}}, {"type": "way", "id": 154374795, "nodes": [1669166586, 6939557887, 2762362706, 2762362709, 6939545877, 1669166584, 1669166585, 6939545878, 357551782, 1669166583, 1669166586], "tags": {"ele": "12", "gnis:feature_id": "945331", "leisure": "park", "name": "Maria Hernandez Park", "old_name": "Bushwick Park", "operator": "New York City Department of Parks and Recreation", "operator:short": "NYC Parks", "operator:type": "public", "operator:wikidata": "Q1894232", "website": "https://www.nycgovparks.org/parks/maria-hernandez-park", "wikidata": "Q6761260"}}, {"type": "way", "id": 250424668, "nodes": [2568678249, 2568678256, 2568678272, 2568678281, 2568678275, 2568678249], "tags": {"addr:housenumber": "22", "addr:postcode": "11237", "addr:street": "Wyckoff Avenue", "amenity": "restaurant", "building": "yes", "cuisine": "japanese;thai;vietnamese", "height": "6.8", "name": "Dock Asian Eatery", "nycdoitt:bin": "3331363", "outdoor_seating": "patio"}}, {"type": "way", "id": 250424743, "nodes": [2568678317, 2568678321, 2568678329, 2568678327, 2568678333, 2568678328, 2568678317], "tags": {"addr:housenumber": "6", "addr:postcode": "11237", "addr:street": "Wyckoff Avenue", "amenity": "bar", "atm": "yes", "building": "yes", "cuisine": "coffee_shop", "drink:beer": "draught", "drink:cocktail": "yes", "drink:coffee": "yes", "drink:liquor": "yes", "drink:tea": "yes", "drink:wine": "yes", "height": "3.6", "name": "Cobra Club", "nycdoitt:bin": "3072396", "opening_hours": "Mo-Fr 07:00-23:00+; Sa-Su 08:00-23:00+", "phone": "+1-917-719-1138", "sport": "billiards;yoga", "toilets": "yes", "toilets:unisex": "yes", "website": "https://www.cobraclubbk.com/"}}, {"type": "way", "id": 250440701, "nodes": [2568823765, 2568823755, 2568823742, 2568823740, 2568823730, 2568823731, 2568823759, 2568823785, 2568823778, 2568823765], "tags": {"addr:city": "Brooklyn", "addr:housenumber": "271", "addr:postcode": "11237", "addr:street": "Starr Street", "amenity": "restaurant", "building": "yes", "cuisine": "mexican", "height": "3.9", "name": "Tortilleria Mexicana Tres Hermanos", "nycdoitt:bin": "3072627", "opening_hours": "Mo-Sa 09:00-23:30; Su 12:00-23:30", "outdoor_seating": "yes", "payment:cash": "only", "phone": "+1-718-456-3422", "toilets": "yes", "toilets:access": "permissive", "toilets:unisex": "yes", "wheelchair": "yes"}}, {"type": "way", "id": 250440714, "nodes": [2568823707, 2568823716, 2568823747, 2568823739, 2568823707], "tags": {"addr:housenumber": "31", "addr:postcode": "11237", "addr:street": "Wyckoff Avenue", "amenity": "cafe", "building": "yes", "cuisine": "breakfast;health_food", "drink:coffee": "yes", "drink:juice": "yes", "drink:kombucha": "yes", "height": "3.8", "name": "Good Morning Brooklyn", "nycdoitt:bin": "3072613", "opening_hours": "Mo-Fr 07:00-22:00; Sa-Su 08:00-22:00"}}, {"type": "way", "id": 250440828, "nodes": [2568823782, 2568823770, 2568823789, 2568823801, 2568823815, 2568823806, 2568823782], "tags": {"addr:city": "Brooklyn", "addr:housenumber": "279", "addr:postcode": "11237", "addr:state": "NY", "addr:street": "Starr Street", "building": "yes", "height": "5.4", "nycdoitt:bin": "3400643", "office": "coworking"}}, {"type": "way", "id": 279780191, "nodes": [2839722924, 2839722934, 2839722939, 2839722935, 2839722932, 2839722924], "tags": {"addr:housenumber": "1267", "addr:postcode": "11237", "addr:street": "Flushing Avenue", "building": "yes", "height": "5.6", "name": "Sanfu Trading", "nycdoitt:bin": "3325654", "office": "company", "phone": "+1-718-386-3575"}}, {"type": "way", "id": 312354284, "nodes": [3182075611, 3182075612, 2568823986, 2568823975, 3182075611], "tags": {"addr:city": "Brooklyn", "addr:housenumber": "425", "addr:postcode": "11237", "addr:state": "NY", "addr:street": "Troutman Street", "amenity": "bar", "building": "yes", "name": "The Rookery"}}, {"type": "way", "id": 312354296, "nodes": [2568823959, 3182081163, 3182075612, 3182075611, 2568823959], "tags": {"addr:city": "Brooklyn", "addr:housenumber": "423", "addr:postcode": "11237", "addr:state": "NY", "addr:street": "Troutman Street", "amenity": "restaurant", "building": "yes", "cuisine": "pizza;italian", "drink:beer": "draught", "drink:liquor": "yes", "drink:wine": "yes", "name": "Union Pizza Works", "opening_hours": "Mo-Th 12:00-22:00; Fr-Sa 12:00-23:00; Su 12:00-22:00", "phone": "+1-718-628-1927", "website": "https://www.unionpizzaworks.com"}}, {"type": "way", "id": 562591843, "nodes": [5423479097, 5423479085, 2568678035, 2568678042, 2568678052, 2568678084, 5423479097], "tags": {"addr:housenumber": "234", "addr:postcode": "11237", "addr:street": "Starr Street", "amenity": "restaurant", "bar": "yes", "cocktails": "yes", "cuisine": "middle_eastern", "drink:beer": "draught", "drink:liquor": "yes", "drink:wine": "yes", "level": "0", "name": "The Turk's Inn", "opening_hours": "Mo-Th 17:30-22:00; Fr-Sa 17:30-23:00; Su 17:30-22:00", "toilets": "yes", "toilets:unisex": "yes"}}, {"type": "way", "id": 562591854, "nodes": [5423479101, 5423479099, 5423479105, 5423479098, 5423479101], "tags": {"amenity": "school", "name": "J.H.S. 162 The Willoughby"}}]}