{"version": 0.6, "generator": "Overpass API 0.7.62.8 e802775f", "osm3s": {"timestamp_osm_base": "2025-12-01T03:59:56Z", "copyright": "The data included in this document is from www.openstreetmap.org. The data is made available under ODbL."}, "elements": [{"type": "node", "id": 357620039, "lat": 40.7061399, "lon": -73.9594877, "tags": {"addr:housenumber": "188", "addr:postcode": "11211", "addr:street": "Ross Street", "amenity": "school", "ele": "16", "gnis:feature_id": "2082421", "name": "Yeshiva Tzemach Tzadik Viznitz"}}, {"type": "node", "id": 1907726298, "lat": 40.7103349, "lon": -73.9604497}, {"type": "node", "id": 1907726301, "lat": 40.7103715, "lon": -73.9605702}, {"type": "node", "id": 1907726302, "lat": 40.710398, "lon": -73.9606571}, {"type": "node", "id": 1979669273, "lat": 40.7107181, "lon": -73.9582427, "tags": {"amenity": "restaurant", "name": "Kabob Shack"}}, {"type": "node", "id": 2173382362, "lat": 40.7062039, "lon": -73.9614006}, {"type": "node", "id": 2173382386, "lat": 40.7064692, "lon": -73.9609527}, {"type": "node", "id": 2173382391, "lat": 40.7060076, "lon": -73.962611}, {"type": "node", "id": 2173382397, "lat": 40.7058424, "lon": -73.9624319}, {"type": "node", "id": 2173382438, "lat": 40.7063721, "lon": -73.9615824}, {"type": "node", "id": 2173382444, "lat": 40.7058414, "lon": -73.9623944}, {"type": "node", "id": 2173382452, "lat": 40.7068215, "lon": -73.9613497}, {"type": "node", "id": 2192631888, "lat": 40.7105361, "lon": -73.9583554, "tags": {"addr:city": "Brooklyn", "addr:country": "US", "addr:housenumber": "188", "addr:postcode": "11211", "addr:state": "NY", "addr:street": "Havermeyer Street", "amenity": "bar", "name": "Amor y Amargo", "opening_hours:covid19": "closed", "website": "https://www.amoryamargo.com/"}}, {"type": "node", "id": 2488562311, "lat": 40.7105323, "lon": -73.958934}, {"type": "node", "id": 2488562317, "lat": 40.710557, "lon": -73.9590019}, {"type": "node", "id": 2488562379, "lat": 40.7106379, "lon": -73.9588677}, {"type": "node", "id": 2488562394, "lat": 40.7106626, "lon": -73.9589357}, {"type": "node", "id": 2838022243, "lat": 40.7072208, "lon": -73.9548366, "tags": {"addr:housenumber": "384", "addr:postcode": "11211", "addr:street": "Broadway", "name": "Javier Nieves", "office": "lawyer", "phone": "+1-718-388-2309"}}, {"type": "node", "id": 2838022244, "lat": 40.7071875, "lon": -73.9547343, "tags": {"addr:housenumber": "386", "addr:postcode": "11211", "addr:street": "Broadway", "name": "Mid-City Brokerage Corp.", "office": "insurance", "phone": "+1-718-384-0300"}}, {"type": "node", "id": 2838022938, "lat": 40.7070549, "lon": -73.9546409}, {"type": "node", "id": 2838022959, "lat": 40.7071428, "lon": -73.9545672}, {"type": "node", "id": 2838102155, "lat": 40.7067842, "lon": -73.9605115, "tags": {"addr:housenumber": "185", "addr:postcode": "11211", "addr:street": "Wilson Street", "amenity": "school", "ele": "15", "gnis:feature_id": "2082189", "name": "Mesivta Nachlas Yacov A Yerim"}}, {"type": "node", "id": 2838336269, "lat": 40.7089856, "lon": -73.9590515, "tags": {"addr:housenumber": "229", "addr:postcode": "11211", "addr:street": "Havemeyer Street", "amenity": "restaurant", "name": "Reben Luncheonette"}}, {"type": "node", "id": 2999521365, "lat": 40.7103049, "lon": -73.9601133}, {"type": "node", "id": 2999521366, "lat": 40.7103154, "lon": -73.9603889}, {"type": "node", "id": 2999521367, "lat": 40.7103212, "lon": -73.9598118}, {"type": "node", "id": 2999521368, "lat": 40.7103512, "lon": -73.9602868}, {"type": "node", "id": 2999521369, "lat": 40.7103536, "lon": -73.9595103}, {"type": "node", "id": 2999521370, "lat": 40.7103979, "lon": -73.9592982}, {"type": "node", "id": 2999521371, "lat": 40.71042, "lon": -73.9607234}, {"type": "node", "id": 2999521372, "lat": 40.7104229, "lon": -73.9592223}, {"type": "node", "id": 2999521373, "lat": 40.7104916, "lon": -73.960765}, {"type": "node", "id": 2999521374, "lat": 40.7106795, "lon": -73.959913}, {"type": "node", "id": 2999521375, "lat": 40.7106898, "lon": -73.960116}, {"type": "node", "id": 2999521377, "lat": 40.7107528, "lon": -73.9601577}, {"type": "node", "id": 2999521378, "lat": 40.7108412, "lon": -73.9605495}, {"type": "node", "id": 2999521379, "lat": 40.7108526, "lon": -73.9605042}, {"type": "node", "id": 2999521380, "lat": 40.7108655, "lon": -73.9604531}, {"type": "node", "id": 3699336818, "lat": 40.7089768, "lon": -73.9574457}, {"type": "node", "id": 3699336819, "lat": 40.7088618, "lon": -73.9571173}, {"type": "node", "id": 3699336820, "lat": 40.7086472, "lon": -73.957248}, {"type": "node", "id": 3699336821, "lat": 40.7087622, "lon": -73.9575764}, {"type": "node", "id": 3699345606, "lat": 40.7098915, "lon": -73.9596811}, {"type": "node", "id": 3699345607, "lat": 40.7096643, "lon": -73.9590214}, {"type": "node", "id": 3699345608, "lat": 40.7101119, "lon": -73.9587656}, {"type": "node", "id": 3699347561, "lat": 40.7104398, "lon": -73.9550781}, {"type": "node", "id": 3699347562, "lat": 40.7104764, "lon": -73.9546865}, {"type": "node", "id": 3699347563, "lat": 40.7102376, "lon": -73.9540087}, {"type": "node", "id": 3699347564, "lat": 40.7096345, "lon": -73.9543785}, {"type": "node", "id": 3699347565, "lat": 40.7099803, "lon": -73.95536}, {"type": "node", "id": 3699348798, "lat": 40.7102857, "lon": -73.9566319}, {"type": "node", "id": 3699348799, "lat": 40.7101866, "lon": -73.9563643}, {"type": "node", "id": 3699348800, "lat": 40.7097056, "lon": -73.9566264}, {"type": "node", "id": 3699348801, "lat": 40.7098135, "lon": -73.9569314}, {"type": "node", "id": 3699348802, "lat": 40.709655, "lon": -73.9570363}, {"type": "node", "id": 3699348803, "lat": 40.7095932, "lon": -73.9568867}, {"type": "node", "id": 3699348804, "lat": 40.7090632, "lon": -73.9572091}, {"type": "node", "id": 3699348805, "lat": 40.7091221, "lon": -73.9573658}, {"type": "node", "id": 3699349017, "lat": 40.7106937, "lon": -73.9553422}, {"type": "node", "id": 3699349018, "lat": 40.7114525, "lon": -73.9548538}, {"type": "node", "id": 3699349019, "lat": 40.7114825, "lon": -73.9547834}, {"type": "node", "id": 3699349020, "lat": 40.7114808, "lon": -73.9546888}, {"type": "node", "id": 3699349021, "lat": 40.7114608, "lon": -73.9546294}, {"type": "node", "id": 3699349022, "lat": 40.7107004, "lon": -73.955142}, {"type": "node", "id": 3699350414, "lat": 40.7101429, "lon": -73.9557781}, {"type": "node", "id": 3699350415, "lat": 40.7103869, "lon": -73.9556348}, {"type": "node", "id": 3699350416, "lat": 40.7104102, "lon": -73.955329}, {"type": "node", "id": 3699350417, "lat": 40.7100611, "lon": -73.955547}, {"type": "node", "id": 3699350418, "lat": 40.7100186, "lon": -73.9559296}, {"type": "node", "id": 3699350419, "lat": 40.7099198, "lon": -73.9556531}, {"type": "node", "id": 3699350420, "lat": 40.709464, "lon": -73.9559364}, {"type": "node", "id": 3699350421, "lat": 40.7095628, "lon": -73.9562129}, {"type": "node", "id": 3699351162, "lat": 40.7093997, "lon": -73.9563599}, {"type": "node", "id": 3699351163, "lat": 40.7092975, "lon": -73.9560593}, {"type": "node", "id": 3699351164, "lat": 40.7087878, "lon": -73.956361}, {"type": "node", "id": 3699351165, "lat": 40.70889, "lon": -73.9566616}, {"type": "node", "id": 3699351166, "lat": 40.7087533, "lon": -73.9567694}, {"type": "node", "id": 3699351167, "lat": 40.708646, "lon": -73.9564531}, {"type": "node", "id": 3699351168, "lat": 40.7084033, "lon": -73.9565965}, {"type": "node", "id": 3699351169, "lat": 40.7084344, "lon": -73.9566881}, {"type": "node", "id": 3699351170, "lat": 40.7081651, "lon": -73.9568472}, {"type": "node", "id": 3699351171, "lat": 40.7082414, "lon": -73.9570718}, {"type": "node", "id": 3699351260, "lat": 40.7078411, "lon": -73.9572394}, {"type": "node", "id": 3699351261, "lat": 40.7077719, "lon": -73.9570177}, {"type": "node", "id": 3699351262, "lat": 40.7075167, "lon": -73.9571646}, {"type": "node", "id": 3699351263, "lat": 40.707271, "lon": -73.9572478}, {"type": "node", "id": 3699351264, "lat": 40.7073354, "lon": -73.9575253}, {"type": "node", "id": 3699351265, "lat": 40.7073154, "lon": -73.958054}, {"type": "node", "id": 3699351266, "lat": 40.7075934, "lon": -73.9578948}, {"type": "node", "id": 3699351267, "lat": 40.7076387, "lon": -73.9582713}, {"type": "node", "id": 3699351268, "lat": 40.7073488, "lon": -73.958332}, {"type": "node", "id": 3743011604, "lat": 40.7108051, "lon": -73.9596013, "tags": {"addr:city": "Brooklyn", "addr:housenumber": "211", "addr:postcode": "11211", "addr:state": "NY", "addr:street": "South 4th Street", "amenity": "community_centre", "name": "El Puente Leaders for Peace and Justice", "office": "association"}}, {"type": "node", "id": 4175181190, "lat": 40.7088559, "lon": -73.9578638, "tags": {"addr:housenumber": "168", "addr:street": "Marcy Avenue", "amenity": "bar", "name": "Duff's", "website": "https://www.timeout.com/newyork/bars/duffs"}}, {"type": "node", "id": 4320078395, "lat": 40.7105003, "lon": -73.9588041, "tags": {"addr:city": "Brooklyn", "addr:housenumber": "231", "addr:postcode": "11211", "addr:state": "NY", "addr:street": "South 4th Street", "amenity": "restaurant", "cuisine": "latin_american", "name": "Cafe el Puente", "phone": "+1 718 388-2416", "takeaway": "yes"}}, {"type": "node", "id": 4900542421, "lat": 40.7075441, "lon": -73.9549967, "tags": {"addr:housenumber": "367A", "addr:postcode": "11211", "addr:street": "Broadway", "amenity": "restaurant", "name": "Mexico 2000"}}, {"type": "node", "id": 6086423444, "lat": 40.7092035, "lon": -73.9558364, "tags": {"addr:housenumber": "310", "addr:postcode": "11211", "addr:street": "South 4th Street", "amenity": "restaurant", "cocktails": "yes", "cuisine": "japanese;jewish", "drink:beer": "served", "drink:wine": "served", "email": "info@shalomjapannyc.com", "fax": "+1 718-387-7920", "name": "Shalom Japan", "opening_hours": "Tu-Th, Su 17:30-22:00; Fr, Sa 17:30-23:00; Sa, Su 11:00-15:00; Th 22:00-24:00", "phone": "+1 718-388-4012", "reservation": "yes", "website": "https://shalomjapannyc.com/"}}, {"type": "node", "id": 9658995859, "lat": 40.7105767, "lon": -73.9580361, "tags": {"addr:city": "Brooklyn", "addr:housenumber": "181", "addr:postcode": "11211", "addr:state": "NY", "addr:street": "Havemeyer Street", "amenity": "restaurant", "cuisine": "coffee_shop", "name": "Northerly Coffee"}}, {"type": "node", "id": 9776829424, "lat": 40.7073161, "lon": -73.9571775}, {"type": "node", "id": 10239540813, "lat": 40.7102454, "lon": -73.9566577}, {"type": "node", "id": 10239540816, "lat": 40.7098574, "lon": -73.9569046}, {"type": "node", "id": 10239540873, "lat": 40.7112447, "lon": -73.9547751}, {"type": "node", "id": 10605121708, "lat": 40.7099562, "lon": -73.9587451}, {"type": "node", "id": 10605121710, "lat": 40.7100532, "lon": -73.9595768}, {"type": "node", "id": 10605121712, "lat": 40.7096971, "lon": -73.9589029}, {"type": "node", "id": 10605121718, "lat": 40.7100419, "lon": -73.9587285}, {"type": "node", "id": 10605121719, "lat": 40.7097142, "lon": -73.9589774}, {"type": "node", "id": 10605121724, "lat": 40.7097635, "lon": -73.959325}, {"type": "node", "id": 10605121727, "lat": 40.7097851, "lon": -73.9588433}, {"type": "node", "id": 11070271728, "lat": 40.7099103, "lon": -73.9568709}, {"type": "node", "id": 11070271729, "lat": 40.7101879, "lon": -73.9566942}, {"type": "node", "id": 11116957334, "lat": 40.710257, "lon": -73.9554247}, {"type": "node", "id": 11869906402, "lat": 40.7069377, "lon": -73.9545805}, {"type": "node", "id": 11869906403, "lat": 40.706913, "lon": -73.9542727}, {"type": "node", "id": 11869906404, "lat": 40.7068787, "lon": -73.9542734}, {"type": "node", "id": 11869906405, "lat": 40.706802, "lon": -73.9544172}, {"type": "node", "id": 12397792687, "lat": 40.7070531, "lon": -73.9546163, "tags": {"entrance": "main"}}, {"type": "node", "id": 12397792688, "lat": 40.7071449, "lon": -73.9545734, "tags": {"entrance": "yes"}}, {"type": "node", "id": 12397792692, "lat": 40.7071117, "lon": -73.9545712}, {"type": "node", "id": 12397792696, "lat": 40.7070767, "lon": -73.9545885}, {"type": "node", "id": 12397792697, "lat": 40.7070512, "lon": -73.9545918}, {"type": "node", "id": 12397792698, "lat": 40.707147, "lon": -73.9545796}, {"type": "node", "id": 12397792699, "lat": 40.7070974, "lon": -73.9545859}, {"type": "node", "id": 12397792700, "lat": 40.7070758, "lon": -73.9545758}, {"type": "node", "id": 12397858001, "lat": 40.707101, "lon": -73.954635}, {"type": "node", "id": 12662714201, "lat": 40.7073383, "lon": -73.9609982, "tags": {"addr:housenumber": "73", "addr:postcode": "11211", "addr:street": "Lee Avenue", "amenity": "cafe", "contact:facebook": "williamsburg.bagel", "contact:instagram": "williamsburg_bagel", "cuisine": "bagel", "name": "Williamsburg Bagel", "opening_hours": "Su-Th 07:00-00:00; Fr 07:00-15:00", "phone": "+1-718-387-4736", "website": "https://willibagel.com/"}}, {"type": "node", "id": 13047910584, "lat": 40.7107259, "lon": -73.9601399}, {"type": "way", "id": 207181501, "nodes": [2173382391, 2173382397, 2173382444, 2173382438, 2173382362, 2173382386, 2173382452, 2173382391], "tags": {"ele": "16", "gnis:feature_id": "2381048", "leisure": "park", "name": "Roebling Playground", "wikidata": "Q34858397"}}, {"type": "way", "id": 241159315, "nodes": [2488562311, 2488562317, 2488562394, 2488562379, 2488562311], "tags": {"addr:city": "Brooklyn", "addr:housenumber": "229", "addr:postcode": "11211", "addr:state": "NY", "addr:street": "South 4th Street", "amenity": "restaurant", "building": "yes", "cuisine": "american", "height": "12.7", "name": "Traif", "nycdoitt:bin": "3063314"}}, {"type": "way", "id": 296164200, "nodes": [2999521380, 2999521377, 13047910584, 2999521375, 2999521368, 2999521366, 1907726298, 1907726301, 1907726302, 2999521371, 2999521373, 2999521378, 2999521379, 2999521380], "tags": {"leisure": "park", "name": "Continental Army Plaza", "wikidata": "Q116203744"}}, {"type": "way", "id": 296164202, "nodes": [3699345608, 10605121710, 3699345606, 10605121724, 3699345607, 10605121719, 10605121712, 10605121727, 10605121708, 10605121718, 3699345608]}, {"type": "way", "id": 365936358, "nodes": [2999521374, 2999521372, 2999521370, 2999521369, 2999521367, 2999521365, 2999521374], "tags": {"access": "yes", "leisure": "playground", "name": "La Guardia Playground", "opening_hours": "Mo-Su 06:00-21:00"}}, {"type": "way", "id": 365936508, "nodes": [3699347561, 3699347562, 3699347563, 3699347564, 3699347565, 3699347561], "tags": {"amenity": "school", "name": "Public School 19", "operator": "New York City Department of Education", "operator:short": "NYC Public Schools", "operator:type": "public", "operator:wikidata": "Q408230"}}, {"type": "way", "id": 365936661, "nodes": [3699348798, 3699348799, 3699348800, 3699348801, 10239540816, 11070271728, 11070271729, 10239540813, 3699348798], "tags": {"ele": "9", "gnis:feature_id": "2381039", "leisure": "park", "name": "Marcy Green North", "website": "https://www.nycgovparks.org/parks/marcy-green-north/map", "wheelchair": "yes", "wikidata": "Q49521597"}}, {"type": "way", "id": 365936662, "nodes": [3699348802, 3699348803, 3699348804, 3699348805, 3699348802], "tags": {"ele": "10", "gnis:feature_id": "2381040", "leisure": "park", "name": "Marcy Green Center", "wikidata": "Q49521596"}}, {"type": "way", "id": 365936688, "nodes": [3699336818, 3699336819, 3699336820, 3699336821, 3699336818], "tags": {"ele": "12", "gnis:feature_id": "2381041", "leisure": "park", "name": "Marcy Green South", "wikidata": "Q49521599"}}, {"type": "way", "id": 365936698, "nodes": [3699349017, 3699349018, 3699349019, 3699349020, 3699349021, 10239540873, 3699349022, 3699349017], "tags": {"ele": "5", "gnis:feature_id": "2381036", "leisure": "park", "name": "Rodney Playground North", "wikidata": "Q34858342"}}, {"type": "way", "id": 365936796, "nodes": [3699350414, 3699350415, 3699350416, 11116957334, 3699350417, 3699350414], "tags": {"ele": "6", "gnis:feature_id": "2381037", "leisure": "park", "name": "Rodney Playground Center", "wikidata": "Q34858328"}}, {"type": "way", "id": 365936797, "nodes": [3699350418, 3699350419, 3699350420, 3699350421, 3699350418], "tags": {"ele": "6", "gnis:feature_id": "2381038", "leisure": "park", "name": "Strawberry Playground", "wikidata": "Q116205024"}}, {"type": "way", "id": 365936839, "nodes": [3699351162, 3699351163, 3699351164, 3699351165, 3699351162], "tags": {"ele": "5", "gnis:feature_id": "2381042", "leisure": "park", "name": "Rodney Park North", "wikidata": "Q34858302"}}, {"type": "way", "id": 365936840, "nodes": [3699351166, 3699351167, 3699351168, 3699351169, 3699351170, 3699351171, 3699351166], "tags": {"ele": "9", "gnis:feature_id": "2381043", "leisure": "park", "name": "Rodney Park Center", "wikidata": "Q34858288"}}, {"type": "way", "id": 365936851, "nodes": [3699351260, 3699351261, 3699351262, 9776829424, 3699351263, 3699351264, 3699351260], "tags": {"ele": "13", "gnis:feature_id": "2381044", "leisure": "park", "name": "Rodney Park South", "name:etymology:wikidata": "Q887100", "wikidata": "Q34858315"}}, {"type": "way", "id": 365936852, "nodes": [3699351265, 3699351266, 3699351267, 3699351268, 3699351265], "tags": {"ele": "15", "gnis:feature_id": "2381045", "leisure": "park", "name": "Marcy Park South", "name:etymology:wikidata": "Q389258", "wikidata": "Q49521604"}}, {"type": "way", "id": 1278607640, "nodes": [11869906402, 11869906403, 11869906404, 11869906405, 11869906402], "tags": {"addr:city": "Brooklyn", "addr:postcode": "11211", "addr:state": "NY", "addr:street": "Division Ave", "leisure": "park", "name": "Division & Hooper Triangle"}}, {"type": "way", "id": 1340286563, "nodes": [2838022959, 12397792688, 12397792698, 12397792699, 12397858001, 2838022938, 12397792687, 12397792697, 12397792696, 12397792700, 12397792692, 2838022959], "tags": {"addr:housenumber": "327", "addr:postcode": "11211", "addr:street": "Division Avenue", "amenity": "taxi", "name": "New Brooklyn Car Service", "office": "taxi", "phone": "+1-718-388-2828"}}, {"type": "relation", "id": 15429442, "members": [{"type": "way", "ref": 296164202, "role": "outer"}, {"type": "way", "ref": 365936358, "role": "outer"}], "tags": {"ele": "15", "gnis:feature_id": "2081639", "leisure": "park", "name": "La Guardia Playground", "type": "multipolygon", "wikidata": "Q49577288"}}]}