{"version": 0.6, "generator": "Overpass API 0.7.62.8 e802775f", "osm3s": {"timestamp_osm_base": "2025-12-01T03:48:54Z", "copyright": "The data included in this document is from www.openstreetmap.org. The data is made available under ODbL."}, "elements": [{"type": "node", "id": 1283464798, "lat": 40.6726341, "lon": -73.996744}, {"type": "node", "id": 1283464832, "lat": 40.6729169, "lon": -73.9972375}, {"type": "node", "id": 1283464929, "lat": 40.6732952, "lon": -73.9969452}, {"type": "node", "id": 1283464958, "lat": 40.6728558, "lon": -73.9972161}, {"type": "node", "id": 1283464971, "lat": 40.6732301, "lon": -73.9969881}, {"type": "node", "id": 1283465041, "lat": 40.6744997, "lon": -73.9964066}, {"type": "node", "id": 2494180785, "lat": 40.675791, "lon": -73.9992322, "tags": {"name": "Awaye Realty", "office": "estate_agent", "phone": "+1-718-488-0800", "website": "http://www.awayerealty.com"}}, {"type": "node", "id": 2549989025, "lat": 40.673655, "lon": -73.9981736}, {"type": "node", "id": 2550073106, "lat": 40.6731059, "lon": -73.99422, "tags": {"addr:housenumber": "99", "addr:postcode": "11215", "addr:street": "9th Street", "entrance": "yes"}}, {"type": "node", "id": 2550073128, "lat": 40.6738063, "lon": -73.9925474, "tags": {"addr:housenumber": "52", "addr:postcode": "11215", "addr:street": "2nd Avenue", "entrance": "yes"}}, {"type": "node", "id": 2550073131, "lat": 40.6732414, "lon": -73.9930195, "tags": {"addr:housenumber": "58", "addr:postcode": "11215", "addr:street": "2nd Avenue", "entrance": "yes"}}, {"type": "node", "id": 2550073145, "lat": 40.673222, "lon": -73.9944175, "tags": {"addr:housenumber": "99", "addr:postcode": "11215", "addr:street": "9th Street", "name": "Eastern Effects", "office": "company", "phone": "+1-718-855-1197", "website": "https://easterneffects.com"}}, {"type": "node", "id": 2550073386, "lat": 40.672733, "lon": -73.9934444}, {"type": "node", "id": 2550074047, "lat": 40.6747057, "lon": -73.9979228, "tags": {"addr:city": "Brooklyn", "addr:housenumber": "478", "addr:postcode": "11231", "addr:state": "NY", "addr:street": "Smith Street", "amenity": "cafe", "cuisine": "breakfast;coffee_shop;french", "drink:coffee": "yes", "drink:espresso": "yes", "name": "Atelier Ariana", "phone": "+1-718-614-3582", "website": "https://www.atelierariana.com/"}}, {"type": "node", "id": 2550074054, "lat": 40.6750671, "lon": -73.9992481, "tags": {"addr:housenumber": "517", "addr:postcode": "11231", "addr:street": "Court Street", "amenity": "bar", "cocktails": "yes", "cuisine": "snack", "drink:beer": "draught", "drink:liquor": "yes", "drink:wine": "yes", "name": "Loafers Cocktail Bar", "opening_hours": "Mo-Th 17:00-01:00, Fr 17:00-03:00, Sa 16:00-03:00, Su 16:00-01:00", "outdoor_seating": "sidewalk", "sport": "darts", "toilets": "yes", "toilets:unisex": "yes", "website": "https://loafersbar.com/"}}, {"type": "node", "id": 2550074087, "lat": 40.673729, "lon": -73.9990558}, {"type": "node", "id": 2550074094, "lat": 40.6737773, "lon": -73.9992242}, {"type": "node", "id": 2550074102, "lat": 40.6738239, "lon": -73.9993867}, {"type": "node", "id": 2550074111, "lat": 40.6739797, "lon": -73.9989318}, {"type": "node", "id": 2550074121, "lat": 40.6740746, "lon": -73.9992627}, {"type": "node", "id": 3001111695, "lat": 40.6733482, "lon": -73.9960749}, {"type": "node", "id": 3001111696, "lat": 40.6736591, "lon": -73.9966329}, {"type": "node", "id": 3001111697, "lat": 40.6727086, "lon": -73.9966836}, {"type": "node", "id": 3001111698, "lat": 40.6729111, "lon": -73.9971034}, {"type": "node", "id": 3001111702, "lat": 40.6735377, "lon": -73.9964677}, {"type": "node", "id": 3671153256, "lat": 40.6708071, "lon": -73.9933768}, {"type": "node", "id": 3671185895, "lat": 40.673842, "lon": -73.9980837}, {"type": "node", "id": 3671185896, "lat": 40.6738254, "lon": -73.9980235}, {"type": "node", "id": 3671185897, "lat": 40.6736381, "lon": -73.9981126}, {"type": "node", "id": 4730708708, "lat": 40.6735272, "lon": -73.9965907}, {"type": "node", "id": 5777720595, "lat": 40.6760362, "lon": -73.997289}, {"type": "node", "id": 5777720597, "lat": 40.6755812, "lon": -73.9977746}, {"type": "node", "id": 5777720599, "lat": 40.675516, "lon": -73.9975266}, {"type": "node", "id": 5777720611, "lat": 40.674932, "lon": -73.9959833}, {"type": "node", "id": 5777720617, "lat": 40.6761013, "lon": -73.997537}, {"type": "node", "id": 6294189947, "lat": 40.6725984, "lon": -73.9938865, "tags": {"addr:housenumber": "124", "addr:postcode": "11215", "addr:street": "9th Street", "addr:unit": "250", "name": "Mark Chaflin, Esq.", "office": "lawyer", "phone": "+1-212-349-6290", "website": "https://www.chalfinpersonalinjurylawyer.com"}}, {"type": "node", "id": 6294189949, "lat": 40.6725771, "lon": -73.9938424, "tags": {"addr:housenumber": "124", "addr:postcode": "11215", "addr:street": "9th Street", "addr:unit": "250", "name": "Bowerbird", "office": "architect", "website": "https://www.bowerbirdarchitects.com"}}, {"type": "node", "id": 6314905332, "lat": 40.6760732, "lon": -73.9990931, "tags": {"amenity": "restaurant", "bar": "yes", "cocktails": "yes", "cuisine": "mexican", "drink:beer": "draught", "drink:liquor": "yes", "drink:sangria": "yes", "name": "Mezcal", "outdoor_seating": "garden", "phone": "+1-718-237-2230", "toilets": "yes", "toilets:unisex": "no", "website": "http://mezcalsmexican.com"}}, {"type": "node", "id": 6314905338, "lat": 40.6756895, "lon": -73.99928, "tags": {"name": "New Way Realty Management", "office": "estate_agent", "phone": "+1-718-222-9840", "website": "https://www.newwaymanagement.com/"}}, {"type": "node", "id": 6433061904, "lat": 40.6761311, "lon": -73.9990654, "tags": {"amenity": "bar", "cuisine": "sandwich;snack;charcuterie", "drink:beer": "draught", "drink:liquor": "yes", "drink:wine": "yes", "name": "Travel Bar", "opening_hours": "We-Th 17:00-24:00; Fr 16:00-01:00; Sa 16:00-01:00", "outdoor_seating": "sidewalk;street", "phone": "+1-718-858-2509", "website": "https://www.travelbarbrooklyn.com"}}, {"type": "node", "id": 6433061916, "lat": 40.6761808, "lon": -73.9990416, "tags": {"amenity": "cafe", "contact:instagram": "@nerdbecool", "cuisine": "coffee_shop;ice_cream", "drink:coffee": "yes", "drink:espresso": "yes", "name": "Nerd Be Cool", "opening_hours": "Mo-Fr 07:30-16:30; Sa-Su 08:00-16:30", "website": "https://nerdbecool.com"}}, {"type": "node", "id": 6433148355, "lat": 40.6745664, "lon": -73.9956491, "tags": {"addr:housenumber": "55A", "addr:postcode": "11215", "addr:street": "9th Street", "addr:unit": "1", "name": "The Gowanus Group", "office": "architect", "phone": "+1-718-650-6071", "website": "https://thegowanusgroup.com"}}, {"type": "node", "id": 6433148360, "lat": 40.6745077, "lon": -73.9949269, "tags": {"addr:housenumber": "55C", "addr:postcode": "11215", "addr:street": "9th Street", "alt_name": "ECS Global", "name": "Energy Conservation & Supply", "office": "yes"}}, {"type": "node", "id": 6433148361, "lat": 40.6746072, "lon": -73.9950458, "tags": {"addr:housenumber": "41", "addr:postcode": "11215", "addr:street": "9th Street", "name": "Emdad Construction", "office": "construction", "phone": "+1-718-487-4826", "website": "https://emdadconstructioninc.com"}}, {"type": "node", "id": 6433148364, "lat": 40.6743863, "lon": -73.9950745, "tags": {"addr:housenumber": "59C", "addr:postcode": "11215", "addr:street": "9th Street", "craft": "hvac", "name": "Mr. Air NYC", "office": "company", "website": "https://www.mrairnyc.com"}}, {"type": "node", "id": 6518684093, "lat": 40.6716786, "lon": -73.9934841, "tags": {"addr:housenumber": "126", "addr:postcode": "11215", "addr:street": "10th Street", "addr:unit": "Suite 210", "description": "private investigator, security training, gun shop", "name": "Superior Bureau of Investigation", "office": "private_investigator", "phone": "+1-718-965-3900", "shop": "weapons", "website": "http://www.sbiacademy.com"}}, {"type": "node", "id": 7024410906, "lat": 40.6709973, "lon": -73.9937701, "tags": {"barrier": "gate"}}, {"type": "node", "id": 7042397768, "lat": 40.6712864, "lon": -73.9926945, "tags": {"addr:housenumber": "168", "addr:postcode": "11215", "addr:street": "10th Street", "fax": "+1-718-499-1380", "name": "Medworld Supply", "office": "company", "opening_hours": "Mo-Th 09:00-14:15,14:45-17:30; Fr 09:00-13:00", "phone": "+1-718-907-5155"}}, {"type": "node", "id": 7042811198, "lat": 40.6704599, "lon": -73.9939884, "tags": {"barrier": "gate"}}, {"type": "node", "id": 7194344517, "lat": 40.6749608, "lon": -73.9992974, "tags": {"amenity": "restaurant", "bar": "yes", "cocktails": "wine", "cuisine": "italian;sandwich", "drink:beer": "yes", "drink:coffee": "yes", "drink:espresso": "yes", "drink:liquor": "no", "drink:wine": "yes", "name": "Cremini's", "opening_hours": "Mo-Fr 16:00-22:00; Sa-Su 12:00-22:00", "outdoor_seating": "street", "phone": "+1-929-305-2967", "toilets": "yes", "toilets:unisex": "yes", "website": "https://creminis.com"}}, {"type": "node", "id": 8195272971, "lat": 40.6729675, "lon": -73.9939321, "tags": {"addr:housenumber": "117", "addr:postcode": "11215", "addr:street": "9th Street", "entrance": "yes"}}, {"type": "node", "id": 8197472998, "lat": 40.6734569, "lon": -73.9928394, "tags": {"addr:housenumber": "56", "addr:postcode": "11215", "addr:street": "2nd Avenue", "entrance": "yes"}}, {"type": "node", "id": 8197472999, "lat": 40.6729378, "lon": -73.9932733, "tags": {"addr:housenumber": "66", "addr:postcode": "11215", "addr:street": "2nd Avenue", "entrance": "yes"}}, {"type": "node", "id": 8199671816, "lat": 40.6736008, "lon": -73.9951153, "tags": {"name": "Fabric", "office": "company"}}, {"type": "node", "id": 8199764534, "lat": 40.671031, "lon": -73.9938396}, {"type": "node", "id": 8199764535, "lat": 40.6705738, "lon": -73.994224}, {"type": "node", "id": 9654370376, "lat": 40.6733886, "lon": -73.9960348}, {"type": "node", "id": 9654370378, "lat": 40.6735957, "lon": -73.9963255}, {"type": "node", "id": 9654370379, "lat": 40.6737258, "lon": -73.99658}, {"type": "node", "id": 9733693461, "lat": 40.6731206, "lon": -73.9931205, "tags": {"addr:housenumber": "60", "addr:postcode": "11215", "addr:street": "2nd Avenue", "entrance": "yes"}}, {"type": "node", "id": 9733693462, "lat": 40.6734856, "lon": -73.9928154, "tags": {"addr:housenumber": "54", "addr:postcode": "11215", "addr:street": "2nd Avenue", "entrance": "yes"}}, {"type": "node", "id": 10291708115, "lat": 40.6704356, "lon": -73.9939382}, {"type": "node", "id": 10291708116, "lat": 40.6706674, "lon": -73.9937433}, {"type": "node", "id": 10291708117, "lat": 40.6705818, "lon": -73.9935663}, {"type": "node", "id": 10681882759, "lat": 40.6740557, "lon": -73.9982534, "tags": {"amenity": "bar", "drink:beer": "draught", "drink:cider": "yes", "drink:liquor": "no", "drink:wine": "yes", "name": "Queue Beer", "opening_hours": "Mo-We 15:00-22:00; Th-Fr 14:00-23:00; Sa 12:00-23:00; Su 12:00-20:00", "phone": "+1-347-599-2224", "website": "https://www.queue.beer"}}, {"type": "node", "id": 10778488799, "lat": 40.6735593, "lon": -73.9931362}, {"type": "node", "id": 10778488800, "lat": 40.6734282, "lon": -73.9928634}, {"type": "node", "id": 10778488801, "lat": 40.6734669, "lon": -73.9932135}, {"type": "node", "id": 10778488802, "lat": 40.6733357, "lon": -73.9929407}, {"type": "node", "id": 10778488803, "lat": 40.6731017, "lon": -73.9935426}, {"type": "node", "id": 10778488804, "lat": 40.6738389, "lon": -73.9925202}, {"type": "node", "id": 10778577805, "lat": 40.6740815, "lon": -73.9930248}, {"type": "node", "id": 10778577806, "lat": 40.673643, "lon": -73.9933912}, {"type": "node", "id": 10778577807, "lat": 40.6737663, "lon": -73.9936477}, {"type": "node", "id": 10778577808, "lat": 40.6733366, "lon": -73.9940069}, {"type": "node", "id": 10778577809, "lat": 40.6733907, "lon": -73.9941194}, {"type": "node", "id": 10778577810, "lat": 40.6731531, "lon": -73.994318}, {"type": "node", "id": 10778577811, "lat": 40.6729623, "lon": -73.9932528}, {"type": "node", "id": 10778577812, "lat": 40.6732448, "lon": -73.993423}, {"type": "node", "id": 10778577813, "lat": 40.6731055, "lon": -73.9931331}, {"type": "node", "id": 10778577814, "lat": 40.6731357, "lon": -73.9931078}, {"type": "node", "id": 10778577815, "lat": 40.6732669, "lon": -73.9933806}, {"type": "node", "id": 10778577816, "lat": 40.6733593, "lon": -73.9933034}, {"type": "node", "id": 10778577817, "lat": 40.6732282, "lon": -73.9930306}, {"type": "node", "id": 10778577827, "lat": 40.672882, "lon": -73.9937543, "tags": {"addr:housenumber": "117", "addr:postcode": "11215", "addr:street": "9th Street", "entrance": "yes"}}, {"type": "node", "id": 11062172436, "lat": 40.6709511, "lon": -73.9939068, "tags": {"barrier": "gate"}}, {"type": "node", "id": 11288747755, "lat": 40.67424, "lon": -73.9982301, "tags": {"name": "T Pyramid Inc", "office": "company"}}, {"type": "node", "id": 11657253555, "lat": 40.6749618, "lon": -73.9961607}, {"type": "node", "id": 11657253556, "lat": 40.6745542, "lon": -73.9965445}, {"type": "node", "id": 11657253557, "lat": 40.6745354, "lon": -73.9964619}, {"type": "node", "id": 11665449521, "lat": 40.6723872, "lon": -73.9926894, "tags": {"addr:city": "Brooklyn", "addr:housenumber": "129", "addr:postcode": "11215", "addr:state": "NY", "addr:street": "9th Street", "amenity": "cafe", "board_games": "yes", "contact:instagram": "https://www.instagram.com/principlesbk/", "cuisine": "coffee_shop", "drink:coffee": "yes", "drink:espresso": "yes", "drink:tea": "yes", "email": "katie@principlesbk.nyc", "fee": "no", "internet_access": "yes", "internet_access:fee": "no", "name": "Principles GI Coffee House", "opening_hours": "Mo 08:00-20:00; Tu-Fr 08:00-18:00; Sa 08:00-22:00; Su 09:00-17:00; Aug Mo-Sa 08:00-17:00; Aug Su 09:00-17:00", "outdoor_seating": "limited", "phone": "+1-347-218-4290", "service:bicycle:stand": "yes", "service:bicycle:tools": "yes", "tourism": "gallery", "website": "https://principlesbk.nyc/"}}, {"type": "way", "id": 248167311, "nodes": [2550074094, 2550074102, 2550074121, 2550074111, 2550074087, 2550074094], "tags": {"addr:city": "Brooklyn", "addr:housenumber": "191", "addr:postcode": "11231", "addr:state": "NY", "addr:street": "Centre Street", "amenity": "pub", "building": "yes", "building:levels": "1", "craft": "brewery", "description": "Craft brewery and taproom specializing in NEIPAs", "drink:beer": "yes", "email": "info@otherhalfbrewing.com", "height": "4.2", "name": "Other Half Brewery", "nycdoitt:bin": "3402768;3008188", "opening_hours": "Mo-We 15:00-22:00; Th-Fr 12:00-00:00; Sa 10:00-00:00; Su 11:00-22:00", "phone": "+1-917-765-6107", "product": "beer", "shop": "alcohol", "website": "https://otherhalfbrewing.com", "wikidata": "Q111286149"}}, {"type": "way", "id": 296322565, "nodes": [4730708708, 3001111702, 3001111695, 9654370376, 9654370378, 9654370379, 3001111696, 1283464929, 1283464971, 1283464832, 1283464958, 1283464798, 3001111697, 3001111698, 4730708708], "tags": {"access": "yes", "leisure": "park", "name": "Lowe's Esplanade"}}, {"type": "way", "id": 362871957, "nodes": [8199764534, 7024410906, 3671153256, 10291708117, 10291708116, 10291708115, 7042811198, 8199764535, 11062172436, 8199764534], "tags": {"barrier": "fence", "ele": "5", "gnis:feature_id": "2374977", "leisure": "park", "name": "Ennis Playground", "opening_hours": "Mo-Su 06:00-21:00", "website": "https://www.nycgovparks.org/parks/ennis-playground", "wikidata": "Q34828999"}}, {"type": "way", "id": 362876771, "nodes": [2549989025, 3671185895, 3671185896, 3671185897, 2549989025], "tags": {"addr:housenumber": "537", "addr:postcode": "11231", "addr:street": "Smith Street", "building": "industrial", "name": "Bayside Fuel Oil Depot", "office": "company"}}, {"type": "way", "id": 610034174, "nodes": [5777720599, 5777720595, 5777720617, 5777720597, 5777720599], "tags": {"leisure": "park", "name": "St. Mary's Playground", "wikidata": "Q49556061"}}, {"type": "way", "id": 1159044550, "nodes": [10778488804, 2550073128, 9733693462, 8197472998, 10778488800, 10778488799, 10778488801, 10778488802, 2550073131, 10778577817, 10778577816, 10778577815, 10778577814, 9733693461, 10778577813, 10778577812, 10778488803, 10778577811, 8197472999, 2550073386, 10778577827, 8195272971, 2550073106, 10778577810, 10778577809, 10778577808, 10778577807, 10778577806, 10778577805, 10778488804], "tags": {"amenity": "arts_centre", "name": "Gowanus Creative Studios", "office": "coworking", "phone": "+1-917-826-6330", "website": "https://gowanuscreativestudios.com"}}, {"type": "way", "id": 1254105725, "nodes": [11657253556, 11657253555, 5777720611, 1283465041, 11657253557, 11657253556], "tags": {"leisure": "park", "name": "300 Huntington Esplanade", "operator": "Gowanus Canal Conservancy"}}]}