{"version": 0.6, "generator": "Overpass API 0.7.62.8 e802775f", "osm3s": {"timestamp_osm_base": "2025-12-01T17:37:27Z", "copyright": "The data included in this document is from www.openstreetmap.org. The data is made available under ODbL."}, "elements": [{"type": "node", "id": 246525111, "lat": 40.7416634, "lon": -73.9889842}, {"type": "node", "id": 246525115, "lat": 40.7427489, "lon": -73.9867133, "tags": {"barrier": "kerb", "kerb": "lowered", "tactile_paving": "yes"}}, {"type": "node", "id": 357620387, "lat": 40.738617, "lon": -73.9890615, "tags": {"ele": "12", "gnis:feature_id": "2083047", "leisure": "park", "name": "Theodore Roosevelt Birthplace National Historic Site", "wikidata": "Q904191"}}, {"type": "node", "id": 1383961543, "lat": 40.7409651, "lon": -73.9876404, "tags": {"addr:city": "New York", "addr:housenumber": "1", "addr:postcode": "10010", "addr:state": "NY", "addr:street": "Madison Avenue", "amenity": "bank", "brand": "Charles Schwab", "brand:wikidata": "Q1066028", "name": "Charles Schwab", "office": "financial_advisor", "wheelchair": "yes"}}, {"type": "node", "id": 1428185707, "lat": 40.7433913, "lon": -73.9892649, "tags": {"addr:city": "New York", "addr:housenumber": "1123", "addr:postcode": "10010", "addr:street": "Broadway", "amenity": "cafe", "name": "Broadway Cafe", "phone": "+1-212-727-9797"}}, {"type": "node", "id": 1883802649, "lat": 40.7412598, "lon": -73.9911856, "tags": {"addr:country": "US", "addr:housenumber": "20", "addr:postcode": "10010", "addr:state": "NY", "addr:street": "West 22nd Street", "addr:unit": "710", "name": "XVIO", "office": "company"}}, {"type": "node", "id": 2114001662, "lat": 40.742262, "lon": -73.991796, "tags": {"amenity": "restaurant", "brand": "Outback Steakhouse", "brand:wikidata": "Q1064893", "cuisine": "american;steak", "name": "Outback Steakhouse"}}, {"type": "node", "id": 2412370159, "lat": 40.7435996, "lon": -73.98616, "tags": {"addr:city": "New York", "addr:housenumber": "66", "addr:postcode": "10010", "addr:street": "Madison Avenue", "amenity": "restaurant", "branch": "Flatiron", "cuisine": "sandwich", "drink:beer": "served", "name": "Olde City", "opening_hours": "Mo-Su 11:00-24:00", "opening_hours:kitchen": "11:00-24:00", "phone": "+1 929-281-3222", "website": "https://www.loveoldecity.com/", "wheelchair": "yes"}}, {"type": "node", "id": 2555136029, "lat": 40.7399221, "lon": -73.9893996, "tags": {"addr:housenumber": "922", "addr:postcode": "10010", "addr:street": "Broadway", "amenity": "cafe", "name": "Cha Cha Matcha", "website": "https://chachamatcha.com/"}}, {"type": "node", "id": 2555136032, "lat": 40.7402819, "lon": -73.98929, "tags": {"addr:city": "New York", "addr:housenumber": "936", "addr:postcode": "10010", "addr:state": "NY", "addr:street": "Broadway", "email": "eklundgomes@elliman.com", "name": "Eklund | Gomes Real Estate Team", "office": "estate_agent", "phone": "+1-212-598-3199", "website": "https://theeklundgomesteam.elliman.com/"}}, {"type": "node", "id": 2621577431, "lat": 40.7438766, "lon": -73.9887987, "tags": {"addr:city": "New York", "addr:housenumber": "1140", "addr:postcode": "10001", "addr:state": "NY", "addr:street": "Broadway", "amenity": "cafe", "branch": "26th & Broadway", "brand": "Starbucks", "brand:wikidata": "Q37158", "check_date": "2023-03-19", "cuisine": "coffee_shop", "internet_access": "wlan", "internet_access:fee": "customers", "name": "Starbucks", "official_name": "Starbucks Coffee", "payment:credit_cards": "yes", "payment:debit_cards": "yes", "payment:mastercard": "yes", "payment:visa": "yes", "phone": "+1 212-213-6519", "ref": "70030", "takeaway": "yes", "website": "https://www.starbucks.com/store-locator/store/70030/26th-broadway-1140-broadway-new-york-ny-100017504-us"}}, {"type": "node", "id": 2622636229, "lat": 40.743266, "lon": -73.991263, "tags": {"addr:city": "New York", "addr:housenumber": "49", "addr:postcode": "10010", "addr:street": "24th Street", "amenity": "restaurant", "cuisine": "pizza", "name": "Tappo", "phone": "+1-212-807-9200", "website": "tappothincrust.com"}}, {"type": "node", "id": 2630078319, "lat": 40.7427924, "lon": -73.9920482, "tags": {"addr:city": "New York", "addr:housenumber": "67", "addr:postcode": "10010", "addr:street": "West 23rd Street", "amenity": "restaurant", "cuisine": "korean;deli", "delivery": "yes", "name": "Kofoo", "phone": "+1 212 675 5277", "smoking": "no", "takeaway": "yes", "website": "http://www.kofoony.com/"}}, {"type": "node", "id": 2676076063, "lat": 40.7423105, "lon": -73.9898043, "tags": {"addr:city": "New York", "addr:housenumber": "200", "addr:state": "NY", "addr:street": "5th Avenue", "amenity": "restaurant", "level": "14", "location": "roof", "name": "Serra Alpina", "opening_hours": "Mo-Th 11:30-22:00; Fr 11:30-23:00; Sa,Su 11:00-23:00", "operator": "Eataly", "outdoor_seating": "yes", "website": "https://www.eataly.com/us_en/stores/nyc-flatiron/serra-by-birreria/"}}, {"type": "node", "id": 2703043873, "lat": 40.7396655, "lon": -73.9924935, "tags": {"addr:city": "New York", "addr:housenumber": "17", "addr:postcode": "10011", "addr:state": "NY", "addr:street": "West 19th Street", "amenity": "restaurant", "cuisine": "korean", "name": "Oiji Mi", "opening_hours": "Fr-Sa 17:00-21:30; Su-Th 17:00-21:00", "phone": "+1-212-256-1259", "website": "https://www.oijimi.com"}}, {"type": "node", "id": 2703043913, "lat": 40.7397486, "lon": -73.9926774, "tags": {"addr:city": "New York", "addr:housenumber": "23", "addr:postcode": "10011", "addr:state": "NY", "addr:street": "West 19th Street", "amenity": "cafe", "cuisine": "coffee_shop", "name": "Gotham Coffee Roasters", "opening_hours": "Mo-Fr 07:30-17:00; Sa-Su 09:00-16:00", "phone": "+1-212-255-2972", "website": "https://www.gothamroasters.com/"}}, {"type": "node", "id": 2704161405, "lat": 40.7401156, "lon": -73.9868732, "tags": {"addr:city": "New York", "addr:housenumber": "304", "addr:postcode": "10010", "addr:state": "NY", "addr:street": "Park Avenue South", "email": "info@jaycataldo.com", "name": "Jay Cataldo Life Coaching", "office": "yes", "phone": "+1-800-617-6186", "website": "https://jaycataldo.com"}}, {"type": "node", "id": 2885325707, "lat": 40.7415589, "lon": -73.9902574, "tags": {"addr:city": "New York", "addr:housenumber": "12", "addr:postcode": "10010", "addr:street": "West 23rd Street", "name": "Online Marketing Group", "office": "advertising_agency", "phone": "+1-212-532-0600", "short_name": "OMG", "website": "https://omg.re/"}}, {"type": "node", "id": 3019038940, "lat": 40.7433504, "lon": -73.9880644}, {"type": "node", "id": 3179745212, "lat": 40.7421269, "lon": -73.9905046, "tags": {"addr:city": "New York", "addr:country": "US", "addr:housenumber": "25", "addr:postcode": "10010", "addr:state": "NY", "addr:street": "West 23rd Street", "amenity": "restaurant", "cuisine": "sushi", "name": "Tenjou"}}, {"type": "node", "id": 3220584269, "lat": 40.7429616, "lon": -73.9922855, "tags": {"addr:city": "New York", "addr:housenumber": "71", "addr:postcode": "10010", "addr:state": "NY", "addr:street": "West 23rd Street", "addr:unit": "515", "amenity": "college", "name": "Project Management Academy New York", "phone": "+1-877-637-0450", "website": "https://projectmanagementacademy.net/pmp-certification/new-york"}}, {"type": "node", "id": 3843919259, "lat": 40.7439497, "lon": -73.9887933, "tags": {"addr:housenumber": "1140", "addr:postcode": "10001", "addr:street": "Broadway", "amenity": "bar", "name": "Vin Sur Vingt", "phone": "+1-646-922-7700", "website": "https://vsvwinebars.com/"}}, {"type": "node", "id": 3932353662, "lat": 40.7415982, "lon": -73.9871904, "tags": {"addr:city": "New York", "addr:country": "US", "addr:housenumber": "11", "addr:postcode": "10010", "addr:state": "NY", "addr:street": "Madison Avenue", "amenity": "restaurant", "cuisine": "french;american", "diet:vegan": "only", "name": "Eleven Madison Park", "opening_hours": "Mo-We 17:30-22:00; Th-Su 12:00-13:00, 17:30-22:00", "phone": "+1 212-889-0905", "smoking": "no", "stars": "3", "website": "https://www.elevenmadisonpark.com/", "wikidata": "Q5359767", "wikipedia": "en:Eleven Madison Park"}}, {"type": "node", "id": 3933254460, "lat": 40.7387966, "lon": -73.9885656, "tags": {"addr:city": "New York", "addr:housenumber": "41", "addr:postcode": "10003", "addr:state": "NY", "addr:street": "East 20th Street", "amenity": "restaurant", "cuisine": "russian", "delivery": "no", "level": "0", "name": "Mari Vanna", "opening_hours": "12:00-23:30", "phone": "+12127771955", "takeaway": "yes", "website": "http://www.marivanna.ru/ny"}}, {"type": "node", "id": 3958232658, "lat": 40.7435815, "lon": -73.9920821, "tags": {"addr:city": "New York", "addr:housenumber": "750", "addr:postcode": "10010", "addr:state": "NY", "addr:street": "6th Avenue", "amenity": "cafe", "branch": "24th & 6th", "brand": "Starbucks", "brand:wikidata": "Q37158", "cuisine": "coffee_shop", "drink:coffee": "yes", "internet_access": "yes", "name": "Starbucks", "official_name": "Starbucks Coffee", "opening_hours": "Mo-Th, Su 06:00-21:00; Fr 06:00-21:30; Sa 05:30-22:00", "phone": "+1 646-230-7208", "ref": "11203", "takeaway": "yes", "toilets": "yes", "toilets:access": "public", "website": "https://www.starbucks.com/store-locator/store/11203/24th-6th-750-6th-avenue-new-york-ny-100102716-us"}}, {"type": "node", "id": 3958232662, "lat": 40.7435359, "lon": -73.9925708, "tags": {"addr:housenumber": "729", "addr:postcode": "10010", "addr:street": "6th Avenue", "amenity": "cafe", "cuisine": "bagel;sandwich;breakfast;salad", "drink:coffee": "yes", "name": "The Corner Cafe"}}, {"type": "node", "id": 3966939353, "lat": 40.7439872, "lon": -73.9858906, "tags": {"amenity": "cafe", "name": "Seven grams", "removed:name": "Exki", "wheelchair": "yes"}}, {"type": "node", "id": 4214275589, "lat": 40.7439412, "lon": -73.988134, "tags": {"addr:housenumber": "230", "addr:postcode": "10001", "addr:street": "5th Avenue", "alt_name": "Rooftop Bar", "amenity": "bar", "contact:facebook": "230FIFTHRooftop", "contact:instagram": "230fifthrooftop", "cuisine": "american", "email": "info@230-fifth.com", "internet_access": "wlan", "level": "20", "name": "230 Fifth", "name:en": "230 Fifth Rooftop Bar", "opening_hours": "Mo-Su 14:00-04:00", "phone": "+12122461000", "website": "https://230-fifth.com/"}}, {"type": "node", "id": 4244823109, "lat": 40.7410206, "lon": -73.9907082, "tags": {"addr:city": "New York", "addr:housenumber": "4", "addr:postcode": "10010", "addr:state": "NY", "addr:street": "West 22nd Street", "amenity": "restaurant", "cuisine": "seafood", "description": "Seafood eatery with beachfront feel that has both a lobster & raw bar, plus wine & cocktails.", "level": "1", "name": "Sagaponack Bar & Grill", "phone": "+1-212-229-2226", "takeaway": "yes", "wheelchair": "limited"}}, {"type": "node", "id": 4273997364, "lat": 40.7401241, "lon": -73.9917722, "tags": {"addr:city": "New York", "addr:housenumber": "7", "addr:postcode": "10010", "addr:state": "NY", "addr:street": "West 20th Street", "amenity": "restaurant", "level": "0", "name": "BaoDega"}}, {"type": "node", "id": 4338775634, "lat": 40.7397099, "lon": -73.9897732, "tags": {"addr:city": "New York", "addr:housenumber": "915", "addr:postcode": "10010", "addr:state": "NY", "addr:street": "Broadway", "addr:suite": "1802", "level": "18", "name": "Sonobi", "office": "company", "phone": "+1 212-796-4579", "website": "https://sonobi.com/"}}, {"type": "node", "id": 4338958231, "lat": 40.7397055, "lon": -73.9897743, "tags": {"addr:city": "New York", "addr:housenumber": "915", "addr:postcode": "10010", "addr:state": "NY", "addr:street": "Broadway", "addr:suite": "1801", "amenity": "university", "level": "18", "name": "Stanford in New York Center", "operator": "The Board of Trustees of the Leland Stanford Junior University", "phone": "+1-212-768-2905", "website": "https://undergrad.stanford.edu/stanford-in-new-york"}}, {"type": "node", "id": 4357574290, "lat": 40.7396065, "lon": -73.9886459, "tags": {"amenity": "restaurant", "name": "Giorgio's of Gramercy", "name:en": "Giorgio's of Gramercy"}}, {"type": "node", "id": 4423853596, "lat": 40.7392821, "lon": -73.9872624, "tags": {"addr:housenumber": "280", "addr:street": "Park Avenue South", "amenity": "bar", "name": "Rooftop Bar", "name:en": "Rooftop Bar"}}, {"type": "node", "id": 4423974194, "lat": 40.7389487, "lon": -73.9889529, "tags": {"addr:housenumber": "31", "addr:postcode": "10010", "addr:street": "East 20th Street", "amenity": "restaurant", "cuisine": "pizza", "height": "13.3", "name": "Pizza Fresca"}}, {"type": "node", "id": 4492683386, "lat": 40.7428233, "lon": -73.9921754, "tags": {"addr:city": "New York", "addr:housenumber": "69", "addr:postcode": "10010", "addr:state": "NY", "addr:street": "West 23rd Street", "amenity": "bar", "ele": "2", "name": "The Storehouse", "opening_hours": "Mo-Su 11:00-04:00", "phone": "+1 212 243 8898", "smoking": "no", "website": "https://www.thestorehousenyc.com/"}}, {"type": "node", "id": 4509430011, "lat": 40.7438616, "lon": -73.9894745, "tags": {"addr:city": "New York", "addr:housenumber": "1133", "addr:postcode": "10010", "addr:state": "NY", "addr:street": "Broadway", "amenity": "restaurant", "cuisine": "indian", "delivery": "no", "name": "INDAY", "opening_hours": "Mo-Su 11:00-21:00", "phone": "+1 917 521 5012", "smoking": "no", "takeaway": "yes", "website": "http://indaynyc.com/"}}, {"type": "node", "id": 4509434073, "lat": 40.7437112, "lon": -73.9892129, "tags": {"addr:city": "New York", "addr:housenumber": "1133", "addr:postcode": "10010", "addr:state": "NY", "addr:street": "Broadway", "amenity": "restaurant", "cuisine": "italian", "delivery": "yes", "name": "La Pecora Bianca", "phone": "+1-212-498-9696", "smoking": "no", "takeaway": "no", "website": "https://www.lapecorabianca.com/location/nomad/"}}, {"type": "node", "id": 4564273493, "lat": 40.7436151, "lon": -73.9863949, "tags": {"addr:city": "New York", "addr:housenumber": "21", "addr:postcode": "10016", "addr:state": "NY", "addr:street": "East 27th Street", "amenity": "cafe", "cuisine": "coffee_shop", "drink:beer": "yes", "email": "27thstreet@birchcoffee.com", "internet_access": "no", "name": "Birch Coffee", "opening_hours": "Mo-Fr 07:00-20:00; Sa-Su 08:00-20:00", "phone": "+1 212-686-1444", "smoking": "no", "website": "http://birchcoffee.com/locations/flatiron/"}}, {"type": "node", "id": 4587458727, "lat": 40.743289, "lon": -73.9885756, "tags": {"addr:city": "New York", "addr:housenumber": "210", "addr:postcode": "10010", "addr:state": "NY", "addr:street": "5th Avenue", "amenity": "restaurant", "brand": "Wagamama", "brand:wikidata": "Q503715", "cuisine": "asian", "delivery": "no", "name": "Wagamama", "opening_hours": "Mo-Th 11:00-23:00; Fr 11:00-00:00; Sa 10:00-00:00; Su 10:00-23:00", "outdoor_seating": "no", "phone": "+1-212-920-6233", "smoking": "no", "takeaway": "no", "website": "https://www.wagamama.us/"}}, {"type": "node", "id": 4593242838, "lat": 40.7419337, "lon": -73.9898018, "tags": {"addr:city": "New York", "addr:housenumber": "200", "addr:postcode": "10010", "addr:state": "NY", "addr:street": "5th Avenue", "amenity": "restaurant", "cuisine": "italian", "delivery": "no", "level": "14", "name": "Baita by Birreria", "outdoor_seating": "yes", "phone": "+1-212-937-8910", "smoking": "no", "takeaway": "no", "website": "https://www.eataly.com/"}}, {"type": "node", "id": 4638395922, "lat": 40.7431207, "lon": -73.9909146, "tags": {"addr:city": "New York", "addr:housenumber": "27", "addr:postcode": "10010", "addr:state": "NY", "addr:street": "West 24th Street", "amenity": "restaurant", "cuisine": "indian", "delivery": "no", "internet_access": "wlan", "name": "Junoon", "opening_hours": "Su-Th 12:00-22:30; Fr 12:00-23:30; Sa 13:00-23:30", "outdoor_seating": "no", "phone": "+1-212-490-2100", "smoking": "no", "takeaway": "no", "website": "http://newyork.junoonrestaurants.com/", "wheelchair": "yes"}}, {"type": "node", "id": 4746777521, "lat": 40.742213, "lon": -73.9895802, "tags": {"addr:city": "New York", "addr:housenumber": "200", "addr:postcode": "10010", "addr:state": "NY", "addr:street": "5th Avenue", "amenity": "cafe", "branch": "Flatiron", "brand": "Eataly", "brand:wikidata": "Q3046645", "check_date": "2023-03-19", "cocktails": "yes", "craft": "caterer", "cuisine": "italian", "diet:vegetarian": "yes", "drink:beer": "yes", "drink:coffee": "yes", "drink:tea": "yes", "internet_access": "wlan", "internet_access:fee": "no", "name": "Eataly", "opening_hours": "Mo-Su 09:00-23:00", "organic": "yes", "outdoor_seating": "yes", "payment:debit_cards": "yes", "phone": "+1-212-229-2560", "reservation": "yes", "shop": "supermarket", "takeaway": "yes", "toilets": "yes", "toilets:access": "public", "toilets:wheelchair": "yes", "website": "https://www.eataly.com/us_en/stores/nyc-flatiron//", "wheelchair": "yes"}}, {"type": "node", "id": 4844210421, "lat": 40.7424702, "lon": -73.9862953, "tags": {"addr:city": "New York", "addr:housenumber": "41", "addr:postcode": "10010", "addr:street": "Madison Avenue", "amenity": "restaurant", "contact:instagram": "marksoffmadison", "cuisine": "italian", "delivery": "yes", "name": "Mark's Off Madison", "opening_hours": "Tu-Fr 11:30-14:45, 17:00-22:00; Sa 10:30-15:00,17:00-22:00; Su 10:30-15:00", "outdoor_seating": "yes", "phone": "+1 646 838 8300", "reservation": "recommended", "toilets": "customers", "website": "https://www.marksoffmadison.com"}}, {"type": "node", "id": 4931686522, "lat": 40.7407674, "lon": -73.9918982, "tags": {"amenity": "cafe"}}, {"type": "node", "id": 5017835623, "lat": 40.7386202, "lon": -73.9887321, "tags": {"amenity": "restaurant", "name": "Nur", "name:en": "Nur"}}, {"type": "node", "id": 5181119423, "lat": 40.7395503, "lon": -73.9883884, "tags": {"addr:city": "New York", "addr:housenumber": "35", "addr:postcode": "10010", "addr:state": "NY", "addr:street": "East 21st Street", "amenity": "restaurant", "cuisine": "mexican", "name": "Cosme", "phone": "+1-212-913-9659", "website": "https://www.cosmenyc.com"}}, {"type": "node", "id": 5265748974, "lat": 40.7417874, "lon": -73.9925761, "tags": {"addr:housenumber": "50", "addr:street": "West 22nd Street", "amenity": "bar", "name": "BXL Zoute", "phone": "+1-646-692-9282"}}, {"type": "node", "id": 5537914954, "lat": 40.7411298, "lon": -73.992128, "tags": {"addr:city": "New York", "addr:housenumber": "31", "addr:postcode": "10010", "addr:state": "NY", "addr:street": "West 21st Street", "amenity": "restaurant", "cuisine": "fine_dining", "name": "Bouley at Home", "phone": "+1-212-255-5828", "tourism": "yes", "website": "https://davidbouley.com"}}, {"type": "node", "id": 5699062157, "lat": 40.7433829, "lon": -73.9914604, "tags": {"addr:city": "New York", "addr:housenumber": "49", "addr:postcode": "10010", "addr:state": "NY", "addr:street": "West 24th Street", "addr:unit": "8th Floor", "contact:facebook": "https://www.facebook.com/nycsportfishingcharters/", "name": "NYC Sportfishing Charters", "office": "company", "phone": "+1-201-388-1963", "website": "https://www.nycsportfishingcharters.com/"}}, {"type": "node", "id": 5757232056, "lat": 40.7389499, "lon": -73.9888714, "tags": {"addr:city": "New York", "addr:housenumber": "33", "addr:postcode": "10003", "addr:state": "NY", "addr:street": "East 22nd Street", "amenity": "restaurant", "cuisine": "sushi", "name": "SUGARFISH by sushi nozawa", "opening_hours": "Su-Th 11:30-23:00; Fr,Sa 11:30-23:30", "outdoor_seating": "no", "phone": "+1-347-705-8100", "takeaway": "yes", "website": "https://sugarfishsushi.com/locations/flatiron/"}}, {"type": "node", "id": 5813254081, "lat": 40.739611, "lon": -73.9898047, "tags": {"addr:city": "New York", "addr:housenumber": "913", "addr:postcode": "10010", "addr:state": "NY", "addr:street": "Broadway", "addr:suite": "1802", "amenity": "bar", "level": "1", "name": "Wined Up", "outdoor_seating": "no", "phone": "+1-212-673-6333", "website": "https://winedupnyc.com"}}, {"type": "node", "id": 5813254082, "lat": 40.739606, "lon": -73.989805, "tags": {"addr:city": "New York", "addr:housenumber": "913", "addr:postcode": "10010", "addr:state": "NY", "addr:street": "Broadway", "addr:suite": "1802", "amenity": "bar", "level": "0", "name": "Punch Bar & Grill", "outdoor_seating": "no", "phone": "+1-212-673-6333", "website": "https://www.punchrestaurant.com"}}, {"type": "node", "id": 5985141785, "lat": 40.7389158, "lon": -73.9896744, "tags": {"addr:city": "New York", "addr:housenumber": "900", "addr:postcode": "10003", "addr:state": "NY", "addr:street": "Broadway", "amenity": "restaurant", "branch": "Union Square", "brand": "Mezeh", "brand:wikidata": "Q130470118", "cuisine": "mediterranean", "name": "Mezeh Mediterranean Grill", "opening_hours": "Mo-Su 11:00-21:00", "phone": "+1-646-595-0078", "website": "https://order.mezeh.com/"}}, {"type": "node", "id": 6006276988, "lat": 40.7433245, "lon": -73.9901642, "tags": {"amenity": "cafe", "name": "Maman"}}, {"type": "node", "id": 6066607072, "lat": 40.7412985, "lon": -73.990665, "tags": {"addr:housenumber": "5", "addr:street": "West 22nd Street", "amenity": "school", "name": "Montessori Flatiron", "phone": "+1-212-633-0600", "website": "https://themontessorischools.org"}}, {"type": "node", "id": 6184111793, "lat": 40.7389809, "lon": -73.9907059, "tags": {"addr:housenumber": "5", "addr:postcode": "10003", "addr:street": "East 19th Street", "amenity": "restaurant", "cocktails": "yes", "contact:facebook": "https://www.facebook.com/thaivillanyc", "contact:instagram": "https://www.instagram.com/thaivillanyc", "cuisine": "thai", "delivery": "yes", "drink:beer": "draught", "drink:wine": "served", "email": "info@thaivillanyc.com", "name": "Thai Villa", "opening_hours": "Mo-Th 10:30-15:15, 17:00-22:15; Fr 11:30-15:15, 17:00-23:15; Sa 12:00-15:45, 17:00-23:15; Su 12:00-15:45, 17:00-22:15", "phone": "+1-212-802-999", "reservation": "yes", "takeaway": "yes", "website": "https://thaivillanyc.com/"}}, {"type": "node", "id": 6210354194, "lat": 40.7424367, "lon": -73.9887211}, {"type": "node", "id": 6243560187, "lat": 40.7427025, "lon": -73.988596}, {"type": "node", "id": 6342202604, "lat": 40.7429808, "lon": -73.9893406, "tags": {"addr:housenumber": "1115", "addr:postcode": "10010", "addr:street": "Broadway", "addr:unit": "12th Floor", "description": "life and carreer coaching", "email": "nyc@thenyclifecoach.com", "name": "The NYC Life Coach", "office": "company", "opening_hours": "Mo-Fr 10:00-20:00", "phone": "+1-646-943-9160", "website": "https://www.thenyclifecoach.com"}}, {"type": "node", "id": 6371628985, "lat": 40.7410352, "lon": -73.9914328, "tags": {"addr:city": "New York", "addr:housenumber": "16", "addr:postcode": "10010", "addr:state": "NY", "addr:street": "West 22nd Street", "amenity": "restaurant", "cuisine": "korean;steak_house", "name": "\uaf43", "name:en": "COTE", "phone": "+12124017986", "website": "https://www.cotenyc.com"}}, {"type": "node", "id": 6462387667, "lat": 40.7402571, "lon": -73.989675, "tags": {"addr:housenumber": "929", "addr:postcode": "10010", "addr:street": "Broadway", "amenity": "cafe", "brand": "Joe & The Juice", "brand:wikidata": "Q26221514", "check_date": "2025-06-15", "cuisine": "coffee_shop", "level": "0", "name": "Joe & The Juice", "takeaway": "yes", "wheelchair": "yes"}}, {"type": "node", "id": 6955034545, "lat": 40.7417763, "lon": -73.9906298, "tags": {"addr:city": "New York", "addr:housenumber": "22", "addr:postcode": "10010", "addr:state": "NY", "addr:street": "West 23rd Street", "amenity": "restaurant", "cuisine": "italian", "delivery": "yes", "name": "Mangia", "opening_hours": "Mo-Fr 07:00-17:00", "phone": "+1-212-647-0200", "website": "https://mangia.nyc/"}}, {"type": "node", "id": 6955034549, "lat": 40.7416427, "lon": -73.9903239, "tags": {"addr:city": "New York", "addr:housenumber": "14", "addr:postcode": "10010", "addr:state": "NY", "addr:street": "West 23rd Street", "amenity": "cafe", "branch": "23rd btwn 5th & 6th", "brand": "Starbucks", "brand:wikidata": "Q37158", "check_date": "2023-03-19", "cuisine": "coffee_shop", "internet_access": "wlan", "name": "Starbucks", "official_name": "Starbucks Coffee", "opening_hours": "Mo-Th 06:00-21:00; Fr 06:00-20:30; Sa 06:30-20:00; Su 06:30-19:30", "payment:cash": "yes", "payment:credit_cards": "yes", "payment:debit_cards": "yes", "payment:mastercard": "yes", "payment:visa": "yes", "phone": "+1 212-367-2050", "takeaway": "yes", "website": "https://www.starbucks.com/store-locator/store/6756/23rd-btwn-5th-6th-14-w-23rd-st-new-york-ny-100105203-us"}}, {"type": "node", "id": 7149223689, "lat": 40.7390943, "lon": -73.9893691, "tags": {"addr:city": "New York", "addr:housenumber": "27", "addr:postcode": "10003", "addr:state": "NY", "addr:street": "East 20th Street", "amenity": "restaurant", "cuisine": "italian", "name": "Rezd\u00f4ra", "opening_hours": "Mo 17:00-22:30; Tu-Fr 12:30-14:30,17:00-22:30; Sa-Su 11:30-14:30,17:00-22:30", "website": "https://www.rezdora.nyc"}}, {"type": "node", "id": 7360048859, "lat": 40.7404201, "lon": -73.9859376, "tags": {"addr:housenumber": "303", "addr:postcode": "10010", "addr:street": "Park Avenue South", "amenity": "cafe", "brand": "Paris Baguette", "brand:wikidata": "Q62605260", "cuisine": "coffee_shop;french;bakery", "name": "Paris Baguette", "opening_hours": "Mo-Su 06:00-21:00", "shop": "bakery"}}, {"type": "node", "id": 7596986485, "lat": 40.7397337, "lon": -73.9878018, "tags": {"addr:city": "New York", "addr:housenumber": "33", "addr:state": "NY", "addr:street": "East 22nd Street", "amenity": "restaurant", "name": "Jua", "website": "https://www.juanyc.com/"}}, {"type": "node", "id": 7678152117, "lat": 40.740175, "lon": -73.9868031, "tags": {"addr:city": "New York", "addr:housenumber": "304", "addr:postcode": "10010", "addr:state": "NY", "addr:street": "Park Avenue South", "amenity": "cafe", "brand": "Starbucks", "brand:wikidata": "Q37158", "cuisine": "coffee_shop", "name": "Starbucks", "official_name": "Starbucks Coffee", "phone": "+1-212-475-9025", "takeaway": "yes", "website": "https://www.starbucks.com/store-locator/store/17645/23rd-park-304-park-avenue-south-new-york-ny-100104301-us"}}, {"type": "node", "id": 7678152118, "lat": 40.7402786, "lon": -73.9870432, "tags": {"addr:city": "New York", "addr:housenumber": "48", "addr:postcode": "10010", "addr:street": "East 23rd Street", "amenity": "cafe", "name": "Spin", "phone": "+1-212-982-8802", "website": "https://wearespin.com/location/new-york/"}}, {"type": "node", "id": 7678152126, "lat": 40.7406022, "lon": -73.9877902, "tags": {"addr:city": "New York", "addr:housenumber": "28", "addr:postcode": "10010", "addr:street": "East 23rd Street", "amenity": "restaurant", "cuisine": "cuban", "name": "Sophie's Cuban Cuisine", "opening_hours": "Mo-Fr 10:00-20:00", "phone": "+1-212-260-8884", "website": "https://www.sophiescuban.com/location/23rd-street/"}}, {"type": "node", "id": 7678152127, "lat": 40.7407221, "lon": -73.9880906, "tags": {"addr:city": "New York", "addr:housenumber": "24", "addr:postcode": "10010", "addr:street": "East 23rd Street", "amenity": "cafe", "name": "Snowfox Cafe", "opening_hours": "Mo-Fr 07:00-22:00; Sa,Su 10:00-21:00", "website": "https://snowfoxcafe.com/"}}, {"type": "node", "id": 8255733883, "lat": 40.7431387, "lon": -73.9871489, "tags": {"addr:city": "New York", "addr:housenumber": "19", "addr:postcode": "10010", "addr:state": "NY", "addr:street": "East 26th Street", "email": "jelliott@heavenlyharvst.org", "name": "Heavenly Harvst Foundation", "office": "association", "opening_hours": "Mo-Fr 09:00-17:00", "phone": "+1-646-448-0965", "website": "https://heavenlyharvst.org/"}}, {"type": "node", "id": 8268699406, "lat": 40.7414177, "lon": -73.9890108, "tags": {"barrier": "kerb", "kerb": "lowered"}}, {"type": "node", "id": 8268699407, "lat": 40.7414649, "lon": -73.9890345, "tags": {"barrier": "kerb", "kerb": "lowered"}}, {"type": "node", "id": 8268699408, "lat": 40.7417664, "lon": -73.988958, "tags": {"barrier": "kerb", "kerb": "lowered", "tactile_paving": "yes"}}, {"type": "node", "id": 8268734921, "lat": 40.7428499, "lon": -73.9885165, "tags": {"barrier": "kerb", "kerb": "lowered", "tactile_paving": "yes"}}, {"type": "node", "id": 8268734923, "lat": 40.7429173, "lon": -73.988475}, {"type": "node", "id": 8268734924, "lat": 40.74101, "lon": -73.9880426, "tags": {"barrier": "kerb", "kerb": "lowered", "tactile_paving": "yes"}}, {"type": "node", "id": 8268734939, "lat": 40.7410339, "lon": -73.9879619}, {"type": "node", "id": 8640372928, "lat": 40.73996, "lon": -73.9912147, "tags": {"addr:city": "New York", "addr:housenumber": "156", "addr:postcode": "10010", "addr:state": "NY", "addr:street": "5th Avenue", "addr:unit": "Floor 10", "name": "Earthbound Brands", "office": "company", "opening_hours": "Mo-Fr 09:00-17:00"}}, {"type": "node", "id": 8789533320, "lat": 40.7388843, "lon": -73.9896494, "tags": {"addr:city": "New York", "addr:housenumber": "900", "addr:postcode": "10003", "addr:state": "NY", "addr:street": "Broadway", "addr:unit": "203", "name": "&Walsh", "office": "graphic_design", "website": "https://andwalsh.com"}}, {"type": "node", "id": 9140832070, "lat": 40.7420578, "lon": -73.9894927, "tags": {"amenity": "cafe", "check_date": "2023-03-19", "name": "Eataly", "payment:credit_cards": "yes", "payment:debit_cards": "yes", "payment:mastercard": "yes", "payment:visa": "yes"}}, {"type": "node", "id": 9140832074, "lat": 40.7395704, "lon": -73.9913186, "tags": {"check_date": "2024-08-07", "name": "MasterCard", "office": "company"}}, {"type": "node", "id": 9264093153, "lat": 40.7412149, "lon": -73.9913162, "tags": {"addr:city": "New York", "addr:housenumber": "16", "addr:postcode": "10010", "addr:state": "NY", "addr:street": "West 22nd Street", "consulting": "ESG", "name": "Malk Partners", "office": "consulting", "website": "https://malk.com/"}}, {"type": "node", "id": 9550708171, "lat": 40.7400868, "lon": -73.9909032, "tags": {"addr:housenumber": "160", "addr:postcode": "10010", "addr:street": "5th Avenue", "amenity": "cafe", "branch": "Flatiron District", "cuisine": "coffee_shop", "delivery": "no", "level": "0", "name": "Ralph's Coffee", "opening_hours": "Mo- Sa 07:30-18:00; Su 08:00-17:00", "phone": "+1 212-627-2040", "takeaway": "yes", "website": "https://www.ralphlauren.com/ralphs-coffee-locations-feat", "wheelchair": "yes"}}, {"type": "node", "id": 9882448221, "lat": 40.7430473, "lon": -73.9870659, "tags": {"addr:city": "New York", "addr:housenumber": "19", "addr:postcode": "10010", "addr:state": "NY", "addr:street": "East 26th Street", "amenity": "restaurant", "cuisine": "american", "email": "info@blackbarnrestaurant.com", "name": "BLACKBARN Restaurant", "opening_hours": "Mo-Sa 11:30-21:30; Su 11:00-15:00", "phone": "+1 212-265-5959", "website": "https://blackbarnrestaurant.com/"}}, {"type": "node", "id": 10179045297, "lat": 40.7410133, "lon": -73.9879858, "tags": {"barrier": "kerb", "kerb": "lowered", "tactile_paving": "yes"}}, {"type": "node", "id": 10179045314, "lat": 40.7410064, "lon": -73.9880035}, {"type": "node", "id": 10179045315, "lat": 40.7410051, "lon": -73.9880223}, {"type": "node", "id": 10179045316, "lat": 40.7414471, "lon": -73.9890365}, {"type": "node", "id": 10179045317, "lat": 40.7414242, "lon": -73.9890232}, {"type": "node", "id": 10179045318, "lat": 40.7414343, "lon": -73.9890344}, {"type": "node", "id": 10179045334, "lat": 40.7419324, "lon": -73.9889115}, {"type": "node", "id": 10179045355, "lat": 40.7420299, "lon": -73.9888805}, {"type": "node", "id": 10179045356, "lat": 40.7421768, "lon": -73.9888308}, {"type": "node", "id": 10179045357, "lat": 40.742337, "lon": -73.9887659}, {"type": "node", "id": 10179045358, "lat": 40.742542, "lon": -73.9886727}, {"type": "node", "id": 10179045359, "lat": 40.7427727, "lon": -73.9885603}, {"type": "node", "id": 10179045361, "lat": 40.7427208, "lon": -73.9885867, "tags": {"barrier": "kerb", "kerb": "lowered", "tactile_paving": "no"}}, {"type": "node", "id": 10179045362, "lat": 40.7432908, "lon": -73.9882028}, {"type": "node", "id": 10179045363, "lat": 40.7433516, "lon": -73.9881608}, {"type": "node", "id": 10179045364, "lat": 40.7433607, "lon": -73.9881503}, {"type": "node", "id": 10179045365, "lat": 40.7433676, "lon": -73.9881347}, {"type": "node", "id": 10179045366, "lat": 40.7433684, "lon": -73.9881153, "tags": {"barrier": "kerb", "kerb": "lowered", "tactile_paving": "no"}}, {"type": "node", "id": 10179045367, "lat": 40.7433642, "lon": -73.9880974}, {"type": "node", "id": 10179045372, "lat": 40.742794, "lon": -73.9867424}, {"type": "node", "id": 10179045373, "lat": 40.7427872, "lon": -73.9867274, "tags": {"barrier": "kerb", "kerb": "lowered", "tactile_paving": "yes"}}, {"type": "node", "id": 10179045374, "lat": 40.742779, "lon": -73.9867146}, {"type": "node", "id": 10179045375, "lat": 40.74276, "lon": -73.9867083}, {"type": "node", "id": 10179045376, "lat": 40.7427695, "lon": -73.9867075}, {"type": "node", "id": 10179045657, "lat": 40.7433572, "lon": -73.9881543, "tags": {"barrier": "kerb", "kerb": "lowered", "tactile_paving": "no"}}, {"type": "node", "id": 10179045675, "lat": 40.7422292, "lon": -73.9870917, "tags": {"barrier": "kerb", "kerb": "lowered", "tactile_paving": "yes"}}, {"type": "node", "id": 10179045679, "lat": 40.7421334, "lon": -73.9871614, "tags": {"barrier": "kerb", "kerb": "lowered", "tactile_paving": "yes"}}, {"type": "node", "id": 10179045690, "lat": 40.7415361, "lon": -73.9875963, "tags": {"barrier": "kerb", "kerb": "lowered", "tactile_paving": "yes"}}, {"type": "node", "id": 10179045691, "lat": 40.7416233, "lon": -73.9875329, "tags": {"barrier": "kerb", "kerb": "lowered", "tactile_paving": "yes"}}, {"type": "node", "id": 10689601294, "lat": 40.7395763, "lon": -73.9885295, "tags": {"addr:city": "New York", "addr:housenumber": "31", "addr:postcode": "10010", "addr:state": "NY", "addr:street": "East 21st Street", "amenity": "restaurant", "cuisine": "thai", "name": "NaNa Thai Street", "opening_hours": "Mo-Fr 11:00-22:00; Sa-Su 12:00-22:00", "website": "https://nanathaistreetnyc.com/"}}, {"type": "node", "id": 10696133542, "lat": 40.7400773, "lon": -73.989726, "tags": {"addr:city": "New York", "addr:housenumber": "921", "addr:postcode": "10003", "addr:state": "NY", "addr:street": "Broadway", "amenity": "cafe", "brand": "Le Pain Quotidien", "brand:wikidata": "Q2046903", "cuisine": "coffee_shop", "internet_access": "yes", "name": "Le Pain Quotidien", "opening_hours": "Mo-Fr 07:00-19:00; Sa-Su 08:00-19:00", "outdoor_seating": "yes", "phone": "+1-332-910-6833", "takeaway": "yes", "website": "https://www.lepainquotidien.com/us/en/locations/3002:%2021st_&_Broadway/921-Broadway"}}, {"type": "node", "id": 11078978388, "lat": 40.7392385, "lon": -73.9864787, "tags": {"amenity": "restaurant", "indoor_seating": "yes", "name": "Novita", "outdoor_seating": "yes"}}, {"type": "node", "id": 11085659419, "lat": 40.7395221, "lon": -73.9890649, "tags": {"amenity": "restaurant", "cuisine": "chinese", "delivery": "yes", "name": "Mala House", "opening_hours": "Mo-Su 11:00-22:00", "phone": "+1-646-386-7079", "takeaway": "yes", "website": "https://www.malahouse21.com"}}, {"type": "node", "id": 11225257185, "lat": 40.7397062, "lon": -73.9898385, "tags": {"addr:city": "New York", "addr:housenumber": "915", "addr:postcode": "10010", "addr:state": "NY", "addr:street": "Broadway", "addr:unit": "501", "description": "Amsive is a data-led digital marketing agency that enhances ROI through innovative customer acquisition, engagement, and communications solutions.", "name": "Amsive", "office": "advertising_agency", "opening_hours": "Mo-Fr 09:30-18:30; Sa-Su off", "phone": "+1-212-661-8969", "website": "https://www.amsive.com/"}}, {"type": "node", "id": 11687868832, "lat": 40.7432446, "lon": -73.9912163, "tags": {"amenity": "restaurant", "cuisine": "korean", "name": "Mista Oh", "phone": "+1-646-559-8858", "website": "https://www.mrmistaohnyc.com/"}}, {"type": "node", "id": 11754487749, "lat": 40.7419249, "lon": -73.9928293, "tags": {"addr:city": "New York", "addr:housenumber": "56", "addr:postcode": "10010", "addr:state": "NY", "addr:street": "West 22nd Street", "amenity": "restaurant", "cuisine": "chinese", "name": "Grandma\u2019s Home", "opening_hours": "Tu-Sa 17:00-21:30", "reservation": "yes", "website": "https://www.grandmashome.us", "website:menu": "https://www.grandmashome.us/menus", "website:reservation": "https://resy.com/cities/ny/grandmas-home"}}, {"type": "node", "id": 11990405945, "lat": 40.7438235, "lon": -73.9860292, "tags": {"addr:housenumber": "72", "addr:street": "Madison Avenue", "amenity": "restaurant", "contact:email": "pete@roccosteakhouse.com", "contact:facebook": "RoccoSteakhouse", "contact:instagram": "roccosteakhouse", "contact:twitter": "roccosteakhouse", "cuisine": "steak", "name": "Rocco Steakhouse", "opening_hours": "Mo-Th 12:00-22:30; Fr 12:00-23:00; Sa 11:00-23:00; Su 11:00-22:00", "phone": "+1 212-696-9660", "website": "https://roccosteakhouse.com/"}}, {"type": "node", "id": 12395382702, "lat": 40.7399067, "lon": -73.9899635, "tags": {"addr:housenumber": "10", "addr:postcode": "10010", "addr:street": "East 21st Street", "amenity": "bar", "contact:facebook": "societybilliards", "contact:instagram": "society_billiards", "cuisine": "american", "email": "info@societybilliards.com", "internet_access": "wlan", "name": "Society Billiards + Bar", "opening_hours": "Mo-Fr 13:00-03:00, Sa-Su 12:00-4:00", "website": "https://societybilliards.com", "website:menu": "https://societybilliards.com/our-menu/"}}, {"type": "node", "id": 12605006618, "lat": 40.7418043, "lon": -73.9858555, "tags": {"addr:housenumber": "55", "addr:postcode": "10010", "addr:street": "East 25th Street", "amenity": "school", "grades": "9-12", "mascot": "Blue Devils", "name": "Baruch College Campus High School"}}, {"type": "node", "id": 12618270838, "lat": 40.741977, "lon": -73.9921913, "tags": {"amenity": "school", "mascot": "Silver Hawks", "name": "Manhattan Village Academy"}}, {"type": "node", "id": 12918215842, "lat": 40.7407294, "lon": -73.9890957, "tags": {"amenity": "cafe", "check_date": "2025-06-15", "cuisine": "coffee_shop", "name": "Gumpton Coffee"}}, {"type": "way", "id": 22899286, "nodes": [8268734924, 8268699406, 10179045317, 10179045318, 10179045316, 8268699407, 246525111, 8268699408, 10179045334, 10179045355, 10179045356, 10179045357, 6210354194, 10179045358, 6243560187, 10179045361, 10179045359, 8268734921, 8268734923, 10179045362, 10179045363, 10179045657, 10179045364, 10179045365, 10179045366, 10179045367, 3019038940, 10179045372, 10179045373, 10179045374, 10179045376, 10179045375, 246525115, 10179045675, 10179045679, 10179045691, 10179045690, 8268734939, 10179045297, 10179045314, 10179045315, 8268734924], "tags": {"addr:city": "New York", "addr:housenumber": "11", "addr:postcode": "10010", "addr:state": "NY", "addr:street": "Madison Avenue", "leisure": "park", "name": "Madison Square Park", "name:en": "Madison Square Park", "name:etymology:wikidata": "Q11813", "name:ru": "\u041c\u044d\u0434\u0438\u0441\u043e\u043d-\u0441\u043a\u0432\u0435\u0440", "name:zh": "\u9ea6\u8fea\u900a\u5e7f\u573a\u516c\u56ed", "opening_hours": "06:00-23:00", "operator": "New York City Department of Parks and Recreation", "operator:short": "NYC Parks", "operator:type": "government", "operator:wikidata": "Q1894232", "phone": "+1-212-520-7600", "website": "https://madisonsquarepark.org/", "wikidata": "Q110000", "wikipedia": "en:Madison Square and Madison Square Park"}}]}