{"version": 0.6, "generator": "Overpass API 0.7.62.8 e802775f", "osm3s": {"timestamp_osm_base": "2025-12-01T03:50:55Z", "copyright": "The data included in this document is from www.openstreetmap.org. The data is made available under ODbL."}, "elements": [{"type": "node", "id": 357585174, "lat": 40.6948972, "lon": -73.9376355, "tags": {"amenity": "school", "ele": "23", "gnis:feature_id": "963673", "name": "Saint Johns Preparatory School", "wheelchair": "yes"}}, {"type": "node", "id": 2268954771, "lat": 40.6976119, "lon": -73.9361072, "tags": {"amenity": "cafe", "bar": "yes", "check_date": "2024-10-17", "check_date:diet:vegetarian": "2024-10-17", "cocktails": "yes", "diet:vegetarian": "yes", "drink:beer": "draught", "drink:coffee": "yes", "drink:liquor": "yes", "drink:wine": "yes", "indoor_seating": "yes", "internet_access": "yes", "name": "Skytown", "opening_hours": "Mo-Su 12:00-04:00", "outdoor_seating": "yes", "payment:debit_cards": "yes", "phone": "+1-347-435-3252", "website": "https://www.skytownbk.com", "wheelchair": "no"}}, {"type": "node", "id": 2269706631, "lat": 40.6978659, "lon": -73.9384574}, {"type": "node", "id": 2269706632, "lat": 40.6978854, "lon": -73.9382684}, {"type": "node", "id": 2269706633, "lat": 40.6976606, "lon": -73.9382125}, {"type": "node", "id": 2269706634, "lat": 40.6976411, "lon": -73.9384102}, {"type": "node", "id": 2568039644, "lat": 40.6973961, "lon": -73.9372725, "tags": {"name": "Chun Architect Engineer", "office": "architect", "phone": "+1-212-254-6801"}}, {"type": "node", "id": 2568045067, "lat": 40.699729, "lon": -73.9365606}, {"type": "node", "id": 2568045146, "lat": 40.6999029, "lon": -73.9364055}, {"type": "node", "id": 2568045151, "lat": 40.6999199, "lon": -73.9362337}, {"type": "node", "id": 2568576408, "lat": 40.697812, "lon": -73.936474, "tags": {"name": "Grace & Mercy Home Care", "office": "home_care", "phone": "+1-718-856-8313", "website": "https://graceandmercyhomecareservices.com"}}, {"type": "node", "id": 2568576411, "lat": 40.6973827, "lon": -73.9350298, "tags": {"amenity": "cafe", "check_date": "2024-11-26", "cuisine": "coffee_shop", "drink:coffee": "yes", "drink:espresso": "yes", "drink:tea": "yes", "name": "The Concrete Jungle", "opening_hours": "Mo-Fr 07:30-17:00; Sa-Su 08:30-17:00 \"cafe\"||Mo-Fr 07:30-17:00; Sa-Su 08:30-17:00 \"shop\"", "shop": "florist", "takeaway": "yes", "toilets": "yes", "walkup_window": "yes", "website": "https://www.theconcretejungle.nyc"}}, {"type": "node", "id": 2617560927, "lat": 40.6964075, "lon": -73.9344649}, {"type": "node", "id": 2617560930, "lat": 40.6964888, "lon": -73.934636}, {"type": "node", "id": 4316480089, "lat": 40.6970315, "lon": -73.9336968, "tags": {"amenity": "restaurant", "cuisine": "asian", "delivery": "yes", "diet:gluten_free": "yes", "diet:vegan": "yes", "drink:beer": "bottled", "drink:liquor": "no", "drink:sake": "yes", "drink:wine": "yes", "name": "Little Mo", "opening_hours": "Mo-Fr 12:00-23:00; Sa 11:00-23:00; Su 11:00-22:00", "phone": "+1-929-210-8100", "takeaway": "yes", "website": "https://www.littlemobk.nyc", "wheelchair": "yes", "wheelchair:description": "Entry through restaurant door only. Bathroom accessible, but with no handrails."}}, {"type": "node", "id": 5163777458, "lat": 40.6973367, "lon": -73.9347194, "tags": {"addr:housenumber": "12", "addr:street": "Jefferson Street", "amenity": "bar", "cocktails": "yes", "cuisine": "american", "drink:beer": "yes", "drink:liquor": "yes", "drink:wine": "yes", "happy_hours": "yes", "leisure": "dance", "name": "Bizarre Bar and Restaurant", "opening_hours": "Mo-We 16:00-04:00, Th 16:00-24:00, Fr-Su 11:00-04:00", "phone": "+1-347-915-2717", "sport": "trivia", "toilets": "yes", "wheelchair": "yes"}}, {"type": "node", "id": 5509332413, "lat": 40.6984541, "lon": -73.9380789}, {"type": "node", "id": 5509332414, "lat": 40.698361, "lon": -73.9379453}, {"type": "node", "id": 5509332415, "lat": 40.6982879, "lon": -73.9380104}, {"type": "node", "id": 5629122644, "lat": 40.6972994, "lon": -73.9360964, "tags": {"addr:housenumber": "918", "addr:postcode": "11206", "addr:street": "Broadway", "amenity": "restaurant", "bar": "yes", "check_date": "2023-07-15", "cocktails": "yes", "cuisine": "thai", "drink:beer": "yes", "drink:liquor": "yes", "drink:wine": "yes", "name": "Thai Me"}}, {"type": "node", "id": 5743935885, "lat": 40.6973254, "lon": -73.9350839, "tags": {"addr:housenumber": "9", "addr:postcode": "11206", "addr:street": "Jefferson Street", "amenity": "restaurant", "cocktails": "yes", "cuisine": "mexican", "delivery": "yes", "diet:vegetarian": "yes", "drink:beer": "yes", "drink:liquor": "yes", "happy_hours": "Mo-Fr 15:00-19:00", "name": "La Lupe Cantina", "opening_hours": "Mo 16:00-22:00; Tu, We, Su 12:00-22:00; Th-Sa 12:00-23:00", "outdoor_seating": "yes", "payment:cash": "yes", "payment:debit_cards": "yes", "phone": "+1-347-715-2455", "takeaway": "yes", "toilets": "yes", "toilets:access": "customers", "website": "https://lalupebk.com/", "wheelchair": "yes"}}, {"type": "node", "id": 5744312486, "lat": 40.6972098, "lon": -73.9353976, "tags": {"addr:housenumber": "941", "addr:postcode": "11206", "addr:street": "Broadway", "amenity": "restaurant", "atm": "yes", "cuisine": "latin_american;sandwich;american;italian", "delivery": "yes", "drink:beer": "yes", "drink:coffee": "yes", "name": "Sajhoma #3", "payment:cash": "yes", "phone": "+1-718-443-0243", "takeaway": "yes", "toilets": "yes", "toilets:access": "customers", "toilets:wheelchair": "yes", "wheelchair": "yes"}}, {"type": "node", "id": 5744312487, "lat": 40.6965969, "lon": -73.9349635, "tags": {"addr:housenumber": "4", "addr:street": "Stuyvesant Avenue", "amenity": "restaurant", "contact:email": "adam@norbertspizza.com", "contact:facebook": "https://www.facebook.com/norbertspizza", "contact:instagram": "https://www.instagram.com/norbertspizza", "contact:phone": "+1 718-574-3400", "contact:website": "https://www.norbertspizza.com", "delivery": "yes", "diet:vegan": "yes", "diet:vegetarian": "yes", "name": "Norbert's Pizza", "opening_hours": "Mo-Su 12:00-23:00", "payment:cash": "yes", "payment:debit_cards": "yes", "takeaway": "yes", "wheelchair": "no"}}, {"type": "node", "id": 5744320023, "lat": 40.698215, "lon": -73.9342007, "tags": {"addr:housenumber": "610", "addr:postcode": "11206", "addr:street": "Bushwick Avenue", "amenity": "bar", "cocktails": "yes", "drink:beer": "yes", "drink:liquor": "yes", "drink:wine": "yes", "happy_hours": "yes", "internet_access:wlan": "yes", "name": "Rebecca's", "opening_hours": "Mo-Su 16:00-04:00", "outdoor_seating": "street", "phone": "+1-347-240-9899", "toilets": "yes", "toilets:unisex": "yes", "website": "https://www.rebeccasbar.com"}}, {"type": "node", "id": 6190098843, "lat": 40.6978902, "lon": -73.9371547, "tags": {"amenity": "cafe", "name": "Caf\u00e9 Erzulie"}}, {"type": "node", "id": 6402697500, "lat": 40.6970422, "lon": -73.9336001, "tags": {"addr:city": "Brooklyn", "addr:housenumber": "1158", "addr:postcode": "11221", "addr:state": "NY", "addr:street": "Myrtle Avenue", "amenity": "cafe", "cuisine": "coffee_shop;american;breakfast;health_food", "diet:vegetarian": "yes", "drink:coffee": "yes", "drink:espresso": "yes", "drink:tea": "yes", "name": "Baby Skips", "opening_hours": "Mo-Fr 07:00-18:00; Sa-Su 08:00-18:00", "phone": "+1-929-210-8101", "website": "https://littleskips.nyc/baby-skips"}}, {"type": "node", "id": 6549970172, "lat": 40.696992, "lon": -73.9340514, "tags": {"amenity": "money_transfer", "atm": "yes", "description": "checks cashed, money orders, and Western Union money wires", "money_transfer": "western_union", "money_transfer:website": "https://location.westernunion.com/us/ny/brooklyn/dbcfa0e669f81975943b4fa2618cbdf7", "name": "CFSC", "office": "financial", "opening_hours": "Mo-Sa 07:15-22:30"}}, {"type": "node", "id": 6709932501, "lat": 40.6971695, "lon": -73.9346857, "tags": {"addr:city": "Brooklyn", "addr:housenumber": "1157", "addr:postcode": "11206", "addr:state": "NY", "addr:street": "Myrtle Avenue", "amenity": "bar", "name": "Boyfriend Coop", "opening_hours": "We,Th 08:00-24:00; Mo,Tu off, Fr,Sa 08:00-02:00, Su 08:00-24:00", "payment:credit_cards": "yes", "payment:debit_cards": "yes"}}, {"type": "node", "id": 6876382888, "lat": 40.6960646, "lon": -73.9333282, "tags": {"amenity": "bar", "atm": "yes", "cocktails": "yes", "drink:beer": "draught", "drink:liquor": "yes", "drink:wine": "yes", "happy_hours": "Mo-Fr 16:00-20:00", "name": "Bunton's World Famous", "outdoor_seating": "garden", "phone": "+1-718-758-4474", "website": "https://buntonsworldfamous.com"}}, {"type": "node", "id": 9203459391, "lat": 40.6991866, "lon": -73.9352931, "tags": {"addr:city": "Brooklyn", "addr:housenumber": "555", "addr:postcode": "11206", "addr:state": "NY", "addr:street": "Bushwick Avenue", "name": "RiseBoro Community Partnership", "office": "association", "opening_hours": "Mo-Fr 09:00-17:00", "phone": "+1-718-821-0254", "website": "https://riseboro.org/"}}, {"type": "node", "id": 9543939117, "lat": 40.6983917, "lon": -73.9370493, "tags": {"amenity": "cafe", "drink:coffee": "yes", "drink:espresso": "yes", "name": "Drip", "opening_hours": "Mo-Su 06:00-18:00"}}, {"type": "node", "id": 9588511533, "lat": 40.6972177, "lon": -73.9359506, "tags": {"addr:housenumber": "922", "addr:postcode": "11206", "addr:street": "Broadway", "name": "Caribbean Tax Service", "office": "tax_advisor", "phone": "+1-718-732-3335", "service:notary": "yes"}}, {"type": "node", "id": 9727109789, "lat": 40.6963816, "lon": -73.9346122}, {"type": "node", "id": 9727109790, "lat": 40.6964961, "lon": -73.9346149}, {"type": "node", "id": 9727109791, "lat": 40.6963973, "lon": -73.9344736}, {"type": "node", "id": 9752127120, "lat": 40.6960574, "lon": -73.9339061, "tags": {"addr:city": "Brooklyn", "addr:country": "US", "addr:housenumber": "994", "addr:postcode": "11222", "addr:state": "NY", "addr:street": "Broadway", "amenity": "restaurant", "contact:instagram": "buntopia_ny", "cuisine": "asian", "diet:vegan": "yes", "name": "Buntopia", "opening_hours": "Mo-Su 12:00-21:30; Tu off", "phone": "+1-347-435-3660", "takeaway": "yes", "website": "https://www.buntopiany.com/"}}, {"type": "node", "id": 9969023913, "lat": 40.697186, "lon": -73.9353553, "tags": {"addr:housenumber": "943", "addr:postcode": "11206", "addr:street": "Broadway", "amenity": "restaurant", "cuisine": "indian", "delivery": "yes", "diet:vegetarian": "yes", "name": "Indika House", "phone": "+1-718-484-3600", "website": "https://indikahouse.dine.online/"}}, {"type": "node", "id": 10002190858, "lat": 40.695805, "lon": -73.9334721, "tags": {"addr:housenumber": "1000", "addr:postcode": "11221", "addr:street": "Broadway", "amenity": "restaurant", "bar": "yes", "cinema": "yes", "cuisine": "thai", "drink:beer": "yes", "drink:wine": "yes", "name": "Mao Mao", "opening_hours": "Mo-Fr 17:00-23:30; Sa-Su 13:00-23:30", "phone": "+1-929-600-5965", "website": "https://maomaobrooklyn.com"}}, {"type": "node", "id": 10803109639, "lat": 40.6980545, "lon": -73.9374508, "tags": {"amenity": "restaurant", "cuisine": "mexican", "drink:beer": "yes", "name": "Mi Bella Cholulita", "opening_hours": "Mo-Su 11:00-22:00", "phone": "+1-718-684-6833", "website": "http://ordermibellacholulita.com"}}, {"type": "node", "id": 10820248516, "lat": 40.6974012, "lon": -73.9372276, "tags": {"amenity": "restaurant", "bar": "yes", "cuisine": "eclectic", "drink:beer": "yes", "drink:wine": "yes", "name": "Ostudio at Night", "opening_hours": "Mo-Sa 17:30-22:30", "website": "https://www.ostudiony.com"}}, {"type": "node", "id": 11329924992, "lat": 40.6976864, "lon": -73.9368386, "tags": {"amenity": "restaurant", "cuisine": "italian", "name": "Concrete"}}, {"type": "node", "id": 11631440523, "lat": 40.6953937, "lon": -73.9321876, "tags": {"amenity": "restaurant", "lgbtq": "welcome", "live_music": "yes", "name": "Cafe Ornithology", "opening_hours": "Mo-Sa 13:00-23:00", "phone": "+1-917-231-4766", "website": "https://www.ornithologyjazzclub.com/new-page"}}, {"type": "node", "id": 11943030114, "lat": 40.6977732, "lon": -73.9363978, "tags": {"amenity": "restaurant", "cuisine": "african", "name": "Native"}}, {"type": "node", "id": 12259503231, "lat": 40.6979898, "lon": -73.9367674, "tags": {"amenity": "cafe", "name": "High & Dry"}}, {"type": "node", "id": 12391569552, "lat": 40.6999309, "lon": -73.9361772}, {"type": "node", "id": 12391569553, "lat": 40.6993918, "lon": -73.9358399}, {"type": "node", "id": 12391569554, "lat": 40.6993124, "lon": -73.9357648}, {"type": "node", "id": 12391569555, "lat": 40.6992465, "lon": -73.9357032}, {"type": "node", "id": 12391569556, "lat": 40.69922, "lon": -73.9356905}, {"type": "node", "id": 12391569557, "lat": 40.6992048, "lon": -73.9357069}, {"type": "node", "id": 12391569558, "lat": 40.6992792, "lon": -73.9358235}, {"type": "node", "id": 12391569559, "lat": 40.6993181, "lon": -73.9358495}, {"type": "node", "id": 12391569560, "lat": 40.6993344, "lon": -73.9358644}, {"type": "node", "id": 12391569568, "lat": 40.6992405, "lon": -73.9357811}, {"type": "way", "id": 217658306, "nodes": [2269706631, 2269706632, 2269706633, 2269706634, 2269706631], "tags": {"leisure": "park"}}, {"type": "way", "id": 256057165, "nodes": [9727109789, 9727109791, 2617560927, 9727109790, 2617560930, 9727109789], "tags": {"ele": "21", "gnis:feature_id": "2377135", "leisure": "park", "name": "Beattie Triangle", "wikidata": "Q34805777"}}, {"type": "way", "id": 573724120, "nodes": [5509332413, 5509332414, 5509332415, 5509332413], "tags": {"leisure": "park"}}, {"type": "way", "id": 1339607330, "nodes": [2568045067, 2568045146, 2568045151, 12391569552, 12391569553, 12391569554, 12391569555, 12391569556, 12391569557, 12391569568, 12391569558, 12391569559, 12391569560, 2568045067], "tags": {"leisure": "park", "name": "Beaver Noll Park", "operator": "New York City Department of Parks and Recreation", "operator:short": "NYC Parks", "operator:type": "government", "operator:wikidata": "Q1894232"}}]}