{"version": 0.6, "generator": "Overpass API 0.7.62.8 e802775f", "osm3s": {"timestamp_osm_base": "2025-12-01T15:36:36Z", "copyright": "The data included in this document is from www.openstreetmap.org. The data is made available under ODbL."}, "elements": [{"type": "node", "id": 2453267235, "lat": 40.7023032, "lon": -73.8042924}, {"type": "node", "id": 2453267257, "lat": 40.7028815, "lon": -73.8024927}, {"type": "node", "id": 2453267377, "lat": 40.7046039, "lon": -73.8055093}, {"type": "node", "id": 2453267404, "lat": 40.7051131, "lon": -73.8036964}, {"type": "node", "id": 2550901690, "lat": 40.7080879, "lon": -73.8027719, "tags": {"addr:city": "Jamaica", "addr:housenumber": "159-03", "addr:postcode": "11432", "addr:state": "NY", "addr:street": "Hillside Avenue", "amenity": "cafe", "cuisine": "bubble_tea", "name": "Bubble Tea Garden", "opening_hours": "Mo-Fr 07:00-21:00; Sa,Su 10:00-20:00", "outdoor_seating": "no", "phone": "+1-718-487-4814", "website": "https://bubbleteagarden.info"}}, {"type": "node", "id": 2550918207, "lat": 40.7066132, "lon": -73.807193}, {"type": "node", "id": 2550918290, "lat": 40.7067353, "lon": -73.8067636}, {"type": "node", "id": 2550918308, "lat": 40.7067709, "lon": -73.8072704}, {"type": "node", "id": 2550918364, "lat": 40.7068916, "lon": -73.8068403}, {"type": "node", "id": 2550918366, "lat": 40.706893, "lon": -73.806841}, {"type": "node", "id": 2550920816, "lat": 40.7082648, "lon": -73.8043733}, {"type": "node", "id": 2550920842, "lat": 40.7082906, "lon": -73.8042821}, {"type": "node", "id": 2550920948, "lat": 40.7084028, "lon": -73.8038848}, {"type": "node", "id": 2550920998, "lat": 40.7084644, "lon": -73.8044707}, {"type": "node", "id": 2550921123, "lat": 40.7086023, "lon": -73.8039821}, {"type": "node", "id": 2677902452, "lat": 40.7104524, "lon": -73.8029014}, {"type": "node", "id": 2677902457, "lat": 40.7106984, "lon": -73.8032901}, {"type": "node", "id": 2841134605, "lat": 40.7083201, "lon": -73.8029104}, {"type": "node", "id": 2841134606, "lat": 40.7083223, "lon": -73.8029547}, {"type": "node", "id": 2841134607, "lat": 40.7083245, "lon": -73.8028728}, {"type": "node", "id": 2841134608, "lat": 40.7083318, "lon": -73.8029884}, {"type": "node", "id": 2841134609, "lat": 40.708334, "lon": -73.8028372}, {"type": "node", "id": 2841134610, "lat": 40.7083435, "lon": -73.8030172}, {"type": "node", "id": 2841134611, "lat": 40.7083544, "lon": -73.8030298}, {"type": "node", "id": 2841134612, "lat": 40.7083579, "lon": -73.8027998}, {"type": "node", "id": 2841134613, "lat": 40.7085133, "lon": -73.8031922}, {"type": "node", "id": 2841134614, "lat": 40.7086529, "lon": -73.8023735}, {"type": "node", "id": 2841134615, "lat": 40.708754, "lon": -73.8022316}, {"type": "node", "id": 2841134616, "lat": 40.7088017, "lon": -73.8021639}, {"type": "node", "id": 2841134617, "lat": 40.7088403, "lon": -73.8035788}, {"type": "node", "id": 2841134618, "lat": 40.7094783, "lon": -73.8017576}, {"type": "node", "id": 2841134619, "lat": 40.7088965, "lon": -73.8036946}, {"type": "node", "id": 2842640876, "lat": 40.7055304, "lon": -73.8017792, "tags": {"addr:city": "Jamaica", "addr:housenumber": "89-14", "addr:postcode": "11432", "addr:state": "NY", "addr:street": "Parsons Boulevard", "amenity": "restaurant", "branch": "Jamaica", "brand": "Dallas BBQ", "brand:wikidata": "Q122209839", "cuisine": "barbecue", "name": "Dallas BBQ", "opening_hours": "Su-Th 11:30-23:00; Fr,Sa 11:30-24:00; ", "outdoor_seating": "no", "phone": "+1-718-215-7300", "website": "https://www.dallasbbq.com/jamaica-queens"}}, {"type": "node", "id": 2844384094, "lat": 40.7065112, "lon": -73.803504}, {"type": "node", "id": 2844384095, "lat": 40.7065859, "lon": -73.8035729}, {"type": "node", "id": 2844384096, "lat": 40.7065948, "lon": -73.8035416}, {"type": "node", "id": 2844384097, "lat": 40.7066287, "lon": -73.8035923}, {"type": "node", "id": 2844384098, "lat": 40.7066379, "lon": -73.803558}, {"type": "node", "id": 2844384099, "lat": 40.7066678, "lon": -73.80295}, {"type": "node", "id": 2844384100, "lat": 40.7067134, "lon": -73.8035945}, {"type": "node", "id": 2844386701, "lat": 40.7068087, "lon": -73.8032702}, {"type": "node", "id": 2844386702, "lat": 40.7068666, "lon": -73.8032945}, {"type": "node", "id": 2844386703, "lat": 40.7068775, "lon": -73.8032569}, {"type": "node", "id": 2844386704, "lat": 40.7069157, "lon": -73.8030612}, {"type": "node", "id": 2844386705, "lat": 40.706924, "lon": -73.8030346}, {"type": "node", "id": 2844386707, "lat": 40.7071073, "lon": -73.8033587}, {"type": "node", "id": 2844386708, "lat": 40.7071643, "lon": -73.8031451}, {"type": "node", "id": 2845305590, "lat": 40.7070996, "lon": -73.8034246}, {"type": "node", "id": 2845305593, "lat": 40.7071742, "lon": -73.8031601}, {"type": "node", "id": 2845305594, "lat": 40.7073034, "lon": -73.8035192}, {"type": "node", "id": 2845305595, "lat": 40.7073722, "lon": -73.8032547}, {"type": "node", "id": 2851969682, "lat": 40.7097133, "lon": -73.802046}, {"type": "node", "id": 2851969695, "lat": 40.7100163, "lon": -73.8022521}, {"type": "node", "id": 2860639694, "lat": 40.7091357, "lon": -73.80422}, {"type": "node", "id": 2860639695, "lat": 40.709257, "lon": -73.8040907}, {"type": "node", "id": 2860639696, "lat": 40.7093584, "lon": -73.8040528}, {"type": "node", "id": 2860639698, "lat": 40.709399, "lon": -73.8041194}, {"type": "node", "id": 2860640108, "lat": 40.7098782, "lon": -73.8038776}, {"type": "node", "id": 2860640130, "lat": 40.7104707, "lon": -73.8035692}, {"type": "node", "id": 2860659016, "lat": 40.7100047, "lon": -73.8023416}, {"type": "node", "id": 2860659017, "lat": 40.7100072, "lon": -73.8023753}, {"type": "node", "id": 2860659019, "lat": 40.7100152, "lon": -73.8024191}, {"type": "node", "id": 2860659021, "lat": 40.7100436, "lon": -73.8024995}, {"type": "node", "id": 2860659022, "lat": 40.7100671, "lon": -73.8025409}, {"type": "node", "id": 2860659028, "lat": 40.7104051, "lon": -73.802834}, {"type": "node", "id": 2860659029, "lat": 40.7104199, "lon": -73.8028584}, {"type": "node", "id": 4964211688, "lat": 40.7078089, "lon": -73.801885, "tags": {"addr:city": "Jamaica", "addr:housenumber": "159-24", "addr:postcode": "11432", "addr:state": "NY", "addr:street": "Hillside Avenue", "air_conditioning": "yes", "amenity": "restaurant", "indoor_seating": "yes", "name": "Sybil's Restaurant & Bakery", "opening_hours": "10:00-21:00", "outdoor_seating": "no", "phone": "+1-718-297-2359", "website": "https://www.sybilsbakerynyc.com"}}, {"type": "node", "id": 4964238335, "lat": 40.7077605, "lon": -73.8021045, "tags": {"check_date:opening_hours": "2025-06-30", "name": "M.K. Ally Income Tax", "office": "accountant", "opening_hours:signed": "no"}}, {"type": "node", "id": 5667987941, "lat": 40.706412, "lon": -73.8068038, "tags": {"addr:housenumber": "148-60", "addr:street": "Hillside Avenue", "amenity": "restaurant", "atm": "yes", "check_date:opening_hours": "2022-07-20", "cuisine": "salvadorean", "indoor_seating": "yes", "name": "El Comal Pupuseria", "opening_hours:signed": "no", "outdoor_seating": "no", "phone": "+1 718-523-3353", "toilets": "yes"}}, {"type": "node", "id": 6019923852, "lat": 40.7070538, "lon": -73.8026071, "tags": {"addr:housenumber": "87-84", "addr:street": "Parsons Boulevard", "amenity": "restaurant", "cuisine": "spanish;chinese", "name": "Ni-Na-Ab"}}, {"type": "node", "id": 6149568591, "lat": 40.7082928, "lon": -73.8016769, "tags": {"addr:city": "Jamaica", "addr:housenumber": "160-07", "addr:postcode": "11432", "addr:state": "NY", "addr:street": "Hillside Ave", "brand": "Allstate", "brand:wikidata": "Q2645636", "fax": "+1-718-739-3009", "name": "Allstate Insurance", "office": "insurance", "opening_hours": "Mo-Fr 09:00-18:00; Sa 10:00-14:00", "operator": "Ren Jainarine", "phone": "+1-718-739-3300", "website": "https://agents.allstate.com/ren-jainarine-jamaica-ny.html"}}, {"type": "node", "id": 9815263218, "lat": 40.7078638, "lon": -73.8016502, "tags": {"addr:city": "Jamaica", "addr:housenumber": "160-02", "addr:postcode": "11432", "addr:state": "NY", "addr:street": "Hillside Avenue", "addr:unit": "2B", "level": "1", "name": "Naeem Tax Express", "office": "tax_advisor", "phone": "+1-917-816-6790"}}, {"type": "node", "id": 11532097725, "lat": 40.7050939, "lon": -73.8036372}, {"type": "node", "id": 11532097726, "lat": 40.7043051, "lon": -73.8032656}, {"type": "node", "id": 11532097727, "lat": 40.7028063, "lon": -73.802539}, {"type": "node", "id": 11532097731, "lat": 40.7023237, "lon": -73.8043784}, {"type": "node", "id": 11532097733, "lat": 40.7046415, "lon": -73.8054594}, {"type": "node", "id": 11630818698, "lat": 40.7103444, "lon": -73.8028337}, {"type": "node", "id": 11630818699, "lat": 40.7101149, "lon": -73.8025966}, {"type": "node", "id": 11630818700, "lat": 40.7102313, "lon": -73.8027329}, {"type": "node", "id": 11992854653, "lat": 40.7080605, "lon": -73.8021191, "tags": {"addr:city": "Jamaica", "addr:housenumber": "159-19", "addr:postcode": "11432", "addr:state": "NY", "addr:street": "Hillside Avenue", "level": "0", "name": "Transworld", "office": "tax_advisor", "phone": "+1-718-658-3088"}}, {"type": "node", "id": 11992859878, "lat": 40.7077363, "lon": -73.8032634, "tags": {"check_date:opening_hours": "2025-05-02", "name": "Tax Genius", "office": "tax_advisor", "opening_hours:signed": "no"}}, {"type": "node", "id": 11992867186, "lat": 40.708022, "lon": -73.80225, "tags": {"addr:city": "Jamaica", "addr:housenumber": "159-15", "addr:postcode": "11432", "addr:state": "NY", "addr:street": "Hillside Avenue", "level": "0", "name": "Ajah Law, P.C.", "office": "lawyer", "opening_hours": "Mo-Fr 09:00-17:00; Sa,Su off"}}, {"type": "node", "id": 11992867655, "lat": 40.7076756, "lon": -73.8035177, "tags": {"addr:housenumber": "153-27", "addr:street": "Hillside Avenue", "brand": "H&R Block", "brand:wikidata": "Q5627799", "name": "H&R Block", "office": "tax_advisor", "opening_hours": "Mo,We 10:00-18:00; Th 01:00-19:00; Fr 09:00-14:00; Sa 10:00-15:00"}}, {"type": "node", "id": 11992880375, "lat": 40.7077752, "lon": -73.8031123, "tags": {"addr:city": "Jamaica", "addr:housenumber": "153-37", "addr:postcode": "11432", "addr:state": "NY", "addr:street": "Hillside Avenue", "amenity": "restaurant", "cuisine": "peruvian;chicken", "indoor_seating": "yes", "name": "Riko", "opening_hours": "Mo-Su 11:00-22:45", "outdoor_seating": "no"}}, {"type": "node", "id": 12652645261, "lat": 40.7074435, "lon": -73.8030267, "tags": {"alt_name": "Liberty Tax Service", "brand": "Liberty Tax", "brand:wikidata": "Q6541978", "name": "Liberty Tax", "office": "tax_advisor", "opening_hours": "Mo-Fr 09:00-21:00; Sa 10:00-19:00; Su 11:00-17:00"}}, {"type": "node", "id": 12688570202, "lat": 40.7073234, "lon": -73.8049166, "tags": {"brand": "State Farm", "brand:wikidata": "Q2007336", "office": "insurance"}}, {"type": "node", "id": 12805012444, "lat": 40.7079529, "lon": -73.8021676, "tags": {"office": "insurance"}}, {"type": "node", "id": 13071621337, "lat": 40.7091836, "lon": -73.8048638, "tags": {"addr:city": "Jamaica", "addr:housenumber": "86-14", "addr:postcode": "11432", "addr:state": "NY", "addr:street": "Parsons Boulevard", "amenity": "restaurant", "cuisine": "diner", "diet:vegan": "yes", "diet:vegetarian": "only", "name": "Smile of the Beyond", "opening_hours": "We-Mo 08:30-15:30; Tu closed", "phone": "+1-718-206-4960", "website": "https://www.smileofthebeyond.com"}}, {"type": "node", "id": 13255101948, "lat": 40.7081517, "lon": -73.801853, "tags": {"name": "Raju Law", "office": "lawyer"}}, {"type": "way", "id": 237427159, "nodes": [2453267235, 11532097727, 2453267257, 11532097726, 11532097725, 2453267404, 11532097733, 2453267377, 11532097731, 2453267235], "tags": {"ele": "15", "gnis:feature_id": "954638", "leisure": "park", "name": "Rufus King Park", "operator": "New York City Department of Parks and Recreation", "operator:short": "NYC Parks", "operator:type": "government", "operator:wikidata": "Q1894232", "wikidata": "Q34859184"}}, {"type": "way", "id": 248287618, "nodes": [2550918290, 2550918207, 2550918308, 2550918366, 2550918364, 2550918290], "tags": {"addr:city": "Jamaica", "addr:housenumber": "148-55", "addr:postcode": "11435", "addr:state": "NY", "addr:street": "Hillside Avenue", "building": "office", "height": "3.8", "name": "Shaevitz & Shaevitz", "nycdoitt:bin": "4207410", "office": "lawyer", "phone": "+1-718-291-3400", "website": "https://shaevitzandshaevitz.com/"}}, {"type": "way", "id": 248288068, "nodes": [2550920816, 2550920998, 2550921123, 2550920948, 2550920842, 2550920816], "tags": {"addr:city": "Jamaica", "addr:housenumber": "150-91", "addr:postcode": "11432", "addr:state": "NY", "addr:street": "87th Road", "amenity": "school", "height": "13.5", "name": "The Young Women's Leadership School of Queens", "nycdoitt:bin": "4207510", "operator": "New York City Department of Education", "operator:short": "NYC Public Schools", "operator:type": "public", "operator:wikidata": "Q408230", "operator:wikipedia": "en:New York City Department of Education", "phone": "+1-718-281-7696", "website": "https://www.schools.nyc.gov/schoolportals/28/q896/default.htm", "wikidata": "Q7776819", "wikipedia": "en:The Young Women's Leadership School of Queens"}}, {"type": "way", "id": 279934478, "nodes": [2841134619, 2860639694, 2860639695, 2860639696, 2860639698, 2860640108, 2860640130, 2677902457, 2677902452, 2860659029, 2860659028, 11630818698, 11630818700, 11630818699, 2860659022, 2860659021, 2860659019, 2860659017, 2860659016, 2851969695, 2851969682, 2841134618, 2841134616, 2841134615, 2841134614, 2841134612, 2841134609, 2841134607, 2841134605, 2841134606, 2841134608, 2841134610, 2841134611, 2841134613, 2841134617, 2841134619], "tags": {"amenity": "school", "operator": "New York City Department of Education", "operator:short": "NYC Public Schools", "operator:type": "public", "operator:wikidata": "Q408230"}}, {"type": "way", "id": 280298935, "nodes": [2844384100, 2844384098, 2844384097, 2844384095, 2844384096, 2844384094, 2844384099, 2844386704, 2844386705, 2844386708, 2844386707, 2844386703, 2844386702, 2844386701, 2844384100], "tags": {"amenity": "school", "building": "school", "name": "P.S. 182 Samantha Smith"}}, {"type": "way", "id": 280413863, "nodes": [2845305594, 2845305595, 2845305593, 2845305590, 2845305594], "tags": {"amenity": "school", "leisure": "playground"}}]}