{"version": 0.6, "generator": "Overpass API 0.7.62.8 e802775f", "osm3s": {"timestamp_osm_base": "2025-12-01T03:56:57Z", "copyright": "The data included in this document is from www.openstreetmap.org. The data is made available under ODbL."}, "elements": [{"type": "node", "id": 2011781571, "lat": 40.799638, "lon": -73.9385346, "tags": {"addr:city": "New York", "addr:housenumber": "2179", "addr:postcode": "10035", "addr:state": "NY", "addr:street": "3rd Avenue", "amenity": "restaurant", "cuisine": "indian", "delivery": "yes", "name": "Polash", "outdoor_seating": "no", "payment:card": "yes", "payment:cash": "yes", "phone": "+1-212-410-0276", "smoking": "no", "takeaway": "yes"}}, {"type": "node", "id": 2259023769, "lat": 40.7998401, "lon": -73.9390412, "tags": {"addr:housenumber": "2180", "addr:street": "3rd Avenue", "amenity": "school", "name": "Hunter School of Social Work", "operator": "Hunter College"}}, {"type": "node", "id": 2339527550, "lat": 40.8012624, "lon": -73.9389475}, {"type": "node", "id": 2339527554, "lat": 40.8008259, "lon": -73.9386722}, {"type": "node", "id": 2339527557, "lat": 40.801061, "lon": -73.9384926}, {"type": "node", "id": 2339527561, "lat": 40.8010246, "lon": -73.939122}, {"type": "node", "id": 2714216773, "lat": 40.7988313, "lon": -73.9416629, "tags": {"addr:city": "New York", "addr:housenumber": "137", "addr:postcode": "10029", "addr:state": "NY", "addr:street": "East 116th Street", "amenity": "restaurant", "branch": "Harlem", "cocktails": "yes", "contact:email": "info@lachulanyc.com", "contact:facebook": "LaChulaNYC", "contact:instagram": "lachula_nyc", "cuisine": "mexican;tacos", "delivery": "yes", "drink:beer": "bottled", "name": "La Chula", "opening_hours": "Mo-Th, Su 12:00-22:00; Fr-Sa 12:00-23:00", "phone": "+1-646-590-3975", "takeaway": "yes", "website": "https://www.lachulanyc.com/"}}, {"type": "node", "id": 2714216811, "lat": 40.8001661, "lon": -73.9414844, "tags": {"addr:housenumber": "114", "addr:postcode": "10035", "addr:street": "East 118th Street", "amenity": "school", "ele": "7", "gnis:feature_id": "2079028", "name": "Saint Paul's School"}}, {"type": "node", "id": 2762395091, "lat": 40.7956148, "lon": -73.9441535}, {"type": "node", "id": 2762395186, "lat": 40.7957217, "lon": -73.9440756}, {"type": "node", "id": 2762395220, "lat": 40.7958265, "lon": -73.9443244}, {"type": "node", "id": 2762395237, "lat": 40.7959048, "lon": -73.9448422}, {"type": "node", "id": 2762395242, "lat": 40.7959063, "lon": -73.9445131}, {"type": "node", "id": 2762395245, "lat": 40.7959105, "lon": -73.9448381}, {"type": "node", "id": 2762395262, "lat": 40.7959578, "lon": -73.9442286}, {"type": "node", "id": 2762395267, "lat": 40.7959897, "lon": -73.9450263}, {"type": "node", "id": 2762395270, "lat": 40.7960109, "lon": -73.9447617}, {"type": "node", "id": 2762395272, "lat": 40.7960295, "lon": -73.9449301}, {"type": "node", "id": 2762395279, "lat": 40.7960374, "lon": -73.9444176}, {"type": "node", "id": 2762395284, "lat": 40.7960511, "lon": -73.9449816}, {"type": "node", "id": 2762395299, "lat": 40.7960962, "lon": -73.9446777}, {"type": "node", "id": 2762395304, "lat": 40.7961032, "lon": -73.9446944}, {"type": "node", "id": 2762395310, "lat": 40.7961089, "lon": -73.9446684}, {"type": "node", "id": 2762395316, "lat": 40.7961159, "lon": -73.9446851}, {"type": "node", "id": 2762395320, "lat": 40.7961302, "lon": -73.9446186}, {"type": "node", "id": 2762395323, "lat": 40.7961483, "lon": -73.9446615}, {"type": "node", "id": 2762395360, "lat": 40.7962839, "lon": -73.9444468}, {"type": "node", "id": 2762395365, "lat": 40.7963031, "lon": -73.9444926}, {"type": "node", "id": 2762395368, "lat": 40.7963494, "lon": -73.9443991}, {"type": "node", "id": 2762395370, "lat": 40.7963812, "lon": -73.9446737}, {"type": "node", "id": 2762395373, "lat": 40.7964015, "lon": -73.944722}, {"type": "node", "id": 2762395377, "lat": 40.7964657, "lon": -73.9446752}, {"type": "node", "id": 2765399915, "lat": 40.7984191, "lon": -73.9415796, "tags": {"addr:housenumber": "150", "addr:postcode": "10029", "addr:street": "East 116th Street", "amenity": "restaurant", "cuisine": "pizza", "delivery": "yes", "level": "0", "name": "Sam\u2019s Famous Pizza", "opening_hours": "11:00-20:00", "phone": "+1-212-348-9437", "takeaway": "yes", "website": "http://www.samsfamouspizza.com"}}, {"type": "node", "id": 2765520457, "lat": 40.800513, "lon": -73.9390043}, {"type": "node", "id": 2765520477, "lat": 40.8007129, "lon": -73.9388566}, {"type": "node", "id": 2765520499, "lat": 40.8008622, "lon": -73.9398302}, {"type": "node", "id": 2765520544, "lat": 40.8010625, "lon": -73.9396822}, {"type": "node", "id": 2887830058, "lat": 40.8003795, "lon": -73.9395338}, {"type": "node", "id": 2887830059, "lat": 40.8005901, "lon": -73.9400313}, {"type": "node", "id": 2887830061, "lat": 40.8008151, "lon": -73.939865}, {"type": "node", "id": 3967356277, "lat": 40.8003452, "lon": -73.9394528}, {"type": "node", "id": 3967356278, "lat": 40.800187, "lon": -73.9390793}, {"type": "node", "id": 3967356279, "lat": 40.8004474, "lon": -73.9388493}, {"type": "node", "id": 3967356281, "lat": 40.8004147, "lon": -73.9388735}, {"type": "node", "id": 4971119410, "lat": 40.7976941, "lon": -73.9390545, "tags": {"addr:city": "New York", "addr:housenumber": "219", "addr:postcode": "10029", "addr:state": "NY", "addr:street": "East 116th Street", "amenity": "restaurant", "cocktails": "yes", "contact:email": "hotjalapeno116@gmail.com", "contact:facebook": "HotJalapeno116", "contact:instagram": "hotjalapeno116", "cuisine": "mexican", "delivery": "yes", "delivery:website": "https://tmt.spotapps.co/ordering-menu?spotid=93716", "drink:beer": "draught; bottled", "drink:wine": "served", "name": "Hot Jalape\u00f1o Mexican Restaurant", "opening_hours": "Tu-Th 12:00-22:00; Fr, Sa 12:00-23:00; Su 11:00-22:00", "phone": "+1 646-351-6895", "takeaway": "yes", "website": "https://hotjalapenonyc.com"}}, {"type": "node", "id": 4971119416, "lat": 40.797353, "lon": -73.938215, "tags": {"addr:city": "New York", "addr:housenumber": "245", "addr:postcode": "10035", "addr:state": "NY", "addr:street": "East 116th Street", "name": "MEJ Professional Business Service", "office": "yes"}}, {"type": "node", "id": 5262945853, "lat": 40.7992058, "lon": -73.9426033, "tags": {"addr:housenumber": "105", "addr:street": "East 116th Street", "name": "Council Member Diana Ayala District 8", "office": "political_party"}}, {"type": "node", "id": 5269095866, "lat": 40.7971288, "lon": -73.9384911, "tags": {"addr:housenumber": "242", "addr:street": "East 116th Street", "amenity": "cafe", "name": "Capy"}}, {"type": "node", "id": 5782504258, "lat": 40.799484, "lon": -73.9398336, "tags": {"addr:housenumber": "166", "addr:street": "East 118th Street", "amenity": "restaurant", "cuisine": "mexican", "name": "Pipo's", "phone": "+1-212-828-2382", "toilets": "yes", "website": "http://www.piposrestaurant.com"}}, {"type": "node", "id": 5785190188, "lat": 40.8009657, "lon": -73.9385654}, {"type": "node", "id": 7658594646, "lat": 40.7987711, "lon": -73.9423685, "tags": {"addr:housenumber": "114", "amenity": "restaurant", "name": "Il Gnoccochi"}}, {"type": "node", "id": 8100692821, "lat": 40.8012107, "lon": -73.9388293, "tags": {"barrier": "gate"}}, {"type": "node", "id": 9543870917, "lat": 40.7981041, "lon": -73.9410798, "tags": {"amenity": "restaurant", "name": "Cuchifritos"}}, {"type": "node", "id": 10568614731, "lat": 40.8004268, "lon": -73.9389022}, {"type": "node", "id": 10568682746, "lat": 40.8010308, "lon": -73.9391175}, {"type": "node", "id": 10896514290, "lat": 40.7973466, "lon": -73.939002, "tags": {"addr:housenumber": "228", "addr:postcode": "10029", "addr:street": "East 116th Street", "amenity": "restaurant", "branch": "116th Street", "contact:email": "quesadillasonamaty@gmail.com", "contact:facebook": "QuesadillasDonaMaty", "contact:instagram": "quesadillasdonamaty", "delivery": "yes", "level": "0", "name": "Quesadillas Do\u00f1a Maty", "opening_hours": "Mo-Su 10:00-04:00", "outdoor_seating": "yes", "payment:american_express": "yes", "payment:cash": "yes", "payment:discover_card": "yes", "payment:mastercard": "yes", "payment:visa": "yes", "phone": "+1 917-261-4278", "takeaway": "yes", "website": "https://www.quesadillasdonamaty.com"}}, {"type": "node", "id": 11097148480, "lat": 40.7970232, "lon": -73.9382609, "tags": {"addr:housenumber": "248", "addr:street": "East 116th Street", "amenity": "restaurant", "cuisine": "mexican", "delivery": "yes", "level": "0", "name": "El Nuevo Caridad", "phone": "+1 212-860-8187", "takeaway": "yes", "toilets": "no", "wheelchair": "yes"}}, {"type": "node", "id": 11949145282, "lat": 40.795647, "lon": -73.94413}, {"type": "node", "id": 11949145283, "lat": 40.7956876, "lon": -73.9441004}, {"type": "node", "id": 13207644501, "lat": 40.8012553, "lon": -73.9421334, "tags": {"addr:housenumber": "1694", "addr:postcode": "10035", "addr:street": "Park Avenue", "amenity": "restaurant", "name": "The Good Good", "outdoor_seating": "no", "phone": "+1-917-409-0103", "website": "https://www.thegoodgoodnyc.com/", "website:menu": "https://www.thegoodgoodnyc.com/menu"}}, {"type": "node", "id": 13264230314, "lat": 40.7994831, "lon": -73.9398653, "tags": {"addr:housenumber": "166", "addr:street": "East 118 street", "amenity": "restaurant", "description": "Thai Restaurant", "name": "Thai Super", "opening_hours": "Mo-Su 12:00-22:00", "phone": "+1-646-559-1339", "website": "https://thaisupernyc.com/"}}, {"type": "way", "id": 225134049, "nodes": [2339527557, 5785190188, 2339527554, 2339527561, 10568682746, 2339527550, 8100692821, 2339527557], "tags": {"leisure": "park", "name": "Harlem Art Park", "source": "http://www.nycgovparks.org/parks/harlemartpark/map", "wikidata": "Q49497993"}}, {"type": "way", "id": 271281551, "nodes": [2762395360, 2762395365, 2762395320, 2762395323, 2762395316, 2762395310, 2762395299, 2762395304, 2762395270, 2762395242, 2762395279, 2762395262, 2762395220, 2762395186, 11949145283, 11949145282, 2762395091, 2762395237, 2762395245, 2762395267, 2762395284, 2762395272, 2762395370, 2762395373, 2762395377, 2762395368, 2762395360], "tags": {"addr:housenumber": "141", "addr:postcode": "10029", "addr:street": "East 111th Street", "amenity": "school", "building": "yes", "ele": "5", "gnis:feature_id": "954236", "height": "27.1", "name": "Public School 101", "nycdoitt:bin": "1081346"}}, {"type": "way", "id": 1133550713, "nodes": [2765520544, 2765520499, 2887830061, 2887830059, 2887830058, 3967356277, 3967356278, 10568614731, 3967356281, 3967356279, 2765520457, 2765520477, 2765520544], "tags": {"addr:city": "New York", "addr:housenumber": "160", "addr:postcode": "10035", "addr:state": "NY", "addr:street": "East 120th Street", "alt_name": "Samuel Stern", "amenity": "school", "fax": "+1-212-860-6070", "grades": "PK;0-8;SE", "name": "Public School 007", "operator": "New York City Department of Education", "operator:short": "NYC Public Schools", "operator:type": "public", "operator:wikidata": "Q408230", "phone": "+1-212-860-5827", "ref": "M007", "short_name": "P.S. 007", "website": "https://www.schools.nyc.gov/schools/M007"}}]}