{"version": 0.6, "generator": "Overpass API 0.7.62.8 e802775f", "osm3s": {"timestamp_osm_base": "2025-12-01T16:48:26Z", "copyright": "The data included in this document is from www.openstreetmap.org. The data is made available under ODbL."}, "elements": [{"type": "node", "id": 247403983, "lat": 40.7301395, "lon": -74.006704}, {"type": "node", "id": 357580682, "lat": 40.7278799, "lon": -74.0040284, "tags": {"amenity": "school", "ele": "6", "gnis:feature_id": "961786", "name": "Public School 621"}}, {"type": "node", "id": 357650427, "lat": 40.7298139, "lon": -74.0019975}, {"type": "node", "id": 357650436, "lat": 40.7286448, "lon": -74.0021947}, {"type": "node", "id": 804382882, "lat": 40.7300158, "lon": -74.0054732}, {"type": "node", "id": 931799207, "lat": 40.7305467, "lon": -74.0020629, "tags": {"addr:city": "New York", "addr:housenumber": "7", "addr:postcode": "10014", "addr:state": "NY", "addr:street": "Carmine Street", "amenity": "restaurant", "cuisine": "pizza", "name": "Joe's Pizza", "opening_hours": "Mo-Th, Su 10:00-04:00; Fr, Sa 10:00-05:00", "phone": "+1 212-366-1182", "website": "https://www.joespizzanyc.com/", "wikidata": "Q20979290", "wikipedia": "en:Joe's Pizza"}}, {"type": "node", "id": 1825739830, "lat": 40.7297052, "lon": -74.0048523, "tags": {"addr:city": "New York", "addr:country": "US", "addr:housenumber": "1", "addr:postcode": "10014", "addr:state": "NY", "addr:street": "7th Avenue South", "amenity": "restaurant", "name": "Ayza Wine & Chocolate Bar", "opening_hours": "Mo-Fr 11:30-15:00; Mo-We 17:00-24:00; Th-Sa 17:00-01:00; Su 17:00-23:00; Sa-Su 11:00-15:30", "website": "http://www.ayzanyc.com/west-village/"}}, {"type": "node", "id": 1825739861, "lat": 40.730184, "lon": -74.0025384, "tags": {"addr:city": "New York", "addr:country": "US", "addr:housenumber": "232", "addr:postcode": "10014", "addr:state": "NY", "addr:street": "Bleecker Street", "amenity": "restaurant", "cuisine": "italian", "name": "Trattoria Spaghetto", "opening_hours": "Su-Th 12:00-24:00; Fr-Sa 12:00-00:30", "wheelchair": "limited"}}, {"type": "node", "id": 1825739875, "lat": 40.7300038, "lon": -74.0021494}, {"type": "node", "id": 1825739878, "lat": 40.730016, "lon": -74.0022078}, {"type": "node", "id": 1825739886, "lat": 40.7302765, "lon": -74.0023622}, {"type": "node", "id": 1825739889, "lat": 40.7302819, "lon": -74.0023648}, {"type": "node", "id": 1825739892, "lat": 40.7302871, "lon": -74.0023664}, {"type": "node", "id": 1825739895, "lat": 40.7302914, "lon": -74.0023666}, {"type": "node", "id": 1825739898, "lat": 40.7302949, "lon": -74.0023659}, {"type": "node", "id": 1825739901, "lat": 40.7302977, "lon": -74.0023643}, {"type": "node", "id": 1825739904, "lat": 40.7303008, "lon": -74.0023606}, {"type": "node", "id": 1825739907, "lat": 40.7303041, "lon": -74.0023544}, {"type": "node", "id": 1825739910, "lat": 40.7303074, "lon": -74.0023459}, {"type": "node", "id": 1825739912, "lat": 40.730436, "lon": -74.0019092}, {"type": "node", "id": 1825739914, "lat": 40.7304392, "lon": -74.0019086}, {"type": "node", "id": 1825739916, "lat": 40.7304412, "lon": -74.0019087}, {"type": "node", "id": 1825739918, "lat": 40.7304428, "lon": -74.001924}, {"type": "node", "id": 1825739929, "lat": 40.7304445, "lon": -74.001917}, {"type": "node", "id": 1825739936, "lat": 40.7304445, "lon": -74.0019106}, {"type": "node", "id": 1825739939, "lat": 40.7304451, "lon": -74.0019137}, {"type": "node", "id": 1981955796, "lat": 40.7295002, "lon": -74.0061061, "tags": {"barrier": "gate"}}, {"type": "node", "id": 1981955802, "lat": 40.7300848, "lon": -74.0061595, "tags": {"barrier": "gate"}}, {"type": "node", "id": 1981955821, "lat": 40.7295729, "lon": -74.0068017}, {"type": "node", "id": 1981955825, "lat": 40.7299561, "lon": -74.0058039}, {"type": "node", "id": 1981955828, "lat": 40.7294781, "lon": -74.005888}, {"type": "node", "id": 1981955836, "lat": 40.7295435, "lon": -74.0065204, "tags": {"barrier": "gate"}}, {"type": "node", "id": 1981955856, "lat": 40.7300329, "lon": -74.0054091}, {"type": "node", "id": 1981955858, "lat": 40.7300241, "lon": -74.0055558, "tags": {"barrier": "gate"}}, {"type": "node", "id": 1981955874, "lat": 40.7299112, "lon": -74.0054326}, {"type": "node", "id": 2014619565, "lat": 40.7290902, "lon": -74.0034181, "tags": {"addr:housenumber": "14", "addr:postcode": "10014", "addr:street": "Bedford Street", "amenity": "restaurant", "cuisine": "pizza", "name": "Briciola Pizza Bar", "phone": "+1-646-630-8317"}}, {"type": "node", "id": 2073575372, "lat": 40.7294951, "lon": -74.0060525}, {"type": "node", "id": 2073575400, "lat": 40.73008, "lon": -74.006112}, {"type": "node", "id": 2477336967, "lat": 40.7262443, "lon": -74.002053, "tags": {"addr:housenumber": "180", "addr:street": "Prince Street", "amenity": "restaurant", "cuisine": "french", "name": "Raoul's", "wheelchair": "no"}}, {"type": "node", "id": 2477560535, "lat": 40.7268225, "lon": -74.0031547}, {"type": "node", "id": 2477560540, "lat": 40.7265342, "lon": -74.0034641}, {"type": "node", "id": 2477560541, "lat": 40.7298157, "lon": -74.0017203}, {"type": "node", "id": 2477560555, "lat": 40.7295732, "lon": -74.0021648, "tags": {"barrier": "kerb", "kerb": "lowered", "tactile_paving": "yes"}}, {"type": "node", "id": 2477560564, "lat": 40.7300219, "lon": -74.0018774}, {"type": "node", "id": 2477560566, "lat": 40.7297487, "lon": -74.0019563}, {"type": "node", "id": 2477560571, "lat": 40.7268663, "lon": -74.0033164}, {"type": "node", "id": 2522432385, "lat": 40.7289291, "lon": -74.0023504}, {"type": "node", "id": 2522432386, "lat": 40.7287964, "lon": -74.0020662}, {"type": "node", "id": 2522432388, "lat": 40.7284946, "lon": -74.0018833}, {"type": "node", "id": 2522432389, "lat": 40.7282289, "lon": -74.0021063}, {"type": "node", "id": 2522432390, "lat": 40.7284715, "lon": -74.0026017}, {"type": "node", "id": 2522442885, "lat": 40.7298947, "lon": -74.0026094}, {"type": "node", "id": 2522442886, "lat": 40.729953, "lon": -74.0024068}, {"type": "node", "id": 2522442887, "lat": 40.7298, "lon": -74.0022904}, {"type": "node", "id": 2522442888, "lat": 40.7297612, "lon": -74.0025399}, {"type": "node", "id": 2522452461, "lat": 40.7279023, "lon": -74.0070286, "tags": {"addr:city": "New York", "addr:housenumber": "88", "addr:postcode": "10014", "addr:state": "NY", "addr:street": "King Street", "amenity": "restaurant", "cuisine": "mediterranean", "name": "Port Sa'id", "opening_hours": "Mo-Tu 17:00-22:00; We-Th 17:00-23:00; Fr 17:00-25:00; Sa 11:00-15:00, 17:00-25:00", "phone": "+1-212-256-0841", "website": "https://www.portsaidnyc.com/"}}, {"type": "node", "id": 2550012207, "lat": 40.7281515, "lon": -74.0018859, "tags": {"addr:housenumber": "146", "addr:postcode": "10012", "addr:street": "West Houston Street", "amenity": "bar", "name": "Bar Veloce", "website": "https://winebarveloce.com/greenwich-village-new-york-location/"}}, {"type": "node", "id": 2550012966, "lat": 40.7288832, "lon": -74.0024384}, {"type": "node", "id": 2550013129, "lat": 40.7291372, "lon": -74.0019705}, {"type": "node", "id": 2550013143, "lat": 40.7291547, "lon": -74.0019556}, {"type": "node", "id": 2550013159, "lat": 40.7291776, "lon": -74.0020526}, {"type": "node", "id": 2550013180, "lat": 40.7292116, "lon": -74.0021216}, {"type": "node", "id": 2550013193, "lat": 40.7293554, "lon": -74.0017849}, {"type": "node", "id": 2550013199, "lat": 40.7294297, "lon": -74.001936}, {"type": "node", "id": 2551316458, "lat": 40.7261948, "lon": -74.0054884, "tags": {"addr:city": "New York", "addr:country": "US", "addr:housenumber": "150", "addr:postcode": "10013", "addr:state": "NY", "addr:street": "Varick Street", "contact:bluesky": "adafruit.com", "contact:mastodon": "@adafruit@fosstodon.org", "image": "File:New Adafruit office - moving in (8089978082).jpg", "logo": "File:Adafruit logo.svg", "name": "Adafruit Industries", "office": "company", "operator:type": "private", "short_name": "Adafruit", "website": "https://www.adafruit.com/", "wikidata": "Q19599368", "wikimedia_commons": "Category:Adafruit Industries", "wikipedia": "en:Adafruit Industries"}}, {"type": "node", "id": 2562449499, "lat": 40.7292441, "lon": -74.0037022, "tags": {"addr:housenumber": "29", "addr:postcode": "10014", "addr:street": "Bedford Street", "amenity": "cafe", "cocktails": "yes", "cuisine": "coffe_shop;breakfast;american", "drink:beer": "yes", "drink:coffee": "yes", "drink:espresso": "yes", "drink:wine": "yes", "name": "Daily Provisions", "opening_hours": "Mo-Su 07:00-21:00", "phone": "+1-646-747-8614", "website": "https://www.dailyprovisionsnyc.com"}}, {"type": "node", "id": 2562449527, "lat": 40.7292006, "lon": -74.0038916, "tags": {"addr:housenumber": "34", "addr:postcode": "10014", "addr:street": "Downing Street", "amenity": "restaurant", "cuisine": "sushi", "fixme": "temporarily closed, survey for reopening & info", "name": "Ueki", "opening_hours": "closed", "phone": "+1-212-691-0404", "website": "https://www.uekisushi.com/"}}, {"type": "node", "id": 2562449550, "lat": 40.7293143, "lon": -74.0039637, "tags": {"addr:housenumber": "39", "addr:postcode": "10014", "addr:street": "Downing Street", "amenity": "restaurant", "bar": "yes", "cocktails": "yes", "cuisine": "seafood", "drink:beer": "draught", "drink:liquor": "yes", "drink:wine": "yes", "name": "Ama on Downing"}}, {"type": "node", "id": 2562449987, "lat": 40.7279824, "lon": -74.0055903}, {"type": "node", "id": 2562450038, "lat": 40.7281189, "lon": -74.0070277}, {"type": "node", "id": 2562450076, "lat": 40.7285289, "lon": -74.0055006}, {"type": "node", "id": 2562450091, "lat": 40.7286305, "lon": -74.0046387}, {"type": "node", "id": 2562450095, "lat": 40.7286476, "lon": -74.0048162}, {"type": "node", "id": 2562450100, "lat": 40.7286654, "lon": -74.006938}, {"type": "node", "id": 2562450109, "lat": 40.7287161, "lon": -74.004622}, {"type": "node", "id": 2562450110, "lat": 40.7287165, "lon": -74.004631}, {"type": "node", "id": 2562450117, "lat": 40.7287547, "lon": -74.0048009}, {"type": "node", "id": 2562450120, "lat": 40.7287624, "lon": -74.0048945}, {"type": "node", "id": 2562450123, "lat": 40.728775, "lon": -74.0048927}, {"type": "node", "id": 2562450125, "lat": 40.7287832, "lon": -74.0047968}, {"type": "node", "id": 2562450132, "lat": 40.7288024, "lon": -74.0046143}, {"type": "node", "id": 2562450150, "lat": 40.728855, "lon": -74.0046404}, {"type": "node", "id": 2562450159, "lat": 40.7288779, "lon": -74.0049448}, {"type": "node", "id": 2562450168, "lat": 40.7289038, "lon": -74.0048631}, {"type": "node", "id": 2562450191, "lat": 40.7289566, "lon": -74.0046959}, {"type": "node", "id": 2562450556, "lat": 40.7277301, "lon": -74.0028571, "tags": {"addr:housenumber": "5", "addr:postcode": "10014", "addr:street": "King Street", "amenity": "restaurant", "name": "Charley Bird"}}, {"type": "node", "id": 2562450557, "lat": 40.7279065, "lon": -74.0023777, "tags": {"addr:housenumber": "51", "addr:postcode": "10014", "addr:street": "Mac Dougal Street", "amenity": "post_box", "name": "Something Special", "office": "notary"}}, {"type": "node", "id": 2562450616, "lat": 40.7278816, "lon": -74.0026257}, {"type": "node", "id": 2562450620, "lat": 40.7279032, "lon": -74.0028464}, {"type": "node", "id": 2562450625, "lat": 40.7280177, "lon": -74.0024992}, {"type": "node", "id": 2562450626, "lat": 40.7281305, "lon": -74.0027518}, {"type": "node", "id": 2562454103, "lat": 40.7306001, "lon": -74.0025218, "tags": {"addr:housenumber": "235", "addr:postcode": "10014", "addr:street": "Bleecker Street", "amenity": "restaurant", "name": "Wolfnights - the gourmet wrap"}}, {"type": "node", "id": 2562454139, "lat": 40.7298428, "lon": -74.0036369, "tags": {"addr:housenumber": "52 A", "addr:postcode": "10014", "addr:street": "Carmine Street", "amenity": "bar", "name": "Carmine Street Beers", "opening_hours": "Mo-Sa 11:30-22:00; Su 12:00-20:00", "phone": "+12126332337"}}, {"type": "node", "id": 2562454320, "lat": 40.7296796, "lon": -74.0027866}, {"type": "node", "id": 2562454354, "lat": 40.7298081, "lon": -74.0023934}, {"type": "node", "id": 2562454369, "lat": 40.729863, "lon": -74.0028981}, {"type": "node", "id": 2562454373, "lat": 40.729919, "lon": -74.0028283}, {"type": "node", "id": 2562454377, "lat": 40.7299031, "lon": -74.0029228}, {"type": "node", "id": 2562454395, "lat": 40.7299757, "lon": -74.0026554}, {"type": "node", "id": 2562454396, "lat": 40.7299601, "lon": -74.0029564}, {"type": "node", "id": 2562454399, "lat": 40.7299617, "lon": -74.0026477}, {"type": "node", "id": 2562454407, "lat": 40.7299863, "lon": -74.0028683}, {"type": "node", "id": 2562454429, "lat": 40.7300397, "lon": -74.0030032}, {"type": "node", "id": 2562454436, "lat": 40.7300549, "lon": -74.0030121}, {"type": "node", "id": 2562454440, "lat": 40.7300691, "lon": -74.0029158}, {"type": "node", "id": 2562454444, "lat": 40.7300783, "lon": -74.002921}, {"type": "node", "id": 2705023058, "lat": 40.7276924, "lon": -74.0022708, "tags": {"addr:city": "New York", "addr:housenumber": "60", "addr:street": "MacDougal Street", "amenity": "school", "name": "Cooke Center Academy"}}, {"type": "node", "id": 2705025715, "lat": 40.7281274, "lon": -74.001839, "tags": {"addr:city": "New York", "addr:housenumber": "146", "addr:state": "NY", "addr:street": "West Houston Street", "amenity": "restaurant", "cuisine": "pizza;italian", "name": "Song\u2019 E Napule", "opening_hours": "12:00-23:00", "phone": "+1-212-533-1242", "smoking": "no", "website": "https://songenapule.us/"}}, {"type": "node", "id": 2705025716, "lat": 40.727606, "lon": -74.0023607, "tags": {"addr:city": "New York", "addr:housenumber": "58", "addr:street": "MacDougal Street", "amenity": "restaurant", "cuisine": "latin_american", "name": "Comodo"}}, {"type": "node", "id": 2705029788, "lat": 40.7275501, "lon": -74.0024076, "tags": {"addr:city": "New York", "addr:housenumber": "56", "addr:street": "MacDougal Street", "amenity": "restaurant", "cuisine": "mediterranean", "name": "12 Chairs"}}, {"type": "node", "id": 2722711709, "lat": 40.7273671, "lon": -74.0025442, "tags": {"addr:city": "New York", "addr:housenumber": "50", "addr:postcode": "10012", "addr:state": "NY", "addr:street": "MacDougal Street", "amenity": "restaurant", "cuisine": "american;pizza", "name": "Emmett's", "note": "Serves Chicago style pizza", "opening_hours": "Tu 17:00-23:00; We 12:00-23:00; Th 12:00-24:00; Fr-Sa 12:00-25:00; Su 12:00-22:00", "phone": "+1 917 639 3571", "website": "https://www.emmettsnyc.com/"}}, {"type": "node", "id": 2722711716, "lat": 40.7273101, "lon": -74.0025925, "tags": {"addr:city": "New York", "addr:housenumber": "48", "addr:postcode": "10012", "addr:state": "NY", "addr:street": "MacDougal Street", "amenity": "restaurant", "cuisine": "japanese", "email": "soho@rakunyc.com", "name": "Raku Soho", "opening_hours": "Su-Th 00:00-22:00; Fr,Sa 00:00-23:00", "phone": "+1 212-228-1324", "website": "https://rakunyc.com/"}}, {"type": "node", "id": 2722712554, "lat": 40.7285324, "lon": -74.0018748, "tags": {"addr:city": "New York", "addr:housenumber": "69", "addr:street": "MacDougal Street", "amenity": "restaurant", "cuisine": "italian", "name": "Villa Mosconi", "wheelchair": "yes"}}, {"type": "node", "id": 2722720658, "lat": 40.7289641, "lon": -74.0022949, "tags": {"addr:city": "New York", "addr:housenumber": "260", "addr:street": "MacDougal Street", "amenity": "restaurant", "cuisine": "italian", "name": "Da Silvano", "outdoor_seating": "yes"}}, {"type": "node", "id": 3215166838, "lat": 40.72978, "lon": -74.0037432, "tags": {"addr:housenumber": "54", "addr:street": "Carmine Street", "amenity": "restaurant", "name": "The Market Table", "website": "https://www.markettablenyc.com/"}}, {"type": "node", "id": 3215168668, "lat": 40.7300039, "lon": -74.003915, "tags": {"addr:housenumber": "49", "addr:street": "Carmine Street", "amenity": "restaurant", "name": "The Grey Dog", "website": "https://www.thegreydog.com/"}}, {"type": "node", "id": 3270276100, "lat": 40.7280272, "lon": -74.0060611}, {"type": "node", "id": 3270276101, "lat": 40.7280505, "lon": -74.0055791}, {"type": "node", "id": 3270276103, "lat": 40.7280741, "lon": -74.0065567}, {"type": "node", "id": 3270276122, "lat": 40.7284622, "lon": -74.0055115}, {"type": "node", "id": 3270276126, "lat": 40.7285738, "lon": -74.0059715}, {"type": "node", "id": 3270276127, "lat": 40.7286207, "lon": -74.0064671}, {"type": "node", "id": 3270458561, "lat": 40.7273252, "lon": -74.0061913, "tags": {"addr:city": "New York", "addr:housenumber": "175", "addr:postcode": "10014", "addr:state": "NY", "addr:street": "Varick Street", "brand": "WeWork", "brand:wikidata": "Q19995004", "fee": "yes", "name": "WeWork", "office": "coworking", "website": "https://www.wework.com/buildings/175-varick-st--new-york-city--NY"}}, {"type": "node", "id": 3573482094, "lat": 40.7291334, "lon": -74.0021646, "tags": {"amenity": "restaurant", "name": "Bar Pitti", "outdoor_seating": "yes"}}, {"type": "node", "id": 3608041636, "lat": 40.7261431, "lon": -74.0025063, "tags": {"addr:city": "New York", "addr:housenumber": "119", "addr:street": "Sullivan Street", "amenity": "restaurant", "cuisine": "american;japanese", "name": "Blue Ribbon", "wheelchair": "no"}}, {"type": "node", "id": 3608053295, "lat": 40.7265551, "lon": -74.0021692, "tags": {"addr:housenumber": "131", "addr:street": "Sullivan Street", "amenity": "restaurant", "check_date": "2023-07-15", "name": "The Dutch"}}, {"type": "node", "id": 3822448405, "lat": 40.7307928, "lon": -74.004204, "tags": {"addr:city": "New York", "addr:housenumber": "29", "addr:postcode": "10014", "addr:state": "NY", "addr:street": "7th Avenue South", "amenity": "restaurant", "contact:phone": "+1 212 858 9096", "contact:website": "http://www.laloterianyc.com/#about", "cuisine": "mexican", "name": "La Loteria"}}, {"type": "node", "id": 3891950890, "lat": 40.7288886, "lon": -74.0024715}, {"type": "node", "id": 3891960761, "lat": 40.7295699, "lon": -74.0020882, "tags": {"barrier": "kerb", "kerb": "lowered", "tactile_paving": "yes"}}, {"type": "node", "id": 4303241989, "lat": 40.730625, "lon": -74.0065313, "tags": {"amenity": "restaurant", "name": "Piora", "opening_hours": "Mo-Su 17:30-22:30", "phone": "+1-212-960-3801"}}, {"type": "node", "id": 4308132589, "lat": 40.7300608, "lon": -74.0036699, "tags": {"addr:postcode": "10014", "amenity": "restaurant", "name": "Berimbau do Brasil", "phone": "+1-212-242-2606"}}, {"type": "node", "id": 4392870291, "lat": 40.7277469, "lon": -74.0020266, "tags": {"addr:housenumber": "142", "addr:postcode": "10012", "addr:street": "West Houston Street", "amenity": "restaurant", "name": "Da Marcella", "name:en": "Da Marcella"}}, {"type": "node", "id": 4725247810, "lat": 40.7300299, "lon": -74.0030254, "tags": {"addr:city": "New York", "addr:housenumber": "34", "addr:postcode": "10014", "addr:state": "NY", "addr:street": "Carmine Street", "alcohol": "wine", "amenity": "restaurant", "cuisine": "new_american", "drink:wine": "yes", "level": "0", "name": "Demo", "name:en": "Demo", "name:en-fonipa": "\u02c8d\u025bmo\u028a", "name:etymology": "Father Demo Square", "name:etymology:wikidata": "Q28209059", "name:pronunciation": "\u02c8d\u025bmo\u028a", "website": "https://www.demowestvillage.com/"}}, {"type": "node", "id": 4725248791, "lat": 40.7298568, "lon": -74.0035384, "tags": {"amenity": "restaurant", "name": "Jack's Wife Freda", "not:brand:wikidata": "Q6110826", "website": "https://jackswifefreda.com/"}}, {"type": "node", "id": 4725248792, "lat": 40.7301922, "lon": -74.0033333, "tags": {"amenity": "restaurant", "name": "P.S. Burgers"}}, {"type": "node", "id": 4725251649, "lat": 40.7301093, "lon": -74.0027854, "tags": {"addr:housenumber": "28", "addr:postcode": "10014", "addr:street": "Carmine Street", "amenity": "restaurant", "name": "Numero 28 Pizzeria"}}, {"type": "node", "id": 4781188614, "lat": 40.7289162, "lon": -74.0054734, "tags": {"addr:city": "New York", "addr:housenumber": "225", "addr:postcode": "10014", "addr:state": "NY", "addr:street": "Varick Street", "amenity": "cafe", "cuisine": "deli", "name": "Getting Hungry", "opening_hours": "06:00-17:00"}}, {"type": "node", "id": 4977281127, "lat": 40.7297927, "lon": -74.0046364, "tags": {"addr:housenumber": "65", "addr:street": "Carmine Street", "amenity": "restaurant", "check_date": "2024-07-24", "name": "Spunto Thin Crust Pizza"}}, {"type": "node", "id": 4977281128, "lat": 40.7305538, "lon": -74.0042275, "tags": {"addr:housenumber": "46", "addr:street": "Bedford Street", "amenity": "bar", "cuisine": "burger", "name": "Village Tavern", "phone": "+1-212-741-1935", "website": "http://thevillagetavernnyc.com"}}, {"type": "node", "id": 5628928424, "lat": 40.7272539, "lon": -74.0075081, "tags": {"addr:city": "New York", "addr:housenumber": "333", "addr:postcode": "10013", "addr:state": "NY", "addr:street": "Hudson Street", "amenity": "restaurant", "branch": "Hudson", "cuisine": "american", "name": "Westville", "opening_hours": "Mo-Fr 11:30-15:00, 17:00-21:30; Sa-Su 10:00-16:00, 17:00-21:30", "phone": "+1-212-776-1404", "smoking": "no", "website": "https://westvillenyc.com/locations/westville-hudson/"}}, {"type": "node", "id": 5756089924, "lat": 40.7293542, "lon": -74.0038432, "tags": {"addr:housenumber": "35", "addr:postcode": "10014", "addr:street": "Downing Street", "amenity": "restaurant", "branch": "West Village", "cuisine": "pizza", "drink:wine": "yes", "name": "Emily", "outdoor_seating": "sidewalk", "phone": "+1-917-935-6434", "website": "https://www.pizzalovesemily.com"}}, {"type": "node", "id": 5896851985, "lat": 40.7273043, "lon": -74.0059691, "tags": {"addr:city": "New York", "addr:housenumber": "175", "addr:postcode": "10014", "addr:state": "NY", "addr:street": "Varick Street", "air_conditioning": "yes", "amenity": "cafe", "check_date": "2024-06-05", "cuisine": "coffee_shop;cake", "drink:espresso": "yes", "internet_access": "wlan", "name": "Seven Grams Caff\u00e9", "opening_hours": "Mo-Th 07:00-18:00; Fr 07:00-16:00; Sa 08:00-16:00", "outdoor_seating": "yes", "phone": "+19172617527", "website": "https://sevengramscaffe.com/"}}, {"type": "node", "id": 5987843785, "lat": 40.7263749, "lon": -74.0018624, "tags": {"amenity": "restaurant", "cuisine": "chinese", "name": "Pinch Chinese", "website": "https://www.pinchchinese.com/", "wheelchair": "limited"}}, {"type": "node", "id": 5994163587, "lat": 40.7301156, "lon": -74.0050252, "tags": {"addr:housenumber": "22", "addr:street": "7th Avenue South", "amenity": "bar", "name": "Little Branch"}}, {"type": "node", "id": 6491645894, "lat": 40.7265621, "lon": -74.0034041}, {"type": "node", "id": 6630517161, "lat": 40.7274974, "lon": -74.0071128, "tags": {"addr:city": "New York", "addr:housenumber": "350", "addr:postcode": "10014", "addr:state": "NY", "addr:street": "Hudson Street", "air_conditioning": "yes", "amenity": "restaurant", "brand": "CAVA", "brand:wikidata": "Q85751038", "construction:shop": "yes", "cuisine": "mediterranean", "level": "0", "name": "CAVA", "opening_hours": "Mo-Su 10:45-22:00", "phone": "+1-332-222-6749", "website": "https://cava.com/locations/350-hudson-ny", "wheelchair": "yes"}}, {"type": "node", "id": 6630517163, "lat": 40.7277372, "lon": -74.0070702, "tags": {"addr:city": "New York", "addr:housenumber": "350", "addr:postcode": "10014", "addr:state": "NY", "addr:street": "Hudson Street", "amenity": "restaurant", "cuisine": "sushi", "name": "MakiMaki", "opening_hours": "Mo-Th 11:00-20:00; Fr 11:00-17:00", "outdoor_seating": "no", "phone": "+1-646-833-7063", "website": "https://makimaki.nyc/"}}, {"type": "node", "id": 6630517164, "lat": 40.7277965, "lon": -74.0070614, "tags": {"addr:city": "New York", "addr:housenumber": "350", "addr:postcode": "10014", "addr:state": "NY", "addr:street": "Hudson Street", "amenity": "restaurant", "cuisine": "japanese", "name": "Glaze", "opening_hours": "Mo-Fr 11:30-21:00; Sa-Su 12:00-21:00", "phone": "+1-212-933-1322", "website": "https://www.glaze.com/glaze-hudson-square", "wheelchair": "yes"}}, {"type": "node", "id": 6732642779, "lat": 40.7285346, "lon": -74.0058604, "tags": {"addr:housenumber": "245", "addr:postcode": "10014", "addr:street": "West Houston Street", "check_date": "2023-12-10", "name": "U.S. Department of Veterans Affairs", "office": "government"}}, {"type": "node", "id": 6732642783, "lat": 40.7287287, "lon": -74.0050957, "tags": {"addr:city": "New York", "addr:housenumber": "206", "addr:postcode": "10014", "addr:state": "NY", "addr:street": "Varick Street", "air_conditioning": "yes", "amenity": "restaurant", "bar": "no", "cuisine": "pizza", "level": "0", "name": "Five Boys Fresh Pizza", "opening_hours": "Mo-Sa 10:00-23:00, Su 10:00-22:00", "phone": "+1-646-398-8605", "reservation": "no", "smoking": "no", "takeaway": "only", "toilets": "no"}}, {"type": "node", "id": 6734071961, "lat": 40.7286547, "lon": -74.0045899, "tags": {"addr:city": "New York", "addr:housenumber": "220", "addr:state": "NY", "addr:street": "West Houston Street", "air_conditioning": "yes", "amenity": "bar", "level": "0", "name": "The Brooklyneer", "outdoor_seating": "yes", "smoking": "no"}}, {"type": "node", "id": 6814208895, "lat": 40.7291813, "lon": -74.0036625, "tags": {"addr:housenumber": "27", "addr:postcode": "10014", "addr:street": "Bedford Street", "amenity": "restaurant", "cuisine": "mexican;seafood", "name": "Quique Crudo"}}, {"type": "node", "id": 7048001985, "lat": 40.7262766, "lon": -74.0021542, "tags": {"addr:postcode": "10012", "amenity": "restaurant", "name": "Piccola Cucina"}}, {"type": "node", "id": 7281199875, "lat": 40.7297713, "lon": -74.0019706, "tags": {"barrier": "gate"}}, {"type": "node", "id": 7992059162, "lat": 40.7283416, "lon": -74.0051083, "tags": {"addr:city": "New York", "addr:housenumber": "200", "addr:postcode": "10014", "addr:state": "NY", "addr:street": "Varick Street", "addr:unit": "Rm 1000", "air_conditioning": "yes", "baby_feeding": "no", "branch": "Manhattan Borough Office", "fax": "+1-646-638-2047", "internet_access": "no", "level": "9", "name": "Board of Elections in the City of New York", "office": "government", "phone": "+1-212-886-2100", "smoking": "no", "website": "https://www.vote.nyc", "wheelchair": "yes"}}, {"type": "node", "id": 7992059164, "lat": 40.7283847, "lon": -74.0069687, "tags": {"addr:city": "New York", "addr:housenumber": "376", "addr:postcode": "10014-3621", "addr:state": "NY", "addr:street": "Hudson Street", "air_conditioning": "yes", "name": "New York Passport Agency", "office": "government", "opening_hours": "Mo-Fr 07:30-18:00", "reservation": "required", "smoking": "no", "website": "https://travel.state.gov/content/travel/en/passports/get-fast/passport-agencies/new-york.html", "wheelchair": "yes"}}, {"type": "node", "id": 8309469077, "lat": 40.7275806, "lon": -74.0034217, "tags": {"addr:housenumber": "18", "addr:postcode": "10014", "addr:street": "King Street", "amenity": "restaurant", "cocktails": "yes", "cuisine": "italian", "drink:beer": "yes", "drink:liquor": "yes", "drink:wine": "yes", "name": "King", "opening_hours": "Mo-Su 17:00-22:00", "outdoor_seating": "street", "phone": "+1-917-825-1618", "website": "https://kingrestaurant.nyc"}}, {"type": "node", "id": 8511743557, "lat": 40.7261365, "lon": -74.0043283, "tags": {"addr:city": "New York", "addr:housenumber": "12", "addr:postcode": "10013", "addr:state": "NY", "addr:street": "Vandam Street", "amenity": "bar", "name": "Torch & Crown Brewing Company", "opening_hours": "Mo-We 12:00-22:00; Th-Sa 12:00-23:00; Su 12:00-21:00", "outdoor_seating": "yes", "phone": "+1-212-228-7005", "start_date": "2018", "website": "https://www.torchandcrown.com/"}}, {"type": "node", "id": 8789178531, "lat": 40.727044, "lon": -74.0031369, "tags": {"amenity": "restaurant", "outdoor_seating": "yes"}}, {"type": "node", "id": 9167795118, "lat": 40.7272672, "lon": -74.005323, "tags": {"addr:city": "New York", "addr:housenumber": "180", "addr:postcode": "10014", "addr:state": "NY", "addr:street": "Varick Street", "amenity": "restaurant", "cuisine": "pizza", "name": "Little Italy Pizzeria & Deli", "phone": "+12123665566"}}, {"type": "node", "id": 9535050121, "lat": 40.729671, "lon": -74.0041564, "tags": {"addr:housenumber": "64", "addr:postcode": "10014", "addr:street": "Carmine Street", "amenity": "restaurant", "check_date": "2024-07-24", "cocktails": "yes", "contact:email": "svetawestvillage@gmail.com", "contact:facebook": "Svetarestaurant", "contact:instagram": "sveta.nyc", "contact:phone": "+1-212-203-4106", "contact:website": "https://www.sveta-nyc.com", "cuisine": "russian", "delivery": "yes", "name": "Sveta", "opening_hours": "Mo 16:00-23:30; Tu-Su 11:30-23:30", "reservation": "yes"}}, {"type": "node", "id": 9754324598, "lat": 40.7283592, "lon": -74.0023725, "tags": {"barrier": "gate"}}, {"type": "node", "id": 9802755081, "lat": 40.7298001, "lon": -74.0023383}, {"type": "node", "id": 9802778507, "lat": 40.7299465, "lon": -74.0027448}, {"type": "node", "id": 9802778508, "lat": 40.7299266, "lon": -74.0028332}, {"type": "node", "id": 9802778509, "lat": 40.7300836, "lon": -74.0029241}, {"type": "node", "id": 9802830338, "lat": 40.7299428, "lon": -74.0023842}, {"type": "node", "id": 9802830352, "lat": 40.7298356, "lon": -74.0025786, "tags": {"barrier": "gate"}}, {"type": "node", "id": 9896425447, "lat": 40.7274691, "lon": -74.0034457, "tags": {"addr:housenumber": "213", "addr:postcode": "10014", "addr:street": "Avenue Of The Americas", "amenity": "restaurant"}}, {"type": "node", "id": 10202468517, "lat": 40.7259881, "lon": -74.0018204, "tags": {"addr:city": "New York", "addr:housenumber": "113", "addr:postcode": "10012", "addr:state": "NY", "addr:street": "Thompson Street", "amenity": "restaurant", "cuisine": "japanese", "email": "info@omen-azen.com", "name": "Omen Azen", "name:ja_rm": "\u304a\u3081\u3093", "opening_hours": "Mo-Sa 17:00-22:00; Su off", "phone": "+1-212-925-8923", "website": "https://www.omen-azen.com/"}}, {"type": "node", "id": 10208805585, "lat": 40.7265423, "lon": -74.0034342}, {"type": "node", "id": 10796135812, "lat": 40.7298743, "lon": -74.0034651, "tags": {"addr:city": "New York", "addr:housenumber": "48", "addr:postcode": "10014", "addr:state": "NY", "addr:street": "Carmine Street", "amenity": "restaurant", "branch": "West Village", "cuisine": "japanese;ramen", "name": "Ramen Danbo", "opening_hours": "Mo-Su 11:00-23:00", "phone": "+1-917-261-7355", "reservation": "no", "website": "https://ramendanbo.com/"}}, {"type": "node", "id": 10830954967, "lat": 40.7261823, "lon": -74.0019199, "tags": {"addr:city": "New York", "addr:housenumber": "176", "addr:postcode": "10012", "addr:state": "NY", "addr:street": "Prince Street", "air_conditioning": "yes", "amenity": "restaurant", "cuisine": "italian;pasta;seafood", "diet:meat": "yes", "diet:seafood": "yes", "name": "Il Corallo Trattoria", "opening_hours": "Su-Th 12:00-22:00; Fr-Su 12:00-23:00", "outdoor_seating": "yes", "phone": "+1-212-941-7119", "website": "https://www.ilcorallotrattoria.com/"}}, {"type": "node", "id": 10839772010, "lat": 40.7270593, "lon": -74.0027981, "tags": {"addr:city": "New York", "addr:housenumber": "38", "addr:postcode": "10012", "addr:state": "NY", "addr:street": "MacDougal Street", "amenity": "restaurant", "check_date": "2023-07-15", "cuisine": "mediterranean", "delivery": "yes", "name": "Shuka", "phone": "+1-212-475-7500", "takeaway": "yes", "website": "https://www.shukanewyork.com"}}, {"type": "node", "id": 10908635405, "lat": 40.7282617, "lon": -74.0051457, "tags": {"addr:postcode": "10014", "amenity": "cafe", "name": "Gregory\u2019s coffee", "opening_hours": "Mo-Fr 06:30-19:00; Su,Sa 07:00-17:00", "payment:credit_cards": "yes", "payment:debit_cards": "yes"}}, {"type": "node", "id": 11048648635, "lat": 40.7264448, "lon": -74.0020207, "tags": {"amenity": "cafe", "check_date": "2023-07-15", "name": "Blank Slate"}}, {"type": "node", "id": 11123639305, "lat": 40.7264761, "lon": -74.0020131, "tags": {"amenity": "cafe", "name": "Blank Street Coffee"}}, {"type": "node", "id": 11157798346, "lat": 40.7306885, "lon": -74.0042533, "tags": {"addr:city": "New York", "addr:housenumber": "29", "addr:postcode": "10014", "addr:state": "NY", "addr:street": "7th Avenue South", "amenity": "restaurant", "cuisine": "pizza;middle_eastern", "name": "Moustache Pitza (Moustache)", "opening_hours": "Mo-Su 12:00-23:00", "phone": "+1-212-229-2220", "website": "https://www.moustachepitza.com/"}}, {"type": "node", "id": 11328372069, "lat": 40.7303885, "lon": -74.0066375, "tags": {"amenity": "bar", "name": "Lelabar"}}, {"type": "node", "id": 11433238611, "lat": 40.7287461, "lon": -74.0031498, "tags": {"addr:city": "New York", "addr:housenumber": "178", "addr:postcode": "10014", "addr:state": "NY", "addr:street": "West Houston Street", "amenity": "restaurant", "check_date": "2023-12-19", "cuisine": "french", "diet:vegan": "only", "diet:vegetarian": "only", "level": "0", "name": "D\u00e9lice & Sarrasin", "opening_hours": "11:00-23:00", "payment:cash": "yes", "payment:mastercard": "yes", "payment:visa": "yes", "phone": "+1 212-243-7200", "website": "https://delicesarrasin.com", "wheelchair": "yes"}}, {"type": "node", "id": 11515031316, "lat": 40.7279908, "lon": -74.0056784}, {"type": "node", "id": 11515031368, "lat": 40.7285373, "lon": -74.0055887}, {"type": "node", "id": 11738012197, "lat": 40.7258776, "lon": -74.0036174, "tags": {"amenity": "cafe", "name": "Sui Yoga Studio.Cafe"}}, {"type": "node", "id": 11739055903, "lat": 40.7257767, "lon": -74.0055352, "tags": {"addr:housenumber": "150", "addr:postcode": "10013", "addr:street": "Varick Street", "amenity": "cafe", "branch": "Spring & Varick", "brand": "Starbucks", "brand:wikidata": "Q37158", "cuisine": "coffee_shop", "name": "Starbucks", "official_name": "Starbucks Coffee", "opening_hours": "Mo-Fr 05:30-19:00; Sa, Su 06:00-19:00", "phone": "+1 646-230-9816", "takeaway": "yes", "website": "https://www.starbucks.com/store-locator/store/8947/spring-and-varick-150-varick-street-new-york-ny-100131218-us"}}, {"type": "node", "id": 11746463844, "lat": 40.7270969, "lon": -74.0020062, "tags": {"addr:city": "New York", "addr:housenumber": "144", "addr:postcode": "10012", "addr:state": "NY", "addr:street": "Sullivan Street", "amenity": "restaurant", "cuisine": "japanese", "name": "Mori", "opening_hours": "Mo-Sa 17:30-22:30", "reservation": "required", "reservation:website": "https://resy.com/cities/ny/mori-omakase", "website": "https://www.instagram.com/mori_omakase"}}, {"type": "node", "id": 11746463845, "lat": 40.727044, "lon": -74.0020491, "tags": {"addr:city": "New York", "addr:housenumber": "142", "addr:postcode": "10012", "addr:state": "NY", "addr:street": "Sullivan Street", "amenity": "bar", "name": "142 Sullivan Bar", "opening_hours": "Mo-Su 17:00-25:00", "phone": "+12124772404", "website": "https://soho.142sullivan.com"}}, {"type": "node", "id": 11867099054, "lat": 40.7298154, "lon": -74.004554, "tags": {"amenity": "restaurant", "cuisine": "mexican", "diet:vegan": "yes", "diet:vegetarian": "yes", "name": "Jajaja Mexicana"}}, {"type": "node", "id": 12195740987, "lat": 40.7291517, "lon": -74.0034544, "tags": {"addr:housenumber": "16", "addr:postcode": "10014", "addr:street": "Bedford Street", "amenity": "restaurant", "bar": "yes", "cuisine": "italian", "name": "Aria", "opening_hours": "Mo-Th 11:30-23:00, Fr 11:30-24:00, Sa 11:00-24:00, Su 11:00-23:00", "phone": "+1-212-242-4233", "theme": "wine_bar", "website": "https://ariawinebar.com"}}, {"type": "node", "id": 12195740993, "lat": 40.7293401, "lon": -74.0049942, "tags": {"addr:housenumber": "230", "addr:postcode": "10014", "addr:street": "Varick Street", "amenity": "cafe", "cuisine": "coffee_shop", "name": "Starbucks Pickup", "opening_hours": "Mo-Fr 06:00-19:00", "phone": "+1-646-444-8086", "takeaway": "only", "toilets": "no", "website": "https://www.starbucks.com/store-locator/store/64646-298814/pickup-carmine-varick-230-varick-street-space-c-new-york-ny-100144335-us"}}, {"type": "node", "id": 12195740994, "lat": 40.7296289, "lon": -74.0039259, "tags": {"addr:housenumber": "37A", "addr:postcode": "10014", "addr:street": "Bedford Street", "amenity": "restaurant", "cuisine": "georgian", "drink:wine": "yes", "name": "Ubani", "opening_hours": "Mo-Su 11:00-21:15", "outdoor_seating": "street", "website": "https://ubaniny.com"}}, {"type": "node", "id": 12195740995, "lat": 40.7290298, "lon": -74.0035786, "tags": {"amenity": "restaurant", "bar": "yes", "cuisine": "italian", "name": "Cotenna", "opening_hours": "Mo-Su 12:00-23:00", "outdoor_seating": "street", "phone": "+1-646-861-0175", "website": "https://cotenna.com"}}, {"type": "node", "id": 12273485199, "lat": 40.7294782, "lon": -74.0019107}, {"type": "node", "id": 12273485200, "lat": 40.7295297, "lon": -74.0021889}, {"type": "node", "id": 12273517801, "lat": 40.7295021, "lon": -74.0021769}, {"type": "node", "id": 12273517803, "lat": 40.729582, "lon": -74.0021473}, {"type": "node", "id": 12273517804, "lat": 40.729584, "lon": -74.0021231}, {"type": "node", "id": 12273517806, "lat": 40.7294678, "lon": -74.0019199}, {"type": "node", "id": 12440279485, "lat": 40.7296464, "lon": -74.0018437, "tags": {"addr:city": "New York", "addr:housenumber": "205", "addr:postcode": "10012", "addr:state": "NY", "addr:street": "Bleecker Street", "amenity": "cafe", "name": "Pop Up Grocer", "shop": "convenience", "website": "https://popupgrocer.com/"}}, {"type": "node", "id": 12605220561, "lat": 40.7269267, "lon": -74.0047831, "tags": {"amenity": "school", "mascot": "Knights", "name": "Elisabeth Irwin High School"}}, {"type": "node", "id": 12662645401, "lat": 40.7309038, "lon": -74.0041193, "tags": {"addr:housenumber": "29A", "addr:postcode": "10014", "amenity": "restaurant", "contact:facebook": "RafeleRistorante", "contact:twitter": "RafeleNYC", "cuisine": "italian", "email": "hospitality@rafele.com", "name": "Rafele", "opening_hours": "Mo 16:30-21:30; Tu-Th 16:00-21:30; Fr-Sa 12:00-22:00; Su 12:00-21:00", "phone": "+1 212-242-1999", "website": "https://www.rafele.com/"}}, {"type": "node", "id": 12675363874, "lat": 40.7294591, "lon": -74.0048245, "tags": {"addr:housenumber": "80", "addr:street": "Carmine Street", "amenity": "restaurant", "cocktails": "yes", "cuisine": "georgian", "delivery": "yes", "drink:wine": "yes", "name": "Laliko", "opening_hours": "Su-We 12:00-22:00; Th-Sa 12:00-22:30", "payment:cash": "yes", "payment:credit_cards": "yes", "payment:debit_cards": "yes", "phone": "+1-917-388-3166", "takeaway": "yes", "website": "http://laliko.com", "website:menu": "https://laliko.com/dinner-menu/"}}, {"type": "node", "id": 12729059749, "lat": 40.7277245, "lon": -74.0025523, "tags": {"addr:city": "New York", "addr:housenumber": "43", "addr:postcode": "10012", "addr:state": "NY", "addr:street": "MacDougal Street", "amenity": "restaurant", "cuisine": "italian", "name": "Roscioli NYC", "website": "https://rosciolinyc.com/"}}, {"type": "node", "id": 13175877701, "lat": 40.7256156, "lon": -74.0021423, "tags": {"addr:housenumber": "101", "addr:street": "Thompson Street", "amenity": "cafe", "name": "ans\u0101 Micro Coffee Roastery"}}, {"type": "node", "id": 13316102816, "lat": 40.7280467, "lon": -74.0027867}, {"type": "node", "id": 13316102822, "lat": 40.7279721, "lon": -74.0028177}, {"type": "way", "id": 171562481, "nodes": [1825739878, 1825739886, 1825739889, 1825739892, 1825739895, 1825739898, 1825739901, 1825739904, 1825739907, 1825739910, 1825739918, 1825739929, 1825739939, 1825739936, 1825739916, 1825739914, 1825739912, 1825739875, 1825739878], "tags": {"ele": "5", "gnis:feature_id": "2500748", "leisure": "park", "name": "Father Demo Square", "name:en-fonipa": "\u02c8f\u0251\u00f0\u025a \u02c8di\u02d0mo\u028a skw\u025b\u0279", "name:etymology:wikidata": "Q4776569", "name:pronunciation": "\u02c8f\u0251\u00f0\u025a \u02c8di\u02d0mo\u028a skw\u025b\u0279", "website": "https://www.nycgovparks.org/parks/father-demo-square/", "wikidata": "Q28209059"}}, {"type": "way", "id": 197064614, "nodes": [247403983, 1981955802, 2073575400, 1981955858, 804382882, 1981955856, 1981955874, 1981955825, 1981955828, 2073575372, 1981955796, 1981955836, 1981955821, 247403983], "tags": {"leisure": "park", "name": "James J Walker Park", "name:etymology:wikidata": "Q204135"}}, {"type": "way", "id": 239988114, "nodes": [357650427, 2477560564, 2477560541, 2477560566, 7281199875, 357650427], "tags": {"ele": "6", "gnis:feature_id": "2500750", "leisure": "park", "name": "Minetta Triangle", "name:etymology:wikidata": "Q6864566", "website": "https://www.nycgovparks.org/parks/minetta-triangle/", "wikidata": "Q34851511"}}, {"type": "way", "id": 239988118, "nodes": [2477560571, 2477560535, 6491645894, 10208805585, 2477560540, 2477560571], "tags": {"gnis:feature_id": "2500755", "leisure": "park", "name": "Father Fagan Park", "wikidata": "Q49488572"}}, {"type": "way", "id": 244977216, "nodes": [2522432385, 2522432386, 357650436, 2522432388, 2522432389, 9754324598, 2522432390, 2522432385], "tags": {"alt_name": "Passannante Square", "ele": "6", "gnis:feature_id": "2500753", "leisure": "park", "name": "William E. Passannante Ballfield", "name:etymology:wikidata": "Q58010925", "website": "https://www.nycgovparks.org/parks/william-f-passannante-ballfield/", "wikidata": "Q49540080"}}, {"type": "way", "id": 244978444, "nodes": [2522442885, 2522442886, 9802830338, 2522442887, 9802755081, 2562454354, 2522442888, 9802830352, 2522442885], "tags": {"leisure": "park", "name": "Winston Churchill Square", "wikidata": "Q22073932", "wikipedia": "en:Winston Churchill Square"}}, {"type": "way", "id": 248156677, "nodes": [2550013129, 2550013159, 2550013180, 2550013199, 2550013193, 2550013143, 2550013129], "tags": {"amenity": "school", "building": "yes", "height": "18.2", "name": "Little Red School House & Elisabeth Irwin High School", "nycdoitt:bin": "1008298", "website": "https://www.lrei.org/", "wikidata": "Q6651525", "wikipedia": "en:Little Red School House"}}, {"type": "way", "id": 249664994, "nodes": [2562450120, 2562450123, 2562450159, 2562450168, 2562450125, 2562450117, 2562450120], "tags": {"addr:housenumber": "64", "addr:postcode": "10014", "addr:street": "Downing Street", "amenity": "restaurant", "building": "yes", "building:levels": "1", "height": "3.6", "nycdoitt:bin": "1008388"}}, {"type": "way", "id": 249665003, "nodes": [2562450132, 2562450109, 2562450110, 2562450091, 2562450095, 2562450117, 2562450125, 2562450168, 2562450191, 2562450150, 2562450132], "tags": {"addr:city": "New York", "addr:housenumber": "222", "addr:state": "NY", "addr:street": "West Houston Street", "amenity": "bar", "building": "yes", "height": "6.7", "name": "Houston Hall", "nycdoitt:bin": "1008384", "outdoor_seating": "no", "smoking": "no"}}, {"type": "way", "id": 249665026, "nodes": [2562449987, 11515031316, 3270276100, 3270276103, 2562450038, 2562450100, 3270276127, 3270276126, 11515031368, 2562450076, 3270276122, 3270276101, 2562449987], "tags": {"addr:city": "New York", "addr:housenumber": "201", "addr:postcode": "10014", "addr:street": "Varick Street", "air_conditioning": "yes", "architect": "Buchman and Kahn", "building": "yes", "building:levels": "12", "name": "Federal Building", "nycdoitt:bin": "1009755", "office": "government", "operator": "U.S. General Services Administration", "smoking": "no", "start_date": "1928", "website": "https://www.gsa.gov/historic-buildings/federal-building-new-york-ny"}}, {"type": "way", "id": 249665058, "nodes": [2562450620, 13316102822, 13316102816, 2562450626, 2562450625, 2562450616, 2562450620], "tags": {"ele": "6", "gnis:feature_id": "2500754", "leisure": "park", "name": "Playground of the Americas", "website": "https://www.nycgovparks.org/parks/playground-of-the-americas/"}}, {"type": "way", "id": 385858615, "nodes": [12273485199, 12273517806, 2550012966, 3891950890, 12273517801, 12273485200, 2477560555, 12273517803, 12273517804, 3891960761, 12273485199], "tags": {"ele": "6", "gnis:feature_id": "2500751", "leisure": "park", "name": "Little Red Square"}}, {"type": "way", "id": 894035808, "nodes": [2562454369, 2562454320, 2522442888, 9802830352, 2522442885, 2562454399, 2562454395, 9802778507, 2562454373, 9802778508, 2562454407, 2562454440, 2562454444, 9802778509, 2562454436, 2562454429, 2562454396, 2562454377, 2562454369], "tags": {"leisure": "park"}}]}