{"version": 0.6, "generator": "Overpass API 0.7.62.8 e802775f", "osm3s": {"timestamp_osm_base": "2025-12-01T17:15:59Z", "copyright": "The data included in this document is from www.openstreetmap.org. The data is made available under ODbL."}, "elements": [{"type": "node", "id": 1241329531, "lat": 40.7469974, "lon": -73.9956547}, {"type": "node", "id": 1241329532, "lat": 40.7472345, "lon": -73.993548}, {"type": "node", "id": 1241329534, "lat": 40.747833, "lon": -73.9964099}, {"type": "node", "id": 1241329535, "lat": 40.7482947, "lon": -73.9960749}, {"type": "node", "id": 1241329536, "lat": 40.7473981, "lon": -73.9953673}, {"type": "node", "id": 1241329538, "lat": 40.7461235, "lon": -73.9943645}, {"type": "node", "id": 2334601455, "lat": 40.744378, "lon": -73.9988791, "tags": {"addr:city": "New York", "addr:country": "US", "addr:housenumber": "232", "addr:postcode": "10011", "addr:state": "NY", "addr:street": "8th Avenue", "amenity": "restaurant", "cuisine": "thai", "drive_in": "no", "internet_access": "no", "internet_access:fee": "no", "microbrewery": "no", "name": "M-Thai", "outdoor_seating": "no", "phone": "+1 212 229-9799", "smoking": "no", "takeaway": "yes", "website": "www.M-Thainyc.com", "wheelchair": "yes", "wifi": "no"}}, {"type": "node", "id": 2377128136, "lat": 40.7461544, "lon": -73.9975859, "tags": {"addr:city": "New York", "addr:country": "US", "addr:housenumber": "286", "addr:postcode": "10001", "addr:state": "NY", "addr:street": "8th Avenue", "amenity": "cafe", "cuisine": "coffee_shop", "name": "Brooklyn Bagel & Coffee Company", "opening_hours": "Mo-Fr 06:30-22:00; Sa-Su 07:00-22:00", "website": "https://bkbagel.com/"}}, {"type": "node", "id": 2377128172, "lat": 40.7447814, "lon": -73.9985854, "tags": {"addr:city": "New York", "addr:country": "US", "addr:housenumber": "500", "addr:postcode": "10011", "addr:state": "NY", "addr:street": "6th Avenue", "amenity": "cafe", "cuisine": "bagel", "name": "Zucker's", "old_name": "Murray's Bagels", "shop": "bakery"}}, {"type": "node", "id": 2377128179, "lat": 40.7446356, "lon": -73.9986916, "tags": {"addr:city": "New York", "addr:country": "US", "addr:housenumber": "236", "addr:postcode": "10011", "addr:state": "NY", "addr:street": "8th Avenue", "amenity": "restaurant", "name": "Dim Sum Chelsea", "old_name": "Spice"}}, {"type": "node", "id": 2377128182, "lat": 40.7451876, "lon": -73.9988416, "tags": {"addr:city": "New York", "addr:housenumber": "300", "addr:postcode": "10011", "addr:state": "NY", "addr:street": "West 23rd Street", "amenity": "cafe", "branch": "West 23rd and 8th", "brand": "Starbucks", "brand:wikidata": "Q37158", "cuisine": "coffee_shop", "diet:vegan": "yes", "drink:soy_milk": "yes", "internet_access": "wlan", "name": "Starbucks", "official_name": "Starbucks Coffee", "opening_hours": "Mo-Th 05:30-23:00; Fr 05:30-24:00; Sa 06:00-24:00; Su 06:00-23:00", "phone": "+1 646-638-1571", "ref": "13905", "takeaway": "yes", "website": "https://www.starbucks.com/store-locator/store/13905/west-23rd-and-8th-300-w-23rd-st-new-york-ny-100112210-us", "wheelchair": "yes"}}, {"type": "node", "id": 2377128183, "lat": 40.7462136, "lon": -73.9975429, "tags": {"addr:city": "New York", "addr:country": "US", "addr:housenumber": "288", "addr:postcode": "10011", "addr:state": "NY", "addr:street": "8th Avenue", "amenity": "restaurant", "cuisine": "pizza", "name": "$1 Pizza", "old_name": "Subway", "was:amenity": "fast_food"}}, {"type": "node", "id": 2407891431, "lat": 40.7457288, "lon": -73.998418, "tags": {"addr:city": "New York", "addr:housenumber": "273", "addr:postcode": "10001", "addr:street": "8th Avenue", "amenity": "restaurant", "name": "The Pho 2", "old_name": "Pita Pan Cafe"}}, {"type": "node", "id": 2408375729, "lat": 40.7456072, "lon": -73.9987643, "tags": {"addr:city": "New York", "addr:country": "US", "addr:housenumber": "261", "addr:state": "NY", "addr:street": "8th Avenue", "amenity": "restaurant", "branch": "Chelsea", "brand": "Dallas BBQ", "brand:wikidata": "Q122209839", "check_date": "2024-04-26", "cuisine": "barbecue", "name": "Dallas BBQ", "opening_hours": "Su-Th 11:30-23:00; Fr,Sa 11:30-24:00; ", "phone": "+1-212-462-0001", "website": "https://www.dallasbbq.com/chelsea"}}, {"type": "node", "id": 2409946228, "lat": 40.7441477, "lon": -73.9961776, "tags": {"addr:city": "New York", "addr:country": "US", "addr:housenumber": "206", "addr:state": "NY", "addr:street": "West 23rd Street", "amenity": "pub", "check_date": "2024-04-26", "name": "Jake's Saloon", "website": "www.jakessaloonnyc.com"}}, {"type": "node", "id": 2455777609, "lat": 40.7422344, "lon": -73.9986032, "tags": {"amenity": "bar", "lgbtq": "primary", "name": "G Lounge"}}, {"type": "node", "id": 2501879029, "lat": 40.7459975, "lon": -73.9996248}, {"type": "node", "id": 2549960848, "lat": 40.7440812, "lon": -73.9932889, "tags": {"addr:housenumber": "125", "addr:postcode": "10001", "addr:street": "West 24th Street", "name": "A-B CSO", "office": "yes"}}, {"type": "node", "id": 2549961563, "lat": 40.7453231, "lon": -73.992431}, {"type": "node", "id": 2549961619, "lat": 40.7454294, "lon": -73.9923536}, {"type": "node", "id": 2549961626, "lat": 40.7454402, "lon": -73.992709}, {"type": "node", "id": 2549961631, "lat": 40.7454471, "lon": -73.9923955}, {"type": "node", "id": 2549961646, "lat": 40.7455455, "lon": -73.9923238}, {"type": "node", "id": 2549961668, "lat": 40.745645, "lon": -73.9925599}, {"type": "node", "id": 2562375149, "lat": 40.7373434, "lon": -73.9866417}, {"type": "node", "id": 2562375154, "lat": 40.7373879, "lon": -73.986746}, {"type": "node", "id": 2562375200, "lat": 40.7376517, "lon": -73.9864143}, {"type": "node", "id": 2562375208, "lat": 40.7376962, "lon": -73.9865186}, {"type": "node", "id": 2702838486, "lat": 40.7417521, "lon": -74.0029233}, {"type": "node", "id": 2702838547, "lat": 40.7418831, "lon": -74.0032364}, {"type": "node", "id": 2702838559, "lat": 40.741901, "lon": -74.0028157}, {"type": "node", "id": 2702838564, "lat": 40.7419091, "lon": -74.0028351}, {"type": "node", "id": 2702838604, "lat": 40.7419677, "lon": -74.0027926}, {"type": "node", "id": 2702838629, "lat": 40.7419991, "lon": -74.0031143}, {"type": "node", "id": 2702838635, "lat": 40.7420114, "lon": -74.0031436}, {"type": "node", "id": 2702838687, "lat": 40.7420783, "lon": -74.003057}, {"type": "node", "id": 2703033271, "lat": 40.7414099, "lon": -73.9959709}, {"type": "node", "id": 2703033304, "lat": 40.7415476, "lon": -73.9962978}, {"type": "node", "id": 2703033306, "lat": 40.7415639, "lon": -73.9963095}, {"type": "node", "id": 2703033308, "lat": 40.7415719, "lon": -73.9958529}, {"type": "node", "id": 2703033316, "lat": 40.7416283, "lon": -73.9958118}, {"type": "node", "id": 2703033339, "lat": 40.7417766, "lon": -73.9961641}, {"type": "node", "id": 2703044063, "lat": 40.7416972, "lon": -73.9934425, "tags": {"addr:city": "New York", "addr:housenumber": "678", "addr:postcode": "10010", "addr:state": "NY", "addr:street": "Avenue Of The Americas", "amenity": "restaurant", "brand": "CAVA", "brand:wikidata": "Q85751038", "cuisine": "mediterranean", "level": "0", "name": "CAVA"}}, {"type": "node", "id": 2703059127, "lat": 40.7419847, "lon": -73.9954658}, {"type": "node", "id": 2703059157, "lat": 40.742076, "lon": -73.9956825}, {"type": "node", "id": 2703059246, "lat": 40.7421843, "lon": -73.9953205}, {"type": "node", "id": 2703059300, "lat": 40.7422385, "lon": -73.9949898}, {"type": "node", "id": 2703059345, "lat": 40.7422756, "lon": -73.9955372}, {"type": "node", "id": 2703059407, "lat": 40.7423716, "lon": -73.995304}, {"type": "node", "id": 2703059430, "lat": 40.7424435, "lon": -73.9948396}, {"type": "node", "id": 2703059448, "lat": 40.7424974, "lon": -73.9948002}, {"type": "node", "id": 2703059463, "lat": 40.7425407, "lon": -73.9949026}, {"type": "node", "id": 2703059470, "lat": 40.7425986, "lon": -73.9950393}, {"type": "node", "id": 2703059473, "lat": 40.7426035, "lon": -73.9951342}, {"type": "node", "id": 2703059477, "lat": 40.7426305, "lon": -73.9951144}, {"type": "node", "id": 2703083220, "lat": 40.7438586, "lon": -73.9946656, "tags": {"addr:housenumber": "163", "addr:postcode": "10011", "addr:street": "West 23rd Street", "amenity": "restaurant", "atm": "yes", "check_date": "2024-04-26", "cuisine": "diner", "delivery": "yes", "drink:beer": "yes", "drink:wine": "yes", "email": "malibudinernyc163@gmail.com", "name": "Malibu Diner", "phone": "+1 212-691-1369", "website": "https://malibudinernyc.nyc/"}}, {"type": "node", "id": 2703092686, "lat": 40.7450671, "lon": -73.9983943, "tags": {"addr:housenumber": "254", "addr:postcode": "10011", "addr:street": "8th Avenue", "amenity": "restaurant", "check_date": "2024-04-26", "name": "Fle-Fle Grill", "old_name": "Crumbcake Cafe", "opening_hours": "Mo-Su 11:00-22:00", "website": "https://fleflegrill.com/"}}, {"type": "node", "id": 2703092691, "lat": 40.74506, "lon": -73.9983358, "tags": {"addr:housenumber": "268", "addr:postcode": "10011", "addr:street": "West 23rd Street", "amenity": "restaurant", "cuisine": "pizza", "name": "Lions & Tigers & Squares Detroit Pizza"}}, {"type": "node", "id": 2703104327, "lat": 40.7463777, "lon": -73.9949636}, {"type": "node", "id": 2703104389, "lat": 40.7466301, "lon": -73.9947798}, {"type": "node", "id": 2703115801, "lat": 40.7459146, "lon": -73.9997026}, {"type": "node", "id": 2703115811, "lat": 40.7459501, "lon": -73.9997857}, {"type": "node", "id": 2703115823, "lat": 40.7459964, "lon": -73.9997635}, {"type": "node", "id": 2703115826, "lat": 40.7460043, "lon": -73.9996407}, {"type": "node", "id": 2703115828, "lat": 40.7460081, "lon": -73.999629}, {"type": "node", "id": 2703115829, "lat": 40.746011, "lon": -73.9996357}, {"type": "node", "id": 2703115831, "lat": 40.7460141, "lon": -73.9998048}, {"type": "node", "id": 2703115835, "lat": 40.7460185, "lon": -73.9996213}, {"type": "node", "id": 2703115837, "lat": 40.7460197, "lon": -73.9998006}, {"type": "node", "id": 2703115839, "lat": 40.7460232, "lon": -73.9996322}, {"type": "node", "id": 2703115858, "lat": 40.7461109, "lon": -73.9995675}, {"type": "node", "id": 2703115867, "lat": 40.7461689, "lon": -74.00015}, {"type": "node", "id": 2703115873, "lat": 40.7463138, "lon": -74.0000431}, {"type": "node", "id": 2704040472, "lat": 40.7368544, "lon": -73.9833585}, {"type": "node", "id": 2704040473, "lat": 40.7368611, "lon": -73.9832954}, {"type": "node", "id": 2704040476, "lat": 40.7368747, "lon": -73.9832855}, {"type": "node", "id": 2704040477, "lat": 40.7368798, "lon": -73.9833399}, {"type": "node", "id": 2704040479, "lat": 40.7369213, "lon": -73.9832513}, {"type": "node", "id": 2704040482, "lat": 40.7369311, "lon": -73.9835406}, {"type": "node", "id": 2704040483, "lat": 40.7369569, "lon": -73.9835217}, {"type": "node", "id": 2704040486, "lat": 40.736977, "lon": -73.9835696}, {"type": "node", "id": 2704040487, "lat": 40.7369844, "lon": -73.9835642}, {"type": "node", "id": 2704040489, "lat": 40.7370102, "lon": -73.9831861}, {"type": "node", "id": 2704040493, "lat": 40.7370592, "lon": -73.9831502}, {"type": "node", "id": 2704040516, "lat": 40.7371747, "lon": -73.9834247}, {"type": "node", "id": 2704093189, "lat": 40.7374469, "lon": -73.9787527}, {"type": "node", "id": 2704093192, "lat": 40.7374139, "lon": -73.9783931}, {"type": "node", "id": 2704093195, "lat": 40.7375362, "lon": -73.9786879}, {"type": "node", "id": 2704093203, "lat": 40.737449, "lon": -73.9783677}, {"type": "node", "id": 2704093205, "lat": 40.737704, "lon": -73.9786949}, {"type": "node", "id": 2704093207, "lat": 40.7377224, "lon": -73.9786816}, {"type": "node", "id": 2704093210, "lat": 40.7377916, "lon": -73.9789492}, {"type": "node", "id": 2704093211, "lat": 40.7375487, "lon": -73.978263}, {"type": "node", "id": 2704093212, "lat": 40.7376099, "lon": -73.9791456}, {"type": "node", "id": 2704093229, "lat": 40.7378123, "lon": -73.9789992}, {"type": "node", "id": 2704096873, "lat": 40.7385267, "lon": -73.982055}, {"type": "node", "id": 2704096891, "lat": 40.7385798, "lon": -73.982016}, {"type": "node", "id": 2704096893, "lat": 40.7385914, "lon": -73.9822069}, {"type": "node", "id": 2704096932, "lat": 40.7386893, "lon": -73.9824368}, {"type": "node", "id": 2704096933, "lat": 40.7386901, "lon": -73.9819352}, {"type": "node", "id": 2704096939, "lat": 40.7387385, "lon": -73.9819002}, {"type": "node", "id": 2704096946, "lat": 40.7387559, "lon": -73.9825933}, {"type": "node", "id": 2704096958, "lat": 40.7388745, "lon": -73.982507}, {"type": "node", "id": 2704096965, "lat": 40.738914, "lon": -73.9822732}, {"type": "node", "id": 2704096969, "lat": 40.7389334, "lon": -73.982464}, {"type": "node", "id": 2704096972, "lat": 40.7389801, "lon": -73.98243}, {"type": "node", "id": 2826407083, "lat": 40.7426583, "lon": -73.9983133, "tags": {"addr:city": "New York", "addr:housenumber": "224", "addr:postcode": "10011", "addr:street": "West 20th Street", "amenity": "cafe", "branch": "Chelsea", "brand": "Caf\u00e9 Grumpy", "cuisine": "coffee_shop", "internet_access": "no", "name": "Caf\u00e9 Grumpy", "opening_hours": "Mo-Fr 07:00-20:00; Sa 07:30-20:00; Su 07:30-19:30", "outdoor_seating": "yes", "phone": "+1 212-255-5511", "website": "https://cafegrumpy.com/locations/chelsea/"}}, {"type": "node", "id": 2826470599, "lat": 40.7422365, "lon": -73.9949484, "tags": {"addr:city": "New York", "addr:housenumber": "131", "addr:postcode": "10011", "addr:street": "West 21st Street", "amenity": "cafe", "cuisine": "coffee_shop", "name": "Joe Pro Shop & Headquarters", "opening_hours": "Mo-Sa 08:00-17:00", "phone": "+1 212-924-7400", "website": "http://www.joenewyork.com"}}, {"type": "node", "id": 3008612564, "lat": 40.745629, "lon": -73.9937463, "tags": {"addr:city": "New York", "addr:country": "US", "addr:housenumber": "152", "addr:postcode": "10001", "addr:state": "NY", "addr:street": "West 26th Street", "amenity": "restaurant", "cuisine": "burger", "name": "Rare Bar and Grill"}}, {"type": "node", "id": 3220584269, "lat": 40.7429616, "lon": -73.9922855, "tags": {"addr:city": "New York", "addr:housenumber": "71", "addr:postcode": "10010", "addr:state": "NY", "addr:street": "West 23rd Street", "addr:unit": "515", "amenity": "college", "name": "Project Management Academy New York", "phone": "+1-877-637-0450", "website": "https://projectmanagementacademy.net/pmp-certification/new-york"}}, {"type": "node", "id": 3792505152, "lat": 40.7417954, "lon": -73.9970742, "tags": {"amenity": "cafe", "cuisine": "coffee_shop", "internet_access": "wlan", "internet_access:fee": "no", "name": "FIKA 7th Avenue", "opening_hours": "Mo-Fr 07:00-19:00; Sa 09:00-17:00; Su 09:00-18:00", "phone": "+1-646-922-7994", "website": "https://www.fikanyc.com/"}}, {"type": "node", "id": 3958232662, "lat": 40.7435359, "lon": -73.9925708, "tags": {"addr:housenumber": "729", "addr:postcode": "10010", "addr:street": "6th Avenue", "amenity": "cafe", "cuisine": "bagel;sandwich;breakfast;salad", "drink:coffee": "yes", "name": "The Corner Cafe"}}, {"type": "node", "id": 4076729410, "lat": 40.7385511, "lon": -73.9820371}, {"type": "node", "id": 4076729416, "lat": 40.7386653, "lon": -73.9819534}, {"type": "node", "id": 4088071261, "lat": 40.7443263, "lon": -73.9944542, "tags": {"addr:city": "New York", "addr:housenumber": "148", "addr:postcode": "10011", "addr:state": "NY", "addr:street": "West 24th Street", "amenity": "bar", "branch": "New York", "drink:beer": "yes", "happy_hours": "Mo-Fr 12:00-19:00", "name": "Barcade", "opening_hours": "Mo-Th, Su 12:00-02:00; Fr, Sa 12:00-04:00", "opening_hours:kitchen": "Mo-Th, Su 12:00-24:00; Fr, Sa 12:00-02:00", "phone": "+1 212-390-8455", "website": "https://barcadenewyork.com"}}, {"type": "node", "id": 4236711150, "lat": 40.7450974, "lon": -73.9947013, "tags": {"addr:city": "New York", "addr:housenumber": "257", "addr:postcode": "10001", "addr:state": "NY", "addr:street": "7th Avenue", "amenity": "restaurant", "cuisine": "italian", "delivery": "yes", "level": "1", "name": "Bella Napoli", "phone": "+1 212-675-4050", "takeaway": "yes", "website": "http://bellanapoli.com/7ave/7-avenue.html"}}, {"type": "node", "id": 4396465094, "lat": 40.7443392, "lon": -73.9987769, "tags": {"addr:postcode": "10011", "amenity": "restaurant", "cuisine": "asian", "name": "Momofuku Nishi", "name:en": "Momofuku Nishi", "website": "https://nishi.momofuku.com/"}}, {"type": "node", "id": 4442836595, "lat": 40.7455323, "lon": -73.9943777, "tags": {"addr:city": "New York", "addr:housenumber": "275", "addr:postcode": "10001", "addr:state": "NY", "addr:street": "7th Avenue", "amenity": "cafe", "branch": "Chelsea", "contact:facebook": "https://www.facebook.com/sevengramscaffe", "cuisine": "coffee_shop", "drink:coffee": "yes", "drink:espresso": "yes", "email": "info@sevengramscaffe.com", "internet_access": "yes", "name": "Seven Grams Caffe", "opening_hours": "Mo-Fr 07:00-19:00; Sa-Su 08:00-19:00", "phone": "+1 212-727-1777", "smoking": "no", "website": "https://www.sevengramscaffe.com"}}, {"type": "node", "id": 4492683386, "lat": 40.7428233, "lon": -73.9921754, "tags": {"addr:city": "New York", "addr:housenumber": "69", "addr:postcode": "10010", "addr:state": "NY", "addr:street": "West 23rd Street", "amenity": "bar", "ele": "2", "name": "The Storehouse", "opening_hours": "Mo-Su 11:00-04:00", "phone": "+1 212 243 8898", "smoking": "no", "website": "https://www.thestorehousenyc.com/"}}, {"type": "node", "id": 4539942054, "lat": 40.7419681, "lon": -73.9929316, "tags": {"addr:city": "New York", "addr:housenumber": "60", "addr:postcode": "10010", "addr:state": "NY", "addr:street": "West 22nd Street", "amenity": "restaurant", "delivery": "yes", "diet:gluten_free": "yes", "diet:vegan": "only", "name": "Beatnic", "opening_hours": "Mo-Su 10:00-22:00", "organic": "yes", "phone": "+1-212-290-8000", "smoking": "no", "takeaway": "yes", "website": "https://www.eatbeatnic.com/locations/flatiron"}}, {"type": "node", "id": 4604252268, "lat": 40.7426475, "lon": -73.9964607, "tags": {"addr:city": "New York", "addr:housenumber": "185", "addr:postcode": "10011", "addr:state": "NY", "addr:street": "West 21st Street", "amenity": "restaurant", "cuisine": "japanese", "delivery": "no", "name": "Momoya", "opening_hours": "Mo-Su 12:00-14:30, 17:30-22:30", "outdoor_seating": "no", "phone": "+1-212-989-4466", "smoking": "no", "takeaway": "yes", "website": "https://momoyanyc.com"}}, {"type": "node", "id": 4680472389, "lat": 40.7447503, "lon": -73.993589, "tags": {"amenity": "bar", "internet_access": "wlan", "name": "Smithfield Hall", "name:en": "Smithfield Hall"}}, {"type": "node", "id": 4757312021, "lat": 40.7443091, "lon": -73.9966612, "tags": {"addr:housenumber": "220", "addr:postcode": "10011", "addr:street": "West 23rd Street", "amenity": "cafe", "cuisine": "donut", "name": "Doughnut Plant", "opening_hours": "Mo-We, Su 07:00-22:00; Th-Sa 07:00-00:00"}}, {"type": "node", "id": 4815675028, "lat": 40.7445513, "lon": -73.9929939, "tags": {"addr:housenumber": "124", "addr:postcode": "10001", "addr:street": "West 25th Street", "amenity": "restaurant", "contact:facebook": "http://www.facebook.com/johnysluncheonettenyc", "contact:twitter": "http://twitter.com/sloppyjohny", "cuisine": "diner", "delivery": "yes", "drink:coffee": "yes", "drink:tea": "yes", "name": "Johny's Luncheonette", "opening_hours": "Mo-Fr 07:30-17:00; Sa, Su 08:30-16:00", "payment:american_express": "yes", "payment:discover_card": "yes", "payment:mastercard": "yes", "payment:visa": "yes", "phone": "+1 212-243-6230", "website": "https://johnysluncheonette.com/"}}, {"type": "node", "id": 4815932752, "lat": 40.7456493, "lon": -73.9942855, "tags": {"addr:city": "New York", "addr:housenumber": "275", "addr:postcode": "10001", "addr:state": "NY", "addr:street": "7th Avenue", "name": "Classpass", "office": "technology", "smoking": "no", "website": "https://classpass.com/"}}, {"type": "node", "id": 4880872875, "lat": 40.7430465, "lon": -73.9961727, "tags": {"addr:city": "New York", "addr:housenumber": "197", "addr:postcode": "10011", "addr:state": "NY", "addr:street": "7th Avenue", "amenity": "restaurant", "cuisine": "mexican", "delivery": "yes", "email": "chelsea@limonjunglenyc.com", "name": "Lim\u00f3n Jungle", "opening_hours": "11:00-23:00; Fr,Sa 11:00-00:00", "payment:american_express": "yes", "payment:discover_card": "yes", "payment:mastercard": "yes", "payment:visa": "yes", "phone": "+1-212-243-1212", "reservation": "yes", "takeaway": "yes", "website": "http://limonjunglenyc.com"}}, {"type": "node", "id": 5265748974, "lat": 40.7417874, "lon": -73.9925761, "tags": {"addr:housenumber": "50", "addr:street": "West 22nd Street", "amenity": "bar", "name": "BXL Zoute", "phone": "+1-646-692-9282"}}, {"type": "node", "id": 5388487797, "lat": 40.7413895, "lon": -73.9929254, "tags": {"addr:city": "New York", "addr:housenumber": "55", "addr:postcode": "10010", "addr:state": "NY", "addr:street": "West 21st Street", "amenity": "bar", "name": "Bounce Sporting Club", "opening_hours": "Mo-Th 12:00-03:00; Fr-Su 12:00-04:00", "outdoor_seating": "no", "phone": "+1-201-596-4666", "website": "https://www.bouncesportingclub.com"}}, {"type": "node", "id": 5400492993, "lat": 40.7466178, "lon": -73.9921722, "tags": {"addr:housenumber": "136", "addr:street": "West 28th Street", "amenity": "restaurant", "cuisine": "japanese", "name": "Ajisen Ramen", "phone": "+1-646-638-0888"}}, {"type": "node", "id": 5400496979, "lat": 40.7452899, "lon": -73.9988852, "tags": {"addr:housenumber": "300", "addr:street": "West 23rd Street", "amenity": "restaurant", "check_date": "2024-04-26", "cuisine": "sushi", "name": "Asuka Sushi", "opening_hours": "Su-Th 11:00-22:30; Fr-Sa 11:00-22:00", "phone": "+1-212-727-0888", "website": "https://www.asukasushiny.com/", "wheelchair": "yes"}}, {"type": "node", "id": 5762582554, "lat": 40.7426244, "lon": -73.9969669, "tags": {"addr:postcode": "10014", "amenity": "bar", "name": "The Village Vanguard", "opening_hours": "Mo-Su 20:00-00:30", "phone": "+12122554037"}}, {"type": "node", "id": 5844606724, "lat": 40.7444948, "lon": -73.9941795, "tags": {"addr:city": "New York", "addr:housenumber": "147", "addr:state": "NY", "addr:street": "West 24th Street", "addr:unit": "6/7", "amenity": "bar", "brewery": "yes", "check_date": "2024-06-17", "description": "Quirky bar whose name has intentional quotes.", "email": "theshakes@onestarnyc.com", "name": "\"one star\"", "opening_hours": "Mo-Sa 16:00-02:00; Su \"by appointment\"", "phone": "+1 212-777-0100"}}, {"type": "node", "id": 6026088130, "lat": 40.7430002, "lon": -73.9966979, "tags": {"addr:city": "New York", "addr:housenumber": "188", "addr:postcode": "10011", "addr:state": "NY", "addr:street": "7th Avenue", "amenity": "cafe", "brand": "Matto Espresso", "brand:wikidata": "Q122209496", "cuisine": "coffee_shop", "name": "Matto Espresso", "takeaway": "yes"}}, {"type": "node", "id": 6250176401, "lat": 40.745206, "lon": -73.9946116, "tags": {"addr:housenumber": "261", "addr:postcode": "10001", "addr:street": "7th Avenue", "amenity": "cafe", "branch": "Chelsea", "contact:facebook": "https://www.facebook.com/Variety-Coffee-Roasters-2000912436802356/", "cuisine": "coffee_shop", "drink:coffee": "yes", "drink:espresso": "yes", "drink:tea": "yes", "name": "Variety Coffee Roasters", "opening_hours": "Mo-Su 07:00-21:00", "phone": "+1 917-409-0106", "website": "https://varietycoffeeroasters.com", "wheelchair": "no"}}, {"type": "node", "id": 6259730842, "lat": 40.7438479, "lon": -73.9954656, "tags": {"addr:housenumber": "170", "addr:postcode": "10011", "addr:street": "West 23rd Street", "amenity": "cafe", "branch": "Chelsea", "check_date": "2024-04-26", "name": "ViVi Bubble Tea", "opening_hours": "Mo-Th, Su 10:00-22:00; Fr 10:00-23:00; Sa 10:00-22:30", "payment:credit_cards": "yes", "phone": "+1 212-366-0688", "website": "https://www.vivibubbletea.com/location_content.php?l=2", "wheelchair": "yes"}}, {"type": "node", "id": 6398111372, "lat": 40.7445405, "lon": -73.998373, "tags": {"addr:housenumber": "275", "addr:street": "West 22nd Street", "amenity": "bar", "cocktails": "yes", "drink:beer": "yes", "drink:liquor": "yes", "drink:wine": "yes", "lgbtq": "primary", "name": "Barracuda Bar", "opening_hours": "Mo-Su 16:00-04:00", "phone": "+1-212-645-8613", "toilets": "yes"}}, {"type": "node", "id": 6407832772, "lat": 40.7458591, "lon": -73.9936087, "tags": {"amenity": "bar", "cocktails": "yes", "cuisine": "pizza;snack", "description": "piano bar featuring live-accompaniment karaoke", "drink:beer": "draught", "drink:liquor": "yes", "drink:wine": "yes", "happy_hours": "Mo-Fr 17:00-19:00", "live_music": "yes", "name": "Sid Gold's Request Room", "phone": "+1-212-229-1948", "website": "https://sidgolds.com"}}, {"type": "node", "id": 6752564944, "lat": 40.7418737, "lon": -73.9933052, "tags": {"addr:city": "New York", "addr:housenumber": "684", "addr:postcode": "10010", "addr:state": "NY", "addr:street": "6th Avenue", "amenity": "cafe", "branch": "22nd & 6th", "brand": "Starbucks", "brand:wikidata": "Q37158", "cuisine": "coffee_shop", "name": "Starbucks", "official_name": "Starbucks Coffee", "opening_hours": "Mo-Th 06:00-19:00; Fr 06:00-20:00; Sa 06:30-20:00; Su 06:30-19:00", "phone": "+1 212-691-1948", "takeaway": "yes", "website": "https://www.starbucks.com/store-locator/store/16731/22nd-6th-684-avenue-of-the-americas-new-york-ny-100105110-u"}}, {"type": "node", "id": 6752564945, "lat": 40.7425047, "lon": -73.9933612, "tags": {"addr:housenumber": "699", "addr:postcode": "10011", "addr:street": "6th Avenue", "amenity": "restaurant", "name": "Essen Chelsea", "website": "https://www.essenfoodtogo.com/store699/restaurant.php"}}, {"type": "node", "id": 7105939411, "lat": 40.7461686, "lon": -74.0001493, "tags": {"camera:type": "dome", "man_made": "surveillance", "surveillance:type": "camera"}}, {"type": "node", "id": 7230710385, "lat": 40.7418314, "lon": -73.9975703, "tags": {"addr:housenumber": "152", "addr:postcode": "10011", "addr:street": "7th Avenue", "amenity": "restaurant", "name": "Peter McManus Cafe", "opening_hours": "Mo-Sa 11:00-04:00; Su 12:00-04:00", "wikidata": "Q7175816"}}, {"type": "node", "id": 9054229226, "lat": 40.7378054, "lon": -73.9789393}, {"type": "node", "id": 9569739936, "lat": 40.745998, "lon": -73.9996259}, {"type": "node", "id": 9569739940, "lat": 40.7459591, "lon": -73.9996608}, {"type": "node", "id": 9922905117, "lat": 40.7440139, "lon": -73.9950453, "tags": {"addr:city": "New York", "addr:housenumber": "165", "addr:postcode": "10011", "addr:state": "NY", "addr:street": "West 23rd Street", "amenity": "restaurant", "check_date": "2024-04-26", "cuisine": "chinese", "name": "Excellent Dumpling House", "name:zh": "\u4e09\u516d\u4e5d", "opening_hours": "11:00-21:45", "phone": "+1-212-989-8885", "website": "https://excellentdumpling.nyc/"}}, {"type": "node", "id": 10271227981, "lat": 40.745547, "lon": -73.994143, "tags": {"addr:city": "New York", "addr:housenumber": "275", "addr:postcode": "10001", "addr:state": "NY", "addr:street": "7th Avenue", "addr:unit": "2002", "fixme": "Clarify where 275 Seventh Ave is.", "level": "19", "name": "Epam", "office": "it", "phone": "+1 267 759 9000", "website": "https://www.epam.com/"}}, {"type": "node", "id": 10589487715, "lat": 40.7374386, "lon": -73.9783426}, {"type": "node", "id": 10589538446, "lat": 40.7387525, "lon": -73.98189}, {"type": "node", "id": 10818832466, "lat": 40.7420115, "lon": -73.9930358, "tags": {"addr:city": "New York", "addr:housenumber": "64", "addr:postcode": "10010", "addr:state": "NY", "addr:street": "West 22nd Street", "amenity": "restaurant", "branch": "Flatiron", "cuisine": "mediterranean;kebab", "name": "ta\u00efm", "opening_hours": "Mo-Su 11:00-22:00", "phone": "+1-212-966-7364", "website": "https://order.thanx.com/taim?location=8821"}}, {"type": "node", "id": 10873983898, "lat": 40.7434197, "lon": -73.9963738, "tags": {"addr:city": "New York", "addr:housenumber": "206", "addr:postcode": "10011", "addr:state": "NY", "addr:street": "West 22nd Street", "amenity": "pub", "name": "The Cooper Still", "website": "https://www.thecopperstillnyc.com/"}}, {"type": "node", "id": 11005206217, "lat": 40.7459284, "lon": -73.992669, "tags": {"addr:city": "New York", "addr:housenumber": "132", "addr:postcode": "10001", "addr:state": "NY", "addr:street": "West 27th Street", "amenity": "restaurant", "cuisine": "american", "dog": "outside", "name": "The Wilson", "opening_hours": "Mo-Su 07:00-22:00", "phone": "+12125292671", "website": "https://thewilsonnyc.com/"}}, {"type": "node", "id": 11063640164, "lat": 40.7449953, "lon": -73.9934531, "tags": {"name": "Gloss VFX", "office": "it"}}, {"type": "node", "id": 11088424818, "lat": 40.7462748, "lon": -73.9975223, "tags": {"addr:city": "New York", "addr:housenumber": "290", "addr:postcode": "10001", "addr:state": "NY", "addr:street": "8th Avenue", "amenity": "restaurant", "cuisine": "mediterranean", "delivery": "yes", "diet:kosher": "yes", "diet:vegan": "only", "diet:vegetarian": "yes", "name": "Anixi Mediterranean Vegan Restaurant", "opening_hours": "Mo-Th 16:30-22:00; Fr 16:30-22:30; Sa 11:30-22:30; Su 11:30-22:00", "phone": "+1-646-410-0946", "takeaway": "yes", "website": "https://www.anixinyc.com/", "website:menu": "https://www.anixinyc.com/menu/", "wikidata": "Q136351042"}}, {"type": "node", "id": 11734474015, "lat": 40.7428769, "lon": -73.9931922, "tags": {"addr:housenumber": "100", "addr:street": "West 23rd Street", "amenity": "restaurant", "cuisine": "mexican", "name": "Great Burrito", "opening_hours": "Mo-Su 09:00-21:00", "phone": "+1 212-243-0022", "website": "http://greatburrito23rdnyc.com/"}}, {"type": "node", "id": 11754487749, "lat": 40.7419249, "lon": -73.9928293, "tags": {"addr:city": "New York", "addr:housenumber": "56", "addr:postcode": "10010", "addr:state": "NY", "addr:street": "West 22nd Street", "amenity": "restaurant", "cuisine": "chinese", "name": "Grandma\u2019s Home", "opening_hours": "Tu-Sa 17:00-21:30", "reservation": "yes", "website": "https://www.grandmashome.us", "website:menu": "https://www.grandmashome.us/menus", "website:reservation": "https://resy.com/cities/ny/grandmas-home"}}, {"type": "node", "id": 11765725968, "lat": 40.7449385, "lon": -73.9932512, "tags": {"addr:city": "New York", "addr:floor": "7", "addr:housenumber": "133", "addr:postcode": "10001", "addr:state": "NY", "addr:street": "West 25th Street", "name": "DeSantis Breindel", "office": "advertising_agency", "opening_hours": "Mo-Fr 09:00-18:00", "phone": "+1 212-994-7680", "website": "https://www.desantisbreindel.com/"}}, {"type": "node", "id": 11844522999, "lat": 40.7452301, "lon": -73.9978783, "tags": {"amenity": "bar", "check_date": "2024-04-26", "name": "Trailer Park Lounge"}}, {"type": "node", "id": 11873180748, "lat": 40.7439868, "lon": -73.9949708, "tags": {"amenity": "restaurant", "name": "Malibu Diner"}}, {"type": "node", "id": 11892515469, "lat": 40.7450228, "lon": -73.99825, "tags": {"addr:housenumber": "268", "addr:street": "West 23rd Street", "amenity": "restaurant", "cuisine": "pizza", "name": "Lions & Tigers & Squares Detroit Pizza"}}, {"type": "node", "id": 12241733433, "lat": 40.7462639, "lon": -73.9938221, "tags": {"addr:city": "New York", "addr:housenumber": "291", "addr:postcode": "10001", "addr:state": "NY", "addr:street": "7th Avenue", "amenity": "restaurant", "cuisine": "chinese;japanese", "name": "Emperor Dumpling"}}, {"type": "node", "id": 12307257374, "lat": 40.7451722, "lon": -73.9976887, "tags": {"addr:state": "NY", "amenity": "restaurant", "diet:vegan": "only", "name": "Urban Vegan Kitchen"}}, {"type": "node", "id": 12616827011, "lat": 40.7455565, "lon": -73.9964516, "tags": {"amenity": "school", "mascot": "Falcons", "mascot:name": "Mikey the Falcon", "name": "High School of Fashion Industries"}}, {"type": "node", "id": 12618270838, "lat": 40.741977, "lon": -73.9921913, "tags": {"amenity": "school", "mascot": "Silver Hawks", "name": "Manhattan Village Academy"}}, {"type": "node", "id": 13064262826, "lat": 40.7440402, "lon": -73.9930299, "tags": {"amenity": "restaurant", "name": "Lulla", "website": "https://www.lullanyc.com/"}}, {"type": "node", "id": 13107965005, "lat": 40.7449435, "lon": -73.9942824, "tags": {"addr:city": "New York", "addr:housenumber": "160", "addr:postcode": "10001", "addr:state": "NY", "addr:street": "West 25th Street", "amenity": "bar", "name": "The Rose", "website": "https://www.thechelseannewyork.com/cocktail-bars-chelsea-nyc"}}, {"type": "way", "id": 108159980, "nodes": [1241329531, 1241329536, 1241329534, 1241329535, 1241329532, 1241329538, 2703104327, 2703104389, 1241329531], "tags": {"addr:city": "New York", "addr:state": "NY", "amenity": "university", "ele": "8", "gnis:feature_id": "2083029", "mascot": "Tigers", "name": "Fashion Institute of Technology", "operator": "State University of New York", "operator:type": "government", "operator:wikidata": "Q1140241", "phone": "+1-212-217-7999", "polling_station": "yes", "religion": "none", "short_name": "FIT", "source": "bing & campus map", "website": "https://www.fitnyc.edu", "wikidata": "Q844999", "wikipedia": "en:Fashion Institute of Technology"}}, {"type": "way", "id": 248144059, "nodes": [2549961668, 2549961646, 2549961631, 2549961619, 2549961563, 2549961626, 2549961668], "tags": {"addr:city": "New York", "addr:housenumber": "127", "addr:postcode": "10001", "addr:state": "NY", "addr:street": "West 26th Street", "amenity": "restaurant", "building": "yes", "cuisine": "bar", "height": "46.4", "name": "Black Door", "nycdoitt:bin": "1015037", "opening_hours": "Mo-Fr 16:00-04:00; Sa 08:00-04:00", "website": "https://blackdoornyc.com/"}}, {"type": "way", "id": 249657372, "nodes": [2562375149, 2562375154, 2562375208, 2562375200, 2562375149], "tags": {"addr:housenumber": "17", "addr:postcode": "10003", "addr:street": "Gramercy Park South", "building": "yes", "height": "22.8", "nycdoitt:bin": "1017937"}}, {"type": "way", "id": 264625629, "nodes": [2702838486, 2702838547, 2702838635, 2702838629, 2702838687, 2702838604, 2702838564, 2702838559, 2702838486], "tags": {"addr:housenumber": "335", "addr:postcode": "10011", "addr:street": "West 16th Street", "building": "yes", "building:colour": "#DFCAAF", "building:levels": "5", "building:material": "brick", "building:part": "yes", "height": "22.6", "nycdoitt:bin": "1013048", "roof:material": "concrete", "roof:shape": "flat"}}, {"type": "way", "id": 264646541, "nodes": [2703059448, 2703059430, 2703059300, 2703059407, 2703059473, 2703059477, 2703059470, 2703059463, 2703059448], "tags": {"building": "yes", "height": "46.6", "nycdoitt:bin": "1014771"}}, {"type": "way", "id": 264646543, "nodes": [2703059127, 2703059157, 2703059345, 2703059246, 2703059127], "tags": {"addr:housenumber": "136", "addr:postcode": "10011", "addr:street": "West 21st Street", "building": "yes", "height": "45.5", "nycdoitt:bin": "1014758"}}, {"type": "way", "id": 264651626, "nodes": [2703115828, 2703115829, 2703115826, 9569739936, 2501879029, 9569739940, 2703115801, 2703115811, 2703115823, 2703115831, 2703115837, 7105939411, 2703115867, 2703115873, 2703115858, 2703115839, 2703115835, 2703115828], "tags": {"addr:city": "New York", "addr:housenumber": "333", "addr:postcode": "10011", "addr:state": "NY", "addr:street": "West 23rd Street", "amenity": "cinema", "building": "college", "check_date": "2024-04-26", "height": "10.8", "name": "SVA Theater", "nycdoitt:bin": "1078542", "screen": "2", "source": "Local Knowledge;local_knowledge", "website": "https://www.svatheatre.com/", "wikidata": "Q45101554"}}, {"type": "way", "id": 264754109, "nodes": [2704040473, 2704040477, 2704040472, 2704040482, 2704040483, 2704040486, 2704040487, 2704040516, 2704040493, 2704040489, 2704040479, 2704040476, 2704040473], "tags": {"addr:housenumber": "214", "addr:postcode": "10010", "addr:street": "East 21st Street", "building": "yes", "height": "37.0", "nycdoitt:bin": "1019626"}}, {"type": "way", "id": 264760109, "nodes": [2704093229, 2704093210, 9054229226, 2704093205, 2704093207, 2704093211, 10589487715, 2704093203, 2704093192, 2704093195, 2704093189, 2704093212, 2704093229], "tags": {"addr:housenumber": "340", "addr:postcode": "10010", "addr:street": "East 24th Street", "building": "dormitory", "height": "42.2", "nycdoitt:bin": "1020597", "operator": "School of Visual Arts"}}, {"type": "way", "id": 371120098, "nodes": [2703033339, 2703033306, 2703033304, 2703033271, 2703033308, 2703033316, 2703033339], "tags": {"leisure": "park", "name": "Chelsea Green", "operator": "New York City Department of Parks and Recreation", "operator:short": "NYC Parks", "operator:type": "government", "operator:wikidata": "Q1894232", "website": "https://www.nycgovparks.org/parks/chelsea-green-park"}}, {"type": "way", "id": 753146654, "nodes": [2704096972, 2704096965, 10589538446, 2704096939, 2704096933, 4076729416, 2704096891, 4076729410, 2704096873, 2704096893, 2704096932, 2704096946, 2704096958, 2704096969, 2704096972]}, {"type": "relation", "id": 15402496, "members": [{"type": "way", "ref": 753146654, "role": "outer"}, {"type": "way", "ref": 264760109, "role": "outer"}, {"type": "way", "ref": 264754109, "role": "outer"}, {"type": "way", "ref": 249657372, "role": "outer"}, {"type": "way", "ref": 264646543, "role": "outer"}, {"type": "way", "ref": 264646541, "role": "outer"}, {"type": "way", "ref": 264625629, "role": "outer"}, {"type": "way", "ref": 264651626, "role": "outer"}], "tags": {"addr:housenumber": "209", "addr:postcode": "10010", "addr:street": "East 23rd Street", "alt_name": "SVA", "amenity": "university", "fax": "+1-212-725-3587", "name": "School of Visual Arts", "phone": "+1-212-592-2000", "short_name": "SVA", "type": "multipolygon", "website": "https://sva.edu", "wikidata": "Q1279835", "wikipedia": "en:School of Visual Arts"}}]}