{"version": 0.6, "generator": "Overpass API 0.7.62.8 e802775f", "osm3s": {"timestamp_osm_base": "2025-12-01T16:09:24Z", "copyright": "The data included in this document is from www.openstreetmap.org. The data is made available under ODbL."}, "elements": [{"type": "node", "id": 357635667, "lat": 40.682071, "lon": -73.9141838}, {"type": "node", "id": 2568578852, "lat": 40.6818579, "lon": -73.9116925, "tags": {"addr:housenumber": "54", "addr:postcode": "11233", "addr:street": "Rockaway Avenue", "air_conditioning": "yes", "amenity": "bar", "indoor_seating": "yes", "min_age": "21", "name": "All Night Skate", "opening_hours": "Mo-Th 14:00-02:00, Fr 14:00-03:00, Sa 12:00-03:00, Su 12:00-02:00", "outdoor_seating": "yes", "smoking": "no"}}, {"type": "node", "id": 2568582007, "lat": 40.6817211, "lon": -73.9122887}, {"type": "node", "id": 2568582076, "lat": 40.68186, "lon": -73.9123162}, {"type": "node", "id": 2568582161, "lat": 40.6819177, "lon": -73.9138427}, {"type": "node", "id": 2568582353, "lat": 40.6820655, "lon": -73.913872}, {"type": "node", "id": 2568617364, "lat": 40.6803747, "lon": -73.9109814}, {"type": "node", "id": 2568617366, "lat": 40.6803845, "lon": -73.9108942}, {"type": "node", "id": 2568617373, "lat": 40.6803912, "lon": -73.9108349}, {"type": "node", "id": 2568617384, "lat": 40.680405, "lon": -73.9107134}, {"type": "node", "id": 2568617387, "lat": 40.680413, "lon": -73.9106425}, {"type": "node", "id": 2568617390, "lat": 40.6804229, "lon": -73.9105544}, {"type": "node", "id": 2568617391, "lat": 40.6804264, "lon": -73.9105233}, {"type": "node", "id": 2568617395, "lat": 40.6804362, "lon": -73.9104371}, {"type": "node", "id": 2568617398, "lat": 40.6804504, "lon": -73.9103117}, {"type": "node", "id": 2568617402, "lat": 40.6804603, "lon": -73.910224}, {"type": "node", "id": 2568617503, "lat": 40.6809372, "lon": -73.9110057}, {"type": "node", "id": 2568617512, "lat": 40.6809622, "lon": -73.910784}, {"type": "node", "id": 2568642211, "lat": 40.6817667, "lon": -73.9068668}, {"type": "node", "id": 2568642227, "lat": 40.6818159, "lon": -73.9069543}, {"type": "node", "id": 2568642252, "lat": 40.6818615, "lon": -73.9070353}, {"type": "node", "id": 2568642282, "lat": 40.6819062, "lon": -73.9071148}, {"type": "node", "id": 2568642354, "lat": 40.6820838, "lon": -73.9072211}, {"type": "node", "id": 2568642369, "lat": 40.6821376, "lon": -73.9073155}, {"type": "node", "id": 2568642375, "lat": 40.6821587, "lon": -73.9077215}, {"type": "node", "id": 2568642379, "lat": 40.6821619, "lon": -73.9073583}, {"type": "node", "id": 2568642406, "lat": 40.682198, "lon": -73.9077908}, {"type": "node", "id": 2568642408, "lat": 40.6821995, "lon": -73.9074246}, {"type": "node", "id": 2568642433, "lat": 40.6822178, "lon": -73.9078258}, {"type": "node", "id": 2568642476, "lat": 40.6822712, "lon": -73.9079199}, {"type": "node", "id": 4930562923, "lat": 40.6846079, "lon": -73.9091115, "tags": {"addr:housenumber": "1413", "addr:postcode": "11207", "addr:street": "Bushwick Avenue", "amenity": "bar", "cuisine": "american;burger;spanish", "indoor_seating": "yes", "name": "Salud bar & grill", "outdoor_seating": "yes", "website": "https://saludbargrill.com/"}}, {"type": "node", "id": 5693951191, "lat": 40.6849632, "lon": -73.9138237, "tags": {"addr:city": "Brooklyn", "addr:housenumber": "1643", "addr:postcode": "11207", "addr:state": "NY", "addr:street": "Broadway", "amenity": "cafe", "check_date": "2024-09-19", "check_date:opening_hours": "2024-02-11", "cuisine": "coffee_shop", "diet:vegan": "yes", "diet:vegetarian": "yes", "indoor_seating": "yes", "internet_access": "wlan", "internet_access:fee": "customers", "name": "Covert", "opening_hours:signed": "no", "outdoor_seating": "yes", "payment:cash": "yes", "payment:mastercard": "yes", "payment:visa": "yes", "wheelchair": "yes"}}, {"type": "node", "id": 5715927404, "lat": 40.681748, "lon": -73.9068337}, {"type": "node", "id": 5715927408, "lat": 40.6814503, "lon": -73.9069244}, {"type": "node", "id": 5715927410, "lat": 40.6813955, "lon": -73.9069757}, {"type": "node", "id": 5715927411, "lat": 40.6815175, "lon": -73.9077884}, {"type": "node", "id": 5715927418, "lat": 40.6818478, "lon": -73.908361}, {"type": "node", "id": 5715927823, "lat": 40.6815424, "lon": -73.9070722}, {"type": "node", "id": 5715927863, "lat": 40.6821158, "lon": -73.9076413}, {"type": "node", "id": 5715927916, "lat": 40.6822533, "lon": -73.9075192}, {"type": "node", "id": 5715927926, "lat": 40.682279, "lon": -73.9079357}, {"type": "node", "id": 5715927949, "lat": 40.6812985, "lon": -73.9068326}, {"type": "node", "id": 5715927951, "lat": 40.6811191, "lon": -73.9070131}, {"type": "node", "id": 5715927985, "lat": 40.6820073, "lon": -73.9073017}, {"type": "node", "id": 8548293045, "lat": 40.6806196, "lon": -73.9111962}, {"type": "node", "id": 8548293046, "lat": 40.6805361, "lon": -73.9111798}, {"type": "node", "id": 8548293071, "lat": 40.6803563, "lon": -73.9111445}, {"type": "node", "id": 8548293083, "lat": 40.6807834, "lon": -73.9102478}, {"type": "node", "id": 8548293084, "lat": 40.6810175, "lon": -73.9102938}, {"type": "node", "id": 8548293085, "lat": 40.6809106, "lon": -73.9112411}, {"type": "node", "id": 8548293086, "lat": 40.6806593, "lon": -73.9111918}, {"type": "node", "id": 8548293087, "lat": 40.680658, "lon": -73.9112038}, {"type": "node", "id": 8548293088, "lat": 40.6804629, "lon": -73.9102005}, {"type": "node", "id": 8548293089, "lat": 40.6807423, "lon": -73.9102554}, {"type": "node", "id": 8548293090, "lat": 40.680744, "lon": -73.9102401}, {"type": "node", "id": 9222996943, "lat": 40.6811133, "lon": -73.9070749}, {"type": "node", "id": 9222996944, "lat": 40.6815893, "lon": -73.907022}, {"type": "node", "id": 9222996945, "lat": 40.6815817, "lon": -73.907009}, {"type": "node", "id": 9251781101, "lat": 40.6835111, "lon": -73.9112515, "tags": {"amenity": "restaurant", "cuisine": "pizza", "indoor_seating": "yes", "name": "Armandos pizza", "opening_hours": "Mo-Su 11:00-22:00", "outdoor_seating": "no"}}, {"type": "node", "id": 9251781107, "lat": 40.6839835, "lon": -73.9120679, "tags": {"amenity": "restaurant", "check_date": "2025-04-17", "cuisine": "indian", "indoor_seating": "yes", "name": "Tandoori Masala Indian Cuisine", "outdoor_seating": "no"}}, {"type": "node", "id": 9670464381, "lat": 40.6850565, "lon": -73.9139634, "tags": {"amenity": "restaurant", "check_date": "2025-04-24", "cuisine": "american", "indoor_seating": "yes", "name": "Liberty Soul Food", "outdoor_seating": "no"}}, {"type": "node", "id": 10078608721, "lat": 40.6821074, "lon": -73.91388}, {"type": "node", "id": 10078608722, "lat": 40.6818706, "lon": -73.9138346}, {"type": "node", "id": 10078608723, "lat": 40.6818351, "lon": -73.913732}, {"type": "node", "id": 10078608724, "lat": 40.6819951, "lon": -73.9123465}, {"type": "node", "id": 10078608725, "lat": 40.681511, "lon": -73.9140713}, {"type": "node", "id": 10814744732, "lat": 40.6838799, "lon": -73.9078436, "tags": {"amenity": "bar", "check_date": "2025-04-24", "indoor_seating": "yes", "name": "Tres Jolie Cafe", "outdoor_seating": "yes"}}, {"type": "node", "id": 11126353500, "lat": 40.6835148, "lon": -73.9118396, "tags": {"air_conditioning": "yes", "amenity": "restaurant", "check_date:opening_hours": "2025-05-16", "indoor_seating": "yes", "name": "Kaiff", "opening_hours:signed": "no", "outdoor_seating": "no", "smoking": "no"}}, {"type": "node", "id": 11596296417, "lat": 40.6830587, "lon": -73.9104116, "tags": {"addr:city": "Brooklyn", "addr:housenumber": "1717", "addr:postcode": "11207", "addr:state": "NY", "addr:street": "Broadway", "addr:unit": "#310", "office": "political_party"}}, {"type": "node", "id": 12416766703, "lat": 40.68474, "lon": -73.9139846, "tags": {"addr:city": "Brooklyn", "addr:housenumber": "1636", "addr:street": "Broadway", "amenity": "restaurant", "check_date": "2025-04-24", "cuisine": "mexican", "indoor_seating": "yes", "name": "El Burrito Nacho", "outdoor_seating": "no", "phone": "+1-347-425-8390"}}, {"type": "node", "id": 12842971177, "lat": 40.6819279, "lon": -73.9117046, "tags": {"air_conditioning": "no", "amenity": "restaurant", "cuisine": "mexican", "diet:vegan": "yes", "diet:vegetarian": "yes", "indoor_seating": "yes", "name": "Mr Taco", "opening_hours": "Mo-Th 14:00-24:00, Fr 14:00-01:00, Su 12:00-24:00", "outdoor_seating": "yes", "smoking": "no"}}, {"type": "node", "id": 12844356799, "lat": 40.6813411, "lon": -73.9113044, "tags": {"addr:city": "Brooklyn", "addr:housenumber": "53", "addr:postcode": "11233", "addr:state": "NY", "addr:street": "Rockaway Avenue", "air_conditioning": "yes", "amenity": "cafe", "check_date:opening_hours": "2025-05-17", "cuisine": "coffee_shop", "indoor_seating": "yes", "name": "Dolly's Coffee Shop", "opening_hours:signed": "no", "outdoor_seating": "yes", "smoking": "no"}}, {"type": "way", "id": 601381677, "nodes": [5715927985, 2568642354, 2568642369, 2568642379, 2568642408, 5715927916, 5715927863, 2568642375, 2568642406, 2568642433, 2568642476, 5715927926, 5715927418, 5715927411, 9222996943, 5715927951, 5715927949, 5715927410, 5715927408, 5715927823, 9222996944, 9222996945, 5715927404, 2568642211, 2568642227, 2568642252, 2568642282, 5715927985], "tags": {"leisure": "park", "name": "Boyland Park", "wikidata": "Q34810252"}}, {"type": "way", "id": 920674312, "nodes": [8548293085, 8548293086, 8548293087, 8548293045, 8548293046, 8548293071, 2568617364, 2568617366, 2568617373, 2568617384, 2568617387, 2568617390, 2568617391, 2568617395, 2568617398, 2568617402, 8548293088, 8548293089, 8548293090, 8548293083, 8548293084, 2568617512, 2568617503, 8548293085], "tags": {"addr:city": "Brooklyn", "addr:housenumber": "251", "addr:postcode": "11233", "addr:state": "NY", "addr:street": "MacDougal Street", "amenity": "school", "ele": "27", "gnis:feature_id": "954344", "name": "Brooklyn Landmark Elementary School", "old_name": "Junior High School 73", "operator": "New York City Department of Education", "operator:type": "public", "operator:wikidata": "Q408230", "ref": "K599", "short_name": "BLES", "website": "http://www.brooklynlandmark.org/"}}, {"type": "way", "id": 1101344827, "nodes": [357635667, 10078608721, 2568582353, 2568582161, 10078608722, 10078608723, 10078608724, 2568582076, 2568582007, 10078608725, 357635667], "tags": {"ele": "18", "gnis:feature_id": "2375390", "leisure": "park", "name": "Marion-Hopkinson Playground", "operator": "New York City Department of Parks and Recreation", "operator:short": "NYC Parks", "operator:type": "public", "operator:wikidata": "Q1894232", "wikidata": "Q34846305"}}]}