{"version": 0.6, "generator": "Overpass API 0.7.62.8 e802775f", "osm3s": {"timestamp_osm_base": "2025-12-01T17:05:52Z", "copyright": "The data included in this document is from www.openstreetmap.org. The data is made available under ODbL."}, "elements": [{"type": "node", "id": 2570002995, "lat": 40.749645, "lon": -73.8864298, "tags": {"addr:housenumber": "79-23", "addr:postcode": "11372", "addr:street": "37th Avenue", "amenity": "restaurant", "cuisine": "chinese", "name": "Wok's Chinese Cuisine", "opening_hours": "Mo-Th 11:00-22:30; Fr,Sa 11:00-23:00; Su 11:00-22:30"}}, {"type": "node", "id": 2570072868, "lat": 40.7501429, "lon": -73.8816862, "tags": {"addr:city": "Jackson Heights", "addr:housenumber": "84-23", "addr:postcode": "11372", "addr:state": "NY", "addr:street": "37th Avenue", "amenity": "restaurant", "brand": "Pizza Hut", "brand:wikidata": "Q191615", "cuisine": "pizza", "name": "Pizza Hut", "phone": "+1-718-730-1003", "website": "https://www.pizzahut.com/"}}, {"type": "node", "id": 2570074503, "lat": 40.750291, "lon": -73.8801425}, {"type": "node", "id": 2570074505, "lat": 40.750328, "lon": -73.8797926}, {"type": "node", "id": 2570074540, "lat": 40.7505576, "lon": -73.8801915}, {"type": "node", "id": 2570074547, "lat": 40.7505946, "lon": -73.8798416}, {"type": "node", "id": 2570108768, "lat": 40.7496716, "lon": -73.8839279, "tags": {"addr:housenumber": "82-08", "addr:postcode": "11372", "addr:street": "37th Avenue", "amenity": "restaurant", "name": "Yummy's Chicken and Pizza"}}, {"type": "node", "id": 2570108774, "lat": 40.7497817, "lon": -73.882834, "tags": {"addr:city": "Jackson Heights", "addr:housenumber": "83-14", "addr:postcode": "11372", "addr:state": "NY", "addr:street": "37th Avenue", "amenity": "restaurant", "cuisine": "colombian;latin_american", "name": "Barriles Restaurante Colombiano", "phone": "+1-347-642-9811"}}, {"type": "node", "id": 2570108813, "lat": 40.7498857, "lon": -73.8818816, "tags": {"addr:city": "Jackson Heights", "addr:housenumber": "84-20", "addr:postcode": "11372", "addr:state": "NY", "addr:street": "37th Avenue", "amenity": "restaurant", "cuisine": "seafood;latin_american", "name": "Ocean Boil Restaurante Comida Del Mar", "phone": "+1-929-296-6338", "website": "http://www.oceanicboilrestaurant.com"}}, {"type": "node", "id": 2570139383, "lat": 40.7499509, "lon": -73.8851651, "tags": {"addr:housenumber": "35-59", "addr:postcode": "11372", "addr:street": "81st Street", "amenity": "school", "name": "Renaissance Charter School", "wikidata": "Q17182293"}}, {"type": "node", "id": 2570139436, "lat": 40.7500213, "lon": -73.8829205, "tags": {"addr:housenumber": "83-15", "addr:postcode": "11372", "addr:street": "37th Avenue", "amenity": "cafe", "cuisine": "coffee_shop", "name": "Over the Moon Juice & Coffee", "phone": "+1-929-344-8058"}}, {"type": "node", "id": 2570174028, "lat": 40.7478048, "lon": -73.8857009, "tags": {"addr:housenumber": "37-65", "addr:postcode": "11372", "addr:street": "80th Street", "amenity": "cafe", "name": "969 NYC Coffee", "opening_hours": "Fr-We 07:00-21:00"}}, {"type": "node", "id": 2570174138, "lat": 40.7494184, "lon": -73.8863458, "tags": {"addr:housenumber": "79-28", "addr:postcode": "11372", "addr:street": "37th Avenue", "amenity": "restaurant", "name": "Seba Seba"}}, {"type": "node", "id": 2570174168, "lat": 40.7494686, "lon": -73.8858258, "tags": {"addr:housenumber": "80-10", "addr:postcode": "11372", "addr:street": "37th Avenue", "amenity": "cafe", "name": "Brother's Bubble Tea"}}, {"type": "node", "id": 2570174174, "lat": 40.7494727, "lon": -73.8857826, "tags": {"addr:housenumber": "80-12", "addr:postcode": "11372", "addr:street": "37th Avenue", "amenity": "restaurant", "cuisine": "sushi;japanese", "name": "Happy Kitchen"}}, {"type": "node", "id": 2570174185, "lat": 40.7494975, "lon": -73.8855664, "tags": {"addr:housenumber": "80-18", "addr:postcode": "11372", "addr:street": "37th Avenue", "amenity": "restaurant", "cuisine": "steak_house", "name": "La Boina Roja Steak House"}}, {"type": "node", "id": 2570174233, "lat": 40.747656, "lon": -73.8847669}, {"type": "node", "id": 2570174328, "lat": 40.747664, "lon": -73.8846981}, {"type": "node", "id": 2570174332, "lat": 40.7476724, "lon": -73.8846244}, {"type": "node", "id": 2570174478, "lat": 40.7478404, "lon": -73.8848036}, {"type": "node", "id": 2570174482, "lat": 40.7478483, "lon": -73.8847348}, {"type": "node", "id": 2570174486, "lat": 40.7478568, "lon": -73.8846611}, {"type": "node", "id": 2570180715, "lat": 40.7474678, "lon": -73.8819428}, {"type": "node", "id": 2570180763, "lat": 40.7475348, "lon": -73.8820874}, {"type": "node", "id": 2570180769, "lat": 40.7475487, "lon": -73.8819578}, {"type": "node", "id": 2846344693, "lat": 40.7473956, "lon": -73.8850101, "tags": {"addr:housenumber": "80-26", "addr:postcode": "11373", "addr:street": "Roosevelt Avenue", "amenity": "restaurant", "name": "Copacabana"}}, {"type": "node", "id": 3260468934, "lat": 40.7474333, "lon": -73.8828602}, {"type": "node", "id": 3260468935, "lat": 40.7476792, "lon": -73.882695}, {"type": "node", "id": 3260468936, "lat": 40.7476553, "lon": -73.8829037}, {"type": "node", "id": 3660700123, "lat": 40.7464139, "lon": -73.8835078}, {"type": "node", "id": 3660700124, "lat": 40.7464649, "lon": -73.8836343}, {"type": "node", "id": 3660705925, "lat": 40.7462643, "lon": -73.8836126}, {"type": "node", "id": 3664559477, "lat": 40.7500194, "lon": -73.8856736}, {"type": "node", "id": 3664559478, "lat": 40.7512489, "lon": -73.8859029}, {"type": "node", "id": 3664559479, "lat": 40.7498945, "lon": -73.8867984}, {"type": "node", "id": 3664559480, "lat": 40.7511281, "lon": -73.8870321}, {"type": "node", "id": 3677690290, "lat": 40.7495068, "lon": -73.8829223}, {"type": "node", "id": 3677690291, "lat": 40.7497384, "lon": -73.8808754}, {"type": "node", "id": 3677690292, "lat": 40.7482628, "lon": -73.8815517}, {"type": "node", "id": 3677690293, "lat": 40.7496444, "lon": -73.8817965}, {"type": "node", "id": 3677690294, "lat": 40.7497123, "lon": -73.8811153}, {"type": "node", "id": 3677690295, "lat": 40.7483658, "lon": -73.8806177}, {"type": "node", "id": 3677690296, "lat": 40.7483385, "lon": -73.8808705}, {"type": "node", "id": 3677690297, "lat": 40.7481879, "lon": -73.8825226}, {"type": "node", "id": 3677690298, "lat": 40.7496185, "lon": -73.8820422}, {"type": "node", "id": 3677690299, "lat": 40.74824, "lon": -73.881796}, {"type": "node", "id": 3677690300, "lat": 40.7481699, "lon": -73.8826756}, {"type": "node", "id": 3677690301, "lat": 40.7495215, "lon": -73.8827742}, {"type": "node", "id": 3677697551, "lat": 40.7499169, "lon": -73.8865965}, {"type": "node", "id": 3677697552, "lat": 40.7511511, "lon": -73.8868174}, {"type": "node", "id": 3677697553, "lat": 40.7499966, "lon": -73.8858785}, {"type": "node", "id": 3677697554, "lat": 40.7512263, "lon": -73.8861142}, {"type": "node", "id": 3677708629, "lat": 40.7483972, "lon": -73.8865057}, {"type": "node", "id": 3677708630, "lat": 40.7478089, "lon": -73.8862456}, {"type": "node", "id": 3677708631, "lat": 40.7490951, "lon": -73.886469}, {"type": "node", "id": 3677708632, "lat": 40.7477927, "lon": -73.8863956}, {"type": "node", "id": 3677708633, "lat": 40.7483962, "lon": -73.8865149}, {"type": "node", "id": 3677708634, "lat": 40.7484157, "lon": -73.8863378}, {"type": "node", "id": 3677708635, "lat": 40.7484139, "lon": -73.8863543}, {"type": "node", "id": 3677708636, "lat": 40.7490773, "lon": -73.8866441}, {"type": "node", "id": 3677892366, "lat": 40.7496805, "lon": -73.886065, "tags": {"addr:housenumber": "80-01", "addr:postcode": "11372", "addr:street": "37th Avenue", "amenity": "restaurant", "cuisine": "ice_cream", "name": "Rainbowberry Frozen Yogurt"}}, {"type": "node", "id": 3678168721, "lat": 40.7497307, "lon": -73.8855944, "tags": {"addr:housenumber": "80-21", "addr:postcode": "11372", "addr:street": "37th Avenue", "amenity": "restaurant", "name": "Just Made 4 U"}}, {"type": "node", "id": 3682773543, "lat": 40.7495626, "lon": -73.8850034, "tags": {"amenity": "restaurant", "cuisine": "diner", "name": "Jahn's", "wikidata": "Q6123277"}}, {"type": "node", "id": 3685926669, "lat": 40.748961, "lon": -73.8826605}, {"type": "node", "id": 3685926670, "lat": 40.7491815, "lon": -73.8828623}, {"type": "node", "id": 3685926671, "lat": 40.7485119, "lon": -73.8824993}, {"type": "node", "id": 3685926672, "lat": 40.7492078, "lon": -73.882708}, {"type": "node", "id": 3685926673, "lat": 40.7483025, "lon": -73.8824666}, {"type": "node", "id": 3685926674, "lat": 40.7482792, "lon": -73.8826974}, {"type": "node", "id": 3685926675, "lat": 40.7487475, "lon": -73.8826268}, {"type": "node", "id": 3685926676, "lat": 40.7487225, "lon": -73.8828687}, {"type": "node", "id": 3685926677, "lat": 40.7482714, "lon": -73.8827872}, {"type": "node", "id": 3685926678, "lat": 40.7487293, "lon": -73.8827849}, {"type": "node", "id": 3685926679, "lat": 40.7489425, "lon": -73.8828182}, {"type": "node", "id": 3685926680, "lat": 40.7493931, "lon": -73.8829038}, {"type": "node", "id": 3685926681, "lat": 40.748481, "lon": -73.8827388}, {"type": "node", "id": 3685926682, "lat": 40.7492182, "lon": -73.8826288}, {"type": "node", "id": 3685926683, "lat": 40.7484736, "lon": -73.8828166}, {"type": "node", "id": 3685926684, "lat": 40.749171, "lon": -73.8829513}, {"type": "node", "id": 3685926685, "lat": 40.7485044, "lon": -73.8825849}, {"type": "node", "id": 3685926686, "lat": 40.7489337, "lon": -73.8829071}, {"type": "node", "id": 3685926687, "lat": 40.7487551, "lon": -73.8825422}, {"type": "node", "id": 3685926688, "lat": 40.7494149, "lon": -73.8827541}, {"type": "node", "id": 3685926689, "lat": 40.7494214, "lon": -73.8826649}, {"type": "node", "id": 3685926690, "lat": 40.748291, "lon": -73.882539}, {"type": "node", "id": 3685926691, "lat": 40.7493841, "lon": -73.8829875}, {"type": "node", "id": 3685926692, "lat": 40.7489684, "lon": -73.8825798}, {"type": "node", "id": 3689604537, "lat": 40.7496945, "lon": -73.8837227, "tags": {"addr:housenumber": "82-14", "addr:postcode": "11372", "addr:street": "37th Avenue", "amenity": "restaurant", "name": "Jackson House Restaurant"}}, {"type": "node", "id": 3693960491, "lat": 40.749741, "lon": -73.8832269, "tags": {"addr:city": "Jackson Heights", "addr:housenumber": "83-02", "addr:postcode": "11372", "addr:state": "NY", "addr:street": "37th Avenue", "amenity": "restaurant", "cuisine": "colombian", "name": "Pollos a la Brasa Mario", "phone": "+17184578800", "website": "https://www.pollosmario83.com"}}, {"type": "node", "id": 3693960492, "lat": 40.7498091, "lon": -73.8825927, "tags": {"addr:housenumber": "83-22", "addr:postcode": "11372", "addr:street": "37th Avenue", "amenity": "restaurant", "name": "Las Margaritas"}}, {"type": "node", "id": 3693960493, "lat": 40.7497543, "lon": -73.8831089, "tags": {"addr:housenumber": "83-06", "addr:postcode": "11372", "addr:street": "37th Avenue", "amenity": "restaurant", "cuisine": "pizza", "name": "Thomas Pizza"}}, {"type": "node", "id": 5346071936, "lat": 40.7459794, "lon": -73.8835719, "tags": {"addr:housenumber": "81-34", "addr:street": "Baxter Avenue", "amenity": "restaurant", "cuisine": "pizza", "name": "Louie's Pizza", "phone": "+1-718-440-9346"}}, {"type": "node", "id": 5377882636, "lat": 40.747849, "lon": -73.8832468, "tags": {"addr:housenumber": "82-17", "addr:street": "Roosevelt Avenue", "name": "Arcia & Associates", "office": "lawyer", "phone": "+1-718-651-4363", "website": "https://www.arciaandassociates.com/"}}, {"type": "node", "id": 5377891816, "lat": 40.7495348, "lon": -73.8844182, "tags": {"addr:housenumber": "37-06", "addr:street": "82nd Street", "name": "Ana Maria Bazan Law Firm", "office": "lawyer", "phone": "+1-718-478-8583", "website": "https://www.bazanimmigration.com/"}}, {"type": "node", "id": 5425889467, "lat": 40.7499341, "lon": -73.8813618, "tags": {"addr:housenumber": "85-02", "addr:street": "37th Avenue", "amenity": "restaurant", "bar": "yes", "cuisine": "uruguayan", "drink:beer": "yes", "drink:coffee": "yes", "drink:espresso": "yes", "drink:wine": "yes", "name": "La Gran Uruguaya", "opening_hours": "Mo-Th 11:00-23:00; Fr-Sa 11:00-24:00; Su 11:00-23:00", "phone": "+1-718-505-0400", "website": "https://lauruguayanyc.com"}}, {"type": "node", "id": 5425891458, "lat": 40.74632, "lon": -73.8845169, "tags": {"addr:housenumber": "40-41", "addr:street": "81st Street", "name": "Bader-Yakaitis, LLP", "office": "lawyer"}}, {"type": "node", "id": 5499993029, "lat": 40.7500328, "lon": -73.8804319, "tags": {"addr:city": "Jackson Heights", "addr:housenumber": "86-2", "addr:postcode": "11372", "addr:state": "NY", "addr:street": "37th Avenue", "amenity": "restaurant", "name": "Bachue Restaurant & Bar", "phone": "+1-718-779-7595", "website": "http://www.bachuey.com"}}, {"type": "node", "id": 5500000362, "lat": 40.7498352, "lon": -73.8822764, "tags": {"addr:city": "Jackson Heights", "addr:housenumber": "84-02", "addr:postcode": "11372", "addr:state": "NY", "addr:street": "37th Avenue", "amenity": "restaurant", "cuisine": "uruguayan", "name:es": "El Chivito de Oro", "phone": "+1-718-424-0600"}}, {"type": "node", "id": 5500027711, "lat": 40.7450184, "lon": -73.8842207, "tags": {"addr:city": "Elmhurst", "addr:housenumber": "80-32", "addr:postcode": "11373", "addr:state": "NY", "addr:street": "Baxter Avenue", "amenity": "restaurant", "cuisine": "argentinian", "name": "La Fusta Restaurante", "phone": "+1-718-429-8222", "website": "https://www.lafustarestaurant.com/"}}, {"type": "node", "id": 5616242126, "lat": 40.7473001, "lon": -73.8831213, "tags": {"addr:postcode": "11373", "amenity": "restaurant", "cuisine": "mexican", "internet_access": "wlan", "name": "Juquila", "opening_hours": "Mo-Su 10:00-01:30", "phone": "+1-718-458-0104", "website": "https://www.juquilamexicancuisine.com/"}}, {"type": "node", "id": 5687618966, "lat": 40.7460042, "lon": -73.8841818, "tags": {"addr:housenumber": "81-21", "addr:street": "41st Avenue", "amenity": "restaurant", "cafe": "yes", "name": "Mario's Pizza & Cafe"}}, {"type": "node", "id": 5687629356, "lat": 40.7462816, "lon": -73.883357, "tags": {"addr:housenumber": "81-48", "addr:street": "Baxter Avenue", "amenity": "restaurant", "cuisine": "chinese", "name": "Cheong Fei"}}, {"type": "node", "id": 5687629358, "lat": 40.7461998, "lon": -73.8834206, "tags": {"addr:housenumber": "81-42", "addr:street": "Baxter Avenue", "amenity": "restaurant", "cuisine": "colombian", "name": "Guayaco's"}}, {"type": "node", "id": 5694637646, "lat": 40.7478726, "lon": -73.8847947, "tags": {"addr:housenumber": "37-63", "addr:street": "81st Street", "amenity": "restaurant", "name": "Julietta"}}, {"type": "node", "id": 6008928285, "lat": 40.7475622, "lon": -73.8868977, "tags": {"addr:housenumber": "3770", "addr:street": "79th Street", "amenity": "restaurant", "cuisine": "thai", "name": "Kitchen 79", "opening_hours": "Mo-Fr 11:30-22:30; Sa-Su 12:00-22:30"}}, {"type": "node", "id": 7917128890, "lat": 40.7471701, "lon": -73.8870431, "tags": {"addr:housenumber": "78-14", "addr:street": "Roosevelt Avenue", "amenity": "restaurant", "check_date:opening_hours": "2025-07-10", "cuisine": "peruvian", "name": "Riko", "opening_hours:signed": "no"}}, {"type": "node", "id": 9045283635, "lat": 40.7475562, "lon": -73.8833986, "tags": {"office": "lawyer", "specialty": "immigration"}}, {"type": "node", "id": 9045283637, "lat": 40.7475105, "lon": -73.8863799, "tags": {"office": "accountant"}}, {"type": "node", "id": 9045283638, "lat": 40.7474978, "lon": -73.8864402, "tags": {"office": "lawyer"}}, {"type": "node", "id": 12022987170, "lat": 40.7497507, "lon": -73.8854194, "tags": {"addr:housenumber": "8025", "addr:street": "81st Street", "amenity": "cafe", "internet_access": "wlan", "name": "Caff\u00e9 Bene", "opening_hours": "Mo-Su 07:00-22:00", "phone": "+17184240768", "website": "http://www.caffebenequeens.com/", "website:menu": "http://places.singleplatform.com/caffe-bene-8/menu?ref=google"}}, {"type": "node", "id": 12412618917, "lat": 40.7476087, "lon": -73.8853858, "tags": {"amenity": "restaurant", "cuisine": "mexican", "name": "Pico De Gallo"}}, {"type": "node", "id": 12412618918, "lat": 40.7475543, "lon": -73.8859451, "tags": {"amenity": "restaurant", "name": "Cositas Ricas"}}, {"type": "node", "id": 12412618920, "lat": 40.7475252, "lon": -73.8837661, "tags": {"amenity": "cafe", "brand": "Kung Fu Tea", "brand:wikidata": "Q66023886", "cuisine": "bubble_tea", "name": "Kung Fu Tea", "takeaway": "yes"}}, {"type": "node", "id": 12766789402, "lat": 40.7475193, "lon": -73.882054, "tags": {"entrance": "main"}}, {"type": "way", "id": 250583708, "nodes": [2570074503, 2570074540, 2570074547, 2570074505, 2570074503], "tags": {"addr:city": "Jackson Heights", "addr:housenumber": "86-15", "addr:postcode": "11372", "addr:state": "NY", "addr:street": "37th Avenue", "alt_name": "Fire Fighter Christopher A. Santora School", "amenity": "school", "building": "school", "fax": "+1-718-429-3484", "grades": "PK;0-2", "height": "22.8", "name": "Public School Q222", "nycdoitt:bin": "4035854", "operator": "New York City Department of Education", "operator:short": "NYC Public Schools", "operator:type": "public", "operator:wikidata": "Q408230", "phone": "+1-718-429-2563", "ref": "Q222", "short_name": "P.S. Q222", "website": "https://www.schools.nyc.gov/schools/Q222", "wheelchair": "yes"}}, {"type": "way", "id": 250587790, "nodes": [2570174328, 2570174482, 2570174486, 2570174332, 2570174328], "tags": {"addr:housenumber": "81-03", "addr:postcode": "11372", "addr:street": "Roosevelt Avenue", "amenity": "bar", "building": "yes", "height": "7.3", "name": "Central Station Bar", "nycdoitt:bin": "4030026"}}, {"type": "way", "id": 250587810, "nodes": [2570174233, 2570174478, 2570174482, 2570174328, 2570174233], "tags": {"addr:housenumber": "81-01", "addr:postcode": "11372", "addr:street": "Roosevelt Avenue", "amenity": "restaurant", "building": "yes", "building:levels": "2", "height": "7.3", "name": "Pollos a la Brasa Mario", "nycdoitt:bin": "4030027"}}, {"type": "way", "id": 250587865, "nodes": [2570180763, 2570180769, 2570180715, 12766789402, 2570180763], "tags": {"addr:city": "Elmhurst", "addr:housenumber": "40-19", "addr:postcode": "11373", "addr:state": "NY", "addr:street": "Gleane Street", "amenity": "bar", "brewery": "yes", "building": "yes", "check_date": "2025-04-18", "height": "5.5", "instagram": "https://www.instagram.com/terraza_7/", "name": "Terraza 7", "nycdoitt:bin": "4437139", "opening_hours": "Mo-Su 16:00-04:00", "outdoor_seating": "no", "website": "https://terraza7.com/", "wheelchair": "limited"}}, {"type": "way", "id": 319612782, "nodes": [3260468936, 3260468935, 3260468934, 3260468936], "tags": {"leisure": "park", "name": "Manuel De Dios Unanue Triangle", "operator": "New York City Department of Parks and Recreation", "operator:short": "NYC Parks", "operator:type": "public", "operator:wikidata": "Q1894232", "source": "Bing, NYC", "wikidata": "Q49521339"}}, {"type": "way", "id": 361610147, "nodes": [3660700124, 3660700123, 3660705925, 3660700124], "tags": {"ele": "21", "gnis:feature_id": "2352527", "leisure": "park", "name": "Dunningham Triangle", "operator": "New York City Department of Parks and Recreation", "operator:short": "NYC Parks", "operator:type": "government", "operator:wikidata": "Q1894232", "wikidata": "Q49484567"}}, {"type": "way", "id": 363600520, "nodes": [3677690293, 3677690292, 3677690299, 3677690298, 3677690293], "tags": {"access": "private", "leisure": "park"}}, {"type": "way", "id": 363600521, "nodes": [3677690294, 3677690291, 3677690295, 3677690296, 3677690294], "tags": {"access": "private", "leisure": "park"}}, {"type": "way", "id": 363600522, "nodes": [3677690290, 3685926680, 3685926691, 3685926684, 3685926670, 3685926679, 3685926686, 3685926676, 3685926678, 3685926681, 3685926683, 3685926677, 3685926674, 3677690300, 3677690297, 3685926690, 3685926673, 3685926671, 3685926685, 3685926675, 3685926687, 3685926692, 3685926669, 3685926672, 3685926682, 3685926689, 3685926688, 3677690301, 3677690290], "tags": {"access": "private", "leisure": "park"}}, {"type": "way", "id": 363600660, "nodes": [3664559477, 3677697553, 3677697554, 3664559478, 3664559477], "tags": {"access": "private", "leisure": "park"}}, {"type": "way", "id": 363600661, "nodes": [3664559479, 3677697551, 3677697552, 3664559480, 3664559479], "tags": {"access": "private", "leisure": "park"}}, {"type": "way", "id": 363602788, "nodes": [3677708636, 3677708633, 3677708629, 3677708635, 3677708634, 3677708631, 3677708636], "tags": {"access": "private", "leisure": "park"}}, {"type": "way", "id": 363602789, "nodes": [3677708632, 3677708629, 3677708635, 3677708630, 3677708632], "tags": {"access": "private", "leisure": "park"}}]}