{"version": 0.6, "generator": "Overpass API 0.7.62.8 e802775f", "osm3s": {"timestamp_osm_base": "2025-12-01T03:54:01Z", "copyright": "The data included in this document is from www.openstreetmap.org. The data is made available under ODbL."}, "elements": [{"type": "node", "id": 357620365, "lat": 40.7389359, "lon": -73.9954239, "tags": {"addr:city": "New York", "addr:housenumber": "590", "addr:postcode": "10011", "addr:street": "Avenue of the Americas", "gnis:feature_id": "2083034", "name": "The New York Foundling", "office": "ngo", "phone": "+1 212 633 9300", "website": "https://www.nyfoundling.org/", "wikidata": "Q7013548", "wikipedia": "en:New York Foundling"}}, {"type": "node", "id": 357632422, "lat": 40.7388889, "lon": -73.9936111, "tags": {"amenity": "school", "ele": "11", "gnis:feature_id": "2368020", "name": "Taylor Business Institute"}}, {"type": "node", "id": 368043657, "lat": 40.7375904, "lon": -73.9937182, "tags": {"addr:state": "NY", "ele": "11", "gnis:feature_id": "2083035", "name": "Center for Jewish History", "office": "association", "source": "USGS Geonames", "wikidata": "Q5059727", "wikipedia": "en:Center for Jewish History"}}, {"type": "node", "id": 1427294706, "lat": 40.735357, "lon": -73.9945327, "tags": {"addr:housename": "Parsons", "addr:housenumber": "66", "addr:postcode": "10011", "addr:street": "5th Avenue", "amenity": "university", "name": "Parsons School of Design"}}, {"type": "node", "id": 2020724922, "lat": 40.7375845, "lon": -74.0001443, "tags": {"addr:city": "New York", "addr:country": "US", "addr:housenumber": "35", "addr:postcode": "10011", "addr:state": "NY", "addr:street": "7th Avenue", "amenity": "cafe", "designation": "Juice Bar", "name": "Whole Green", "wifi": "no"}}, {"type": "node", "id": 2020727865, "lat": 40.7370855, "lon": -73.9986335, "tags": {"addr:housenumber": "126", "addr:postcode": "10011", "addr:street": "West 13th Street", "amenity": "restaurant", "name": "Alice"}}, {"type": "node", "id": 2299770711, "lat": 40.7396323, "lon": -73.996068, "tags": {"amenity": "restaurant", "name": "Crema"}}, {"type": "node", "id": 2299770712, "lat": 40.7395688, "lon": -73.9959132, "tags": {"amenity": "restaurant", "name": "da Umberto"}}, {"type": "node", "id": 2328223904, "lat": 40.7391381, "lon": -73.9957765, "tags": {"amenity": "restaurant", "name": "The Hummus & Pita Co."}}, {"type": "node", "id": 2328279411, "lat": 40.7398784, "lon": -73.9989355, "tags": {"amenity": "restaurant", "check_date": "2024-09-12", "name": "J's Pizza"}}, {"type": "node", "id": 2384821679, "lat": 40.7384873, "lon": -74.0000074, "tags": {"amenity": "cafe", "atm": "yes", "cuisine": "bagel", "name": "Bagel and More", "opening_hours": "24/7"}}, {"type": "node", "id": 2384821767, "lat": 40.7388057, "lon": -73.9997449, "tags": {"amenity": "restaurant", "check_date": "2024-05-16", "name": "iPizzaNY"}}, {"type": "node", "id": 2384821772, "lat": 40.7388452, "lon": -73.9998143, "tags": {"addr:city": "New York", "addr:country": "US", "addr:housenumber": "203", "addr:postcode": "10001", "addr:state": "NY", "addr:street": "West 14th Street", "amenity": "cafe", "check_date": "2024-05-16", "contact:email": "donutpub@gmail.com", "contact:facebook": "donutpub", "contact:instagram": "thedonutpub", "contact:phone": "+1-646-398-7007", "contact:website": "https://www.donutpub.com/location/west-village", "cuisine": "donut", "diet:gluten_free": "yes", "diet:non-vegetarian": "yes", "diet:vegan": "yes", "name": "The Donut Pub", "opening_hours": "24/7", "takeaway": "yes", "wheelchair": "yes"}}, {"type": "node", "id": 2477560531, "lat": 40.7342202, "lon": -73.9993466}, {"type": "node", "id": 2477560536, "lat": 40.7343962, "lon": -73.9992053}, {"type": "node", "id": 2477560543, "lat": 40.7346551, "lon": -73.9997999}, {"type": "node", "id": 2477560567, "lat": 40.7341653, "lon": -73.9995129}, {"type": "node", "id": 2477560570, "lat": 40.7346997, "lon": -73.9994371}, {"type": "node", "id": 2478495089, "lat": 40.738528, "lon": -73.993377, "tags": {"addr:city": "New York", "addr:housenumber": "21", "addr:postcode": "10011", "addr:street": "West 17th Street", "amenity": "restaurant", "cuisine": "seafood", "name": "BLT Fish", "phone": "+1 212 691-8888", "website": "http://bltfish.com/"}}, {"type": "node", "id": 2478495091, "lat": 40.7387251, "lon": -73.9937954, "tags": {"addr:city": "New York", "addr:housenumber": "31", "addr:postcode": "10011", "addr:street": "West 17th Street", "amenity": "restaurant", "cuisine": "spanish", "name": "Aldea", "phone": "+1 212 675-7223", "website": "https://aldearestaurant.com/"}}, {"type": "node", "id": 2478495092, "lat": 40.7388033, "lon": -73.9940261, "tags": {"addr:housenumber": "35", "addr:street": "West 17th Street", "amenity": "restaurant", "name": "Chelsea Inn"}}, {"type": "node", "id": 2478897572, "lat": 40.7387142, "lon": -73.9956231, "tags": {"addr:housenumber": "574", "addr:postcode": "10011", "addr:street": "6th Avenue", "amenity": "restaurant", "cuisine": "diner", "name": "Hollywood Diner", "opening_hours": "24/7", "phone": "+1 212-691-8465"}}, {"type": "node", "id": 2478897589, "lat": 40.7394173, "lon": -73.9951134, "tags": {"addr:housenumber": "600", "addr:street": "6th Avenue", "amenity": "restaurant", "name": "Flavabom"}}, {"type": "node", "id": 2478897615, "lat": 40.7395596, "lon": -73.9954916, "tags": {"addr:housenumber": "601", "addr:postcode": "10011", "addr:street": "6th Avenue", "amenity": "restaurant", "branch": "Chelsea", "cuisine": "mexican", "name": "Guac Time", "website": "www.guactimenyc.com"}}, {"type": "node", "id": 2547200402, "lat": 40.7350879, "lon": -73.9933063, "tags": {"addr:city": "New York", "addr:housenumber": "9", "addr:postcode": "10003", "addr:street": "East 13th Street", "amenity": "cafe", "branch": "Union Square", "brand": "Joe Coffee Company", "cuisine": "pastry", "drink:coffee": "yes", "drink:tea": "yes", "internet_access": "wlan", "internet_access:fee": "no", "name": "Joe Coffee Company", "opening_hours": "Mo-Th 07:00-20:00; Fr-Su 07:00-18:30", "phone": "+1 212-924-3300", "takeaway": "yes", "toilets": "yes", "website": "http://www.joenewyork.com/locations/union-square/", "wheelchair": "no"}}, {"type": "node", "id": 2547200478, "lat": 40.7351174, "lon": -73.9934403}, {"type": "node", "id": 2547200489, "lat": 40.7353146, "lon": -73.9939103}, {"type": "node", "id": 2547200491, "lat": 40.7353612, "lon": -73.9932635}, {"type": "node", "id": 2547200492, "lat": 40.7353704, "lon": -73.9932855}, {"type": "node", "id": 2547200497, "lat": 40.7356273, "lon": -73.9930991}, {"type": "node", "id": 2547200498, "lat": 40.7358152, "lon": -73.9935472}, {"type": "node", "id": 2562440460, "lat": 40.7344184, "lon": -73.9992573}, {"type": "node", "id": 2562440501, "lat": 40.7344858, "lon": -73.9993044}, {"type": "node", "id": 2562440508, "lat": 40.734526, "lon": -73.9993301}, {"type": "node", "id": 2565868322, "lat": 40.7352962, "lon": -73.9970481}, {"type": "node", "id": 2565868342, "lat": 40.7353981, "lon": -73.9972876}, {"type": "node", "id": 2565868347, "lat": 40.7354225, "lon": -73.9972697}, {"type": "node", "id": 2565868348, "lat": 40.7354251, "lon": -73.9969534}, {"type": "node", "id": 2565868361, "lat": 40.7355332, "lon": -73.996874}, {"type": "node", "id": 2565868365, "lat": 40.7355446, "lon": -73.9969009}, {"type": "node", "id": 2565868368, "lat": 40.7355498, "lon": -73.9968971}, {"type": "node", "id": 2565868376, "lat": 40.7356081, "lon": -73.9971333}, {"type": "node", "id": 2565868379, "lat": 40.7356218, "lon": -73.9970819}, {"type": "node", "id": 2565868382, "lat": 40.7356268, "lon": -73.9970782}, {"type": "node", "id": 2565868384, "lat": 40.7356352, "lon": -73.9971133}, {"type": "node", "id": 2565870641, "lat": 40.736017, "lon": -73.9960577, "tags": {"addr:housenumber": "38", "addr:postcode": "10011", "addr:street": "West 13th Street", "name": "OLAMI Manhattan", "office": "religion", "phone": "+1-646-486-0470", "religion": "jewish", "website": "https://olamimanhattan.org"}}, {"type": "node", "id": 2565870656, "lat": 40.7350627, "lon": -73.9945087}, {"type": "node", "id": 2565870686, "lat": 40.735307, "lon": -73.9943295}, {"type": "node", "id": 2565870750, "lat": 40.7355657, "lon": -73.9949435}, {"type": "node", "id": 2569050392, "lat": 40.7361321, "lon": -73.995801, "tags": {"addr:city": "New York", "addr:housenumber": "35", "addr:postcode": "10011", "addr:state": "NY", "addr:street": "West 13th Street", "amenity": "restaurant", "cuisine": "italian", "name": "Da Andrea", "opening_hours": "Mo-Th 11:30-22:00; Fr 11:30-23:00; Sa 11:00-23:00; Su 11:00-22:00", "outdoor_seating": "sidewalk", "phone": "+1-212-367-1979", "reservation": "yes", "website": "https://www.daandreanyc.com/"}}, {"type": "node", "id": 2569050457, "lat": 40.735442, "lon": -73.9942223}, {"type": "node", "id": 2569050460, "lat": 40.735574, "lon": -73.9941308}, {"type": "node", "id": 2569050462, "lat": 40.7355848, "lon": -73.9945444}, {"type": "node", "id": 2569050464, "lat": 40.7355897, "lon": -73.9945409}, {"type": "node", "id": 2569050471, "lat": 40.7357101, "lon": -73.994453}, {"type": "node", "id": 2569050552, "lat": 40.736379, "lon": -73.9964215}, {"type": "node", "id": 2569050562, "lat": 40.736512, "lon": -73.9967361}, {"type": "node", "id": 2569050575, "lat": 40.7366269, "lon": -73.9962405}, {"type": "node", "id": 2569050577, "lat": 40.7366585, "lon": -73.9963154}, {"type": "node", "id": 2569050582, "lat": 40.7366937, "lon": -73.9963986}, {"type": "node", "id": 2569050585, "lat": 40.7367119, "lon": -73.9963853}, {"type": "node", "id": 2569050587, "lat": 40.7367436, "lon": -73.9964604}, {"type": "node", "id": 2569050594, "lat": 40.736778, "lon": -73.9965418}, {"type": "node", "id": 2569053997, "lat": 40.7355636, "lon": -73.9983744, "tags": {"addr:housenumber": "465", "addr:postcode": "10011", "addr:street": "6th Avenue", "amenity": "restaurant", "indoor_seating": "yes", "name": "Shu Han Ju", "opening_hours": "Su-Th 11:30-22:00; Fr,Sa 11:30-23:30", "outdoor_seating": "no"}}, {"type": "node", "id": 2569063799, "lat": 40.7372169, "lon": -73.9993267}, {"type": "node", "id": 2569063806, "lat": 40.7372379, "lon": -73.9993117}, {"type": "node", "id": 2569063810, "lat": 40.7372484, "lon": -73.9994029}, {"type": "node", "id": 2569063815, "lat": 40.7372631, "lon": -73.9993925}, {"type": "node", "id": 2569063819, "lat": 40.7372694, "lon": -73.9994077}, {"type": "node", "id": 2569063826, "lat": 40.7372898, "lon": -73.9994571}, {"type": "node", "id": 2569063832, "lat": 40.7373067, "lon": -73.999445}, {"type": "node", "id": 2569063834, "lat": 40.7373118, "lon": -73.9994572}, {"type": "node", "id": 2569063842, "lat": 40.7373428, "lon": -73.9995321}, {"type": "node", "id": 2569063845, "lat": 40.7373527, "lon": -73.9992296}, {"type": "node", "id": 2569063858, "lat": 40.7373905, "lon": -73.999321}, {"type": "node", "id": 2569063865, "lat": 40.737416, "lon": -73.9993827}, {"type": "node", "id": 2569063870, "lat": 40.737447, "lon": -73.9994576}, {"type": "node", "id": 2569065716, "lat": 40.7351784, "lon": -73.9990335}, {"type": "node", "id": 2569065730, "lat": 40.7352203, "lon": -73.9989138}, {"type": "node", "id": 2569065735, "lat": 40.7352412, "lon": -73.9988497}, {"type": "node", "id": 2569065736, "lat": 40.7352484, "lon": -73.9995286}, {"type": "node", "id": 2569065737, "lat": 40.7352621, "lon": -73.9987833}, {"type": "node", "id": 2569065740, "lat": 40.7352716, "lon": -73.9992155}, {"type": "node", "id": 2569065742, "lat": 40.7352727, "lon": -73.9988084}, {"type": "node", "id": 2569065743, "lat": 40.7352837, "lon": -73.9994274}, {"type": "node", "id": 2569065747, "lat": 40.7352919, "lon": -73.9987185}, {"type": "node", "id": 2569065750, "lat": 40.7352948, "lon": -73.9987084}, {"type": "node", "id": 2569065751, "lat": 40.7352985, "lon": -73.9987057}, {"type": "node", "id": 2569065756, "lat": 40.7353085, "lon": -73.9995648}, {"type": "node", "id": 2569065758, "lat": 40.7353106, "lon": -73.9986685}, {"type": "node", "id": 2569065759, "lat": 40.735313, "lon": -73.9986611}, {"type": "node", "id": 2569065761, "lat": 40.7353238, "lon": -73.9986225}, {"type": "node", "id": 2569065767, "lat": 40.7353629, "lon": -73.9985011}, {"type": "node", "id": 2569065770, "lat": 40.7354009, "lon": -73.9985975}, {"type": "node", "id": 2569065791, "lat": 40.7354995, "lon": -73.9996371}, {"type": "node", "id": 2569065797, "lat": 40.7355277, "lon": -73.9996167}, {"type": "node", "id": 2569065801, "lat": 40.7355584, "lon": -73.9997778}, {"type": "node", "id": 2569065802, "lat": 40.7355586, "lon": -74.0001417}, {"type": "node", "id": 2569065814, "lat": 40.7356147, "lon": -73.9991075}, {"type": "node", "id": 2569065823, "lat": 40.7356419, "lon": -73.9990878}, {"type": "node", "id": 2569065884, "lat": 40.7357533, "lon": -73.9994533}, {"type": "node", "id": 2569065914, "lat": 40.7357853, "lon": -73.9994301}, {"type": "node", "id": 2702937391, "lat": 40.7394756, "lon": -73.9968306}, {"type": "node", "id": 2702937428, "lat": 40.7396073, "lon": -73.9970573}, {"type": "node", "id": 2702937444, "lat": 40.7396504, "lon": -73.997026}, {"type": "node", "id": 2702937460, "lat": 40.7396936, "lon": -73.9966719}, {"type": "node", "id": 2702937474, "lat": 40.7397976, "lon": -73.9969188}, {"type": "node", "id": 2702958597, "lat": 40.737728, "lon": -73.9949206}, {"type": "node", "id": 2702958608, "lat": 40.737807, "lon": -73.9945982}, {"type": "node", "id": 2702958611, "lat": 40.7378135, "lon": -73.995176}, {"type": "node", "id": 2702958617, "lat": 40.7378221, "lon": -73.9951967}, {"type": "node", "id": 2702958621, "lat": 40.7378297, "lon": -73.9951643}, {"type": "node", "id": 2702958634, "lat": 40.7378922, "lon": -73.9948021}, {"type": "node", "id": 2702958643, "lat": 40.7379335, "lon": -73.9951163}, {"type": "node", "id": 2702958647, "lat": 40.7379435, "lon": -73.9951401}, {"type": "node", "id": 2702958651, "lat": 40.7379685, "lon": -73.9944817}, {"type": "node", "id": 2702958657, "lat": 40.7380378, "lon": -73.9946476}, {"type": "node", "id": 2702958659, "lat": 40.7380626, "lon": -73.9946297}, {"type": "node", "id": 2702958670, "lat": 40.7381792, "lon": -73.9949188}, {"type": "node", "id": 2702958672, "lat": 40.7381823, "lon": -73.9949165}, {"type": "node", "id": 2702958674, "lat": 40.7381956, "lon": -73.9949582}, {"type": "node", "id": 2702966180, "lat": 40.7385721, "lon": -73.9945288}, {"type": "node", "id": 2702966183, "lat": 40.7385954, "lon": -73.9945838}, {"type": "node", "id": 2702966208, "lat": 40.738737, "lon": -73.9944082}, {"type": "node", "id": 2702966210, "lat": 40.7387534, "lon": -73.9944681}, {"type": "node", "id": 2702966211, "lat": 40.7387603, "lon": -73.9944631}, {"type": "node", "id": 2710177862, "lat": 40.7362844, "lon": -73.9936689, "tags": {"addr:city": "New York", "addr:housenumber": "90", "addr:postcode": "10011", "addr:street": "5th Avenue", "amenity": "university", "name": "Student Study Center", "operator": "The New School"}}, {"type": "node", "id": 3522432756, "lat": 40.7343936, "lon": -73.9996466, "tags": {"barrier": "gate"}}, {"type": "node", "id": 3522432762, "lat": 40.7346891, "lon": -73.9995337}, {"type": "node", "id": 3716882407, "lat": 40.7372924, "lon": -73.9991162, "tags": {"amenity": "restaurant", "cuisine": "pizza", "name": "Sotto 13"}}, {"type": "node", "id": 3804413327, "lat": 40.7357502, "lon": -73.9935221}, {"type": "node", "id": 3804413328, "lat": 40.7356093, "lon": -73.9931997}, {"type": "node", "id": 3804413329, "lat": 40.7352401, "lon": -73.993439}, {"type": "node", "id": 3804413330, "lat": 40.7353948, "lon": -73.9937928}, {"type": "node", "id": 4149649615, "lat": 40.734788, "lon": -73.9998597, "tags": {"amenity": "restaurant", "name": "Rosemary's", "opening_hours": "Mo-Th 08:00-23:00, Fr 08:00-24:00, Sa 10:00-24:00, Su 10:00-23:00", "opening_hours:signed": "no", "phone": "+1 212 647 1818", "toilets": "yes", "toilets:access": "customers", "website": "https://www.rosemarysnyc.com/"}}, {"type": "node", "id": 4300546590, "lat": 40.7363315, "lon": -73.9971668, "tags": {"addr:housenumber": "500", "addr:postcode": "10011", "addr:street": "6th Avenue", "amenity": "cafe", "cuisine": "bagel", "drink:coffee": "yes", "fax": "+1 212-627-5054", "name": "Murray's Bagels", "opening_hours": "Mo-Fr 06:00-18:00; Sa, Su 06:00-19:00", "payment:american_express": "yes", "payment:cash": "yes", "payment:diners_club": "yes", "payment:discover_card": "yes", "payment:jcb": "yes", "payment:mastercard": "yes", "payment:unionpay": "yes", "payment:visa": "yes", "phone": "+1 212-462-2830", "smoking": "no", "takeaway": "yes", "website": "https://www.murraysbagels.com/"}}, {"type": "node", "id": 4444156976, "lat": 40.7363224, "lon": -73.994803, "tags": {"addr:housenumber": "18", "addr:postcode": "10011", "addr:street": "West 14th Street", "addr:unit": "A", "amenity": "cafe", "branch": "Union Sq. West", "level": "0", "name": "ViVi Bubble Tea", "opening_hours": "Mo-Sa 11:00-21:00; Su 12:00-21:00", "opening_hours:signed": "no", "payment:credit_cards": "yes", "website": "https://www.vivibubbletea.com/location_content.php?l=24"}}, {"type": "node", "id": 4759906014, "lat": 40.7353781, "lon": -73.993334}, {"type": "node", "id": 4759906015, "lat": 40.7354429, "lon": -73.9934824}, {"type": "node", "id": 4759906016, "lat": 40.7355348, "lon": -73.9934124}, {"type": "node", "id": 4759906017, "lat": 40.7354836, "lon": -73.9932954}, {"type": "node", "id": 5213944829, "lat": 40.7377783, "lon": -73.9953709, "tags": {"addr:housenumber": "51", "addr:postcode": "10011", "addr:street": "West 15th Street", "amenity": "school", "name": "PhotoManhattan"}}, {"type": "node", "id": 5213944830, "lat": 40.7370625, "lon": -73.9973172, "tags": {"addr:housenumber": "517", "addr:postcode": "10011", "addr:street": "6th Avenue", "amenity": "restaurant", "name": "Cafe Water"}}, {"type": "node", "id": 5243573749, "lat": 40.7370892, "lon": -73.9979596, "tags": {"addr:housenumber": "113", "addr:street": "West 13th Street", "amenity": "restaurant", "cuisine": "basque", "name": "Spain Restaurant"}}, {"type": "node", "id": 5265746760, "lat": 40.7388199, "lon": -73.9941252, "tags": {"addr:housenumber": "39", "addr:street": "West 17th Street", "amenity": "restaurant", "cuisine": "japanese", "name": "Futago"}}, {"type": "node", "id": 5265747703, "lat": 40.7388326, "lon": -73.9955295, "tags": {"addr:housenumber": "590", "addr:postcode": "10011", "addr:street": "6th Avenue", "amenity": "cafe", "branch": "Chelsea", "cuisine": "coffee_shop", "drink:beer": "yes", "drink:coffee": "yes", "drink:tea": "yes", "drink:wine": "yes", "internet_access": "wlan", "name": "Blank Street Coffee", "opening_hours": "Mo-Su 06:30-18:00"}}, {"type": "node", "id": 5265747921, "lat": 40.7384445, "lon": -73.9958164, "tags": {"addr:housenumber": "568", "addr:street": "6th Avenue", "amenity": "cafe", "brand": "Think Coffee", "brand:wikidata": "Q122209740", "cuisine": "coffee_shop", "name": "Think Coffee", "takeaway": "yes"}}, {"type": "node", "id": 5300031526, "lat": 40.7389807, "lon": -73.9950746, "tags": {"addr:city": "New York", "addr:housenumber": "64", "addr:postcode": "10011", "addr:street": "West 17th Street", "amenity": "school", "name": "The Sixth Avenue Elementary School - PS340", "operator": "The New York City Department of Education", "phone": "+1 917 305 1000", "website": "https://ps-340-sixth-avenue-elementary-school.echalksites.com/"}}, {"type": "node", "id": 5574666644, "lat": 40.7364211, "lon": -73.9972187, "tags": {"addr:housenumber": "502", "addr:street": "6th Avenue", "amenity": "restaurant", "brewery": "lagunitas;ommegang;various", "check_date": "2024-07-24", "internet_access": "wlan", "internet_access:ssid": "BarSixGuest", "name": "Bar Six", "opening_hours": "Mo-Su 11:00-16:00, 17:00-00:00", "payment:cash": "yes", "payment:credit_cards": "yes", "phone": "+1-212-691-1363", "reservation": "recommended", "takeaway": "yes", "website": "http://www.barsixny.com/", "wheelchair": "yes"}}, {"type": "node", "id": 5579089817, "lat": 40.7370148, "lon": -73.9973474, "tags": {"amenity": "restaurant", "name": "Asami Sushi"}}, {"type": "node", "id": 5579096756, "lat": 40.7356331, "lon": -73.9983668, "tags": {"amenity": "restaurant", "name": "E.A.K Ramen"}}, {"type": "node", "id": 5778906637, "lat": 40.7387302, "lon": -73.9945926, "tags": {"addr:city": "New York", "addr:housenumber": "48", "addr:postcode": "10011", "addr:state": "NY", "addr:street": "West 17th Street", "amenity": "bar", "name": "The Raines Law Room", "website": "https://www.raineslawroom.com"}}, {"type": "node", "id": 6308814785, "lat": 40.7369618, "lon": -73.9954517, "tags": {"addr:housenumber": "39", "addr:postcode": "10011", "addr:street": "West 14th Street", "alt_name": "Amy Ruth's Downtown", "amenity": "restaurant", "branch": "Downtown", "check_date": "2025-03-22", "contact:phone": "+1-212-401-6849", "cuisine": "american;southern", "name": "Amy Ruth's Downtown", "opening_hours": "Mo-Th 11:00-20:30; Fr-Su 11:00-21:30", "payment:cash": "yes", "payment:contactless": "yes", "payment:credit_cards": "yes", "payment:debit_cards": "yes", "website": "https://amyruthsdowntown.com", "wheelchair": "yes"}}, {"type": "node", "id": 6621617747, "lat": 40.7358148, "lon": -73.9976834, "tags": {"amenity": "cafe", "check_date": "2024-06-19", "name": "O Caf\u00e9", "opening_hours": "Mo-Fr 07:30-18:00; Sa,Su 08:00-18:00"}}, {"type": "node", "id": 6621617759, "lat": 40.739814, "lon": -73.999021, "tags": {"amenity": "cafe", "check_date": "2024-09-12", "name": "Yanni's coffee"}}, {"type": "node", "id": 6818159452, "lat": 40.7350367, "lon": -73.9948222, "tags": {"name": "AI Now Institute", "office": "research", "website": "https://ainowinstitute.org/", "wikidata": "Q55602948", "wikipedia": "en:AI Now Institute"}}, {"type": "node", "id": 7278184764, "lat": 40.7353225, "lon": -73.9951163}, {"type": "node", "id": 7278184765, "lat": 40.7354257, "lon": -73.9946114}, {"type": "node", "id": 7278184766, "lat": 40.7354914, "lon": -73.9947672}, {"type": "node", "id": 7295237776, "lat": 40.7355664, "lon": -73.9968513}, {"type": "node", "id": 7295237777, "lat": 40.7358252, "lon": -73.9974996}, {"type": "node", "id": 7295237778, "lat": 40.735292, "lon": -73.99785}, {"type": "node", "id": 7295237779, "lat": 40.735022, "lon": -73.9972222}, {"type": "node", "id": 7295618689, "lat": 40.7362396, "lon": -73.9961533}, {"type": "node", "id": 7295618690, "lat": 40.7364889, "lon": -73.9968006}, {"type": "node", "id": 7295618691, "lat": 40.7369274, "lon": -73.9964607}, {"type": "node", "id": 7295618692, "lat": 40.7366835, "lon": -73.9958423}, {"type": "node", "id": 7295634300, "lat": 40.735642, "lon": -73.9942919}, {"type": "node", "id": 7367435626, "lat": 40.7372427, "lon": -73.9971516, "tags": {"amenity": "restaurant", "check_date": "2024-06-10", "cuisine": "japanese", "name": "Mikado", "opening_hours": "Mo-Su 11:00-23:00"}}, {"type": "node", "id": 8262243211, "lat": 40.7345965, "lon": -73.9993735}, {"type": "node", "id": 8787892404, "lat": 40.7354997, "lon": -74.0002874}, {"type": "node", "id": 8787892405, "lat": 40.7354275, "lon": -74.0002445}, {"type": "node", "id": 8787892418, "lat": 40.735505, "lon": -74.0002905}, {"type": "node", "id": 8787892419, "lat": 40.7351326, "lon": -74.0000695}, {"type": "node", "id": 8787892420, "lat": 40.7355894, "lon": -74.0000532}, {"type": "node", "id": 8787892421, "lat": 40.7354563, "lon": -74.0002616, "tags": {"barrier": "gate"}}, {"type": "node", "id": 8787892472, "lat": 40.7356257, "lon": -73.9999424}, {"type": "node", "id": 8787892473, "lat": 40.7352913, "lon": -73.9994006}, {"type": "node", "id": 8787892474, "lat": 40.7352619, "lon": -73.9993134}, {"type": "node", "id": 8787892475, "lat": 40.7352422, "lon": -73.9993026}, {"type": "node", "id": 8787892476, "lat": 40.7353106, "lon": -73.9990867}, {"type": "node", "id": 8937352335, "lat": 40.7349885, "lon": -73.9936244, "tags": {"addr:full": "13th Street. 47 W 13th St, New York, NY 10011, USA", "name": "Tutors Umbrella", "office": "company", "website": "https://www.tutorsumbrella.com/"}}, {"type": "node", "id": 9140853417, "lat": 40.7359676, "lon": -73.9940291, "tags": {"amenity": "restaurant", "check_date": "2024-06-10", "name": "Champion Pizza"}}, {"type": "node", "id": 9490323917, "lat": 40.734817, "lon": -73.9996236, "tags": {"amenity": "restaurant", "name": "The Happiest Hour"}}, {"type": "node", "id": 9558935214, "lat": 40.7384151, "lon": -73.9989186, "tags": {"addr:housenumber": "149", "addr:street": "West 14th Street", "amenity": "restaurant", "check_date": "2024-06-10", "cuisine": "georgian", "diet:vegan": "yes", "name": "Chama Mama", "opening_hours": "Mo-Su 11:00-23:00", "outdoor_seating": "yes", "phone": "+1-646-438-9007", "website": "https://www.chamamama.com/"}}, {"type": "node", "id": 10697603105, "lat": 40.7382535, "lon": -73.9985079, "tags": {"addr:city": "New York", "addr:housenumber": "139", "addr:postcode": "10011", "addr:state": "NY", "addr:street": "West 14th Street", "amenity": "cafe", "check_date": "2025-05-27", "cuisine": "bagel;pastry", "diet:gluten_free": "only", "diet:kosher": "only", "name": "Modern Bread and Bagel", "payment:visa": "yes", "website": "https://www.modernbreadandbagel.com/"}}, {"type": "node", "id": 10863519205, "lat": 40.7354601, "lon": -73.9980005, "tags": {"addr:city": "New York", "addr:housenumber": "464", "addr:postcode": "10011", "addr:state": "NY", "addr:street": "6th Avenue", "amenity": "restaurant", "contact:instagram": "eatkubeh", "cuisine": "arab;lebanese;persian;turkish;middle_eastern", "email": "info@eatkubeh.com", "name": "Kubeh", "opening_hours": "11:30-22:00; Fr,Sa 11:30-22:30", "phone": "+1-646-448-6688", "website": "https://www.eatkubeh.com/"}}, {"type": "node", "id": 11050979718, "lat": 40.7392151, "lon": -73.9942981, "tags": {"addr:housenumber": "44-8", "addr:street": "West 18th Street", "level": "6;7;9", "name": "Deluxe Creative Services", "office": "it", "operator": "Company 3"}}, {"type": "node", "id": 11800209769, "lat": 40.7369749, "lon": -73.9973769, "tags": {"addr:postcode": "10011", "amenity": "restaurant", "branch": "NYC", "cuisine": "dim_sum;chinese", "diet:vegan": "yes", "name": "Long Island Dumplings", "opening_hours": "Mo-Su 11:30-21:00", "phone": "+1-646-952-2515", "website": "https://www.longislanddumplings.com"}}, {"type": "node", "id": 11986179085, "lat": 40.7347012, "lon": -73.994275, "tags": {"addr:city": "New York", "addr:housenumber": "55", "addr:state": "NY", "addr:street": "5th Avenue", "amenity": "university", "faculty": "law", "name": "Benjamin N. Cardozo School of Law", "operator": "Yeshiva University", "wikidata": "Q11093399"}}, {"type": "node", "id": 12076152433, "lat": 40.738683, "lon": -73.9937194, "tags": {"addr:city": "New York", "addr:housenumber": "29", "addr:postcode": "10011", "addr:state": "NY", "addr:street": "West 17th Street", "amenity": "bar", "min_age": "21", "name": "Baby Grand Flatiron", "opening_hours": "17:00-02:00"}}, {"type": "node", "id": 12644016263, "lat": 40.7395666, "lon": -73.9970868}, {"type": "node", "id": 12644016264, "lat": 40.7394617, "lon": -73.9968408}, {"type": "node", "id": 12644016265, "lat": 40.739507, "lon": -73.9968077}, {"type": "node", "id": 12709183135, "lat": 40.7360394, "lon": -73.9961125, "tags": {"addr:housenumber": "40", "addr:postcode": "10011", "addr:street": "West 13th Street", "alt_name": "The Training Institute of the National Psychological Association for Psychoanalysis", "name": "The Training Institute of NPAP", "office": "educational_institution", "phone": "+1-212-924-7440", "website": "https://npap.org/the-training-institute/"}}, {"type": "node", "id": 12865107393, "lat": 40.7393312, "lon": -73.9976946, "tags": {"amenity": "restaurant", "bar": "yes", "cuisine": "steak_house", "drink:beer": "yes", "drink:liquor": "yes", "drink:wine": "yes", "name": "Prime Catch NYC", "phone": "+1-646-649-2288"}}, {"type": "node", "id": 13071016173, "lat": 40.7388838, "lon": -74.0000095, "tags": {"addr:city": "New York", "addr:country": "US", "addr:housenumber": "207", "addr:postcode": "10001", "addr:state": "NY", "addr:street": "West 14th Street", "amenity": "restaurant", "cocktails": "yes", "cuisine": "cuban", "drink:beer": "yes", "email": "info@coppelianyc.com", "facebook": "coppelianyc", "instagram": "coppelianyc1", "name": "Coppelia", "opening_hours": "24/7", "phone": "+1 212-858-5001", "takeaway": "yes", "twitter": "coppelianyc", "website": "https://ilovecoppelia.com"}}, {"type": "node", "id": 13071016174, "lat": 40.7388621, "lon": -73.9999234, "tags": {"addr:city": "New York", "addr:country": "US", "addr:housenumber": "205", "addr:postcode": "10001", "addr:state": "NY", "addr:street": "West 14th Street", "amenity": "pub", "check_date": "2024-01-11", "name": "Flannery's Bar", "opening_hours:signed": "no", "website": "http://www.flannerysny.com/"}}, {"type": "node", "id": 13307068143, "lat": 40.7352064, "lon": -73.9981795, "tags": {"amenity": "restaurant", "bar": "yes", "cocktails": "yes", "cuisine": "mexican", "drink:beer": "yes", "drink:liquor": "yes", "drink:wine": "yes", "happy_hours": "Mo-We 15:00-19:00, Th 14:00-19:00, Fr 14:00-18:00, Sa 15:00-18:00, Su 15:00-19:00", "name": "La Contenta Oeste", "opening_hours": "Mo-We 15:00-22:00, Th-Fr 14:00-24:00, Sa 12:00-24:00, Su 12:00-22:00", "opening_hours:kitchen": "Mo-We 15:00-21:45, Th-Fr 14:00-21:45, Sa-Su 12:00-21:45", "outdoor_seating": "sidewalk", "phone": "+1-212-533-2233", "website": "https://lacontentanyc.com"}}, {"type": "way", "id": 239988120, "nodes": [2477560543, 3522432756, 2477560567, 2477560531, 2477560536, 2562440460, 2562440501, 2562440508, 8262243211, 2477560570, 3522432762, 2477560543], "tags": {"leisure": "park", "name": "Jefferson Market Garden", "source": "http://www.jeffersonmarketgarden.org/", "website": "https://www.jeffersonmarketgarden.org/"}}, {"type": "way", "id": 247862297, "nodes": [2547200492, 2547200491, 2547200478, 2547200489, 2547200498, 2547200497, 2547200492], "tags": {"amenity": "university", "internet_access": "yes", "name": "Parsons School of Design", "website": "https://www.newschool.edu/parsons/"}}, {"type": "way", "id": 250072761, "nodes": [2565868322, 2565868342, 2565868347, 2565868376, 2565868384, 2565868379, 2565868382, 2565868368, 2565868365, 2565868361, 2565868348, 2565868322], "tags": {"addr:housename": "Jacob M Kaplan Building", "addr:housenumber": "66", "addr:postcode": "10011", "addr:street": "West 12th Street", "amenity": "university", "building": "yes", "ele": "8", "gnis:feature_id": "2082886", "height": "32.0", "name": "The New School", "nycdoitt:bin": "1083136", "wikidata": "Q121087168", "wikipedia": "en:The New School"}}, {"type": "way", "id": 250471890, "nodes": [2569050585, 2569050582, 2569050577, 2569050575, 2569050552, 2569050562, 2569050594, 2569050587, 2569050585], "tags": {"addr:city": "New York", "addr:housenumber": "55", "addr:postcode": "10011", "addr:state": "NY", "addr:street": "West 13th Street", "amenity": "university", "building": "yes", "check_date": "2024-06-10", "height": "42.7", "name": "The New School Arnold Hall", "nycdoitt:bin": "1009722", "operator": "The New School", "wikidata": "Q5464073"}}, {"type": "way", "id": 250471892, "nodes": [2569050457, 2569050462, 2569050464, 2569050471, 7295634300, 2569050460, 2569050457], "tags": {"addr:housenumber": "72", "addr:postcode": "10011", "addr:street": "5th Avenue", "amenity": "university", "building": "yes", "height": "26.2", "name": "The New School", "nycdoitt:bin": "1009720"}}, {"type": "way", "id": 264637733, "nodes": [2702958608, 2702958634, 2702958597, 2702958621, 2702958611, 2702958617, 2702958643, 2702958647, 2702958674, 2702958670, 2702958672, 2702958659, 2702958657, 2702958651, 2702958608], "tags": {"addr:housenumber": "30", "addr:postcode": "10011", "addr:street": "West 16th Street", "amenity": "school", "building": "yes", "height": "28.3", "mascot": "Knights", "name": "Xavier High School", "nycdoitt:bin": "1080629"}}, {"type": "way", "id": 264638572, "nodes": [2702966180, 2702966183, 2702966210, 2702966211, 2702966208, 2702966180], "tags": {"addr:housenumber": "44", "addr:postcode": "10011", "addr:street": "West 17th Street", "amenity": "restaurant", "building": "yes", "cuisine": "belgian", "height": "20.3", "name": "Petite Abeille", "nycdoitt:bin": "1015404"}}, {"type": "way", "id": 367809093, "nodes": [2569063799, 2569063810, 2569063815, 2569063819, 2569063826, 2569063832, 2569063834, 2569063842, 2569063870, 2569063865, 2569063858, 2569063845, 2569063806, 2569063799], "tags": {"addr:housenumber": "146", "addr:postcode": "10011", "addr:street": "West 13th Street", "amenity": "school", "building": "yes", "height": "16.8", "name": "City and Country School", "nycdoitt:bin": "1010604;1083193;1010604;1083193;1083194", "wikidata": "Q5123519"}}, {"type": "way", "id": 377077898, "nodes": [3804413327, 3804413328, 4759906017, 4759906016, 4759906015, 4759906014, 3804413329, 3804413330, 3804413327], "tags": {"addr:city": "New York", "addr:housenumber": "65", "addr:street": "5th Avenue", "amenity": "university", "building": "yes", "check_date": "2024-05-16", "height": "70", "internet_access": "wlan", "internet_access:fee": "no", "name": "The New School University Center", "nycdoitt:bin": "1088879", "operator": "The New School", "start_date": "2013", "toilets": "yes", "toilets:wheelchair": "yes", "wheelchair": "yes"}}, {"type": "way", "id": 779414413, "nodes": [2565870750, 7278184764, 2565870656, 2565870686, 7278184765, 7278184766, 2565870750], "tags": {"amenity": "university", "name": "Parsons School of Design"}}, {"type": "way", "id": 779414414, "nodes": [2569050457, 2569050460, 7295634300, 2569050471, 2569050462, 2569050457], "tags": {"amenity": "university", "name": "Parsons School of Design"}}, {"type": "way", "id": 781397741, "nodes": [7295237776, 7295237777, 7295237778, 7295237779, 7295237776], "tags": {"amenity": "university", "name": "The New School"}}, {"type": "way", "id": 781429144, "nodes": [7295618689, 7295618690, 7295618691, 7295618692, 7295618689], "tags": {"amenity": "university", "check_date": "2024-07-24", "name": "The New School"}}, {"type": "way", "id": 949267308, "nodes": [2569065914, 2569065884, 2569065797, 2569065791, 2569065801, 8787892472, 8787892420, 2569065802, 8787892418, 8787892404, 8787892421, 8787892405, 8787892419, 2569065756, 2569065736, 2569065743, 8787892473, 8787892474, 8787892475, 2569065740, 8787892476, 2569065716, 2569065730, 2569065735, 2569065742, 2569065737, 2569065747, 2569065750, 2569065751, 2569065758, 2569065759, 2569065761, 2569065767, 2569065770, 2569065814, 2569065823, 2569065914], "tags": {"addr:city": "New York", "addr:housenumber": "116", "addr:postcode": "10011", "addr:state": "NY", "addr:street": "West 11th Street", "alt_name": "Greenwich Village School", "amenity": "school", "grades": "PK-5;SP", "name": "Public School 41", "operator": "New York City Department of Education", "operator:short": "NYC Public Schools", "operator:type": "public", "operator:wikidata": "Q408230", "operator:wikipedia": "en:New York City Department of Education", "ref": "PS 41M", "short_name": "P.S. 41", "website": "https://www.ps41.org/"}}, {"type": "way", "id": 1365380989, "nodes": [2702937474, 2702937444, 2702937428, 12644016263, 12644016264, 2702937391, 12644016265, 2702937460, 2702937474], "tags": {"addr:housenumber": "122", "addr:postcode": "10011", "addr:street": "West 17th Street", "amenity": "school", "mascot": "Bulldogs", "mascot:name": "Winston the Bulldog", "name": "Winston Prepatory School", "website": "https://www.winstonprep.edu", "wikidata": "Q8026117"}}]}