{"version": 0.6, "generator": "Overpass API 0.7.62.8 e802775f", "osm3s": {"timestamp_osm_base": "2025-12-01T17:23:13Z", "copyright": "The data included in this document is from www.openstreetmap.org. The data is made available under ODbL."}, "elements": [{"type": "node", "id": 357637217, "lat": 40.6322057, "lon": -73.9772601}, {"type": "node", "id": 2350429916, "lat": 40.6286638, "lon": -73.9796211}, {"type": "node", "id": 2350429921, "lat": 40.628998, "lon": -73.9792844}, {"type": "node", "id": 2350429922, "lat": 40.6288722, "lon": -73.980226}, {"type": "node", "id": 2350429926, "lat": 40.6292984, "lon": -73.9797813}, {"type": "node", "id": 2557868606, "lat": 40.6323777, "lon": -73.9729274}, {"type": "node", "id": 2557868616, "lat": 40.6325248, "lon": -73.9730478}, {"type": "node", "id": 4459827991, "lat": 40.6305973, "lon": -73.977854, "tags": {"addr:housenumber": "4418", "addr:street": "18th Avenue", "amenity": "restaurant", "name": "Mendelsohns Pizza", "name:en": "Mendelsohns Pizza"}}, {"type": "node", "id": 4719368746, "lat": 40.6322495, "lon": -73.9768035}, {"type": "node", "id": 4719368747, "lat": 40.6328472, "lon": -73.9769175}, {"type": "node", "id": 4719368748, "lat": 40.6328314, "lon": -73.9770575}, {"type": "node", "id": 4719368749, "lat": 40.6330931, "lon": -73.9771088}, {"type": "node", "id": 4719368750, "lat": 40.6330571, "lon": -73.9774274}, {"type": "node", "id": 5492126929, "lat": 40.6317497, "lon": -73.9732782}, {"type": "node", "id": 5492126941, "lat": 40.6325456, "lon": -73.973069}, {"type": "node", "id": 5492126943, "lat": 40.632247, "lon": -73.9736787}, {"type": "node", "id": 5492126948, "lat": 40.6320438, "lon": -73.9726492}, {"type": "node", "id": 5747214638, "lat": 40.6321771, "lon": -73.9744663, "tags": {"addr:city": "Brooklyn", "addr:housenumber": "4102", "addr:postcode": "11218", "addr:state": "NY", "addr:street": "18th Avenue", "amenity": "restaurant", "name": "Holy Schnitzel", "phone:mnemonic": "+1 929-565-HOLY", "website": "https://holyschnitzel.com/holy-finder/holy-schnitzel-borough-park/"}}, {"type": "node", "id": 10554093910, "lat": 40.6286888, "lon": -73.9799228}, {"type": "node", "id": 10554093911, "lat": 40.6287751, "lon": -73.9798335}, {"type": "node", "id": 10554093912, "lat": 40.6287786, "lon": -73.9798126}, {"type": "node", "id": 11016355598, "lat": 40.6304564, "lon": -73.9774025, "tags": {"addr:housenumber": "4409", "addr:postcode": "11230", "addr:street": "18th Avenue", "amenity": "restaurant", "cuisine": "diner;greek", "name": "U & I Restaurant", "phone": "+1-718-435-7332"}}, {"type": "node", "id": 12078552355, "lat": 40.6272909, "lon": -73.97528, "tags": {"addr:housenumber": "129", "addr:postcode": "11230", "addr:street": "Elmwood Avenue", "alt_name": "The Friedman Family Campus", "amenity": "school", "name": "The Cheder", "religion": "jewish"}}, {"type": "node", "id": 13312472219, "lat": 40.6326139, "lon": -73.9773403}, {"type": "node", "id": 13312472222, "lat": 40.6324154, "lon": -73.9773013}, {"type": "way", "id": 226188135, "nodes": [2350429926, 2350429922, 10554093910, 10554093911, 10554093912, 2350429916, 2350429921, 2350429926], "tags": {"addr:city": "Brooklyn", "addr:postcode": "11204", "addr:state": "NY", "alt_name": "The Magnet School for Math and Science Inquiry", "amenity": "school", "ele": "15", "fax": "+1-718-871-8721", "gnis:feature_id": "961477", "grades": "PK;0-8;SE", "name": "Public School 192", "operator": "New York City Department of Education", "operator:short": "NYC Public Schools", "operator:type": "public", "operator:wikidata": "Q408230", "phone": "+1-718-633-3061", "ref": "K192", "short_name": "P.S. 192", "website": "https://www.schools.nyc.gov/schools/K192", "wheelchair": "no"}}, {"type": "way", "id": 478719918, "nodes": [357637217, 4719368746, 4719368747, 4719368748, 4719368749, 4719368750, 13312472219, 13312472222, 357637217], "tags": {"ele": "15", "gnis:feature_id": "2377101", "leisure": "park", "name": "DiGilio Playground", "operator": "New York City Department of Parks and Recreation", "operator:short": "NYC Parks", "operator:type": "public", "operator:wikidata": "Q1894232", "ref": "B316", "website": "https://www.nycgovparks.org/parks/digilio-playground/", "wikidata": "Q49483255"}}, {"type": "way", "id": 571463117, "nodes": [5492126941, 2557868616, 2557868606, 5492126948, 5492126929, 5492126943, 5492126941], "tags": {"amenity": "school", "name": "PS 134 Elementary School"}}]}