{"version": 0.6, "generator": "Overpass API 0.7.62.8 e802775f", "osm3s": {"timestamp_osm_base": "2025-12-01T15:28:23Z", "copyright": "The data included in this document is from www.openstreetmap.org. The data is made available under ODbL."}, "elements": [{"type": "node", "id": 1404608547, "lat": 40.6754985, "lon": -73.9714942}, {"type": "node", "id": 1404608548, "lat": 40.675561, "lon": -73.9714483}, {"type": "node", "id": 1404608549, "lat": 40.6754327, "lon": -73.9713617}, {"type": "node", "id": 1795796594, "lat": 40.6777429, "lon": -73.9686298, "tags": {"addr:city": "Brooklyn", "addr:housenumber": "645", "addr:postcode": "11238", "addr:state": "NY", "addr:street": "Vanderbilt Avenue", "amenity": "cafe", "capacity": "7", "cuisine": "bagel;sandwich", "diet:gluten_free": "yes", "drink:coffee": "yes", "drink:espresso": "yes", "name": "Olde Brooklyn Bagel Shoppe", "opening_hours": "Mo-Su 07:00-17:00", "payment:cash": "only", "phone": "+1-718-622-6227", "shop": "bakery", "takeaway": "yes", "website": "http://oldebrooklynbagelshoppe645.com"}}, {"type": "node", "id": 2550045592, "lat": 40.6736516, "lon": -73.9784405}, {"type": "node", "id": 2550045600, "lat": 40.6736535, "lon": -73.9783277}, {"type": "node", "id": 2550045657, "lat": 40.6736838, "lon": -73.9785218}, {"type": "node", "id": 2550045668, "lat": 40.673688, "lon": -73.9784151}, {"type": "node", "id": 2550045823, "lat": 40.6737499, "lon": -73.9782614}, {"type": "node", "id": 2550045958, "lat": 40.6738151, "lon": -73.9782166}, {"type": "node", "id": 2550046025, "lat": 40.6738497, "lon": -73.978304}, {"type": "node", "id": 2550046054, "lat": 40.6738698, "lon": -73.977819}, {"type": "node", "id": 2550046061, "lat": 40.673882, "lon": -73.9783856}, {"type": "node", "id": 2550046073, "lat": 40.673895, "lon": -73.9778849}, {"type": "node", "id": 2550046185, "lat": 40.6739573, "lon": -73.9777609}, {"type": "node", "id": 2550046228, "lat": 40.6739675, "lon": -73.9780265}, {"type": "node", "id": 2550046246, "lat": 40.6739749, "lon": -73.9778319}, {"type": "node", "id": 2550046254, "lat": 40.6739825, "lon": -73.9778268}, {"type": "node", "id": 2550046256, "lat": 40.673983, "lon": -73.9778531}, {"type": "node", "id": 2550046328, "lat": 40.6740229, "lon": -73.9777932}, {"type": "node", "id": 2550046352, "lat": 40.674033, "lon": -73.9778199}, {"type": "node", "id": 2550046380, "lat": 40.6740487, "lon": -73.9777441}, {"type": "node", "id": 2550046425, "lat": 40.6740721, "lon": -73.9776747}, {"type": "node", "id": 2550046427, "lat": 40.6740735, "lon": -73.9776783}, {"type": "node", "id": 2550046433, "lat": 40.6740756, "lon": -73.9778149}, {"type": "node", "id": 2550046459, "lat": 40.6740885, "lon": -73.9777177}, {"type": "node", "id": 2550046529, "lat": 40.6741443, "lon": -73.9777694}, {"type": "node", "id": 2550046562, "lat": 40.6741869, "lon": -73.9778811}, {"type": "node", "id": 2550046600, "lat": 40.674272, "lon": -73.9775423}, {"type": "node", "id": 2550046621, "lat": 40.6743553, "lon": -73.977487}, {"type": "node", "id": 2550046641, "lat": 40.6744413, "lon": -73.9777125}, {"type": "node", "id": 2550070605, "lat": 40.6756345, "lon": -73.9741079}, {"type": "node", "id": 2550070620, "lat": 40.6756871, "lon": -73.9740725}, {"type": "node", "id": 2550070622, "lat": 40.675375, "lon": -73.9734417}, {"type": "node", "id": 2550070684, "lat": 40.675696, "lon": -73.9732304}, {"type": "node", "id": 2550070736, "lat": 40.6759443, "lon": -73.9738993}, {"type": "node", "id": 2550070950, "lat": 40.6764653, "lon": -73.9731351}, {"type": "node", "id": 2550070974, "lat": 40.6765115, "lon": -73.9732553}, {"type": "node", "id": 2550070996, "lat": 40.6765522, "lon": -73.9732281}, {"type": "node", "id": 2550071009, "lat": 40.6765772, "lon": -73.9732933}, {"type": "node", "id": 2550071014, "lat": 40.6765825, "lon": -73.9729691}, {"type": "node", "id": 2550071020, "lat": 40.6766093, "lon": -73.973039}, {"type": "node", "id": 2550071036, "lat": 40.6766672, "lon": -73.9729127}, {"type": "node", "id": 2550071038, "lat": 40.676694, "lon": -73.9729826}, {"type": "node", "id": 2550071051, "lat": 40.6767651, "lon": -73.973168}, {"type": "node", "id": 2568825600, "lat": 40.6755418, "lon": -73.9743863, "tags": {"addr:housenumber": "176", "addr:postcode": "11217", "addr:street": "Lincoln Place", "amenity": "cafe", "contact:instagram": "@nerdbecool", "cuisine": "coffee_shop;ice_cream", "drink:coffee": "yes", "drink:espresso": "yes", "name": "Nerd Be Cool", "opening_hours": "Mo-Fr 07:30-16:30; Sa-Su 08:00-16:00", "outdoor_seating": "sidewalk", "website": "https://nerdbecool.com"}}, {"type": "node", "id": 2701626574, "lat": 40.676481, "lon": -73.9716825, "tags": {"addr:city": "Brooklyn", "addr:housenumber": "183", "addr:postcode": "11238", "addr:state": "NY", "addr:street": "Sterling Place", "amenity": "cafe", "capacity": "8", "cuisine": "breakfast;sandwich", "drink:coffee": "yes", "drink:espresso": "yes", "drink:kombucha": "draught", "drink:tea": "yes", "name": "Hungry Ghost", "old_name": "Prospect Perk Cafe", "opening_hours": "Mo-Su 07:00-17:00", "outdoor_seating": "bench", "phone": "+1-718-783-7375", "website": "https://www.hungryghostcoffee.com/location/hungry-ghost-sterling-place/", "wheelchair": "no"}}, {"type": "node", "id": 2701626587, "lat": 40.6774779, "lon": -73.9686942, "tags": {"addr:city": "Brooklyn", "addr:housenumber": "647", "addr:postcode": "11238", "addr:state": "NY", "addr:street": "Vanderbilt Avenue", "name": "Beacon of Hope House", "office": "charity", "operator": "Catholic Charities"}}, {"type": "node", "id": 2701627004, "lat": 40.6760552, "lon": -73.9696438}, {"type": "node", "id": 2701627009, "lat": 40.6760699, "lon": -73.9697473}, {"type": "node", "id": 2701627015, "lat": 40.6760757, "lon": -73.9697453}, {"type": "node", "id": 2701627038, "lat": 40.6761118, "lon": -73.969956}, {"type": "node", "id": 2701627043, "lat": 40.6761207, "lon": -73.9699529}, {"type": "node", "id": 2701627055, "lat": 40.6761372, "lon": -73.9696151}, {"type": "node", "id": 2701627058, "lat": 40.6761411, "lon": -73.9700542}, {"type": "node", "id": 2701627060, "lat": 40.6761439, "lon": -73.9697046}, {"type": "node", "id": 2701627065, "lat": 40.6761471, "lon": -73.9697205}, {"type": "node", "id": 2701627071, "lat": 40.6761545, "lon": -73.9697009}, {"type": "node", "id": 2701627096, "lat": 40.6761904, "lon": -73.9699282}, {"type": "node", "id": 2701627098, "lat": 40.6761932, "lon": -73.9699421}, {"type": "node", "id": 2701627107, "lat": 40.6762054, "lon": -73.9699379}, {"type": "node", "id": 2701627122, "lat": 40.6762231, "lon": -73.9700256}, {"type": "node", "id": 2701627151, "lat": 40.6762678, "lon": -73.9695598}, {"type": "node", "id": 2701627176, "lat": 40.67629, "lon": -73.9696705}, {"type": "node", "id": 2701627249, "lat": 40.6763351, "lon": -73.9698929}, {"type": "node", "id": 2701627268, "lat": 40.6763386, "lon": -73.9698764}, {"type": "node", "id": 2701627275, "lat": 40.6763415, "lon": -73.9698907}, {"type": "node", "id": 2701627301, "lat": 40.6763527, "lon": -73.9699803}, {"type": "node", "id": 2701627358, "lat": 40.6763748, "lon": -73.9696526}, {"type": "node", "id": 2701627465, "lat": 40.6764043, "lon": -73.969512}, {"type": "node", "id": 2701627490, "lat": 40.6764109, "lon": -73.9698325}, {"type": "node", "id": 2701627522, "lat": 40.6764288, "lon": -73.9696337}, {"type": "node", "id": 2701627566, "lat": 40.676465, "lon": -73.9698136}, {"type": "node", "id": 2701627572, "lat": 40.6764748, "lon": -73.9698624}, {"type": "node", "id": 2701627581, "lat": 40.676489, "lon": -73.9699326}, {"type": "node", "id": 2701690248, "lat": 40.6775995, "lon": -73.9725192, "tags": {"addr:city": "Brooklyn", "addr:housenumber": "341", "addr:postcode": "11217", "addr:state": "NY", "addr:street": "Flatbush Avenue", "amenity": "restaurant", "cuisine": "southern;chicken", "delivery": "yes", "drink:beer": "yes", "drink:liquor": "yes", "drink:wine": "yes", "name": "Sweet Chick", "opening_hours": "Mo-Su 10:00-24:00", "outdoor_seating": "sidewalk", "phone": "+1-718-484-7724", "takeaway": "yes", "website": "https://www.sweetchick.com/"}}, {"type": "node", "id": 2701690257, "lat": 40.6775852, "lon": -73.9691008, "tags": {"addr:city": "Brooklyn", "addr:housenumber": "622", "addr:postcode": "11238", "addr:state": "NY", "addr:street": "Vanderbilt Avenue", "amenity": "cafe", "cuisine": "coffee_shop;pastry", "drink:coffee": "yes", "drink:espresso": "yes", "name": "Mille-feuille", "opening_hours": "Mo-Fr 07:30-17:00; Sa-Su 08:00-17:00", "outdoor_seating": "sidewalk;street", "phone": "+1-347-350-8838", "shop": "bakery", "website": "https://www.millefeuille-nyc.com"}}, {"type": "node", "id": 3154206870, "lat": 40.6770508, "lon": -73.9721226, "tags": {"addr:city": "Brooklyn", "addr:housenumber": "353", "addr:postcode": "11238", "addr:state": "NY", "addr:street": "Flatbush Avenue", "amenity": "bar", "cuisine": "snack", "name": "Sharlene's Bar", "opening_hours": "Mo-Su 13:00-04:00", "pinball": "yes"}}, {"type": "node", "id": 3154321756, "lat": 40.6759728, "lon": -73.9718163, "tags": {"amenity": "restaurant", "bar": "yes", "cocktails": "yes", "cuisine": "italian", "drink:beer": "yes", "drink:liquor": "yes", "drink:wine": "yes", "name": "Fausto", "opening_hours": "Mo-Th 17:30-21:00, Fr 17:30-21:45, Sa 17:00-21:45, Su 17:00-21:00", "phone": "+1-917-909-1427", "website": "https://www.faustobrooklyn.com"}}, {"type": "node", "id": 3154321758, "lat": 40.6761314, "lon": -73.9714493, "tags": {"addr:city": "Brooklyn", "addr:housenumber": "385", "addr:postcode": "11238", "addr:state": "NY", "addr:street": "Flatbush Avenue", "amenity": "restaurant", "cuisine": "japanese;thai", "delivery": "yes", "fax": "+1 718 398 3288", "name": "Kami", "opening_hours": "Mo-Th 11:00-23:00; Fr-Sa 11:00-23:30; Su 12:00-23:00", "phone": "+1 718 398 3888", "takeaway": "yes", "website": "http://kamiasian.com"}}, {"type": "node", "id": 3154322864, "lat": 40.6769861, "lon": -73.972072, "tags": {"amenity": "restaurant", "atm": "yes", "cuisine": "latin_american", "delivery": "yes", "drink:beer": "bottled", "drink:wine": "yes", "name": "El Gran Castillo de Jagua", "opening_hours": "Mo-Su 08:00-22:00", "phone": "+1-718-622-8700", "takeaway": "yes", "website": "https://www.elgrancastillo.com"}}, {"type": "node", "id": 4252887913, "lat": 40.675488, "lon": -73.974586, "tags": {"amenity": "restaurant", "cuisine": "thai", "delivery": "yes", "diet:vegan": "yes", "name": "Spice", "opening_hours": "Mo-Fr 11:30-15:30,17:30-21:00; Sa-Su 12:30-15:30,17:30-21:00", "phone": "+1-718-622-6353", "takeaway": "yes", "website": "https://spicethai.nyc"}}, {"type": "node", "id": 4252890214, "lat": 40.676063, "lon": -73.9745541, "tags": {"amenity": "restaurant", "cuisine": "indian", "delivery": "yes", "diet:halal": "yes", "diet:vegetarian": "yes", "drink:beer": "byob", "drink:wine": "byob", "fax": "+1-347-889-7647", "internet_access": "wlan", "internet_access:fee": "no", "name": "Bombay Kebab", "opening_hours": "Mo-Su 11:00-22:15", "phone": "+1-347-889-7686", "takeaway": "yes", "website": "https://bombaykabab.site"}}, {"type": "node", "id": 4252894691, "lat": 40.6761132, "lon": -73.9745244, "tags": {"amenity": "restaurant", "contact:email": "info@ramendanbo.com", "cuisine": "japanese;ramen", "drink:beer": "draught", "drink:sake": "yes", "name": "Danbo", "opening_hours": "Mo-Su 11:00-23:00", "payment:cash": "no", "phone": "+1-718-783-0150", "reservation": "no", "takeaway": "no", "toilets": "yes", "toilets:unisex": "yes", "toilets:wheelchair": "yes", "website": "http://ramendanbo.com/locations/#brooklyn", "wheelchair": "yes"}}, {"type": "node", "id": 4526680123, "lat": 40.6754361, "lon": -73.9713437}, {"type": "node", "id": 4526680125, "lat": 40.6754842, "lon": -73.971488}, {"type": "node", "id": 4986038921, "lat": 40.6771503, "lon": -73.9688168, "tags": {"amenity": "restaurant", "cocktails": "yes", "cuisine": "new_american;brunch", "drink:beer": "yes", "drink:coffee": "yes", "drink:liquor": "yes", "drink:wine": "yes", "name": "Olmsted", "opening_hours": "Mo-Th 17:30-22:00; Fr 11:30-14:30, 17:00-22:30; Sa 11:00-15:00, 17:00-22:30; Su 11:00-15:00, 17:00-21:30", "outdoor_seating": "garden", "phone": "+1-718-552-2610", "website": "https://www.olmstednyc.com/"}}, {"type": "node", "id": 5184885238, "lat": 40.6778233, "lon": -73.9726846, "tags": {"amenity": "bar", "cocktails": "yes", "cuisine": "caribbean", "drink:beer": "yes", "drink:liquor": "yes", "drink:wine": "yes", "name": "333 Lounge", "opening_hours": "Tu-Th 18:00-24:00; Fr 18:00-02:00; Sa 13:00-02:00; Su 13:00-01:00", "phone": "+1-718-399-8008", "website": "https://www.333lounge.com/"}}, {"type": "node", "id": 5184885239, "lat": 40.6778844, "lon": -73.9727365, "tags": {"amenity": "restaurant", "cuisine": "japanese;sushi", "drink:beer": "draught", "drink:liquor": "no", "drink:sake": "yes", "drink:wine": "yes", "name": "Geido", "opening_hours": "We-Su 17:00-22:00", "outdoor_seating": "no", "phone": "+1-718-638-8866", "takeaway": "yes", "toilets": "yes", "toilets:unisex": "no", "toilets:wheelchair": "no", "website": "https://www.geido.nyc", "wheelchair": "limited"}}, {"type": "node", "id": 5500090028, "lat": 40.6777604, "lon": -73.9726501, "tags": {"amenity": "restaurant", "cuisine": "sushi", "drink:beer": "bottled", "drink:sake": "yes", "drink:wine": "yes", "name": "Sushi Lin", "opening_hours": "Tu-Su 17:00-21:00", "phone": "+1-347-627-6027"}}, {"type": "node", "id": 5503372397, "lat": 40.677336, "lon": -73.9733649, "tags": {"entrance": "yes", "level": "0", "wheelchair": "no"}}, {"type": "node", "id": 5523752894, "lat": 40.6773805, "lon": -73.973665, "tags": {"name": "Envoy", "office": "employment_agency", "website": "https://www.envoy.us"}}, {"type": "node", "id": 5695227262, "lat": 40.6757661, "lon": -73.9743815, "tags": {"addr:housenumber": "57", "addr:postcode": "11217", "addr:street": "7th Avenue", "amenity": "cafe", "cuisine": "bagel;sandwich", "drink:coffee": "yes", "drink:espresso": "yes", "name": "The Bagel Pub", "opening_hours": "Mo-Su 06:30-15:30", "outdoor_seating": "sidewalk;street", "website": "https://bagelpub.com"}}, {"type": "node", "id": 5703248590, "lat": 40.6776961, "lon": -73.9726111, "tags": {"addr:city": "Brooklyn", "addr:postcode": "11217", "addr:state": "NY", "addr:street": "Flatbush Avenue", "amenity": "cafe", "brand": "Blank Street Coffee", "brand:wikidata": "Q114792509", "cuisine": "coffee_shop", "drink:coffee": "yes", "drink:espresso": "yes", "name": "Blank Street Coffee", "outdoor_seating": "sidewalk", "takeaway": "yes"}}, {"type": "node", "id": 5714335354, "lat": 40.6778021, "lon": -73.969018, "tags": {"addr:city": "Brooklyn", "addr:housenumber": "620", "addr:postcode": "11238", "addr:state": "NY", "addr:street": "Vanderbilt Avenue", "amenity": "cafe", "cuisine": "breakfast;sandwich;coffee_shop", "diet:gluten_free": "yes", "diet:vegan": "yes", "drink:coffee": "yes", "drink:espresso": "yes", "drink:tea": "yes", "name": "Milk Bar", "opening_hours": "Mo-Fr 07:30-16:00; Sa-Su 08:00-16:00", "outdoor_seating": "bench", "phone": "+1-718-230-0844", "website": "https://www.milkbarbrooklyn.com"}}, {"type": "node", "id": 5714335362, "lat": 40.6775351, "lon": -73.969119, "tags": {"amenity": "restaurant", "cuisine": "italian;pizza", "drink:beer": "yes", "drink:coffee": "yes", "drink:espresso": "yes", "drink:tea": "yes", "drink:wine": "yes", "name": "Amorina", "opening_hours": "We-Th 17:00-21:00, Fr 16:00-22:00, Sa 12:00-22:00, Su 12:00-21:00", "phone": "+1-718-230-3030", "website": "http://www.amorinapizza.com"}}, {"type": "node", "id": 5714339007, "lat": 40.676895, "lon": -73.9739947, "tags": {"description": "attorney and real estate broker", "name": "Joseph Poggioli", "office": "lawyer", "phone": "+1 718 622 8807"}}, {"type": "node", "id": 5718376382, "lat": 40.676694, "lon": -73.9729825}, {"type": "node", "id": 5718376383, "lat": 40.6738498, "lon": -73.9783042}, {"type": "node", "id": 5718376385, "lat": 40.6741868, "lon": -73.977881}, {"type": "node", "id": 5718376386, "lat": 40.6741443, "lon": -73.9777695}, {"type": "node", "id": 5718376387, "lat": 40.6740756, "lon": -73.977815}, {"type": "node", "id": 5718376388, "lat": 40.6740583, "lon": -73.9777696}, {"type": "node", "id": 5718376389, "lat": 40.6739097, "lon": -73.9778751}, {"type": "node", "id": 5893507579, "lat": 40.6758719, "lon": -73.9712616, "tags": {"brand": "H&R Block", "brand:wikidata": "Q5627799", "name": "H&R Block", "office": "tax_advisor", "opening_hours": "Tu 10:00-17:00", "phone": "+1-718-852-9366"}}, {"type": "node", "id": 5895012931, "lat": 40.6772512, "lon": -73.9687774, "tags": {"amenity": "restaurant", "branch": "Prospect Heights", "cuisine": "indian", "diet:halal": "yes", "fax": "+1-718-398-6996", "name": "Mumbai Place", "opening_hours": "Mo-Th 11:00-22:00; Fr 11:00-13:00, 14:00-23:00; Sa 11:00-23:00, Su 11:00-22:00", "phone": "+1-718-398-7776", "takeaway": "yes"}}, {"type": "node", "id": 5979392682, "lat": 40.67706, "lon": -73.9688523, "tags": {"name": "Brennan Real Estate", "office": "estate_agent", "opening_hours": "Mo-Fr 10:00-19:00; Sa 10:00-14:00; Su 11:00-16:00", "website": "https://brennanrealestate.com"}}, {"type": "node", "id": 6008887817, "lat": 40.6774105, "lon": -73.9728348, "tags": {"addr:housenumber": "308", "addr:postcode": "11238", "addr:street": "Flatbush Avenue", "entrance": "main", "level": "0", "wheelchair": "no"}}, {"type": "node", "id": 6008887819, "lat": 40.6772079, "lon": -73.972883}, {"type": "node", "id": 6008887820, "lat": 40.6773329, "lon": -73.9727993}, {"type": "node", "id": 6008887822, "lat": 40.6775335, "lon": -73.973173}, {"type": "node", "id": 6008887824, "lat": 40.6772671, "lon": -73.9732143}, {"type": "node", "id": 6008887825, "lat": 40.6772938, "lon": -73.9731965}, {"type": "node", "id": 6008887826, "lat": 40.6772547, "lon": -73.9730949}, {"type": "node", "id": 6008887827, "lat": 40.6772824, "lon": -73.9730764}, {"type": "node", "id": 6047177429, "lat": 40.6774001, "lon": -73.9728275}, {"type": "node", "id": 6047177432, "lat": 40.6774077, "lon": -73.9728508}, {"type": "node", "id": 6047177434, "lat": 40.6773541, "lon": -73.9728576}, {"type": "node", "id": 6047177436, "lat": 40.6773092, "lon": -73.9733235}, {"type": "node", "id": 6047177437, "lat": 40.6774208, "lon": -73.972842}, {"type": "node", "id": 6047177439, "lat": 40.6773449, "lon": -73.9733591}, {"type": "node", "id": 6047177440, "lat": 40.6773267, "lon": -73.9733117}, {"type": "node", "id": 6047177441, "lat": 40.6773271, "lon": -73.9733708}, {"type": "node", "id": 6188960484, "lat": 40.6734063, "lon": -73.9701228}, {"type": "node", "id": 6188960685, "lat": 40.6744021, "lon": -73.9701571}, {"type": "node", "id": 6188960686, "lat": 40.6734071, "lon": -73.969993}, {"type": "node", "id": 6188960687, "lat": 40.6743943, "lon": -73.9702356}, {"type": "node", "id": 6188960688, "lat": 40.6743782, "lon": -73.9702875}, {"type": "node", "id": 6188960689, "lat": 40.6743511, "lon": -73.9703404}, {"type": "node", "id": 6188960690, "lat": 40.6742873, "lon": -73.9704091}, {"type": "node", "id": 6188960691, "lat": 40.674244, "lon": -73.9704324}, {"type": "node", "id": 6188960692, "lat": 40.6741882, "lon": -73.9704544}, {"type": "node", "id": 6188960693, "lat": 40.6741392, "lon": -73.9704598}, {"type": "node", "id": 6188960694, "lat": 40.6740976, "lon": -73.9704632}, {"type": "node", "id": 6188960695, "lat": 40.6740347, "lon": -73.9704651}, {"type": "node", "id": 6188960696, "lat": 40.673979, "lon": -73.9704648}, {"type": "node", "id": 6188960697, "lat": 40.6738843, "lon": -73.9704516}, {"type": "node", "id": 6188960698, "lat": 40.6737594, "lon": -73.9704207}, {"type": "node", "id": 6188960699, "lat": 40.6736476, "lon": -73.9703796}, {"type": "node", "id": 6188960700, "lat": 40.6735559, "lon": -73.9703357}, {"type": "node", "id": 6188960701, "lat": 40.6735058, "lon": -73.9702991}, {"type": "node", "id": 6188960702, "lat": 40.6734578, "lon": -73.9702468}, {"type": "node", "id": 6188960703, "lat": 40.6734257, "lon": -73.9701914}, {"type": "node", "id": 6188960704, "lat": 40.6734013, "lon": -73.970052}, {"type": "node", "id": 6188960705, "lat": 40.6734161, "lon": -73.9699207}, {"type": "node", "id": 6188960706, "lat": 40.6734389, "lon": -73.9698618}, {"type": "node", "id": 6188960707, "lat": 40.6734667, "lon": -73.9698175}, {"type": "node", "id": 6188960708, "lat": 40.6735092, "lon": -73.9697755}, {"type": "node", "id": 6188960709, "lat": 40.6735648, "lon": -73.9697417}, {"type": "node", "id": 6188960710, "lat": 40.6736439, "lon": -73.9697248}, {"type": "node", "id": 6188960711, "lat": 40.6737337, "lon": -73.9697192}, {"type": "node", "id": 6188960712, "lat": 40.6738599, "lon": -73.9697285}, {"type": "node", "id": 6188960713, "lat": 40.6739749, "lon": -73.9697429}, {"type": "node", "id": 6188960714, "lat": 40.6740978, "lon": -73.9697801}, {"type": "node", "id": 6188960715, "lat": 40.6742106, "lon": -73.969832}, {"type": "node", "id": 6188960716, "lat": 40.6742847, "lon": -73.9698759}, {"type": "node", "id": 6188960717, "lat": 40.6743264, "lon": -73.9699208}, {"type": "node", "id": 6188960718, "lat": 40.6743626, "lon": -73.9699707}, {"type": "node", "id": 6188960719, "lat": 40.6743885, "lon": -73.9700342}, {"type": "node", "id": 6188960720, "lat": 40.6744019, "lon": -73.9701071}, {"type": "node", "id": 6611929070, "lat": 40.6774844, "lon": -73.9691374, "tags": {"amenity": "restaurant", "cocktails": "yes", "cuisine": "american", "drink:beer": "yes", "drink:liquor": "yes", "drink:wine": "yes", "name": "Dilly Dally", "opening_hours": "We-Fr 17:00-22:00; Sa 10:00-14:00,17:00-22:00; Su 10:00-14:00,17:00-21:00", "outdoor_seating": "garden", "website": "https://www.dillydallybk.com"}}, {"type": "node", "id": 7178453668, "lat": 40.6743192, "lon": -73.9703817}, {"type": "node", "id": 8756259978, "lat": 40.6728738, "lon": -73.9737512, "tags": {"name": "Park Slope Taxes", "office": "accountant", "opening_hours": "Mo-Th 09:30-16:30", "phone": "+1-718-638-3338", "website": "https://www.parkslopetaxes.com"}}, {"type": "way", "id": 126795222, "nodes": [1404608548, 1404608547, 4526680125, 1404608549, 4526680123, 1404608548], "tags": {"leisure": "park", "name": "Gaynor Plaza"}}, {"type": "way", "id": 248159618, "nodes": [2550046246, 2550046254, 2550046185, 2550046054, 2550046073, 5718376389, 2550046228, 5718376385, 5718376386, 5718376387, 5718376388, 2550046328, 2550046352, 2550046256, 2550046246], "tags": {"addr:housenumber": "701", "addr:postcode": "11215", "addr:street": "Carroll Street", "building": "yes", "height": "21.8", "name": "Berkeley Carroll Lower School", "nycdoitt:bin": "3020357;3020383"}}, {"type": "way", "id": 248159637, "nodes": [2550045592, 2550045657, 2550046061, 5718376383, 2550045592], "tags": {"addr:housenumber": "712", "addr:postcode": "11215", "addr:street": "Carroll Street", "building": "yes", "height": "14.8", "nycdoitt:bin": "3020514"}}, {"type": "way", "id": 248159642, "nodes": [2550045600, 2550045668, 2550046025, 2550045958, 2550045823, 2550045600], "tags": {"addr:housenumber": "716", "addr:postcode": "11215", "addr:street": "Carroll Street", "building": "yes", "height": "14.3", "nycdoitt:bin": "3020515"}}, {"type": "way", "id": 248159801, "nodes": [2550046459, 2550046380, 2550046433, 2550046529, 2550046562, 2550046641, 2550046621, 2550046600, 2550046425, 2550046427, 2550046459], "tags": {"addr:housenumber": "762", "addr:postcode": "11215", "addr:street": "Lincoln Place", "building": "yes", "height": "10.5", "name": "Berkeley Carroll School Athletic Center", "nycdoitt:bin": "3000000"}}, {"type": "way", "id": 248166823, "nodes": [2550070950, 2550070974, 2550070996, 2550071009, 2550071051, 2550071038, 2550070950], "tags": {"addr:housenumber": "152", "addr:postcode": "11217", "addr:street": "Sterling Place", "building": "yes", "height": "13.5", "nycdoitt:bin": "3024365"}}, {"type": "way", "id": 248166824, "nodes": [5718376382, 2550071036, 2550071014, 2550071020, 5718376382], "tags": {"addr:housenumber": "158", "addr:postcode": "11217", "addr:street": "Sterling Place", "building": "yes", "height": "5.3", "nycdoitt:bin": "3332361"}}, {"type": "way", "id": 248166836, "nodes": [2550070605, 2550070620, 2550070736, 2550070684, 2550070622, 2550070605], "tags": {"addr:housenumber": "181", "addr:postcode": "11217", "addr:street": "Lincoln Place", "building": "school", "ele": "30", "gnis:feature_id": "2081581", "height": "18.2", "name": "Berkeley Carroll Upper and Middle School", "nycdoitt:bin": "3337806", "wikidata": "Q4891992"}}, {"type": "way", "id": 264486586, "nodes": [2701627566, 2701627490, 2701627358, 2701627522, 2701627465, 2701627151, 2701627176, 2701627065, 2701627060, 2701627071, 2701627055, 2701627004, 2701627015, 2701627009, 2701627038, 2701627043, 2701627058, 2701627122, 2701627107, 2701627098, 2701627096, 2701627268, 2701627275, 2701627249, 2701627301, 2701627581, 2701627572, 2701627566], "tags": {"addr:city": "Brooklyn", "addr:housenumber": "227", "addr:postcode": "11238", "addr:state": "NY", "addr:street": "Sterling Place", "amenity": "school", "building": "school", "ele": "35", "fax": "+1-718-230-5479", "gnis:feature_id": "961257", "height": "17.2", "name": "North Star Academy M.S. 340", "nycdoitt:bin": "3029060", "official_name": "North Star Academy Middle School 340", "old_name": "Public School 111", "phone": "+1-718-857-5516", "short_name": "MS 340", "website": "https://www.ms340.org/"}}, {"type": "way", "id": 637354701, "nodes": [6008887827, 6008887826, 6008887825, 6008887824, 6047177436, 6047177441, 5503372397, 6047177439, 6047177440, 6008887822, 6047177432, 6047177437, 6008887817, 6047177429, 6047177434, 6008887820, 6008887819, 6008887827], "tags": {"addr:housenumber": "308", "addr:postcode": "11238", "addr:street": "Flatbush Avenue", "alt_name": "Brownstone Billiards", "amenity": "bar", "cocktails": "yes", "cuisine": "pub", "drink:beer": "draught", "drink:liquor": "yes", "drink:wine": "yes", "happy_hours": "Mo-Fr 14:00-18:00", "leisure": "amusement_arcade", "level": "-1", "name": "Ocean's 8", "opening_hours": "Mo-Th 12:00-01:00, Fr-Sa 12:00-02:00, Su 12:00-01:00", "phone": "+1-718-857-5555", "sport": "billiards;table_tennis;air_hockey", "toilets": "yes", "toilets:unisex": "no", "website": "https://www.oceans8ny.com", "wheelchair": "no"}}, {"type": "way", "id": 661056551, "nodes": [6188960720, 6188960719, 6188960718, 6188960717, 6188960716, 6188960715, 6188960714, 6188960713, 6188960712, 6188960711, 6188960710, 6188960709, 6188960708, 6188960707, 6188960706, 6188960705, 6188960686, 6188960704, 6188960484, 6188960703, 6188960702, 6188960701, 6188960700, 6188960699, 6188960698, 6188960697, 6188960696, 6188960695, 6188960694, 6188960693, 6188960692, 6188960691, 6188960690, 7178453668, 6188960689, 6188960688, 6188960687, 6188960685, 6188960720], "tags": {"leisure": "park", "opening_hours": "sunrise-01:00"}}, {"type": "relation", "id": 8408518, "members": [{"type": "way", "ref": 248166836, "role": "outer"}, {"type": "way", "ref": 248159618, "role": "outer"}, {"type": "way", "ref": 248159637, "role": "outer"}, {"type": "way", "ref": 248159642, "role": "outer"}, {"type": "way", "ref": 248159801, "role": "outer"}, {"type": "way", "ref": 248166823, "role": "outer"}, {"type": "way", "ref": 248166824, "role": "outer"}], "tags": {"amenity": "school", "mascot": "Lions", "name": "Berkeley Carroll School", "phone": "+1 718 534 6560", "type": "multipolygon", "website": "https://www.berkeleycarroll.org", "wikidata": "Q4891992"}}]}