{"version": 0.6, "generator": "Overpass API 0.7.62.8 e802775f", "osm3s": {"timestamp_osm_base": "2025-12-01T15:17:01Z", "copyright": "The data included in this document is from www.openstreetmap.org. The data is made available under ODbL."}, "elements": [{"type": "node", "id": 357569585, "lat": 40.6901298, "lon": -73.9813461}, {"type": "node", "id": 1907740409, "lat": 40.6918324, "lon": -73.9801555}, {"type": "node", "id": 1907740419, "lat": 40.6908597, "lon": -73.9789505}, {"type": "node", "id": 1907740420, "lat": 40.6899674, "lon": -73.9794971}, {"type": "node", "id": 1907740428, "lat": 40.69179, "lon": -73.9790732}, {"type": "node", "id": 1907740429, "lat": 40.68994, "lon": -73.9788122}, {"type": "node", "id": 2019004625, "lat": 40.6865069, "lon": -73.9806514}, {"type": "node", "id": 2019004626, "lat": 40.6867435, "lon": -73.9804826}, {"type": "node", "id": 2019004627, "lat": 40.6868542, "lon": -73.9815454}, {"type": "node", "id": 2019004628, "lat": 40.6870443, "lon": -73.9814145}, {"type": "node", "id": 2494254733, "lat": 40.6907988, "lon": -73.9884211}, {"type": "node", "id": 2494254735, "lat": 40.6908771, "lon": -73.9886258}, {"type": "node", "id": 2494254738, "lat": 40.691157, "lon": -73.9885817}, {"type": "node", "id": 2494254747, "lat": 40.6911043, "lon": -73.9882196}, {"type": "node", "id": 2494254749, "lat": 40.6911136, "lon": -73.9884697}, {"type": "node", "id": 2494254751, "lat": 40.6911434, "lon": -73.9885467}, {"type": "node", "id": 2494254754, "lat": 40.6911966, "lon": -73.9881587}, {"type": "node", "id": 2494254759, "lat": 40.6912403, "lon": -73.9887967}, {"type": "node", "id": 2494254762, "lat": 40.6912611, "lon": -73.9883275}, {"type": "node", "id": 2494254763, "lat": 40.6913016, "lon": -73.9884335}, {"type": "node", "id": 2494254764, "lat": 40.6913117, "lon": -73.9884268}, {"type": "node", "id": 2494254766, "lat": 40.6913727, "lon": -73.9885865}, {"type": "node", "id": 2494254767, "lat": 40.6913794, "lon": -73.988604}, {"type": "node", "id": 2510927727, "lat": 40.6858219, "lon": -73.9884647, "tags": {"addr:housenumber": "148", "addr:postcode": "11217", "addr:street": "Hoyt Street", "amenity": "bar", "atm": "yes", "cocktails": "yes", "drink:beer": "draught", "drink:liquor": "yes", "drink:wine": "yes", "name": "The Brooklyn Inn", "outdoor_seating": "street", "payment:cash": "only", "phone": "+1-718-522-2525", "sport": "billiards", "toilets": "yes", "toilets:unisex": "no"}}, {"type": "node", "id": 2550002425, "lat": 40.6867099, "lon": -73.9881481}, {"type": "node", "id": 2550002443, "lat": 40.6867638, "lon": -73.9881117}, {"type": "node", "id": 2550002449, "lat": 40.6867821, "lon": -73.9883342}, {"type": "node", "id": 2550002472, "lat": 40.6868788, "lon": -73.9885832}, {"type": "node", "id": 2550002502, "lat": 40.6870177, "lon": -73.9879403}, {"type": "node", "id": 2550002538, "lat": 40.6871584, "lon": -73.9878453}, {"type": "node", "id": 2550002550, "lat": 40.6872689, "lon": -73.9880066}, {"type": "node", "id": 2550002560, "lat": 40.6873657, "lon": -73.9882558}, {"type": "node", "id": 2550002802, "lat": 40.6896009, "lon": -73.9860383, "tags": {"branch": "Downtown Brooklyn", "fax": "+1-718-596-3012", "name": "R&G Brenner", "office": "tax_advisor", "opening_hours": "Mo-Fr 09:00-17:00", "phone": "+1-718-596-1188", "website": "https://www.rgbrenner.com/locations/brooklyn/downtown/"}}, {"type": "node", "id": 2550005838, "lat": 40.6890162, "lon": -73.9837875, "tags": {"addr:city": "Brooklyn", "addr:housenumber": "253", "addr:postcode": "11201", "addr:state": "NY", "addr:street": "Livingston Street", "alt_name": "International House of Pancakes", "amenity": "restaurant", "brand": "IHOP", "brand:wikidata": "Q1185675", "cuisine": "pancake;diner", "drink:coffee": "yes", "drink:tea": "yes", "name": "IHOP", "phone": "+1-718-222-4467", "takeaway": "yes", "website": "https://restaurants.ihop.com/en-us/ny/brooklyn/breakfast-253-livingston-st-3503"}}, {"type": "node", "id": 2550005915, "lat": 40.6905044, "lon": -73.9845775, "tags": {"addr:housenumber": "519", "addr:postcode": "11201", "addr:street": "Fulton Street", "amenity": "restaurant", "cuisine": "caribbean", "name": "Imani Grill", "opening_hours": "Mo-Su 11:00-21:30", "phone": "+1-929-866-2979", "website": "https://www.imanigrill.nyc"}}, {"type": "node", "id": 2550006166, "lat": 40.6900416, "lon": -73.9817675, "tags": {"entrance": "main"}}, {"type": "node", "id": 2550006169, "lat": 40.6900566, "lon": -73.9821649}, {"type": "node", "id": 2550006194, "lat": 40.6902343, "lon": -73.9821519}, {"type": "node", "id": 2550006209, "lat": 40.6903243, "lon": -73.9819075}, {"type": "node", "id": 2550064303, "lat": 40.6886044, "lon": -73.9834746, "tags": {"addr:housenumber": "276", "addr:postcode": "11217", "addr:street": "Livingston Street", "amenity": "cafe", "branch": "Downtown Brooklyn", "drink:coffee": "yes", "drink:espresso": "yes", "drink:tea": "yes", "name": "Devoci\u00f3n", "opening_hours": "Mo-Fr 07:00-18:00; Sa-Su 07:30-18:00", "phone": "+1-929-262-1241", "website": "https://www.devocion.com/pages/devocion-cafe-downtown-brooklyn-ny"}}, {"type": "node", "id": 2550064306, "lat": 40.6884777, "lon": -73.9831474, "tags": {"addr:housenumber": "288", "addr:postcode": "11217", "addr:street": "Livingston Street", "amenity": "restaurant", "bar": "yes", "cuisine": "burger", "drink:beer": "draught", "drink:wine": "yes", "name": "Burger Village", "opening_hours": "Mo-Su 11:00-22:00", "phone": "+1-917-909-0594"}}, {"type": "node", "id": 2550064307, "lat": 40.6884355, "lon": -73.9830383, "tags": {"addr:housenumber": "290", "addr:postcode": "11217", "addr:street": "Livingston Street", "amenity": "restaurant", "cuisine": "korean", "happy_hours": "Mo-Su 15:00-18:00", "name": "Kuun", "opening_hours": "Mo-Su 11:30-22:30", "outdoor_seating": "street", "phases": "+1-917-909-1466", "website": "https://www.kuunbrooklyn.com"}}, {"type": "node", "id": 2550064309, "lat": 40.6877932, "lon": -73.9816296, "tags": {"name": "Campos Brokerage", "office": "insurance", "phone": "+1-718-834-0231"}}, {"type": "node", "id": 2550064825, "lat": 40.6871844, "lon": -73.9831971}, {"type": "node", "id": 2550064829, "lat": 40.6871921, "lon": -73.9831919}, {"type": "node", "id": 2550064870, "lat": 40.6873088, "lon": -73.9835176}, {"type": "node", "id": 2550064874, "lat": 40.6873149, "lon": -73.9835332}, {"type": "node", "id": 2550064893, "lat": 40.6873581, "lon": -73.9836446}, {"type": "node", "id": 2550064895, "lat": 40.6873657, "lon": -73.9836395}, {"type": "node", "id": 2550064896, "lat": 40.6873679, "lon": -73.9830732}, {"type": "node", "id": 2550064925, "lat": 40.687456, "lon": -73.9830138}, {"type": "node", "id": 2550064928, "lat": 40.6874661, "lon": -73.9835717}, {"type": "node", "id": 2550064949, "lat": 40.6875429, "lon": -73.9835199}, {"type": "node", "id": 2550065990, "lat": 40.6879283, "lon": -73.9842504}, {"type": "node", "id": 2550065999, "lat": 40.6879579, "lon": -73.9843297}, {"type": "node", "id": 2550066021, "lat": 40.6881043, "lon": -73.9841313}, {"type": "node", "id": 2550066033, "lat": 40.6881426, "lon": -73.9848248}, {"type": "node", "id": 2550066071, "lat": 40.6883259, "lon": -73.9847008}, {"type": "node", "id": 2568308099, "lat": 40.6899642, "lon": -73.9796172}, {"type": "node", "id": 2568308100, "lat": 40.6899788, "lon": -73.9799732}, {"type": "node", "id": 2568308102, "lat": 40.6899994, "lon": -73.9805367}, {"type": "node", "id": 2568308105, "lat": 40.6900106, "lon": -73.981006}, {"type": "node", "id": 2568308107, "lat": 40.6900206, "lon": -73.9812331}, {"type": "node", "id": 2568308108, "lat": 40.6900349, "lon": -73.9812562}, {"type": "node", "id": 2568308109, "lat": 40.6900388, "lon": -73.9799928}, {"type": "node", "id": 2568308110, "lat": 40.6900418, "lon": -73.9803543}, {"type": "node", "id": 2568308111, "lat": 40.6900471, "lon": -73.9802821}, {"type": "node", "id": 2568308112, "lat": 40.6900477, "lon": -73.9802675}, {"type": "node", "id": 2568308113, "lat": 40.6900508, "lon": -73.9802829}, {"type": "node", "id": 2568308115, "lat": 40.6900522, "lon": -73.9802682}, {"type": "node", "id": 2568308120, "lat": 40.6900904, "lon": -73.980001}, {"type": "node", "id": 2568308122, "lat": 40.6900914, "lon": -73.9799903}, {"type": "node", "id": 2568308173, "lat": 40.6904794, "lon": -73.9788902}, {"type": "node", "id": 2568308258, "lat": 40.6908292, "lon": -73.9789411}, {"type": "node", "id": 2725606562, "lat": 40.6864151, "lon": -73.9852989, "tags": {"addr:housenumber": "112", "addr:postcode": "11217", "addr:street": "Bond Street", "amenity": "cafe", "contact:instagram": "cafekitsune", "cuisine": "coffee_shop", "drink:coffee": "yes", "drink:espresso": "yes", "drink:tea": "yes", "name": "Caf\u00e9 Kitsun\u00e9", "opening_hours": "Mo-Su 08:00-18:00", "website": "https://maisonkitsune.com/mk/find-a-store/cafe-kitsune-boerum-hill-3/"}}, {"type": "node", "id": 3001111670, "lat": 40.6877255, "lon": -73.9891828}, {"type": "node", "id": 3001111671, "lat": 40.6874874, "lon": -73.9885694}, {"type": "node", "id": 3001111672, "lat": 40.6870009, "lon": -73.9888978}, {"type": "node", "id": 3001111673, "lat": 40.6872391, "lon": -73.9895112}, {"type": "node", "id": 3064399845, "lat": 40.6875949, "lon": -73.9821163, "tags": {"addr:city": "Brooklyn", "addr:housenumber": "305", "addr:postcode": "11217", "addr:street": "Schermerhorn Street", "alt_name": "Govinda\u2019s Vegetarian Lunch", "amenity": "restaurant", "diet:lacto_vegetarian": "only", "diet:vegan": "yes", "name": "Govinda\u2019s Kitchen", "opening_hours": "Mo-Fr 12:00-15:00", "phone": "+1-718-875-6127", "smoking": "no"}}, {"type": "node", "id": 3684654076, "lat": 40.6871963, "lon": -73.9878196}, {"type": "node", "id": 3727119175, "lat": 40.6876327, "lon": -73.9828944}, {"type": "node", "id": 3727119176, "lat": 40.6877876, "lon": -73.9832933}, {"type": "node", "id": 4360186863, "lat": 40.6881049, "lon": -73.9866471, "tags": {"addr:housenumber": "77B", "addr:postcode": "11217", "addr:street": "Hoyt Street", "amenity": "cafe", "contact:facebook": "https://www.facebook.com/thelittlesweetcafe/", "cuisine": "coffee_shop;sandwich;pastry;french", "drink:beer": "yes", "drink:coffee": "yes", "drink:espresso": "yes", "drink:wine": "yes", "name": "The Little Sweet Caf\u00e9", "opening_hours": "Mo-Fr 07:30-19:00; Sa 08:30-19:00", "phone": "+1-718-858-8998"}}, {"type": "node", "id": 4564264140, "lat": 40.6889134, "lon": -73.9833505, "tags": {"alt_name": "Cafe Plus The Lounge", "amenity": "restaurant", "bar": "yes", "cuisine": "american", "name": "Cafe Plus", "website": "https://thecafeplus.com"}}, {"type": "node", "id": 4625638116, "lat": 40.6917468, "lon": -73.981763}, {"type": "node", "id": 4625638117, "lat": 40.6919337, "lon": -73.9817522}, {"type": "node", "id": 4625638118, "lat": 40.6919302, "lon": -73.9815018}, {"type": "node", "id": 4871640124, "lat": 40.6869246, "lon": -73.9843598, "tags": {"addr:city": "Brooklyn", "addr:housenumber": "409-411", "addr:postcode": "11217", "addr:street": "Atlantic Avenue", "amenity": "restaurant", "cuisine": "french", "drink:coffee": "yes", "drink:liquor": "no", "drink:wine": "yes", "name": "Bacchus", "opening_hours": "Mo-Th 17:00-22:30; Fr 17:00-23:00; Sa 10:30-16:00,17:00-23:00; Su 10:30-16:00,17:00-22:30", "outdoor_seating": "yes", "phone": "+1-718-852-1572", "reservation": "recommended", "takeaway": "yes", "website": "http://bacchusbistro.com/", "wheelchair": "yes"}}, {"type": "node", "id": 4881982923, "lat": 40.6880591, "lon": -73.9881726, "tags": {"amenity": "restaurant", "bar": "yes", "cocktails": "yes", "cuisine": "french", "drink:beer": "draught", "drink:liquor": "yes", "drink:wine": "yes", "name": "French Louie", "opening_hours": "Mo 17:00-22:00; Tu-Th 11:30-15:00,17:00-22:00; Fr 11:30-15:00,17:00-22:30; Sa 11:00-15:00,17:00-22:30; Su 11:00-15:00,17:00-21:00", "outdoor_seating": "garden", "phone": "+1-718-935-1200", "website": "https://frenchlouienyc.com"}}, {"type": "node", "id": 5351138565, "lat": 40.6869608, "lon": -73.9855621, "tags": {"addr:housenumber": "388", "addr:street": "Atlantic Avenue", "contact:facebook": "https://www.facebook.com/TheIndypendent", "contact:twitter": "@TheIndypendent", "name": "The Indypendent", "office": "newspaper", "phone": "+1-212-904-1282", "website": "https://www.indypendent.org/"}}, {"type": "node", "id": 5420452682, "lat": 40.6913447, "lon": -73.9819263}, {"type": "node", "id": 5420452683, "lat": 40.691525, "lon": -73.9817758}, {"type": "node", "id": 5420452686, "lat": 40.6918778, "lon": -73.9814918}, {"type": "node", "id": 5521711379, "lat": 40.6876752, "lon": -73.9834306}, {"type": "node", "id": 5521763762, "lat": 40.6875011, "lon": -73.9829833}, {"type": "node", "id": 5745808907, "lat": 40.6877719, "lon": -73.9874349, "tags": {"name": "Pacheco & Lugo", "office": "lawyer", "phone": "+1 866 698 7425"}}, {"type": "node", "id": 5766152071, "lat": 40.6869656, "lon": -73.9844645, "tags": {"amenity": "restaurant", "cuisine": "middle_eastern", "delivery": "yes", "diet:halal": "yes", "diet:vegetarian": "yes", "drink:coffee": "yes", "drink:tea": "yes", "name": "Bedouin Tent", "opening_hours": "Mo-Su 11:00-22:00", "outdoor_seating": "garden", "payment:cash": "only", "phone": "+1-718-852-5555", "takeaway": "yes", "website": "https://bedouintentny.com"}}, {"type": "node", "id": 5766152072, "lat": 40.6859095, "lon": -73.9817809, "tags": {"alt_name": "Alan E Wheeler Agency", "brand": "State Farm", "brand:wikidata": "Q2007336", "name": "State Farm", "office": "insurance", "opening_hours": "Mo-Fr 09:00-18:00; Sa 09:00-13:00", "payment:cash": "no", "phone": "+1-718-488-7300", "website": "https://alanwheeler.biz"}}, {"type": "node", "id": 5807371646, "lat": 40.6893738, "lon": -73.9860329, "tags": {"amenity": "bar", "cocktails": "yes", "contact:email": "info@livingstonmanorbk.com", "cuisine": "sandwich;charcuterie", "drink:beer": "draught", "drink:liquor": "yes", "drink:wine": "yes", "happy_hours": "yes", "name": "Livingston Manor", "opening_hours": "Mo-Su 16:00-02:00", "outdoor_seating": "yes", "phone": "+1-347-987-3292", "toilets": "yes", "toilets:unisex": "yes", "toilets:wheelchair": "yes", "website": "https://livingstonmanorbk.com/", "wheelchair": "yes"}}, {"type": "node", "id": 5807804737, "lat": 40.6882685, "lon": -73.9865349, "tags": {"addr:housenumber": "336", "addr:street": "State Street", "amenity": "bar", "cocktails": "yes", "cuisine": "seafood;charcuterie", "drink:beer": "draught", "drink:liquor": "yes", "drink:wine": "yes", "email": "events@grandarmybar.com", "happy_hours": "Mo 17:00-19:00, Tu-Th 17:00-18:00, Sa-Su 14:00-16:00", "name": "Grand Army", "opening_hours": "Mo-Th 17:00-24:00, Fr 17:00-01:00, Sa 14:00-01:00, Su 14:00-23:00", "outdoor_seating": "street", "phone": "+1-718-643-1503", "reservation": "yes", "toilets": "yes", "website": "https://www.grandarmybar.com/"}}, {"type": "node", "id": 5807804739, "lat": 40.688024, "lon": -73.9867026, "tags": {"addr:housenumber": "81", "addr:street": "Hoyt Street", "amenity": "restaurant", "bar": "yes", "cuisine": "mediterranean;persian;brunch", "drink:beer": "draught", "drink:coffee": "yes", "drink:wine": "yes", "fireplace": "yes", "happy_hours": "Mo-Fr 12:00-19:00", "name": "Bijan's", "opening_hours": "Mo-Th 11:30-02:00; Fr 11:30-04:00; Sa 11:00-04:00; Su 11:00-02:00", "opening_hours:kitchen": "Mo-Th 11:30-23:00; Fr 11:30-01:00; Sa 11:00-01:00; Su 11:00-23:00", "phone": "+1-718-855-5574", "reservation": "yes", "takeaway": "yes", "toilets": "yes", "toilets:unisex": "yes", "website": "https://www.bijansbrooklyn.com/", "wheelchair": "yes"}}, {"type": "node", "id": 5808313095, "lat": 40.6873346, "lon": -73.9863301, "tags": {"amenity": "bar", "cocktails": "yes", "cuisine": "pub;international", "drink:beer": "draught", "drink:liquor": "yes", "drink:wine": "yes", "name": "Someday", "outdoor_seating": "sidewalk;street", "phone": "+1-929-480-8454", "toilets": "yes", "website": "https://www.somedaybarnyc.com"}}, {"type": "node", "id": 5808889070, "lat": 40.687244, "lon": -73.986102, "tags": {"name": "New York City Marshal", "office": "government", "opening_hours": "Mo-Fr 09:00-17:00", "phone": "+1-718-330-0242", "website": "https://www1.nyc.gov/site/doi/offices/marshals-list.page"}}, {"type": "node", "id": 5809111762, "lat": 40.6874914, "lon": -73.9870618, "tags": {"addr:housenumber": "97A", "addr:postcode": "11217", "addr:street": "Hoyt Street", "air_conditioning": "yes", "alt_name": "Mile End Deli", "amenity": "restaurant", "contact:facebook": "https://www.facebook.com/mileenddeli", "contact:instagram": "https://www.instagram.com/mileenddeli", "cuisine": "sandwich;breakfast;canadian", "delivery": "yes", "drink:beer": "yes", "drink:coffee": "yes", "drink:espresso": "yes", "drink:tea": "yes", "drink:wine": "yes", "drive_through": "no", "name": "Mile End Delicatessen", "opening_hours": "Mo-Fr 08:00-21:00; Sa-Su 09:00-21:00", "outdoor_seating": "sidewalk", "payment:american_express": "yes", "payment:discover_card": "yes", "phone": "+1-718-852-7510", "smoking": "no", "takeaway": "yes", "website": "https://www.mileenddeli.com", "wheelchair": "no", "wikidata": "Q23091938"}}, {"type": "node", "id": 5809624401, "lat": 40.6865984, "lon": -73.9851734, "tags": {"addr:housenumber": "104", "addr:street": "Bond Street", "amenity": "bar", "cocktails": "yes", "name": "The Bar at Caf\u00e9 Kitsun\u00e9"}}, {"type": "node", "id": 6121661568, "lat": 40.6881861, "lon": -73.9876169, "tags": {"amenity": "cafe", "contact:facebook": "https://www.facebook.com/absolutecoffee/", "cuisine": "coffee_shop;bagel", "drink:coffee": "yes", "drink:espresso": "yes", "name": "Absolute Coffee", "opening_hours": "Mo-We 07:00-20:00; Th-Sa 09:00-20:00; Su 07:00-20:00", "outdoor_seating": "street", "phone": "+1-718-522-0969", "website": "https://www.absolutecoffee.nyc"}}, {"type": "node", "id": 6317277261, "lat": 40.6880272, "lon": -73.9880908, "tags": {"fax": "+1-718-544-1472", "name": "E.W. Property Services", "office": "company", "opening_hours": "Mo-Fr 09:00-18:00", "phone": "+1-718-569-0756", "website": "http://ewpropertyservicesinc.com/atlantic-ave/4650594"}}, {"type": "node", "id": 6317277265, "lat": 40.6879747, "lon": -73.9879559, "tags": {"fax": "+1-718-237-2904", "name": "The Law Offices of Noto & Noto", "office": "lawyer", "phone": "+1-718-237-2323", "website": "https://www.notolaw.net"}}, {"type": "node", "id": 6329651375, "lat": 40.6900528, "lon": -73.9820632, "tags": {"entrance": "yes"}}, {"type": "node", "id": 6343626815, "lat": 40.6872395, "lon": -73.9851686, "tags": {"fax": "+1-718-875-8895", "name": "Brooklyn Real Property", "office": "estate_agent", "phone": "+1-718-875-8899", "website": "https://www.brooklynrealproperty.com"}}, {"type": "node", "id": 6374643458, "lat": 40.6866658, "lon": -73.9846011, "tags": {"government": "legislator", "name": "Councilmember Lincoln Restler", "office": "government", "opening_hours": "Mo 11:00-17:00; We 12:00-16:00; Th 12:00-17:00; Fr 14:00-17:00", "operator": "Lincoln Restler", "operator:wikidata": "Q7609787", "phone": "+1-718-875-5200", "politician": "city_councilmember"}}, {"type": "node", "id": 6391739434, "lat": 40.6875403, "lon": -73.9827409, "tags": {"addr:housenumber": "300", "addr:street": "Schermerhorn Street", "amenity": "restaurant", "bar": "yes", "cocktails": "yes", "cuisine": "breakfast;diner;mexican;tex-mex", "disused:website": "http://www.grandcanyonbistro300.com", "drink:beer": "draught", "drink:coffee": "yes", "drink:espresso": "yes", "drink:liquor": "yes", "drink:tea": "yes", "drink:wine": "yes", "fax": "+1-347-916-1302", "level": "0", "name": "Grand Canyon Bistro", "opening_hours": "Mo-Su 07:00-23:00", "phone": "+1-347-916-1300"}}, {"type": "node", "id": 6422089990, "lat": 40.6879712, "lon": -73.9860634, "tags": {"addr:housenumber": "350", "addr:postcode": "11217", "addr:street": "State Street", "fax": "+1-718-858-2982", "name": "Subway Surface Supervisors Association", "office": "union", "phone": "+1-718-858-2113", "website": "https://www.sssaunion.org"}}, {"type": "node", "id": 6422095818, "lat": 40.6877624, "lon": -73.9875622, "tags": {"addr:housenumber": "338", "addr:postcode": "11201", "addr:street": "Atlantic Avenue", "addr:unit": "Suite 201", "name": "Clover Barrett & Associates", "office": "lawyer", "phone": "+1-718-625-8568"}}, {"type": "node", "id": 6422095820, "lat": 40.6877156, "lon": -73.9875944, "tags": {"addr:housenumber": "338", "addr:postcode": "11201", "addr:street": "Atlantic Avenue", "addr:unit": "Suite 203", "name": "Edward Harold King, PLLC", "office": "lawyer"}}, {"type": "node", "id": 6453371196, "lat": 40.689462, "lon": -73.9859753, "tags": {"addr:city": "Brooklyn", "addr:housenumber": "40", "addr:postcode": "11201", "addr:state": "NY", "addr:street": "Hoyt Street", "amenity": "cafe", "branch": "Brooklyn Hoyt St", "brand": "Kung Fu Tea", "brand:wikidata": "Q66023886", "cuisine": "bubble_tea", "drink:bubble_tea": "yes", "drink:espresso": "yes", "drink:tea": "yes", "name": "Kung Fu Tea", "opening_hours": "Mo-Th 11:30-20:30; Fr 11:30-21:00; Sa 12:00-21:00; Su 12:00-20:30", "phone": "+1-347-294-0232", "takeaway": "yes", "website": "https://www.kungfutea.com"}}, {"type": "node", "id": 6453371197, "lat": 40.6892162, "lon": -73.986307, "tags": {"addr:housenumber": "193", "addr:postcode": "11201", "addr:street": "Schermerhorn Street", "amenity": "restaurant", "cuisine": "thai", "name": "Charm Kao", "opening_hours": "Mo-Su 11:30-21:30", "phone": "+1-347-599-1748", "website": "https://charmkao.com"}}, {"type": "node", "id": 6453371200, "lat": 40.6900019, "lon": -73.9870953, "tags": {"addr:city": "Brooklyn", "addr:housenumber": "180", "addr:postcode": "11201", "addr:state": "NY", "addr:street": "Livingston Street", "amenity": "restaurant", "branch": "Downtown Brooklyn", "brand": "Dallas BBQ", "brand:wikidata": "Q122209839", "cuisine": "barbecue", "name": "Dallas BBQ", "opening_hours": "Su-Th 11:00-23:00; Fr,Sa 11:00-24:00; ", "phone": "+1-718-643-5700", "website": "https://www.dallasbbq.com/downtown-brooklyn"}}, {"type": "node", "id": 6456450337, "lat": 40.689583, "lon": -73.9859909, "tags": {"addr:city": "Brooklyn", "addr:housenumber": "206", "addr:postcode": "11201", "addr:state": "NY", "addr:street": "Livingston Street", "amenity": "cafe", "cuisine": "poke", "name": "Poke Fan", "opening_hours": "Su-Fr 11:00-20:00", "phone": "+1-347-987-3007", "website": "https://www.pokefanonline.com/"}}, {"type": "node", "id": 6465763264, "lat": 40.688351, "lon": -73.9828201, "tags": {"addr:housenumber": "294", "addr:postcode": "11217", "addr:street": "Livingston Street", "amenity": "restaurant", "cocktails": "yes", "cuisine": "korean;barbecue", "delivery": "yes", "disused:amenity": "cafe", "drink:beer": "yes", "drink:liquor": "yes", "drink:sake": "yes", "drink:wine": "yes", "name": "Atti", "opening_hours": "Mo-Th 17:00-23:00; Fr-Su 11:30-23:00", "phone": "+1-917-909-1122", "takeaway": "yes", "website": "https://attinyc.com"}}, {"type": "node", "id": 6465804784, "lat": 40.6896561, "lon": -73.9873969, "tags": {"addr:housenumber": "159", "addr:postcode": "11201", "addr:street": "Schermerhorn Street", "branch": "Division of Human Resources", "name": "New York City Transit", "office": "government"}}, {"type": "node", "id": 6465804985, "lat": 40.6896286, "lon": -73.9882049, "tags": {"addr:housenumber": "71", "addr:postcode": "11201", "addr:street": "Smith Street", "amenity": "cafe", "cuisine": "coffee_shop;breakfast;health_food", "drink:coffee": "yes", "drink:espresso": "yes", "drink:tea": "yes", "name": "White Noise", "opening_hours": "Mo-Su 07:00-19:00", "toilets": "yes", "toilets:access": "customers"}}, {"type": "node", "id": 6556206307, "lat": 40.6895176, "lon": -73.9879408, "tags": {"addr:housenumber": "140", "addr:postcode": "11201", "addr:street": "Schermerhorn Street", "amenity": "restaurant", "bar": "yes", "cocktails": "yes", "cuisine": "american", "diet:gluten_free": "yes", "diet:vegetarian": "limited", "drink:beer": "draught", "drink:liquor": "yes", "drink:wine": "yes", "fax": "+1-718-228-9405", "level": "0", "name": "Black Walnut", "opening_hours": "Mo-Su 06:30-23:00", "phone": "+1-929-337-1280", "website": "https://www.blackwalnutnyc.com"}}, {"type": "node", "id": 6639135306, "lat": 40.6885302, "lon": -73.9852937, "tags": {"addr:housenumber": "200", "addr:postcode": "11201", "addr:street": "Schermerhorn Street", "name": "Balsamo & Rosenblatt", "office": "lawyer", "phone": "+1-718-858-7399", "website": "http://nyevictionlawyer.com"}}, {"type": "node", "id": 6639135312, "lat": 40.6884919, "lon": -73.984419, "tags": {"addr:housenumber": "243", "addr:postcode": "11201", "addr:street": "Schermerhorn Street", "alt_name": "NYC HRA", "government": "city", "name": "NYC Human Resources Administration", "office": "government"}}, {"type": "node", "id": 6657875511, "lat": 40.6869095, "lon": -73.985602, "tags": {"addr:housenumber": "388", "addr:street": "Atlantic Avenue", "amenity": "school", "email": "info@marxedproject.org", "name": "The Marxist Education Project", "website": "https://marxedproject.org/"}}, {"type": "node", "id": 6680340129, "lat": 40.688954, "lon": -73.9836296, "tags": {"name": "Armed Forces Career Center", "office": "military_recruitment"}}, {"type": "node", "id": 6680340130, "lat": 40.6888199, "lon": -73.9832523, "tags": {"addr:housenumber": "255", "addr:postcode": "11201", "addr:street": "Livingston Street", "addr:unit": "4th Floor", "level": "3", "name": "Chidi Eze", "office": "lawyer", "phone": "+1-718-643-8800", "service:notary": "yes"}}, {"type": "node", "id": 6680357308, "lat": 40.6875783, "lon": -73.9818254, "tags": {"amenity": "bar", "cuisine": "sandwich;salad", "drink:beer": "draught", "drink:wine": "yes", "happy_hours": "Mo-Su 17:00-20:00", "level": "0", "name": "Cork & Kale", "opening_hours": "Mo-Su 17:00-23:00", "sport": "table_shuffleboard"}}, {"type": "node", "id": 6859180119, "lat": 40.6891039, "lon": -73.9859325, "tags": {"addr:city": "Brooklyn", "addr:housenumber": "45", "addr:postcode": "11201", "addr:state": "NY", "addr:street": "Hoyt Street", "addr:unit": "D", "amenity": "cafe", "branch": "Hoyt St & Schermerhorn St", "brand": "Starbucks", "brand:wikidata": "Q37158", "cuisine": "coffee_shop", "name": "Starbucks", "official_name": "Starbucks Coffee", "phone": "+1 718-797-1777", "takeaway": "yes", "website": "https://www.starbucks.com/store-locator/store/1025831/hoyt-st-schermerhorn-st-45-hoyt-street-d-brooklyn-ny-112017211-us"}}, {"type": "node", "id": 6883641338, "lat": 40.6885574, "lon": -73.9853641, "tags": {"addr:housenumber": "200", "addr:postcode": "11201", "addr:street": "Schermerhorn Street", "name": "Jeffrey Edelman", "office": "lawyer", "phone": "+1-718-305-4131"}}, {"type": "node", "id": 6896613952, "lat": 40.6905277, "lon": -73.9842727, "tags": {"addr:housenumber": "255", "addr:postcode": "11201", "addr:street": "Duffield Street", "description": "administrative offices, not a healthcare location", "name": "The Brooklyn Hospital Center", "office": "healthcare", "website": "https://www.tbh.org"}}, {"type": "node", "id": 7172604238, "lat": 40.6869382, "lon": -73.981135}, {"type": "node", "id": 7172604239, "lat": 40.6866048, "lon": -73.980892}, {"type": "node", "id": 7172604240, "lat": 40.6866327, "lon": -73.9808715}, {"type": "node", "id": 7172604241, "lat": 40.6867805, "lon": -73.9812577}, {"type": "node", "id": 7172604242, "lat": 40.6867516, "lon": -73.9812773}, {"type": "node", "id": 8149503340, "lat": 40.6893113, "lon": -73.9884523, "tags": {"addr:city": "Brooklyn", "addr:housenumber": "71", "addr:postcode": "11201", "addr:state": "NY", "addr:street": "Smith Street", "amenity": "cafe", "branch": "Brooklyn", "contact:instagram": "debuteanyc", "cuisine": "bubble_tea;poke;snack", "drink:coffee": "yes", "drink:sake": "yes", "drink:tea": "yes", "email": "debuteabrooklyn@gmail.com", "internet_access": "wlan", "internet_access:fee": "no", "internet_access:ssid": "Debuteabrooklynguest", "name": "Debutea", "opening_hours": "09:30-21:00", "payment:american_express": "yes", "payment:contactless": "yes", "payment:discover_card": "yes", "payment:mastercard": "yes", "payment:visa": "yes", "phone": "+1-347-889-5433", "website": "https://www.debutea.com", "website:menu": "https://www.debutea.com/menu"}}, {"type": "node", "id": 9033077995, "lat": 40.6889471, "lon": -73.982243, "tags": {"amenity": "school", "fax": "+1-929-295-6097", "name": "Science, Language & Arts International School", "phone": "+1-718-636-3836", "website": "https://slaschool.org"}}, {"type": "node", "id": 9130590698, "lat": 40.6888819, "lon": -73.9832711, "tags": {"name": "Barango-Tariah, D.A.", "office": "lawyer", "phone": "+1-718-625-4200"}}, {"type": "node", "id": 9130590701, "lat": 40.6906954, "lon": -73.9836225, "tags": {"addr:housenumber": "430", "addr:postcode": "11201", "addr:street": "Albee Square", "amenity": "restaurant", "bar": "yes", "cuisine": "cajun;seafood", "name": "Hook & Reel", "opening_hours": "Mo-Th 12:00-22:30; Fr-Sa 12:00-24:00; Su 12:30-22:00", "phone": "+1-929-397-0031", "website": "https://hookreel.com/location/albeesquarebrooklyn/"}}, {"type": "node", "id": 9293681958, "lat": 40.6910754, "lon": -73.9841989, "tags": {"addr:city": "Brooklyn", "addr:housenumber": "1", "addr:postcode": "11201", "addr:state": "NY", "addr:street": "Willoughby Square", "addr:unit": "7th Floor", "name": "FXCollaborative Architects LLP", "office": "architect", "phone": "+1 212 627 1700", "website": "https://www.fxcollaborative.com/"}}, {"type": "node", "id": 9330316508, "lat": 40.6858036, "lon": -73.9815079, "tags": {"amenity": "restaurant", "bar": "yes", "cocktails": "yes", "contact:sms": "+1-718-683-2217", "cuisine": "mexican", "diet:vegetarian": "yes", "drink:beer": "yes", "drink:wine": "yes", "name": "El Zason", "opening_hours": "Mo-Th 11:00-22:00, Fr-Sa 11:00-23:00+, Su 11:00-23:00", "phone": "+1-347-689-2820", "takeaway": "yes", "website": "https://www.elzasonbrooklyn.com"}}, {"type": "node", "id": 9330316509, "lat": 40.6867156, "lon": -73.9847301, "tags": {"name": "Law Offices of Marjory Cajoux", "office": "lawyer", "phone": "+1-718-237-0411"}}, {"type": "node", "id": 9528498233, "lat": 40.6876384, "lon": -73.9834554}, {"type": "node", "id": 9528498241, "lat": 40.6876563, "lon": -73.983382}, {"type": "node", "id": 9528668469, "lat": 40.6879415, "lon": -73.9838052, "tags": {"amenity": "bar", "cocktails": "yes", "cuisine": "eclectic", "drink:beer": "draught", "drink:liquor": "yes", "drink:wine": "yes", "name": "The Lobby", "website": "https://acehotel.com/brooklyn/eat-drink/the-lobby/"}}, {"type": "node", "id": 9528668470, "lat": 40.6878617, "lon": -73.9835994, "tags": {"amenity": "restaurant", "cocktails": "yes", "cuisine": "italian;breakfast;brunch", "drink:beer": "yes", "drink:coffee": "yes", "drink:liquor": "yes", "drink:wine": "yes", "name": "Lele's Roman", "opening_hours": "Mo 07:00-14:30, 17:00-21:00; Tu-Fr 07:00-14:30, 17:00-22:00; Sa 11:00-15:00, 17:00-22:00; Su 11:00-15:00, 17:00-21:00", "phone": "+1-718-308-3608", "website": "https://www.lelesroman.com"}}, {"type": "node", "id": 9934793261, "lat": 40.6873837, "lon": -73.9883021, "tags": {"entrance": "main"}}, {"type": "node", "id": 10109662184, "lat": 40.6890831, "lon": -73.9824347, "tags": {"addr:housenumber": "10", "addr:postcode": "11201", "addr:street": "Hanover Place", "name": "Job Corps", "office": "employment_agency", "official_name": "Job Corps Brooklyn Admission Office", "opening_hours": "Mo-Fr 08:30-17:00||Sa \"open every other Saturday\"", "phone": "+1-718-522-0144"}}, {"type": "node", "id": 10705463646, "lat": 40.6879134, "lon": -73.9817062, "tags": {"brand": "H&R Block", "brand:wikidata": "Q5627799", "name": "H&R Block", "office": "tax_advisor"}}, {"type": "node", "id": 11399440626, "lat": 40.6903171, "lon": -73.9820547}, {"type": "node", "id": 11399440627, "lat": 40.6903318, "lon": -73.9820434}, {"type": "node", "id": 11399440628, "lat": 40.6903435, "lon": -73.9820699}, {"type": "node", "id": 11399440629, "lat": 40.6902803, "lon": -73.9821243}, {"type": "node", "id": 11399440630, "lat": 40.690282, "lon": -73.9821488}, {"type": "node", "id": 11783969920, "lat": 40.689538, "lon": -73.9851519, "tags": {"addr:housenumber": "217", "addr:postcode": "11201", "addr:street": "Livingston Street", "amenity": "cafe", "cuisine": "coffee_shop", "name": "Jack's Stir Brew Coffee", "opening_hours": "Mo-Fr 07:00-16:00; Sa-Su 08:00-16:00"}}, {"type": "node", "id": 12306576560, "lat": 40.6900186, "lon": -73.9811879}, {"type": "way", "id": 191315602, "nodes": [2019004628, 7172604238, 2019004626, 2019004625, 7172604239, 7172604240, 7172604241, 7172604242, 2019004627, 2019004628], "tags": {"leisure": "park", "name": "Sixteen Sycamores Playground", "opening_hours": "Mo-Su 06:00-21:00", "website": "https://www.nycgovparks.org/parks/sixteen-sycamores-playground/"}}, {"type": "way", "id": 241846073, "nodes": [2494254764, 2494254763, 2494254762, 2494254754, 2494254747, 2494254733, 2494254735, 2494254749, 2494254751, 2494254738, 2494254759, 2494254767, 2494254766, 2494254764], "tags": {"addr:housenumber": "131", "addr:postcode": "11201", "addr:street": "Livingston Street", "alt_name": "New York City Board of Education", "building": "yes", "height": "24.1", "name": "New York City Department of Education", "nycdoitt:bin": "3000420", "office": "government"}}, {"type": "way", "id": 248156367, "nodes": [2550006169, 2550006194, 11399440630, 11399440629, 11399440628, 11399440627, 11399440626, 2550006209, 2550006166, 6329651375, 2550006169], "tags": {"addr:housenumber": "386", "addr:postcode": "11201", "addr:street": "Flatbush Avenue Extension", "amenity": "restaurant", "bar": "yes", "branch": "Brooklyn", "building": "yes", "building:levels": "2", "cocktails": "yes", "cuisine": "american;breakfast;dessert", "drink:beer": "draught", "drink:coffee": "yes", "drink:liquor": "yes", "drink:wine": "yes", "height": "8.6", "name": "Junior's", "nycdoitt:bin": "3000369", "opening_hours": "Mo-Th 06:30-24:00; Fr-Sa 06:30-01:00; Su 06:30-24:00", "phone": "+1-718-852-5257", "shop": "pastry", "website": "https://www.juniorscheesecake.com/blog/restaurants/brooklyn/", "wheelchair": "yes", "wikidata": "Q4984555", "wikimedia_commons": "Category:Junior's Restaurant (Brooklyn)", "wikipedia": "en:Junior's"}}, {"type": "way", "id": 248165928, "nodes": [2550065990, 2550065999, 2550066033, 2550066071, 2550066021, 2550065990], "tags": {"building": "yes", "government": "yes", "height": "19.8", "name": "NYS Department of Labor", "nycdoitt:bin": "3000542", "office": "government"}}, {"type": "way", "id": 364421104, "nodes": [3001111670, 3001111671, 9934793261, 2550002560, 2550002550, 3684654076, 2550002538, 2550002502, 2550002443, 2550002425, 2550002449, 2550002472, 3001111672, 3001111673, 3001111670], "tags": {"addr:city": "Brooklyn", "addr:housenumber": "314", "addr:postcode": "11201", "addr:state": "NY", "addr:street": "Pacific Street", "alt_name": "School for Integrating the Arts", "amenity": "school", "fax": "+1-718-875-9503", "name": "Public School 261", "phone": "+1-718-330-9275", "website": "https://www.ps261brooklyn.org"}}, {"type": "way", "id": 368873798, "nodes": [2550064895, 2550064928, 2550064949, 9528498233, 5521711379, 9528498241, 3727119176, 3727119175, 5521763762, 2550064925, 2550064896, 2550064829, 2550064825, 2550064870, 2550064874, 2550064893, 2550064895], "tags": {"amenity": "school", "name": "P.S. 369 Coy L. Cox School"}}, {"type": "way", "id": 562256745, "nodes": [1907740429, 2568308173, 2568308258, 1907740419, 1907740428, 1907740409, 5420452686, 4625638118, 4625638117, 4625638116, 5420452683, 5420452682, 357569585, 2568308108, 2568308107, 12306576560, 2568308105, 2568308102, 2568308110, 2568308111, 2568308113, 2568308115, 2568308112, 2568308109, 2568308120, 2568308122, 2568308100, 2568308099, 1907740420, 1907740429], "tags": {"addr:city": "Brooklyn", "addr:housenumber": "1", "addr:postcode": "11201", "addr:street": "University Plaza", "amenity": "university", "gnis:feature_id": "955868", "name": "Long Island University Brooklyn Campus", "operator": "Long Island University", "phone": "+1 718 488 1000", "website": "https://www.liu.edu/Brooklyn.aspx", "wikidata": "Q7720324"}}]}