{"version": 0.6, "generator": "Overpass API 0.7.62.8 e802775f", "osm3s": {"timestamp_osm_base": "2025-12-01T04:01:05Z", "copyright": "The data included in this document is from www.openstreetmap.org. The data is made available under ODbL."}, "elements": [{"type": "node", "id": 419364748, "lat": 40.6872881, "lon": -73.9753082, "tags": {"amenity": "cafe", "brand": "Blank Street Coffee", "brand:wikidata": "Q114792509", "cuisine": "coffee_shop", "drink:coffee": "yes", "drink:espresso": "yes", "name": "Blank Street Coffee", "opening_hours": "Mo-Fr 06:30-17:30, Sa-Su 07:00-17:00", "takeaway": "yes", "website": "https://www.blankstreet.com/locations/new-york/LDBX6YWQTJ180-lafayette-and-s-elliot-pl"}}, {"type": "node", "id": 1116977313, "lat": 40.6857561, "lon": -73.9735045, "tags": {"addr:housenumber": "710", "addr:street": "Fulton Street", "alt_name": "Die Stammkneipe", "amenity": "pub", "cuisine": "german", "diet:vegan": "yes", "drink:beer": "draught", "drink:liquor": "no", "drink:wine": "yes", "indoor_seating": "yes", "name": "DSK Brooklyn", "old_name": "Der Schwarze K\u00f6lner", "opening_hours": "Mo-Th 15:00-22:00; Fr-Su 12:00-22:00", "outdoor_seating": "yes", "phone": "+1-347-841-4495", "sport": "kicker", "toilets": "yes", "toilets:access": "customers", "website": "https://dsk-brooklyn.com", "wheelchair": "yes"}}, {"type": "node", "id": 1241406048, "lat": 40.6835082, "lon": -73.9720514}, {"type": "node", "id": 1241406061, "lat": 40.6837844, "lon": -73.9721025}, {"type": "node", "id": 1927772742, "lat": 40.6832877, "lon": -73.9727419}, {"type": "node", "id": 1927772745, "lat": 40.6833319, "lon": -73.9723642}, {"type": "node", "id": 1927772747, "lat": 40.6834719, "lon": -73.9723928}, {"type": "node", "id": 2018982002, "lat": 40.685963, "lon": -73.9716107}, {"type": "node", "id": 2018982003, "lat": 40.6858406, "lon": -73.9726898}, {"type": "node", "id": 2018982004, "lat": 40.68529, "lon": -73.9713981}, {"type": "node", "id": 2018986938, "lat": 40.6870449, "lon": -73.9773035}, {"type": "node", "id": 2549918889, "lat": 40.6878529, "lon": -73.9706765}, {"type": "node", "id": 2549919017, "lat": 40.6877516, "lon": -73.9706543}, {"type": "node", "id": 2549919030, "lat": 40.6877649, "lon": -73.9705493}, {"type": "node", "id": 2549919139, "lat": 40.6878662, "lon": -73.9705716}, {"type": "node", "id": 2568270469, "lat": 40.6859799, "lon": -73.9732185, "tags": {"addr:housenumber": "1", "addr:postcode": "11238", "addr:street": "Greene Avenue", "amenity": "restaurant", "cuisine": "korean", "drink:beer": "draught", "drink:liquor": "yes", "drink:wine": "yes", "indoor_seating": "yes", "name": "BOM with the Wind", "outdoor_seating": "no"}}, {"type": "node", "id": 2572930729, "lat": 40.6874655, "lon": -73.9755218}, {"type": "node", "id": 2572930732, "lat": 40.6874732, "lon": -73.9754561}, {"type": "node", "id": 2572930738, "lat": 40.6874816, "lon": -73.9753842}, {"type": "node", "id": 2572930743, "lat": 40.6875059, "lon": -73.9751763}, {"type": "node", "id": 2572930771, "lat": 40.6875707, "lon": -73.975543}, {"type": "node", "id": 2572930777, "lat": 40.6875875, "lon": -73.9753996}, {"type": "node", "id": 2572930782, "lat": 40.6876111, "lon": -73.9751975}, {"type": "node", "id": 2572981704, "lat": 40.6866318, "lon": -73.9756587, "tags": {"addr:housenumber": "662", "addr:postcode": "11217", "addr:street": "Fulton Street", "amenity": "restaurant", "cuisine": "turkish;brunch", "drink:beer": "yes", "drink:coffee": "yes", "drink:liquor": "yes", "drink:wine": "yes", "fax": "+1-718-852-8784", "name": "Deniz", "opening_hours": "Mo-Th 11:00-23:00; Fr-Sa 11:00-23:00+; Su 11:00-23:00", "outdoor_seating": "sidewalk", "phone": "+1-718-852-6503", "website": "https://deniznyc.com/"}}, {"type": "node", "id": 2572981756, "lat": 40.6861865, "lon": -73.9737746, "tags": {"addr:housenumber": "773", "addr:postcode": "11217", "addr:street": "Fulton Street", "amenity": "restaurant", "bar": "yes", "cocktails": "yes", "cuisine": "french;bistro", "drink:beer": "draught", "drink:liquor": "yes", "drink:wine": "yes", "name": "Endswell", "outdoor_seating": "sidewalk", "website": "https://www.endswellbk.com"}}, {"type": "node", "id": 2572981801, "lat": 40.6869069, "lon": -73.9753966, "tags": {"addr:housenumber": "87", "addr:postcode": "11217", "addr:street": "South Elliott Place", "amenity": "restaurant", "cuisine": "caribbean", "name": "Island Shack", "phone": "+1-347-987-4832", "website": "https://islandshackcaribbean.com"}}, {"type": "node", "id": 2572981811, "lat": 40.6867383, "lon": -73.9771823, "tags": {"amenity": "school", "name": "Brooklyn Independent Middle School", "phone": "+1-646-930-1246", "website": "https://www.bkindependent.org"}}, {"type": "node", "id": 2572983442, "lat": 40.6866819, "lon": -73.9750822}, {"type": "node", "id": 2572983485, "lat": 40.6867324, "lon": -73.9752117}, {"type": "node", "id": 2572983488, "lat": 40.6867408, "lon": -73.975206}, {"type": "node", "id": 2572983549, "lat": 40.6867944, "lon": -73.9750064}, {"type": "node", "id": 2572983570, "lat": 40.6868269, "lon": -73.9749846}, {"type": "node", "id": 2572983612, "lat": 40.6868687, "lon": -73.9751199}, {"type": "node", "id": 2573007273, "lat": 40.6832922, "lon": -73.9727044}, {"type": "node", "id": 2573007275, "lat": 40.6833109, "lon": -73.972546}, {"type": "node", "id": 3154211509, "lat": 40.6872709, "lon": -73.9754546, "tags": {"addr:city": "Brooklyn", "addr:housenumber": "71", "addr:postcode": "11238", "addr:state": "NY", "addr:street": "Lafayette Avenue", "amenity": "pub", "contact:instagram": "https://www.instagram.com/fancyfreebk/", "cuisine": "american;pub", "drink:beer": "draught", "drink:liquor": "yes", "drink:wine": "yes", "name": "Fancy Free", "opening_hours": "Mo-Fr 15:00-23:00; Sa,Su 12:00-23:00", "outdoor_seating": "sidewalk", "phone": "+1-347-763-0024", "website": "https://www.fancyfreebk.com"}}, {"type": "node", "id": 3154231932, "lat": 40.6865517, "lon": -73.9746741, "tags": {"addr:housenumber": "753", "addr:postcode": "11217", "addr:street": "Fulton Street", "amenity": "restaurant", "cuisine": "italian", "indoor_seating": "yes", "name": "Ma Massa", "opening_hours": "We-Su 05:00-22:00", "outdoor_seating": "no"}}, {"type": "node", "id": 3154231933, "lat": 40.6865972, "lon": -73.9747886, "tags": {"addr:housenumber": "747", "addr:postcode": "11217", "addr:street": "Fulton Street", "amenity": "restaurant", "cuisine": "thai", "indoor_seating": "yes", "name": "Brooklyn Thai-ger", "outdoor_seating": "yes"}}, {"type": "node", "id": 3154231936, "lat": 40.6870703, "lon": -73.9747397, "tags": {"addr:housenumber": "80", "addr:postcode": "11217", "addr:street": "Lafayette Avenue", "alt_name": "Wild Boar", "amenity": "bar", "black_owned": "yes", "cuisine": "barbecue", "name": "Mo's Bar", "not:brand:wikidata": "Q17022303", "old_name": "Moe's Bar", "smoking": "no", "wikidata": "Q6889940"}}, {"type": "node", "id": 3154231939, "lat": 40.6863599, "lon": -73.9742242, "tags": {"amenity": "bar", "atm": "yes", "cuisine": "cuban", "disused:amenity": "restaurant", "indoor_seating": "yes", "name": "Habana Outpost", "outdoor_seating": "yes", "payment:cash": "only", "smoking": "no", "toilets": "yes", "website": "https://www.habanaoutpost.com/location/habana-outpost-brooklyn/"}}, {"type": "node", "id": 3154231943, "lat": 40.6860974, "lon": -73.9735627, "tags": {"addr:housenumber": "781", "addr:postcode": "11217", "addr:street": "Fulton Street", "amenity": "cafe", "cuisine": "coffee_shop;sandwich", "drink:beer": "draught", "drink:coffee": "yes", "drink:espresso": "yes", "drink:wine": "yes", "indoor_seating": "yes", "internet_access": "no", "name": "Hungry Ghost", "opening_hours": "Mo-Su 07:00-20:00", "outdoor_seating": "yes", "phone": "+1-718-797-3595", "smoking": "no", "toilets": "yes", "website": "https://www.hungryghostcoffee.com/location/hungry-ghost-fort-greene/"}}, {"type": "node", "id": 3154234527, "lat": 40.6872259, "lon": -73.9763661, "tags": {"addr:housenumber": "723", "addr:postcode": "11217", "addr:state": "NY", "addr:street": "Fulton Street", "amenity": "restaurant", "cuisine": "thai", "email": "info@sukhthainyc.com", "name": "Sukh", "opening_hours": "Mo-Su 12:00-22:00", "phone": "+1-347-494-1999", "website": "https://www.sukhnyc.com/"}}, {"type": "node", "id": 3154284867, "lat": 40.6865628, "lon": -73.9743101, "tags": {"amenity": "restaurant", "cuisine": "italian", "drink:wine": "yes", "name": "Fradei", "old_name": "Cafe Lafayette", "opening_hours": "Tu-Sa 17:30-23:00; Su 17:30-22:00"}}, {"type": "node", "id": 3154284869, "lat": 40.6866181, "lon": -73.9748413, "tags": {"addr:housenumber": "745", "addr:postcode": "11217", "addr:street": "Fulton Street", "amenity": "pub", "cuisine": "caribbean", "indoor_seating": "yes", "name": "Brooklyn Moon", "outdoor_seating": "yes", "phone": "+1-718-855-7149", "smoking": "no"}}, {"type": "node", "id": 3279444662, "lat": 40.6873648, "lon": -73.9773655}, {"type": "node", "id": 3279444665, "lat": 40.687111, "lon": -73.97673}, {"type": "node", "id": 5866994006, "lat": 40.6866941, "lon": -73.9750326, "tags": {"amenity": "bar", "indoor_seating": "yes", "name": "Fritz", "opening_hours": "We,Th,Su 17:00-23:00; Fr,Sa 16:00-24:00", "outdoor_seating": "yes", "wheelchair": "yes"}}, {"type": "node", "id": 5934482219, "lat": 40.6855839, "lon": -73.972339}, {"type": "node", "id": 5934482220, "lat": 40.6858746, "lon": -73.9723905}, {"type": "node", "id": 5934482221, "lat": 40.6857881, "lon": -73.972703}, {"type": "node", "id": 5934482222, "lat": 40.6857344, "lon": -73.9727165}, {"type": "node", "id": 5934482223, "lat": 40.6859449, "lon": -73.971564}, {"type": "node", "id": 5934482224, "lat": 40.685259, "lon": -73.9714356}, {"type": "node", "id": 5934482225, "lat": 40.6859142, "lon": -73.9715241}, {"type": "node", "id": 5934482226, "lat": 40.6852493, "lon": -73.9715001}, {"type": "node", "id": 5934482227, "lat": 40.6852448, "lon": -73.9714815}, {"type": "node", "id": 5934482228, "lat": 40.6859218, "lon": -73.9715291}, {"type": "node", "id": 5934482229, "lat": 40.6859629, "lon": -73.9716}, {"type": "node", "id": 5934482230, "lat": 40.6858215, "lon": -73.9726946}, {"type": "node", "id": 5934482234, "lat": 40.6858685, "lon": -73.9724442}, {"type": "node", "id": 5934482235, "lat": 40.6858806, "lon": -73.9723371}, {"type": "node", "id": 5934482267, "lat": 40.6859593, "lon": -73.971589}, {"type": "node", "id": 5934482268, "lat": 40.6859299, "lon": -73.9715377}, {"type": "node", "id": 5934482273, "lat": 40.685246, "lon": -73.9714673}, {"type": "node", "id": 5934482277, "lat": 40.6855584, "lon": -73.972275}, {"type": "node", "id": 5934482278, "lat": 40.6856059, "lon": -73.9723941}, {"type": "node", "id": 5934482281, "lat": 40.6857652, "lon": -73.9727087}, {"type": "node", "id": 5934482493, "lat": 40.6852709, "lon": -73.9714065}, {"type": "node", "id": 5934482494, "lat": 40.6852787, "lon": -73.9713987}, {"type": "node", "id": 5934482516, "lat": 40.6856226, "lon": -73.9714652}, {"type": "node", "id": 5960201618, "lat": 40.6874926, "lon": -73.9764788, "tags": {"name": "Brooklyn Properties", "office": "estate_agent"}}, {"type": "node", "id": 5960201621, "lat": 40.6871803, "lon": -73.9762521, "tags": {"amenity": "cafe", "name": "Moka & Co", "opening_hours": "Mo-Th 07:00-24:00, Fr-Sa 07:00-02:00, Su 07:00-24:00", "website": "https://www.mokanco.com/locations/brooklyn-fort-greene"}}, {"type": "node", "id": 5980081417, "lat": 40.6860096, "lon": -73.9729658, "tags": {"name": "The Agency", "office": "estate_agent", "phone": "+1-347-410-8200", "website": "https://www.theagencyre.com"}}, {"type": "node", "id": 6224335411, "lat": 40.6836693, "lon": -73.9728163, "tags": {"barrier": "gate", "opening_hours": "Mo-Su 06:00-22:00"}}, {"type": "node", "id": 6224335434, "lat": 40.6838029, "lon": -73.9721066, "tags": {"barrier": "gate", "opening_hours": "Mo-Su 07:00-22:00"}}, {"type": "node", "id": 6224335438, "lat": 40.684123, "lon": -73.972212, "tags": {"barrier": "gate", "opening_hours": "Mo-Su 07:00-22:00"}}, {"type": "node", "id": 6389330763, "lat": 40.6873385, "lon": -73.9748808, "tags": {"amenity": "restaurant", "bar": "yes", "cuisine": "american", "drink:beer": "bottled", "drink:liquor": "no", "drink:wine": "yes", "level": "-1", "name": "The Quarter", "opening_hours": "Mo-We 16:00-24:00; Th-Fr 16:00-02:00; Sa 10:00-02:00; Su 10:00-24:00", "outdoor_seating": "garden", "phone": "+1-347-987-4012", "website": "https://www.quarterbk.com", "wheelchair": "no"}}, {"type": "node", "id": 6677492128, "lat": 40.6835055, "lon": -73.9720771}, {"type": "node", "id": 6677492142, "lat": 40.6841182, "lon": -73.9721644}, {"type": "node", "id": 6677492143, "lat": 40.6841247, "lon": -73.9722504}, {"type": "node", "id": 6677492144, "lat": 40.6840548, "lon": -73.9728558}, {"type": "node", "id": 6677492146, "lat": 40.6840203, "lon": -73.9728843}, {"type": "node", "id": 6677492150, "lat": 40.6832896, "lon": -73.9727263}, {"type": "node", "id": 6677492165, "lat": 40.6833234, "lon": -73.9724399}, {"type": "node", "id": 6677492166, "lat": 40.6833281, "lon": -73.9723981}, {"type": "node", "id": 8149327437, "lat": 40.6867593, "lon": -73.9769971, "tags": {"amenity": "school", "denomination": "seventh_day_adventist", "name": "Hanson Place Seventh-Day Adventist Elementary School", "phone": "+1-718-625-3030", "religion": "christian", "website": "https://www.hpsdaschool.org"}}, {"type": "node", "id": 8149346245, "lat": 40.6864984, "lon": -73.9771542, "tags": {"name": "Maagon C.P.A.", "office": "accountant", "phone": "+1-929-215-7258", "website": "https://www.maagoncpa.com"}}, {"type": "node", "id": 9213118184, "lat": 40.6859247, "lon": -73.9705825, "tags": {"amenity": "social_facility", "name": "NPower", "office": "yes", "phone": "+1-212-444-7298", "social_facility": "outreach", "website": "https://www.npower.org"}}, {"type": "node", "id": 9512650838, "lat": 40.6860614, "lon": -73.9728186, "tags": {"name": "One Community", "office": "association", "phone": "+1-718-398-4242", "website": "https://www.onecommunitynyc.org"}}, {"type": "node", "id": 9514056835, "lat": 40.6860277, "lon": -73.9728119, "tags": {"fax": "+1-718-643-9111", "name": "Marcus Attorneys", "office": "lawyer", "phone": "+1-718-643-6555", "website": "https://www.marcusattorneys.com/"}}, {"type": "node", "id": 9629550614, "lat": 40.687312, "lon": -73.9725117, "tags": {"amenity": "restaurant", "cocktails": "yes", "cuisine": "middle_eastern", "drink:beer": "yes", "drink:liquor": "yes", "drink:wine": "yes", "name": "Black Iris", "opening_hours": "Mo-Su 12:00-22:15", "outdoor_seating": "sidewalk;street", "phone": "+1-718-852-9800"}}, {"type": "node", "id": 10902626274, "lat": 40.6871884, "lon": -73.9769239}, {"type": "node", "id": 10902626275, "lat": 40.6873224, "lon": -73.9772593}, {"type": "node", "id": 10902626296, "lat": 40.6870812, "lon": -73.9769885}, {"type": "node", "id": 10902626297, "lat": 40.6871651, "lon": -73.9768654}, {"type": "node", "id": 11152084762, "lat": 40.6847907, "lon": -73.9775039, "tags": {"addr:city": "Brooklyn", "addr:housenumber": "139", "addr:postcode": "11217", "addr:state": "NY", "addr:street": "Flatbush Avenue", "amenity": "cafe", "branch": "Flatbush Avenue Atlantic Terminal", "brand": "Starbucks", "brand:wikidata": "Q37158", "cuisine": "coffee_shop", "level": "0", "name": "Starbucks", "official_name": "Starbucks Coffee", "opening_hours": "Mo-Su 05:30-20:00; Sa, Su 06:00-19:00", "phone": "+1 718-789-3418", "takeaway": "yes", "website": "https://www.starbucks.com/store-locator/store/12539/flatbush-ave-atlantic-terminal-139-flatbush-ave-brooklyn-ny-112171450-us"}}, {"type": "node", "id": 11152104482, "lat": 40.6849664, "lon": -73.9767341, "tags": {"amenity": "restaurant", "name": "Appelbee's"}}, {"type": "node", "id": 11201416134, "lat": 40.6850858, "lon": -73.9755305, "tags": {"addr:housenumber": "625", "addr:street": "Atlantic Avenue", "government": "transportation", "level": "2", "office": "government", "operator": "New York State Department of Motor Vehicles", "operator:short": "New York DMV", "operator:wikidata": "Q17109616"}}, {"type": "node", "id": 12047933728, "lat": 40.6871086, "lon": -73.9767508}, {"type": "node", "id": 12047933729, "lat": 40.6871026, "lon": -73.9768027}, {"type": "node", "id": 12602016571, "lat": 40.6896817, "lon": -73.9769631}, {"type": "node", "id": 12602016572, "lat": 40.6896526, "lon": -73.9761956}, {"type": "node", "id": 12602016573, "lat": 40.6882188, "lon": -73.975914}, {"type": "node", "id": 12602016574, "lat": 40.6881374, "lon": -73.9766446}, {"type": "node", "id": 12602306528, "lat": 40.6872052, "lon": -73.9759848, "tags": {"amenity": "restaurant", "cuisine": "seafood", "name": "Strange Delight", "opening_hours": "Mo-Th 11:30-15:30,17:00-21:30; Fr-Sa 11:30-15:30,17:00-22:30; Su 11:30-15:30,17:00-21:30", "website": "https://www.strangedelight.nyc"}}, {"type": "way", "id": 182428278, "nodes": [6677492146, 6224335411, 1927772742, 6677492150, 2573007273, 2573007275, 6677492165, 6677492166, 1927772745, 1927772747, 6677492128, 1241406048, 1241406061, 6224335434, 6677492142, 6224335438, 6677492143, 6677492144, 6677492146], "tags": {"leisure": "park", "name": "South Oxford Park", "opening_hours": "Mo-Su 07:00-22:00", "wikidata": "Q116205065"}}, {"type": "way", "id": 191313664, "nodes": [2018982003, 5934482234, 5934482220, 5934482235, 2018982002, 5934482229, 5934482267, 5934482223, 5934482268, 5934482228, 5934482225, 5934482516, 2018982004, 5934482494, 5934482493, 5934482224, 5934482273, 5934482227, 5934482226, 5934482277, 5934482219, 5934482278, 5934482222, 5934482281, 5934482221, 5934482230, 2018982003], "tags": {"check_date": "2025-11-01", "leisure": "park", "name": "Cuyler Gore Park", "opening_date": "2025-11-01", "operator": "New York City Department of Parks and Recreation", "operator:short": "NYC Parks", "operator:type": "public", "operator:wikidata": "Q1894232", "website": "https://www.nycgovparks.org/parks/cuyler-gore-park", "wikidata": "Q34821527"}}, {"type": "way", "id": 191314155, "nodes": [3279444662, 10902626275, 10902626274, 10902626297, 3279444665, 12047933728, 12047933729, 10902626296, 2018986938, 3279444662], "tags": {"addr:city": "Brooklyn", "addr:housenumber": "38", "addr:postcode": "11217", "addr:state": "NY", "addr:street": "Lafayette Avenue", "leisure": "park", "name": "Betty Carter Park", "old_name": "BAM Park", "operator": "New York City Department of Parks and Recreation", "operator:short": "NYC Parks", "operator:type": "public", "operator:wikidata": "Q1894232", "website": "https://www.nycgovparks.org/parks/betty-carter-park", "wikidata": "Q116203677"}}, {"type": "way", "id": 248142061, "nodes": [2549919017, 2549918889, 2549919139, 2549919030, 2549919017], "tags": {"addr:housenumber": "327", "addr:postcode": "11205", "addr:street": "Adelphi Street", "amenity": "restaurant", "building": "yes", "cocktails": "yes", "cuisine": "mediterranean", "drink:liquor": "yes", "drink:wine": "yes", "height": "4.2", "name": "Olea", "nycdoitt:bin": "3335279", "opening_hours": "Mo-Th 11:00-21:30; Fr 11:00-22:30; Sa 10:00-22:30; Su 10:00-21:30", "outdoor_seating": "sidewalk;street"}}, {"type": "way", "id": 250969118, "nodes": [2572930729, 2572930771, 2572930777, 2572930782, 2572930743, 2572930738, 2572930732, 2572930729], "tags": {"addr:housenumber": "75", "addr:postcode": "11217", "addr:street": "South Elliott Place", "building": "yes", "check_date": "2024-10-30", "height": "11.6", "name": "40 Acres and a Mule Filmworks", "nycdoitt:bin": "3058774", "office": "company", "website": "https://www.40acres.com", "wikipedia": "en:40 Acres and a Mule Filmworks"}}, {"type": "way", "id": 250979461, "nodes": [2572983442, 2572983485, 2572983488, 2572983612, 2572983570, 2572983549, 2572983442], "tags": {"addr:city": "Brooklyn", "addr:housenumber": "733", "addr:postcode": "11217", "addr:street": "Fulton Street", "amenity": "restaurant", "building": "yes", "building:levels": "1", "cuisine": "german", "height": "4.4", "indoor_seating": "yes", "name": "Black Forest Brooklyn", "nycdoitt:bin": "3059297", "opening_hours": "Mo-Fr 12:00-24:00; Sa 10:00-24:00; Su 10:00-22:00", "outdoor_seating": "yes", "phone": "+1-718-935-0300", "website": "https://www.blackforestbrooklyn.com/"}}, {"type": "way", "id": 1361276415, "nodes": [12602016571, 12602016572, 12602016573, 12602016574, 12602016571], "tags": {"amenity": "school", "ele": "13", "fax": "+1-718-260-9245", "gnis:feature_id": "2082098", "grades": "9-12", "mascot": "Engineers", "name": "Brooklyn Technical High School", "phone": "+1-718-804-6400", "website": "https://bths.edu", "wikidata": "Q2737843"}}]}