{"version": 0.6, "generator": "Overpass API 0.7.62.8 e802775f", "osm3s": {"timestamp_osm_base": "2025-12-01T17:27:16Z", "copyright": "The data included in this document is from www.openstreetmap.org. The data is made available under ODbL."}, "elements": [{"type": "node", "id": 5343766511, "lat": 40.7076972, "lon": -73.8973724, "tags": {"addr:city": "Ridgewood", "addr:housenumber": "66-41", "addr:postcode": "11385", "addr:state": "NY", "addr:street": "Fresh Pond Road", "amenity": "restaurant", "cuisine": "ramen;sushi", "delivery": "yes", "drink:beer": "yes", "drink:sake": "yes", "drink:wine": "yes", "name": "Jin Ramen Sushi", "opening_hours": "Mo-Th 11:30-22:30, Fr-Sa 11:30-23:15, Su 12:15-22:30", "phone": "+1-347-987-3959", "takeaway": "yes"}}, {"type": "node", "id": 5343852056, "lat": 40.7073005, "lon": -73.8969064, "tags": {"addr:city": "Ridgewood", "addr:housenumber": "61-05", "addr:postcode": "11385", "addr:state": "NY", "addr:street": "Madison Street", "amenity": "cafe", "contact:facebook": "https://www.facebook.com/TheSpotonmadison", "cuisine": "coffee", "diet:vegetarian": "yes", "internet_access": "wlan", "internet_access:fee": "no", "internet_access:ssid": "TheSpot6105", "name": "The Spot", "opening_hours": "Mo-Su 07:00-22:00", "payment:cash": "yes", "payment:credit_cards": "yes", "payment:debit_cards": "yes", "phone": "+1-929-228-9957", "smoking": "no", "toilets": "yes", "toilets:access": "permissive", "toilets:number": "1", "toilets:unisex": "yes", "toilets:wheelchair": "no", "wheelchair": "limited"}}, {"type": "node", "id": 5345991352, "lat": 40.7081033, "lon": -73.8980417, "tags": {"addr:housenumber": "66-28", "addr:street": "Fresh Pond Road", "amenity": "restaurant", "cuisine": "mediterranean", "diet:vegan": "yes", "name": "Little Egypt", "opening_hours": "Tu-Su 08:00-23:00", "phone": "+1-347-987-3860"}}, {"type": "node", "id": 5350120087, "lat": 40.7056188, "lon": -73.8942873, "tags": {"addr:city": "Glendale", "addr:housenumber": "64-02", "addr:postcode": "11385", "addr:state": "NY", "addr:street": "68th Avenue", "amenity": "bar", "atm": "yes", "internet_access": "wlan", "internet_access:ssid": "sweetjanes", "karaoke": "yes", "name": "Sweet Jane's", "opening_hours": "Su 12:00-02:00; Mo-Th 16:00-02:00; Fr 16:00-04:00; Sa 12:00-04:00", "outdoor_seating": "yes", "payment:cash": "yes", "payment:credit_cards": "yes", "payment:debit_cards": "yes", "phone": "+1-718-381-2031", "smoking": "outside", "toilets": "yes", "toilets:access": "permissive", "toilets:unisex": "no", "toilets:wheelchair": "no", "wheelchair": "no"}}, {"type": "node", "id": 5351606244, "lat": 40.7083622, "lon": -73.8977421, "tags": {"amenity": "restaurant", "cuisine": "polish", "delivery": "no", "diet:vegetarian": "yes", "name": "Kr\u00f3lewskie Jad\u0142o", "opening_hours": "Su-Th 12:00-21:00; Fr-Sa 12:00-22:00", "payment:credit_cards": "yes", "phone": "+1-718-366-6226", "reservation": "yes", "takeaway": "yes", "website": "http://www.krolewskiejadlo.com/"}}, {"type": "node", "id": 5351608336, "lat": 40.7078991, "lon": -73.8978882, "tags": {"addr:city": "Ridgewood", "addr:housenumber": "66-36", "addr:postcode": "11385", "addr:state": "NY", "addr:street": "Fresh Pond Road", "amenity": "restaurant", "catering": "yes", "cuisine": "mexican", "delivery": "yes", "delivery:fee": "free", "delivery:min_payment": "10", "diet:vegetarian": "yes", "drink:beer": "yes", "drink:liquor": "yes", "indoor_seating": "yes", "internet_access": "wlan", "name": "Taqueria Kermes", "opening_hours": "Mo-Sa 11:45-21:30; Su 11:45-20:45", "outdoor_seating": "yes", "payment:credit_cards": "yes", "phone": "+1-347-463-9263", "reservation": "yes", "takeaway": "yes", "website": "http://www.taqueriakermesridgewood.com/", "wheelchair": "limited"}}, {"type": "node", "id": 5351612917, "lat": 40.7066709, "lon": -73.8972292, "tags": {"addr:housenumber": "66-72", "addr:street": "Fresh Pond Road", "amenity": "cafe", "indoor_seating": "yes", "internet_access": "wlan", "name": "The Nest Fine Desserts", "outdoor_seating": "no", "phone": "+1-718-418-9493"}}, {"type": "node", "id": 5351619383, "lat": 40.7068651, "lon": -73.8969118, "tags": {"addr:city": "Ridgewood", "addr:housenumber": "66-69", "addr:postcode": "11385", "addr:state": "NY", "addr:street": "Fresh Pond Road", "amenity": "cafe", "contact:facebook": "https://www.facebook.com/cutecatnyc", "cuisine": "coffee_shop;sandwich", "diet:vegan": "yes", "diet:vegetarian": "yes", "internet_access": "wlan", "name": "Cute Cat Caf\u00e9", "opening_hours": "Mo-Sa 06:00-22:00; Su 07:00-22:00", "outdoor_seating": "yes", "payment:cash": "yes", "payment:credit_cards": "yes", "payment:debit_cards": "yes", "payment:gift_card": "yes", "phone": "+1-718-417-7500", "takeaway": "yes", "toilets": "yes", "toilets:access": "permissive", "toilets:number": "1", "toilets:unisex": "yes", "toilets:wheelchair": "no", "website": "https://cutecatcafe.business.site/", "wheelchair": "yes"}}, {"type": "node", "id": 5364972600, "lat": 40.7080471, "lon": -73.8979865, "tags": {"addr:city": "Ridgewood", "addr:housenumber": "66-30", "addr:postcode": "11385", "addr:state": "NY", "addr:street": "Fresh Pond Road", "amenity": "cafe", "cuisine": "polish", "name": "Spolem Caf\u00e9 and Lounge", "opening_hours": "Su 10:00-22:00; Mo-We 12:00-22:00; Th 12:00-23:00; Fr 14:00-24:00", "phone": "+1-347-725-3379"}}, {"type": "node", "id": 5365010922, "lat": 40.7061193, "lon": -73.8980692, "tags": {"addr:city": "Ridgewood", "addr:housenumber": "60-70", "addr:postcode": "11385", "addr:state": "NY", "addr:street": "Putnam Avenue", "name": "Ridgewood Democratic Club", "office": "political_party", "phone": "+1-718-821-9807", "website": "https://www.ridgewooddemocraticclub.com/"}}, {"type": "node", "id": 5365041380, "lat": 40.7036545, "lon": -73.895769, "tags": {"addr:city": "Ridgewood", "addr:housenumber": "68-64", "addr:postcode": "11385", "addr:state": "NY", "addr:street": "Fresh Pond Road", "amenity": "restaurant", "cuisine": "bagel", "drink:coffee": "yes", "name": "Wow Bagel", "opening_hours": "Mo-Su 06:00-16:00", "phone": "+1-718-381-5700", "takeaway": "yes", "wheelchair": "yes"}}, {"type": "node", "id": 5365065884, "lat": 40.707628, "lon": -73.8973042, "tags": {"addr:city": "Ridgewood", "addr:housenumber": "66-45", "addr:postcode": "11385", "addr:state": "NY", "addr:street": "Fresh Pond Road", "email": "info@werbarealty.com", "name": "Werba Realty", "office": "estate_agent", "phone": "+1-718-456-9600"}}, {"type": "node", "id": 5406487655, "lat": 40.7077559, "lon": -73.8981921, "tags": {"addr:housenumber": "60-71", "addr:street": "Woodbine Street", "name": "Ridgewood Times Newspaper", "office": "newspaper", "phone": "+1-718-821-7500", "website": "https://qns.com/timesnewsweekly/"}}, {"type": "node", "id": 5410387689, "lat": 40.7048138, "lon": -73.8963266, "tags": {"addr:housenumber": "68-10", "addr:street": "Fresh Pond Road", "amenity": "restaurant", "cuisine": "italian", "diet:vegetarian": "yes", "name": "Antica Trattoria", "opening_hours": "Mo-Su 12:00-22:00", "payment:credit_cards": "yes", "phone": "+1 718-386-1559", "wheelchair": "yes"}}, {"type": "node", "id": 5410422766, "lat": 40.7052071, "lon": -73.8964883, "tags": {"addr:city": "Ridgewood", "addr:housenumber": "67-22", "addr:postcode": "11385", "addr:state": "NY", "addr:street": "Fresh Pond Road", "alt_name": "4 Caminos Mexican Restaurant", "amenity": "restaurant", "cuisine": "mexican;coffee;breakfast;american;burrito", "delivery": "yes", "delivery:fee": "no", "diet:vegetarian": "yes", "drink:coffee": "yes", "name": "Fresh Pond Mexican Restaurant and Corner Coffee Shop", "opening_hours": "Mo-Su 08:00-22:30", "payment:cash": "yes", "phone": "+1-718-366-1595", "takeaway": "yes", "website": "https://freshpondrestaurantridgewood.com/"}}, {"type": "node", "id": 5413050635, "lat": 40.7054738, "lon": -73.89665, "tags": {"addr:city": "Ridgewood", "addr:housenumber": "67-12", "addr:postcode": "11385", "addr:state": "NY", "addr:street": "Fresh Pond Road", "amenity": "restaurant", "cocktails": "yes", "cuisine": "mexican", "delivery": "yes", "diet:vegetarian": "yes", "drink:beer": "yes", "name": "Las Margaritas", "opening_hours": "Mo-Su 11:00-23:00", "payment:credit_cards": "yes", "phone": "+1-718-417-4040", "reservation": "yes", "takeaway": "yes", "wheelchair": "yes"}}, {"type": "node", "id": 5417695324, "lat": 40.7088486, "lon": -73.8981061, "tags": {"addr:housenumber": "66-07", "addr:street": "Fresh Pond Road", "amenity": "cafe", "name": "European Coffee Bar", "phone": "+1-718-418-8457", "wheelchair": "limited"}}, {"type": "node", "id": 5503046523, "lat": 40.7075601, "lon": -73.8972642, "tags": {"addr:housenumber": "66-47", "addr:street": "Fresh Pond Road", "amenity": "restaurant", "cuisine": "sushi;japanese;chinese", "delivery": "yes", "diet:vegetarian": "yes", "name": "E-Chiban", "opening_hours": "Mo-Sa 11:00-21:45, Su 12:00-21:45", "payment:credit_cards": "yes", "payment:debit_cards": "yes", "phone": "+1-718-386-8333", "reservation": "yes", "takeaway": "yes", "website": "https://www.e-chiban.net/"}}, {"type": "node", "id": 5503345433, "lat": 40.7079173, "lon": -73.89743, "tags": {"addr:housenumber": "66-39", "addr:street": "Fresh Pond Road", "amenity": "restaurant", "cuisine": "gyros;mediterranean", "diet:vegetarian": "yes", "name": "Pita Mediterranean Gyro And Grill", "opening_hours": "Mo-Su 11:00-23:00", "payment:cash": "yes", "payment:credit_cards": "yes", "phone": "+1-888-990-7482", "website": "https://pitagyro.com/", "wheelchair": "yes"}}, {"type": "node", "id": 5534832699, "lat": 40.7058262, "lon": -73.8934046, "tags": {"addr:housenumber": "68-05", "addr:street": "64th Place", "amenity": "school", "name": "Once Upon A Time Daycare & Preschool", "phone": "+1-347-529-6718"}}, {"type": "node", "id": 5534833670, "lat": 40.7042416, "lon": -73.8926858, "tags": {"addr:housenumber": "69-15", "addr:street": "64th Place", "amenity": "school", "name": "Jiggle Sprouts, Inc.", "phone": "+1-718-670-0438"}}, {"type": "node", "id": 5699831759, "lat": 40.7062749, "lon": -73.8966313, "tags": {"addr:housenumber": "66-91", "addr:street": "Fresh Pond Road", "amenity": "restaurant", "craft": "caterer", "cuisine": "american;burger;salad;wrap;soup;donut;sandwich", "delivery": "yes", "delivery:fee": "no", "delivery:min_payment": "10", "drink:coffee": "served", "fax": "+1-718-628-4709", "name": "Delight Diner and Donuts", "opening_hours": "Mo-Sa 06:00-22:00; Su 06:00-15:00", "payment:american_express": "yes", "payment:cash": "yes", "payment:discover_card": "yes", "payment:mastercard": "yes", "payment:visa": "yes", "phone": "+1-718-628-4708", "takeaway": "yes", "website": "http://delightdiner.com/", "wheelchair": "yes"}}, {"type": "node", "id": 5700897111, "lat": 40.7055673, "lon": -73.8962731, "tags": {"addr:housenumber": "67-15", "addr:street": "Fresh Pond Road", "brand": "H&R Block", "brand:wikidata": "Q5627799", "name": "H&R Block", "office": "tax_advisor", "phone": "+1-718-456-2443", "reservation": "recommended", "website": "https://www.hrblock.com/local-tax-offices/new-york/ridgewood/6715-fresh-pond-rd/29797", "wheelchair": "no"}}, {"type": "node", "id": 5702768703, "lat": 40.7055632, "lon": -73.8966972, "tags": {"addr:housenumber": "67-08", "addr:street": "Fresh Pond Road", "amenity": "restaurant", "cuisine": "tex-mex;chinese;american;mexican", "delivery": "yes", "name": "Taste of China", "opening_hours": "Mo-Sa 12:00-22:30", "phone": "+1-718-628-5797", "takeaway": "yes", "website": "http://tasteofchinaridgewood.com/"}}, {"type": "node", "id": 5978745717, "lat": 40.708153, "lon": -73.8980483, "tags": {"amenity": "restaurant", "cuisine": "japanese", "name": "Tendo Sushi"}}, {"type": "node", "id": 11139705084, "lat": 40.7082077, "lon": -73.8976444, "tags": {"addr:city": "Ridgewood", "addr:housenumber": "66-27", "addr:postcode": "11385", "addr:state": "NY", "addr:street": "Fresh Pond Road", "amenity": "cafe", "branch": "Ridgewood", "contact:instagram": "mrwishkr", "cuisine": "bubble_tea", "leisure": "outdoor_seating", "name": "Mr. Wish", "outdoor_seating": "backyard", "payment:american_express": "yes", "payment:cash": "yes", "payment:contactless": "yes", "payment:discover_card": "yes", "payment:mastercard": "yes", "payment:visa": "yes", "phone": "+1-646-663-1563", "website:menu": "https://www.mrwishusa.com/menu"}}]}