{"version": 0.6, "generator": "Overpass API 0.7.62.8 e802775f", "osm3s": {"timestamp_osm_base": "2025-12-01T16:46:19Z", "copyright": "The data included in this document is from www.openstreetmap.org. The data is made available under ODbL."}, "elements": [{"type": "node", "id": 42430546, "lat": 40.7158224, "lon": -74.0064706}, {"type": "node", "id": 246868000, "lat": 40.7175577, "lon": -74.0117045}, {"type": "node", "id": 246868001, "lat": 40.717386, "lon": -74.0109017}, {"type": "node", "id": 246868002, "lat": 40.7165161, "lon": -74.01104}, {"type": "node", "id": 889080115, "lat": 40.7149297, "lon": -74.0110479, "tags": {"amenity": "cafe", "name": "Twin Cafe"}}, {"type": "node", "id": 889083044, "lat": 40.7151714, "lon": -74.0110643, "tags": {"addr:housenumber": "275", "addr:street": "Greenwich Street", "amenity": "cafe", "name": "Kaffe 1668", "opening_hours": "Mo-Fr 06:30-21:00; Sa-Su 08:00-21:00"}}, {"type": "node", "id": 889435992, "lat": 40.7143268, "lon": -74.0097038, "tags": {"addr:housenumber": "57", "addr:postcode": "10007", "addr:street": "Murray Street", "amenity": "pub", "contact:facebook": "monkmcginns", "contact:instagram": "monkmcginnsnyc", "name": "Monk McGinns", "phone": "+1 212 791-9676"}}, {"type": "node", "id": 889469733, "lat": 40.7149567, "lon": -74.0094239, "tags": {"amenity": "cafe", "brand": "Le Pain Quotidien", "brand:wikidata": "Q2046903", "check_date": "2023-07-31", "cuisine": "coffee_shop", "name": "Le Pain Quotidien", "takeaway": "yes"}}, {"type": "node", "id": 889472802, "lat": 40.715522, "lon": -74.008983, "tags": {"addr:city": "New York", "addr:housenumber": "125", "addr:postcode": "10007", "addr:state": "NY", "addr:street": "Chambers Street", "amenity": "cafe", "branch": "Chambers and West Broadway", "brand": "Starbucks", "brand:wikidata": "Q37158", "cuisine": "coffee_shop", "diet:vegan": "yes", "drink:soy_milk": "yes", "indoor_seating": "yes", "name": "Starbucks", "official_name": "Starbucks Coffee", "opening_hours": "Mo-Sa 06:00-19:00; Su 06:00-18:30", "outdoor_seating": "no", "phone": "+1 212-791-6368", "ref": "8692", "takeaway": "yes", "website": "https://www.starbucks.com/store-locator/store/8692/chambers-and-west-broadway-125-chambers-street-new-york-ny-100071331-us", "wheelchair": "yes"}}, {"type": "node", "id": 889648734, "lat": 40.7160376, "lon": -74.0089626}, {"type": "node", "id": 889648736, "lat": 40.7156215, "lon": -74.0092436}, {"type": "node", "id": 895891344, "lat": 40.7127049, "lon": -74.0077176}, {"type": "node", "id": 895891352, "lat": 40.7130579, "lon": -74.00744}, {"type": "node", "id": 895891366, "lat": 40.7132618, "lon": -74.0078876}, {"type": "node", "id": 895891374, "lat": 40.7129286, "lon": -74.0082185}, {"type": "node", "id": 895891414, "lat": 40.7130621, "lon": -74.0080426}, {"type": "node", "id": 1253071061, "lat": 40.7138855, "lon": -74.005406}, {"type": "node", "id": 1387951493, "lat": 40.7156151, "lon": -74.0093218}, {"type": "node", "id": 1387951494, "lat": 40.7161199, "lon": -74.0093401}, {"type": "node", "id": 1403580537, "lat": 40.7157326, "lon": -74.0059456}, {"type": "node", "id": 1403580554, "lat": 40.7158732, "lon": -74.0060254}, {"type": "node", "id": 1403580566, "lat": 40.7158023, "lon": -74.0060716}, {"type": "node", "id": 1403580567, "lat": 40.7157911, "lon": -74.00608}, {"type": "node", "id": 1403580571, "lat": 40.7158608, "lon": -74.0060195}, {"type": "node", "id": 1403580572, "lat": 40.7158037, "lon": -74.0060626}, {"type": "node", "id": 1403580576, "lat": 40.7157292, "lon": -74.0059482}, {"type": "node", "id": 1403580584, "lat": 40.7157714, "lon": -74.0060616}, {"type": "node", "id": 1403580585, "lat": 40.7157737, "lon": -74.0060503}, {"type": "node", "id": 1403580588, "lat": 40.7157785, "lon": -74.0060776}, {"type": "node", "id": 1538237355, "lat": 40.7165911, "lon": -74.0109977}, {"type": "node", "id": 1538237527, "lat": 40.7165087, "lon": -74.0111364}, {"type": "node", "id": 1538237589, "lat": 40.7173737, "lon": -74.0108046}, {"type": "node", "id": 1602291340, "lat": 40.7172455, "lon": -74.0091989}, {"type": "node", "id": 1602291342, "lat": 40.7172149, "lon": -74.0096259}, {"type": "node", "id": 1602291349, "lat": 40.7170363, "lon": -74.0092444}, {"type": "node", "id": 1602291353, "lat": 40.7172931, "lon": -74.0095834}, {"type": "node", "id": 2348991691, "lat": 40.7135488, "lon": -74.0065782}, {"type": "node", "id": 2565683738, "lat": 40.7172793, "lon": -74.0124375}, {"type": "node", "id": 2567571412, "lat": 40.7151039, "lon": -74.0057291, "tags": {"addr:housenumber": "299", "addr:postcode": "10007", "addr:street": "Broadway", "email": "majik.svc@gmail.com", "name": "Majik Cleaning Services", "office": "company", "phone": "+1 212 545 7830", "website": "https://www.majikservices.com/"}}, {"type": "node", "id": 2567571582, "lat": 40.7155978, "lon": -74.0059678}, {"type": "node", "id": 2567571597, "lat": 40.7156997, "lon": -74.0058914}, {"type": "node", "id": 2567571600, "lat": 40.715722, "lon": -74.0059428}, {"type": "node", "id": 2567571602, "lat": 40.715729, "lon": -74.0059375}, {"type": "node", "id": 2567571622, "lat": 40.7159863, "lon": -74.0061084}, {"type": "node", "id": 2567571624, "lat": 40.7159287, "lon": -74.0059807}, {"type": "node", "id": 2641379134, "lat": 40.7152802, "lon": -74.009614, "tags": {"addr:housenumber": "86A", "addr:postcode": "10007", "addr:street": "West Broadway", "amenity": "restaurant", "check_date": "2023-07-31", "cuisine": "sushi", "name": "JR Sushi 2", "phone": "+1-212-233-8338", "website": "http://jrsushi.com/"}}, {"type": "node", "id": 2808066365, "lat": 40.7129439, "lon": -74.0082063}, {"type": "node", "id": 2808066366, "lat": 40.7129822, "lon": -74.0081761}, {"type": "node", "id": 2808066371, "lat": 40.7130313, "lon": -74.0081374}, {"type": "node", "id": 2808066376, "lat": 40.7130857, "lon": -74.0080946}, {"type": "node", "id": 2808066385, "lat": 40.7132016, "lon": -74.0077548}, {"type": "node", "id": 2821289715, "lat": 40.7129231, "lon": -74.0071139, "tags": {"barrier": "gate"}}, {"type": "node", "id": 2823256858, "lat": 40.7160631, "lon": -74.0085698, "tags": {"addr:housenumber": "109", "addr:postcode": "10013", "addr:street": "West Broadway", "amenity": "cafe", "brand": "Bluestone Lane", "brand:wikidata": "Q130381059", "name": "Bluestone Lane", "opening_hours": "Mo-Fr 06:30-15:00; Sa,Su 08:00-15:00", "website": "https://bluestonelane.com/coffee-shops/garment-district-1375-broadway-new-york/"}}, {"type": "node", "id": 2823258534, "lat": 40.7157224, "lon": -74.0093754}, {"type": "node", "id": 2823258559, "lat": 40.7159167, "lon": -74.0093567}, {"type": "node", "id": 2823341443, "lat": 40.7145563, "lon": -74.0102744}, {"type": "node", "id": 2823341444, "lat": 40.714591, "lon": -74.0103516}, {"type": "node", "id": 2823341450, "lat": 40.7147138, "lon": -74.010152}, {"type": "node", "id": 2823341453, "lat": 40.7147594, "lon": -74.0101166}, {"type": "node", "id": 2823341454, "lat": 40.7147941, "lon": -74.0101938}, {"type": "node", "id": 2823341465, "lat": 40.7148839, "lon": -74.0102313}, {"type": "node", "id": 2823341469, "lat": 40.7149205, "lon": -74.0103127}, {"type": "node", "id": 2823341495, "lat": 40.715045, "lon": -74.010106}, {"type": "node", "id": 2823341501, "lat": 40.7150817, "lon": -74.0101874}, {"type": "node", "id": 2825233200, "lat": 40.7137279, "lon": -74.0084336, "tags": {"addr:housenumber": "25", "addr:postcode": "10007", "addr:street": "Murray Street", "amenity": "cafe", "cuisine": "japanese;bakery", "name": "Takahachi Bakery", "wheelchair": "no"}}, {"type": "node", "id": 2825233703, "lat": 40.7138785, "lon": -74.0054118}, {"type": "node", "id": 2825233707, "lat": 40.7139071, "lon": -74.0054923}, {"type": "node", "id": 2825233709, "lat": 40.713914, "lon": -74.0054866}, {"type": "node", "id": 2825233747, "lat": 40.7142029, "lon": -74.0061165, "tags": {"amenity": "clock", "display": "analog", "support": "wall_mounted"}}, {"type": "node", "id": 2825233748, "lat": 40.7142179, "lon": -74.0051319}, {"type": "node", "id": 2825233776, "lat": 40.7145492, "lon": -74.005831}, {"type": "node", "id": 3782798136, "lat": 40.7165871, "lon": -74.0079257, "tags": {"addr:city": "New York", "addr:housenumber": "145", "addr:postcode": "10013", "addr:state": "NY", "addr:street": "Duane Street", "amenity": "restaurant", "cuisine": "japanese", "name": "Takahachi", "opening_hours": "Su-Th 12:00-14:30, 17:30-22:30; Fr-Sa 17:30-23:00"}}, {"type": "node", "id": 3942249545, "lat": 40.7122331, "lon": -74.0057398, "tags": {"barrier": "gate"}}, {"type": "node", "id": 4143863428, "lat": 40.7118045, "lon": -74.007671}, {"type": "node", "id": 4143863429, "lat": 40.7120511, "lon": -74.0078112}, {"type": "node", "id": 4143863430, "lat": 40.7119484, "lon": -74.0078125}, {"type": "node", "id": 4143863431, "lat": 40.7118406, "lon": -74.0077409}, {"type": "node", "id": 4143863432, "lat": 40.7118613, "lon": -74.0077619}, {"type": "node", "id": 4143863434, "lat": 40.7138147, "lon": -74.0057529}, {"type": "node", "id": 4143863435, "lat": 40.7118008, "lon": -74.0074803}, {"type": "node", "id": 4143863437, "lat": 40.713796, "lon": -74.005798}, {"type": "node", "id": 4143863438, "lat": 40.7119881, "lon": -74.0078218}, {"type": "node", "id": 4143863439, "lat": 40.711791, "lon": -74.0075887}, {"type": "node", "id": 4143863440, "lat": 40.7121662, "lon": -74.0077516}, {"type": "node", "id": 4143863442, "lat": 40.7119057, "lon": -74.0077911}, {"type": "node", "id": 4143863443, "lat": 40.7117902, "lon": -74.0075444}, {"type": "node", "id": 4143863444, "lat": 40.7133929, "lon": -74.0049077}, {"type": "node", "id": 4143863445, "lat": 40.7134559, "lon": -74.0049641}, {"type": "node", "id": 4143863446, "lat": 40.7139746, "lon": -74.0061814}, {"type": "node", "id": 4143863447, "lat": 40.712109, "lon": -74.0077897}, {"type": "node", "id": 4143863448, "lat": 40.7131395, "lon": -74.0043588}, {"type": "node", "id": 4143863449, "lat": 40.7123209, "lon": -74.0053793}, {"type": "node", "id": 4465973688, "lat": 40.7149137, "lon": -74.0060767, "tags": {"addr:city": "New York", "addr:housenumber": "291", "addr:postcode": "10007", "addr:state": "NY", "addr:street": "Broadway", "addr:unit": "705", "name": "HG Lee Architects PC", "office": "architect", "phone": "+1-212-247-0200", "website": "http://heginleearchitect.com", "wikidata": "Q29469161"}}, {"type": "node", "id": 4501889845, "lat": 40.7157602, "lon": -74.006018, "tags": {"entrance": "main"}}, {"type": "node", "id": 4878838751, "lat": 40.7118822, "lon": -74.0077781}, {"type": "node", "id": 4900466360, "lat": 40.7125347, "lon": -74.0049248}, {"type": "node", "id": 4900466407, "lat": 40.7126132, "lon": -74.0048205}, {"type": "node", "id": 4971985122, "lat": 40.7161674, "lon": -74.0071773, "tags": {"addr:housenumber": "200", "addr:street": "Church Street", "air_conditioning": "yes", "amenity": "restaurant", "cuisine": "american", "name": "Tribeca's Kitchen", "opening_hours": "Mo-Su 06:00-00:00", "phone": "+1-212-227-5100", "takeaway": "yes", "website": "http://www.tribecaskitchen.com/"}}, {"type": "node", "id": 5126272537, "lat": 40.7130523, "lon": -74.0096369, "tags": {"addr:postcode": "10007", "amenity": "cafe", "brand": "Aroma Espresso Bar", "brand:wikidata": "Q2909872", "cuisine": "coffee_shop", "name": "Aroma Espresso Bar", "name:en": "Aroma Espresso Bar", "takeaway": "yes"}}, {"type": "node", "id": 5163985623, "lat": 40.715813, "lon": -74.0087939, "tags": {"addr:housenumber": "95", "addr:street": "West Broadway", "amenity": "restaurant", "name": "Serafina", "wheelchair": "yes"}}, {"type": "node", "id": 5163985624, "lat": 40.716972, "lon": -74.0078817, "tags": {"addr:city": "New York", "addr:housenumber": "145", "addr:postcode": "10013", "addr:state": "NY", "addr:street": "West Broadway", "amenity": "restaurant", "indoor_seating": "yes", "name": "The Odeon", "outdoor_seating": "yes", "website": "https://theodeonrestaurant.com"}}, {"type": "node", "id": 5322770746, "lat": 40.713588, "lon": -74.0081258, "tags": {"addr:housenumber": "17", "addr:street": "Murray Street", "amenity": "bar", "name": "Dark Horse", "website": "https://www.darkhorseny.com"}}, {"type": "node", "id": 5403606223, "lat": 40.7167151, "lon": -74.0089922, "tags": {"addr:housenumber": "30", "addr:street": "Hudson Street", "amenity": "restaurant", "cuisine": "japanese", "name": "Brushstroke", "opening_hours": "Mo-Th 17:30-22:30; Fr, Sa 17:30-23:00", "phone": "+1-212-791-3771", "website": "https://davidbouley.com/", "wikidata": "Q4949688"}}, {"type": "node", "id": 5415647133, "lat": 40.715278, "lon": -74.0074529, "tags": {"addr:city": "New York", "addr:housenumber": "165", "addr:postcode": "10007", "addr:state": "NY", "addr:street": "Church Street", "air_conditioning": "yes", "amenity": "cafe", "bar": "no", "check_date": "2023-10-05", "cuisine": "coffee_shop", "name": "Hungry Ghost", "opening_hours": "Mo-Su 07:00-19:00", "outdoor_seating": "no", "reservation": "no", "smoking": "no", "takeaway": "only", "website": "https://www.hungryghostcoffee.com/location/tribeca/"}}, {"type": "node", "id": 5520006583, "lat": 40.7133542, "lon": -74.0058606}, {"type": "node", "id": 5520006584, "lat": 40.7133097, "lon": -74.0058963}, {"type": "node", "id": 5520006585, "lat": 40.7133941, "lon": -74.0060793}, {"type": "node", "id": 5520006586, "lat": 40.713517, "lon": -74.0059807}, {"type": "node", "id": 5520006587, "lat": 40.7135193, "lon": -74.0059858}, {"type": "node", "id": 5520006588, "lat": 40.713647, "lon": -74.0058835}, {"type": "node", "id": 5520006589, "lat": 40.7136447, "lon": -74.0058785}, {"type": "node", "id": 5520006590, "lat": 40.7137599, "lon": -74.0057863}, {"type": "node", "id": 5520006591, "lat": 40.7136746, "lon": -74.0056009}, {"type": "node", "id": 5520006592, "lat": 40.7136339, "lon": -74.0056335}, {"type": "node", "id": 5520006593, "lat": 40.713581, "lon": -74.0055185}, {"type": "node", "id": 5520006594, "lat": 40.7136201, "lon": -74.0054872}, {"type": "node", "id": 5520006595, "lat": 40.7135389, "lon": -74.0053109}, {"type": "node", "id": 5520006596, "lat": 40.713499, "lon": -74.0053428}, {"type": "node", "id": 5520006597, "lat": 40.7134459, "lon": -74.0052273}, {"type": "node", "id": 5520006598, "lat": 40.7134899, "lon": -74.005192}, {"type": "node", "id": 5520006599, "lat": 40.7134041, "lon": -74.0050055}, {"type": "node", "id": 5520006600, "lat": 40.7132851, "lon": -74.0051008}, {"type": "node", "id": 5520006601, "lat": 40.7132821, "lon": -74.0050944}, {"type": "node", "id": 5520006603, "lat": 40.713155, "lon": -74.0051963}, {"type": "node", "id": 5520006604, "lat": 40.7131572, "lon": -74.0052012}, {"type": "node", "id": 5520006605, "lat": 40.713038, "lon": -74.0052969}, {"type": "node", "id": 5520006606, "lat": 40.713123, "lon": -74.0054812}, {"type": "node", "id": 5520006607, "lat": 40.7131631, "lon": -74.005449}, {"type": "node", "id": 5520006608, "lat": 40.7132141, "lon": -74.0055596}, {"type": "node", "id": 5520006609, "lat": 40.713103, "lon": -74.0056487}, {"type": "node", "id": 5520006610, "lat": 40.7131882, "lon": -74.0058334}, {"type": "node", "id": 5520006611, "lat": 40.7133002, "lon": -74.0057435}, {"type": "node", "id": 5520006612, "lat": 40.7135817, "lon": -74.0054039, "tags": {"entrance": "main"}}, {"type": "node", "id": 5520366543, "lat": 40.7133701, "lon": -74.0081717, "tags": {"addr:housenumber": "10", "addr:street": "Murray Street", "amenity": "restaurant", "name": "Healthy Joe\u2019s", "phone": "+1-212-962-1813"}}, {"type": "node", "id": 5520380022, "lat": 40.7133082, "lon": -74.0080416, "tags": {"addr:housenumber": "10", "addr:street": "Murray Street", "amenity": "restaurant", "cuisine": "indian", "name": "Aahar"}}, {"type": "node", "id": 5837162675, "lat": 40.7133225, "lon": -74.0111559, "tags": {"barrier": "kerb", "kerb": "lowered", "tactile_paving": "no", "wheelchair": "yes"}}, {"type": "node", "id": 5837162676, "lat": 40.712863, "lon": -74.0116744}, {"type": "node", "id": 5837162677, "lat": 40.7133618, "lon": -74.0111818}, {"type": "node", "id": 5837162678, "lat": 40.7135091, "lon": -74.011509}, {"type": "node", "id": 5837162679, "lat": 40.7128884, "lon": -74.0117338}, {"type": "node", "id": 5837162680, "lat": 40.7134934, "lon": -74.0115828}, {"type": "node", "id": 5950163185, "lat": 40.715602, "lon": -74.0076362, "tags": {"amenity": "restaurant", "check_date:opening_hours": "2023-11-06", "cuisine": "mediterranean", "diet:kosher": "yes", "diet:vegetarian": "yes", "indoor_seating": "yes", "name": "Nish Nush", "opening_hours": "Mo-Su 11:00-20:00", "opening_hours:signed": "no", "outdoor_seating": "yes", "phone": "+1-848-294-1690", "website": "https://nishnushnyc.com/", "wheelchair": "yes"}}, {"type": "node", "id": 5978556762, "lat": 40.7141063, "lon": -74.0090225, "tags": {"addr:housenumber": "41", "addr:street": "Murray Street", "amenity": "pub", "cuisine": "mexican", "name": "Boss Tweeds", "website": "https://bosstweeds.nyc/"}}, {"type": "node", "id": 5978792516, "lat": 40.7147978, "lon": -74.009995, "tags": {"addr:housenumber": "66", "addr:street": "West Broadway", "amenity": "restaurant", "check_date": "2023-07-31", "level": "0", "name": "Della's", "wheelchair": "no"}}, {"type": "node", "id": 6061610718, "lat": 40.7152236, "lon": -74.0088979, "tags": {"amenity": "pub", "cuisine": "pub", "name": "Mudville 9", "phone": "+1-212-964-9464", "website": "https://www.mudville9.com/", "wheelchair": "yes"}}, {"type": "node", "id": 6174369085, "lat": 40.7168221, "lon": -74.0080094, "tags": {"addr:full": "135 West Broadway, New York, NY 10013", "amenity": "restaurant", "name": "Tiny\u2019s and The Bar Upstairs"}}, {"type": "node", "id": 6371402585, "lat": 40.7154148, "lon": -74.0071919, "tags": {"addr:city": "New York", "addr:housenumber": "82", "addr:state": "NY", "addr:street": "Reade Street", "air_conditioning": "yes", "amenity": "bar", "name": "Bon Courage", "website": "https://1803nyc.com/new-york-tribeca-1803-nyc-bon-courage"}}, {"type": "node", "id": 6430319623, "lat": 40.7145059, "lon": -74.0065579, "tags": {"addr:city": "New York", "addr:housenumber": "277", "addr:postcode": "10007", "addr:state": "NY", "addr:street": "Broadway", "addr:unit": "Suite 1010", "air_conditioning": "yes", "category": "Attorneys", "fax": "+1-212-393-1345", "fixme": "survey to confirm", "level": "10", "name": "Law Office of Stephen M. Jackel", "office": "lawyer", "phone": "+1 212-393-1300", "website": "https://www.smjlegal.com/", "wheelchair": "yes"}}, {"type": "node", "id": 6762730394, "lat": 40.7131141, "lon": -74.0043484}, {"type": "node", "id": 6762730395, "lat": 40.7131222, "lon": -74.0043472}, {"type": "node", "id": 7281331968, "lat": 40.7124569, "lon": -74.0050536}, {"type": "node", "id": 7373386553, "lat": 40.7129115, "lon": -74.0045395}, {"type": "node", "id": 7373386555, "lat": 40.7126796, "lon": -74.0047422}, {"type": "node", "id": 7410938060, "lat": 40.7160202, "lon": -74.0089477, "tags": {"barrier": "kerb", "kerb": "lowered", "tactile_paving": "yes", "wheelchair": "yes"}}, {"type": "node", "id": 7700135685, "lat": 40.7151708, "lon": -74.0104716, "tags": {"addr:housenumber": "81", "addr:street": "Warren Street", "amenity": "restaurant", "cuisine": "tacos", "name": "Taq", "phone": "+1 212-301-7824"}}, {"type": "node", "id": 8262309110, "lat": 40.7124104, "lon": -74.0075447}, {"type": "node", "id": 8262309111, "lat": 40.7124808, "lon": -74.007483}, {"type": "node", "id": 8262309115, "lat": 40.7119101, "lon": -74.007036}, {"type": "node", "id": 8262309116, "lat": 40.7118227, "lon": -74.007718}, {"type": "node", "id": 8262309153, "lat": 40.7124347, "lon": -74.0075236}, {"type": "node", "id": 8262309166, "lat": 40.7124599, "lon": -74.0075012}, {"type": "node", "id": 8262309182, "lat": 40.7119177, "lon": -74.007002}, {"type": "node", "id": 8262309190, "lat": 40.7119551, "lon": -74.0068531}, {"type": "node", "id": 8262309192, "lat": 40.7128475, "lon": -74.0071796}, {"type": "node", "id": 8262309208, "lat": 40.712221, "lon": -74.0057864}, {"type": "node", "id": 8262309245, "lat": 40.7129453, "lon": -74.0045109}, {"type": "node", "id": 8262309324, "lat": 40.7131947, "lon": -74.0044829}, {"type": "node", "id": 8262936430, "lat": 40.7135085, "lon": -74.0115632, "tags": {"barrier": "kerb", "kerb": "lowered", "tactile_paving": "no", "wheelchair": "yes"}}, {"type": "node", "id": 8262936459, "lat": 40.7129067, "lon": -74.0117298, "tags": {"barrier": "kerb", "kerb": "lowered", "tactile_paving": "yes", "wheelchair": "yes"}}, {"type": "node", "id": 8262936477, "lat": 40.7133481, "lon": -74.0111606, "tags": {"barrier": "kerb", "kerb": "lowered", "tactile_paving": "no", "wheelchair": "yes"}}, {"type": "node", "id": 8262936482, "lat": 40.7128716, "lon": -74.0116639, "tags": {"barrier": "kerb", "kerb": "lowered", "tactile_paving": "yes", "wheelchair": "yes"}}, {"type": "node", "id": 8304373492, "lat": 40.7175106, "lon": -74.011698}, {"type": "node", "id": 8304373493, "lat": 40.7175015, "lon": -74.0117523}, {"type": "node", "id": 8304373494, "lat": 40.7167196, "lon": -74.0116132}, {"type": "node", "id": 8304373495, "lat": 40.716501, "lon": -74.0111013}, {"type": "node", "id": 8304373496, "lat": 40.7165062, "lon": -74.0110672}, {"type": "node", "id": 8304373497, "lat": 40.7165336, "lon": -74.0110172}, {"type": "node", "id": 8304373498, "lat": 40.71656, "lon": -74.0110026}, {"type": "node", "id": 8304373499, "lat": 40.7166536, "lon": -74.0109935}, {"type": "node", "id": 8304373500, "lat": 40.7167465, "lon": -74.0109879}, {"type": "node", "id": 8304373501, "lat": 40.7168508, "lon": -74.0109721}, {"type": "node", "id": 8304373502, "lat": 40.7170337, "lon": -74.0109296}, {"type": "node", "id": 8304373503, "lat": 40.7172198, "lon": -74.0108627}, {"type": "node", "id": 8304373504, "lat": 40.7172789, "lon": -74.0108354}, {"type": "node", "id": 8304373505, "lat": 40.7174646, "lon": -74.0108833}, {"type": "node", "id": 8304497237, "lat": 40.7170205, "lon": -74.0122594}, {"type": "node", "id": 8304497238, "lat": 40.7169832, "lon": -74.0121787}, {"type": "node", "id": 8304497239, "lat": 40.7171208, "lon": -74.0124819}, {"type": "node", "id": 8304497277, "lat": 40.7168591, "lon": -74.0119166}, {"type": "node", "id": 8304497280, "lat": 40.7175077, "lon": -74.0117149}, {"type": "node", "id": 8304497704, "lat": 40.7174382, "lon": -74.0108897, "tags": {"barrier": "gate"}}, {"type": "node", "id": 8304498484, "lat": 40.7172911, "lon": -74.0096089}, {"type": "node", "id": 8304498485, "lat": 40.7172691, "lon": -74.0096453}, {"type": "node", "id": 8333736444, "lat": 40.7165611, "lon": -74.0076634, "tags": {"amenity": "restaurant", "name": "Savida"}}, {"type": "node", "id": 8333736446, "lat": 40.7156689, "lon": -74.0075739, "tags": {"amenity": "restaurant", "check_date:opening_hours": "2023-11-06", "cuisine": "indian", "indoor_seating": "yes", "name": "Dilli Bistro", "opening_hours:signed": "no", "outdoor_seating": "no"}}, {"type": "node", "id": 8333736447, "lat": 40.7157083, "lon": -74.0075514, "tags": {"addr:housenumber": "178", "addr:street": "Church Street", "amenity": "restaurant", "check_date:opening_hours": "2023-11-06", "cuisine": "turkish", "indoor_seating": "yes", "name": "Soup & Gyro", "opening_hours:signed": "no", "outdoor_seating": "yes"}}, {"type": "node", "id": 8333736448, "lat": 40.7157901, "lon": -74.0070493, "tags": {"amenity": "restaurant", "name": "Burrito Mariachi"}}, {"type": "node", "id": 8333736450, "lat": 40.7157534, "lon": -74.0070887, "tags": {"amenity": "restaurant", "check_date:opening_hours": "2023-11-06", "indoor_seating": "yes", "name": "Akimoto Sushi", "opening_hours:signed": "no", "outdoor_seating": "no"}}, {"type": "node", "id": 8333736452, "lat": 40.7156736, "lon": -74.0071471, "tags": {"amenity": "restaurant", "indoor_seating": "yes", "name": "Fresh Curry", "outdoor_seating": "no"}}, {"type": "node", "id": 8333736454, "lat": 40.7154295, "lon": -74.0072402, "tags": {"addr:city": "New York", "addr:housenumber": "82", "addr:postcode": "10007", "addr:state": "NY", "addr:street": "Reade Street", "air_conditioning": "yes", "amenity": "restaurant", "bar": "yes", "cuisine": "american", "email": "1803nyc@gmail.com", "name": "1803", "opening_hours": "Mo-Fr 11:30-23:00; Sa 11:00-00:00; Su 11:00-23:00", "outdoor_seating": "yes", "phone": "+1-212-267-3000", "reservation": "yes", "smoking": "no", "toilets": "yes", "website": "https://1803nyc.com/"}}, {"type": "node", "id": 8333736458, "lat": 40.7148666, "lon": -74.0066475, "tags": {"addr:city": "New York", "addr:housenumber": "59", "addr:postcode": "10007", "addr:state": "NY", "addr:street": "Reade Street", "air_conditioning": "yes", "amenity": "restaurant", "bar": "yes", "contact:facebook": "tavernonreade", "contact:instagram": "tavernonreade", "cuisine": "american", "level": "0", "name": "Tavern On Reade", "opening_hours": "Mo-Su 11:00-02:00", "phone": "+1-212-349-5959", "smoking": "no", "takeaway": "yes", "website": "https://www.tavernonreade.com/"}}, {"type": "node", "id": 8333736459, "lat": 40.7143289, "lon": -74.0077874, "tags": {"amenity": "restaurant", "name": "Gran Morsi"}}, {"type": "node", "id": 8333736460, "lat": 40.713638, "lon": -74.0080761, "tags": {"amenity": "restaurant", "name": "Dark Horse"}}, {"type": "node", "id": 8333736461, "lat": 40.7130755, "lon": -74.0083507, "tags": {"amenity": "restaurant", "name": "Little Italy Pizza"}}, {"type": "node", "id": 8644302518, "lat": 40.7143494, "lon": -74.0086532, "tags": {"amenity": "restaurant", "indoor_seating": "yes", "name": "Los Tacos No. 1", "outdoor_seating": "no"}}, {"type": "node", "id": 8644307517, "lat": 40.7137611, "lon": -74.009094, "tags": {"addr:city": "New York", "addr:housenumber": "120", "addr:postcode": "10007", "addr:state": "NY", "addr:street": "Church Street", "amenity": "cafe", "branch": "Church Street & Murray", "brand": "Starbucks", "brand:wikidata": "Q37158", "cuisine": "coffee_shop", "name": "Starbucks", "official_name": "Starbucks Coffee", "phone": "+1 212-513-1451", "ref": "11040", "takeaway": "yes", "website": "https://www.starbucks.com/store-locator/store/11040/church-street-murray-120-church-street-new-york-ny-100072402-us"}}, {"type": "node", "id": 8644307717, "lat": 40.7151424, "lon": -74.0079858, "tags": {"addr:housenumber": "154", "addr:postcode": "10013", "addr:street": "Church Street", "amenity": "restaurant", "check_date": "2023-02-23", "indoor_seating": "yes", "level": "0", "name": "Little Italy Pizza", "outdoor_seating": "no"}}, {"type": "node", "id": 8644312117, "lat": 40.7172806, "lon": -74.0063049, "tags": {"amenity": "college", "name": "New York Law School"}}, {"type": "node", "id": 8648127019, "lat": 40.7162708, "lon": -74.009711, "tags": {"amenity": "bar", "check_date:opening_hours": "2023-11-06", "indoor_seating": "yes", "name": "Bar 135", "opening_hours:signed": "no", "outdoor_seating": "yes"}}, {"type": "node", "id": 8648142317, "lat": 40.7157042, "lon": -74.0109385, "tags": {"addr:housenumber": "295", "addr:street": "Greenwich Street", "amenity": "restaurant", "name": "Gee Whiz Diner"}}, {"type": "node", "id": 8648230017, "lat": 40.7141066, "lon": -74.0092265, "tags": {"amenity": "restaurant", "cuisine": "indian", "name": "Benares", "website": "https://www.benaresnyc.com/"}}, {"type": "node", "id": 8765413917, "lat": 40.7146705, "lon": -74.0076718, "tags": {"amenity": "restaurant", "cuisine": "indian", "indoor_seating": "yes", "name": "Saffron", "outdoor_seating": "no"}}, {"type": "node", "id": 8769344318, "lat": 40.7169431, "lon": -74.0083198, "tags": {"amenity": "restaurant", "check_date": "2023-11-06", "happy_hours": "Mo-Fr 15:00-18:00", "indoor_seating": "yes", "name": "Edward\u2019s", "opening_hours": "Mo-Fr 11:00-22:00; Sa,Su 10:30-22:00", "outdoor_seating": "yes"}}, {"type": "node", "id": 8861668918, "lat": 40.7132893, "lon": -74.0096484, "tags": {"amenity": "cafe", "name": "Salad Box"}}, {"type": "node", "id": 8883769317, "lat": 40.7148605, "lon": -74.0059829, "tags": {"addr:city": "New York", "addr:housenumber": "291", "addr:postcode": "10007", "addr:state": "NY", "addr:street": "Broadway", "air_conditioning": "yes", "amenity": "cafe", "bar": "no", "branch": "Broadway & Reade", "brand": "Starbucks", "brand:wikidata": "Q37158", "check_date": "2024-01-29", "cuisine": "coffee_shop", "delivery": "yes", "drive_through": "no", "highchair": "no", "internet_access": "wlan", "internet_access:fee": "no", "level": "0", "name": "Starbucks", "official_name": "Starbucks Coffee", "outdoor_seating": "no", "payment:app": "yes", "payment:cash": "yes", "payment:credit_cards": "yes", "phone": "+1 212-406-5315", "ref": "18526", "smoking": "no", "takeaway": "yes", "website": "https://www.starbucks.com/store-locator/store/18526/broadway-reade-291-broadway-new-york-ny-100071814-us"}}, {"type": "node", "id": 8883795717, "lat": 40.7167711, "lon": -74.0074582, "tags": {"addr:housenumber": "66", "addr:street": "Thomas Street", "amenity": "bar", "name": "buddha-bar"}}, {"type": "node", "id": 9364517394, "lat": 40.7122452, "lon": -74.0056891}, {"type": "node", "id": 9368526986, "lat": 40.7119267, "lon": -74.0069662}, {"type": "node", "id": 9368527001, "lat": 40.7119445, "lon": -74.0068939}, {"type": "node", "id": 9368527037, "lat": 40.7117945, "lon": -74.0076313}, {"type": "node", "id": 9368527038, "lat": 40.7117944, "lon": -74.0075129}, {"type": "node", "id": 9368527040, "lat": 40.7121033, "lon": -74.0062575}, {"type": "node", "id": 9368527053, "lat": 40.7119643, "lon": -74.0068158}, {"type": "node", "id": 9368527055, "lat": 40.7121141, "lon": -74.0062171, "tags": {"barrier": "gate"}}, {"type": "node", "id": 9368527057, "lat": 40.7121994, "lon": -74.0058719}, {"type": "node", "id": 9368527059, "lat": 40.712124, "lon": -74.0061762}, {"type": "node", "id": 9368527060, "lat": 40.7127499, "lon": -74.0072578}, {"type": "node", "id": 9368527070, "lat": 40.7130583, "lon": -74.0069967}, {"type": "node", "id": 9368527105, "lat": 40.7131324, "lon": -74.0043508}, {"type": "node", "id": 9368823867, "lat": 40.7130583, "lon": -74.0052806}, {"type": "node", "id": 9368823877, "lat": 40.7132573, "lon": -74.0046171}, {"type": "node", "id": 9368823879, "lat": 40.71342, "lon": -74.0049667}, {"type": "node", "id": 9368823880, "lat": 40.7134487, "lon": -74.0049567}, {"type": "node", "id": 9368823881, "lat": 40.7134337, "lon": -74.0049569}, {"type": "node", "id": 9368823882, "lat": 40.7134076, "lon": -74.0049401, "tags": {"barrier": "gate"}}, {"type": "node", "id": 9368823891, "lat": 40.71322, "lon": -74.0051442, "tags": {"entrance": "yes"}}, {"type": "node", "id": 9368823989, "lat": 40.7135227, "lon": -74.0066014}, {"type": "node", "id": 9368824069, "lat": 40.712296, "lon": -74.0054812}, {"type": "node", "id": 9368824118, "lat": 40.7131464, "lon": -74.0069218}, {"type": "node", "id": 9368824154, "lat": 40.7134486, "lon": -74.0066645}, {"type": "node", "id": 9369042307, "lat": 40.7128882, "lon": -74.0071442}, {"type": "node", "id": 9369042334, "lat": 40.7138097, "lon": -74.0057849}, {"type": "node", "id": 9369042335, "lat": 40.7138164, "lon": -74.005775}, {"type": "node", "id": 9369042336, "lat": 40.7138176, "lon": -74.005763}, {"type": "node", "id": 9369042338, "lat": 40.7138073, "lon": -74.0058232, "tags": {"barrier": "gate"}}, {"type": "node", "id": 9369042345, "lat": 40.7135943, "lon": -74.0055079, "tags": {"entrance": "main"}}, {"type": "node", "id": 9369042352, "lat": 40.7135138, "lon": -74.005331, "tags": {"entrance": "main"}}, {"type": "node", "id": 9373577231, "lat": 40.7139677, "lon": -74.0062324}, {"type": "node", "id": 9373577232, "lat": 40.7139746, "lon": -74.0062227}, {"type": "node", "id": 9373577233, "lat": 40.7139781, "lon": -74.0061995}, {"type": "node", "id": 9373577234, "lat": 40.7139779, "lon": -74.0062111}, {"type": "node", "id": 9373577240, "lat": 40.7136131, "lon": -74.0054721}, {"type": "node", "id": 9373577242, "lat": 40.7135494, "lon": -74.0053336}, {"type": "node", "id": 9373577252, "lat": 40.7135249, "lon": -74.0053221}, {"type": "node", "id": 9373577262, "lat": 40.7136063, "lon": -74.0054982}, {"type": "node", "id": 9373577265, "lat": 40.7135712, "lon": -74.0065608}, {"type": "node", "id": 9373577271, "lat": 40.713819, "lon": -74.0058483}, {"type": "node", "id": 9373577272, "lat": 40.7137217, "lon": -74.0055484}, {"type": "node", "id": 9373577277, "lat": 40.7136183, "lon": -74.0055998}, {"type": "node", "id": 9373577278, "lat": 40.7134628, "lon": -74.0052641}, {"type": "node", "id": 9373577282, "lat": 40.7135481, "lon": -74.0051669}, {"type": "node", "id": 9373577284, "lat": 40.7136237, "lon": -74.0056114}, {"type": "node", "id": 9373577300, "lat": 40.7136831, "lon": -74.0058478}, {"type": "node", "id": 9373577301, "lat": 40.7134544, "lon": -74.0052459}, {"type": "node", "id": 9373577319, "lat": 40.7132464, "lon": -74.005123}, {"type": "node", "id": 9373577320, "lat": 40.7134412, "lon": -74.0049547}, {"type": "node", "id": 9373577321, "lat": 40.7131957, "lon": -74.0051636}, {"type": "node", "id": 9373577336, "lat": 40.7131389, "lon": -74.0057265}, {"type": "node", "id": 9373577339, "lat": 40.7131461, "lon": -74.0057422}, {"type": "node", "id": 9373577343, "lat": 40.7135567, "lon": -74.0059558}, {"type": "node", "id": 9373577357, "lat": 40.7131533, "lon": -74.0057577}, {"type": "node", "id": 9373577358, "lat": 40.7135847, "lon": -74.0059334, "tags": {"entrance": "yes"}}, {"type": "node", "id": 9374424913, "lat": 40.7129565, "lon": -74.007085}, {"type": "node", "id": 9793800631, "lat": 40.7151232, "lon": -74.0103245, "tags": {"addr:city": "New York", "addr:housenumber": "77", "addr:postcode": "10007", "addr:state": "NY", "addr:street": "Warren Street", "amenity": "restaurant", "name": "WarrenPeace", "phone": "+18455925334", "website": "https://warrenpeaceny.com/"}}, {"type": "node", "id": 10041362744, "lat": 40.7161873, "lon": -74.0092957, "tags": {"barrier": "kerb", "kerb": "lowered", "tactile_paving": "yes", "wheelchair": "yes"}}, {"type": "node", "id": 10041362745, "lat": 40.7161248, "lon": -74.0091566, "tags": {"barrier": "kerb", "kerb": "lowered", "tactile_paving": "yes", "wheelchair": "yes"}}, {"type": "node", "id": 10282960416, "lat": 40.7133013, "lon": -74.0111694}, {"type": "node", "id": 10282960417, "lat": 40.7133549, "lon": -74.0111692}, {"type": "node", "id": 10282960418, "lat": 40.7133384, "lon": -74.0111547}, {"type": "node", "id": 10282960419, "lat": 40.7133289, "lon": -74.0111547}, {"type": "node", "id": 10282960420, "lat": 40.7133109, "lon": -74.0111612}, {"type": "node", "id": 10282960434, "lat": 40.7128576, "lon": -74.0116943}, {"type": "node", "id": 10282960435, "lat": 40.7128566, "lon": -74.0116868}, {"type": "node", "id": 10282960436, "lat": 40.7128588, "lon": -74.0116802}, {"type": "node", "id": 10282960437, "lat": 40.7128729, "lon": -74.0117274}, {"type": "node", "id": 10282960438, "lat": 40.7128828, "lon": -74.0117348}, {"type": "node", "id": 10282960439, "lat": 40.7128776, "lon": -74.0117332}, {"type": "node", "id": 10282960440, "lat": 40.7134831, "lon": -74.0115882}, {"type": "node", "id": 10282960441, "lat": 40.713502, "lon": -74.0115744}, {"type": "node", "id": 10282960442, "lat": 40.7135126, "lon": -74.0115216}, {"type": "node", "id": 10282960443, "lat": 40.7135137, "lon": -74.011535, "tags": {"barrier": "kerb", "kerb": "lowered", "tactile_paving": "no", "wheelchair": "yes"}}, {"type": "node", "id": 10282960444, "lat": 40.7135123, "lon": -74.0115522}, {"type": "node", "id": 10282960492, "lat": 40.7131281, "lon": -74.0113755}, {"type": "node", "id": 10282960493, "lat": 40.713108, "lon": -74.011379}, {"type": "node", "id": 10282960494, "lat": 40.7131238, "lon": -74.0113777}, {"type": "node", "id": 10282960495, "lat": 40.7131129, "lon": -74.0113775}, {"type": "node", "id": 10619086494, "lat": 40.7130439, "lon": -74.01008, "tags": {"addr:city": "New York", "addr:housenumber": "75", "addr:postcode": "10007", "addr:state": "NY", "addr:street": "Barclay Street", "amenity": "restaurant", "contact:instagram": "https://instagram.com/itotribeca", "cuisine": "sushi", "email": "info@itotribeca.com", "name": "Ito", "opening_hours": "Tu-Sa 18:00-20:45", "reservation": "recommended", "website": "https://itotribeca.com/", "website:booking": "https://itotribeca.com/#reservations"}}, {"type": "node", "id": 10885572126, "lat": 40.7144986, "lon": -74.0065581, "tags": {"addr:city": "New York", "addr:housenumber": "277", "addr:postcode": "10007-2036", "addr:state": "NY", "addr:street": "Broadway", "addr:unit": "Suite 408", "air_conditioning": "yes", "baby_feeding": "no", "email": "jazeller@zellerlegal.com", "fax": "+1-212-229-2246", "internet_access": "no", "level": "4", "name": "Law Office of Justin A, Zeller, P.C.", "office": "lawyer", "opening_hours": "Mo-Fr 09:00-17:00", "phone": "+1-212-229-2249", "smoking": "no", "website": "https://zellerlegal.com/", "wheelchair": "yes"}}, {"type": "node", "id": 11079239444, "lat": 40.7152376, "lon": -74.0091966, "tags": {"amenity": "restaurant", "check_date": "2023-07-31", "indoor_seating": "yes", "level": "0", "name": "The Smyth", "outdoor_seating": "yes"}}, {"type": "node", "id": 11079239445, "lat": 40.7151386, "lon": -74.0092889, "tags": {"amenity": "bar", "check_date": "2023-07-31", "name": "Galerie Bar"}}, {"type": "node", "id": 11175680754, "lat": 40.7142671, "lon": -74.008695, "tags": {"amenity": "cafe", "diet:vegan": "no", "diet:vegetarian": "yes", "indoor_seating": "yes", "name": "Birch Coffee", "opening_hours": "Mo-Fr 07:00-16:00; Sa,Su 07:30-16:00", "outdoor_seating": "no", "wheelchair": "yes"}}, {"type": "node", "id": 11175682842, "lat": 40.7128293, "lon": -74.0093508, "tags": {"amenity": "restaurant", "indoor_seating": "yes", "name": "Cut by Wolfgang Puck", "outdoor_seating": "yes"}}, {"type": "node", "id": 11175694137, "lat": 40.715128, "lon": -74.0086571, "tags": {"name": "Steven Harris Architects", "office": "architect"}}, {"type": "node", "id": 11241886838, "lat": 40.7146185, "lon": -74.0075403, "tags": {"addr:city": "New York", "addr:housenumber": "94", "addr:postcode": "10007", "addr:state": "NY", "addr:street": "Chambers Street", "addr:unit": "Storefront 1", "air_conditioning": "yes", "amenity": "restaurant", "bar": "yes", "cuisine": "american", "level": "0", "name": "Chambers", "opening_hours": "Tu-Th 17:30-23:30; Fr-Sa 17:30-00:00", "outdoor_seating": "no", "phone": "+1-212-580-3572", "reservation": "yes", "smoking": "no", "toilets": "yes", "website": "https://chambers.nyc"}}, {"type": "node", "id": 11241887323, "lat": 40.714543, "lon": -74.0073743, "tags": {"amenity": "restaurant", "name": "Artesano Peruvian Cuisine"}}, {"type": "node", "id": 11258767163, "lat": 40.7163547, "lon": -74.0098581, "tags": {"amenity": "cafe", "check_date": "2023-11-06", "check_date:opening_hours": "2023-11-06", "indoor_seating": "yes", "name": "Jack's Stir Brew Coffee", "not:brand:wikidata": "Q6110826", "opening_hours:signed": "no", "outdoor_seating": "no", "walkup_window": "yes"}}, {"type": "node", "id": 11258774458, "lat": 40.7164801, "lon": -74.0095734, "tags": {"amenity": "restaurant", "indoor_seating": "yes", "name": "Restaurant Marc Forgione", "outdoor_seating": "yes"}}, {"type": "node", "id": 11258782637, "lat": 40.7151337, "lon": -74.0081532, "tags": {"addr:housenumber": "107", "addr:postcode": "10013", "addr:street": "Chambers Street", "amenity": "cafe", "cuisine": "bubble_tea", "name": "Chun Yang"}}, {"type": "node", "id": 11308557812, "lat": 40.7162034, "lon": -74.0093317}, {"type": "node", "id": 11308557814, "lat": 40.7156456, "lon": -74.0093843}, {"type": "node", "id": 11308557815, "lat": 40.7156119, "lon": -74.009308}, {"type": "node", "id": 11308557816, "lat": 40.7156111, "lon": -74.0092908}, {"type": "node", "id": 11308557817, "lat": 40.7156116, "lon": -74.0092736}, {"type": "node", "id": 11308557818, "lat": 40.7156145, "lon": -74.009259}, {"type": "node", "id": 11308557819, "lat": 40.7156303, "lon": -74.0092314}, {"type": "node", "id": 11308557820, "lat": 40.7156435, "lon": -74.0092197}, {"type": "node", "id": 11308557821, "lat": 40.715993, "lon": -74.0089523}, {"type": "node", "id": 11308557822, "lat": 40.716029, "lon": -74.0089526}, {"type": "node", "id": 11308557823, "lat": 40.7160111, "lon": -74.0089459}, {"type": "node", "id": 11308557824, "lat": 40.7160008, "lon": -74.0089483}, {"type": "node", "id": 11308557825, "lat": 40.7156271, "lon": -74.0093464, "tags": {"barrier": "kerb", "kerb": "lowered", "tactile_paving": "yes", "wheelchair": "yes"}}, {"type": "node", "id": 11308557826, "lat": 40.7156252, "lon": -74.0092385, "tags": {"barrier": "kerb", "kerb": "lowered", "tactile_paving": "yes", "wheelchair": "yes"}}, {"type": "node", "id": 11322693546, "lat": 40.7172013, "lon": -74.0091636}, {"type": "node", "id": 11322693547, "lat": 40.7172402, "lon": -74.0091816}, {"type": "node", "id": 11322693548, "lat": 40.7172163, "lon": -74.0091629}, {"type": "node", "id": 11322693549, "lat": 40.7172304, "lon": -74.0091695}, {"type": "node", "id": 11322693550, "lat": 40.7170569, "lon": -74.0091843}, {"type": "node", "id": 11322693551, "lat": 40.7170457, "lon": -74.0091926}, {"type": "node", "id": 11322693552, "lat": 40.7170369, "lon": -74.0092033}, {"type": "node", "id": 11322693553, "lat": 40.7170321, "lon": -74.0092278}, {"type": "node", "id": 11322693554, "lat": 40.7170323, "lon": -74.0092151}, {"type": "node", "id": 11322693555, "lat": 40.7172402, "lon": -74.0096514}, {"type": "node", "id": 11322693556, "lat": 40.7172268, "lon": -74.0096439}, {"type": "node", "id": 11322693557, "lat": 40.7172813, "lon": -74.0096314}, {"type": "node", "id": 11322693558, "lat": 40.7172554, "lon": -74.0096506}, {"type": "node", "id": 11322693559, "lat": 40.7170322, "lon": -74.00922, "tags": {"barrier": "kerb", "kerb": "lowered", "tactile_paving": "yes", "wheelchair": "yes"}}, {"type": "node", "id": 11322693560, "lat": 40.7170399, "lon": -74.0091997, "tags": {"barrier": "kerb", "kerb": "lowered", "tactile_paving": "yes", "wheelchair": "yes"}}, {"type": "node", "id": 11322693561, "lat": 40.7172438, "lon": -74.0091932, "tags": {"barrier": "kerb", "kerb": "lowered", "tactile_paving": "yes", "wheelchair": "yes"}}, {"type": "node", "id": 11322693562, "lat": 40.7172254, "lon": -74.0091654, "tags": {"barrier": "kerb", "kerb": "lowered", "tactile_paving": "yes", "wheelchair": "yes"}}, {"type": "node", "id": 11322939856, "lat": 40.7170408, "lon": -74.009254}, {"type": "node", "id": 11329721731, "lat": 40.7175462, "lon": -74.0104404, "tags": {"amenity": "cafe", "name": "Cafe Clementine"}}, {"type": "node", "id": 11329790733, "lat": 40.7167674, "lon": -74.0084565, "tags": {"amenity": "restaurant", "cuisine": "sushi", "name": "Sushi of Gari"}}, {"type": "node", "id": 11329802009, "lat": 40.7168416, "lon": -74.0086416, "tags": {"addr:housenumber": "157", "addr:street": "Duane Street", "amenity": "restaurant", "check_date": "2023-11-06", "happy_hours": "Mo-Fri 16:30-18:00; Sa-Su 11:00-16:30", "indoor_seating": "yes", "name": "Khe-Yo", "outdoor_seating": "yes"}}, {"type": "node", "id": 11329802030, "lat": 40.7172588, "lon": -74.0105427, "tags": {"amenity": "restaurant", "cuisine": "italian", "name": "Gigimo"}}, {"type": "node", "id": 11329818008, "lat": 40.7178071, "lon": -74.0072067, "tags": {"name": "New York Design Architects", "office": "architect"}}, {"type": "node", "id": 11329825459, "lat": 40.7168913, "lon": -74.0083619, "tags": {"amenity": "restaurant", "check_date:opening_hours": "2023-11-06", "cuisine": "italian", "indoor_seating": "yes", "name": "Max Italian Restaurant", "opening_hours:signed": "no", "outdoor_seating": "yes"}}, {"type": "node", "id": 11460524955, "lat": 40.7171945, "lon": -74.0124611}, {"type": "node", "id": 11460524956, "lat": 40.7171809, "lon": -74.0124625}, {"type": "node", "id": 11460524957, "lat": 40.7171652, "lon": -74.0124662}, {"type": "node", "id": 11460524958, "lat": 40.7171475, "lon": -74.0124716}, {"type": "node", "id": 11460524960, "lat": 40.7171299, "lon": -74.0124783}, {"type": "node", "id": 11461129537, "lat": 40.712736, "lon": -74.0077871}, {"type": "node", "id": 11461129575, "lat": 40.7127124, "lon": -74.0077343}, {"type": "node", "id": 11464555818, "lat": 40.7171178, "lon": -74.0124753}, {"type": "node", "id": 11464555820, "lat": 40.7170364, "lon": -74.0122948}, {"type": "node", "id": 11464555854, "lat": 40.7168651, "lon": -74.0119287}, {"type": "node", "id": 11464555855, "lat": 40.7168848, "lon": -74.0119703}, {"type": "node", "id": 11464555858, "lat": 40.7168737, "lon": -74.0119469}, {"type": "node", "id": 11464555864, "lat": 40.716826, "lon": -74.0118446}, {"type": "node", "id": 11464555865, "lat": 40.7168076, "lon": -74.0118046}, {"type": "node", "id": 11464612371, "lat": 40.7167726, "lon": -74.0117285}, {"type": "node", "id": 11464612375, "lat": 40.7171984, "lon": -74.0117739}, {"type": "node", "id": 11464612452, "lat": 40.717504, "lon": -74.0117342}, {"type": "node", "id": 11464612462, "lat": 40.7167046, "lon": -74.0115792}, {"type": "node", "id": 11464612521, "lat": 40.7173289, "lon": -74.010817}, {"type": "node", "id": 11464612522, "lat": 40.7171636, "lon": -74.0108856}, {"type": "node", "id": 11464612523, "lat": 40.7170963, "lon": -74.0109085}, {"type": "node", "id": 11464612524, "lat": 40.7169402, "lon": -74.0109531}, {"type": "node", "id": 11464612766, "lat": 40.7174248, "lon": -74.0108928}, {"type": "node", "id": 11464612856, "lat": 40.7175235, "lon": -74.0114024}, {"type": "node", "id": 11464612859, "lat": 40.7174918, "lon": -74.0111234}, {"type": "node", "id": 11464612916, "lat": 40.7174484, "lon": -74.0108872}, {"type": "node", "id": 11506537129, "lat": 40.7159541, "lon": -74.0063664}, {"type": "node", "id": 11506537131, "lat": 40.7159404, "lon": -74.0063375}, {"type": "node", "id": 11506537132, "lat": 40.7159301, "lon": -74.0061534}, {"type": "node", "id": 11506537133, "lat": 40.7159423, "lon": -74.0061804}, {"type": "node", "id": 11506537134, "lat": 40.7158885, "lon": -74.0062227}, {"type": "node", "id": 11506618595, "lat": 40.7159381, "lon": -74.006379}, {"type": "node", "id": 11506618598, "lat": 40.7159134, "lon": -74.0063983}, {"type": "node", "id": 11506618607, "lat": 40.7158463, "lon": -74.0064509}, {"type": "node", "id": 11506618612, "lat": 40.7158065, "lon": -74.0064365}, {"type": "node", "id": 11506618613, "lat": 40.7157665, "lon": -74.0063467}, {"type": "node", "id": 11506618680, "lat": 40.7157717, "lon": -74.0060449}, {"type": "node", "id": 11506618683, "lat": 40.715749, "lon": -74.0059916}, {"type": "node", "id": 11506618685, "lat": 40.7156551, "lon": -74.0060964}, {"type": "node", "id": 11506618686, "lat": 40.7157355, "lon": -74.006277}, {"type": "node", "id": 11506618687, "lat": 40.7156956, "lon": -74.0061874}, {"type": "node", "id": 11506618745, "lat": 40.7159545, "lon": -74.0061338}, {"type": "node", "id": 11506618826, "lat": 40.7157513, "lon": -74.0063127}, {"type": "node", "id": 11506618830, "lat": 40.7158396, "lon": -74.0060355}, {"type": "node", "id": 11506618831, "lat": 40.715897, "lon": -74.0060062}, {"type": "node", "id": 11506618835, "lat": 40.7158573, "lon": -74.0060221}, {"type": "node", "id": 11506618856, "lat": 40.7156809, "lon": -74.0061551}, {"type": "node", "id": 11506618861, "lat": 40.7157084, "lon": -74.0059114}, {"type": "node", "id": 11506618863, "lat": 40.715634, "lon": -74.0059406}, {"type": "node", "id": 11506618864, "lat": 40.7157153, "lon": -74.0059273, "tags": {"entrance": "yes"}}, {"type": "node", "id": 11506618866, "lat": 40.7156129, "lon": -74.0060017}, {"type": "node", "id": 11530339008, "lat": 40.7149131, "lon": -74.0060417, "tags": {"addr:city": "New York", "addr:housenumber": "291", "addr:postcode": "10007", "addr:state": "NY", "addr:street": "Broadway", "addr:unit": "1615", "name": "Five Borough Filing & Expediting", "office": "engineer", "opening_hours": "Mo-Fr 08:00-18:00", "phone": "+1-212-577-2676", "website": "https://fiveboroughfilingandexpediting.com"}}, {"type": "node", "id": 12102901861, "lat": 40.7157994, "lon": -74.0109094, "tags": {"addr:city": "New York", "addr:housenumber": "295", "addr:postcode": "10007", "addr:state": "NY", "addr:street": "Greenwich Street", "amenity": "cafe", "brand": "Joe & The Juice", "brand:wikidata": "Q26221514", "cuisine": "coffee_shop", "name": "Joe & The Juice", "opening_hours": "Mo-Su 07:00-21:00", "phone": "+1 646-741-8640", "takeaway": "yes", "website": "https://www.joejuice.com/"}}, {"type": "node", "id": 12207203839, "lat": 40.7176962, "lon": -74.0104084, "tags": {"addr:housenumber": "329", "addr:postcode": "10013", "addr:street": "Greenwich Street", "amenity": "bar", "name": "Muse Paintbar"}}, {"type": "node", "id": 12695927973, "lat": 40.7145641, "lon": -74.0067314, "tags": {"addr:city": "New York", "addr:housenumber": "77", "addr:postcode": "10007", "addr:state": "NY", "addr:street": "Chambers Street", "name": "Andrew Berman Architect PLLC", "office": "architect", "phone": "+1-212-226-5998", "website": "http://andrewbermanarchitect.com/"}}, {"type": "node", "id": 12871399676, "lat": 40.7122805, "lon": -74.0055445, "tags": {"barrier": "gate"}}, {"type": "node", "id": 12971476998, "lat": 40.7131082, "lon": -74.0082883, "tags": {"addr:city": "New York", "addr:housenumber": "11", "addr:postcode": "10007", "addr:state": "NY", "addr:street": "Park Place", "addr:unit": "Suite 1212", "air_conditioning": "yes", "email": "info@nycacc.org", "name": "Animal Care Centers of NYC", "office": "ngo", "phone": "+1-212-788-4000", "website": "https://www.nycacc.org/"}}, {"type": "node", "id": 13267635492, "lat": 40.7172275, "lon": -74.0120288}, {"type": "node", "id": 13267635494, "lat": 40.7172078, "lon": -74.0118622}, {"type": "node", "id": 13322266754, "lat": 40.7174977, "lon": -74.0100469, "tags": {"alt_name": "Ring Ding Bar", "amenity": "cafe", "catering": "yes", "disused:website": "https://duaneparkpatisserie.com/", "drink:wine": "yes", "name": "Duane Park Patisserie", "opening_hours": "Mo-Th 08:00-18:00, Fr-Sa 08:00-20:00, Su 08:00-17:00", "phone": "+1-212-274-8447", "shop": "pastry", "website": "https://www.ringdingbar.com/"}}, {"type": "node", "id": 13324633698, "lat": 40.7175026, "lon": -74.0101435, "tags": {"amenity": "restaurant", "cocktails": "yes", "cuisine": "asian", "diet:vegan": "yes", "drink:beer": "yes", "drink:wine": "yes", "name": "Wok in Duane", "opening_hours": "Mo-Th 11:00-22:00, Fr 11:00-23:00, Sa 12:00-23:00, Su 12:00-22:00", "phone": "+1-212-207-0066", "website": "https://wokinduane.com/"}}, {"type": "way", "id": 22926980, "nodes": [246868000, 11464612856, 11464612859, 8304373505, 11464612916, 8304497704, 11464612766, 246868001, 1538237589, 11464612521, 8304373504, 8304373503, 11464612522, 11464612523, 8304373502, 11464612524, 8304373501, 8304373500, 8304373499, 1538237355, 8304373498, 8304373497, 246868002, 8304373496, 8304373495, 1538237527, 11464612462, 8304373494, 11464612371, 11464555865, 11464555864, 8304497277, 11464555854, 11464555858, 11464555855, 8304497238, 8304497237, 11464555820, 11464555818, 8304497239, 11460524960, 11460524958, 11460524957, 11460524956, 11460524955, 2565683738, 13267635492, 13267635494, 11464612375, 8304373493, 11464612452, 8304497280, 8304373492, 246868000], "tags": {"addr:city": "New York", "addr:state": "NY", "dog": "leashed", "ele": "2", "gnis:feature_id": "2060137", "leisure": "park", "name": "Washington Market Park", "opening_hours": "Mo-Su 06:00-01:00", "operator": "New York City Department of Parks and Recreation", "operator:short": "NYC Parks", "operator:type": "government", "operator:wikidata": "Q1894232", "smoking": "no", "website": "https://www.nycgovparks.org/parks/washington-market-park", "wikidata": "Q7972039", "wikipedia": "en:Washington Market Park"}}, {"type": "way", "id": 124814434, "nodes": [889648734, 10041362745, 10041362744, 11308557812, 1387951494, 2823258559, 2823258534, 11308557814, 11308557825, 1387951493, 11308557815, 11308557816, 11308557817, 11308557818, 889648736, 11308557826, 11308557819, 11308557820, 11308557821, 11308557824, 11308557823, 7410938060, 11308557822, 889648734], "tags": {"access": "yes", "addr:city": "New York", "addr:housenumber": "5", "addr:postcode": "10013", "addr:state": "NY", "addr:street": "Hudson Street", "check_date": "2023-11-02", "description": "The Bogardus Plaza is a recently renovated public pedestrian plaza in the heart of Manhattan's Tribeca Neighborhood. It has ample seating and is close to public transportation. It is managed and maintained by a non profit organization.", "leisure": "park", "name": "Bogardus Plaza", "operator": "NYC DOT", "operator:type": "public", "website": "https://www.bogardusplaza.org/"}}, {"type": "way", "id": 147035202, "nodes": [1602291340, 11322693561, 11322693547, 11322693549, 11322693562, 11322693548, 11322693546, 11322693550, 11322693551, 11322693560, 11322693552, 11322693554, 11322693559, 11322693553, 1602291349, 11322939856, 1602291342, 11322693556, 11322693555, 11322693558, 8304498485, 11322693557, 8304498484, 1602291353, 1602291340], "tags": {"dog": "leashed", "ele": "5", "gnis:feature_id": "2060143", "leisure": "park", "name": "Duane Park", "name:etymology:wikidata": "Q339274", "opening_hours": "Mo-Su 06:00-01:00", "operator": "New York City Department of Parks and Recreation", "operator:short": "NYC Parks", "operator:type": "government", "operator:wikidata": "Q1894232", "smoking": "no", "website": "https://www.nycgovparks.org/parks/duane-park", "wikidata": "Q3950666", "wikipedia": "en:Duane Park"}}, {"type": "way", "id": 166839383, "nodes": [5837162675, 10282960419, 10282960418, 8262936477, 10282960417, 5837162677, 5837162678, 10282960442, 10282960443, 10282960444, 8262936430, 10282960441, 5837162680, 10282960440, 8262936459, 5837162679, 10282960438, 10282960439, 10282960437, 10282960434, 10282960435, 10282960436, 5837162676, 8262936482, 10282960493, 10282960495, 10282960494, 10282960492, 10282960416, 10282960420, 5837162675], "tags": {"addr:city": "New York", "addr:street": "Greenwich Street", "leisure": "park", "name": "Silverstein Family Park", "wikidata": "Q118612610"}}, {"type": "way", "id": 277890497, "nodes": [2823341443, 2823341444, 2823341454, 2823341453, 2823341450, 2823341443], "tags": {"addr:city": "New York", "addr:housenumber": "67", "addr:postcode": "10007", "addr:street": "Murray Street", "amenity": "restaurant", "building": "yes", "cuisine": "irish", "height": "25.5", "name": "Lilly O'Briens", "nycdoitt:bin": "1001419", "opening_hours": "Mo-Su 00:00-04:00,08:00-24:00", "phone": "+1 212 732-1592", "website": "https://www.lillyobriensbar.com/"}}, {"type": "way", "id": 277890498, "nodes": [2823341465, 2823341469, 2823341501, 2823341495, 2823341465], "tags": {"addr:city": "New York", "addr:housenumber": "73", "addr:postcode": "10007", "addr:street": "Warren Street", "amenity": "restaurant", "building": "yes", "cuisine": "american", "height": "22.1", "name": "Mulberry & Vine", "nycdoitt:bin": "1001432", "phone": "+1-212-791-6300", "website": "https://www.mulberryandvine.com/", "wheelchair": "yes"}}, {"type": "way", "id": 277904770, "nodes": [2808066376, 895891414, 895891366, 2808066385, 895891352, 895891344, 11461129575, 11461129537, 895891374, 2808066365, 2808066366, 2808066371, 2808066376], "tags": {"addr:city": "New York", "addr:housenumber": "250", "addr:postcode": "10007", "addr:state": "NY", "addr:street": "Broadway", "architect": "Emery Roth & Sons", "architect:wikidata": "Q18672430", "building": "yes", "government": "legislative", "nycdoitt:bin": "1001408", "office": "government", "smoking": "no", "start_date": "1964"}}, {"type": "way", "id": 278093235, "nodes": [2825233703, 2825233709, 2825233707, 2825233747, 2825233776, 2825233748, 1253071061, 2825233703], "tags": {"addr:city": "New York", "addr:housenumber": "280", "addr:postcode": "10007", "addr:state": "NY", "addr:street": "Broadway", "air_conditioning": "yes", "building": "yes", "ele": "10", "gnis:feature_id": "2060506", "government": "administrative", "height": "32.1", "name": "Sun Building", "nycdoitt:bin": "1079215", "office": "government", "operator": "New York City Department of Citywide Administrative Services", "operator:type": "government", "operator:wikidata": "Q7013158", "smoking": "no", "source": "USGS Geonames", "start_date": "1846", "website": "https://www1.nyc.gov/site/dcas/business/dcasmanagedbuildings/sun-building.page", "wikidata": "Q2127737", "wikipedia": "en:280 Broadway"}}, {"type": "way", "id": 413055246, "nodes": [4143863442, 4143863430, 4143863438, 4143863429, 4143863447, 4143863440, 8262309110, 8262309153, 8262309166, 8262309111, 9368527060, 8262309192, 9369042307, 2821289715, 9374424913, 9368527070, 9368824118, 9368824154, 9368823989, 2348991691, 9373577265, 9373577231, 9373577232, 9373577234, 9373577233, 4143863446, 9373577271, 9369042338, 4143863437, 9369042334, 9369042335, 9369042336, 4143863434, 9373577272, 9373577282, 4143863445, 9368823880, 9373577320, 9368823881, 9368823879, 9368823882, 4143863444, 9368823877, 8262309324, 4143863448, 9368527105, 6762730395, 6762730394, 8262309245, 7373386553, 7373386555, 4900466407, 4900466360, 7281331968, 4143863449, 9368824069, 12871399676, 9364517394, 3942249545, 8262309208, 9368527057, 9368527059, 9368527055, 9368527040, 9368527053, 8262309190, 9368527001, 9368526986, 8262309182, 8262309115, 4143863435, 9368527038, 4143863443, 4143863439, 9368527037, 4143863428, 8262309116, 4143863431, 4143863432, 4878838751, 4143863442], "tags": {"addr:city": "New York", "addr:postcode": "10007", "addr:state": "NY", "leisure": "park", "name": "City Hall Park", "name:el": "\u03a0\u03ac\u03c1\u03ba\u03bf \u0394\u03b7\u03bc\u03b1\u03c1\u03c7\u03b5\u03af\u03bf\u03c5", "name:etymology:wikidata": "Q1065206", "smoking": "no", "website": "https://www.nycgovparks.org/parks/city-hall-park", "wikidata": "Q34817857"}}, {"type": "way", "id": 453456965, "nodes": [11506537129, 11506618595, 11506618598, 11506618607, 42430546, 11506618612, 11506618613, 11506618826, 11506618686, 11506618687, 11506618856, 11506618685, 11506618866, 2567571582, 11506618863, 2567571597, 11506618861, 11506618864, 2567571600, 2567571602, 1403580537, 1403580576, 11506618683, 4501889845, 11506618680, 1403580585, 1403580584, 1403580588, 1403580567, 1403580566, 1403580572, 11506618830, 11506618835, 1403580571, 1403580554, 11506618831, 2567571624, 2567571622, 11506618745, 11506537132, 11506537133, 11506537134, 11506537131, 11506537129], "tags": {"leisure": "park", "name": "Tribeca Tower Courtyard"}}, {"type": "way", "id": 575213948, "nodes": [5520006583, 5520006584, 5520006585, 5520006586, 5520006587, 9373577343, 9373577358, 5520006588, 5520006589, 9373577300, 5520006590, 5520006591, 5520006592, 9373577284, 9373577277, 5520006593, 9369042345, 9373577262, 5520006594, 9373577240, 5520006612, 9373577242, 5520006595, 9373577252, 9369042352, 5520006596, 9373577278, 9373577301, 5520006597, 5520006598, 5520006599, 5520006600, 5520006601, 9373577319, 9368823891, 9373577321, 5520006603, 5520006604, 9368823867, 5520006605, 5520006606, 5520006607, 5520006608, 5520006609, 9373577336, 9373577339, 9373577357, 5520006610, 5520006611, 5520006583], "tags": {"addr:city": "New York", "addr:housenumber": "52", "addr:postcode": "10007", "addr:state": "NY", "addr:street": "Chambers Street", "air_conditioning": "yes", "alt_name": "Old New York County Courthouse", "building": "yes", "building:colour": "#F4ECBB", "government": "education", "height": "25", "name": "Tweed Courthouse", "name:en": "Tweed Courthouse", "nycdoitt:bin": "1079146", "office": "government", "operator": "New York City Department of Citywide Administrative Services", "operator:type": "government", "operator:wikidata": "Q7013158", "polling_station": "yes", "roof:colour": "light_gray", "smoking": "no", "start_date": "1881", "website": "https://www1.nyc.gov/site/dcas/business/dcasmanagedbuildings/tweed-courthouse.page", "wheelchair": "yes", "wikidata": "Q1105773", "wikipedia": "en:Tweed Courthouse"}}]}