{"version": 0.6, "generator": "Overpass API 0.7.62.8 e802775f", "osm3s": {"timestamp_osm_base": "2025-12-01T17:22:15Z", "copyright": "The data included in this document is from www.openstreetmap.org. The data is made available under ODbL."}, "elements": [{"type": "node", "id": 42433870, "lat": 40.7652352, "lon": -73.9731528}, {"type": "node", "id": 42453674, "lat": 40.7651788, "lon": -73.9725696}, {"type": "node", "id": 42453676, "lat": 40.7650614, "lon": -73.9726548}, {"type": "node", "id": 357576745, "lat": 40.7753791, "lon": -73.9812499, "tags": {"amenity": "school", "ele": "24", "gnis:feature_id": "960269", "name": "Pharmacy College"}}, {"type": "node", "id": 357607753, "lat": 40.7738393, "lon": -73.9831016, "tags": {"addr:city": "New York", "addr:housenumber": "60", "addr:postcode": "10023-6588", "addr:state": "NY", "addr:street": "Lincoln Center Plaza", "air_conditioning": "yes", "amenity": "university", "ele": "21", "gnis:feature_id": "2044299", "internet_access": "wlan", "internet_access:fee": "no", "name": "The Juilliard School", "phone": "+1-212-799-5000", "website": "https://www.juilliard.edu/", "wikidata": "Q503246", "wikipedia": "en:Juilliard School"}}, {"type": "node", "id": 357620637, "lat": 40.7708333, "lon": -73.9801592, "tags": {"amenity": "school", "ele": "23", "gnis:feature_id": "2083444", "name": "Ethical Culture School"}}, {"type": "node", "id": 357621474, "lat": 40.7747746, "lon": -73.9853025, "tags": {"addr:city": "New York", "addr:housenumber": "122", "addr:postcode": "10023", "addr:state": "NY", "addr:street": "Amsterdam Avenue", "amenity": "school", "fax": "+1-917-441-3693", "grades": "9-12", "name": "High School of Arts and Technology", "phone": "+1-212-501-1198", "ref": "M494", "religion": "none", "website": "https://www.hsartstech.org/", "wikidata": "Q5756646", "wikipedia": "en:High School of the Arts and Technology"}}, {"type": "node", "id": 357622032, "lat": 40.7747751, "lon": -73.9853689, "tags": {"addr:city": "New York", "addr:housenumber": "122", "addr:postcode": "10023", "addr:state": "NY", "addr:street": "Amsterdam Avenue", "amenity": "school", "ele": "18", "fax": "+1-212-501-1171", "fee": "no", "gnis:feature_id": "2091989", "grades": "9-12", "name": "Manhattan Hunter Science High School", "phone": "+1-212-501-1235", "ref": "M541", "religion": "none", "website": "https://www.mhshs.org/", "wheelchair": "limited", "wikidata": "Q6749217", "wikipedia": "en:Manhattan/Hunter College High School for Sciences"}}, {"type": "node", "id": 419364557, "lat": 40.7737201, "lon": -73.9820406}, {"type": "node", "id": 1241742436, "lat": 40.7706962, "lon": -73.9849219}, {"type": "node", "id": 1241742443, "lat": 40.7704239, "lon": -73.9844476}, {"type": "node", "id": 1241742463, "lat": 40.7707139, "lon": -73.9842289}, {"type": "node", "id": 1241742474, "lat": 40.7714151, "lon": -73.9856328}, {"type": "node", "id": 1241742512, "lat": 40.7709559, "lon": -73.9853864}, {"type": "node", "id": 1241742578, "lat": 40.7709427, "lon": -73.9855467}, {"type": "node", "id": 1241742582, "lat": 40.7710438, "lon": -73.9851508}, {"type": "node", "id": 1241742598, "lat": 40.7709666, "lon": -73.9856191}, {"type": "node", "id": 1241742650, "lat": 40.7706549, "lon": -73.9849514}, {"type": "node", "id": 1241742673, "lat": 40.7711713, "lon": -73.9850594}, {"type": "node", "id": 1241742696, "lat": 40.7708201, "lon": -73.9851556}, {"type": "node", "id": 1241742731, "lat": 40.7708504, "lon": -73.9851336}, {"type": "node", "id": 1241742732, "lat": 40.7710765, "lon": -73.9858758}, {"type": "node", "id": 1241742735, "lat": 40.7709005, "lon": -73.9852535}, {"type": "node", "id": 1241760158, "lat": 40.7719643, "lon": -73.9843153, "tags": {"addr:city": "New York", "addr:housenumber": "139", "addr:postcode": "10023", "addr:state": "NY", "addr:street": "West 62nd Street", "amenity": "parking_entrance", "level": "-1", "parking": "underground", "ref": "2"}}, {"type": "node", "id": 1241760163, "lat": 40.7720047, "lon": -73.9844163, "tags": {"addr:city": "New York", "addr:housenumber": "139", "addr:postcode": "10023", "addr:state": "NY", "addr:street": "West 62nd Street", "amenity": "parking_entrance", "level": "-1", "parking": "underground", "ref": "2"}}, {"type": "node", "id": 1283225217, "lat": 40.7651705, "lon": -73.9732909}, {"type": "node", "id": 1328047198, "lat": 40.7722362, "lon": -73.9840012}, {"type": "node", "id": 1659428983, "lat": 40.7678317, "lon": -73.9810502}, {"type": "node", "id": 1659429013, "lat": 40.7679435, "lon": -73.9812166}, {"type": "node", "id": 1659429064, "lat": 40.7680529, "lon": -73.9811947}, {"type": "node", "id": 1659429078, "lat": 40.7681647, "lon": -73.9812054}, {"type": "node", "id": 1659429162, "lat": 40.7682578, "lon": -73.9812424}, {"type": "node", "id": 1659429202, "lat": 40.7683388, "lon": -73.9812954}, {"type": "node", "id": 1659429228, "lat": 40.7684558, "lon": -73.9814075}, {"type": "node", "id": 1659429258, "lat": 40.7685782, "lon": -73.9812971}, {"type": "node", "id": 1669534142, "lat": 40.7735832, "lon": -73.9817365}, {"type": "node", "id": 1669534147, "lat": 40.7731643, "lon": -73.9820245}, {"type": "node", "id": 1825841723, "lat": 40.7682236, "lon": -73.981225}, {"type": "node", "id": 2089444285, "lat": 40.7716005, "lon": -73.9818679, "tags": {"addr:city": "New York", "addr:housenumber": "1900", "addr:postcode": "10023", "addr:state": "NY", "addr:street": "Broadway", "air_conditioning": "yes", "amenity": "restaurant", "bar": "yes", "cuisine": "american", "delivery": "yes", "drink:coffee": "yes", "name": "The Smith", "opening_hours": "Mo-Th 07:30-00:00; Fr 07:30-01:00; Sa 09:00-01:00; Su 09:00-00:00", "outdoor_seating": "yes", "phone": "+1-212-496-5700", "reservation": "recommended", "takeaway": "yes", "website": "https://thesmithrestaurant.com/", "wheelchair": "yes"}}, {"type": "node", "id": 2310498477, "lat": 40.771384, "lon": -73.9824717, "tags": {"addr:city": "New York", "addr:housenumber": "1889", "addr:postcode": "10023", "addr:state": "NY", "addr:street": "Broadway", "air_conditioning": "yes", "amenity": "cafe", "bar": "no", "branch": "63rd & Broadway", "brand": "Starbucks", "brand:wikidata": "Q37158", "cuisine": "coffee_shop", "diet:dairy_free": "yes", "diet:gluten_free": "yes", "diet:vegan": "yes", "diet:vegetarian": "yes", "drink:soy_milk": "yes", "internet_access": "wlan", "internet_access:fee": "no", "level": "0", "name": "Starbucks", "official_name": "Starbucks Coffee", "opening_hours": "Mo-Fr 05:30-24:00; Sa 06:00-24:00; Su 06:00-23:00", "opening_hours:covid19": "Mo-Fr 06:00-21:00; Sa-Su 06:30-20:30", "outdoor_seating": "no", "phone": "+1-212-245-1362", "reservation": "no", "smoking": "no", "takeaway": "yes", "website": "https://www.starbucks.com/store-locator/store/17786/63rd-broadway-1889-broadway-new-york-ny-100237005-us"}}, {"type": "node", "id": 2550112940, "lat": 40.7761285, "lon": -73.9794669, "tags": {"addr:city": "New York", "addr:country": "US", "addr:housenumber": "221", "addr:postcode": "10023", "addr:state": "NY", "addr:street": "Columbus Avenue", "amenity": "restaurant", "cuisine": "japanese", "name": "Amber", "website": "https://www.ambergroupnyc.com/amberupperwest/"}}, {"type": "node", "id": 2550112961, "lat": 40.7750226, "lon": -73.9807865, "tags": {"addr:city": "New York", "addr:country": "US", "addr:housenumber": "180", "addr:postcode": "10023", "addr:state": "NY", "addr:street": "Columbus Avenue", "amenity": "restaurant", "check_date": "2023-06-17", "cuisine": "italian", "name": "Il Violino", "website": "http://ilviolinony.com/", "wheelchair": "limited"}}, {"type": "node", "id": 2553978278, "lat": 40.7678877, "lon": -73.9811787}, {"type": "node", "id": 2710077003, "lat": 40.7708356, "lon": -73.9824721, "tags": {"addr:city": "New York", "addr:housenumber": "1881", "addr:postcode": "10023", "addr:state": "NY", "addr:street": "Broadway", "branch": "Manhattan", "brand": "American Automobile Association", "brand:wikidata": "Q463436", "fax": "+1-212-956-5199", "name": "American Automobile Association", "office": "insurance", "opening_hours": "Mo-Fr 09:00-17:00; Sa 09:00-14:00", "phone": "+1-212-586-1723", "shop": "travel_agency", "short_name": "AAA", "website": "https://branches.northeast.aaa.com/ny/manhattan", "wheelchair": "yes"}}, {"type": "node", "id": 2710077066, "lat": 40.7706417, "lon": -73.9816303}, {"type": "node", "id": 2710077086, "lat": 40.7709154, "lon": -73.9816371}, {"type": "node", "id": 2710077093, "lat": 40.77104, "lon": -73.9815468}, {"type": "node", "id": 2710141721, "lat": 40.7691598, "lon": -73.9808882}, {"type": "node", "id": 2710141733, "lat": 40.7692432, "lon": -73.9808308}, {"type": "node", "id": 2710204015, "lat": 40.7735012, "lon": -73.984403, "tags": {"addr:city": "New York", "addr:housenumber": "150", "addr:postcode": "10023", "addr:state": "NY", "addr:street": "West 65th Street", "air_conditioning": "yes", "check_date": "2024-06-20", "email": "info@lct.org", "name": "Lincoln Center Theater", "office": "ngo", "operator": "Lincoln Center for the Performing Arts", "phone": "+1-212-501-3100", "website": "https://www.lct.org/", "wheelchair": "yes", "wikidata": "Q54674763"}}, {"type": "node", "id": 2744875794, "lat": 40.7727209, "lon": -73.9819082, "tags": {"addr:city": "New York", "addr:housenumber": "1934", "addr:postcode": "10023", "addr:state": "NY", "addr:street": "Broadway", "check_date": "2024-03-15", "name": "Brown Harris Stevens", "office": "estate_agent", "website": "https://www.bhsusa.com/agents/1934-broadway"}}, {"type": "node", "id": 2744875804, "lat": 40.7720849, "lon": -73.9813978, "tags": {"addr:city": "New York", "addr:housenumber": "49", "addr:postcode": "10023", "addr:state": "NY", "addr:street": "West 64th Street", "air_conditioning": "yes", "amenity": "restaurant", "bar": "yes", "cuisine": "seafood", "level": "0", "name": "Atlantic Grill", "opening_hours": "Su 11:00-22:00; Mo 11:30-22:00; Tu-Fr 11:30-23:00; Sa 11:00-23:00", "operator": "BR Guest", "outdoor_seating": "no", "phone": "+1 212-787-4663", "reservation": "yes", "smoking": "no", "website": "https://www.atlanticgrill.com/", "wikidata": "Q4816444", "wikipedia": "en:Atlantic Grill"}}, {"type": "node", "id": 2744929474, "lat": 40.7728801, "lon": -73.9796226}, {"type": "node", "id": 2744929545, "lat": 40.7731178, "lon": -73.9794494}, {"type": "node", "id": 2744929547, "lat": 40.773176, "lon": -73.9803255}, {"type": "node", "id": 2744929548, "lat": 40.7731945, "lon": -73.9797992}, {"type": "node", "id": 2744929556, "lat": 40.7732485, "lon": -73.9797599}, {"type": "node", "id": 2744929561, "lat": 40.7733597, "lon": -73.9801916}, {"type": "node", "id": 2744929567, "lat": 40.7734103, "lon": -73.9808821}, {"type": "node", "id": 2744929611, "lat": 40.7736095, "lon": -73.9813555}, {"type": "node", "id": 2744929613, "lat": 40.7736444, "lon": -73.9807116}, {"type": "node", "id": 2744929636, "lat": 40.7738364, "lon": -73.9805717}, {"type": "node", "id": 2744929640, "lat": 40.7738437, "lon": -73.981185}, {"type": "node", "id": 2744929643, "lat": 40.773884, "lon": -73.9805371}, {"type": "node", "id": 2744929645, "lat": 40.7740833, "lon": -73.9810104}, {"type": "node", "id": 2744944466, "lat": 40.7748547, "lon": -73.9841451, "tags": {"addr:city": "New York", "addr:housenumber": "141", "addr:postcode": "10023", "addr:state": "NY", "addr:street": "Amsterdam Avenue", "air_conditioning": "yes", "amenity": "cafe", "bar": "no", "branch": "66th and Amsterdam", "brand": "Starbucks", "brand:wikidata": "Q37158", "cuisine": "coffee_shop", "drive_through": "no", "indoor_seating": "yes", "internet_access": "wlan", "internet_access:fee": "no", "level": "0", "name": "Starbucks", "official_name": "Starbucks Coffee", "opening_hours": "Mo-Su 06:00-20:00", "outdoor_seating": "no", "phone": "+1 646-276-8254", "reservation": "no", "smoking": "no", "takeaway": "yes", "toilets": "yes", "website": "https://www.starbucks.com/store-locator/store/1015342"}}, {"type": "node", "id": 2744978884, "lat": 40.7739437, "lon": -73.9793963}, {"type": "node", "id": 2744978893, "lat": 40.7739503, "lon": -73.9794886}, {"type": "node", "id": 2744978899, "lat": 40.773975, "lon": -73.9794706}, {"type": "node", "id": 2744978903, "lat": 40.7739775, "lon": -73.9793716}, {"type": "node", "id": 2744978907, "lat": 40.7739892, "lon": -73.9795808}, {"type": "node", "id": 2744978908, "lat": 40.7739936, "lon": -73.9794099}, {"type": "node", "id": 2744978913, "lat": 40.7740137, "lon": -73.9795629}, {"type": "node", "id": 2744978922, "lat": 40.7740263, "lon": -73.9795928}, {"type": "node", "id": 2744978933, "lat": 40.774067, "lon": -73.9793403}, {"type": "node", "id": 2744978935, "lat": 40.7740744, "lon": -73.9793009}, {"type": "node", "id": 2744978940, "lat": 40.7740854, "lon": -73.979327}, {"type": "node", "id": 2744978958, "lat": 40.7741536, "lon": -73.979243}, {"type": "node", "id": 2744978959, "lat": 40.7741572, "lon": -73.9794972}, {"type": "node", "id": 2744978961, "lat": 40.7741589, "lon": -73.9792391}, {"type": "node", "id": 2744978963, "lat": 40.7741649, "lon": -73.9795155}, {"type": "node", "id": 2744978965, "lat": 40.7741688, "lon": -73.9795127}, {"type": "node", "id": 2744978971, "lat": 40.7741821, "lon": -73.9795442}, {"type": "node", "id": 2744978986, "lat": 40.7742575, "lon": -73.9794892}, {"type": "node", "id": 2744978988, "lat": 40.7742628, "lon": -73.9794853}, {"type": "node", "id": 2744981556, "lat": 40.77522, "lon": -73.9801757, "tags": {"addr:city": "New York", "addr:housenumber": "193", "addr:postcode": "10023", "addr:state": "NY", "addr:street": "Columbus Avenue", "air_conditioning": "yes", "amenity": "restaurant", "cuisine": "chinese", "level": "0", "microbrewery": "no", "name": "Empire Szechuan", "outdoor_seating": "yes", "smoking": "no"}}, {"type": "node", "id": 2902437013, "lat": 40.7652192, "lon": -73.9730317}, {"type": "node", "id": 3220130727, "lat": 40.7717706, "lon": -73.9859267}, {"type": "node", "id": 3220130730, "lat": 40.7718095, "lon": -73.9858998}, {"type": "node", "id": 3220130734, "lat": 40.771971, "lon": -73.9857832}, {"type": "node", "id": 3220130736, "lat": 40.7719802, "lon": -73.9857763}, {"type": "node", "id": 3272863061, "lat": 40.7709824, "lon": -73.9866234}, {"type": "node", "id": 3272863063, "lat": 40.7711608, "lon": -73.9864979}, {"type": "node", "id": 3369582795, "lat": 40.7728358, "lon": -73.9814252, "tags": {"addr:city": "New York", "addr:housenumber": "43", "addr:postcode": "10023", "addr:state": "NY", "addr:street": "West 65th Street", "air_conditioning": "yes", "amenity": "restaurant", "cuisine": "chinese", "name": "Shun Lee", "outdoor_seating": "no", "smoking": "no", "website": "https://www.shunleewest.com/"}}, {"type": "node", "id": 3369582870, "lat": 40.771929, "lon": -73.9842271}, {"type": "node", "id": 3369582874, "lat": 40.7718303, "lon": -73.9846226}, {"type": "node", "id": 3369582883, "lat": 40.7713286, "lon": -73.9835845, "tags": {"access": "permissive", "amenity": "bench", "backrest": "no", "colour": "black", "lit": "no", "material": "stone", "operator": "Lincoln Center for the Performing Arts"}}, {"type": "node", "id": 3369582884, "lat": 40.7714332, "lon": -73.9835478, "tags": {"access": "permissive", "amenity": "bench", "backrest": "no", "colour": "black", "lit": "no", "material": "stone", "operator": "Lincoln Center for the Performing Arts"}}, {"type": "node", "id": 3369582885, "lat": 40.7713561, "lon": -73.9835301, "tags": {"access": "permissive", "amenity": "bench", "backrest": "no", "colour": "black", "lit": "no", "material": "stone", "operator": "Lincoln Center for the Performing Arts"}}, {"type": "node", "id": 3369589607, "lat": 40.773404, "lon": -73.9838394, "tags": {"access": "yes", "entrance": "yes", "level": "1", "name": "Laurie M. Tisch Illumination Lawn", "wheelchair": "no"}}, {"type": "node", "id": 3369589609, "lat": 40.7732156, "lon": -73.9834085, "tags": {"access": "customers", "entrance": "yes", "level": "0", "name": "Lincoln Ristorante"}}, {"type": "node", "id": 3369589610, "lat": 40.7733746, "lon": -73.9832599}, {"type": "node", "id": 3369589611, "lat": 40.7732066, "lon": -73.9833879}, {"type": "node", "id": 3369597109, "lat": 40.7735647, "lon": -73.9837243}, {"type": "node", "id": 3369597128, "lat": 40.7728364, "lon": -73.9855111}, {"type": "node", "id": 3369597710, "lat": 40.7717649, "lon": -73.9846688}, {"type": "node", "id": 3369597712, "lat": 40.7728769, "lon": -73.9856094}, {"type": "node", "id": 3369597713, "lat": 40.7723298, "lon": -73.986009}, {"type": "node", "id": 3371304151, "lat": 40.7723502, "lon": -73.9841358}, {"type": "node", "id": 3392519825, "lat": 40.7797018, "lon": -73.9618727}, {"type": "node", "id": 3392519827, "lat": 40.7798051, "lon": -73.9617979}, {"type": "node", "id": 3392519829, "lat": 40.7791667, "lon": -73.9622595}, {"type": "node", "id": 3392519847, "lat": 40.7790627, "lon": -73.9623347}, {"type": "node", "id": 3392519860, "lat": 40.7785304, "lon": -73.9627195}, {"type": "node", "id": 3392519861, "lat": 40.7784331, "lon": -73.9627898}, {"type": "node", "id": 3447383383, "lat": 40.775834, "lon": -73.9801978, "tags": {"addr:city": "New York", "addr:housenumber": "208", "addr:postcode": "10023", "addr:state": "NY", "addr:street": "Columbus Ave", "amenity": "restaurant", "bar": "yes", "contact:facebook": "https://www.facebook.com/El-Mitote-NY-341052132645706/", "contact:instagram": "elmitoteny", "cuisine": "mexican", "email": "hello@beyondrestgroup.com", "name": "El Mitote", "opening_hours": "Mo-Su 11:30-22:00", "outdoor_seating": "yes", "phone": "+1-212-874-2929", "takeaway": "yes", "website": "https://www.elmitoteny.com/", "wheelchair": "yes"}}, {"type": "node", "id": 3602661070, "lat": 40.7665973, "lon": -73.9715326}, {"type": "node", "id": 3602661071, "lat": 40.7680224, "lon": -73.9704918}, {"type": "node", "id": 4347535694, "lat": 40.7647683, "lon": -73.9735861}, {"type": "node", "id": 4347550058, "lat": 40.7684879, "lon": -73.9813785}, {"type": "node", "id": 4347550067, "lat": 40.7686118, "lon": -73.9812638}, {"type": "node", "id": 4347550072, "lat": 40.7678954, "lon": -73.9811958}, {"type": "node", "id": 4422266667, "lat": 40.7733333, "lon": -73.983552, "tags": {"addr:city": "New York", "addr:housenumber": "142", "addr:postcode": "10023", "addr:state": "NY", "addr:street": "West 65th Street", "air_conditioning": "yes", "amenity": "restaurant", "bar": "yes", "cuisine": "italian", "delivery": "no", "diet:gluten_free": "yes", "level": "0,1", "name": "Lincoln Ristorante", "opening_hours": "We-Su 11:00-14:00, 16:30-20:30", "outdoor_seating": "yes", "phone": "+1-212-359-6500", "reservation": "yes", "smoking": "no", "takeaway": "yes", "website": "https://www.lincolnristorante.com/", "wheelchair": "no"}}, {"type": "node", "id": 4470030889, "lat": 40.7717565, "lon": -73.9818595, "tags": {"addr:city": "New York", "addr:housenumber": "1900", "addr:postcode": "10023", "addr:state": "NY", "addr:street": "Broadway", "air_conditioning": "yes", "amenity": "restaurant", "bar": "yes", "cuisine": "italian", "delivery": "yes", "level": "0", "name": "Caf\u00e9 Fiorello", "opening_hours": "Mo-Fr 12:00-22:00; Sa-Su 10:00-22:00", "outdoor_seating": "yes", "phone": "+1-212-595-5330", "reservation": "yes", "smoking": "no", "takeaway": "yes", "website": "https://www.cafefiorello.com/", "wheelchair": "yes"}}, {"type": "node", "id": 4509843308, "lat": 40.773601, "lon": -73.9825772, "tags": {"amenity": "restaurant", "cuisine": "cafe", "name": "American Table Cafe"}}, {"type": "node", "id": 4637270103, "lat": 40.7722647, "lon": -73.9824016}, {"type": "node", "id": 4997760450, "lat": 40.7690783, "lon": -73.9809437}, {"type": "node", "id": 5117972564, "lat": 40.7715739, "lon": -73.9823772}, {"type": "node", "id": 5117972565, "lat": 40.7717469, "lon": -73.9827652}, {"type": "node", "id": 5216141422, "lat": 40.7752266, "lon": -73.9826067, "tags": {"amenity": "restaurant", "name": "Sugar Factory"}}, {"type": "node", "id": 5862744811, "lat": 40.7750206, "lon": -73.9803155, "tags": {"addr:housenumber": "187", "addr:postcode": "10023", "addr:street": "Columbus Avenue", "amenity": "cafe", "branch": "Lincoln Center", "brand": "Joe Coffee Company", "check_date": "2025-01-29", "name": "Joe Coffee Company", "opening_hours": "Mo-Su 07:00-20:00", "phone": "+1 212-877-0244", "website": "http://www.joenewyork.com/locations/lincoln-center/", "wheelchair": "no"}}, {"type": "node", "id": 5939542595, "lat": 40.7745302, "lon": -73.9802971, "tags": {"addr:housenumber": "70", "addr:street": "West 68th Street", "amenity": "restaurant", "craft": "caterer", "cuisine": "italian", "delivery": "Tu-Su 11:30-14:30", "diet:vegetarian": "yes", "drink:coffee": "yes", "name": "Joanne Trattoria", "opening_hours": "Tu-Th, Su 11:30-15:00, 16:30-22:00; Fr, Sa 11:30-15:00, 16:30-23:00; Mo 16:30-22:00", "outdoor_seating": "yes", "phone": "+1-212-721-0068", "reservation": "recommended", "takeaway": "yes", "website": "https://joannenyc.com/", "wheelchair": "no"}}, {"type": "node", "id": 5939555190, "lat": 40.775134, "lon": -73.9807023, "tags": {"addr:city": "New York", "addr:housenumber": "186", "addr:postcode": "10023-5104", "addr:state": "NY", "addr:street": "Columbus Circle", "amenity": "restaurant", "check_date": "2023-07-22", "cuisine": "pizza", "name": "Francesco's Pizza", "opening_hours": "Mo-Su 11:00-21:15", "phone": "+1-212-721-0066", "website": "https://www.francescosoncolumbus.com/", "wheelchair": "yes"}}, {"type": "node", "id": 5939555287, "lat": 40.7750501, "lon": -73.9808413, "tags": {"addr:housenumber": "101", "addr:street": "West 68th Street", "amenity": "restaurant", "cuisine": "pizza", "delivery": "yes", "name": "La Traviata Pizzeria", "opening_hours": "Su 11:00-22:30; Mo-Sa 10:00-22:30", "phone": "+1-212-721-1101", "takeaway": "yes", "website": "http://orderlatraviatapizza.com/", "wheelchair": "limited"}}, {"type": "node", "id": 6452665615, "lat": 40.7716018, "lon": -73.9855252}, {"type": "node", "id": 6456605727, "lat": 40.7718, "lon": -73.9847523}, {"type": "node", "id": 6458963418, "lat": 40.7722856, "lon": -73.9859056, "tags": {"access": "no", "barrier": "gate"}}, {"type": "node", "id": 6463515498, "lat": 40.7726144, "lon": -73.9849794}, {"type": "node", "id": 6463515499, "lat": 40.7726849, "lon": -73.9849274}, {"type": "node", "id": 6463515500, "lat": 40.7723062, "lon": -73.9841702}, {"type": "node", "id": 6463515501, "lat": 40.7728682, "lon": -73.9856158, "tags": {"access": "no", "construction:entrance": "gate", "covered": "yes", "level": "-1"}}, {"type": "node", "id": 6463515503, "lat": 40.7719456, "lon": -73.985098, "tags": {"barrier": "block", "foot": "yes", "motor_vehicle": "no"}}, {"type": "node", "id": 6463515504, "lat": 40.7719345, "lon": -73.9850706, "tags": {"barrier": "block", "foot": "yes", "motor_vehicle": "no"}}, {"type": "node", "id": 6463515505, "lat": 40.7718992, "lon": -73.9849879, "tags": {"barrier": "block", "foot": "yes", "motor_vehicle": "no"}}, {"type": "node", "id": 6463515506, "lat": 40.771887, "lon": -73.9849587, "tags": {"barrier": "block", "foot": "yes", "motor_vehicle": "no"}}, {"type": "node", "id": 6463515507, "lat": 40.7718655, "lon": -73.9849082, "tags": {"barrier": "block", "foot": "yes", "motor_vehicle": "no"}}, {"type": "node", "id": 6463515508, "lat": 40.7718537, "lon": -73.9848798, "tags": {"barrier": "block", "foot": "yes", "motor_vehicle": "no"}}, {"type": "node", "id": 6463515509, "lat": 40.7718108, "lon": -73.9847773, "tags": {"barrier": "block", "door": "no", "entrance": "main", "foot": "yes", "motor_vehicle": "no", "wheelchair": "yes"}}, {"type": "node", "id": 6463515510, "lat": 40.7719399, "lon": -73.985084, "tags": {"door": "no", "entrance": "main", "wheelchair": "yes"}}, {"type": "node", "id": 6463515511, "lat": 40.7718936, "lon": -73.9849744, "tags": {"door": "no", "entrance": "main", "wheelchair": "no"}}, {"type": "node", "id": 6463515512, "lat": 40.7718591, "lon": -73.9848926, "tags": {"door": "no", "entrance": "main", "wheelchair": "no"}}, {"type": "node", "id": 6463515518, "lat": 40.7720289, "lon": -73.9844771}, {"type": "node", "id": 6463515519, "lat": 40.7720108, "lon": -73.9844915}, {"type": "node", "id": 6463515522, "lat": 40.7719791, "lon": -73.9843523}, {"type": "node", "id": 6463515528, "lat": 40.7719558, "lon": -73.9842942}, {"type": "node", "id": 6465822066, "lat": 40.7719364, "lon": -73.9842475}, {"type": "node", "id": 6465822069, "lat": 40.7723266, "lon": -73.9841543}, {"type": "node", "id": 6469023487, "lat": 40.7711449, "lon": -73.9858752}, {"type": "node", "id": 6469023488, "lat": 40.7711239, "lon": -73.9859346}, {"type": "node", "id": 6469023496, "lat": 40.7711664, "lon": -73.9860225}, {"type": "node", "id": 6469023499, "lat": 40.7713207, "lon": -73.9860876}, {"type": "node", "id": 6469023500, "lat": 40.7711582, "lon": -73.9860387}, {"type": "node", "id": 6469023502, "lat": 40.771209, "lon": -73.986097}, {"type": "node", "id": 6469023503, "lat": 40.771272, "lon": -73.9861111}, {"type": "node", "id": 6473165620, "lat": 40.7715338, "lon": -73.9865926}, {"type": "node", "id": 6473165621, "lat": 40.7713048, "lon": -73.9867583}, {"type": "node", "id": 6625281401, "lat": 40.7708794, "lon": -73.9811652}, {"type": "node", "id": 6625281402, "lat": 40.7705521, "lon": -73.9814166}, {"type": "node", "id": 6791611135, "lat": 40.7742751, "lon": -73.9808432, "tags": {"addr:city": "New York", "addr:housenumber": "159", "addr:state": "NY", "addr:street": "Columbus Avenue", "amenity": "cafe", "check_date": "2025-01-29", "level": "0", "name": "The Migrant Kitchen"}}, {"type": "node", "id": 6794406099, "lat": 40.7865399, "lon": -73.9682398}, {"type": "node", "id": 6794406110, "lat": 40.7774861, "lon": -73.9748348}, {"type": "node", "id": 6836077126, "lat": 40.7760721, "lon": -73.9794282, "tags": {"addr:housenumber": "65 1/2", "addr:street": "West 70th Street", "amenity": "restaurant", "cocktails": "yes", "contact:email": "shalelnyc@gmail.com", "cuisine": "moroccan", "drink:beer": "yes", "drink:wine": "yes", "level": "-1", "name": "Shalel", "opening_hours": "Mo-Th, Su 17:00-01:00; Fr, Sa 17:00-02:00", "phone": "+1 212-873-2300", "website": "https://shalel.kitchen/"}}, {"type": "node", "id": 6838446016, "lat": 40.7682979, "lon": -73.9812666}, {"type": "node", "id": 6838446017, "lat": 40.7680759, "lon": -73.9811958}, {"type": "node", "id": 6838446021, "lat": 40.7680234, "lon": -73.9811958}, {"type": "node", "id": 6991124627, "lat": 40.7982164, "lon": -73.9527043}, {"type": "node", "id": 6991124628, "lat": 40.7840726, "lon": -73.9700242}, {"type": "node", "id": 6991124629, "lat": 40.7684005, "lon": -73.9813532}, {"type": "node", "id": 6991124630, "lat": 40.7968361, "lon": -73.9498019}, {"type": "node", "id": 6991124631, "lat": 40.7717669, "lon": -73.9789928}, {"type": "node", "id": 6991124632, "lat": 40.7760769, "lon": -73.9758687}, {"type": "node", "id": 6991124633, "lat": 40.7923871, "lon": -73.9639878}, {"type": "node", "id": 6991124634, "lat": 40.7999135, "lon": -73.9584444}, {"type": "node", "id": 6991124635, "lat": 40.796969, "lon": -73.9497623}, {"type": "node", "id": 6991124636, "lat": 40.7794669, "lon": -73.9734015}, {"type": "node", "id": 6991124637, "lat": 40.8002443, "lon": -73.9579135}, {"type": "node", "id": 6991124638, "lat": 40.7994129, "lon": -73.9588184}, {"type": "node", "id": 6991124639, "lat": 40.799237, "lon": -73.955126}, {"type": "node", "id": 6991124640, "lat": 40.783752, "lon": -73.9702619}, {"type": "node", "id": 6991124641, "lat": 40.7968656, "lon": -73.9497938}, {"type": "node", "id": 6991124643, "lat": 40.7762343, "lon": -73.9757406}, {"type": "node", "id": 6991124644, "lat": 40.7942007, "lon": -73.9626287}, {"type": "node", "id": 6991124645, "lat": 40.8001744, "lon": -73.9582454}, {"type": "node", "id": 6991124646, "lat": 40.7967264, "lon": -73.9497688}, {"type": "node", "id": 6991124648, "lat": 40.8002612, "lon": -73.9578609}, {"type": "node", "id": 6991124649, "lat": 40.7995306, "lon": -73.9587263}, {"type": "node", "id": 6991124650, "lat": 40.7699787, "lon": -73.9803189}, {"type": "node", "id": 6991124651, "lat": 40.8002923, "lon": -73.9576536}, {"type": "node", "id": 6991124652, "lat": 40.7845135, "lon": -73.9697076}, {"type": "node", "id": 6991124653, "lat": 40.7679925, "lon": -73.9812024}, {"type": "node", "id": 6991124654, "lat": 40.7968924, "lon": -73.9497839}, {"type": "node", "id": 6991124656, "lat": 40.795929, "lon": -73.9613682}, {"type": "node", "id": 6991124657, "lat": 40.8001889, "lon": -73.9582116}, {"type": "node", "id": 6991124658, "lat": 40.7967123, "lon": -73.9497575}, {"type": "node", "id": 6991124659, "lat": 40.7804911, "lon": -73.9726547}, {"type": "node", "id": 6991124660, "lat": 40.8002711, "lon": -73.9578357}, {"type": "node", "id": 6991124661, "lat": 40.8001649, "lon": -73.9582594}, {"type": "node", "id": 6991124662, "lat": 40.8002035, "lon": -73.9581067}, {"type": "node", "id": 6991124663, "lat": 40.784584, "lon": -73.969659}, {"type": "node", "id": 6991124664, "lat": 40.7681234, "lon": -73.9811983}, {"type": "node", "id": 6991124665, "lat": 40.7969178, "lon": -73.9497731}, {"type": "node", "id": 6991124666, "lat": 40.7755038, "lon": -73.9762831}, {"type": "node", "id": 6991124667, "lat": 40.7959607, "lon": -73.9613456}, {"type": "node", "id": 6991124668, "lat": 40.8001932, "lon": -73.9581901}, {"type": "node", "id": 6991124669, "lat": 40.7969775, "lon": -73.9497673}, {"type": "node", "id": 6991124671, "lat": 40.8002816, "lon": -73.9578121}, {"type": "node", "id": 6991124672, "lat": 40.8001812, "lon": -73.9582322}, {"type": "node", "id": 6991124673, "lat": 40.7900902, "lon": -73.965651}, {"type": "node", "id": 6991124674, "lat": 40.7851403, "lon": -73.9692564}, {"type": "node", "id": 6991124676, "lat": 40.7967913, "lon": -73.9498014}, {"type": "node", "id": 6991124677, "lat": 40.7742872, "lon": -73.9771742}, {"type": "node", "id": 6991124678, "lat": 40.8001916, "lon": -73.9582004}, {"type": "node", "id": 6991124679, "lat": 40.7978697, "lon": -73.9599617}, {"type": "node", "id": 6991124680, "lat": 40.8001953, "lon": -73.9581702}, {"type": "node", "id": 6991124681, "lat": 40.7969865, "lon": -73.9497883}, {"type": "node", "id": 6991124682, "lat": 40.7806502, "lon": -73.9725365}, {"type": "node", "id": 6991124683, "lat": 40.8003117, "lon": -73.9577424}, {"type": "node", "id": 6991124684, "lat": 40.8001852, "lon": -73.9582225}, {"type": "node", "id": 6991136385, "lat": 40.7706802, "lon": -73.9797918}, {"type": "node", "id": 6991136386, "lat": 40.7878736, "lon": -73.9672728}, {"type": "node", "id": 6991136387, "lat": 40.7853303, "lon": -73.969113}, {"type": "node", "id": 6991136389, "lat": 40.7974831, "lon": -73.9509739}, {"type": "node", "id": 6991136390, "lat": 40.7784888, "lon": -73.9741143}, {"type": "node", "id": 6991136391, "lat": 40.8003048, "lon": -73.9576827}, {"type": "node", "id": 6991136392, "lat": 40.8001996, "lon": -73.958139}, {"type": "node", "id": 6991136393, "lat": 40.79751, "lon": -73.9510383}, {"type": "node", "id": 6991136394, "lat": 40.781843, "lon": -73.9716566}, {"type": "node", "id": 6991136395, "lat": 40.8003107, "lon": -73.9577049}, {"type": "node", "id": 6991136397, "lat": 40.7707071, "lon": -73.9797693}, {"type": "node", "id": 6991136398, "lat": 40.7877836, "lon": -73.9673372}, {"type": "node", "id": 6991136400, "lat": 40.7971833, "lon": -73.9502608}, {"type": "node", "id": 6991136402, "lat": 40.8003135, "lon": -73.9577265}, {"type": "node", "id": 6991136403, "lat": 40.7981253, "lon": -73.959776}, {"type": "node", "id": 6991136404, "lat": 40.8002065, "lon": -73.9580742}, {"type": "node", "id": 6991136407, "lat": 40.7995974, "lon": -73.9559873}, {"type": "node", "id": 6991136408, "lat": 40.8003077, "lon": -73.9577602}, {"type": "node", "id": 6991136409, "lat": 40.7714634, "lon": -73.9792112}, {"type": "node", "id": 6991136410, "lat": 40.7729298, "lon": -73.9781445}, {"type": "node", "id": 6991136411, "lat": 40.7915356, "lon": -73.9646045}, {"type": "node", "id": 6991136413, "lat": 40.7969378, "lon": -73.9497626}, {"type": "node", "id": 6991136415, "lat": 40.8002523, "lon": -73.9578853}, {"type": "node", "id": 6991136416, "lat": 40.7991133, "lon": -73.9590607}, {"type": "node", "id": 6991136417, "lat": 40.7980661, "lon": -73.952353}, {"type": "node", "id": 6991136418, "lat": 40.7821005, "lon": -73.9714695}, {"type": "node", "id": 6991136419, "lat": 40.7994309, "lon": -73.9555925}, {"type": "node", "id": 6991136421, "lat": 40.7716807, "lon": -73.9790604}, {"type": "node", "id": 6991136422, "lat": 40.7742602, "lon": -73.9771962}, {"type": "node", "id": 6991136423, "lat": 40.7916521, "lon": -73.9645157}, {"type": "node", "id": 6991136424, "lat": 40.7894415, "lon": -73.9661212}, {"type": "node", "id": 6991136425, "lat": 40.7969467, "lon": -73.9497591}, {"type": "node", "id": 6991136426, "lat": 40.7790432, "lon": -73.973712}, {"type": "node", "id": 6991136427, "lat": 40.8002352, "lon": -73.9579531}, {"type": "node", "id": 6991136428, "lat": 40.7992085, "lon": -73.9589862}, {"type": "node", "id": 6991136430, "lat": 40.7834445, "lon": -73.9704966}, {"type": "node", "id": 6991136432, "lat": 40.772256, "lon": -73.9786494}, {"type": "node", "id": 6991136433, "lat": 40.7730567, "lon": -73.9780733}, {"type": "node", "id": 6991136435, "lat": 40.7992931, "lon": -73.9589165}, {"type": "node", "id": 6991136436, "lat": 40.7969586, "lon": -73.9497571}, {"type": "node", "id": 6991136437, "lat": 40.7793708, "lon": -73.9734706}, {"type": "node", "id": 6991136438, "lat": 40.8002111, "lon": -73.958039}, {"type": "node", "id": 6991136439, "lat": 40.7992378, "lon": -73.9589604}, {"type": "node", "id": 6991400307, "lat": 40.777239, "lon": -73.9637321}, {"type": "node", "id": 6991400308, "lat": 40.7843102, "lon": -73.9586307}, {"type": "node", "id": 6991400309, "lat": 40.7949343, "lon": -73.9508105}, {"type": "node", "id": 6991400312, "lat": 40.7950221, "lon": -73.9507494}, {"type": "node", "id": 6991400313, "lat": 40.7917411, "lon": -73.9531393}, {"type": "node", "id": 6991400314, "lat": 40.7686749, "lon": -73.9699764}, {"type": "node", "id": 6991400315, "lat": 40.7962602, "lon": -73.9498487}, {"type": "node", "id": 6991400316, "lat": 40.7965935, "lon": -73.9496061}, {"type": "node", "id": 6991400317, "lat": 40.7937493, "lon": -73.9516863}, {"type": "node", "id": 6991400319, "lat": 40.7746546, "lon": -73.9656177}, {"type": "node", "id": 6991400322, "lat": 40.7966288, "lon": -73.9496299}, {"type": "node", "id": 6991400323, "lat": 40.7943243, "lon": -73.9512675}, {"type": "node", "id": 6991400324, "lat": 40.7804146, "lon": -73.961481}, {"type": "node", "id": 6991400326, "lat": 40.770653, "lon": -73.968529}, {"type": "node", "id": 6991400329, "lat": 40.7966549, "lon": -73.9496802}, {"type": "node", "id": 6991400334, "lat": 40.7656121, "lon": -73.9722517}, {"type": "node", "id": 6991400337, "lat": 40.7966959, "lon": -73.9497422}, {"type": "node", "id": 6991400339, "lat": 40.7929767, "lon": -73.9522388}, {"type": "node", "id": 6991400342, "lat": 40.768135, "lon": -73.9704097}, {"type": "node", "id": 6991400344, "lat": 40.78096, "lon": -73.9610479}, {"type": "node", "id": 6991400345, "lat": 40.7888635, "lon": -73.9552971}, {"type": "node", "id": 6991400346, "lat": 40.7687628, "lon": -73.9699119}, {"type": "node", "id": 6991400348, "lat": 40.7961426, "lon": -73.9499364}, {"type": "node", "id": 6991400350, "lat": 40.7935351, "lon": -73.9518348}, {"type": "node", "id": 6991400355, "lat": 40.7966161, "lon": -73.9496189}, {"type": "node", "id": 6991400360, "lat": 40.7966473, "lon": -73.9496618}, {"type": "node", "id": 6991400366, "lat": 40.7966815, "lon": -73.9497244}, {"type": "node", "id": 6991400367, "lat": 40.7857067, "lon": -73.9575733}, {"type": "node", "id": 6991400368, "lat": 40.7912074, "lon": -73.9535256}, {"type": "node", "id": 6991400370, "lat": 40.7775416, "lon": -73.9635111}, {"type": "node", "id": 6991400371, "lat": 40.7674883, "lon": -73.9708816}, {"type": "node", "id": 6991400374, "lat": 40.7886997, "lon": -73.9554172}, {"type": "node", "id": 6991400375, "lat": 40.7775944, "lon": -73.9634737}, {"type": "node", "id": 6991400378, "lat": 40.7956392, "lon": -73.9503032}, {"type": "node", "id": 6991400379, "lat": 40.7839459, "lon": -73.9588854}, {"type": "node", "id": 6991400380, "lat": 40.7918681, "lon": -73.9530523}, {"type": "node", "id": 6991400383, "lat": 40.7965179, "lon": -73.9496631}, {"type": "node", "id": 6991400384, "lat": 40.796606, "lon": -73.9496116}, {"type": "node", "id": 6991414887, "lat": 40.7738129, "lon": -73.9662265}, {"type": "node", "id": 6991414890, "lat": 40.7966385, "lon": -73.9496411}, {"type": "node", "id": 6991414892, "lat": 40.7808832, "lon": -73.9611242}, {"type": "node", "id": 6991414894, "lat": 40.776801, "lon": -73.9640526}, {"type": "node", "id": 6991414897, "lat": 40.7966668, "lon": -73.9497027}, {"type": "node", "id": 6991414898, "lat": 40.788053, "lon": -73.9558772}, {"type": "node", "id": 6991414900, "lat": 40.7776896, "lon": -73.9634089}, {"type": "node", "id": 6991414901, "lat": 40.7673907, "lon": -73.970953}, {"type": "node", "id": 7047644285, "lat": 40.7713394, "lon": -73.9827159, "tags": {"addr:city": "New York", "addr:housenumber": "44", "addr:postcode": "10023", "addr:state": "NY", "addr:street": "West 63rd Street", "addr:unit": "12th Floor", "air_conditioning": "yes", "amenity": "bar", "level": "11", "name": "The Empire Rooftop", "opening_hours": "Mo-Tu 14:00-00:00; We-Th 14:00-01:00; Fr 12:00-01:00; Sa 11:00-01:00; Su 11:00-00:00", "outdoor_seating": "yes", "phone": "+1-212-265-2600", "reservation": "yes", "smoking": "no", "website": "https://www.theempirerooftop.com/"}}, {"type": "node", "id": 7077876287, "lat": 40.773462, "lon": -73.9788968, "tags": {"amenity": "restaurant", "name": "The Leopard at des Artistes"}}, {"type": "node", "id": 7093980560, "lat": 40.7803339, "lon": -73.9615543}, {"type": "node", "id": 7093980567, "lat": 40.781666, "lon": -73.9605506}, {"type": "node", "id": 7104620799, "lat": 40.7798279, "lon": -73.973142}, {"type": "node", "id": 7120586338, "lat": 40.7854255, "lon": -73.9690437}, {"type": "node", "id": 7146903295, "lat": 40.7820679, "lon": -73.9714884}, {"type": "node", "id": 7146903298, "lat": 40.7851954, "lon": -73.9692206}, {"type": "node", "id": 7298030171, "lat": 40.7734245, "lon": -73.9834903, "tags": {"addr:city": "New York", "addr:housenumber": "144", "addr:postcode": "10023", "addr:state": "NY", "addr:street": "West 65th Street", "air_conditioning": "yes", "amenity": "restaurant", "cuisine": "cafe;wine;italian", "delivery": "yes", "level": "0", "name": "Cafe Paradiso", "opening_hours": "Mo-We 08:00-20:00; Th-Sa 08:00-21:00; Su 11:00-19:00", "outdoor_seating": "no", "phone": "+1-212-869-8800", "reservation": "yes", "smoking": "no", "takeaway": "yes", "website": "https://www.cafeparadisonyc.com/", "wheelchair": "yes"}}, {"type": "node", "id": 7447580898, "lat": 40.7713459, "lon": -73.9836305, "tags": {"access": "permissive", "amenity": "bench", "backrest": "no", "colour": "black", "lit": "no", "material": "stone", "operator": "Lincoln Center for the Performing Arts"}}, {"type": "node", "id": 7447580902, "lat": 40.7713955, "lon": -73.9835858, "tags": {"access": "permissive", "amenity": "bench", "backrest": "no", "colour": "black", "lit": "no", "material": "stone", "operator": "Lincoln Center for the Performing Arts"}}, {"type": "node", "id": 7447580903, "lat": 40.7712975, "lon": -73.983535}, {"type": "node", "id": 7447580904, "lat": 40.7713595, "lon": -73.9835733}, {"type": "node", "id": 7447580905, "lat": 40.7713751, "lon": -73.9836075}, {"type": "node", "id": 7447580908, "lat": 40.7714732, "lon": -73.983545, "tags": {"access": "permissive", "amenity": "bench", "backrest": "no", "colour": "black", "lit": "no", "material": "stone", "operator": "Lincoln Center for the Performing Arts"}}, {"type": "node", "id": 7447580909, "lat": 40.7713814, "lon": -73.9835232}, {"type": "node", "id": 7447580914, "lat": 40.7713383, "lon": -73.9835557}, {"type": "node", "id": 7447580915, "lat": 40.7713256, "lon": -73.9835977}, {"type": "node", "id": 7447580916, "lat": 40.7713542, "lon": -73.9836225}, {"type": "node", "id": 7447580919, "lat": 40.7713351, "lon": -73.9835471}, {"type": "node", "id": 7447580920, "lat": 40.7715066, "lon": -73.9835106}, {"type": "node", "id": 7447580924, "lat": 40.7713015, "lon": -73.9835163, "tags": {"access": "permissive", "amenity": "bench", "backrest": "no", "colour": "black", "lit": "no", "material": "stone", "operator": "Lincoln Center for the Performing Arts"}}, {"type": "node", "id": 7447580929, "lat": 40.7713863, "lon": -73.9835422, "tags": {"access": "permissive", "amenity": "bench", "backrest": "no", "colour": "black", "lit": "no", "material": "stone", "operator": "Lincoln Center for the Performing Arts"}}, {"type": "node", "id": 7447580930, "lat": 40.7713243, "lon": -73.9835539}, {"type": "node", "id": 7447580931, "lat": 40.7714606, "lon": -73.9835432}, {"type": "node", "id": 7447580935, "lat": 40.771415, "lon": -73.9835453, "tags": {"access": "permissive", "amenity": "bench", "backrest": "no", "colour": "black", "lit": "no", "material": "stone", "operator": "Lincoln Center for the Performing Arts"}}, {"type": "node", "id": 7447580937, "lat": 40.7714307, "lon": -73.9835198}, {"type": "node", "id": 7447580938, "lat": 40.7714475, "lon": -73.9835475}, {"type": "node", "id": 7447580945, "lat": 40.7713244, "lon": -73.9835632, "tags": {"access": "permissive", "amenity": "bench", "backrest": "no", "colour": "black", "lit": "no", "material": "stone", "operator": "Lincoln Center for the Performing Arts"}}, {"type": "node", "id": 7447580946, "lat": 40.7713285, "lon": -73.9835146}, {"type": "node", "id": 7447580947, "lat": 40.7713814, "lon": -73.9835569}, {"type": "node", "id": 7447580948, "lat": 40.7714025, "lon": -73.9835795}, {"type": "node", "id": 7448738070, "lat": 40.7710753, "lon": -73.983631}, {"type": "node", "id": 7448738072, "lat": 40.770216, "lon": -73.9842655}, {"type": "node", "id": 7448738073, "lat": 40.7703259, "lon": -73.9845175}, {"type": "node", "id": 7448783486, "lat": 40.7703821, "lon": -73.9844775}, {"type": "node", "id": 7449171500, "lat": 40.7718917, "lon": -73.984578}, {"type": "node", "id": 7449171504, "lat": 40.7719655, "lon": -73.9845244}, {"type": "node", "id": 7449171578, "lat": 40.7719501, "lon": -73.9851087}, {"type": "node", "id": 7449171579, "lat": 40.7722761, "lon": -73.9858829}, {"type": "node", "id": 7449177918, "lat": 40.772255, "lon": -73.9840465}, {"type": "node", "id": 7449177919, "lat": 40.7721895, "lon": -73.9840355}, {"type": "node", "id": 7449177922, "lat": 40.7721539, "lon": -73.9840618}, {"type": "node", "id": 7449177923, "lat": 40.7721118, "lon": -73.9840927}, {"type": "node", "id": 7449177926, "lat": 40.7720757, "lon": -73.9841192}, {"type": "node", "id": 7449177927, "lat": 40.772034, "lon": -73.9841499}, {"type": "node", "id": 7449177930, "lat": 40.7719976, "lon": -73.9841766}, {"type": "node", "id": 7449177931, "lat": 40.7719551, "lon": -73.9842079}, {"type": "node", "id": 7449177970, "lat": 40.7719267, "lon": -73.985052}, {"type": "node", "id": 7449177971, "lat": 40.7719058, "lon": -73.9850037}, {"type": "node", "id": 7449177974, "lat": 40.7718443, "lon": -73.9848571}, {"type": "node", "id": 7449177975, "lat": 40.7718236, "lon": -73.9848071}, {"type": "node", "id": 7474716551, "lat": 40.7711876, "lon": -73.986479}, {"type": "node", "id": 7474729993, "lat": 40.7708865, "lon": -73.9863973}, {"type": "node", "id": 7474730023, "lat": 40.7709514, "lon": -73.9865455}, {"type": "node", "id": 7504586055, "lat": 40.7707993, "lon": -73.9861911}, {"type": "node", "id": 7593143558, "lat": 40.7715532, "lon": -73.9850121, "tags": {"addr:city": "New York", "addr:housenumber": "150", "addr:postcode": "10023", "addr:state": "NY", "addr:street": "West 62nd Street", "air_conditioning": "yes", "faculty": "law", "internet_access": "wlan", "level": "-1,8", "name": "Fordham University School of Law", "office": "educational_institution", "operator": "Fordham University", "operator:type": "ngo", "university": "faculty", "website": "https://www.fordham.edu/school-of-law/", "wikidata": "Q5468082", "wikipedia": "en:Fordham University School of Law"}}, {"type": "node", "id": 7604105035, "lat": 40.772259, "lon": -73.9840562}, {"type": "node", "id": 7657278602, "lat": 40.7718581, "lon": -73.9855139, "tags": {"addr:city": "New York", "addr:housenumber": "150", "addr:postcode": "10023", "addr:state": "NY", "addr:street": "West 62nd Street", "air_conditioning": "yes", "amenity": "restaurant", "bar": "no", "cuisine": "sushi", "delivery": "yes", "level": "0", "name": "Rolls & Bowls", "opening_hours": "Mo-Fr 11:00-21:00", "outdoor_seating": "no", "reservation": "no", "smoking": "no", "takeaway": "yes", "website": "https://svkfoodhall.com/"}}, {"type": "node", "id": 7712324738, "lat": 40.7702203, "lon": -73.9845945, "tags": {"entrance": "main", "level": "0", "wheelchair": "yes"}}, {"type": "node", "id": 7785624616, "lat": 40.7777161, "lon": -73.9633886}, {"type": "node", "id": 7785624620, "lat": 40.7775657, "lon": -73.963494}, {"type": "node", "id": 7785624629, "lat": 40.7776951, "lon": -73.9633211}, {"type": "node", "id": 7785624644, "lat": 40.7776925, "lon": -73.9633258}, {"type": "node", "id": 7785624660, "lat": 40.7776932, "lon": -73.963339}, {"type": "node", "id": 7785624681, "lat": 40.7776914, "lon": -73.9633312}, {"type": "node", "id": 7830757189, "lat": 40.7679176, "lon": -73.9812094}, {"type": "node", "id": 7830757207, "lat": 40.765304, "lon": -73.9724768}, {"type": "node", "id": 8032579495, "lat": 40.7802617, "lon": -73.961464}, {"type": "node", "id": 8039941085, "lat": 40.7779237, "lon": -73.9631581}, {"type": "node", "id": 8289844990, "lat": 40.7715266, "lon": -73.982747, "tags": {"addr:city": "New York", "addr:housenumber": "44", "addr:postcode": "10023", "addr:state": "NY", "addr:street": "West 63rd Street", "air_conditioning": "yes", "amenity": "restaurant", "bar": "yes", "branch": "Lincoln Square", "check_date": "2023-11-01", "cocktails": "yes", "cuisine": "american;seafood", "delivery": "yes", "drink:beer": "draught", "drink:coffee": "yes", "drink:wine": "yes", "level": "0,-1", "name": "P.J. Clarke\u2019s", "opening_hours": "Mo 11:30-23:00; Tu-Fr 11:30-00:00; Sa 10:30-00:00; Su 10:30-23:00", "outdoor_seating": "no", "phone": "+1-212-957-9700", "reservation": "yes", "smoking": "no", "takeaway": "yes", "website": "https://pjclarkes.com/location/pj-clarkes-restaurant-bar-lincoln/"}}, {"type": "node", "id": 8289844991, "lat": 40.771471, "lon": -73.982597, "tags": {"addr:city": "New York", "addr:housenumber": "44", "addr:postcode": "10023", "addr:state": "NY", "addr:street": "West 63rd Street", "air_conditioning": "yes", "amenity": "restaurant", "bar": "yes", "branch": "Lincoln Center", "cocktails": "yes", "cuisine": "mexican", "delivery": "yes", "diet:gluten_free": "yes", "diet:vegetarian": "yes", "drink:beer": "bottled", "drink:liquor": "yes", "drink:wine": "yes", "level": "1", "name": "Rosa Mexicano", "opening_hours": "Mo-Tu 11:30-22:30; We-Th 11:30-23:00; Fr 11:30-00:00; Sa 11:00-00:00; Su 11:00-22:30", "outdoor_seating": "no", "payment:cards": "yes", "payment:cash": "yes", "payment:contactless": "yes", "phone": "+1-212-977-7700", "reservation": "yes", "smoking": "no", "start_date": "2025-09", "takeaway": "yes", "toilets": "yes", "website": "https://rosamexicano.com/location/lincoln-center/", "website:menu": "https://rosamexicano.com/menus/?location-id=521", "wheelchair": "yes"}}, {"type": "node", "id": 8307757298, "lat": 40.7727091, "lon": -73.9816717, "tags": {"addr:city": "New York", "addr:housenumber": "60", "addr:postcode": "10023", "addr:state": "NY", "addr:street": "West 65th Street", "air_conditioning": "yes", "amenity": "cafe", "brand": "Le Pain Quotidien", "brand:wikidata": "Q2046903", "cuisine": "coffee_shop", "delivery": "yes", "internet_access": "wlan", "internet_access:fee": "no", "level": "0", "name": "Le Pain Quotidien", "opening_hours": "Mo-Fr 07:30-18:00; Sa-Su 08:30-18:00", "phone": "+1-212-721-4001", "reservation": "no", "smoking": "no", "takeaway": "yes", "website": "https://www.lepainquotidien.com/us/en/locations/Lincoln_Plaza/60-W-65th-St"}}, {"type": "node", "id": 8676382818, "lat": 40.7702758, "lon": -73.9848156}, {"type": "node", "id": 8676382821, "lat": 40.7701926, "lon": -73.9846143}, {"type": "node", "id": 8695205603, "lat": 40.7709386, "lon": -73.985458}, {"type": "node", "id": 8787410946, "lat": 40.7740276, "lon": -73.9815102, "tags": {"addr:city": "New York", "addr:housenumber": "152", "addr:state": "NY", "addr:street": "Columbus Avenue", "amenity": "restaurant", "name": "Maman", "wheelchair": "yes"}}, {"type": "node", "id": 8787410948, "lat": 40.7743106, "lon": -73.98082, "tags": {"addr:city": "New York", "addr:housenumber": "159", "addr:postcode": "10023", "addr:state": "NY", "addr:street": "Columbus Avenue", "amenity": "cafe", "branch": "Pickup - 67th St & Columbus Avenue", "brand": "Starbucks", "brand:wikidata": "Q37158", "check_date": "2025-01-29", "cuisine": "coffee_shop", "name": "Starbucks", "official_name": "Starbucks Coffee", "phone": "+1 917-764-3602", "ref": "1028595", "takeaway": "yes", "website": "https://www.starbucks.com/store-locator/store/1028595/pickup-67th-st-columbus-av-159-columbus-ave-new-york-ny-100235917-us"}}, {"type": "node", "id": 8787410949, "lat": 40.7748346, "lon": -73.9803624, "tags": {"air_conditioning": "yes", "amenity": "restaurant", "cuisine": "french", "level": "-1", "name": "Le Boite en Bois", "outdoor_seating": "yes", "smoking": "no", "wheelchair": "no"}}, {"type": "node", "id": 8787410950, "lat": 40.7741425, "lon": -73.9814385, "tags": {"addr:housenumber": "156", "addr:street": "Columbus Avenue", "amenity": "cafe", "check_date": "2025-01-29", "diet:dairy_free": "yes", "diet:gluten_free": "yes", "diet:plant-based": "yes", "diet:vegan": "yes", "diet:vegetarian": "yes", "level": "0", "name": "Le Botaniste", "opening_hours": "Mo-Su 11:00-21:00", "outdoor_seating": "yes", "website": "https://lebotaniste.us/", "wheelchair": "yes"}}, {"type": "node", "id": 8787410955, "lat": 40.7740531, "lon": -73.9810324, "tags": {"entrance": "yes"}}, {"type": "node", "id": 9418170698, "lat": 40.7684638, "lon": -73.9814003}, {"type": "node", "id": 9441125200, "lat": 40.7723047, "lon": -73.9859504}, {"type": "node", "id": 9441125203, "lat": 40.7722949, "lon": -73.9859274}, {"type": "node", "id": 9902399057, "lat": 40.7739048, "lon": -73.9805864}, {"type": "node", "id": 9907374425, "lat": 40.7720251, "lon": -73.982395}, {"type": "node", "id": 9907374442, "lat": 40.7720592, "lon": -73.9825461}, {"type": "node", "id": 10078967833, "lat": 40.7700333, "lon": -73.9844008}, {"type": "node", "id": 10078967834, "lat": 40.7711868, "lon": -73.985817}, {"type": "node", "id": 10211295958, "lat": 40.7734229, "lon": -73.9838259}, {"type": "node", "id": 10211295960, "lat": 40.7732447, "lon": -73.9833589}, {"type": "node", "id": 10211295961, "lat": 40.7735437, "lon": -73.9837393}, {"type": "node", "id": 10211295962, "lat": 40.7733508, "lon": -73.9832781}, {"type": "node", "id": 10735919943, "lat": 40.7747748, "lon": -73.9853361, "tags": {"addr:city": "New York", "addr:housenumber": "122", "addr:postcode": "10023", "addr:state": "NY", "addr:street": "Amsterdam Avenue", "amenity": "school", "fax": "+1-212-501-1251", "grades": "9-12", "name": "High School for Law, Advocacy and Community Justice", "phone": "+1-212-501-1201", "ref": "M492", "religion": "none", "website": "https://lacjhs.org/", "wheelchair": "limited", "wikidata": "Q5756586", "wikipedia": "en:High School for Law, Advocacy, and Community Justice"}}, {"type": "node", "id": 10735919944, "lat": 40.7747743, "lon": -73.9852672, "tags": {"addr:city": "New York", "addr:housenumber": "122", "addr:postcode": "10023", "addr:state": "NY", "addr:street": "Amsterdam Avenue", "amenity": "school", "fax": "+1-212-799-4171", "grades": "9-12", "name": "The Maxine Greene High School for Imaginative Inquiry", "phone": "+1-212-799-4064", "ref": "M299", "religion": "none", "website": "https://www.mghs.nyc/", "wheelchair": "limited", "wikidata": "Q105285995"}}, {"type": "node", "id": 10735919945, "lat": 40.7747738, "lon": -73.9852069, "tags": {"addr:city": "New York", "addr:housenumber": "122", "addr:postcode": "10023", "addr:state": "NY", "addr:street": "Amsterdam Avenue", "amenity": "school", "grades": "9-12", "name": "Special Music School High School", "operator": "Kaufman Music Center", "ref": "M859", "religion": "none", "website": "https://www.kaufmanmusiccenter.org/sms/high-school/", "wheelchair": "limited"}}, {"type": "node", "id": 10735919946, "lat": 40.774774, "lon": -73.9852361, "tags": {"addr:city": "New York", "addr:housenumber": "122", "addr:postcode": "10023", "addr:state": "NY", "addr:street": "Amsterdam Avenue", "amenity": "school", "fax": "+1-212-580-0156", "grades": "9-12", "name": "The Urban Assembly School for Media Studies", "phone": "+1-212-501-1110", "ref": "M307", "religion": "none", "website": "https://www.uamhighschool.org/", "wheelchair": "limited", "wikidata": "Q105286382"}}, {"type": "node", "id": 11180433524, "lat": 40.7712828, "lon": -73.9845633, "tags": {"air_conditioning": "yes", "faculty": "business", "name": "Gabelli School of Business", "office": "educational_institution", "operator": "Fordham University", "operator:type": "ngo", "university": "faculty", "website": "https://www.fordham.edu/gabelli-school-of-business/", "wikidata": "Q5515370", "wikipedia": "en:Gabelli School of Business"}}, {"type": "node", "id": 11186999469, "lat": 40.7702631, "lon": -73.9845638}, {"type": "node", "id": 11350053978, "lat": 40.7752424, "lon": -73.9838474, "tags": {"amenity": "restaurant", "name": "El Fish"}}, {"type": "node", "id": 11359481056, "lat": 40.7647438, "lon": -73.9737496}, {"type": "node", "id": 11359481057, "lat": 40.7647331, "lon": -73.9737148, "tags": {"barrier": "kerb", "kerb": "lowered", "tactile_paving": "no", "wheelchair": "yes"}}, {"type": "node", "id": 11359481058, "lat": 40.7647275, "lon": -73.9736854}, {"type": "node", "id": 11359481059, "lat": 40.7647308, "lon": -73.9736453, "tags": {"barrier": "kerb", "kerb": "raised", "tactile_paving": "no", "wheelchair": "no"}}, {"type": "node", "id": 11359481060, "lat": 40.7647396, "lon": -73.9736203}, {"type": "node", "id": 11359481061, "lat": 40.7647514, "lon": -73.9735999}, {"type": "node", "id": 11359481062, "lat": 40.7658542, "lon": -73.9763836}, {"type": "node", "id": 11359481063, "lat": 40.7670323, "lon": -73.9791766}, {"type": "node", "id": 11359524187, "lat": 40.7651992, "lon": -73.9732538}, {"type": "node", "id": 11359524188, "lat": 40.765227, "lon": -73.9731998}, {"type": "node", "id": 11359524189, "lat": 40.7652342, "lon": -73.9731074}, {"type": "node", "id": 11359524190, "lat": 40.7652302, "lon": -73.9730738}, {"type": "node", "id": 11359524459, "lat": 40.7652163, "lon": -73.9732245, "tags": {"barrier": "kerb", "kerb": "flush", "tactile_paving": "no", "wheelchair": "yes"}}, {"type": "node", "id": 11427056758, "lat": 40.7968272, "lon": -73.9607174}, {"type": "node", "id": 11427056759, "lat": 40.7967535, "lon": -73.9607377}, {"type": "node", "id": 11427056760, "lat": 40.7968165, "lon": -73.9606922}, {"type": "node", "id": 11427056761, "lat": 40.7967641, "lon": -73.9607632}, {"type": "node", "id": 12025837049, "lat": 40.7747752, "lon": -73.9810652, "tags": {"addr:city": "New York", "addr:housenumber": "178", "addr:postcode": "10023", "addr:state": "NY", "addr:street": "Columbus Avenue", "addr:unit": "#237190 SMB#11943", "name": "TenX Funding", "office": "financial", "phone": "+1 917-773-8158", "website": "https://www.tenxfunding.com/"}}, {"type": "node", "id": 12086289679, "lat": 40.776121, "lon": -73.9837543, "tags": {"air_conditioning": "yes", "amenity": "cafe", "cuisine": "french", "level": "0", "name": "Le Petit Parisien", "outdoor_seating": "yes", "smoking": "no", "takeaway": "yes"}}, {"type": "node", "id": 12346955500, "lat": 40.7841556, "lon": -73.9587388, "tags": {"barrier": "entrance", "name": "Engineers' Gate"}}, {"type": "node", "id": 12347042901, "lat": 40.7917798, "lon": -73.9531128, "tags": {"barrier": "entrance", "name": "Girls' Gate"}}, {"type": "node", "id": 12833967952, "lat": 40.7727423, "lon": -73.9843575, "tags": {"addr:city": "New York", "addr:housenumber": "30", "addr:postcode": "10023-6980", "addr:state": "NY", "addr:street": "Lincoln Center Plaza", "air_conditioning": "yes", "contact:email": "MetropolitanOpera@metopera.org", "email": "MetropolitanOpera@metopera.org", "name": "Metropolitan Opera", "office": "ngo", "official_name": "Metropolitan Opera Association, Inc.", "phone": "+1-212-362-6000", "website": "https://www.metopera.org/", "wikidata": "Q10583424"}}, {"type": "node", "id": 12833967953, "lat": 40.7728685, "lon": -73.9830572, "tags": {"addr:city": "New York", "addr:housenumber": "10", "addr:postcode": "10023-6970", "addr:state": "NY", "addr:street": "Lincoln Center Plaza", "air_conditioning": "yes", "name": "New York Philharmonic", "office": "ngo", "official_name": "The Philharmonic-Symphony Society of New York, Inc.", "opening_hours": "Mo-Fr 09:30-17:30", "phone": "+1-212-875-5900", "smoking": "no", "website": "https://www.nyphil.org/", "wikidata": "Q471154"}}, {"type": "node", "id": 12834633388, "lat": 40.7707736, "lon": -73.9851134}, {"type": "node", "id": 12834633389, "lat": 40.7705646, "lon": -73.9847301}, {"type": "node", "id": 12834633390, "lat": 40.770422, "lon": -73.9848317}, {"type": "node", "id": 12834633391, "lat": 40.7704073, "lon": -73.9848087}, {"type": "node", "id": 12834633392, "lat": 40.7703588, "lon": -73.9848435}, {"type": "node", "id": 12834633393, "lat": 40.7702859, "lon": -73.9849724}, {"type": "node", "id": 12834633394, "lat": 40.7703749, "lon": -73.9848872}, {"type": "node", "id": 12834633395, "lat": 40.770264, "lon": -73.9849208}, {"type": "node", "id": 12834633396, "lat": 40.770307, "lon": -73.9848895}, {"type": "node", "id": 12834633397, "lat": 40.7707507, "lon": -73.9844983}, {"type": "node", "id": 12834633398, "lat": 40.7708097, "lon": -73.9844549}, {"type": "node", "id": 12834633399, "lat": 40.7708553, "lon": -73.9847166}, {"type": "node", "id": 12834633400, "lat": 40.7708441, "lon": -73.9847248}, {"type": "node", "id": 12848157435, "lat": 40.7719065, "lon": -73.9837608, "tags": {"addr:city": "New York", "addr:housenumber": "20", "addr:state": "NY", "addr:street": "Lincoln Center Plaza", "air_conditioning": "yes", "email": "info@nycballet.com", "name": "New York City Ballet", "office": "ngo", "phone": "+1-212-870-5656", "website": "https://www.nycballet.com/"}}, {"type": "node", "id": 12852256580, "lat": 40.7728312, "lon": -73.9856428, "tags": {"addr:city": "New York", "addr:housenumber": "85", "addr:postcode": "10023", "addr:state": "NY", "addr:street": "Amsterdam Avenue", "amenity": "parking_entrance", "parking": "underground"}}, {"type": "node", "id": 12852256582, "lat": 40.7727709, "lon": -73.9856868, "tags": {"addr:city": "New York", "addr:housenumber": "85", "addr:postcode": "10023", "addr:state": "NY", "addr:street": "Amsterdam Avenue", "amenity": "parking_entrance", "maxheight": "6'2\"", "parking": "underground", "ref": "3"}}, {"type": "node", "id": 12852256585, "lat": 40.772804, "lon": -73.9856627, "tags": {"sign": "yes"}}, {"type": "node", "id": 12856359605, "lat": 40.7712503, "lon": -73.9844632, "tags": {"addr:city": "New York", "addr:housenumber": "113", "addr:postcode": "10023", "addr:state": "NY", "addr:street": "West 60th Street", "addr:unit": "Room 804", "air_conditioning": "yes", "email": "gsbgraduate@fordham.edu", "name": "Graduate Academic Advising", "office": "educational_institution", "opening_hours": "Mo-Th 10:00-18:00; Fr 10:00-17:00; Sa-Su,PH off", "operator": "Gabelli School of Business", "operator:type": "ngo", "operator:wikidata": "Q5515370", "operator:wikipedia": "en:Gabelli School of Business", "phone": "+1-212-636-6104", "website": "https://www.fordham.edu/gabelli-school-of-business/student-and-career-resources/graduate-student-success-center/graduate-academic-advising/"}}, {"type": "node", "id": 12857802432, "lat": 40.7650993, "lon": -73.9726265}, {"type": "node", "id": 13150051545, "lat": 40.7703393, "lon": -73.9849213}, {"type": "node", "id": 13150051546, "lat": 40.7703426, "lon": -73.984929}, {"type": "node", "id": 13208006986, "lat": 40.7718054, "lon": -73.9827241}, {"type": "node", "id": 13208006987, "lat": 40.7716914, "lon": -73.9826408}, {"type": "node", "id": 13208006994, "lat": 40.7720142, "lon": -73.9825777}, {"type": "node", "id": 13208006999, "lat": 40.7719847, "lon": -73.9823934}, {"type": "node", "id": 13337433959, "lat": 40.7716103, "lon": -73.9851449, "tags": {"addr:city": "New York", "addr:housenumber": "150", "addr:postcode": "10023", "addr:state": "NY", "addr:street": "West 62nd Street", "addr:unit": "Room 4-104", "air_conditioning": "yes", "fax": "+1-212-636-7984", "name": "Admissions, Fordham University School of Law", "office": "educational_institution", "operator": "Fordham University School of Law", "operator:type": "ngo", "operator:wikidata": "Q5468082", "phone": "+1-212-636-6810", "website": "http://law.fordham.edu/admissions/admissions.htm"}}, {"type": "way", "id": 108199253, "nodes": [1241742463, 1241742443, 7448783486, 7448738073, 11186999469, 7712324738, 8676382821, 8676382818, 12834633396, 12834633395, 12834633393, 13150051546, 13150051545, 12834633394, 12834633392, 12834633391, 12834633390, 12834633389, 1241742650, 1241742436, 12834633388, 1241742696, 1241742731, 1241742735, 1241742582, 12834633399, 12834633400, 12834633397, 12834633398, 1241742463], "tags": {"layer": "1", "leisure": "park", "level": "1", "name": "Robert Moses Plaza", "operator": "Fordham University", "operator:type": "ngo", "operator:wikidata": "Q130965", "operator:wikipedia": "en:Fordham University"}}, {"type": "way", "id": 108199259, "nodes": [3220130736, 7448738070, 7448738072, 10078967833, 7504586055, 7474729993, 7474730023, 3272863061, 3272863063, 7474716551, 6473165621, 6473165620, 6469023499, 6469023503, 6469023502, 6469023500, 6469023496, 6469023488, 6469023487, 10078967834, 6452665615, 3220130727, 3220130730, 3220130734, 3220130736], "tags": {"addr:city": "New York", "addr:postcode": "10023", "addr:state": "NY", "amenity": "university", "denomination": "catholic", "education": "university", "internet_access": "wlan", "name": "Fordham University Lincoln Center Campus", "operator": "Fordham University", "operator:type": "ngo", "operator:wikidata": "Q130965", "operator:wikipedia": "en:Fordham University", "religion": "christian", "website": "https://www.fordham.edu/info/21454/lincoln_center_campus"}}, {"type": "way", "id": 108199260, "nodes": [1241742474, 1241742732, 1241742598, 1241742578, 8695205603, 1241742512, 1241742735, 1241742582, 1241742673, 1241742474], "tags": {"layer": "1", "leisure": "park", "level": "1", "name": "St. Peter's Garden", "operator": "Fordham University", "operator:type": "ngo", "operator:wikidata": "Q130965", "operator:wikipedia": "en:Fordham University", "surface": "grass"}}, {"type": "way", "id": 117994217, "nodes": [3369597713, 12852256582, 12852256585, 12852256580, 6463515501, 3369597712, 3369597128, 6463515498, 6463515499, 3371304151, 6465822069, 6463515500, 7604105035, 7449177918, 1328047198, 7449177919, 7449177922, 7449177923, 7449177926, 7449177927, 7449177930, 7449177931, 3369582870, 6465822066, 6463515528, 1241760158, 6463515522, 1241760163, 6463515518, 6463515519, 7449171504, 7449171500, 3369582874, 3369597710, 6456605727, 6463515509, 7449177975, 7449177974, 6463515508, 6463515512, 6463515507, 6463515506, 6463515511, 6463515505, 7449177971, 7449177970, 6463515504, 6463515510, 6463515503, 7449171578, 7449171579, 6458963418, 9441125203, 9441125200, 3369597713], "tags": {"addr:city": "New York", "addr:postcode": "10023", "addr:state": "NY", "addr:street": "West 62nd Street", "ele": "22", "gnis:feature_id": "2044307", "leisure": "park", "name": "Damrosch Park", "opening_hours": "Mo-Su 06:00-01:00", "operator": "Lincoln Center for the Performing Arts", "operator:wikidata": "Q581044", "owner": "New York City Department of Parks and Recreation", "owner:short": "NYC Parks", "owner:wikidata": "Q1894232", "smoking": "no", "surface": "paved", "website": "https://www.nycgovparks.org/parks/M231/", "wikidata": "Q14706233", "wikipedia": "en:Damrosch Park"}}, {"type": "way", "id": 154416663, "nodes": [5117972564, 13208006987, 5117972565, 13208006986, 13208006994, 9907374442, 4637270103, 9907374425, 13208006999, 5117972564], "tags": {"leisure": "park", "name": "Dante Park", "name:etymology:wikidata": "Q1067", "operator": "New York City Department of Parks and Recreation", "operator:short": "NYC Parks", "operator:type": "government", "operator:wikidata": "Q1894232", "website": "https://www.nycgovparks.org/parks/dante-park", "wheelchair": "yes", "wikidata": "Q5221180", "wikipedia": "en:Dante Park"}}, {"type": "way", "id": 154416666, "nodes": [1669534147, 1669534142, 419364557, 1669534147], "tags": {"addr:city": "New York", "addr:state": "NY", "leisure": "park", "name": "Richard Tucker Square", "name:etymology:wikidata": "Q943463", "smoking": "no", "website": "https://www.nycgovparks.org/parks/richard-tucker-square", "wikidata": "Q115683375"}}, {"type": "way", "id": 177068788, "nodes": [3369597109, 10211295961, 10211295958, 3369589607, 3369589609, 3369589611, 10211295960, 10211295962, 3369589610, 3369597109], "tags": {"layer": "1", "leisure": "park", "level": "1", "name": "Laurie M. Tisch Illumination Lawn", "name:etymology:wikidata": "Q107071509", "operator": "Lincoln Center for the Performing Arts", "smoking": "no", "surface": "grass", "wheelchair": "no"}}, {"type": "way", "id": 269219550, "nodes": [2744929545, 2744929474, 2744929547, 2744929561, 2744929548, 2744929556, 2744929545], "tags": {"addr:housenumber": "47", "addr:postcode": "10023", "addr:street": "West 66th Street", "building": "yes", "check_date": "2023-10-01", "height": "61.4", "name": "ABC News Headquarters", "nycdoitt:bin": "1081016", "office": "company"}}, {"type": "way", "id": 269219555, "nodes": [2744929567, 2744929611, 2744929640, 2744929613, 2744929567], "tags": {"addr:housenumber": "147", "addr:postcode": "10023", "addr:street": "Columbus Avenue", "building": "yes", "height": "44.0", "nycdoitt:bin": "1075637", "office": "company"}}, {"type": "way", "id": 269219599, "nodes": [2744929613, 2744929640, 8787410955, 2744929645, 9902399057, 2744929643, 2744929636, 2744929613], "tags": {"building": "yes", "height": "30.4", "name": "ABC", "nycdoitt:bin": "1028235", "office": "company"}}, {"type": "way", "id": 269227119, "nodes": [2744978935, 2744978940, 2744978933, 2744978908, 2744978903, 2744978884, 2744978899, 2744978893, 2744978907, 2744978913, 2744978922, 2744978959, 2744978963, 2744978965, 2744978971, 2744978986, 2744978988, 2744978961, 2744978958, 2744978935], "tags": {"addr:city": "New York", "addr:housenumber": "40", "addr:state": "NY", "addr:street": "West 68th Street", "amenity": "school", "building": "school", "gnis:feature_id": "2084026", "height": "19.3", "mascot": "Panthers", "name": "York Preparatory School", "nycdoitt:bin": "1028250", "website": "https://www.yorkprep.org/", "wikidata": "Q8055513", "wikipedia": "en:York Preparatory School"}}, {"type": "way", "id": 427818536, "nodes": [6991136395, 6991136391, 6991124651, 6991136407, 6991136419, 6991124639, 6991124627, 6991136417, 6991136393, 6991136389, 6991136400, 6991124681, 6991124669, 6991124635, 6991136436, 6991136425, 6991136413, 6991124665, 6991124654, 6991124641, 6991124630, 6991124676, 6991124646, 6991124658, 6991400337, 6991400366, 6991414897, 6991400329, 6991400360, 6991414890, 6991400322, 6991400355, 6991400384, 6991400316, 6991400383, 6991400315, 6991400348, 6991400378, 6991400312, 6991400309, 6991400323, 6991400317, 6991400350, 6991400339, 6991400380, 12347042901, 6991400313, 6991400368, 6991400345, 6991400374, 6991414898, 6991400367, 6991400308, 12346955500, 6991400379, 7093980567, 6991400344, 6991414892, 6991400324, 7093980560, 8032579495, 3392519827, 3392519825, 3392519829, 3392519847, 3392519860, 3392519861, 8039941085, 7785624629, 7785624644, 7785624681, 7785624660, 7785624616, 6991414900, 6991400375, 7785624620, 6991400370, 6991400307, 6991414894, 6991400319, 6991414887, 6991400326, 6991400346, 6991400314, 6991400342, 3602661071, 6991400371, 6991414901, 3602661070, 6991400334, 7830757207, 42453674, 12857802432, 42453676, 2902437013, 11359524190, 11359524189, 42433870, 11359524188, 11359524459, 11359524187, 1283225217, 4347535694, 11359481061, 11359481060, 11359481059, 11359481058, 11359481057, 11359481056, 11359481062, 11359481063, 1659428983, 2553978278, 4347550072, 7830757189, 1659429013, 6991124653, 6838446021, 1659429064, 6838446017, 6991124664, 1659429078, 1825841723, 1659429162, 6838446016, 1659429202, 6991124629, 1659429228, 9418170698, 4347550058, 1659429258, 4347550067, 4997760450, 2710141721, 2710141733, 6991124650, 6991136385, 6991136397, 6991136409, 6991136421, 6991124631, 6991136432, 6991136410, 6991136433, 6991136422, 6991124677, 6991124666, 6991124632, 6991124643, 6794406110, 6991136390, 6991136426, 6991136437, 6991124636, 7104620799, 6991124659, 6991124682, 6991136394, 7146903295, 6991136418, 6991136430, 6991124640, 6991124628, 6991124652, 6991124663, 6991124674, 7146903298, 6991136387, 7120586338, 6794406099, 6991136398, 6991136386, 6991136424, 6991124673, 6991136411, 6991136423, 6991124633, 6991124644, 6991124656, 6991124667, 11427056761, 11427056759, 11427056760, 11427056758, 6991124679, 6991136403, 6991136416, 6991136428, 6991136439, 6991136435, 6991124638, 6991124649, 6991124634, 6991124661, 6991124645, 6991124672, 6991124684, 6991124657, 6991124678, 6991124668, 6991124680, 6991136392, 6991124662, 6991136404, 6991136438, 6991136427, 6991124637, 6991136415, 6991124648, 6991124660, 6991124671, 6991136408, 6991124683, 6991136402, 6991136395], "tags": {"access": "yes", "addr:city": "New York", "addr:state": "NY", "architect": "Frederick Law Olmsted;Calvert Vaux", "check_date": "2025-05-06", "check_date:opening_hours": "2021-05-01", "contact:facebook": "https://www.facebook.com/CentralParkNYC/", "contact:instagram": "https://www.instagram.com/centralparknyc/", "contact:pinterest": "https://www.pinterest.com/centralparknyc", "contact:tiktok": "https://www.tiktok.com/@centralparknyc", "contact:twitter": "https://twitter.com/centralparknyc/", "contact:youtube": "https://www.youtube.com/user/CentralParkChannel", "dog": "leashed", "heritage": "2", "heritage:operator": "nrhp", "heritage:website": "https://www.nps.gov/subjects/nationalregister/index.htm", "leisure": "park", "name": "Central Park", "name:be": "\u0426\u044d\u043d\u0442\u0440\u0430\u043b\u044c\u043d\u044b \u043f\u0430\u0440\u043a", "name:el": "\u039a\u03b5\u03bd\u03c4\u03c1\u03b9\u03ba\u03cc \u03c0\u03ac\u03c1\u03ba\u03bf", "name:en": "Central Park", "name:fa": "\u067e\u0627\u0631\u06a9 \u0645\u0631\u06a9\u0632\u06cc", "name:he": "\u05e1\u05e0\u05d8\u05e8\u05dc \u05e4\u05d0\u05e8\u05e7", "name:hi": "\u0938\u0947\u0902\u091f\u094d\u0930\u0932 \u092a\u093e\u0930\u094d\u0915", "name:ja": "\u4e2d\u592e\u516c\u5712", "name:kn": "\u0cb8\u0cc6\u0c82\u0c9f\u0ccd\u0cb0\u0cb2\u0ccd \u0caa\u0cbe\u0cb0\u0ccd\u0c95\u0ccd", "name:ko": "\uc13c\ud2b8\ub7f4 \ud30c\ud06c", "name:lt": "Centrinis parkas", "name:ru": "\u0426\u0435\u043d\u0442\u0440\u0430\u043b\u044c\u043d\u044b\u0439 \u043f\u0430\u0440\u043a", "name:sr": "\u0426\u0435\u043d\u0442\u0440\u0430\u043b \u043f\u0430\u0440\u043a", "name:sr-Latn": "Central park", "name:tr": "Central Park", "name:vi": "C\u00f4ng vi\u00ean Trung t\u00e2m", "name:zh": "\u4e2d\u592e\u516c\u56ed", "nrhp:inscription_date": "1966-10-15", "nrhp:nhl": "yes", "nrhp:nhl:inscription_date": "1963-05-23", "opening_hours": "06:00-01:00", "operator": "Central Park Conservancy", "operator:type": "ngo", "owner": "New York City Department of Parks and Recreation", "owner:short": "NYC Parks", "owner:wikidata": "Q1894232", "ref:nrhp": "66000538", "smoking": "no", "start_date": "1858", "website": "https://www.centralparknyc.org", "wikidata": "Q160409", "wikipedia": "en:Central Park"}}, {"type": "way", "id": 705304809, "nodes": [2710077093, 6625281401, 6625281402, 2710077066, 2710077086, 2710077093], "tags": {"addr:city": "New York", "addr:housenumber": "1886", "addr:postcode": "10023", "addr:state": "NY", "addr:street": "Broadway", "architect": "Philip Birnbaum", "architect:wikidata": "Q45940822", "architect:wikipedia": "en:Philip Birnbaum (architect)", "leisure": "park", "name": "30 Lincoln Plaza", "opening_hours": "8:00-23:00", "start_date": "1978", "website": "https://capitalplanning.nyc.gov/pops/M070015#16.52/40.76956/-73.98279"}}, {"type": "way", "id": 796338415, "nodes": [7447580948, 7447580938], "tags": {"denotation": "park", "leaf_cycle": "deciduous", "leaf_type": "broadleaved", "lit": "yes", "natural": "tree_row"}}, {"type": "way", "id": 796338416, "nodes": [7447580947, 7447580937], "tags": {"denotation": "park", "leaf_cycle": "deciduous", "leaf_type": "broadleaved", "lit": "yes", "natural": "tree_row"}}, {"type": "way", "id": 796338417, "nodes": [7447580903, 7447580946], "tags": {"denotation": "park", "leaf_cycle": "deciduous", "leaf_type": "broadleaved", "lit": "yes", "natural": "tree_row"}}, {"type": "way", "id": 796338418, "nodes": [7447580931, 7447580920], "tags": {"denotation": "park", "leaf_cycle": "deciduous", "leaf_type": "broadleaved", "lit": "yes", "natural": "tree_row"}}, {"type": "way", "id": 796338419, "nodes": [7447580916, 7447580905], "tags": {"denotation": "park", "leaf_cycle": "deciduous", "leaf_type": "broadleaved", "lit": "yes", "natural": "tree_row"}}, {"type": "way", "id": 796338421, "nodes": [7447580930, 7447580919, 7447580914, 7447580909], "tags": {"denotation": "park", "leaf_cycle": "deciduous", "leaf_type": "broadleaved", "lit": "yes", "natural": "tree_row"}}, {"type": "way", "id": 796338423, "nodes": [7447580915, 7447580904], "tags": {"denotation": "park", "leaf_cycle": "deciduous", "leaf_type": "broadleaved", "lit": "yes", "natural": "tree_row"}}, {"type": "relation", "id": 11037505, "members": [{"type": "node", "ref": 7447580908, "role": "part"}, {"type": "node", "ref": 3369582884, "role": "part"}, {"type": "node", "ref": 7447580935, "role": "part"}, {"type": "node", "ref": 7447580902, "role": "part"}, {"type": "node", "ref": 7447580929, "role": "part"}, {"type": "node", "ref": 3369582885, "role": "part"}, {"type": "node", "ref": 7447580898, "role": "part"}, {"type": "node", "ref": 3369582883, "role": "part"}, {"type": "node", "ref": 7447580945, "role": "part"}, {"type": "way", "ref": 796338418, "role": "part"}, {"type": "way", "ref": 796338415, "role": "part"}, {"type": "way", "ref": 796338416, "role": "part"}, {"type": "way", "ref": 796338421, "role": "part"}, {"type": "way", "ref": 796338419, "role": "part"}, {"type": "way", "ref": 796338423, "role": "part"}, {"type": "way", "ref": 796338417, "role": "part"}, {"type": "node", "ref": 7447580924, "role": "part"}], "tags": {"leisure": "park", "name": "Charles B. Benenson Grove", "type": "site"}}]}