{"version": 0.6, "generator": "Overpass API 0.7.62.8 e802775f", "osm3s": {"timestamp_osm_base": "2025-12-01T15:34:30Z", "copyright": "The data included in this document is from www.openstreetmap.org. The data is made available under ODbL."}, "elements": [{"type": "node", "id": 276318205, "lat": 40.7443728, "lon": -73.9559036}, {"type": "node", "id": 276318206, "lat": 40.7441991, "lon": -73.955968}, {"type": "node", "id": 276318207, "lat": 40.7437954, "lon": -73.9538713}, {"type": "node", "id": 276318208, "lat": 40.7439652, "lon": -73.9538181}, {"type": "node", "id": 357586417, "lat": 40.7430624, "lon": -73.9531269, "tags": {"addr:housenumber": "10-08", "addr:postcode": "11101", "addr:street": "49th Avenue", "amenity": "school", "ele": "5", "gnis:feature_id": "963971", "name": "Saint Marys School"}}, {"type": "node", "id": 357628994, "lat": 40.7418238, "lon": -73.9512366}, {"type": "node", "id": 2034007314, "lat": 40.7420719, "lon": -73.9541762}, {"type": "node", "id": 2034007316, "lat": 40.742096, "lon": -73.9542741}, {"type": "node", "id": 2034007320, "lat": 40.7425156, "lon": -73.9540302}, {"type": "node", "id": 2034007330, "lat": 40.7426287, "lon": -73.9540614}, {"type": "node", "id": 2034007332, "lat": 40.7426353, "lon": -73.9540965}, {"type": "node", "id": 2064133525, "lat": 40.742658, "lon": -73.954324, "tags": {"addr:city": "Long Island City", "addr:housenumber": "5007", "addr:postcode": "11101", "addr:street": "Vernon Boulevard", "amenity": "pub", "check_date": "2023-08-23", "food": "yes", "name": "P.J. Leahy's", "outdoor_seating": "no", "smoking": "no"}}, {"type": "node", "id": 2473480003, "lat": 40.7437991, "lon": -73.9538874}, {"type": "node", "id": 2473480005, "lat": 40.743924, "lon": -73.9545417}, {"type": "node", "id": 2473480007, "lat": 40.7442442, "lon": -73.955968}, {"type": "node", "id": 2473480009, "lat": 40.7442808, "lon": -73.9559532}, {"type": "node", "id": 2473480011, "lat": 40.7443136, "lon": -73.9559197}, {"type": "node", "id": 2473480013, "lat": 40.7443296, "lon": -73.9559011}, {"type": "node", "id": 2473480019, "lat": 40.7441589, "lon": -73.9557496}, {"type": "node", "id": 2473480021, "lat": 40.7441718, "lon": -73.9558207}, {"type": "node", "id": 2473480027, "lat": 40.7441412, "lon": -73.9556587}, {"type": "node", "id": 2473480029, "lat": 40.7441545, "lon": -73.9557272}, {"type": "node", "id": 2473480035, "lat": 40.7441238, "lon": -73.9555694}, {"type": "node", "id": 2473480037, "lat": 40.7441371, "lon": -73.9556378}, {"type": "node", "id": 2473480043, "lat": 40.7441053, "lon": -73.9554773}, {"type": "node", "id": 2473480045, "lat": 40.7441184, "lon": -73.9555485}, {"type": "node", "id": 2477804776, "lat": 40.7420563, "lon": -73.9542347}, {"type": "node", "id": 2477804777, "lat": 40.7420635, "lon": -73.9542594}, {"type": "node", "id": 2477804778, "lat": 40.742075, "lon": -73.9542765}, {"type": "node", "id": 2477804779, "lat": 40.7420556, "lon": -73.9542072}, {"type": "node", "id": 2477804781, "lat": 40.7420581, "lon": -73.9541863}, {"type": "node", "id": 2847059239, "lat": 40.7420058, "lon": -73.9560711}, {"type": "node", "id": 2847059251, "lat": 40.7420381, "lon": -73.9562398}, {"type": "node", "id": 2847059412, "lat": 40.7421379, "lon": -73.9562067}, {"type": "node", "id": 2847059437, "lat": 40.7422516, "lon": -73.9560188}, {"type": "node", "id": 2847059439, "lat": 40.7422644, "lon": -73.9560859}, {"type": "node", "id": 2847059440, "lat": 40.742269, "lon": -73.955984}, {"type": "node", "id": 2847059442, "lat": 40.7422743, "lon": -73.9560113}, {"type": "node", "id": 2847059443, "lat": 40.7422871, "lon": -73.9560783}, {"type": "node", "id": 2847059444, "lat": 40.7422909, "lon": -73.9561114}, {"type": "node", "id": 2847059446, "lat": 40.7422933, "lon": -73.9561106}, {"type": "node", "id": 2847059447, "lat": 40.742299, "lon": -73.9561534}, {"type": "node", "id": 2847083631, "lat": 40.743982, "lon": -73.950228, "tags": {"addr:housenumber": "12-23", "addr:postcode": "11101", "addr:street": "Jackson Avenue", "amenity": "restaurant", "name": "Bierocracy"}}, {"type": "node", "id": 2847083646, "lat": 40.7441929, "lon": -73.9534569, "tags": {"addr:housenumber": "47-45", "addr:postcode": "11101", "addr:street": "Vernon Boulevard", "amenity": "restaurant", "cuisine": "thai", "name": "Spice"}}, {"type": "node", "id": 2847083652, "lat": 40.7427676, "lon": -73.9538441, "tags": {"addr:city": "Long Island City", "addr:housenumber": "10-01", "addr:postcode": "11101", "addr:state": "NY", "addr:street": "50th Avenue", "amenity": "restaurant", "cuisine": "diner", "name": "Dorian Cafe", "phone": "+1-718-937-1120", "website": "https://doriancafenewyork.com/"}}, {"type": "node", "id": 2847083667, "lat": 40.7433617, "lon": -73.9542277, "tags": {"addr:city": "Long Island City", "addr:housenumber": "5-48", "addr:postcode": "11101", "addr:state": "NY", "addr:street": "49th Avenue", "amenity": "restaurant", "cuisine": "latin_american", "name": "Casa Enrique", "phone": "+1-347-448-6040", "website": "https://henrinyc.com/casa-enrique/"}}, {"type": "node", "id": 2987791520, "lat": 40.7421388, "lon": -73.9514901}, {"type": "node", "id": 2987791521, "lat": 40.7420657, "lon": -73.9511508}, {"type": "node", "id": 2987791522, "lat": 40.7420169, "lon": -73.9511038}, {"type": "node", "id": 2987791523, "lat": 40.7419051, "lon": -73.9511494}, {"type": "node", "id": 2987791525, "lat": 40.741771, "lon": -73.9513801}, {"type": "node", "id": 2987791526, "lat": 40.7417425, "lon": -73.9515115}, {"type": "node", "id": 2987791527, "lat": 40.7417445, "lon": -73.9516237}, {"type": "node", "id": 2987791528, "lat": 40.7418584, "lon": -73.951187}, {"type": "node", "id": 2987791529, "lat": 40.7417944, "lon": -73.951305}, {"type": "node", "id": 2987791530, "lat": 40.7417558, "lon": -73.9514378}, {"type": "node", "id": 2987791531, "lat": 40.7417395, "lon": -73.9515571}, {"type": "node", "id": 2987791532, "lat": 40.7420494, "lon": -73.9511159}, {"type": "node", "id": 3865005275, "lat": 40.743271, "lon": -73.95158, "tags": {"addr:housenumber": "10-93", "addr:postcode": "11101", "addr:street": "Jackson Avenue", "amenity": "cafe", "branch": "Jackson Avenue", "email": "sweetleafLIC@gmail.com", "facebook": "sweetleaf.lic", "instagram": "sweetleafnyc", "name": "Sweetleaf", "opening_hours": "Mo-Fr 07:00-19:00; Sa, Su 08:00-19:00", "phone": "+1 917-832-6726", "start_date": "2008", "twitter": "sweetleafLIC", "website": "https://www.sweetleafcoffee.com/pages/jackson-avenue"}}, {"type": "node", "id": 3865170361, "lat": 40.7427545, "lon": -73.9518864, "tags": {"amenity": "restaurant", "cuisine": "italian", "name": "Manetta's Ristorante"}}, {"type": "node", "id": 4744338823, "lat": 40.7423375, "lon": -73.9553503, "tags": {"addr:postcode": "11101", "amenity": "cafe", "internet_access": "wlan", "name": "51st Bakery & Cafe", "opening_hours": "Mo-Th 07:30-17:00; Fr 07:30-18:00; Sa 07:30-19:00; Su 07:30-18:00", "phone": "+1-718-707-0554", "website": "http://www.51stbakeryandcafe.com"}}, {"type": "node", "id": 4767635212, "lat": 40.7438006, "lon": -73.9514397, "tags": {"addr:housenumber": "47-46", "addr:street": "11th Street", "amenity": "restaurant", "cuisine": "peruvian", "name": "Jora", "phone": "+1-718-392-2033", "website": "https://www.jorany.com/"}}, {"type": "node", "id": 4767635213, "lat": 40.7446342, "lon": -73.9518851, "tags": {"addr:housenumber": "10-39", "addr:street": "47th Road", "amenity": "restaurant", "cuisine": "chinese", "name": "Noodlecraft", "opening_hours": "Mo, We-Fr, Su 12:00-20:00; Th-Sa 12:00-20:30", "phone": "+1 718-392-3555", "takeaway": "yes", "website": "https://www.noodlecraftqueens.com/"}}, {"type": "node", "id": 4768083424, "lat": 40.7443887, "lon": -73.9533271, "tags": {"office": "estate_agent"}}, {"type": "node", "id": 4768083425, "lat": 40.7445356, "lon": -73.9533203, "tags": {"amenity": "restaurant", "name": "New City Chinese"}}, {"type": "node", "id": 4768083426, "lat": 40.7445922, "lon": -73.9532693, "tags": {"addr:city": "Long Island City", "addr:housenumber": "47-29", "addr:postcode": "11101", "addr:state": "NY", "addr:street": "Vernon Boulevard", "amenity": "restaurant", "cuisine": "cuban", "name": "Madera Cuban Grill", "phone": "+1-718-606-1236", "website": "http://www.maderacubangrill.com"}}, {"type": "node", "id": 4768241540, "lat": 40.7449291, "lon": -73.9535546, "tags": {"amenity": "restaurant", "name": "Corner Bistro", "wheelchair": "yes"}}, {"type": "node", "id": 4768241543, "lat": 40.7437118, "lon": -73.9536207, "tags": {"addr:housenumber": "48-11", "addr:postcode": "11101", "addr:street": "Vernon Boulevard", "amenity": "restaurant", "cuisine": "pizza", "delivery": "yes", "name": "Slice", "outdoor_seating": "yes", "phone": "+1 718-937-5423", "takeaway": "yes"}}, {"type": "node", "id": 4770094251, "lat": 40.7446623, "lon": -73.9536385, "tags": {"amenity": "restaurant", "cuisine": "italian", "name": "Tutti Matti"}}, {"type": "node", "id": 4770094252, "lat": 40.7445767, "lon": -73.9536537, "tags": {"amenity": "restaurant", "name": "Gizi Wine, Cheese, Chocolate"}}, {"type": "node", "id": 4770094253, "lat": 40.7445395, "lon": -73.9536714, "tags": {"amenity": "restaurant", "name": "Tamashi Ramen"}}, {"type": "node", "id": 4770094254, "lat": 40.7445097, "lon": -73.9536773, "tags": {"office": "estate_agent"}}, {"type": "node", "id": 4770094255, "lat": 40.7443394, "lon": -73.9537345, "tags": {"office": "estate_agent"}}, {"type": "node", "id": 4770094256, "lat": 40.7444679, "lon": -73.9536832, "tags": {"amenity": "restaurant", "cuisine": "sushi"}}, {"type": "node", "id": 4995779506, "lat": 40.7452856, "lon": -73.9515295, "tags": {"name": "Juice Generation Training Center", "office": "yes"}}, {"type": "node", "id": 4995779924, "lat": 40.7452114, "lon": -73.9534365, "tags": {"amenity": "restaurant", "cuisine": "american", "name": "Woodbrine's"}}, {"type": "node", "id": 4995779925, "lat": 40.7451445, "lon": -73.9534523, "tags": {"name": "Halstead Property", "office": "estate_agent"}}, {"type": "node", "id": 4995779929, "lat": 40.7449402, "lon": -73.9531923, "tags": {"addr:city": "Long Island City", "addr:housenumber": "47-23", "addr:state": "NY", "addr:street": "Vernon Boulevard", "amenity": "restaurant", "cuisine": "pizza", "indoor_seating": "yes", "name": "Centro Pizza Bar & Italian Kitchen", "opening_hours": "Su-Th 10:00-22:00; Fr,Sa 10:00-23:00", "outdoor_seating": "yes"}}, {"type": "node", "id": 5057453978, "lat": 40.7425569, "lon": -73.953817, "tags": {"addr:city": "Long Island City", "addr:housenumber": "10-10", "addr:street": "Vernon Boulevard", "amenity": "restaurant", "cuisine": "french", "name": "Cafe Henri", "website": "https://henrinyc.com/cafe-henri/"}}, {"type": "node", "id": 5096342022, "lat": 40.7424531, "lon": -73.9532705, "tags": {"amenity": "bar", "name": "Jackson's"}}, {"type": "node", "id": 5159857122, "lat": 40.7426159, "lon": -73.9543343, "tags": {"addr:postcode": "11101", "amenity": "bar", "check_date": "2023-08-23", "name": "Domaine", "name:en": "Domaine bar a vins", "opening_hours": "Mo-Su 17:00-01:00", "phone": "+1-718-784-2350", "website": "https://www.domainewinebar.com/"}}, {"type": "node", "id": 5291959027, "lat": 40.7443513, "lon": -73.9557934}, {"type": "node", "id": 5291959028, "lat": 40.7441784, "lon": -73.9558565}, {"type": "node", "id": 5291959036, "lat": 40.7432002, "lon": -73.9540984, "tags": {"addr:city": "Long Island City", "addr:housenumber": "49-06", "addr:postcode": "11101", "addr:state": "NY", "addr:street": "Vernon Boulevard", "amenity": "restaurant", "cuisine": "thai", "name": "Tuk Tuk", "website": "https://www.tuktukny.com/"}}, {"type": "node", "id": 5346071954, "lat": 40.744297, "lon": -73.9538879, "tags": {"addr:housenumber": "47-46", "addr:street": "Vernon Boulevard", "name": "Savignano Accountant & Advisors", "office": "accountant", "phone": "+1-718-707-0955"}}, {"type": "node", "id": 5440512346, "lat": 40.742341, "lon": -73.9525773, "tags": {"addr:housenumber": "10-46", "addr:postcode": "11101", "addr:street": "Jackson Avenue", "amenity": "restaurant", "cuisine": "japanese", "level": "0", "name": "Sushi of Miso", "opening_hours": "Tu-Sa 11:00-21:15; Su 13:00-21:15", "phone": "+1 718-736-3065", "takeaway": "yes", "website": "https://www.sushiofmisolic.com/"}}, {"type": "node", "id": 5446493018, "lat": 40.743502, "lon": -73.9536871, "tags": {"addr:housenumber": "48-19", "addr:postcode": "11101", "addr:street": "Vernon Boulevard", "amenity": "restaurant", "cuisine": "burger", "name": "Bareburger", "opening_hours": "Mo-Th 11:30-22:00; Fr 11:30-23:00; Sa 11:00-23:00; Su 11:00-22:00", "operator": "Bareburger", "phone": "+1-718-937-2273", "website": "https://bareburger.com/"}}, {"type": "node", "id": 5978556740, "lat": 40.7435607, "lon": -73.9540049, "tags": {"amenity": "restaurant", "name": "Vernon Grille"}}, {"type": "node", "id": 6593095856, "lat": 40.742432, "lon": -73.9533775, "tags": {"brand": "State Farm", "brand:wikidata": "Q2007336", "name": "State Farm", "office": "insurance"}}, {"type": "node", "id": 6594768414, "lat": 40.7427487, "lon": -73.9527155, "tags": {"amenity": "restaurant", "name": "BANY 10-57", "phone": "+1-718-383-2388", "website": "banyny.com"}}, {"type": "node", "id": 6595131965, "lat": 40.7427742, "lon": -73.953543, "tags": {"amenity": "restaurant", "cuisine": "mexican", "name": "Corozon Mexico", "website": "https://www.corazondemexicolic.com/"}}, {"type": "node", "id": 6793340012, "lat": 40.7428867, "lon": -73.9568157, "tags": {"addr:city": "Long Island City", "addr:floor": "2", "addr:housenumber": "50-02", "addr:postcode": "11101", "addr:state": "NY", "addr:street": "5th Street", "name": "Plumbers Local 1", "office": "union", "phone": "+1-718-738-7500", "website": "https://www.ualocal1.org/"}}, {"type": "node", "id": 8335033421, "lat": 40.7435557, "lon": -73.9536593, "tags": {"addr:housenumber": "48-17", "addr:postcode": "11101", "addr:street": "Vernon Boulevard", "amenity": "bar", "happy_hours": "Mo-Fr 16:00-20:00", "level": "0", "name": "Dominie's Hoek", "outdoor_seating": "yes", "wheelchair": "yes"}}, {"type": "node", "id": 9104671450, "lat": 40.7443565, "lon": -73.9542634, "tags": {"addr:city": "Long Island City", "addr:housenumber": "5-43", "addr:postcode": "11101", "addr:state": "NY", "addr:street": "48th Avenue", "amenity": "cafe", "delivery": "yes", "email": "info@littlecheflittlecafe.com", "name": "Little Chef Little Caf\u00e9", "opening_hours": "Mo-Fr 08:00-20:00; Sa 09:00-20:00; Su 09:00-17:00", "phone": "+1-845-310-4255", "website": "https://www.littlecheflittlecafe.com"}}, {"type": "node", "id": 10225954379, "lat": 40.7426774, "lon": -73.952036, "tags": {"amenity": "restaurant", "cuisine": "japanese", "name": "Hibino", "takeaway": "yes"}}, {"type": "node", "id": 11139363699, "lat": 40.7427336, "lon": -73.9546703, "tags": {"addr:housenumber": "5-50", "addr:street": "50th Avenue", "amenity": "restaurant", "cuisine": "japanese", "name": "Takumen", "website": "http://www.takumenlic.com/"}}, {"type": "node", "id": 11211160464, "lat": 40.7421082, "lon": -73.954166}, {"type": "node", "id": 11660279301, "lat": 40.7430058, "lon": -73.9538492, "tags": {"addr:housenumber": "49-11", "addr:street": "Vernon Boulevard", "amenity": "restaurant", "contact:email": "info@yumpling.com", "contact:facebook": "yumpling", "contact:instagram": "yumpling", "cuisine": "taiwanese", "delivery": "yes", "name": "Yumpling", "opening_hours": "We-Su 11:30-20:00", "phone": "+1 718-713-1839", "takeaway": "yes", "website": "https://yumpling.com/", "wheelchair": "yes"}}, {"type": "node", "id": 11660392215, "lat": 40.74232, "lon": -73.9525613, "tags": {"addr:housenumber": "10-50", "addr:postcode": "11101", "addr:street": "Jackson Avenue", "amenity": "restaurant", "cuisine": "japanese", "level": "0", "name": "AJA Dumplings", "opening_hours": "Tu-Sa 11:00-21:00; Su 13:00-21:00", "phone": "+1 718-736-3065", "takeaway": "yes", "website": "https://www.ajadumplings395.com/"}}, {"type": "node", "id": 11881245053, "lat": 40.7431979, "lon": -73.9517035, "tags": {"addr:city": "Long Island City", "addr:housenumber": "10-91", "addr:postcode": "11101", "addr:state": "NY", "addr:street": "Jackson Avenue", "amenity": "restaurant", "cuisine": "thai", "name": "Ros Niyom Thai", "opening_hours": "Mo-Th 04:30-22:00; Fr 04:30-22:30; Sa 04:30-22:30; Su 04:30-22:00", "phone": "+1-718-440-9752", "takeaway": "yes", "website": "https://www.rosniyomnyc.com"}}, {"type": "node", "id": 12991016948, "lat": 40.7430471, "lon": -73.9551231, "tags": {"addr:housenumber": "5-33", "addr:street": "50th Avenue", "name": "Matros Automated, Electrical Construction Corp", "office": "company"}}, {"type": "way", "id": 25355873, "nodes": [276318205, 2473480013, 2473480011, 2473480009, 2473480007, 276318206, 5291959028, 2473480021, 2473480019, 2473480029, 2473480027, 2473480037, 2473480035, 2473480045, 2473480043, 2473480005, 2473480003, 276318207, 276318208, 5291959027, 276318205], "tags": {"ele": "3", "gnis:feature_id": "2352594", "leisure": "park", "name": "Gantry Plaza State Park", "note": "Managed by Queens West Development Corporation as part of Gantry Plaza State Park", "source": "http://www.gantrypark.com/Maps/ParkMap/tabid/656/Default.aspx", "website": "https://parks.ny.gov/parks/149/details.aspx", "wikidata": "Q34837285"}}, {"type": "way", "id": 192855283, "nodes": [2034007330, 2034007332, 2034007316, 2477804778, 2477804777, 2477804776, 2477804779, 2477804781, 2034007314, 11211160464, 2034007320, 2034007330], "tags": {"ele": "4", "gnis:feature_id": "2352597", "leisure": "park", "name": "Vernon Mall", "wikidata": "Q49574408"}}, {"type": "way", "id": 280623165, "nodes": [2847059447, 2847059444, 2847059446, 2847059443, 2847059439, 2847059437, 2847059442, 2847059440, 2847059239, 2847059251, 2847059412, 2847059447], "tags": {"addr:city": "Long Island City", "addr:housenumber": "5-14", "addr:postcode": "11101", "addr:street": "51st Avenue", "amenity": "pub", "atm": "no", "building": "yes", "building:levels": "2", "cuisine": "american", "food": "yes", "height": "17", "internet_access": "no", "microbrewery": "yes", "name": "Gamehaus", "nycdoitt:bin": "4000185", "opening_hours": "Th-Fr 16:00-03:00; Sa-Su 11:00-01:00; Mo-We 16:00-01:00", "outdoor_seating": "no", "phone": "+17189377494", "smoking": "no", "takeaway": "no", "website": "https://www.alewifequeens.com", "wheelchair": "yes"}}, {"type": "way", "id": 295109956, "nodes": [2987791520, 2987791521, 2987791532, 2987791522, 2987791523, 2987791528, 357628994, 2987791529, 2987791525, 2987791530, 2987791526, 2987791531, 2987791527, 2987791520], "tags": {"ele": "4", "gnis:feature_id": "2352598", "leisure": "park", "name": "Notorious LIC Park", "old_name": "Bridge and Tunnel Park", "opening_hours": "Mo-Su 06:00-21:00", "website": "https://www.nycgovparks.org/parks/bridge-and-tunnel-park", "wikidata": "Q34810658"}}]}