{"version": 0.6, "generator": "Overpass API 0.7.62.8 e802775f", "osm3s": {"timestamp_osm_base": "2025-12-01T17:23:13Z", "copyright": "The data included in this document is from www.openstreetmap.org. The data is made available under ODbL."}, "elements": [{"type": "node", "id": 357570943, "lat": 40.7059178, "lon": -73.9353373}, {"type": "node", "id": 981399335, "lat": 40.7051487, "lon": -73.9333751, "tags": {"addr:housenumber": "43", "addr:postcode": "11206", "addr:street": "Bogart Street", "amenity": "restaurant", "cuisine": "japanese", "name": "Momo Sushi", "website": "momosushishack.com"}}, {"type": "node", "id": 1891894307, "lat": 40.7053555, "lon": -73.9325735, "tags": {"addr:housenumber": "12", "addr:street": "Gratta", "amenity": "pub", "name": "Pine Box Rock Sbop"}}, {"type": "node", "id": 2274106842, "lat": 40.7051843, "lon": -73.9333832, "tags": {"addr:city": "Brooklyn", "addr:country": "US", "addr:postcode": "11206", "addr:state": "NY", "addr:street": "Bogart Street", "amenity": "restaurant", "name": "Olive Valley"}}, {"type": "node", "id": 2274110508, "lat": 40.7054406, "lon": -73.9334626, "tags": {"addr:city": "Brooklyn", "addr:country": "US", "addr:housenumber": "49", "addr:postcode": "11206", "addr:state": "NY", "addr:street": "Bogart Street", "amenity": "cafe", "cuisine": "coffee_shop", "internet_access": "wlan", "name": "Swallow Cafe", "opening_hours": "Mo-Su 07:00-19:00"}}, {"type": "node", "id": 2274143303, "lat": 40.7056811, "lon": -73.9322419, "tags": {"amenity": "restaurant", "name": "Shinobi Ramen"}}, {"type": "node", "id": 2838554747, "lat": 40.7077824, "lon": -73.9326661, "tags": {"addr:housenumber": "407", "addr:postcode": "11206", "addr:street": "Johnson Avenue", "name": "Air Company", "office": "company", "website": "https://www.aircompany.com"}}, {"type": "node", "id": 2838575984, "lat": 40.7050062, "lon": -73.9335894, "tags": {"addr:city": "Brooklyn", "addr:housenumber": "261", "addr:postcode": "11206", "addr:street": "Moore Street", "amenity": "restaurant", "cuisine": "pizza", "name": "Roberta's", "opening_hours": "Mo-Fr 11:00-24:00;Sa-Su 10:00-24:00", "smoking": "outside", "wheelchair": "limited", "wikidata": "Q14707228"}}, {"type": "node", "id": 2838578193, "lat": 40.7061227, "lon": -73.9338982}, {"type": "node", "id": 2838578301, "lat": 40.7061545, "lon": -73.9337021}, {"type": "node", "id": 2838596312, "lat": 40.7039175, "lon": -73.931087, "tags": {"addr:housenumber": "1031", "addr:postcode": "11237", "addr:street": "Flushing Avenue", "amenity": "restaurant", "cuisine": "thai", "name": "Forever Thai", "opening_hours": "Mo-Su 11:00-22:00", "phone": "+1-347-599-0277", "website": "https://www.foreverthaibushwick.com/"}}, {"type": "node", "id": 2838596351, "lat": 40.7054219, "lon": -73.9323788, "tags": {"addr:city": "Brooklyn", "addr:housenumber": "18", "addr:postcode": "11206", "addr:state": "NY", "addr:street": "Grattan Street", "amenity": "cafe", "name": "SEY Coffee", "opening_hours": "Mo-Fr 07:00-17:00; Sa-Su 08:00-17:00", "outdoor_seating": "no", "website": "https://www.seycoffee.com/"}}, {"type": "node", "id": 2838598221, "lat": 40.7040836, "lon": -73.9310709}, {"type": "node", "id": 2838598227, "lat": 40.7041536, "lon": -73.931173}, {"type": "node", "id": 2838598882, "lat": 40.7059119, "lon": -73.9326203}, {"type": "node", "id": 2838598892, "lat": 40.7059256, "lon": -73.9325349}, {"type": "node", "id": 2838598919, "lat": 40.7059979, "lon": -73.932555}, {"type": "node", "id": 2838598974, "lat": 40.7061433, "lon": -73.9326846}, {"type": "node", "id": 2838598978, "lat": 40.7061571, "lon": -73.9325992}, {"type": "node", "id": 3154235631, "lat": 40.7062576, "lon": -73.9337363}, {"type": "node", "id": 3154235632, "lat": 40.7059508, "lon": -73.9353482}, {"type": "node", "id": 3154235633, "lat": 40.7056801, "lon": -73.9352586}, {"type": "node", "id": 4380187995, "lat": 40.7070137, "lon": -73.9330978, "tags": {"addr:housenumber": "17", "addr:street": "Ingraham Street", "amenity": "restaurant", "name": "El Cortez", "name:en": "El Cortez"}}, {"type": "node", "id": 5155660121, "lat": 40.7036407, "lon": -73.9311723, "tags": {"addr:housenumber": "1002", "addr:street": "Flushing Avenue", "amenity": "restaurant", "cuisine": "american;wrap;pancake;sandwich", "delivery": "yes", "drink:coffee": "yes", "drink:tea": "yes", "name": "Tina's Place", "opening_hours": "Mo-Su 03:00-16:00", "payment:cash": "only", "phone": "+1-718-497-6890", "takeaway": "yes"}}, {"type": "node", "id": 5490145121, "lat": 40.7040364, "lon": -73.9307858, "tags": {"amenity": "bar", "name": "The Narrows"}}, {"type": "node", "id": 5596263398, "lat": 40.7070838, "lon": -73.9324951, "tags": {"addr:housenumber": "35", "addr:street": "Ingraham Street", "amenity": "bar", "name": "Bushwick Ice House", "source": "Mapillary", "sport": "billiards"}}, {"type": "node", "id": 5716101714, "lat": 40.70593, "lon": -73.9365884, "tags": {"addr:housenumber": "279", "addr:postcode": "11206", "addr:street": "McKibben Street", "amenity": "cafe", "branch": "Bushwick", "brand": "Blue Bottle Coffee", "brand:en": "Blue Bottle Coffee", "brand:ja": "\u30d6\u30eb\u30fc\u30dc\u30c8\u30eb\u30b3\u30fc\u30d2\u30fc", "brand:wikidata": "Q4928917", "cuisine": "coffee_shop", "drink:coffee": "yes", "drink:tea": "yes", "fireplace": "yes", "internet_access": "wlan", "internet_access:fee": "no", "name": "Blue Bottle Coffee", "name:en": "Blue Bottle Coffee", "name:ja": "\u30d6\u30eb\u30fc\u30dc\u30c8\u30eb\u30b3\u30fc\u30d2\u30fc", "opening_hours": "Mo-Fr 08:00-17:00; Sa, Su 09:00-17:00; Jan 1 off; Dec 25 off", "payment:contactless": "yes", "phone": "+1-510-653-3394", "takeaway": "yes", "website": "https://bluebottlecoffee.com/cafes/bushwick", "wheelchair": "yes"}}, {"type": "node", "id": 5734677162, "lat": 40.7043902, "lon": -73.9299803, "tags": {"addr:housenumber": "1059", "addr:street": "Flushing Avenue", "amenity": "bar", "cocktails": "yes", "drink:beer": "yes", "drink:liquor": "yes", "drink:wine": "yes", "happy_hours": "yes", "name": "No Bull NYC", "opening_hours": "We 18:00-26:00; Th 21:00-26:00; Fr, Sa 23:00-28:00", "phone": "+1-646-593-0662", "reservation": "yes", "sport": "yes", "website": "https://www.facebook.com/NOBULLnyc/"}}, {"type": "node", "id": 5737939508, "lat": 40.7041085, "lon": -73.9306031, "tags": {"addr:housenumber": "1041", "addr:postcode": "11237", "addr:street": "Flushing Avenue", "amenity": "restaurant", "bar": "yes", "cocktails": "yes", "cuisine": "latin_american", "drink:beer": "yes", "drink:liquor": "yes", "drink:wine": "yes", "happy_hours": "yes", "name": "Norwind's", "opening_hours": "Tu-Th 12:00-23:00, Fr-Sa 12:00-02:00, Su 12:00-22:00", "phone": "+1-347-725-3025", "reservation": "yes", "website": "https://www.norwindsbk.com", "wheelchair": "yes"}}, {"type": "node", "id": 5737951060, "lat": 40.7038002, "lon": -73.93073, "tags": {"addr:city": "Brooklyn", "addr:housenumber": "1006", "addr:postcode": "11237", "addr:state": "NY", "addr:street": "Flushing Avenue", "amenity": "restaurant", "branch": "Bushwick", "cocktails": "yes", "drink:beer": "yes", "drink:liquor": "yes", "drink:wine": "yes", "happy_hours": "yes", "name": "Tabar\u00e9", "opening_hours": "Mo-Th 17:00-23:00; Fr 17:00-12:00; Sa-Su 12:00-23:00", "payment:american_express": "yes", "payment:cash": "yes", "phone": "+1-347-318-3885", "reservation": "yes", "toilets": "yes", "website": "https://www.tabarenyc.com/bushwick"}}, {"type": "node", "id": 5750540226, "lat": 40.7053329, "lon": -73.9326938, "tags": {"addr:housenumber": "12", "addr:street": "Grattan Street", "amenity": "bar", "cocktails": "yes", "diet:vegan": "yes", "drink:beer": "yes", "drink:wine": "yes", "happy_hours": "yes", "name": "Pine Box Rock Shop", "opening_hours": "Mo-We 16:00-26:00; Th, Fr 16:00-28:00; Sa 14:00-28:00; Su 12:00-26:00", "phone": "+1-718-366-6311", "sport": "yes", "website": "https://www.pineboxrockshop.com/", "wheelchair": "yes"}}, {"type": "node", "id": 5751854223, "lat": 40.7041849, "lon": -73.9341582, "tags": {"addr:housenumber": "247", "addr:street": "Varet Street", "amenity": "cafe", "cuisine": "bagel;sandwich", "diet:vegetarian": "yes", "drink:beer": "yes", "drink:coffee": "yes", "drink:liquor": "yes", "drink:tea": "yes", "drink:wine": "yes", "happy_hours": "yes", "internet_access": "wlan", "name": "Ange Noir Cafe", "opening_hours": "Mo, Tu, Th 07:30-19:00; We, Fr-Su 07:30-20:00", "organic": "yes", "outdoor_seating": "yes", "payment:cash": "yes", "payment:debit_cards": "yes", "payment:mastercard": "yes", "payment:visa": "yes", "phone": "+1-718-366-1520", "sport": "billiards", "takeaway": "yes", "toilets": "yes", "website": "https://angenoircafe.com/", "wheelchair": "yes"}}, {"type": "node", "id": 5804360684, "lat": 40.7036813, "lon": -73.9349721, "tags": {"addr:housenumber": "9", "addr:street": "White Street", "addr:unit": "105", "email": "cid247@sparkmail.co", "name": "Brooklyn Design Factory, LLC", "office": "company", "opening_hours": "Mo-Fr 09:00-17:00", "phone": "+1-917-510-4083", "website": "https://bkdf.nyc/"}}, {"type": "node", "id": 6112610009, "lat": 40.7063356, "lon": -73.9313613, "tags": {"addr:housenumber": "52", "addr:postcode": "11237", "addr:street": "Harrison Place", "amenity": "restaurant", "cuisine": "mexican", "name": "Sobre Masa", "opening_hours": "Tu-Th 18:00-22:00, Fr-Sa 18:00-23:00, Su 13:00-20:00", "phone": "+1-347-844-2343", "website": "https://sobremasa.com"}}, {"type": "node", "id": 6253978434, "lat": 40.7072158, "lon": -73.9319875, "tags": {"addr:housenumber": "96", "addr:street": "Morgan Avenue", "amenity": "bar", "name": "Rose Gold Cocktail Lounge", "opening_hours": "Th-Sa 21:00-04:00", "phone": "+1-718-821-2580", "website": "https://www.residentadvisor.net/profile/rosegoldbk"}}, {"type": "node", "id": 6713109639, "lat": 40.7037331, "lon": -73.9330639, "tags": {"addr:city": "Brooklyn", "addr:housenumber": "19", "addr:postcode": "11206", "addr:state": "NY", "addr:street": "Bogart Street", "amenity": "restaurant", "contact:email": "amituofovegan@gmail.com", "contact:facebook": "https://www.facebook.com/amituofovegancuisine", "contact:instagram": "https://www.instagram.com/amituofovegancuisine/", "cuisine": "asian", "delivery": "yes", "description": "Vegan eatery offering plant-based versions of Pan-Asian classics in a bright, airy interior.", "diet:vegan": "only", "diet:vegetarian": "only", "internet_access": "yes", "name": "Amituofo Vegan Cuisine", "opening_hours": "Mo-Su 11:30-10:30", "phone": "+1-718-366-2288", "website": "https://www.amituofovegan.com", "wheelchair": "yes"}}, {"type": "node", "id": 6800611085, "lat": 40.7074745, "lon": -73.9333777, "tags": {"addr:city": "Brooklyn", "addr:housenumber": "374", "addr:postcode": "11206", "addr:state": "NY", "addr:street": "Johnson Avenue", "amenity": "restaurant", "name": "Ichiran", "name:ko": "\uc774\uce58\ub780", "opening_hours": "Mo-Th 11:30-22:00; Fr-Su 11:30-22:30", "payment:american_express": "yes", "payment:apple_pay": "yes", "payment:contactless": "yes", "payment:discover_card": "yes", "payment:google_pay": "yes", "payment:mastercard": "yes", "payment:visa": "yes"}}, {"type": "node", "id": 7274507211, "lat": 40.70613, "lon": -73.9338599}, {"type": "node", "id": 7274507212, "lat": 40.7059499, "lon": -73.933841}, {"type": "node", "id": 7274507215, "lat": 40.7057693, "lon": -73.9347901}, {"type": "node", "id": 8464866745, "lat": 40.7049847, "lon": -73.9319496, "tags": {"addr:housenumber": "25", "addr:street": "Thames Street", "amenity": "bar", "name": "Mika"}}, {"type": "node", "id": 8600928482, "lat": 40.7040535, "lon": -73.9311473}, {"type": "node", "id": 8600928483, "lat": 40.7041609, "lon": -73.931124}, {"type": "node", "id": 9208846804, "lat": 40.7042788, "lon": -73.9302135, "tags": {"addr:housenumber": "1050", "addr:street": "Flushing Avenue", "amenity": "restaurant", "cuisine": "mexican", "delivery": "yes", "diet:vegetarian": "yes", "drink:coffee": "yes", "name": "El Santo Taqueria Brooklyn", "opening_hours": "Mo-Su 11:00-24:00", "phone": "+1-718-366-3138", "takeaway": "yes", "wheelchair": "limited"}}, {"type": "node", "id": 11069332894, "lat": 40.7059341, "lon": -73.9353427}, {"type": "node", "id": 11069332900, "lat": 40.7061152, "lon": -73.9344843}, {"type": "node", "id": 11069340408, "lat": 40.7061264, "lon": -73.9344255}, {"type": "node", "id": 11069340409, "lat": 40.706233, "lon": -73.9338656}, {"type": "node", "id": 11415632821, "lat": 40.7058565, "lon": -73.9343319}, {"type": "node", "id": 12959913766, "lat": 40.7041596, "lon": -73.9304737, "tags": {"addr:housenumber": "1045", "addr:postcode": "11237", "addr:street": "Flushing Avenue", "amenity": "restaurant", "branch": "Williamsburg", "cuisine": "seafood", "name": "Shaking Crab", "opening_hours": "Mo-Fr 17:00-23:00, Sa-Su 13:00-23:00", "phone": "+1-347-725-3262", "website": "https://www.shakingcrab.com/locations/williamsburg"}}, {"type": "node", "id": 12977783184, "lat": 40.704136, "lon": -73.9331026, "tags": {"alt_name": "Ey-v\u00e1l", "amenity": "restaurant", "cuisine": "persian", "diet:halal": "no", "name": "Eyval", "opening_hours": "Tu-Sa 18:00-22:00, Su 17:00-21:30", "website": "https://www.eyvalnyc.com"}}, {"type": "node", "id": 12977783185, "lat": 40.7040836, "lon": -73.9334781, "tags": {"amenity": "restaurant", "cuisine": "japanese", "name": "Bushniwa", "opening_hours": "Mo-Sa 11:00-23:00, Su 13:00-23:00", "phone": "+1-718-386-8886", "website": "https://bushniwa.com"}}, {"type": "way", "id": 279651105, "nodes": [2838598892, 2838598882, 2838598974, 2838598978, 2838598919, 2838598892], "tags": {"addr:city": "Brooklyn", "addr:housenumber": "18", "addr:postcode": "11206", "addr:state": "NY", "addr:street": "Harrison Place", "amenity": "restaurant", "building": "yes", "height": "11.2", "name": "Otis", "nycdoitt:bin": "3071427", "phone": "+1 646 886-0601", "website": "https://otisbk.com/"}}, {"type": "way", "id": 310077175, "nodes": [2838578301, 3154235631, 11069340409, 11069340408, 11069332900, 3154235632, 11069332894, 357570943, 3154235633, 7274507215, 11415632821, 7274507212, 2838578193, 7274507211, 2838578301], "tags": {"alt_name": "Gilbert Ramirez Park", "gnis:feature_id": "956802", "leisure": "park", "name": "Gilbert Ramirez Playground", "ref:nycparks": "B132", "website": "https://www.nycgovparks.org/parks/gilbert-ramirez-park", "wheelchair": "yes", "wikidata": "Q49547878"}}, {"type": "way", "id": 926954130, "nodes": [2838598227, 8600928482, 2838598221, 8600928483, 2838598227], "tags": {"addr:city": "Brooklyn", "addr:housenumber": "2", "addr:postcode": "11237", "addr:state": "NY", "addr:street": "Morgan Avenue", "amenity": "cafe", "building": "yes", "contact:instagram": "seitanshelper", "cuisine": "sandwich", "diet:vegan": "yes", "email": "helloseitanshelper@gmail.com", "name": "Seitan's Helper", "opening_hours": "Th-Su 11:00-18:00", "outdoor_seating": "no", "payment:american_express": "yes", "payment:apple_pay": "yes", "payment:cash": "yes", "payment:diners_club": "yes", "payment:discover_card": "yes", "payment:google_pay": "yes", "payment:jcb": "yes", "payment:mastercard": "yes", "payment:visa": "yes", "phone": "+1-929-298-0160", "takeaway": "yes", "website": "https://seitanshelper.com"}}]}