{"version": 0.6, "generator": "Overpass API 0.7.62.8 e802775f", "osm3s": {"timestamp_osm_base": "2025-12-01T17:20:12Z", "copyright": "The data included in this document is from www.openstreetmap.org. The data is made available under ODbL."}, "elements": [{"type": "node", "id": 357621469, "lat": 40.7172222, "lon": -73.9894492, "tags": {"amenity": "school", "ele": "11", "gnis:feature_id": "2083912", "name": "Manhattan Bridges High School"}}, {"type": "node", "id": 357621515, "lat": 40.7172739, "lon": -73.9895047, "tags": {"amenity": "school", "ele": "11", "gnis:feature_id": "2083925", "name": "New Design High School"}}, {"type": "node", "id": 357621758, "lat": 40.7172511, "lon": -73.9894777, "tags": {"amenity": "school", "ele": "11", "gnis:feature_id": "2084017", "mascot": "Bears", "name": "Seward Park High School"}}, {"type": "node", "id": 1242148187, "lat": 40.7153856, "lon": -73.9889566}, {"type": "node", "id": 1242148253, "lat": 40.7163335, "lon": -73.9892007}, {"type": "node", "id": 1242148322, "lat": 40.7160736, "lon": -73.9890636}, {"type": "node", "id": 1242148350, "lat": 40.7162652, "lon": -73.9889664}, {"type": "node", "id": 1242148353, "lat": 40.7159586, "lon": -73.9886691}, {"type": "node", "id": 1917136131, "lat": 40.719348, "lon": -73.9899978, "tags": {"addr:city": "New York", "addr:housenumber": "80", "addr:postcode": "10002", "addr:state": "NY", "addr:street": "Delancey Street", "amenity": "cafe", "branch": "Allen & Delancey", "brand": "Starbucks", "brand:wikidata": "Q37158", "check_date": "2025-06-05", "cuisine": "coffee_shop", "diet:vegan": "yes", "drink:soy_milk": "yes", "name": "Starbucks", "official_name": "Starbucks Coffee", "phone": "+1 917-534-1397", "ref": "9589", "takeaway": "yes", "website": "https://www.starbucks.com/store-locator/store/9589/allen-delancey-80-delancey-street-new-york-ny-100023133-us"}}, {"type": "node", "id": 2178450632, "lat": 40.7189377, "lon": -73.9840743}, {"type": "node", "id": 2178450640, "lat": 40.7191692, "lon": -73.9842428}, {"type": "node", "id": 2178450650, "lat": 40.7192434, "lon": -73.984494}, {"type": "node", "id": 2178527853, "lat": 40.7175186, "lon": -73.9840424}, {"type": "node", "id": 2178527857, "lat": 40.7177216, "lon": -73.9847129}, {"type": "node", "id": 2178527962, "lat": 40.7185386, "lon": -73.9835048}, {"type": "node", "id": 2178527988, "lat": 40.7186644, "lon": -73.9834646}, {"type": "node", "id": 2178527997, "lat": 40.7187416, "lon": -73.984175}, {"type": "node", "id": 2273010160, "lat": 40.7196323, "lon": -73.9866444}, {"type": "node", "id": 2273010161, "lat": 40.7194279, "lon": -73.9859634}, {"type": "node", "id": 2273010162, "lat": 40.7204581, "lon": -73.985425}, {"type": "node", "id": 2273010163, "lat": 40.7206625, "lon": -73.9861063}, {"type": "node", "id": 2554956153, "lat": 40.7205179, "lon": -73.9900978, "tags": {"addr:city": "New York", "addr:housenumber": "65", "addr:postcode": "10002", "addr:state": "NY", "addr:street": "Rivington Street", "amenity": "restaurant", "cuisine": "australian", "name": "Sonnyboy"}}, {"type": "node", "id": 2555126595, "lat": 40.7196388, "lon": -73.9895629, "tags": {"addr:city": "New York", "addr:housenumber": "127", "addr:postcode": "10002", "addr:state": "NY", "addr:street": "Orchard Street", "amenity": "cafe", "check_date": "2024-10-08", "cuisine": "american;deli", "delivery": "yes", "email": "cafe@russanddaughters.com", "name": "Russ & Daughters Cafe", "name:de": "Russ & Daughters Cafe", "name:en": "Russ & Daughters Cafe", "opening_hours": "08:30-15:00; Tu,We off", "phone": "+1-212-475-4880", "website": "https://www.russanddaughterscafe.com/", "wheelchair": "limited"}}, {"type": "node", "id": 2567547039, "lat": 40.7204577, "lon": -73.9870469, "tags": {"addr:city": "New York", "addr:housenumber": "146", "addr:postcode": "10002", "addr:state": "NY", "addr:street": "Essex Street", "amenity": "restaurant", "name": "Beauty & Essex"}}, {"type": "node", "id": 2567547060, "lat": 40.720194, "lon": -73.9884455, "tags": {"addr:city": "New York", "addr:housenumber": "98", "addr:postcode": "10002", "addr:state": "NY", "addr:street": "Rivington Street", "amenity": "restaurant", "cuisine": "italian", "name": "Serafina Ludlow"}}, {"type": "node", "id": 2567547328, "lat": 40.7209053, "lon": -73.9861978}, {"type": "node", "id": 2567547370, "lat": 40.7210629, "lon": -73.9867215}, {"type": "node", "id": 2567547461, "lat": 40.7214405, "lon": -73.9859173}, {"type": "node", "id": 2567547531, "lat": 40.7215983, "lon": -73.986441}, {"type": "node", "id": 2567548346, "lat": 40.7165943, "lon": -73.9908966, "tags": {"amenity": "cafe", "cuisine": "sandwich;salad", "name": "Gather", "opening_hours": "Mo-Fr 08:00-19:00, Sa-Su 10:00-18:00", "phone": "+1-646-370-4672", "website": "https://www.letsgatherandplay.com"}}, {"type": "node", "id": 2567548862, "lat": 40.7195977, "lon": -73.9878127}, {"type": "node", "id": 2567548866, "lat": 40.7195984, "lon": -73.987815}, {"type": "node", "id": 2567548957, "lat": 40.7196512, "lon": -73.9877853}, {"type": "node", "id": 2567548961, "lat": 40.7196519, "lon": -73.9877877}, {"type": "node", "id": 2567548963, "lat": 40.7196525, "lon": -73.9879982}, {"type": "node", "id": 2567548988, "lat": 40.719676, "lon": -73.987869}, {"type": "node", "id": 2567549012, "lat": 40.7196974, "lon": -73.9879414}, {"type": "node", "id": 2567549018, "lat": 40.7197061, "lon": -73.9879709}, {"type": "node", "id": 2567557141, "lat": 40.7187024, "lon": -73.9900594, "tags": {"addr:housenumber": "103", "addr:postcode": "10002", "addr:street": "Orchard Street", "name": "Lower East Side Tenement Museum Offices", "office": "museum"}}, {"type": "node", "id": 2567557162, "lat": 40.7175171, "lon": -73.9897784, "tags": {"addr:housenumber": "73", "addr:postcode": "10002", "addr:street": "Ludlow Street", "craft": "printer", "name": "Vista Imaging Group", "office": "graphic_design", "opening_hours": "Mo-Fr 08:30-19:30, Sa 09:30-17:30", "phone": "+1-212-807-6611", "website": "https://www.vignyc.com"}}, {"type": "node", "id": 2567557167, "lat": 40.7188615, "lon": -73.9902614, "tags": {"addr:housenumber": "77", "addr:postcode": "10002", "addr:street": "Delancey Street", "amenity": "bar", "cocktails": "yes", "cuisine": "seafood", "drink:beer": "yes", "drink:liquor": "yes", "drink:wine": "yes", "name": "Grey Lady", "opening_hours": "Mo 16:00-24:00; Tu,We 12:00-02:00; Th,Fr 12:00-04:00; Sa 11:00-04:00; Su 11:00-12:00", "phone": "+1-646-580-5239", "website": "https://www.greyladynyc.com"}}, {"type": "node", "id": 2567557176, "lat": 40.7187573, "lon": -73.9896896, "tags": {"addr:housenumber": "85", "addr:postcode": "10002", "addr:street": "Delancey Street", "name": "The Yard", "office": "coworking", "website": "https://theyard.com/locations/new-york/coworking-office-space-lower-east-side/"}}, {"type": "node", "id": 2567561365, "lat": 40.7157755, "lon": -73.9907804, "tags": {"amenity": "cafe", "cuisine": "indian", "drink:coffee": "yes", "drink:tea": "yes", "name": "Aujla's", "opening_hours": "Mo-Su 09:00-16:00"}}, {"type": "node", "id": 2567562177, "lat": 40.7169638, "lon": -73.9886759, "tags": {"addr:housenumber": "60", "addr:postcode": "10002", "addr:street": "Essex Street"}}, {"type": "node", "id": 2567562272, "lat": 40.7168541, "lon": -73.9883945}, {"type": "node", "id": 2567562274, "lat": 40.7168602, "lon": -73.9883305}, {"type": "node", "id": 2567562276, "lat": 40.716863, "lon": -73.9884239}, {"type": "node", "id": 2567562278, "lat": 40.716876, "lon": -73.9883832}, {"type": "node", "id": 2567562279, "lat": 40.7168848, "lon": -73.9884126}, {"type": "node", "id": 2567562281, "lat": 40.7169083, "lon": -73.9885829}, {"type": "node", "id": 2567562283, "lat": 40.716917, "lon": -73.988612}, {"type": "node", "id": 2567562287, "lat": 40.7169322, "lon": -73.9885706}, {"type": "node", "id": 2567562288, "lat": 40.7169409, "lon": -73.9885996}, {"type": "node", "id": 2567562294, "lat": 40.7170059, "lon": -73.9888165}, {"type": "node", "id": 2567562302, "lat": 40.7172231, "lon": -73.9881442}, {"type": "node", "id": 2567562303, "lat": 40.7172357, "lon": -73.9881863}, {"type": "node", "id": 2567562304, "lat": 40.7172458, "lon": -73.9881811}, {"type": "node", "id": 2567562305, "lat": 40.7172522, "lon": -73.9882517}, {"type": "node", "id": 2567562306, "lat": 40.7172544, "lon": -73.98821}, {"type": "node", "id": 2567562307, "lat": 40.717264, "lon": -73.9882912}, {"type": "node", "id": 2567562308, "lat": 40.7172677, "lon": -73.9882031}, {"type": "node", "id": 2567562309, "lat": 40.7172747, "lon": -73.9883288}, {"type": "node", "id": 2567562310, "lat": 40.7172776, "lon": -73.9882841}, {"type": "node", "id": 2567562311, "lat": 40.7172782, "lon": -73.9882383}, {"type": "node", "id": 2567562312, "lat": 40.7172871, "lon": -73.9883701}, {"type": "node", "id": 2567562313, "lat": 40.7172888, "lon": -73.9883215}, {"type": "node", "id": 2567562314, "lat": 40.7173111, "lon": -73.9883962}, {"type": "node", "id": 2567562315, "lat": 40.7173138, "lon": -73.9883562}, {"type": "node", "id": 2567562316, "lat": 40.7173238, "lon": -73.9883896}, {"type": "node", "id": 2567562317, "lat": 40.7173271, "lon": -73.9884498}, {"type": "node", "id": 2567562318, "lat": 40.7173529, "lon": -73.9884365}, {"type": "node", "id": 2567562321, "lat": 40.7173632, "lon": -73.9885401}, {"type": "node", "id": 2567562323, "lat": 40.7173633, "lon": -73.9884977}, {"type": "node", "id": 2567562325, "lat": 40.717364, "lon": -73.9885734}, {"type": "node", "id": 2567562327, "lat": 40.7173702, "lon": -73.9884942}, {"type": "node", "id": 2567562329, "lat": 40.717372, "lon": -73.9885693}, {"type": "node", "id": 2567562331, "lat": 40.7173743, "lon": -73.9885344}, {"type": "node", "id": 2567562334, "lat": 40.7173788, "lon": -73.9886228}, {"type": "node", "id": 2622180738, "lat": 40.7163894, "lon": -73.9887152, "tags": {"addr:city": "New York", "addr:housenumber": "371", "addr:postcode": "10002", "addr:state": "NY", "addr:street": "Grand Street", "amenity": "restaurant", "cuisine": "pizza", "name": "Pizza a Casa - Pizza School", "phone": "+1-212-228-5483", "website": "https://pizzaschool.com/"}}, {"type": "node", "id": 2715605024, "lat": 40.7194372, "lon": -73.9830671}, {"type": "node", "id": 2715605026, "lat": 40.719778, "lon": -73.9842192}, {"type": "node", "id": 2826581781, "lat": 40.7163413, "lon": -73.9885359, "tags": {"addr:city": "New York", "addr:country": "US", "addr:housenumber": "379", "addr:postcode": "10002", "addr:state": "NY", "addr:street": "Grand Street", "amenity": "cafe", "cuisine": "donut", "name": "The Doughnut Plant", "name:en": "Doughnut Plant", "opening_hours": "Mo-Th, Su 06:30-20:00; Fr-Sa 06:30-21:00", "phone": "+1 212-505-3700", "website": "https://www.doughnutplant.com/"}}, {"type": "node", "id": 2826581783, "lat": 40.7160067, "lon": -73.9874972, "tags": {"addr:housenumber": "399", "addr:postcode": "10002", "addr:street": "Grand Street", "amenity": "restaurant", "cuisine": "italian;diner", "name": "Saluggi's East", "phone": "+16468961163", "website": "https://east.saluggis.com/"}}, {"type": "node", "id": 2826581784, "lat": 40.7159851, "lon": -73.9874254, "tags": {"addr:housenumber": "403", "addr:postcode": "10002", "addr:street": "Grand Street", "amenity": "restaurant", "cuisine": "lebanese;middle_eastern", "name": "Manousheh", "phone": "+16462584925", "website": "https://www.manousheh.com/"}}, {"type": "node", "id": 2826754297, "lat": 40.7189562, "lon": -73.9850248, "tags": {"addr:city": "New York", "addr:housenumber": "76", "addr:postcode": "10002", "addr:state": "NY", "addr:street": "Clinton Street", "amenity": "bar", "cocktails": "yes", "cuisine": "seafood", "email": "reynolds.livity@gmail.com", "facebook": "BlackCrescentNYC", "happy_hours": "17:00-19:00", "instagram": "blackcrescentny", "name": "Black Crescent", "opening_hours": "Tu-Sa 17:00-02:00; Su 17:00-24:00", "phone": "+1-347-820-4330", "reservation": "yes", "twitter": "blackcrescentny", "website": "www.blackcrescentnyc.com"}}, {"type": "node", "id": 2826842009, "lat": 40.7205874, "lon": -73.9853737, "tags": {"addr:city": "New York", "addr:housenumber": "152", "addr:postcode": "10002", "addr:state": "NY", "addr:street": "Stanton Street", "air_conditioning": "yes", "amenity": "restaurant", "bar": "yes", "cuisine": "argentinian", "name": "Balvanera", "opening_hours": "Mo 17:00-23:00; Tu-Fr 16:00-23:00; Sa-Su 11:00-16:00, 17:00-23:00", "outdoor_seating": "yes", "payment:credit_cards": "yes", "phone": "+1-212-533-3348", "reservation": "yes", "website": "https://www.balvanerarestaurants.com/"}}, {"type": "node", "id": 3003918346, "lat": 40.7206682, "lon": -73.9899466, "tags": {"addr:city": "New York", "addr:housenumber": "66", "addr:postcode": "10002", "addr:state": "NY", "addr:street": "Rivington Street", "amenity": "pub", "brewery": "yes", "description": "Laid-back bar with rock on the jukebox and craft beer on tap, plus wine and small bites.", "name": "Marshall Stack", "opening_hours": "Mo-We 16:00-02:00; Th 16:00-04:00; Sa 13:00-04:00; Su 13:00-02:00", "phone": "+1-212-228-4667", "website": "https://marshallstacknyc.com", "wheelchair": "no"}}, {"type": "node", "id": 3147863534, "lat": 40.7180802, "lon": -73.9903664, "tags": {"addr:city": "New York", "addr:housenumber": "85", "addr:postcode": "10002", "addr:state": "NY", "addr:street": "Orchard Street", "amenity": "restaurant", "cocktails": "yes", "cuisine": "australian", "drink:beer": "yes", "drink:coffee": "yes", "drink:espresso": "yes", "drink:liquor": "yes", "drink:wine": "yes", "happy_hours": "Mo-Fr 16:30-18:30", "name": "Dudleys", "opening_hours": "Mo-Su 09:00-24:00", "phone": "+1-212-925-7355", "website": "https://www.dudleysnyc.com"}}, {"type": "node", "id": 3147863535, "lat": 40.7177277, "lon": -73.9905476, "tags": {"addr:city": "New York", "addr:housenumber": "79", "addr:postcode": "10002", "addr:street": "Orchard Street", "amenity": "restaurant", "bar": "yes", "cocktails": "yes", "contact:instagram": "http://instagram.com/cafekatja", "cuisine": "austrian", "drink:beer": "draught", "drink:coffee": "yes", "drink:espresso": "yes", "drink:liquor": "yes", "drink:wine": "yes", "name": "Cafe Katja", "opening_hours": "Mo 17:00-23:00; Tu-Th, Su 11:30-15:30, 17:00-23:00; Fr, Sa 11:30-15:30, 17:00-24:00", "outdoor_seating": "sidewalk", "phone": "+1 212-219-9545", "toilets": "yes", "toilets:wheelchair": "no", "website": "https://www.cafekatja.com"}}, {"type": "node", "id": 3147863536, "lat": 40.717982, "lon": -73.9904169, "tags": {"addr:city": "New York", "addr:housenumber": "85", "addr:postcode": "10002", "addr:state": "NY", "addr:street": "Orchard Street", "amenity": "restaurant", "bar": "yes", "cocktails": "yes", "cuisine": "thai", "diet:gluten_free": "yes", "diet:vegetarian": "yes", "drink:beer": "yes", "drink:liquor": "yes", "drink:wine": "yes", "name": "Sticky Rice", "opening_hours": "Mo-Th 12:30-22:00, Fr-Sa 12:30-23:00, Su 12:30-22:00", "phone": "+1-212-274-8208", "reservation": "yes", "website": "https://stickyriceny.com"}}, {"type": "node", "id": 3147863537, "lat": 40.7178981, "lon": -73.99046, "tags": {"addr:city": "New York", "addr:housenumber": "85", "addr:postcode": "10002", "addr:state": "NY", "addr:street": "Orchard Street", "amenity": "bar", "cocktails": "yes", "cuisine": "italian", "drink:beer": "draught", "drink:liquor": "yes", "drink:wine": "yes", "name": "Bar Valentina", "phone": "+1-646-476-4523", "website": "https://barvalentinanyc.com"}}, {"type": "node", "id": 3147863538, "lat": 40.7177744, "lon": -73.9905236, "tags": {"addr:city": "New York", "addr:housenumber": "81", "addr:postcode": "10002", "addr:state": "NY", "addr:street": "Orchard Street", "amenity": "cafe", "cuisine": "coffee_shop", "name": "Roasting Plant", "opening_hours": "Mo-Fr 07:00-18:00; Sa-Su 09:00-18:00; PH off", "phone": "+1-212-775-7755", "website": "https://roastingplant.com"}}, {"type": "node", "id": 3147863539, "lat": 40.7179789, "lon": -73.9900488, "tags": {"addr:city": "New York", "addr:housenumber": "253", "addr:postcode": "10002", "addr:state": "NY", "addr:street": "Broome Street", "amenity": "restaurant", "cocktails": "yes", "cuisine": "mexican", "drink:beer": "yes", "drink:liquor": "yes", "drink:wine": "yes", "happy_hours": "Mo-Th 16:00-19:00", "name": "Barrio Chino", "opening_hours": "Mo-Th 16:00-22:00, Fr-Sa 17:00-23:00, Su 17:00-22:00", "phone": "+1-212-228-6710", "website": "https://www.barriochinony.com"}}, {"type": "node", "id": 3200271555, "lat": 40.7197561, "lon": -73.9841451}, {"type": "node", "id": 3200271557, "lat": 40.7196835, "lon": -73.9838992}, {"type": "node", "id": 3212413922, "lat": 40.7183027, "lon": -73.9905315, "tags": {"addr:city": "New York", "addr:housenumber": "266", "addr:postcode": "10002", "addr:state": "NY", "addr:street": "Broome Street", "alt_name": "EPR", "amenity": "bar", "atm": "yes", "cocktails": "yes", "description": "Craft beer on tap and cocktails in a laid-back neighborhood hangout with table shuffleboard.", "drink:beer": "draught", "drink:liquor": "yes", "drink:wine": "yes", "name": "Emma Peel Room", "old_name": "RPM Bar", "opening_hours": "Mo-Th 16:00-04:00; Sa-Su 13:00-04:00", "phone": "+1-646-918-6529", "sport": "table_shuffleboard"}}, {"type": "node", "id": 3212413923, "lat": 40.7180119, "lon": -73.9901723, "tags": {"addr:housenumber": "88", "addr:postcode": "10002", "addr:street": "Orchard Street", "amenity": "cafe", "contact:facebook": "sundaytosundaynyc", "contact:instagram": "sundaytosundaynyc", "cuisine": "cafe", "delivery": "yes", "drink:coffee": "yes", "email": "ralph@sundaytosundaynyc.com", "name": "Sunday to Sunday", "opening_hours": "Mo-We, Su 08:00-18:00; Th-Sa 08:00-23:00", "phone": "+1 917-675-6096", "takeaway": "yes", "website": "https://www.sundaytosundaynyc.com/"}}, {"type": "node", "id": 4146329689, "lat": 40.7194207, "lon": -73.985079, "tags": {"addr:housenumber": "67", "addr:street": "Clinton Street", "amenity": "bar", "name": "2nd Floor on Clinton", "opening_hours": "Tu-Sa 19:00-02:00"}}, {"type": "node", "id": 4146329789, "lat": 40.7187356, "lon": -73.9869338, "tags": {"addr:housenumber": "102", "addr:postcode": "10002", "addr:street": "Norfolk Street", "amenity": "bar", "cocktails": "yes", "drink:beer": "yes", "drink:liquor": "yes", "drink:wine": "yes", "email": "thebackroomnyc@yahoo.com", "level": "-1", "name": "The Back Room", "opening_hours": "Mo-We 18:00-02:00+;Th-Fr 18:00-03:00+;Su 18:00-02:00+", "payment:credit_cards": "yes", "phone": "+1-212-228-5098", "reservation": "yes", "toilets": "yes", "website": "https://www.backroomnyc.com", "wheelchair": "no"}}, {"type": "node", "id": 4278854991, "lat": 40.7202021, "lon": -73.9875286, "tags": {"addr:city": "New York", "addr:housenumber": "133", "addr:postcode": "10002", "addr:state": "NY", "addr:street": "Essex Street", "amenity": "restaurant", "name": "Sons of Essex"}}, {"type": "node", "id": 4282785789, "lat": 40.7196706, "lon": -73.9873004, "tags": {"addr:city": "New York", "addr:housenumber": "123", "addr:postcode": "10002", "addr:state": "NY", "addr:street": "Rivington Street", "amenity": "bar", "description": "Eclectic, grungy hole-in-the-wall bar featuring affortable libations and $2 PBR cans.", "name": "Welcome to the Johnsons", "opening_hours": "Sa, Su 13:00-04:00; Mo-Fr 15:00-04:00", "payment:cash": "yes", "payment:credit_card": "yes", "sport": "billiards", "toilets": "yes", "toilets:unisex": "yes", "wheelchair": "no"}}, {"type": "node", "id": 4300313491, "lat": 40.7178785, "lon": -73.9907886, "tags": {"addr:city": "New York", "addr:housenumber": "86", "addr:postcode": "10002", "addr:state": "NY", "addr:street": "Allen Street", "amenity": "restaurant", "diet:vegan": "yes", "diet:vegetarian": "only", "email": "info@dirtcandynyc.com", "level": "0", "name": "Dirt Candy", "opening_hours": "Tu-Sa 17:30-20:30", "phone": "+1 212-228-7732", "reservation": "yes", "website": "https://www.dirtcandynyc.com/", "wikidata": "Q48743720"}}, {"type": "node", "id": 4305803512, "lat": 40.7197679, "lon": -73.9870333, "tags": {"amenity": "cafe", "cuisine": "coffee_shop;breakfast;sandwich", "drink:coffee": "yes", "drink:espresso": "yes", "drink:tea": "yes", "name": "Rex", "opening_hours": "Mo-Fr 07:00-19:00, Sa-Su 08:00-19:00", "phone": "+1-718-355-1386", "website": "https://rex-nyc.com"}}, {"type": "node", "id": 4457730480, "lat": 40.7190395, "lon": -73.9846805, "tags": {"addr:city": "New York", "addr:housenumber": "170", "addr:postcode": "10002", "addr:state": "NY", "addr:street": "Rivington Street", "amenity": "restaurant", "cuisine": "pizza", "delivery": "yes", "name": "Rivington Pizza", "opening_hours": "Su-Th 12:00-21:00; Fr-Sa 12:00-22:00", "phone": "+1-646-360-3343", "takeaway": "yes", "website": "https://www.rivingtonpizza.com/"}}, {"type": "node", "id": 4464270289, "lat": 40.7204555, "lon": -73.9893332, "tags": {"addr:city": "New York", "addr:housenumber": "42", "addr:postcode": "10002", "addr:state": "NY", "addr:street": "Rivington Street", "amenity": "bar", "name": "Jadis", "website": "https://jadisnyc.com/home"}}, {"type": "node", "id": 4550150891, "lat": 40.7200282, "lon": -73.987818, "tags": {"amenity": "bar"}}, {"type": "node", "id": 4561457047, "lat": 40.721434, "lon": -73.9858967}, {"type": "node", "id": 4561457049, "lat": 40.7216069, "lon": -73.9864684}, {"type": "node", "id": 4561457050, "lat": 40.7218536, "lon": -73.9856758}, {"type": "node", "id": 4561457052, "lat": 40.7220265, "lon": -73.9862475}, {"type": "node", "id": 4646776166, "lat": 40.7170517, "lon": -73.9869882}, {"type": "node", "id": 4646776170, "lat": 40.7168991, "lon": -73.98647}, {"type": "node", "id": 4646776171, "lat": 40.716866, "lon": -73.9871242}, {"type": "node", "id": 4668049689, "lat": 40.7206037, "lon": -73.984423, "tags": {"addr:city": "New York", "addr:housenumber": "23", "addr:postcode": "10002", "addr:state": "NY", "addr:street": "Clinton Street", "amenity": "cafe", "brand": "Boba Guys", "brand:wikidata": "Q125537779", "cuisine": "bubble_tea", "drink:coffee": "yes", "drink:tea": "yes", "name": "Boba Guys", "name:en": "Boba Guys", "opening_hours": "Mo-Th, Su 12:00-21:00; Fr, Sa 12:00-22:00", "takeaway": "yes", "website": "https://www.bobaguys.com/"}}, {"type": "node", "id": 4764733059, "lat": 40.7205419, "lon": -73.9844418, "tags": {"addr:city": "New York", "addr:housenumber": "25", "addr:postcode": "10002", "addr:state": "NY", "addr:street": "Clinton Street", "amenity": "restaurant", "branch": "Clinton Street", "cocktails": "yes", "cuisine": "ramen;japanese", "diet:vegetarian": "yes", "drink:beer": "yes", "drink:liquor": "yes", "drink:wine": "yes", "name": "Ivan Ramen", "opening_hours": "Fr, Sa 12:30-23:00; Mo-Th, Su 12:30-22:00", "phone": "+1-646-678-3859", "reservation": "recommended", "takeaway": "yes", "website": "https://www.ivanramen.com/location/clinton-st/"}}, {"type": "node", "id": 4764733068, "lat": 40.7208152, "lon": -73.9843043, "tags": {"addr:city": "New York", "addr:housenumber": "17", "addr:postcode": "10002", "addr:state": "NY", "addr:street": "Clinton Street", "amenity": "restaurant", "cuisine": "pizza", "indoor_seating": "yes", "name": "Uncle Sam's Pizza", "outdoor_seating": "no"}}, {"type": "node", "id": 4764733069, "lat": 40.7207405, "lon": -73.9843387, "tags": {"addr:city": "New York", "addr:housenumber": "21", "addr:postcode": "10002", "addr:state": "NY", "addr:street": "Clinton Street", "amenity": "bar", "bar": "wine_bar", "drink:beer": "yes", "drink:wine": "yes", "indoor_seating": "yes", "name": "Brick", "opening_hours": "Tu-Th 17:00-24:00, Fr-Sa 17:00-02:00, Su 14:00-22:00", "outdoor_seating": "no", "website": "https://www.brickwinebar.com", "wheelchair": "yes"}}, {"type": "node", "id": 4764733072, "lat": 40.72019, "lon": -73.984615, "tags": {"addr:city": "New York", "addr:housenumber": "35", "addr:postcode": "10002", "addr:state": "NY", "addr:street": "Clinton Street", "amenity": "bar", "name": "Donnybrook"}}, {"type": "node", "id": 4771852121, "lat": 40.7200177, "lon": -73.9878219, "tags": {"amenity": "bar", "name": "Verlaine", "name:en": "Verlaine"}}, {"type": "node", "id": 4771881060, "lat": 40.7206396, "lon": -73.984399, "tags": {"addr:city": "New York", "addr:housenumber": "23B", "addr:postcode": "10002", "addr:state": "NY", "addr:street": "Clinton Street", "name": "IMI Studios", "office": "yes"}}, {"type": "node", "id": 4771881068, "lat": 40.7185107, "lon": -73.9862303, "tags": {"addr:city": "New York", "addr:housenumber": "102", "addr:postcode": "10002", "addr:state": "NY", "addr:street": "Suffolk Street", "amenity": "cafe", "check_date": "2025-04-22", "name": "Davelle NYC", "opening_hours": "Mo-Fr 08:00-17:00; Sa 09:00-17:00", "website": "https://davellenewyork.com/"}}, {"type": "node", "id": 5108281325, "lat": 40.7203526, "lon": -73.9874524, "tags": {"addr:city": "New York", "addr:housenumber": "139", "addr:postcode": "10002", "addr:state": "NY", "addr:street": "Essex Street", "amenity": "restaurant", "cuisine": "caribbean", "name": "Patac\u00f3n Pisao", "name:es": "Patac\u00f3n Pisao"}}, {"type": "node", "id": 5209387823, "lat": 40.7179116, "lon": -73.9898326, "tags": {"amenity": "bar", "bar": "wine_bar", "cuisine": "tapas", "drink:beer": "yes", "drink:wine": "yes", "happy_hours": "Mo-Fr 17:00-19:00, Sa-Su 15:00-19:00", "name": "Ten Bells", "opening_hours": "Mo-Fr 17:00-02:00, Sa-Su 15:00-02:00", "website": "https://tenbellsnyc.com"}}, {"type": "node", "id": 5243548102, "lat": 40.7190103, "lon": -73.9845737, "tags": {"addr:city": "New York", "addr:county": "New York", "addr:housenumber": "172", "addr:postcode": "10002", "addr:state": "NY", "addr:street": "Rivington Street", "amenity": "cafe", "board_games": "yes", "cuisine": "sandwich;smoothie;coffee;beer", "description": "Eclectic coffee shop with board games and evening comedy also offering small bites and bottled beer.", "internet_access": "yes", "internet_access:fee": "no", "internet_access:password": "Orange4321", "internet_access:ssid": "Black Cat guest-5G", "name": "Black Cat LES", "opening_hours": "Mo-Fr 07:00-22:00; Sa-Su 08:00-22:00", "outdoor_seating": "limited", "phone": "+1-646-918-7711", "website": "https://blackcatles.com/", "wheelchair": "yes"}}, {"type": "node", "id": 5402541794, "lat": 40.7196475, "lon": -73.9884561, "tags": {"addr:city": "New York", "addr:housenumber": "122", "addr:postcode": "10002", "addr:state": "NY", "addr:street": "Ludlow Street", "amenity": "restaurant", "cuisine": "japanese", "description": "Meat and vegetarian ramen soups and salads in a plant-accented space with wooden counters.", "diet:vegetarian": "yes", "drink:beer": "served", "indoor_seating": "yes", "name": "Ramen Ishida", "opening_hours": "Mo-Sa 12:00-16:00, 17:30-22:00", "outdoor_seating": "no", "phone": "+1 646-590-3276", "takeaway": "yes", "website": "https://ramenishida.com", "wheelchair": "yes"}}, {"type": "node", "id": 5443702879, "lat": 40.7204957, "lon": -73.9894353, "tags": {"addr:city": "New York", "addr:housenumber": "78", "addr:postcode": "10002", "addr:state": "NY", "addr:street": "Rivington Street", "amenity": "restaurant", "cuisine": "italian;coffee", "diet:vegetarian": "yes", "name": "Sauce", "opening_hours": "Mo-Th 17:00-22:30; Fr 17:00-23:00; Sa 11:00-23:30; Su 11:00-22:30", "payment:credit_cards": "yes", "phone": "+1-212-420-7700", "reservation": "recommended", "takeaway": "yes", "website": "https://www.saucerestaurant.com/"}}, {"type": "node", "id": 5500005644, "lat": 40.7200308, "lon": -73.9876041, "tags": {"addr:city": "New York", "addr:housenumber": "131", "addr:postcode": "10002", "addr:state": "NY", "addr:street": "Essex Street", "amenity": "restaurant", "cuisine": "uruguayan", "name": "Charrua Uruguayan Restaurant", "name:es": "Charrua Restaurante Uruguayo", "phone": "+1-212-677-5838", "website": "http://www.charruanyc.com"}}, {"type": "node", "id": 5551498985, "lat": 40.7198504, "lon": -73.9872976, "tags": {"addr:city": "New York", "addr:housenumber": "118", "addr:postcode": "10002", "addr:state": "NY", "addr:street": "Rivington Street", "amenity": "bar", "atm": "yes", "brewery": "various", "check_date": "2024-10-10", "cocktails": "yes", "drink:beer": "yes", "name": "The Magician", "phone": "+1-212-673-7851", "toilets": "yes", "toilets:access": "permissive", "toilets:unisex": "no", "toilets:wheelchair": "no", "wheelchair": "yes"}}, {"type": "node", "id": 5604044815, "lat": 40.7163717, "lon": -73.9875854, "tags": {"addr:city": "New York", "addr:housenumber": "384", "addr:postcode": "10002", "addr:state": "NY", "addr:street": "Grand Street", "amenity": "restaurant", "cuisine": "seafood", "name": "Crab Du Jour Xpress Cajun", "opening_hours": "Mo-Su 11:00-04:00", "phone": "+19176757227", "website": "crabdujourxpressny.com"}}, {"type": "node", "id": 5616248355, "lat": 40.7173439, "lon": -73.9893919, "tags": {"amenity": "school", "name": "High School for Dual Language and Asian Studies"}}, {"type": "node", "id": 5627943322, "lat": 40.7186318, "lon": -73.9893489, "tags": {"addr:housenumber": "95", "addr:postcode": "10002", "addr:state": "NY", "addr:street": "Delancey Street", "amenity": "restaurant", "check_date": "2023-04-06", "name": "Dinner on Ludlow"}}, {"type": "node", "id": 5854357053, "lat": 40.7179259, "lon": -73.9910917}, {"type": "node", "id": 5903046274, "lat": 40.717863, "lon": -73.9851883, "tags": {"addr:city": "New York", "addr:housenumber": "172", "addr:postcode": "10002", "addr:state": "NY", "addr:street": "Delancey Street", "amenity": "restaurant", "cuisine": "japanese;ramen", "delivery": "yes", "dish": "ramen", "drink:beer": "yes", "drink:sake": "yes", "email": "info@nakamuranyc.com", "facebook": "nakura.ratube", "instagram": "nakamuranyc", "name": "Nakamura", "opening_hours": "Mo-Th 12:00-21:00; Fr, Sa 12:00-22:00", "outdoor_seating": "no", "phone": "+1-212-614-1810", "reservation": "yes", "website": "https://www.nakamuranyc.com"}}, {"type": "node", "id": 5916553158, "lat": 40.7180934, "lon": -73.9897625, "tags": {"addr:housenumber": "250", "addr:postcode": "10002", "addr:street": "Broome Street", "amenity": "restaurant", "contact:instagram": "fatchoynyc", "cuisine": "asian", "delivery": "yes", "diet:vegan": "yes", "email": "fatchoynyc@gmail.com", "name": "Fat Choy", "opening_hours": "Fr, Sa 12:00-21:00; Tu-Th, Su 12:00-20:00", "phone": "+1 347-778-5889", "takeaway": "yes", "website": "https://www.fatchoynyc.com/"}}, {"type": "node", "id": 5916567906, "lat": 40.7184164, "lon": -73.9890541, "tags": {"addr:city": "New York", "addr:housenumber": "92", "addr:postcode": "10002", "addr:state": "NY", "addr:street": "Ludlow Street", "amenity": "restaurant", "cuisine": "american", "diet:dairy_free": "yes", "diet:gluten_free": "yes", "diet:nut_free": "yes", "diet:vegan": "yes", "diet:vegetarian": "yes", "drink:coffee": "yes", "happy_hours": "We-Fr 17:00-19:00; Th-Sa 23:00-28:00", "name": "Hotel Chantelle", "opening_hours": "Tu,We 17:00-23:00; Th 17:00-02:00; Fr 15:00-04:00; Sa 11:00-04:00; Su 11:00-22:00", "outdoor_seating": "yes", "phone": "+1-212-254-9100", "reservation": "recommended", "takeaway": "yes", "website": "https://hotelchantelle.com"}}, {"type": "node", "id": 5978792897, "lat": 40.7179442, "lon": -73.9902067, "tags": {"amenity": "bar", "cocktails": "yes", "name": "Armada", "opening_hours": "Mo-We 12:00-01:00, Th-Sa 12:00-02:00, Su 12:00-01:00", "website": "https://www.armadanyc.com"}}, {"type": "node", "id": 6009633100, "lat": 40.7166636, "lon": -73.9864325}, {"type": "node", "id": 6009633103, "lat": 40.7167898, "lon": -73.9868571}, {"type": "node", "id": 6053282586, "lat": 40.7158165, "lon": -73.9897834, "tags": {"addr:city": "New York", "addr:housenumber": "27A", "addr:postcode": "10002", "addr:state": "NY", "addr:street": "Essex Street", "amenity": "restaurant", "cuisine": "chinese", "full_name": "China North Dumpling", "name": "North Dumpling", "opening_hours": "Mo-Su 09:00-23:00", "phone": "+1-212-529-2700", "website": "http://www.china-north-dumpling.com"}}, {"type": "node", "id": 6053876585, "lat": 40.7187155, "lon": -73.9903472, "tags": {"addr:housenumber": "100", "addr:postcode": "10002", "addr:street": "Allen Street", "amenity": "restaurant", "cuisine": "chinese", "name": "Congee Village", "name:zh": "\u7ca5\u4e4b\u5bb6", "opening_hours": "Su-Th 10:30-00:30; Fr-Sa 10:30-01:00", "phone": "+1-212-941-1818", "website": "https://www.congeevillagenyc.com/"}}, {"type": "node", "id": 6122271185, "lat": 40.717926, "lon": -73.989878, "tags": {"addr:housenumber": "249", "addr:postcode": "10002", "addr:street": "Broome Street", "amenity": "restaurant", "cuisine": "sushi", "name": "Zest Sushi", "phone": "+1-212-677-3158"}}, {"type": "node", "id": 6233725908, "lat": 40.7198803, "lon": -73.9885811, "tags": {"addr:city": "New York", "addr:housenumber": "217", "addr:postcode": "10002", "addr:state": "NY", "addr:street": "Ludlow Street", "amenity": "restaurant", "cocktails": "yes", "cuisine": "asian", "description": "Relaxed gastropub offering cocktails and eclectic nibbles in a cozy atmosphere.", "name": "Set L.E.S", "opening_hours": "Mo-We 17:00-00:00; Th 17:00-01:00; Fr 17:00-02:00; Sa 12:00-02:00; Su 12:00-22:00", "phone": "+1-212-982-8225", "website": "https://set-les.com", "wheelchair": "yes"}}, {"type": "node", "id": 6233725911, "lat": 40.7196705, "lon": -73.9886785, "tags": {"addr:city": "New York", "addr:housenumber": "121", "addr:postcode": "10002", "addr:state": "NY", "addr:street": "Ludlow Street", "amenity": "restaurant", "cuisine": "japanese", "drink:beer": "yes", "drink:sake": "yes", "name": "Izakaya Juraku", "phone": "+1-212-477-0100", "website": "https://www.izakayajuraku.com"}}, {"type": "node", "id": 6233725914, "lat": 40.7194846, "lon": -73.9888709, "tags": {"addr:city": "New York", "addr:housenumber": "113", "addr:postcode": "10002", "addr:state": "NY", "addr:street": "Ludlow Street", "amenity": "bar", "description": "This basic, bi-level Bulgarian bar features live bands, DJs, and a subzero vodka room.", "name": "Mehanata Bulgarian Bar", "opening_hours": "Th-Sa 20:00-04:00", "phone": "+1-212-625-0981", "website": "https://mehanata.com"}}, {"type": "node", "id": 6233725915, "lat": 40.719468, "lon": -73.9888217, "tags": {"addr:city": "New York", "addr:housenumber": "113", "addr:postcode": "10002", "addr:state": "NY", "addr:street": "Ludlow Street", "amenity": "restaurant", "cuisine": "filipino;thai", "name": "Kuma Inn", "opening_hours": "Mo-We, Su 06:00-23:00; Th-Sa 18:00-00:00", "phone": "+1-212-353-8866", "reservation": "yes", "takeaway": "yes", "wheelchair": "no"}}, {"type": "node", "id": 6233725916, "lat": 40.719392, "lon": -73.9888436, "tags": {"addr:city": "New York", "addr:housenumber": "109", "addr:postcode": "10002", "addr:state": "NY", "addr:street": "Ludlow Street", "amenity": "restaurant", "cuisine": "mexican", "description": "Spacious Mexican cantina and lounge spread out over three levels offering over 150 tequilas.", "name": "Los Feliz", "opening_hours": "We 17:00-01:00; Th 17:00-02:00; Fr-Sa 17:00-04:00", "phone": "+1-212-228-8383", "reservation": "yes", "website": "https://losfeliznyc.com"}}, {"type": "node", "id": 6233803805, "lat": 40.7197029, "lon": -73.9884286, "tags": {"addr:city": "New York", "addr:housenumber": "124", "addr:postcode": "10002", "addr:state": "NY", "addr:street": "Ludlow Street", "amenity": "cafe", "cuisine": "coffee_shop", "description": "Pacific Northwest chain serving house-roasted coffee in hip, relaxed surroundings.", "indoor_seating": "no", "name": "Caff\u00e8 Vita", "opening_hours": "Mo-Fr 07:00-21:00; Sa-Su 08:00-21:00", "outdoor_seating": "yes", "phone": "+1-212-260-8482", "website": "https://caffevita.com"}}, {"type": "node", "id": 6233803807, "lat": 40.7199647, "lon": -73.9882898, "tags": {"addr:city": "New York", "addr:housenumber": "101", "addr:postcode": "10002", "addr:state": "NY", "addr:street": "Rivington Street", "amenity": "bar", "brewery": "yes", "building": "yes", "indoor_seating": "yes", "name": "Pretty Ricky's", "opening_hours": "Mo-Su 17:00-02:00", "outdoor_seating": "yes", "phone": "+1-646-429-3957", "website": "https://www.prettyrickys.com/"}}, {"type": "node", "id": 6233954065, "lat": 40.7194025, "lon": -73.9894514, "tags": {"addr:city": "New York", "addr:housenumber": "90", "addr:postcode": "10002", "addr:state": "NY", "addr:street": "Delancey Street", "amenity": "bar", "brewery": "yes", "cocktails": "yes", "description": "Iconic bar with arty fixtures, space for gallery shows and a separate space downstairs.", "name": "Max Fish", "wheelchair": "yes"}}, {"type": "node", "id": 6233954069, "lat": 40.7199157, "lon": -73.9891737, "tags": {"addr:city": "New York", "addr:housenumber": "138", "addr:postcode": "10002", "addr:state": "NY", "addr:street": "Orchard Street", "amenity": "restaurant", "cuisine": "american", "description": "Trendy New American venue offering a dinner-only fixed-price menu in bare-bones but chic surrounds.", "name": "Contra", "opening_hours": "Tu-Sa 18:00-22:00", "phone": "+1-212-466-4633", "reservation": "yes", "website": "https://contranyc.com", "wheelchair": "yes"}}, {"type": "node", "id": 6233954071, "lat": 40.7200045, "lon": -73.9891428, "tags": {"addr:city": "New York", "addr:housenumber": "142", "addr:postcode": "10002", "addr:state": "NY", "addr:street": "Orchard Street", "amenity": "restaurant", "cuisine": "american", "name": "Wildair", "opening_hours": "Mo-Th, Su 18:00-23:00; Fr-Sa 18:00-23:30", "phone": "+1-646-964-5624", "website": "https://wildair.nyc"}}, {"type": "node", "id": 6236928052, "lat": 40.7198154, "lon": -73.9903628, "tags": {"addr:city": "New York", "addr:housenumber": "123", "addr:postcode": "10002", "addr:state": "NY", "addr:street": "Allen Street", "amenity": "bar", "brewery": "yes", "check_date": "2024-11-19", "cocktails": "yes", "description": "Draft beer and organic wine bar offering a simple menu of small plates in an intimate, rustic space.", "drink:beer": "served", "drink:wine": "served", "name": "Antler Beer & Wine Dispensary", "phone": "+1-212-432-5000", "wheelchair": "no"}}, {"type": "node", "id": 6236928056, "lat": 40.7200481, "lon": -73.9902485, "tags": {"addr:city": "New York", "addr:housenumber": "129", "addr:postcode": "10002", "addr:state": "NY", "addr:street": "Allen Street", "amenity": "cafe", "cuisine": "coffee_shop", "drink:wine": "served", "name": "Joey Bats Caf\u00e9", "not:brand:wikidata": "Q24191943", "opening_hours": "Mo-Th, Su 11:00-21:00; Fr 11:00-00:00; Sa 11:00-00:00", "phone": "+1-212-519-2289", "website": "https://joeybatscafe.com"}}, {"type": "node", "id": 6236943852, "lat": 40.7208818, "lon": -73.9898439, "tags": {"addr:city": "New York", "addr:housenumber": "151", "addr:postcode": "10002", "addr:state": "NY", "addr:street": "Allen Street", "amenity": "cafe", "cuisine": "coffee_shop", "name": "Kabisera", "opening_hours": "Mo-Fr 07:30-20:00; Sa-Su 08:30-20:00", "phone": "+1-929-920-8250", "website": "https://www.kabisera.com/"}}, {"type": "node", "id": 6293417989, "lat": 40.7191277, "lon": -73.9849303, "tags": {"addr:housenumber": "72", "addr:postcode": "10002", "addr:street": "Clinton Street", "amenity": "restaurant", "cuisine": "latin_american", "delivery": "yes", "email": "info@cibaorestaurant.com", "name": "Cibao Restaurant", "opening_hours": "Mo-Su 06:30-23:30", "phone": "+1-212-228-0703", "takeaway": "yes", "website": "https://cibaorestaurant.com"}}, {"type": "node", "id": 6293667224, "lat": 40.7207264, "lon": -73.9840992, "tags": {"name": "Clinton Travel", "office": "travel_agent"}}, {"type": "node", "id": 6293667225, "lat": 40.7204867, "lon": -73.9842269, "tags": {"addr:city": "New York", "addr:housenumber": "26", "addr:postcode": "10002", "addr:state": "NY", "addr:street": "Clinton Street", "amenity": "cafe", "cuisine": "coffee_shop;japanese", "description": "Japanese-inspired cafe with separate petting room for cats up for adoption. $20 fee for one hour with felines.", "drink:beer": "yes", "drink:coffee": "yes", "drink:espresso": "yes", "drink:sake": "yes", "drink:tea": "yes", "drink:wine": "yes", "email": "info@konekonyc.com", "facebook": "konekonyc", "instagram": "konekonyc", "internet_access": "yes", "internet_access:fee": "no", "internet_access:password": "KONEKO33", "internet_access:ssid": "KONEKOCAFE", "name": "Koneko Cat Cafe", "opening_hours": "We-Su 09:00-21:00", "outdoor_seating": "no", "phone": "+1 646-370-9699", "reservation": "recommended", "theme": "cat", "twitter": "konekonyc", "website": "https://www.konekonyc.com", "wheelchair": "limited"}}, {"type": "node", "id": 6329884470, "lat": 40.7155745, "lon": -73.9895935}, {"type": "node", "id": 6330229655, "lat": 40.7190053, "lon": -73.9905257}, {"type": "node", "id": 6330229656, "lat": 40.7189809, "lon": -73.9905385}, {"type": "node", "id": 6330229657, "lat": 40.7189697, "lon": -73.9905485}, {"type": "node", "id": 6330229658, "lat": 40.7189535, "lon": -73.9905613}, {"type": "node", "id": 6330229659, "lat": 40.7189393, "lon": -73.9905747}, {"type": "node", "id": 6330229660, "lat": 40.7189098, "lon": -73.9905894}, {"type": "node", "id": 6330229661, "lat": 40.7185159, "lon": -73.9907959}, {"type": "node", "id": 6330229662, "lat": 40.7184818, "lon": -73.990808}, {"type": "node", "id": 6330229663, "lat": 40.7184595, "lon": -73.9908134}, {"type": "node", "id": 6330229664, "lat": 40.7184204, "lon": -73.9908328}, {"type": "node", "id": 6330229665, "lat": 40.7183995, "lon": -73.9907651}, {"type": "node", "id": 6330229666, "lat": 40.7184249, "lon": -73.9907504}, {"type": "node", "id": 6330229667, "lat": 40.7184554, "lon": -73.9907249}, {"type": "node", "id": 6330229668, "lat": 40.7184849, "lon": -73.9907034}, {"type": "node", "id": 6330229669, "lat": 40.7185083, "lon": -73.990688}, {"type": "node", "id": 6330229670, "lat": 40.7189133, "lon": -73.9904794}, {"type": "node", "id": 6330229671, "lat": 40.7189464, "lon": -73.9904794}, {"type": "node", "id": 6330229672, "lat": 40.7189855, "lon": -73.9904627}, {"type": "node", "id": 6330229677, "lat": 40.7182298, "lon": -73.9909254}, {"type": "node", "id": 6330229678, "lat": 40.7182125, "lon": -73.990863}, {"type": "node", "id": 6330229679, "lat": 40.7181652, "lon": -73.9908778}, {"type": "node", "id": 6330229680, "lat": 40.7181261, "lon": -73.9908865}, {"type": "node", "id": 6330229681, "lat": 40.7180941, "lon": -73.9909012}, {"type": "node", "id": 6330229682, "lat": 40.7180737, "lon": -73.9909133}, {"type": "node", "id": 6330229683, "lat": 40.7179848, "lon": -73.9909576}, {"type": "node", "id": 6330229684, "lat": 40.7179426, "lon": -73.9909797}, {"type": "node", "id": 6330229685, "lat": 40.7175787, "lon": -73.9911648}, {"type": "node", "id": 6330229686, "lat": 40.7175401, "lon": -73.9911902}, {"type": "node", "id": 6330229687, "lat": 40.7175238, "lon": -73.9912097}, {"type": "node", "id": 6330229688, "lat": 40.7175106, "lon": -73.9912231}, {"type": "node", "id": 6330229689, "lat": 40.7174766, "lon": -73.9912378}, {"type": "node", "id": 6330229690, "lat": 40.7174974, "lon": -73.9913066}, {"type": "node", "id": 6330229691, "lat": 40.7175716, "lon": -73.9912695}, {"type": "node", "id": 6330229692, "lat": 40.7180605, "lon": -73.99103}, {"type": "node", "id": 6330229693, "lat": 40.7181434, "lon": -73.9909844}, {"type": "node", "id": 6330229694, "lat": 40.7181784, "lon": -73.9909576}, {"type": "node", "id": 6330229695, "lat": 40.7181962, "lon": -73.9909421}, {"type": "node", "id": 6356964285, "lat": 40.7209969, "lon": -73.9886406, "tags": {"amenity": "restaurant", "name": "DIU Tea"}}, {"type": "node", "id": 6910650054, "lat": 40.7198493, "lon": -73.9903448, "tags": {"amenity": "restaurant", "cuisine": "thai", "name": "Indi Thai"}}, {"type": "node", "id": 6940016036, "lat": 40.7189073, "lon": -73.9901737, "tags": {"addr:housenumber": "79", "addr:postcode": "10002", "addr:street": "Delancey Street", "amenity": "cafe", "drink:coffee": "yes", "drink:espresso": "yes", "name": "Rise Brewing Company", "opening_hours": "Mo-Fr 08:00-16:00; Sa-Su 09:00-17:00", "outdoor_seating": "sidewalk", "phone": "+1-646-400-0410", "toilets": "no", "website": "https://risebrewingco.com/pages/cafes"}}, {"type": "node", "id": 6940112503, "lat": 40.7203717, "lon": -73.9889547, "tags": {"addr:housenumber": "144", "addr:postcode": "10002", "addr:street": "Orchard Street", "amenity": "restaurant", "cuisine": "italian", "drink:beer": "yes", "drink:wine": "yes", "name": "Trapizzino", "opening_hours": "Mo-We 11:00-23:00; Th 11:00-24:00; Fr-Sa 11:00-03:00; Su 11:00-22:00", "phone": "+1-212-475-2555", "toilets": "yes", "website": "https://www.trapizzinousa.com/location/trapizzino-les/"}}, {"type": "node", "id": 7048181785, "lat": 40.7184645, "lon": -73.9899363, "tags": {"amenity": "bar", "cocktails": "yes", "cuisine": "french;eclectic", "drink:beer": "yes", "drink:liquor": "yes", "drink:wine": "yes", "happy_hours": "Tu-Th 17:00-19:00, Fr 17:00-18:30, Su 17:00-19:00", "name": "Excuse My French", "opening_hours": "Tu-Th 17:00-24:00, Fr-Sa 17:00-01:00, Su 17:00-23:00", "phone": "+1-212-780-9600", "website": "https://www.excusemyfrench-nyc.com"}}, {"type": "node", "id": 7191405785, "lat": 40.7182693, "lon": -73.9881502, "tags": {"amenity": "bar", "name": "The Grand Delancey", "opening_hours": "Mo-Su 11:00-01:00", "website": "https://www.thegranddelancey.com/"}}, {"type": "node", "id": 7465345154, "lat": 40.7170354, "lon": -73.9869326}, {"type": "node", "id": 8231896478, "lat": 40.7170027, "lon": -73.9868217}, {"type": "node", "id": 8925324596, "lat": 40.7170454, "lon": -73.9849848}, {"type": "node", "id": 8925324598, "lat": 40.7165723, "lon": -73.9847992}, {"type": "node", "id": 8925324599, "lat": 40.7166831, "lon": -73.9851723}, {"type": "node", "id": 8925324603, "lat": 40.7169348, "lon": -73.984612}, {"type": "node", "id": 8958523249, "lat": 40.7197247, "lon": -73.9848672, "tags": {"amenity": "restaurant", "cuisine": "japanese", "name": "Yopparai", "outdoor_seating": "sidewalk;street", "website": "https://yopparainyc.com"}}, {"type": "node", "id": 8958523253, "lat": 40.7192706, "lon": -73.9850944, "tags": {"addr:housenumber": "71", "addr:postcode": "10002", "addr:street": "Clinton Street", "amenity": "restaurant", "cocktails": "yes", "cuisine": "thai", "delivery": "yes", "drink:wine": "served", "email": "thailiciousny@gmail.com", "facebook": "thailiciousnyc", "instagram": "thailiciousnyc", "name": "Thailicious", "opening_hours": "Mo-Tu 15:30-22:00; We-Fr 11:00-15:00,16:00-22:00; Sa-Su 12:00-15:00,15:30-22:00", "outdoor_seating": "yes", "phone": "+1 646-882-0343", "takeaway": "yes", "website": "https://www.thailiciousny.com"}}, {"type": "node", "id": 8958523254, "lat": 40.7194065, "lon": -73.9850264, "tags": {"addr:housenumber": "67", "addr:postcode": "10002", "addr:street": "Clinton Street", "amenity": "pub", "cocktails": "yes", "cuisine": "burger", "delivery": "yes", "drink:beer": "draught", "drink:wine": "served", "email": "info@theburgary.com", "facebook": "theburgary", "instagram": "theburgary", "name": "The Burgary", "opening_hours": "14:00-22:00", "outdoor_seating": "sidewalk;street", "phone": "+1 212-529-6900", "takeaway": "yes", "website": "https://www.theburgary.com"}}, {"type": "node", "id": 8960350844, "lat": 40.716745, "lon": -73.9863925}, {"type": "node", "id": 8960350851, "lat": 40.7167701, "lon": -73.9863797}, {"type": "node", "id": 8960350853, "lat": 40.7167586, "lon": -73.986752}, {"type": "node", "id": 8960350854, "lat": 40.7166781, "lon": -73.9864815}, {"type": "node", "id": 8960350859, "lat": 40.7167754, "lon": -73.9868087}, {"type": "node", "id": 8960429322, "lat": 40.7193451, "lon": -73.9850545, "tags": {"amenity": "restaurant", "cuisine": "japanese", "name": "Yopparai Ronin", "outdoor_seating": "sidewalk;street", "website": "https://yopparainyc.com"}}, {"type": "node", "id": 9091304271, "lat": 40.7197313, "lon": -73.9877665, "tags": {"addr:city": "New York", "addr:housenumber": "123", "addr:postcode": "10002", "addr:state": "NY", "addr:street": "Essex Street", "alt_name": "Rojas Center", "name": "J. Rojas Center", "office": "tax_advisor", "phone": "+1-212-420-1616", "service:notary": "yes", "website": "http://rojascenter.com/"}}, {"type": "node", "id": 9128276521, "lat": 40.717912, "lon": -73.9853522, "tags": {"addr:city": "New York", "addr:housenumber": "168", "addr:postcode": "10002", "addr:state": "NY", "addr:street": "Delancey Street", "amenity": "bar", "name": "The Delancey", "nycdoitt:bin": "1004214", "opening_hours": "Mo-Su 17:00-04:00", "tourism": "yes"}}, {"type": "node", "id": 9205440306, "lat": 40.7190114, "lon": -73.9843239}, {"type": "node", "id": 9205440307, "lat": 40.7188569, "lon": -73.9841159}, {"type": "node", "id": 9224791783, "lat": 40.7163988, "lon": -73.987669, "tags": {"addr:city": "New York", "addr:housenumber": "384", "addr:postcode": "10002", "addr:state": "NY", "addr:street": "Grand Street", "amenity": "restaurant", "cuisine": "pizza", "name": "Grand Street Pizza", "outdoor_seating": "yes", "phone": "+16469186194", "website": "https://www.grandstreetpizza.com/"}}, {"type": "node", "id": 9224803926, "lat": 40.7179347, "lon": -73.9854269, "tags": {"addr:city": "New York", "addr:housenumber": "168 1/2", "addr:postcode": "10002", "addr:state": "NY", "addr:street": "Delancey Street", "amenity": "restaurant", "branch": "Lower East Side", "cuisine": "chinese", "delivery": "yes", "instagram": "kingscoimperial", "name": "Kings Co Imperial LES", "opening_hours": "Mo-Su 17:00-22:00", "phone": "+1-212-475-0244", "reservation": "yes", "takeaway": "yes", "twitter": "kingscoimperial", "website": "https://www.kingscoimperial.com/"}}, {"type": "node", "id": 9340040548, "lat": 40.7183759, "lon": -73.9853057, "tags": {"addr:housenumber": "90", "addr:street": "Clinton Street", "amenity": "restaurant", "branch": "Lower east side", "cuisine": "chinese;dim_sum", "delivery": "yes", "email": "sales@3times.com", "name": "Three Times ", "opening_hours": "Mo-Th 11:30-00:15; Fr 11:30-01:15; Sa 12:00-01:15; Su 12:00-00:15", "phone": "+1 646-609-6324", "reservation": "yes", "takeaway": "yes", "website": "https://www.3times.com"}}, {"type": "node", "id": 9340215860, "lat": 40.7181358, "lon": -73.9860644, "tags": {"addr:housenumber": "156", "addr:street": "Delancey Street", "amenity": "cafe", "cuisine": "smoothie", "delivery": "yes", "dog": "no", "facebook": "hawasmoothies", "instagram": "hawasmoothies", "name": "Hawa Smoothies", "opening_hours": "Mo-Fr 08:00-19:00; Sa 09:30-19:00; Su 11:30-18:00", "phone": "+1 646-799-9605", "takeaway": "yes", "website": "hawasmoothie.com"}}, {"type": "node", "id": 9371206941, "lat": 40.7170621, "lon": -73.9870236}, {"type": "node", "id": 9371206942, "lat": 40.7168591, "lon": -73.9863341}, {"type": "node", "id": 9371206963, "lat": 40.7177681, "lon": -73.9872037, "tags": {"addr:city": "New York", "addr:housenumber": "145", "addr:state": "NY", "addr:street": "Delancey Street", "name": "Essex Office", "office": "yes", "website": "https://essexoffice.com/"}}, {"type": "node", "id": 9371206973, "lat": 40.7168549, "lon": -73.9856403, "tags": {"amenity": "cafe", "name": "GrandLo Cafe"}}, {"type": "node", "id": 9374707264, "lat": 40.7175692, "lon": -73.9879462, "tags": {"amenity": "restaurant", "name": "Zerza"}}, {"type": "node", "id": 9374707265, "lat": 40.7175729, "lon": -73.9880757, "tags": {"amenity": "cafe", "name": "Caf\u00e9 d'Avignon"}}, {"type": "node", "id": 9374707269, "lat": 40.7176315, "lon": -73.9880451, "tags": {"amenity": "restaurant", "name": "Dominican Cravings"}}, {"type": "node", "id": 9374707270, "lat": 40.7176799, "lon": -73.9880718, "tags": {"amenity": "restaurant", "name": "Mille Nonne"}}, {"type": "node", "id": 9374707271, "lat": 40.7176452, "lon": -73.9880905, "tags": {"amenity": "restaurant", "name": "Puebla Mexican Food"}}, {"type": "node", "id": 9374707272, "lat": 40.7176603, "lon": -73.9881324, "tags": {"amenity": "restaurant", "name": "Peasant Stock"}}, {"type": "node", "id": 9374707273, "lat": 40.7177582, "lon": -73.9881516, "tags": {"amenity": "restaurant", "name": "Eat Gai"}}, {"type": "node", "id": 9374707279, "lat": 40.7179128, "lon": -73.988306, "tags": {"amenity": "restaurant", "name": "Arancini Bros."}}, {"type": "node", "id": 9374707281, "lat": 40.7179878, "lon": -73.9882622, "tags": {"amenity": "restaurant", "name": "Don Ceviche"}}, {"type": "node", "id": 9374707282, "lat": 40.7180014, "lon": -73.9882157, "tags": {"amenity": "restaurant", "name": "Kotti Berliner D\u00f6ner Kebab"}}, {"type": "node", "id": 9374707290, "lat": 40.7180763, "lon": -73.988245, "tags": {"addr:city": "New York", "addr:housenumber": "88", "addr:postcode": "10002", "addr:state": "NY", "addr:street": "Essex Street", "addr:unit": "3", "amenity": "restaurant", "name": "Shopsin's", "opening_hours": "We-Fr 09:00-15:00; Sa-Su 10:00-16:00", "website": "https://shopsins.com/"}}, {"type": "node", "id": 9374707295, "lat": 40.7181833, "lon": -73.9881853, "tags": {"amenity": "restaurant", "name": "Saffron"}}, {"type": "node", "id": 9374707296, "lat": 40.718235, "lon": -73.9880781, "tags": {"addr:city": "New York", "addr:housenumber": "119", "addr:postcode": "10002", "addr:state": "NY", "addr:street": "Delancey Street", "amenity": "restaurant", "cuisine": "indian", "email": "hello@dhamaka.nyc", "level": "0", "name": "Dhamaka", "phone": "+1 212-204-8616", "website": "https://www.dhamaka.nyc"}}, {"type": "node", "id": 9395814946, "lat": 40.7195998, "lon": -73.9836171}, {"type": "node", "id": 9395814947, "lat": 40.7193813, "lon": -73.9837294}, {"type": "node", "id": 9395814949, "lat": 40.7194647, "lon": -73.9840117}, {"type": "node", "id": 9396040820, "lat": 40.7194114, "lon": -73.9838313}, {"type": "node", "id": 9543909517, "lat": 40.719825, "lon": -73.9878343, "tags": {"amenity": "restaurant", "cuisine": "latin_american", "name": "El Castillo de Jagua", "opening_hours": "Mo-Th 08:00-21:00; Fr-Sa 08:00-22:00; Su 08:00-21:00"}}, {"type": "node", "id": 9543909617, "lat": 40.7187446, "lon": -73.9909123, "tags": {"addr:housenumber": "95", "addr:postcode": "10002", "addr:street": "Allen Street", "amenity": "restaurant", "branch": "Allen Street", "cocktails": "yes", "cuisine": "colombian", "delivery": "yes", "dish": "empanada", "drink:beer": "yes", "email": "info@empmamanyc.com", "facebook": "empanadamamanyc", "level": "0", "name": "Empanada Mama", "opening_hours": "10:00-05:00", "phone": "+1 212-673-0300", "takeaway": "yes", "twitter": "empanadamamanyc", "website": "https://www.empmamanyc.com/"}}, {"type": "node", "id": 9630352308, "lat": 40.7190702, "lon": -73.990767, "tags": {"addr:housenumber": "63", "addr:postcode": "10002", "addr:street": "Delancey Street", "amenity": "restaurant", "contact:instagram": "douskanyc", "contact:phone": "+1 646-657-0908", "contact:website": "https://www.douskanyc.com", "cuisine": "sushi;japanese", "delivery": "yes", "indoor_seating": "yes", "level": "0", "name": "Douska", "opening_hours": "Mo-Fr 15:00-22:30; Sa, Su 12:00-22:30", "outdoor_seating": "yes", "takeaway": "yes"}}, {"type": "node", "id": 9652667219, "lat": 40.7207983, "lon": -73.9866677, "tags": {"amenity": "restaurant", "cuisine": "pizza", "name": "Stanton Street Pizza"}}, {"type": "node", "id": 9715980449, "lat": 40.7162197, "lon": -73.9895853, "tags": {"addr:city": "New York", "addr:housenumber": "39", "addr:postcode": "10002", "addr:state": "NY", "addr:street": "Essex Street", "amenity": "cafe", "cuisine": "coffee_shop;sandwich", "name": "Flower's Cafe", "opening_hours": "Mo-Su 07:00-21:00", "phone": "+1 2123900630", "website": "https://www.flowerscafenyc.com/"}}, {"type": "node", "id": 9715980450, "lat": 40.7162726, "lon": -73.9895495, "tags": {"addr:city": "New York", "addr:housenumber": "41", "addr:postcode": "10002", "addr:state": "NY", "addr:street": "Essex Street", "amenity": "restaurant", "cuisine": "japanese", "name": "Rabbit House Omakase & Sake Bar", "opening_hours": "Tu,We 17:30-23:00; Th-Sa 17:30-24:00; Su 17:30-22:00", "phone": "+1-646-448-4022", "website": "https://rabbithouse.nyc/"}}, {"type": "node", "id": 9717341632, "lat": 40.7161993, "lon": -73.9895927, "tags": {"addr:city": "New York", "addr:housename": "Old Man Hustle", "addr:housenumber": "39", "addr:postcode": "10002", "addr:state": "NY", "addr:street": "Essex Street", "amenity": "pub", "branch": "Lower East Side", "name": "Old Man Hustle Comedy Bar", "opening_hours": "16:00-02:00", "phone": "+1-212-253-7747", "website": "https://www.oldmanhustle.com/"}}, {"type": "node", "id": 9815185302, "lat": 40.7169387, "lon": -73.9870869}, {"type": "node", "id": 9879298577, "lat": 40.7175644, "lon": -73.9908547, "tags": {"addr:city": "New York", "addr:housenumber": "72", "addr:postcode": "10002", "addr:state": "NY", "addr:street": "Allen Street", "addr:unit": "3", "email": "info@fohr.co", "name": "Fohr", "office": "advertising_agency", "opening_hours": "Mo-Fr 09:00-17:00", "phone": "+1-646-685-8007", "website": "https://www.fohr.co"}}, {"type": "node", "id": 9902136797, "lat": 40.7193461, "lon": -73.985661, "tags": {"addr:city": "New York", "addr:housenumber": "150", "addr:postcode": "10002", "addr:state": "NY", "addr:street": "Rivington Street", "name": "Gopuff", "office": "yes"}}, {"type": "node", "id": 9951392572, "lat": 40.7209252, "lon": -73.9862641}, {"type": "node", "id": 9951392573, "lat": 40.7210466, "lon": -73.9866675}, {"type": "node", "id": 9990753838, "lat": 40.7191923, "lon": -73.9857247, "tags": {"addr:city": "New York", "addr:housenumber": "151", "addr:postcode": "10002", "addr:state": "NY", "addr:street": "Rivington Street", "amenity": "bar", "description": "Dimly lit, cozy, craft cocktail bar", "name": "Lullaby"}}, {"type": "node", "id": 10315377441, "lat": 40.718774, "lon": -73.9870405, "tags": {"amenity": "restaurant", "bar": "yes", "cocktails": "yes", "cuisine": "mexican", "diet:gluten_free": "yes", "drink:beer": "yes", "drink:liquor": "yes", "drink:wine": "yes", "happy_hours": "Mo-We 15:00-18:00; Th-Su 16:00-18:00", "name": "La Contenta", "opening_hours": "Mo-Th 17:00-22:00; Fr-Sa 17:00-23:00; Su 17:00-22:00", "opening_hours:kitchen": "Mo-Th 17:00-21:30; Fr-Sa 17:00-22:30; Su 17:00-21:30", "outdoor_seating": "yes", "phone": "+1-212-432-4180", "website": "https://lacontentanyc.com"}}, {"type": "node", "id": 10315377442, "lat": 40.7188751, "lon": -73.9869882, "tags": {"amenity": "bar", "cocktails": "yes", "drink:beer": "draught", "drink:liquor": "yes", "drink:wine": "yes", "name": "Nurse Bettie", "opening_hours": "Mo-Fr 16:00-04:00; Sa-Su 14:00-04:00", "outdoor_seating": "yes", "phone": "+1-212-477-7515", "website": "https://www.nursebettie.com"}}, {"type": "node", "id": 10316037318, "lat": 40.7206435, "lon": -73.9855495, "tags": {"addr:city": "New York", "addr:housenumber": "148", "addr:postcode": "10002", "addr:state": "NY", "addr:street": "Stanton Street", "name": "Rodriguez Associates", "office": "accountant"}}, {"type": "node", "id": 10566847243, "lat": 40.7193755, "lon": -73.9897046, "tags": {"addr:city": "New York", "addr:housenumber": "117", "addr:postcode": "10002", "addr:state": "NY", "addr:street": "Orchard Street", "amenity": "restaurant", "branch": "New York", "cuisine": "noodle", "delivery": "no", "diet:non-vegetarian": "yes", "highchair": "yes", "name": "Okiboru", "opening_hours": "Mo off; Tu-Sa 12:00-15:00,17:00-20:30; Su 13:00-17:00", "outdoor_seating": "no", "takeaway": "no", "website": "https://okiboru.com/3"}}, {"type": "node", "id": 11196500996, "lat": 40.7202321, "lon": -73.9881513, "tags": {"amenity": "bar", "name": "Iggy's"}}, {"type": "node", "id": 11511674838, "lat": 40.7195226, "lon": -73.9878742, "tags": {"name": "Paymatic", "office": "financial", "opening_hours": "Mo-We 08:00-19:00; Th-Fr 08:00-20:00; Sa 08:00-19:00"}}, {"type": "node", "id": 11515266361, "lat": 40.7198466, "lon": -73.9845618, "tags": {"addr:city": "New York", "addr:housenumber": "40", "addr:postcode": "10002", "addr:state": "NY", "addr:street": "Clinton Street", "amenity": "restaurant", "contact:instagram": "https://www.instagram.com/oti.nyc/", "cuisine": "romanian", "email": "oti.restaurant@gmail.com", "name": "Oti", "opening_hours": "Tu-Sa 17:00-24:00", "phone": "+1-917-830-7717", "website": "https://www.otinyc.com/"}}, {"type": "node", "id": 11652456194, "lat": 40.7199283, "lon": -73.9881704, "tags": {"addr:city": "New York", "addr:housenumber": "105", "addr:postcode": "10002", "addr:state": "NY", "addr:street": "Rivington Street", "amenity": "bar", "name": "Tigre"}}, {"type": "node", "id": 11658333426, "lat": 40.7191841, "lon": -73.9856983, "tags": {"amenity": "restaurant", "cuisine": "sushi", "name": "Sushi Lin", "opening_hours": "Tu-Th 17:00-22:00; Fr-Sa 12:00-15:00,17:00-22:30; Su 12:00-15:00,17:00-22:00", "phone": "+1-646-882-0152"}}, {"type": "node", "id": 11658333429, "lat": 40.7188406, "lon": -73.985309, "tags": {"amenity": "restaurant", "cuisine": "vietnamese", "name": "Cloud Vietnamese", "opening_hours": "Mo-Su 12:00-22:00", "phone": "+1-646-398-9911", "website": "https://www.cloudvietnamesenyc.com"}}, {"type": "node", "id": 11658333430, "lat": 40.7191673, "lon": -73.9856462, "tags": {"alt_name": "Ginger and Lemongrass", "amenity": "restaurant", "cuisine": "vietnamese", "name": "Ginger & Lemongrass", "opening_hours": "Mo-Su 11:30-22:00", "phone": "+1-646-876-1238", "website": "https://www.gingerandlemongrass.com/location/ginger-and-lemongrass-manhattan/"}}, {"type": "node", "id": 11761653832, "lat": 40.7187004, "lon": -73.9903564, "tags": {"addr:housenumber": "100", "amenity": "restaurant", "name": "Congee Village", "phone": "+1 212-941-1818"}}, {"type": "node", "id": 11918630622, "lat": 40.7188557, "lon": -73.9883675, "tags": {"addr:housenumber": "110", "addr:street": "Delaney Street", "amenity": "bar", "name": "Sour Mouse", "sport": "billiards", "website": "https://www.sourmousenyc.com/"}}, {"type": "node", "id": 12164415649, "lat": 40.7197179, "lon": -73.988654, "tags": {"amenity": "restaurant", "cuisine": "thai", "name": "Diamond Thai", "opening_hours": "Mo-Fr 11:30-15:00,16:00-22:00, Sa-Su 12:00-22:00", "phone": "+1-917-265-8214"}}, {"type": "node", "id": 12366546101, "lat": 40.7195842, "lon": -73.9904912, "tags": {"addr:city": "New York", "addr:housenumber": "115", "addr:postcode": "10002", "addr:state": "NY", "addr:street": "Allen Street", "amenity": "bar", "name": "Double Chicken Please", "opening_hours": "We-Th 17:00-23:00; Fr 17:00-00:00; Sa 12:00-00:00; Su 12:00-23:00", "website": "https://doublechickenplease.com/"}}, {"type": "node", "id": 12389258451, "lat": 40.7209735, "lon": -73.9880154, "tags": {"addr:city": "New York", "addr:housenumber": "157", "addr:street": "Ludlow Street", "amenity": "bar", "check_date": "2024-12-01", "name": "Apartment 5"}}, {"type": "node", "id": 12552598964, "lat": 40.7183609, "lon": -73.9853126, "tags": {"addr:city": "New York", "addr:housenumber": "90", "addr:postcode": "10002", "addr:state": "NY", "addr:street": "Clinton Street", "amenity": "restaurant", "cuisine": "chinese", "name": "Yong Chuan", "opening_hours": "Tu-Su 17:00-22:30", "phone": "+1-646-609-6324", "website": "https://yongchuannyc.com/"}}, {"type": "node", "id": 12657577901, "lat": 40.7179484, "lon": -73.9899571, "tags": {"addr:housenumber": "251", "addr:postcode": "10002", "addr:street": "Broome Street", "amenity": "restaurant", "contact:facebook": "kalyenyc", "contact:instagram": "kalye.nyc", "cuisine": "filipino", "email": "info@kalyenyc.com", "name": "Kalye", "opening_hours": "Tu-Th 16:00-00:00; Fr-Sa 11:00-00:00; Su 11:00-22:00", "phone": "+1-646-422-7267", "website": "https://www.kalye.com/", "website:menu": "https://www.kalye.com/menu"}}, {"type": "node", "id": 12719181899, "lat": 40.7177244, "lon": -73.9903192, "tags": {"amenity": "bar", "bar": "wine_bar", "cuisine": "charcuterie;snack", "drink:beer": "yes", "drink:wine": "yes", "name": "Skin Contact", "opening_hours": "Mo-Fr 17:00-24:00, Sa-Su 15:00-24:00", "phone": "+1-212-933-9398", "website": "https://skincontact.nyc"}}, {"type": "node", "id": 12729319283, "lat": 40.71766, "lon": -73.9903523, "tags": {"amenity": "bar", "cuisine": "caribbean", "drink:beer": "yes", "drink:liquor": "yes", "drink:wine": "yes", "name": "Las Lap", "opening_hours": "Mo-Th 17:00-02:00, Fr-Sa 17:00-04:00, Su 17:00-02:00", "phone": "+1-646-484-6002", "website": "https://laslapnewyork.com"}}, {"type": "node", "id": 13069249663, "lat": 40.7190765, "lon": -73.9881143, "tags": {"amenity": "restaurant", "branch": "Manhattan", "catering": "yes", "cuisine": "chinese", "delivery": "yes", "name": "Fan Szechuan", "opening_hours": "Mo-Th 11:30-21:30, Fr-Sa 11:30-22:30, Su 12:30-21:30", "phone": "+1-212-252-8999", "takeaway": "yes", "website": "https://www.fanszechuan.com"}}, {"type": "node", "id": 13253297112, "lat": 40.7195644, "lon": -73.9869398, "tags": {"addr:city": "New York", "addr:housenumber": "129", "addr:postcode": "10002", "addr:state": "NY", "addr:street": "Rivington Street", "amenity": "restaurant", "cuisine": "american", "name": "LECIEL"}}, {"type": "node", "id": 13284267480, "lat": 40.7178905, "lon": -73.9891266, "tags": {"addr:housenumber": "244", "addr:postcode": "10002", "addr:street": "Broome Street", "name": "International Center of Photography", "office": "museum"}}, {"type": "node", "id": 13284267481, "lat": 40.7198122, "lon": -73.9871697, "tags": {"amenity": "restaurant", "bar": "yes", "cuisine": "mexican", "level": "-1", "name": "La Caverna", "phone": "+1-212-475-2126", "website": "https://lacavernanyc.com"}}, {"type": "node", "id": 13284267483, "lat": 40.7197876, "lon": -73.9870989, "tags": {"amenity": "restaurant", "cuisine": "mediterranean;steak_house", "happy_hours": "Mo-Fr,Su 17:00-19:00", "name": "Essex"}}, {"type": "way", "id": 207600837, "nodes": [2178527857, 2178527997, 2178527962, 2178527853, 2178527857], "tags": {"amenity": "school", "ele": "8", "gnis:feature_id": "2080639", "name": "Public School 142"}}, {"type": "way", "id": 217991148, "nodes": [2273010160, 2273010161, 2273010162, 2273010163, 2273010160], "tags": {"addr:city": "New York", "addr:housenumber": "145", "addr:postcode": "10002", "addr:state": "NY", "addr:street": "Stanton Street", "amenity": "school", "email": "ranaya@schools.nyc.gov", "fax": "+1 212 260 0813", "name": "Lower East Side Preparatory High School", "nycdoitt:bin": "1004323", "phone": "+1 212 505 6366", "website": "https://lespnyc.com", "wikidata": "Q19572703", "wikipedia": "en:Lower East Side Preparatory High School"}}, {"type": "way", "id": 250266762, "nodes": [2567548957, 2567548862, 2567548866, 2567548963, 2567549018, 2567549012, 2567548988, 2567548961, 2567548957], "tags": {"addr:housenumber": "121", "addr:postcode": "10002", "addr:street": "Essex Street", "amenity": "bar", "building": "yes", "height": "17.6", "name": "The Whiskey Ward", "nycdoitt:bin": "1005332", "opening_hours": "Mo-Th 17:00-02:00; Fr, Sa 17:00-03:00", "phone": "+1-646-682-9016", "website": "https://thewhiskeyward.com/"}}, {"type": "way", "id": 265957952, "nodes": [2178450640, 9205440306, 2178450632, 9205440307, 2178527988, 2715605024, 9395814946, 9395814947, 9396040820, 9395814949, 3200271557, 3200271555, 2715605026, 2178450650, 2178450640], "tags": {"alt_name": "Public School 140", "amenity": "school", "full_name": "Public School 140 Nathan Straus", "name": "P.S. 140 Nathan Straus"}}, {"type": "way", "id": 460504395, "nodes": [4561457052, 4561457049, 2567547531, 2567547370, 9951392573, 9951392572, 2567547328, 2567547461, 4561457047, 4561457050, 4561457052], "tags": {"addr:city": "New York", "addr:housenumber": "166", "addr:postcode": "10002", "addr:street": "Essex Street", "alt_name": "Public School 20", "amenity": "school", "name": "Anna Silver School", "short_name": "P.S. 20"}}, {"type": "way", "id": 675935775, "nodes": [6330229655, 6330229656, 6330229657, 6330229658, 6330229659, 6330229660, 6330229661, 6330229662, 6330229663, 6330229664, 6330229665, 6330229666, 6330229667, 6330229668, 6330229669, 6330229670, 6330229671, 6330229672, 6330229655], "tags": {"leisure": "park"}}, {"type": "way", "id": 675935776, "nodes": [6330229677, 6330229678, 6330229679, 6330229680, 6330229681, 6330229682, 6330229683, 6330229684, 6330229685, 6330229686, 6330229687, 6330229688, 6330229689, 6330229690, 6330229691, 5854357053, 6330229692, 6330229693, 6330229694, 6330229695, 6330229677], "tags": {"leisure": "park"}}, {"type": "way", "id": 964819132, "nodes": [2567562334, 2567562325, 2567562329, 2567562321, 2567562331, 2567562323, 2567562327, 2567562318, 2567562317, 2567562314, 2567562316, 2567562315, 2567562312, 2567562309, 2567562313, 2567562310, 2567562307, 2567562305, 2567562311, 2567562308, 2567562306, 2567562304, 2567562303, 2567562302, 2567562274, 2567562278, 2567562272, 2567562276, 2567562279, 2567562287, 2567562281, 2567562283, 2567562288, 2567562177, 2567562294, 2567562334], "tags": {"leisure": "park", "name": "Seward Park Extension Park", "opening_hours": "dawn-dusk", "operator": "NYCHA"}}, {"type": "way", "id": 964822654, "nodes": [8925324596, 8925324603, 8925324598, 8925324599, 8925324596], "tags": {"leisure": "park", "name": "Seward Park Extension Park", "opening_hours": "dawn-dusk", "operator": "NYCHA"}}, {"type": "way", "id": 985281628, "nodes": [6329884470, 1242148253, 1242148350, 1242148322, 1242148353, 1242148187, 6329884470], "tags": {"check_date": "2022-07-10", "construction": "yes", "leisure": "park", "loc_name": "Seward Park Courts", "name": "Seward Park High School - Community Playground", "note": "construction nearly complete at check date. turf field surrounded by track. see: https://boweryboogie.com/2022/04/rehab-of-seward-park-school-courts-nears-completion/"}}, {"type": "way", "id": 1015980340, "nodes": [6009633100, 8960350854, 8960350853, 8960350859, 6009633103, 4646776171, 9815185302, 9371206941, 4646776166, 7465345154, 8231896478, 4646776170, 9371206942, 8960350851, 8960350844, 6009633100], "tags": {"addr:city": "New York", "addr:housenumber": "145", "addr:postcode": "10002", "addr:state": "NY", "addr:street": "Clinton Street", "leisure": "park", "noname": "yes", "opening_hours": "Apr-Oct 07:00-22:00; Nov-Mar 07:00-20:00", "owner": "Site 5 DSA Owner LLC"}}]}