{"version": 0.6, "generator": "Overpass API 0.7.62.8 e802775f", "osm3s": {"timestamp_osm_base": "2025-12-01T16:22:55Z", "copyright": "The data included in this document is from www.openstreetmap.org. The data is made available under ODbL."}, "elements": [{"type": "node", "id": 357622830, "lat": 40.6092317, "lon": -73.999602}, {"type": "node", "id": 2557064648, "lat": 40.6083609, "lon": -74.0047845, "tags": {"addr:city": "Brooklyn", "addr:housenumber": "1702", "addr:postcode": "11214", "addr:state": "NY", "addr:street": "86th Street", "air_conditioning": "yes", "amenity": "restaurant", "cuisine": "vietnamese", "name": "Em Vietnamese Kitchen", "opening_hours": "11:00-21:00; Tu off", "outdoor_seating": "no", "payment:credit_cards": "yes", "payment:debit_cards": "yes", "phone": "+1-718-232-3888", "takeaway": "yes", "website": "https://www.em-restaurant.com", "wheelchair": "no"}}, {"type": "node", "id": 2557077657, "lat": 40.6104646, "lon": -74.0030964, "tags": {"addr:city": "Brooklyn", "addr:housenumber": "8222", "addr:postcode": "11214", "addr:state": "NY", "addr:street": "17th Avenue", "amenity": "restaurant", "cuisine": "sandwich", "name": "Panino Rustico", "opening_hours": "Mo-Sa 10:00-22:00", "phone": "+1-718-236-6343"}}, {"type": "node", "id": 2557089152, "lat": 40.6085609, "lon": -74.0051216, "tags": {"addr:housenumber": "1698", "addr:postcode": "11214", "addr:street": "86th Street", "amenity": "restaurant", "cuisine": "malaysian", "delivery": "yes", "email": "kookoochickennyc@gmail.com", "name": "Koo Koo Chicken", "phone": "+1-718-837-1688", "website": "https://www.kookoochicken.nyc"}}, {"type": "node", "id": 5159087925, "lat": 40.605577, "lon": -74.0006319, "tags": {"addr:city": "Brooklyn", "addr:housenumber": "8611", "addr:postcode": "11214", "addr:state": "NY", "addr:street": "19th Avenue", "amenity": "cafe", "cuisine": "korean;uzbek", "name": "At Your Mother-in-Law", "name:ru": "\u0443 \u0442\u0435\u0449\u0438", "opening_hours": "11:00-19:00", "outdoor_seating": "no", "phone": "+1-646-575-7153", "website": "https://www.eddiefancyfood.com/"}}, {"type": "node", "id": 7118282583, "lat": 40.6082646, "lon": -74.0046167, "tags": {"addr:city": "Brooklyn", "addr:housenumber": "1712", "addr:postcode": "11214", "addr:state": "NY", "addr:street": "86th Street", "air_conditioning": "yes", "amenity": "cafe", "cuisine": "bubble_tea;ice_cream;tea", "name": "Gotcha Cafe", "opening_hours": "12:00-20:00; Fr,Sa 12:00-21:00", "outdoor_seating": "no", "phone": "+1-347-789-7878", "takeaway": "yes", "wheelchair": "no"}}, {"type": "node", "id": 7209248001, "lat": 40.6061598, "lon": -74.001157, "tags": {"addr:housenumber": "1866", "addr:street": "86th Street", "amenity": "restaurant", "check_date": "2023-03-05", "cuisine": "polish", "delivery": "yes", "drink:beer": "yes", "drink:coffee": "yes", "drink:espresso": "yes", "drink:tea": "yes", "drink:wine": "yes", "name": "Chris's Restaurant", "opening_hours": "Mo-Sa 11:00-23:00; Su 11:00-22:00", "outdoor_seating": "yes", "payment:cash": "yes", "payment:credit_cards": "yes", "payment:debit_cards": "yes", "phone": "+1-347-462-3755", "reservation": "yes", "smoking": "no", "takeaway": "yes", "website": "https://chrissrestaurant.com/"}}, {"type": "node", "id": 7913366959, "lat": 40.6094009, "lon": -73.9998926}, {"type": "node", "id": 7913366960, "lat": 40.6098675, "lon": -73.9994211}, {"type": "node", "id": 7913366961, "lat": 40.6096983, "lon": -73.9991306}, {"type": "node", "id": 8200277394, "lat": 40.6104129, "lon": -74.0017672}, {"type": "node", "id": 8200277408, "lat": 40.6106102, "lon": -74.0015856}, {"type": "node", "id": 8200277411, "lat": 40.610351, "lon": -74.0016477}, {"type": "node", "id": 8379821931, "lat": 40.605295, "lon": -73.9997283, "tags": {"addr:city": "Brooklyn", "addr:housenumber": "1934", "addr:postcode": "11214", "addr:state": "NY", "addr:street": "86th Street", "amenity": "restaurant", "cuisine": "asian;japanese;chinese;thai;sushi", "drink:beer": "yes", "name": "Kushi", "nycdoitt:bin": "3166812", "opening_hours": "Mo-Su 11:00-22:00", "phone": "+1-718-975-3588", "website": "https://kushijapanese.com"}}, {"type": "node", "id": 9006893918, "lat": 40.6080279, "lon": -74.0014384, "tags": {"addr:city": "Brooklyn", "addr:housenumber": "8409", "addr:postcode": "11214", "addr:state": "NY", "addr:street": "18th Avenue", "amenity": "restaurant", "cuisine": "pizza", "name": "Tato's Pizza", "opening_hours": "Mo-Su 11:00-23:00", "phone": "+1-718-621-3300"}}, {"type": "node", "id": 9162749342, "lat": 40.6100676, "lon": -74.0017876, "tags": {"addr:housenumber": "8140", "addr:street": "New Utrecht Avenue", "amenity": "restaurant", "cuisine": "chinese", "name": "The Legend Cafe House", "opening_hours": "Mo-Fr 09:00-22:00; Sa-Su 09:00-23:00", "phone": "+1-718-259-6888", "website": "https://www.legendcafehouse.com/"}}, {"type": "node", "id": 9163473302, "lat": 40.6073311, "lon": -74.002311, "tags": {"addr:city": "Brooklyn", "addr:housenumber": "8521", "addr:postcode": "11214", "addr:state": "NY", "addr:street": "18th Avenue", "amenity": "restaurant", "cuisine": "pizza", "name": "Pizza Den", "opening_hours": "Mo-Su 10:00-13:00", "phone": "+1-718-837-1691"}}, {"type": "node", "id": 9845263680, "lat": 40.6078249, "lon": -74.0021801, "tags": {"amenity": "restaurant", "name": "Ajimi", "opening_hours": "Fr, Sa 11:30-23:00; Mo-Th, Su 11:30-22:30"}}, {"type": "node", "id": 10213668654, "lat": 40.6081692, "lon": -74.0044434, "tags": {"addr:housenumber": "1718", "addr:street": "86th Street", "air_conditioning": "yes", "amenity": "restaurant", "bar": "yes", "check_date": "2022-11-24", "cuisine": "sushi", "delivery": "yes", "email": "info@netashari.nyc", "name": "Neta Shari", "opening_hours": "Mo-Tu off; We-Th,Su 16:30-21:30; Fr-Sa 16:30-22:45", "payment:cash": "yes", "payment:credit_cards": "yes", "payment:debit_cards": "yes", "phone": "+1 347-210-8438", "reservation": "recommended", "smoking": "no", "takeaway": "yes", "website": "https://www.netashari.nyc/"}}, {"type": "node", "id": 12618776814, "lat": 40.6085164, "lon": -74.0043943, "tags": {"alt_name": "Samurai Fusion Sushi", "amenity": "restaurant", "cuisine": "japanese;sushi", "delivery": "yes", "name": "Samurai Sushi", "opening_hours": "Mo-Th 11:00-22:30, Fr-Sa 11:00-23:00, Su 11:30-22:30", "phone": "+1-718-331-7100", "takeaway": "yes", "website": "https://www.samuraisushionline.com"}}, {"type": "node", "id": 12641196093, "lat": 40.6055736, "lon": -74.0001683, "tags": {"amenity": "restaurant", "cuisine": "chinese;bubble_tea", "delivery": "yes", "opening_hours": "Mo-Su 09:00-20:30", "phone": "+1-718-559-0326", "takeaway": "yes", "website": "https://www.happysalad1912.com"}}, {"type": "way", "id": 848056735, "nodes": [357622830, 7913366959, 7913366960, 7913366961, 357622830], "tags": {"addr:city": "Brooklyn", "addr:postcode": "11214", "addr:state": "NY", "addr:street": "18th Avenue", "ele": "19", "gnis:feature_id": "2095466", "leisure": "park", "name": "Milestone Park", "opening_hours": "24/7", "operator": "New York City Department of Parks and Recreation", "operator:short": "NYC Parks", "operator:type": "government", "operator:wikidata": "Q1894232", "operator:wikipedia": "en:New York City Department of Parks and Recreation", "website": "https://www.nycgovparks.org/parks/milestone-park", "wikidata": "Q34850616"}}, {"type": "way", "id": 881774692, "nodes": [8200277408, 8200277394, 8200277411, 8200277408], "tags": {"leisure": "park"}}]}