{"version": 0.6, "generator": "Overpass API 0.7.62.8 e802775f", "osm3s": {"timestamp_osm_base": "2025-12-01T17:12:02Z", "copyright": "The data included in this document is from www.openstreetmap.org. The data is made available under ODbL."}, "elements": [{"type": "node", "id": 2845107570, "lat": 40.7519498, "lon": -73.904292, "tags": {"addr:housenumber": "57-00", "addr:postcode": "11377", "addr:street": "Broadway", "office": "lawyer"}}, {"type": "node", "id": 3714020281, "lat": 40.7516738, "lon": -73.9028055}, {"type": "node", "id": 3714020282, "lat": 40.7518331, "lon": -73.9031813}, {"type": "node", "id": 3714020283, "lat": 40.7518842, "lon": -73.9027086}, {"type": "node", "id": 3749620747, "lat": 40.7535066, "lon": -73.9075808}, {"type": "node", "id": 3749620748, "lat": 40.7533364, "lon": -73.9075477}, {"type": "node", "id": 3749620749, "lat": 40.7533655, "lon": -73.9072877}, {"type": "node", "id": 5060846745, "lat": 40.7538729, "lon": -73.9078832, "tags": {"addr:housenumber": "51-31", "addr:street": "Broadway", "name": "Psychic", "office": "consulting"}}, {"type": "node", "id": 5082835847, "lat": 40.7534631, "lon": -73.9069621, "tags": {"addr:housenumber": "55-17", "addr:street": "Broadway", "amenity": "restaurant", "name": "Orange Hut"}}, {"type": "node", "id": 5406252037, "lat": 40.7516547, "lon": -73.9095464, "tags": {"addr:street": "37th Avenue", "amenity": "cafe", "name": "Miranda Cafe", "phone": "+1-718-424-0889"}}, {"type": "node", "id": 5425890143, "lat": 40.7535308, "lon": -73.9061603, "tags": {"addr:housenumber": "54-11", "addr:street": "Northern Boulevard", "amenity": "restaurant", "name": "Cafeteria 55"}}, {"type": "node", "id": 5711111191, "lat": 40.752547, "lon": -73.9094196, "tags": {"addr:city": "Woodside", "addr:housenumber": "51-06", "addr:postcode": "11377", "addr:state": "NY", "addr:street": "Northern Boulevard", "amenity": "cafe", "branch": "Tower Square Shopping Center", "brand": "Starbucks", "brand:wikidata": "Q37158", "cuisine": "coffee_shop", "name": "Starbucks", "official_name": "Starbucks Coffee", "phone": "+1 718-424-3716", "ref": "14058", "takeaway": "yes", "website": "https://www.starbucks.com/store-locator/store/14058/tower-square-shopping-center-51-06-northern-blvd-woodside-ny-113771733-us"}}, {"type": "node", "id": 5772058553, "lat": 40.7538485, "lon": -73.9031732, "tags": {"addr:housenumber": "57-19", "addr:street": "Northern Boulevard", "amenity": "restaurant", "atm": "yes", "cuisine": "dominican", "name": "The Original Espinal Deli 2 Comida Dominicana", "opening_hours": "Mo-Sa 07:00-19:00", "phone": "+1 929-522-0525", "wheelchair": "no"}}, {"type": "node", "id": 5772058759, "lat": 40.7534828, "lon": -73.9065742, "tags": {"addr:housenumber": "54-01", "addr:street": "Northern Boulevard", "amenity": "restaurant", "cuisine": "chinese", "name": "Sum Fung", "phone": "+1-748-932-0411"}}, {"type": "node", "id": 6450791687, "lat": 40.7535092, "lon": -73.9075573, "tags": {"barrier": "kerb"}}, {"type": "node", "id": 7661121868, "lat": 40.7535117, "lon": -73.9075351}, {"type": "node", "id": 7661121869, "lat": 40.753392, "lon": -73.9072671}, {"type": "node", "id": 7661121870, "lat": 40.7533451, "lon": -73.9074699}, {"type": "node", "id": 7916923628, "lat": 40.7527882, "lon": -73.9062781, "tags": {"addr:housenumber": "33-20", "addr:street": "Broadway", "amenity": "restaurant", "name": "Upscale International Cafe"}}, {"type": "node", "id": 7916955986, "lat": 40.7511863, "lon": -73.902685, "tags": {"addr:housenumber": "59-02", "addr:street": "Broadway", "amenity": "restaurant", "cuisine": "chinese", "name": "Pacific Moon", "phone": "+1 718-476-8578"}}, {"type": "way", "id": 367482920, "nodes": [3714020281, 3714020283, 3714020282, 3714020281], "tags": {"leisure": "park", "name": "Sergeant Collins Triangle", "operator": "New York City Department of Parks and Recreation", "operator:short": "NYC Parks", "operator:type": "public", "operator:wikidata": "Q1894232", "website": "https://www.nycgovparks.org/parks/sergeant-collins-triangle"}}, {"type": "way", "id": 371390419, "nodes": [3749620748, 7661121870, 3749620749, 7661121869, 7661121868, 6450791687, 3749620747, 3749620748], "tags": {"leisure": "park", "name": "No-Bro Greenstreet"}}]}