{"version": 0.6, "generator": "Overpass API 0.7.62.8 e802775f", "osm3s": {"timestamp_osm_base": "2025-12-01T17:07:57Z", "copyright": "The data included in this document is from www.openstreetmap.org. The data is made available under ODbL."}, "elements": [{"type": "node", "id": 357567459, "lat": 40.8101008, "lon": -73.9184702, "tags": {"amenity": "school", "ele": "8", "gnis:feature_id": "954313", "name": "Junior High School 30"}}, {"type": "node", "id": 357580396, "lat": 40.80639, "lon": -73.92194, "tags": {"amenity": "school", "ele": "13", "gnis:feature_id": "961704", "name": "Public School 43"}}, {"type": "node", "id": 357609164, "lat": 40.80917, "lon": -73.91778, "tags": {"amenity": "school", "ele": "9", "gnis:feature_id": "2062024", "name": "Public School 30"}}, {"type": "node", "id": 357609202, "lat": 40.8065501, "lon": -73.9213181, "tags": {"amenity": "school", "ele": "8", "gnis:feature_id": "2062047", "name": "Public School 43 Annex"}}, {"type": "node", "id": 357609241, "lat": 40.8090397, "lon": -73.9199135, "tags": {"amenity": "school", "ele": "8", "gnis:feature_id": "2062105", "name": "Public School Number 40"}}, {"type": "node", "id": 357620136, "lat": 40.8090597, "lon": -73.9174548, "tags": {"amenity": "school", "ele": "9", "gnis:feature_id": "2082456", "name": "Public School 220"}}, {"type": "node", "id": 357635059, "lat": 40.8077778, "lon": -73.9172222, "tags": {"ele": "10", "gnis:feature_id": "2374717", "leisure": "park", "name": "Padre Plaza", "wikidata": "Q34853783"}}, {"type": "node", "id": 701223496, "lat": 40.8098835, "lon": -73.9190231}, {"type": "node", "id": 701223499, "lat": 40.8096329, "lon": -73.9191919}, {"type": "node", "id": 701223503, "lat": 40.809314, "lon": -73.9183655}, {"type": "node", "id": 701223505, "lat": 40.8095501, "lon": -73.9182091}, {"type": "node", "id": 2798908160, "lat": 40.8100386, "lon": -73.9216735}, {"type": "node", "id": 2798908163, "lat": 40.8100659, "lon": -73.9216536}, {"type": "node", "id": 2798908166, "lat": 40.8100901, "lon": -73.9217971}, {"type": "node", "id": 2798908173, "lat": 40.8101597, "lon": -73.921585}, {"type": "node", "id": 2798908174, "lat": 40.8102114, "lon": -73.9217112}, {"type": "node", "id": 2798931534, "lat": 40.8064286, "lon": -73.9222698}, {"type": "node", "id": 2798931544, "lat": 40.8064883, "lon": -73.9222244}, {"type": "node", "id": 2798931547, "lat": 40.806505, "lon": -73.922212}, {"type": "node", "id": 2798931553, "lat": 40.8065577, "lon": -73.9221742}, {"type": "node", "id": 2798931571, "lat": 40.8066338, "lon": -73.9227405}, {"type": "node", "id": 2798931655, "lat": 40.8069161, "lon": -73.9224393}, {"type": "node", "id": 2798931694, "lat": 40.807063, "lon": -73.9223305}, {"type": "node", "id": 2798942821, "lat": 40.8097884, "lon": -73.9177592}, {"type": "node", "id": 2889203179, "lat": 40.8095133, "lon": -73.9189061}, {"type": "node", "id": 2889203180, "lat": 40.8092819, "lon": -73.919067}, {"type": "node", "id": 2889203181, "lat": 40.8092128, "lon": -73.9188846}, {"type": "node", "id": 2889203182, "lat": 40.8094483, "lon": -73.9187129}, {"type": "node", "id": 5172260376, "lat": 40.8072915, "lon": -73.9190639, "tags": {"addr:housenumber": "514", "addr:street": "East 138th Street", "amenity": "restaurant", "name": "Camag\u00fcey Restaurant"}}, {"type": "node", "id": 5426998544, "lat": 40.8070831, "lon": -73.9223165}, {"type": "node", "id": 5426998545, "lat": 40.8068331, "lon": -73.9225024}, {"type": "node", "id": 5426998546, "lat": 40.8068614, "lon": -73.9225674}, {"type": "node", "id": 5426998547, "lat": 40.8069235, "lon": -73.9219179}, {"type": "node", "id": 5426998548, "lat": 40.8066698, "lon": -73.9220983}, {"type": "node", "id": 8285355493, "lat": 40.8096146, "lon": -73.9178414}, {"type": "node", "id": 8285355496, "lat": 40.8095338, "lon": -73.91632}, {"type": "node", "id": 8285355515, "lat": 40.8098598, "lon": -73.9173106}, {"type": "node", "id": 8285359934, "lat": 40.809106, "lon": -73.9166144}, {"type": "node", "id": 8285359937, "lat": 40.8096716, "lon": -73.9174365}, {"type": "node", "id": 10033557477, "lat": 40.8085365, "lon": -73.919234}, {"type": "node", "id": 10033563123, "lat": 40.8090141, "lon": -73.9188787}, {"type": "node", "id": 10033563124, "lat": 40.8092748, "lon": -73.9195075}, {"type": "node", "id": 10033563153, "lat": 40.808818, "lon": -73.9198471}, {"type": "node", "id": 11196323418, "lat": 40.8082194, "lon": -73.9190273, "tags": {"amenity": "restaurant", "indoor_seating": "yes", "name": "Villa Tapia Restaurant", "outdoor_seating": "yes"}}, {"type": "node", "id": 11196340221, "lat": 40.8082079, "lon": -73.9211749, "tags": {"amenity": "restaurant", "name": "El Ranchito 2"}}, {"type": "node", "id": 11196381765, "lat": 40.8090571, "lon": -73.9222343, "tags": {"amenity": "restaurant", "cuisine": "mexican", "indoor_seating": "yes", "name": "Lili Restaurant", "outdoor_seating": "no"}}, {"type": "node", "id": 12009094673, "lat": 40.8078017, "lon": -73.920269, "tags": {"addr:city": "Bronx", "addr:country": "US", "addr:housenumber": "486", "addr:postcode": "10454", "addr:state": "NY", "addr:street": "East 138th Street", "description": "The Stein Law Group is an aggressive and experienced law firm involved in injury and employment law matters.", "name": "The Stein Law Group", "office": "lawyer", "opening_hours": "24/7", "operator": "Adam Stein", "payment:cash": "yes", "payment:cheque": "yes", "payment:credit_cards": "yes", "phone": "+1-516-689-1181", "website": "https://thesteinlawgroup.com/concourse-haven-personal-injury-lawyer/"}}, {"type": "node", "id": 12826153726, "lat": 40.8086198, "lon": -73.9194178}, {"type": "node", "id": 12826153727, "lat": 40.8086329, "lon": -73.9194169}, {"type": "way", "id": 55824235, "nodes": [701223496, 701223499, 2889203179, 2889203180, 2889203181, 2889203182, 701223503, 701223505, 701223496], "tags": {"leisure": "park", "name": "Brook Ave Park"}}, {"type": "way", "id": 275256988, "nodes": [2798908160, 2798908166, 2798908174, 2798908173, 2798908163, 2798908160], "tags": {"addr:housenumber": "402", "addr:postcode": "10454", "addr:street": "East 140th Street", "amenity": "cafe", "building": "yes", "height": "4.3", "name": "Mottley Kitchen", "nycdoitt:bin": "2000283"}}, {"type": "way", "id": 563074623, "nodes": [5426998544, 2798931694, 2798931655, 5426998545, 5426998546, 2798931571, 2798931534, 2798931544, 2798931547, 2798931553, 5426998548, 5426998547, 5426998544], "tags": {"ele": "13", "gnis:feature_id": "2374713", "leisure": "park", "name": "Ranaqua Playground", "operator": "New York City Department of Parks and Recreation", "operator:short": "NYC Parks", "operator:type": "government", "operator:wikidata": "Q1894232", "website": "https://www.nycgovparks.org/parks/ranaqua-park", "wikidata": "Q49547953"}}, {"type": "way", "id": 891392395, "nodes": [8285355493, 8285359934, 8285355496, 8285355515, 8285359937, 2798942821, 8285355493], "tags": {"ele": "9", "gnis:feature_id": "2374716", "leisure": "park", "name": "People's Park", "wikidata": "Q34855261"}}, {"type": "way", "id": 1095614044, "nodes": [10033563123, 10033557477, 12826153726, 12826153727, 10033563153, 10033563124, 10033563123], "tags": {"ele": "8", "gnis:feature_id": "2374714", "leisure": "park", "name": "Saw Mill Playground", "wikidata": "Q49558164"}}]}