{"version": 0.6, "generator": "Overpass API 0.7.62.8 e802775f", "osm3s": {"timestamp_osm_base": "2025-12-01T17:21:15Z", "copyright": "The data included in this document is from www.openstreetmap.org. The data is made available under ODbL."}, "elements": [{"type": "node", "id": 42422056, "lat": 40.7074082, "lon": -74.0076881}, {"type": "node", "id": 166878932, "lat": 40.7018444, "lon": -74.0095772}, {"type": "node", "id": 166878943, "lat": 40.7019343, "lon": -74.0093009}, {"type": "node", "id": 166878945, "lat": 40.7035857, "lon": -74.0067819}, {"type": "node", "id": 166878949, "lat": 40.7037016, "lon": -74.0065914}, {"type": "node", "id": 166878958, "lat": 40.7046706, "lon": -74.0047929}, {"type": "node", "id": 166878961, "lat": 40.7048227, "lon": -74.0045679}, {"type": "node", "id": 166878963, "lat": 40.705304, "lon": -74.0038425}, {"type": "node", "id": 166878965, "lat": 40.7056364, "lon": -74.0033258}, {"type": "node", "id": 166878977, "lat": 40.7086054, "lon": -73.9978539}, {"type": "node", "id": 166878978, "lat": 40.709857, "lon": -73.9886265}, {"type": "node", "id": 166878979, "lat": 40.7091618, "lon": -73.9884773}, {"type": "node", "id": 205009541, "lat": 40.7087927, "lon": -73.9970897}, {"type": "node", "id": 205009543, "lat": 40.7092488, "lon": -73.9940548}, {"type": "node", "id": 205009544, "lat": 40.709258, "lon": -73.9937667}, {"type": "node", "id": 205009545, "lat": 40.7094557, "lon": -73.992506}, {"type": "node", "id": 205009547, "lat": 40.7097569, "lon": -73.9904377}, {"type": "node", "id": 205009549, "lat": 40.7099825, "lon": -73.9887188}, {"type": "node", "id": 205012823, "lat": 40.7077839, "lon": -73.9995456}, {"type": "node", "id": 205012824, "lat": 40.7084579, "lon": -73.9983053}, {"type": "node", "id": 205012841, "lat": 40.7070785, "lon": -74.0008144}, {"type": "node", "id": 205014386, "lat": 40.7014615, "lon": -74.0111862}, {"type": "node", "id": 205014388, "lat": 40.7019948, "lon": -74.0091251}, {"type": "node", "id": 205014765, "lat": 40.7028637, "lon": -74.0076999}, {"type": "node", "id": 205014766, "lat": 40.7031249, "lon": -74.0075338}, {"type": "node", "id": 205014926, "lat": 40.7039423, "lon": -74.0059351}, {"type": "node", "id": 272194598, "lat": 40.7095497, "lon": -74.0116948}, {"type": "node", "id": 272194601, "lat": 40.7088871, "lon": -74.0109134, "tags": {"barrier": "kerb", "kerb": "lowered", "tactile_paving": "yes", "wheelchair": "yes"}}, {"type": "node", "id": 272194602, "lat": 40.7091543, "lon": -74.010684}, {"type": "node", "id": 781712009, "lat": 40.7048694, "lon": -74.0094378, "tags": {"addr:housenumber": "3", "addr:postcode": "10004", "addr:street": "Hanover Square", "entrance": "main"}}, {"type": "node", "id": 1251958258, "lat": 40.7046218, "lon": -74.009496, "tags": {"barrier": "kerb", "kerb": "lowered", "tactile_paving": "yes", "wheelchair": "yes"}}, {"type": "node", "id": 1251960767, "lat": 40.7073611, "lon": -74.0069841, "tags": {"amenity": "school", "name": "Montessori School of Manhattan", "wheelchair": "yes"}}, {"type": "node", "id": 1318427649, "lat": 40.7087074, "lon": -73.9974779}, {"type": "node", "id": 1318427650, "lat": 40.7075294, "lon": -73.9999687}, {"type": "node", "id": 1318427651, "lat": 40.7095796, "lon": -73.9916672}, {"type": "node", "id": 1318427653, "lat": 40.7093787, "lon": -73.9929787}, {"type": "node", "id": 1318427654, "lat": 40.7068686, "lon": -74.0011959}, {"type": "node", "id": 1318427655, "lat": 40.7091902, "lon": -73.9884985}, {"type": "node", "id": 1318427656, "lat": 40.7091443, "lon": -73.9884526}, {"type": "node", "id": 1318427659, "lat": 40.7076014, "lon": -73.99996}, {"type": "node", "id": 1318427660, "lat": 40.7091366, "lon": -73.988416}, {"type": "node", "id": 1318427661, "lat": 40.7099616, "lon": -73.9887068}, {"type": "node", "id": 1318427663, "lat": 40.7075847, "lon": -73.9999554}, {"type": "node", "id": 1318427664, "lat": 40.7072634, "lon": -74.0004072}, {"type": "node", "id": 1318427665, "lat": 40.7085272, "lon": -73.9981099}, {"type": "node", "id": 1318427666, "lat": 40.7081865, "lon": -73.9989024}, {"type": "node", "id": 1318427667, "lat": 40.7076999, "lon": -73.9995546}, {"type": "node", "id": 1318427668, "lat": 40.7077276, "lon": -73.9994978}, {"type": "node", "id": 1318427669, "lat": 40.707497, "lon": -74.0000044}, {"type": "node", "id": 1318427670, "lat": 40.7091979, "lon": -73.9944461}, {"type": "node", "id": 1318427671, "lat": 40.7077701, "lon": -73.9996142}, {"type": "node", "id": 1318427672, "lat": 40.7097025, "lon": -73.9908077}, {"type": "node", "id": 1318427673, "lat": 40.7091377, "lon": -73.9883731}, {"type": "node", "id": 1318427675, "lat": 40.7098893, "lon": -73.9895306}, {"type": "node", "id": 1318427676, "lat": 40.709932, "lon": -73.988668}, {"type": "node", "id": 1318427677, "lat": 40.7090484, "lon": -73.9953205}, {"type": "node", "id": 1318427678, "lat": 40.7083566, "lon": -73.9985481}, {"type": "node", "id": 1318427680, "lat": 40.7075636, "lon": -73.999955}, {"type": "node", "id": 1585033979, "lat": 40.7050656, "lon": -74.0086896, "tags": {"amenity": "pub", "indoor_seating": "yes", "name": "Killarney Rose", "outdoor_seating": "no"}}, {"type": "node", "id": 1695926392, "lat": 40.7088707, "lon": -74.0081885}, {"type": "node", "id": 1695926394, "lat": 40.7089315, "lon": -74.0081266}, {"type": "node", "id": 1813618913, "lat": 40.7054506, "lon": -74.0036174}, {"type": "node", "id": 1813618924, "lat": 40.704074, "lon": -74.0028652}, {"type": "node", "id": 1813618926, "lat": 40.7051665, "lon": -74.0040504}, {"type": "node", "id": 1813618927, "lat": 40.7042228, "lon": -74.0026364}, {"type": "node", "id": 1827914505, "lat": 40.7091571, "lon": -73.9881667}, {"type": "node", "id": 2011782281, "lat": 40.7082349, "lon": -74.0076153, "tags": {"addr:city": "New York", "addr:housenumber": "90", "addr:postcode": "10038", "addr:state": "NY", "addr:street": "William Street", "amenity": "cafe", "branch": "90 William Street", "cuisine": "coffee_shop", "delivery": "yes", "indoor_seating": "yes", "level": "0", "name": "BlueSpoon Coffee Co", "opening_hours": "Mo-Fr 07:00-16:00; Sa 08:00-15:00; Su off", "outdoor_seating": "yes", "phone": "+1 212-809-8880", "takeaway": "yes", "wheelchair": "yes"}}, {"type": "node", "id": 2033946685, "lat": 40.7072305, "lon": -74.0123877, "tags": {"amenity": "cafe", "name": "Bean And Bean", "wheelchair": "no"}}, {"type": "node", "id": 2043977851, "lat": 40.7099189, "lon": -73.9886144}, {"type": "node", "id": 2043977866, "lat": 40.7096448, "lon": -73.9911995}, {"type": "node", "id": 2043977880, "lat": 40.709946, "lon": -73.9886908}, {"type": "node", "id": 2043977887, "lat": 40.7093154, "lon": -73.9934231}, {"type": "node", "id": 2043977889, "lat": 40.7099228, "lon": -73.9886412}, {"type": "node", "id": 2044000639, "lat": 40.7073766, "lon": -74.0002055}, {"type": "node", "id": 2044000645, "lat": 40.7016246, "lon": -74.0104073}, {"type": "node", "id": 2044000651, "lat": 40.7015171, "lon": -74.0108482}, {"type": "node", "id": 2044000655, "lat": 40.7014676, "lon": -74.0110668}, {"type": "node", "id": 2044000659, "lat": 40.7017218, "lon": -74.0100371}, {"type": "node", "id": 2044000663, "lat": 40.7043951, "lon": -74.0052327}, {"type": "node", "id": 2044000667, "lat": 40.7075109, "lon": -73.9999844}, {"type": "node", "id": 2044000672, "lat": 40.707547, "lon": -73.99996}, {"type": "node", "id": 2183010447, "lat": 40.7067993, "lon": -74.0089458, "tags": {"amenity": "pub", "name": "Bailey Pub & Brasserie", "wheelchair": "no"}}, {"type": "node", "id": 2183010450, "lat": 40.7061255, "lon": -74.0110467, "tags": {"amenity": "restaurant", "check_date": "2025-08-14", "name": "Bobby Van's", "wheelchair": "no"}}, {"type": "node", "id": 2183010458, "lat": 40.7059471, "lon": -74.0116452, "tags": {"addr:housenumber": "40", "addr:street": "Broad Street", "amenity": "cafe", "brand": "Joe & The Juice", "brand:wikidata": "Q26221514", "cuisine": "coffee_shop", "indoor_seating": "yes", "name": "Joe & The Juice", "outdoor_seating": "no", "takeaway": "yes", "wheelchair": "yes"}}, {"type": "node", "id": 2183010463, "lat": 40.7074557, "lon": -74.0072562, "tags": {"addr:city": "New York", "addr:housenumber": "5", "addr:street": "Gold Street", "amenity": "restaurant", "contact:facebook": "Giardino-Doro-219738781378741", "contact:twitter": "GiardinoDoro", "cuisine": "italian", "email": "info@giardinodoro.com", "indoor_seating": "yes", "level": "0", "name": "Giardino D'Oro", "opening_hours": "Mo-Fr 12:00-15:00, 17:00-22:00; Sa 17:00-22:00", "outdoor_seating": "no", "phone": "+1 212-514-6400", "reservation": "yes", "website": "https://giardinodoro.com", "wheelchair": "yes"}}, {"type": "node", "id": 2183010488, "lat": 40.7051728, "lon": -74.011298, "tags": {"addr:city": "New York", "addr:housenumber": "55", "addr:postcode": "10004", "addr:state": "NY", "addr:street": "Broad Street", "amenity": "cafe", "branch": "55 Broad Street", "brand": "Starbucks", "brand:wikidata": "Q37158", "cuisine": "coffee_shop", "diet:vegan": "yes", "drink:soy_milk": "yes", "indoor_seating": "yes", "internet_access": "wlan", "name": "Starbucks", "official_name": "Starbucks Coffee", "opening_hours": "Mo-Su 07:00-18:00", "outdoor_seating": "no", "phone": "+1 212-742-2490", "ref": "16214", "takeaway": "yes", "website": "https://www.starbucks.com/store-locator/store/16214/55-broad-street-55-broad-street-new-york-ny-100042501-us", "wheelchair": "yes"}}, {"type": "node", "id": 2183010489, "lat": 40.7069584, "lon": -74.0072664, "tags": {"addr:housenumber": "100", "addr:postcode": "10038", "addr:street": "Maiden Lane", "amenity": "restaurant", "branch": "FiDi", "cuisine": "chinese", "delivery": "yes", "level": "0", "name": "Chinah", "opening_hours": "Mo-Fr 11:00-21:00", "takeaway": "yes", "website": "https://chinah.kitchen"}}, {"type": "node", "id": 2183010570, "lat": 40.7079524, "lon": -74.0078296, "tags": {"addr:housenumber": "84", "addr:street": "William Street", "air_conditioning": "yes", "amenity": "restaurant", "check_date": "2024-06-27", "cuisine": "sushi", "indoor_seating": "yes", "name": "Blue Ribbon Sushi Bar & Grill", "outdoor_seating": "no", "payment:cash": "yes", "payment:credit_cards": "yes", "reservation": "yes", "smoking": "no"}}, {"type": "node", "id": 2183039959, "lat": 40.7089962, "lon": -74.0090796, "tags": {"addr:city": "New York", "addr:housenumber": "53", "addr:postcode": "10038", "addr:state": "NY", "addr:street": "Nassau Street", "amenity": "restaurant", "check_date:opening_hours": "2023-08-31", "cuisine": "indian", "indoor_seating": "yes", "name": "Raj's Indian Kitchen", "opening_hours:signed": "no", "outdoor_seating": "no", "phone": "+1-646-559-2322"}}, {"type": "node", "id": 2183891964, "lat": 40.7061385, "lon": -74.0093922, "tags": {"addr:housenumber": "55", "addr:street": "Wall Street", "amenity": "restaurant", "check_date": "2025-08-14", "name": "Cipriani", "wheelchair": "yes"}}, {"type": "node", "id": 2183891975, "lat": 40.7055979, "lon": -74.0077325, "tags": {"amenity": "restaurant", "cuisine": "japanese", "name": "Nikoniko Sushi Bowl"}}, {"type": "node", "id": 2183891976, "lat": 40.7051087, "lon": -74.0096903, "tags": {"addr:housenumber": "60", "addr:postcode": "10005", "addr:street": "Beaver Street", "amenity": "restaurant", "cuisine": "japanese", "name": "Taste of Tokyo", "opening_hours": "Mo-Fr 11:00-15:30,17:00-21:45; Su 17:00-21:30", "phone": "+1-212-809-4711", "website": "https://www.tasteoftokyony.com", "wheelchair": "yes"}}, {"type": "node", "id": 2183891980, "lat": 40.7052024, "lon": -74.0080678, "tags": {"addr:city": "New York", "addr:housenumber": "75", "addr:postcode": "10005", "addr:state": "NY", "addr:street": "Wall Street", "amenity": "restaurant", "capacity": "56 seats", "check_date": "2025-08-14", "indoor_seating": "yes", "name": "Centric", "note": "Restaurant and cocktail bar inside the Andaz Hotel", "outdoor_seating": "no", "phone": "+1-212-590-1234", "website": "http://www.urbanspoon.com/cities/3-new-york/restaurants/1890823-dina-rata/menu", "wheelchair": "yes"}}, {"type": "node", "id": 2186614176, "lat": 40.704892, "lon": -74.0085955, "tags": {"amenity": "restaurant", "name": "Wall Street Grill", "nursery": "yes"}}, {"type": "node", "id": 2186614177, "lat": 40.705042, "lon": -74.0102055, "tags": {"addr:housenumber": "56", "addr:postcode": "10004", "addr:street": "Beaver Street", "amenity": "restaurant", "cuisine": "steak_house", "indoor_seating": "yes", "name": "Delmonico's", "opening_hours": "Mo-Fr 11:30-22:00; Sa 17:00-22:00", "outdoor_seating": "no", "phone": "+12125091144", "website": "http://www.delmonicosny.com", "wheelchair": "no", "wikidata": "Q1184537"}}, {"type": "node", "id": 2186614180, "lat": 40.704919, "lon": -74.0093135, "tags": {"addr:housenumber": "5", "addr:postcode": "10004", "addr:street": "Hanover Square", "alt_name": "H&R Block", "brand": "Block Advisors", "brand:wikidata": "Q64166231", "name": "Block Advisors", "office": "tax_advisor", "phone": "+1-212-785-1216", "website": "https://www.blockadvisors.com"}}, {"type": "node", "id": 2186614181, "lat": 40.7051928, "lon": -74.0109499, "tags": {"amenity": "restaurant", "name": "Hale & Hearty Soup", "wheelchair": "yes"}}, {"type": "node", "id": 2186614182, "lat": 40.7046606, "lon": -74.0097725, "tags": {"amenity": "restaurant", "cuisine": "steak_house", "indoor_seating": "yes", "name": "Harry's", "opening_hours": "We-Sa 12:00-24:00; Su 12:00-23:00", "outdoor_seating": "no", "website": "https://www.harrysnyc.com", "wheelchair": "limited"}}, {"type": "node", "id": 2186614185, "lat": 40.7048541, "lon": -74.0095999, "tags": {"addr:housenumber": "3", "addr:postcode": "10004", "addr:street": "Hanover Square", "amenity": "restaurant", "bar": "yes", "cocktails": "yes", "cuisine": "italian", "drink:liquor": "yes", "drink:wine": "yes", "name": "Joseph's Ristorante", "opening_hours": "Mo-Fr 12:00-22:00", "opening_hours:kitchen": "Mo-Fr 12:00-14:45,17:00-22:00", "phone": "+1-212-747-1300", "website": "https://www.josephsnyc.com", "wheelchair": "yes"}}, {"type": "node", "id": 2186614188, "lat": 40.7047709, "lon": -74.0088362, "tags": {"addr:city": "New York", "addr:housenumber": "10", "addr:postcode": "10005", "addr:state": "NY", "addr:street": "Hanover Square", "air_conditioning": "yes", "amenity": "restaurant", "branch": "Financial District", "check_date": "2025-08-14", "cuisine": "breakfast;sandwich", "delivery": "yes", "indoor_seating": "yes", "name": "Lenwich", "opening_hours": "Mo-Fr 08:00-16:00; Sa-Su off", "outdoor_seating": "no", "payment:cash": "yes", "payment:contactless": "yes", "payment:credit_cards": "yes", "payment:debit_cards": "yes", "phone": "+1-212-385-2828", "takeaway": "yes", "website": "https://www.lenwich.com/location/financial-district-hanover/", "website:menu": "https://www.lenwichtogo.com/store114/menu.php", "wheelchair": "yes"}}, {"type": "node", "id": 2186614190, "lat": 40.7046071, "lon": -74.0091159, "tags": {"addr:city": "New York", "addr:housenumber": "110", "addr:postcode": "10005", "addr:state": "NY", "addr:street": "Pearl Street", "amenity": "cafe", "branch": "Pearl & Hanover", "brand": "Starbucks", "brand:wikidata": "Q37158", "cuisine": "coffee_shop", "diet:vegan": "yes", "drink:soy_milk": "yes", "name": "Starbucks", "official_name": "Starbucks Coffee", "phone": "+1 212-482-6530", "ref": "7912", "takeaway": "yes", "website": "https://www.starbucks.com/store-locator/store/7912/pearl-hanover-110-pearl-street-new-york-ny-100053510-us", "wheelchair": "yes"}}, {"type": "node", "id": 2186614191, "lat": 40.7046731, "lon": -74.0089587, "tags": {"amenity": "restaurant", "name": "The Original Soupman", "wheelchair": "yes"}}, {"type": "node", "id": 2186614209, "lat": 40.7046205, "lon": -74.0094594, "tags": {"barrier": "kerb", "kerb": "lowered", "tactile_paving": "yes", "wheelchair": "yes"}}, {"type": "node", "id": 2186614214, "lat": 40.7048036, "lon": -74.0097208}, {"type": "node", "id": 2186614223, "lat": 40.7049721, "lon": -74.0089843}, {"type": "node", "id": 2186614225, "lat": 40.7048141, "lon": -74.0096822}, {"type": "node", "id": 2275856089, "lat": 40.7087251, "lon": -74.0103625, "tags": {"addr:housenumber": "140", "addr:street": "Broadway", "name": "Brown Brothers Harriman & Trust", "office": "company", "wheelchair": "yes"}}, {"type": "node", "id": 2594630499, "lat": 40.7047913, "lon": -74.0071236, "tags": {"addr:city": "New York", "addr:housenumber": "99", "addr:postcode": "10005", "addr:state": "NY", "addr:street": "Wall Street", "amenity": "cafe", "branch": "99 Wall Street", "brand": "Starbucks", "brand:wikidata": "Q37158", "cuisine": "coffee_shop", "internet_access": "wlan", "internet_access:fee": "no", "name": "Starbucks", "official_name": "Starbucks Coffee", "opening_hours": "Mo-Fr 06:00-20:00; Sa-Su 07:00-20:00", "phone": "+1 929-955-1841", "ref": "1005523", "takeaway": "yes", "website": "https://www.starbucks.com/store-locator/store/1005523/99-wall-street-99-wall-st-new-york-ny-100054301-us", "wheelchair": "yes"}}, {"type": "node", "id": 2731108933, "lat": 40.7059245, "lon": -74.0103947, "tags": {"addr:city": "New York", "addr:housenumber": "40", "addr:postcode": "10005", "addr:street": "Exchange Place", "amenity": "pub", "check_date:opening_hours": "2023-09-21", "indoor_seating": "yes", "internet_access": "yes", "internet_access:fee": "no", "name": "The Irish Punt", "opening_hours:signed": "no", "outdoor_seating": "no", "phone": "+1 212-422-7868", "wheelchair": "no"}}, {"type": "node", "id": 2790377994, "lat": 40.7068622, "lon": -74.0097342, "tags": {"addr:housenumber": "40", "addr:postcode": "10005", "addr:state": "NY", "addr:street": "Wall Street", "name": "Send A Package Inc.", "office": "company", "shop": "shipping", "website": "sendapackage.com"}}, {"type": "node", "id": 2824641540, "lat": 40.7088461, "lon": -74.012467}, {"type": "node", "id": 2824641541, "lat": 40.7088562, "lon": -74.0124081}, {"type": "node", "id": 2824641543, "lat": 40.708872, "lon": -74.0124479}, {"type": "node", "id": 2824641547, "lat": 40.7089288, "lon": -74.0126577}, {"type": "node", "id": 2824641551, "lat": 40.7089987, "lon": -74.0123068}, {"type": "node", "id": 2824641552, "lat": 40.7090116, "lon": -74.0123365}, {"type": "node", "id": 2824641554, "lat": 40.7090388, "lon": -74.0123161}, {"type": "node", "id": 2824641555, "lat": 40.7090518, "lon": -74.0125562}, {"type": "node", "id": 2824641556, "lat": 40.7090549, "lon": -74.0125633}, {"type": "node", "id": 2824641561, "lat": 40.7090784, "lon": -74.0122745}, {"type": "node", "id": 2824641564, "lat": 40.7090881, "lon": -74.0125189}, {"type": "node", "id": 2824641565, "lat": 40.7090914, "lon": -74.0125265}, {"type": "node", "id": 2824641569, "lat": 40.7091173, "lon": -74.012497}, {"type": "node", "id": 2824641576, "lat": 40.7091894, "lon": -74.0125281}, {"type": "node", "id": 2824641585, "lat": 40.7093112, "lon": -74.0124361}, {"type": "node", "id": 2824641586, "lat": 40.7093236, "lon": -74.0120892}, {"type": "node", "id": 2824641590, "lat": 40.7093741, "lon": -74.0125799}, {"type": "node", "id": 2824641596, "lat": 40.7093869, "lon": -74.0125703}, {"type": "node", "id": 2824641604, "lat": 40.7094975, "lon": -74.0124867}, {"type": "node", "id": 2824697561, "lat": 40.7089682, "lon": -74.0081766}, {"type": "node", "id": 2824697572, "lat": 40.7090436, "lon": -74.0082939}, {"type": "node", "id": 2824697586, "lat": 40.7090885, "lon": -74.0083437}, {"type": "node", "id": 2824697587, "lat": 40.7090941, "lon": -74.00795}, {"type": "node", "id": 2824697588, "lat": 40.7091329, "lon": -74.0080059}, {"type": "node", "id": 2824697701, "lat": 40.7092123, "lon": -74.0081188}, {"type": "node", "id": 2824697702, "lat": 40.7092472, "lon": -74.0081831}, {"type": "node", "id": 2824827795, "lat": 40.7050976, "lon": -74.0090366, "tags": {"addr:city": "New York", "addr:housenumber": "5", "addr:postcode": "10004", "addr:state": "NY", "addr:street": "Hanover Street", "office": "yes"}}, {"type": "node", "id": 2824828301, "lat": 40.7041158, "lon": -74.0104083}, {"type": "node", "id": 2824828323, "lat": 40.7043755, "lon": -74.0103859, "tags": {"addr:city": "New York", "addr:housenumber": "53", "addr:postcode": "10004", "addr:state": "NY", "addr:street": "Stone Street", "amenity": "restaurant", "cuisine": "scandinavian", "name": "Smorgas Chef", "website": "http://www.smorgas.com/index_wallstreet.htm"}}, {"type": "node", "id": 2824828336, "lat": 40.704458, "lon": -74.0102766, "tags": {"addr:city": "New York", "addr:housenumber": "57", "addr:postcode": "10004", "addr:state": "NY", "addr:street": "Stone Street", "amenity": "restaurant", "name": "Bodega Gran Via"}}, {"type": "node", "id": 2824828428, "lat": 40.7014586, "lon": -74.0111982}, {"type": "node", "id": 2824829036, "lat": 40.7039737, "lon": -74.0103728}, {"type": "node", "id": 2824829049, "lat": 40.7040287, "lon": -74.0102975}, {"type": "node", "id": 2824829063, "lat": 40.7040828, "lon": -74.0102235}, {"type": "node", "id": 2824829075, "lat": 40.7041298, "lon": -74.010159}, {"type": "node", "id": 2824829092, "lat": 40.7041726, "lon": -74.0105208}, {"type": "node", "id": 2824829093, "lat": 40.7041849, "lon": -74.0100836}, {"type": "node", "id": 2824829098, "lat": 40.7042023, "lon": -74.0104556}, {"type": "node", "id": 2824829203, "lat": 40.7042337, "lon": -74.0103887}, {"type": "node", "id": 2824829206, "lat": 40.7042378, "lon": -74.0106561}, {"type": "node", "id": 2824829209, "lat": 40.7042643, "lon": -74.0099812}, {"type": "node", "id": 2824829210, "lat": 40.7042711, "lon": -74.0103255}, {"type": "node", "id": 2824829212, "lat": 40.7042991, "lon": -74.0104836}, {"type": "node", "id": 2824829217, "lat": 40.7043193, "lon": -74.0102634}, {"type": "node", "id": 2824829223, "lat": 40.7043438, "lon": -74.0101145}, {"type": "node", "id": 2824829226, "lat": 40.7043551, "lon": -74.0100996}, {"type": "node", "id": 2824829231, "lat": 40.704389, "lon": -74.0101735}, {"type": "node", "id": 2824829234, "lat": 40.7044189, "lon": -74.0107579}, {"type": "node", "id": 2824829239, "lat": 40.7044486, "lon": -74.0106617}, {"type": "node", "id": 2824829283, "lat": 40.7047118, "lon": -74.010504}, {"type": "node", "id": 2824829296, "lat": 40.7047547, "lon": -74.0104395}, {"type": "node", "id": 2824829401, "lat": 40.7047963, "lon": -74.0105641}, {"type": "node", "id": 2824829405, "lat": 40.7048243, "lon": -74.0110154}, {"type": "node", "id": 2824829407, "lat": 40.7048365, "lon": -74.0107205}, {"type": "node", "id": 2824829408, "lat": 40.7048448, "lon": -74.0106291}, {"type": "node", "id": 2824829409, "lat": 40.7048503, "lon": -74.01063}, {"type": "node", "id": 2824829410, "lat": 40.7048509, "lon": -74.0107228}, {"type": "node", "id": 2824829411, "lat": 40.7048526, "lon": -74.0106043}, {"type": "node", "id": 2824829414, "lat": 40.7048795, "lon": -74.0105996}, {"type": "node", "id": 2824829418, "lat": 40.7048811, "lon": -74.0093861}, {"type": "node", "id": 2824829420, "lat": 40.7048971, "lon": -74.010566}, {"type": "node", "id": 2824829441, "lat": 40.7049877, "lon": -74.0110411}, {"type": "node", "id": 2824829448, "lat": 40.7050208, "lon": -74.0106775}, {"type": "node", "id": 2824988421, "lat": 40.7071182, "lon": -74.0081966}, {"type": "node", "id": 2824988442, "lat": 40.7072313, "lon": -74.0081413}, {"type": "node", "id": 2824988446, "lat": 40.7072328, "lon": -74.0081305}, {"type": "node", "id": 2824988452, "lat": 40.7072449, "lon": -74.0081625}, {"type": "node", "id": 2824988458, "lat": 40.7072559, "lon": -74.0081666}, {"type": "node", "id": 2824988459, "lat": 40.7072567, "lon": -74.0081808}, {"type": "node", "id": 2824988465, "lat": 40.7072623, "lon": -74.0081595}, {"type": "node", "id": 2824988469, "lat": 40.7072827, "lon": -74.0082213}, {"type": "node", "id": 2824988471, "lat": 40.7072876, "lon": -74.0082158}, {"type": "node", "id": 2824988474, "lat": 40.7072917, "lon": -74.0082353}, {"type": "node", "id": 2824988476, "lat": 40.7072966, "lon": -74.0082299}, {"type": "node", "id": 2824988484, "lat": 40.7073177, "lon": -74.0082759}, {"type": "node", "id": 2824988485, "lat": 40.7073187, "lon": -74.0082838}, {"type": "node", "id": 2824988494, "lat": 40.7073637, "lon": -74.0083539}, {"type": "node", "id": 2824988495, "lat": 40.7073701, "lon": -74.0083575}, {"type": "node", "id": 2824988497, "lat": 40.7073834, "lon": -74.0083783}, {"type": "node", "id": 2824988501, "lat": 40.707388, "lon": -74.0083733}, {"type": "node", "id": 2824988503, "lat": 40.7073928, "lon": -74.0083808}, {"type": "node", "id": 2824988505, "lat": 40.7074054, "lon": -74.0084076}, {"type": "node", "id": 2824988508, "lat": 40.707415, "lon": -74.0084093}, {"type": "node", "id": 2825052390, "lat": 40.7044805, "lon": -74.006089}, {"type": "node", "id": 2825052398, "lat": 40.7046616, "lon": -74.0063643}, {"type": "node", "id": 2825052619, "lat": 40.7048722, "lon": -74.0066844}, {"type": "node", "id": 2825053163, "lat": 40.7068232, "lon": -74.0061947}, {"type": "node", "id": 2825053164, "lat": 40.7068614, "lon": -74.0061393}, {"type": "node", "id": 2825053167, "lat": 40.7069348, "lon": -74.0062252}, {"type": "node", "id": 2825053168, "lat": 40.706959, "lon": -74.0063564}, {"type": "node", "id": 2825053169, "lat": 40.706968, "lon": -74.0063541}, {"type": "node", "id": 2825053170, "lat": 40.706998, "lon": -74.0062771}, {"type": "node", "id": 2825064871, "lat": 40.7092434, "lon": -74.0078826, "tags": {"addr:city": "New York", "addr:housenumber": "45", "addr:postcode": "10038", "addr:state": "NY", "addr:street": "John Street", "air_conditioning": "yes", "amenity": "cafe", "bar": "no", "branch": "Financial District", "cuisine": "coffee;sandwich;pastry", "delivery": "yes", "diet:gluten_free": "yes", "drive_through": "no", "email": "info@suitednyc.com", "indoor_seating": "yes", "level": "0", "name": "Suited", "opening_hours": "Mo-Fr 07:30-18:00; Sa-Su 08:30-17:00", "outdoor_seating": "yes", "payment:apple_pay": "yes", "payment:cash": "yes", "payment:credit_cards": "yes", "payment:debit_cards": "yes", "reservation": "no", "smoking": "no", "takeaway": "yes", "toilets": "yes", "website": "https://www.suitednyc.com"}}, {"type": "node", "id": 2826658205, "lat": 40.7092384, "lon": -73.9881778}, {"type": "node", "id": 2837384392, "lat": 40.7057886, "lon": -74.0112224, "tags": {"addr:housenumber": "41", "addr:postcode": "10004", "addr:street": "Broad Street", "amenity": "school", "check_date": "2025-08-14", "name": "Lehman Manhattan Preparatory School", "wheelchair": "yes"}}, {"type": "node", "id": 2897876736, "lat": 40.70932, "lon": -74.008734, "tags": {"addr:city": "New York", "addr:housenumber": "59", "addr:postcode": "10038", "addr:state": "NY", "addr:street": "Nassau Street", "amenity": "restaurant", "cuisine": "sushi;ramen", "name": "Otani", "name:en": "Otani", "name:ja": "\u5927\u8c37", "opening_hours": "Mo-Th 11:00-22:00;Fr-Sa 11:00-10:30;Su 12:00-22:00", "phone": "+1-212-732-9250", "wheelchair": "no"}}, {"type": "node", "id": 2915596861, "lat": 40.7066535, "lon": -74.0123807, "tags": {"addr:city": "New York", "addr:housenumber": "56", "addr:postcode": "10004", "addr:state": "NY", "addr:street": "Broadway", "amenity": "college", "name": "The King's College", "phone": "+1 212-659-7200", "website": "https://www.tkc.edu/", "wheelchair": "yes"}}, {"type": "node", "id": 2962522498, "lat": 40.7087066, "lon": -74.0069715, "tags": {"addr:city": "New York", "addr:housenumber": "110", "addr:postcode": "10038", "addr:street": "William Street", "name": "Stack Exchange NYC", "office": "company"}}, {"type": "node", "id": 3190230454, "lat": 40.7053184, "lon": -74.0100991, "tags": {"amenity": "restaurant", "cuisine": "american;korean;japanese;coffee_shop", "indoor_seating": "yes", "name": "Open Kitchen", "outdoor_seating": "yes", "wheelchair": "yes"}}, {"type": "node", "id": 3190230455, "lat": 40.7062033, "lon": -74.011905, "tags": {"addr:city": "New York", "addr:housenumber": "30", "addr:postcode": "10004", "addr:state": "NY", "addr:street": "Broad Street", "amenity": "cafe", "brand": "Bluestone Lane", "brand:wikidata": "Q130381059", "cuisine": "australian;coffee_shop", "name": "Bluestone Lane"}}, {"type": "node", "id": 3235899213, "lat": 40.7098854, "lon": -73.9883955}, {"type": "node", "id": 3235899214, "lat": 40.7099596, "lon": -73.9884027}, {"type": "node", "id": 3235899215, "lat": 40.7099758, "lon": -73.988422}, {"type": "node", "id": 3235899216, "lat": 40.7100148, "lon": -73.9884165}, {"type": "node", "id": 3239326415, "lat": 40.7045322, "lon": -74.0109178, "tags": {"addr:housenumber": "26", "addr:street": "South William Street", "amenity": "restaurant", "name": "Luke's Lobster", "website": "https://lukeslobster.com/fidi", "wheelchair": "yes"}}, {"type": "node", "id": 3350496158, "lat": 40.7069415, "lon": -74.0012727}, {"type": "node", "id": 3350496439, "lat": 40.7069679, "lon": -74.0012965}, {"type": "node", "id": 3350496440, "lat": 40.7078925, "lon": -73.9996381}, {"type": "node", "id": 3448908338, "lat": 40.7060236, "lon": -74.0102403, "tags": {"addr:city": "New York", "addr:housenumber": "41", "addr:postcode": "10005", "addr:state": "NY", "addr:street": "Exchange Place", "amenity": "restaurant", "cuisine": "pizza", "delivery": "yes", "name": "Cucina Bene Pizza", "website": "https://www.cucinabenepizza.com/"}}, {"type": "node", "id": 3448974183, "lat": 40.704371, "lon": -74.0098436}, {"type": "node", "id": 3448974184, "lat": 40.7045047, "lon": -74.0100241}, {"type": "node", "id": 3451440812, "lat": 40.7052914, "lon": -74.00834, "tags": {"addr:city": "New York", "addr:housenumber": "1", "addr:postcode": "10005", "addr:state": "NY", "addr:street": "Wall Street Court", "amenity": "bar", "name": "Continental Bar & Lounge", "old_name": "Haru Sushi", "opening_hours": "Mo-Th 11:00-23:00, Fr-Sa 11:00-00:00"}}, {"type": "node", "id": 3451449736, "lat": 40.7065252, "lon": -74.0071489, "tags": {"addr:city": "New York", "addr:housenumber": "100", "addr:postcode": "10038", "addr:state": "NY", "addr:street": "Maiden Lane", "amenity": "restaurant", "branch": "Financial District", "cuisine": "mediterranean", "delivery": "yes", "indoor_seating": "yes", "level": "0", "name": "Roti", "opening_hours": "Mo-Fr 11:00-16:00", "outdoor_seating": "no", "phone": "+1 917-338-3884", "takeaway": "yes", "website": "https://roti.com/", "wheelchair": "yes"}}, {"type": "node", "id": 3738776597, "lat": 40.7043498, "lon": -74.0104603, "tags": {"addr:city": "New York", "addr:housenumber": "47", "addr:postcode": "10004", "addr:state": "NY", "addr:street": "Stone Street", "amenity": "restaurant", "cocktails": "yes", "cuisine": "british", "drink:beer": "served", "drink:cider": "served", "happy_hours": "Th-Sa 16:00-19:00, 23:00-02:00; Mo-We, Su 16:00-19:00", "name": "The Cauldron", "opening_hours": "Mo-We 11:00-21:00; Th-Sa 11:00-23:00; Su 11:00-20:00", "outdoor_seating": "yes", "phone": "+1 212-480-8142", "reservation": "yes", "website": "https://thecauldron.io/nyc/dine"}}, {"type": "node", "id": 3738776600, "lat": 40.7043867, "lon": -74.0106192}, {"type": "node", "id": 3738928726, "lat": 40.7074061, "lon": -74.0076691}, {"type": "node", "id": 3738928727, "lat": 40.7074061, "lon": -74.0076781}, {"type": "node", "id": 3738928728, "lat": 40.7074171, "lon": -74.0076584}, {"type": "node", "id": 3738928730, "lat": 40.7074235, "lon": -74.0076606}, {"type": "node", "id": 3738928737, "lat": 40.7074852, "lon": -74.0078074}, {"type": "node", "id": 3738928739, "lat": 40.7075285, "lon": -74.0077351}, {"type": "node", "id": 3748367336, "lat": 40.7091507, "lon": -74.008281}, {"type": "node", "id": 3762209179, "lat": 40.7092057, "lon": -74.0125158}, {"type": "node", "id": 3762209180, "lat": 40.7092512, "lon": -74.0124814}, {"type": "node", "id": 3762209186, "lat": 40.7094335, "lon": -74.0123404}, {"type": "node", "id": 3772831306, "lat": 40.708905, "lon": -74.0126029}, {"type": "node", "id": 3784197522, "lat": 40.7075376, "lon": -74.0068533, "tags": {"addr:city": "New York", "addr:housenumber": "2", "addr:postcode": "10038", "addr:street": "Gold Street", "amenity": "restaurant", "brewery": "yes", "check_date": "2023-01-08", "cuisine": "italian;pizza;pasta", "indoor_seating": "yes", "internet_access": "no", "microbrewery": "no", "name": "Harry's Italian", "outdoor_seating": "yes", "payment:cash": "yes", "payment:credit_cards": "yes", "payment:debit_cards": "yes", "website": "https://www.harrysitalian.com/", "wheelchair": "yes"}}, {"type": "node", "id": 3926398285, "lat": 40.7073841, "lon": -74.012574, "tags": {"addr:city": "New York", "addr:housenumber": "65", "addr:postcode": "10006", "addr:state": "NY", "addr:street": "Broadway", "amenity": "restaurant", "name": "Variety Cafe", "phone": "+1-212-430-6888", "wheelchair": "no"}}, {"type": "node", "id": 3941994114, "lat": 40.7092551, "lon": -74.0069986, "tags": {"addr:housenumber": "123", "addr:street": "William Street", "government": "social_security", "name": "Social Security Administration", "office": "government", "operator": "Social Security Administration", "operator:short": "SSA", "operator:wikidata": "Q2824618"}}, {"type": "node", "id": 4230862989, "lat": 40.7079924, "lon": -74.0063203, "tags": {"addr:city": "New York", "addr:housenumber": "90", "addr:postcode": "10038", "addr:state": "NY", "addr:street": "John Street", "name": "90 John Street", "office": "company", "toilets:wheelchair": "no", "wheelchair": "yes"}}, {"type": "node", "id": 4324282097, "lat": 40.7090297, "lon": -74.0114731, "tags": {"addr:housenumber": "115", "addr:postcode": "10006", "addr:state": "NY", "addr:street": "Broadway", "amenity": "pub", "name": "Trinity Place Bar and Restaurant", "opening_hours": "Mo-Fr 11:30-01:00"}}, {"type": "node", "id": 4387094640, "lat": 40.7081144, "lon": -74.0065237, "tags": {"addr:city": "New York", "addr:housenumber": "90", "addr:postcode": "10038", "addr:street": "John Street", "amenity": "pub", "name": "Stout NYC - FiDi", "opening_hours": "Mo-Tu 11:30-02:00; We-Sa 11:30-04:00; Su 11:30-02:00", "opening_hours:url": "http://www.fidi.stoutnyc.com/faq.php", "operator": "Stout NYC", "phone": "+12122409122", "wheelchair": "no"}}, {"type": "node", "id": 4561414018, "lat": 40.7044616, "lon": -74.0060603}, {"type": "node", "id": 4561414124, "lat": 40.7048273, "lon": -74.0068454}, {"type": "node", "id": 4561414165, "lat": 40.7052398, "lon": -74.0071619}, {"type": "node", "id": 4680481185, "lat": 40.7081387, "lon": -74.010378, "tags": {"addr:city": "New York", "addr:floor": "31", "addr:housenumber": "120", "addr:postcode": "10271", "addr:state": "NY", "addr:street": "Broadway", "addr:unit": "31st Floor", "air_conditioning": "yes", "fax": "+1-212-720-3488", "government": "yes", "name": "New York City Department of City Planning", "office": "government", "operator": "City of New York", "operator:type": "government", "operator:wikidata": "Q3112559", "operator:wikipedia": "en:City of New York", "phone": "+1-212-720-3300", "website": "https://www1.nyc.gov/site/planning/index.page", "wikidata": "Q8354830", "wikipedia": "en:New York City Department of City Planning"}}, {"type": "node", "id": 4708888898, "lat": 40.7064444, "lon": -74.0079647, "tags": {"amenity": "cafe", "indoor_seating": "yes", "name": "Black Fox coffee co.", "name:en": "Black Fox coffee co.", "outdoor_seating": "yes"}}, {"type": "node", "id": 4802844049, "lat": 40.706735, "lon": -74.0096934, "tags": {"addr:housenumber": "40", "addr:street": "Wall Street", "amenity": "restaurant", "check_date": "2023-01-26", "cuisine": "pizza", "indoor_seating": "yes", "name": "Luzzo's La Pizza Napoletana", "outdoor_seating": "yes", "payment:credit_cards": "yes", "payment:debit_cards": "yes", "takeaway": "yes", "wheelchair": "yes"}}, {"type": "node", "id": 4844071325, "lat": 40.7057985, "lon": -74.0075564, "tags": {"addr:city": "New York", "addr:postcode": "10005", "amenity": "pub", "indoor_seating": "yes", "name": "Full Shilling", "opening_hours": "Mo-Sa 11:00-00:00", "outdoor_seating": "yes", "phone": "+12124223855", "website": "http://www.thefullshilling.com", "wheelchair": "yes"}}, {"type": "node", "id": 4845789723, "lat": 40.704646, "lon": -74.0084317, "tags": {"addr:postcode": "10005", "amenity": "cafe", "brand": "Bluestone Lane", "brand:wikidata": "Q130381059", "name": "Bluestone Lane", "opening_hours": "Mo-Fr 07:00-18:00; Sa-Su 08:00-16:00", "phone": "+12127479082", "website": "http://www.bluestonelaneny.com", "wheelchair": "no"}}, {"type": "node", "id": 4846131422, "lat": 40.7064877, "lon": -74.0067196, "tags": {"addr:housenumber": "110", "addr:postcode": "10005", "addr:street": "Maiden Lane", "amenity": "restaurant", "indoor_seating": "yes", "name": "Dill & Parsley", "outdoor_seating": "no"}}, {"type": "node", "id": 4846158321, "lat": 40.7056733, "lon": -74.0083741, "tags": {"addr:housenumber": "69B", "addr:postcode": "10005", "addr:street": "Wall Street", "amenity": "cafe", "brand": "La Colombe Coffee Roasters", "brand:wikidata": "Q23461663", "cuisine": "coffee_shop", "drink:coffee": "yes", "drink:espresso": "yes", "drink:tea": "yes", "indoor_seating": "yes", "name": "La Colombe Coffee Roasters", "opening_hours": "Mo-Fr 06:00-18:30; Sa-Su 07:00-18:30", "opening_hours:covid19": "Mo-Fr 07:00-18:00; Sa-Su 07:00-17:00", "outdoor_seating": "no", "phone": "+1-212-220-0415", "short_name": "La Colombe", "takeaway": "yes", "website": "https://www.lacolombe.com/", "wheelchair": "yes"}}, {"type": "node", "id": 4850230829, "lat": 40.7061594, "lon": -74.008845, "tags": {"addr:postcode": "10005", "amenity": "cafe", "brand": "Starbucks", "brand:wikidata": "Q37158", "check_date": "2019-11-02", "cuisine": "coffee_shop", "name": "Starbucks", "official_name": "Starbucks Coffee", "opening_hours": "Mo-Fr 07:00-20:00; Sa-Su 07:00-18:00", "phone": "+13474614068", "takeaway": "yes", "wheelchair": "yes"}}, {"type": "node", "id": 4860141724, "lat": 40.7046891, "lon": -74.0105964, "tags": {"addr:housenumber": "10", "addr:postcode": "10004", "amenity": "restaurant", "cuisine": "chinese", "name": "No. 1", "opening_hours": "Mo-Fr 11:00-21:30; Sa-Su 15:30-21:30", "phone": "+12129520890"}}, {"type": "node", "id": 4872760421, "lat": 40.7090684, "lon": -74.0057404, "tags": {"addr:housenumber": "88", "addr:postcode": "10038", "addr:street": "Fulton Street", "amenity": "restaurant", "cuisine": "russian", "name": "Matryoshka", "opening_hours": "Mo-Su 11:30-22:30", "phone": "+1 212-766-8600", "reservation": "yes", "website": "http://www.wallstreetbath.com/restaurant"}}, {"type": "node", "id": 4913377823, "lat": 40.7041988, "lon": -74.0117201, "tags": {"amenity": "cafe", "brand": "Gregorys Coffee", "brand:wikidata": "Q28229714", "indoor_seating": "yes", "name": "Gregorys Coffee", "note": "lack of apostrophe in name is not a typo", "opening_hours": "Mo-Th 06:30-17:00; Fr 06:30-16:00", "outdoor_seating": "no", "wheelchair": "yes"}}, {"type": "node", "id": 4915258223, "lat": 40.7048909, "lon": -74.0066253, "tags": {"addr:housenumber": "110", "addr:postcode": "10005", "addr:street": "Wall Street", "amenity": "restaurant", "name": "Westville", "opening_hours": "Mo-Fr 09:00-23:00; Sa-Su 10:00-23:00", "phone": "+12127414780", "website": "http://www.westvillenc.com", "wheelchair": "yes"}}, {"type": "node", "id": 4915258225, "lat": 40.7069204, "lon": -74.0067667, "tags": {"addr:housenumber": "101", "addr:postcode": "10038", "addr:street": "Maiden Lane", "amenity": "cafe", "indoor_seating": "yes", "name": "Juice Generation", "opening_hours": "Mo-Fr 08:00-17:00; Sa-Su unknown", "outdoor_seating": "yes", "phone": "+1-646-882-4330", "takeaway": "yes", "website": "https://www.juicegeneration.com/locations/fidi", "wheelchair": "yes"}}, {"type": "node", "id": 4915258227, "lat": 40.7074441, "lon": -74.0066143, "tags": {"addr:housenumber": "6", "addr:postcode": "10038", "addr:street": "Platt Street", "amenity": "restaurant", "cuisine": "chinese", "email": "wuishplattstreet@gmail.com", "name": "Golden Wuish", "old_name": "Ketch Brewhouse", "opening_hours": "Mo-Su 12:00-23:00", "outdoor_seating": "yes", "phone": "+12122739296", "website": "https://www.goldenwuish.com/", "wheelchair": "yes"}}, {"type": "node", "id": 4922439621, "lat": 40.7050363, "lon": -74.0068254, "tags": {"addr:housenumber": "100", "addr:postcode": "10005", "addr:street": "Wall Street", "amenity": "cafe", "brand": "Gregorys Coffee", "brand:wikidata": "Q28229714", "cuisine": "coffee_shop", "name": "Gregorys Coffee", "note": "lack of apostrophe in name is not a typo", "opening_hours": "Mo-Fr 06:00-19:30; Sa 07:00-19:00; Su 09:00-17:00", "phone": "+16469187274", "website": "https://www.gregoryscoffee.com/", "wheelchair": "yes"}}, {"type": "node", "id": 4942593330, "lat": 40.7073323, "lon": -74.008539}, {"type": "node", "id": 4942593331, "lat": 40.7072142, "lon": -74.0081009}, {"type": "node", "id": 4942593338, "lat": 40.7073374, "lon": -74.0084629}, {"type": "node", "id": 4942593339, "lat": 40.7073262, "lon": -74.0084448}, {"type": "node", "id": 4942593348, "lat": 40.7073559, "lon": -74.0084173}, {"type": "node", "id": 4942593349, "lat": 40.7073659, "lon": -74.0084339}, {"type": "node", "id": 4985377331, "lat": 40.7078105, "lon": -74.0057581, "tags": {"addr:city": "New York", "addr:housenumber": "111", "addr:postcode": "10038", "addr:state": "NY", "addr:street": "John Street", "name": "Transportation Alternatives", "office": "ngo"}}, {"type": "node", "id": 5054976809, "lat": 40.704814, "lon": -74.0064246, "tags": {"addr:housenumber": "110", "addr:street": "Wall Street", "name": "WeWork", "office": "cooperative"}}, {"type": "node", "id": 5135848733, "lat": 40.7078716, "lon": -74.0102438, "tags": {"addr:city": "New York", "addr:housenumber": "120", "addr:postcode": "10271", "addr:state": "NY", "addr:street": "Broadway", "amenity": "restaurant", "bar": "yes", "indoor_seating": "yes", "name": "The Capital Grille", "opening_hours": "Mo-Fr 11:30-10:00, Sa 05:00-10:00, Su closed", "outdoor_seating": "no", "phone": "+1-212-374-1811", "reservation": "yes", "website": "https://www.thecapitalgrille.com/home", "wheelchair": "limited"}}, {"type": "node", "id": 5170067385, "lat": 40.7070592, "lon": -74.0101923, "tags": {"addr:city": "New York", "addr:housenumber": "30", "addr:postcode": "10005", "addr:state": "NY", "addr:street": "Wall Street", "name": "dearJulius.com", "office": "newspaper", "opening_hours": "24/7", "phone": "+1-646-893-7689", "website": "https://www.dearjulius.com/"}}, {"type": "node", "id": 5235048038, "lat": 40.7049204, "lon": -74.0063212, "tags": {"brand": "WeWork", "brand:wikidata": "Q19995004", "fee": "yes", "name": "WeWork", "office": "coworking"}}, {"type": "node", "id": 5332665135, "lat": 40.7061301, "lon": -74.0114781, "tags": {"addr:city": "New York", "addr:housenumber": "30", "addr:postcode": "10004", "addr:state": "NY", "addr:street": "Broad Street", "email": "alexlogerfo@ssconcretepolshing.com", "name": "Southside Concrete Polishing", "office": "company", "phone": "+1-646-760-4442", "website": "https://ssconcretepolishing.com/", "wheelchair": "yes"}}, {"type": "node", "id": 5334051621, "lat": 40.7087364, "lon": -74.0069962, "tags": {"addr:housenumber": "110", "addr:street": "William Street", "amenity": "cafe", "name": "Voyager Espresso"}}, {"type": "node", "id": 5383989328, "lat": 40.7091871, "lon": -74.0088819, "tags": {"addr:housenumber": "59", "addr:postcode": "10038", "addr:street": "Nassau Street", "air_conditioning": "no", "amenity": "restaurant", "bar": "no", "check_date": "2024-06-27", "cuisine": "italian", "delivery": "yes", "dish": "pizza", "highchair": "yes", "name": "Friendly Gourmet Pizza", "opening_hours": "Mo-Fr 06:30-18:00", "outdoor_seating": "yes", "payment:cash": "yes", "payment:credit_cards": "yes", "phone": "+1 212-791-1800", "takeaway": "yes", "website": "https://www.friendlypizzeria.com", "wheelchair": "yes"}}, {"type": "node", "id": 5443670322, "lat": 40.705529, "lon": -74.008115, "tags": {"addr:housenumber": "65E", "addr:postcode": "10005", "addr:street": "Wall Street", "amenity": "cafe", "brand": "Joe & The Juice", "brand:wikidata": "Q26221514", "cuisine": "coffee_shop", "drink:coffee": "yes", "drink:espresso": "yes", "drink:juice": "yes", "drink:tea": "yes", "indoor_seating": "yes", "name": "Joe & The Juice", "opening_hours": "Mo-Su 06:00-21:00", "outdoor_seating": "no", "takeaway": "yes", "wheelchair": "yes"}}, {"type": "node", "id": 5496610256, "lat": 40.709201, "lon": -73.9881727}, {"type": "node", "id": 5550171855, "lat": 40.7048698, "lon": -74.0056919, "tags": {"addr:city": "New York", "addr:housenumber": "120", "addr:postcode": "10005", "addr:state": "NY", "addr:street": "Wall Street", "contact:facebook": "https://facebook.com/lavazzausa", "contact:instagram": "https://www.instagram.com/lavazzausa/", "contact:linkedin": "https://www.linkedin.com/company/lavazza-premium-coffees-corp./", "contact:twitter": "https://twitter.com/Lavazzausa", "contact:youtube": "https://www.youtube.com/user/lavazza", "email": "us.info@lavazza.com", "name": "Lavazza Premium Coffees Corp.", "office": "company", "operator": "brand=Lavazza", "phone": "+1-212-725-8800", "website": "https://www.lavazza.us/en_US.html"}}, {"type": "node", "id": 5561000664, "lat": 40.7086517, "lon": -74.010158, "tags": {"addr:city": "New York", "addr:housenumber": "140", "addr:postcode": "10004", "addr:state": "NY", "addr:street": "Broadway", "addr:unit": "Suite 46", "contact:facebook": "https://www.facebook.com/LevoritzLawGroup/", "name": "The Levoritz Law Firm", "office": "lawyer", "phone": "+1-929-207-6637", "website": "https://levoritzlaw.com/"}}, {"type": "node", "id": 5756090122, "lat": 40.7047951, "lon": -74.0065116, "tags": {"addr:housenumber": "110", "addr:street": "Wall Street", "amenity": "restaurant", "name": "Milk Bar Financial District", "website": "https://milkbarstore.com/", "wheelchair": "yes"}}, {"type": "node", "id": 5801870934, "lat": 40.7078151, "lon": -74.0086882, "tags": {"addr:housenumber": "28", "addr:street": "Liberty Street", "amenity": "bar", "cocktails": "yes", "contact:instagram": "manhatta_nyc", "drink:beer": "draught; bottled", "drink:wine": "served", "email": "info@manhattarestaurant.com", "level": "59", "name": "Manhatta", "phone": "+1 212-230-5788", "reservation": "yes", "website": "https://www.manhattarestaurant.com", "wheelchair": "limited"}}, {"type": "node", "id": 5891192633, "lat": 40.7070134, "lon": -74.0069368, "tags": {"amenity": "restaurant", "indoor_seating": "yes", "name": "Fields Good Chicken", "outdoor_seating": "no", "wheelchair": "yes"}}, {"type": "node", "id": 5978556702, "lat": 40.7048978, "lon": -74.0122892, "tags": {"addr:city": "New York", "addr:housenumber": "20", "addr:postcode": "10004", "addr:state": "NY", "addr:street": "Beaver Street", "amenity": "restaurant", "check_date": "2025-08-14", "cuisine": "pizza", "name": "Pizza Etalia", "wheelchair": "no"}}, {"type": "node", "id": 5978556715, "lat": 40.7055604, "lon": -74.0124709, "tags": {"addr:housenumber": "75", "addr:street": "New Street", "amenity": "restaurant", "cuisine": "caribbean", "name": "Sophie\u2019s", "wheelchair": "yes"}}, {"type": "node", "id": 5978556716, "lat": 40.7056747, "lon": -74.0125085, "tags": {"addr:housenumber": "69", "addr:street": "New Street", "amenity": "restaurant", "cuisine": "mexican", "name": "El Toro", "phone": "+1-212-363-3900", "wheelchair": "yes"}}, {"type": "node", "id": 5978556721, "lat": 40.707216, "lon": -74.008596, "tags": {"addr:housenumber": "62", "addr:street": "William Street", "amenity": "cafe", "name": "Koyzina Kafe", "wheelchair": "no"}}, {"type": "node", "id": 5978556725, "lat": 40.7090861, "lon": -74.0070176, "tags": {"amenity": "cafe", "name": "Open Kitchen", "wheelchair": "yes"}}, {"type": "node", "id": 5978556730, "lat": 40.7078356, "lon": -74.006959, "tags": {"addr:housenumber": "15", "addr:street": "Gold Street", "amenity": "restaurant", "cuisine": "italian", "indoor_seating": "yes", "name": "Felice", "outdoor_seating": "yes", "wheelchair": "yes"}}, {"type": "node", "id": 5978556743, "lat": 40.7048564, "lon": -74.0123904, "tags": {"amenity": "restaurant", "check_date": "2025-08-14", "name": "Yip\u2019s", "wheelchair": "yes"}}, {"type": "node", "id": 5978556750, "lat": 40.7071162, "lon": -74.0081489, "tags": {"addr:housenumber": "25", "addr:street": "Cedar Street", "amenity": "bar", "name": "Cedar Local", "wheelchair": "limited"}}, {"type": "node", "id": 5978557687, "lat": 40.7093091, "lon": -74.0068103, "tags": {"amenity": "cafe", "cuisine": "japanese", "name": "BentOn Cafe", "wheelchair": "yes"}}, {"type": "node", "id": 5978557992, "lat": 40.7057076, "lon": -74.0123841, "tags": {"addr:housenumber": "69", "addr:street": "New Street", "amenity": "restaurant", "cuisine": "pizza", "name": "The Grotto", "wheelchair": "no"}}, {"type": "node", "id": 5978557998, "lat": 40.7094109, "lon": -74.0120305, "tags": {"addr:housenumber": "110", "addr:street": "Trinity Place", "amenity": "cafe", "check_date": "2025-07-15", "cuisine": "pizza", "indoor_seating": "yes", "name": "Hank\u2019s Pizza", "outdoor_seating": "yes", "payment:cash": "yes", "payment:credit_cards": "yes", "payment:debit_cards": "yes", "phone": "+12127964499", "wheelchair": "yes"}}, {"type": "node", "id": 5978558001, "lat": 40.7083708, "lon": -74.0074301, "tags": {"addr:city": "New York", "addr:housenumber": "100", "addr:postcode": "10038", "addr:state": "NY", "addr:street": "William Street", "amenity": "cafe", "branch": "100 William Street", "brand": "Starbucks", "brand:wikidata": "Q37158", "cuisine": "coffee_shop", "name": "Starbucks", "official_name": "Starbucks Coffee", "phone": "+1 212-509-9709", "ref": "16844", "takeaway": "yes", "toilets:wheelchair": "no", "website": "https://www.starbucks.com/store-locator/store/16844/100-william-street-100-william-street-new-york-ny-100384512-us", "wheelchair": "yes"}}, {"type": "node", "id": 5978558008, "lat": 40.7070318, "lon": -74.0080353, "tags": {"addr:housenumber": "25", "addr:street": "Cedar Street", "amenity": "cafe", "cuisine": "greek", "name": "Pita Press", "wheelchair": "no"}}, {"type": "node", "id": 5978558886, "lat": 40.7082492, "lon": -74.0101892, "tags": {"amenity": "cafe", "name": "Manon Cafe"}}, {"type": "node", "id": 5978745697, "lat": 40.7093537, "lon": -74.008, "tags": {"amenity": "restaurant", "cuisine": "mediterranean", "indoor_seating": "yes", "name": "Nish Nush", "outdoor_seating": "yes"}}, {"type": "node", "id": 5978792116, "lat": 40.7073322, "lon": -74.0059333, "tags": {"addr:housenumber": "225", "addr:street": "Pearl Street", "amenity": "cafe", "name": "Sons of Thunder", "phone": "+1-646-822-0208", "website": "https://www.sonsofthunder.com/location/financial-district/", "wheelchair": "yes"}}, {"type": "node", "id": 6051473585, "lat": 40.7042777, "lon": -74.010273, "tags": {"addr:city": "New York", "addr:housenumber": "52", "addr:postcode": "10004", "addr:state": "NY", "addr:street": "Stone Street", "amenity": "restaurant", "name": "Stone Street Tavern", "name:ko": "\uc2a4\ud1a4 \uc2a4\ud2b8\ub9ac\ud2b8", "outdoor_seating": "street", "phone": "+12127855658", "website": "https://stonestreettavernnyc.com/", "wheelchair": "limited"}}, {"type": "node", "id": 6179753683, "lat": 40.7078003, "lon": -74.0077463, "tags": {"addr:housenumber": "75", "addr:postcode": "10038", "addr:street": "Maiden Lane", "air_conditioning": "yes", "amenity": "restaurant", "bar": "no", "branch": "Financial District", "brand": "Ta\u00efm", "check_date": "2024-06-27", "cuisine": "mediterranean", "delivery": "yes", "diet:vegan": "yes", "diet:vegetarian": "yes", "dish": "falafel", "highchair": "yes", "indoor_seating": "yes", "level": "0", "name": "Ta\u00efm", "opening_hours": "11:00-20:30", "outdoor_seating": "no", "payment:cash": "yes", "payment:credit_cards": "yes", "phone": "+1 212-226-1248", "takeaway": "yes", "website": "https://taimfalafel.com/", "wheelchair": "yes"}}, {"type": "node", "id": 6262915538, "lat": 40.7079013, "lon": -74.0080225, "tags": {"barrier": "kerb", "kerb": "lowered", "tactile_paving": "yes", "wheelchair": "yes"}}, {"type": "node", "id": 6262915540, "lat": 40.7077381, "lon": -74.0081847}, {"type": "node", "id": 6262915542, "lat": 40.7078946, "lon": -74.0080527}, {"type": "node", "id": 6262915546, "lat": 40.7078904, "lon": -74.0079978}, {"type": "node", "id": 6262915550, "lat": 40.707762, "lon": -74.0081828, "tags": {"barrier": "kerb", "kerb": "raised", "tactile_paving": "no"}}, {"type": "node", "id": 6268489254, "lat": 40.7082737, "lon": -74.010834, "tags": {"addr:city": "New York", "addr:housenumber": "120", "addr:postcode": "10271", "addr:state": "NY", "addr:street": "Broadway", "addr:unit": "6th Fl.", "air_conditioning": "yes", "name": "Handel Architects", "office": "architect", "opening_hours": "Mo-Fr 09:00-18:00", "website": "https://handelarchitects.com"}}, {"type": "node", "id": 6566728885, "lat": 40.7042695, "lon": -74.0117256, "tags": {"amenity": "restaurant", "check_date:opening_hours": "2023-09-06", "indoor_seating": "yes", "name": "Pok\u00e9bab", "opening_hours:signed": "no", "outdoor_seating": "no", "wheelchair": "yes"}}, {"type": "node", "id": 6566940485, "lat": 40.7091007, "lon": -74.0091471, "tags": {"amenity": "restaurant", "check_date:opening_hours": "2023-08-16", "indoor_seating": "yes", "name": "Kati Roll Company", "opening_hours:signed": "no", "outdoor_seating": "yes"}}, {"type": "node", "id": 6802800188, "lat": 40.7058652, "lon": -74.0087804, "tags": {"addr:housenumber": "65A", "addr:postcode": "10005", "addr:street": "Wall Street", "amenity": "restaurant", "brand": "CAVA", "brand:wikidata": "Q85751038", "check_date": "2025-04-28", "check_date:opening_hours": "2025-04-28", "cuisine": "mediterranean", "diet:vegetarian": "yes", "indoor_seating": "yes", "name": "CAVA", "opening_hours": "Mo-Su 10:45-22:00", "outdoor_seating": "no", "phone": "+1-212-206-2524"}}, {"type": "node", "id": 7138157354, "lat": 40.70773, "lon": -74.0081776, "tags": {"barrier": "kerb", "kerb": "lowered", "tactile_paving": "yes"}}, {"type": "node", "id": 7139608176, "lat": 40.7051157, "lon": -74.0072532}, {"type": "node", "id": 7139608181, "lat": 40.7051354, "lon": -74.0072674}, {"type": "node", "id": 7139624386, "lat": 40.7048782, "lon": -74.006905}, {"type": "node", "id": 7139624393, "lat": 40.7047885, "lon": -74.0068589, "tags": {"barrier": "kerb", "kerb": "lowered", "tactile_paving": "no", "wheelchair": "yes"}}, {"type": "node", "id": 7139624394, "lat": 40.70487, "lon": -74.0069435}, {"type": "node", "id": 7139624418, "lat": 40.7043294, "lon": -74.0062967}, {"type": "node", "id": 7139624420, "lat": 40.7044706, "lon": -74.0060741}, {"type": "node", "id": 7139624440, "lat": 40.7049048, "lon": -74.0067339}, {"type": "node", "id": 7139624454, "lat": 40.7043405, "lon": -74.0062545, "tags": {"barrier": "kerb", "kerb": "lowered", "tactile_paving": "yes", "wheelchair": "yes"}}, {"type": "node", "id": 7139624464, "lat": 40.7048724, "lon": -74.0069562, "tags": {"barrier": "kerb", "kerb": "lowered", "tactile_paving": "no", "wheelchair": "yes"}}, {"type": "node", "id": 7139624473, "lat": 40.7049024, "lon": -74.0068746}, {"type": "node", "id": 7139624484, "lat": 40.7048553, "lon": -74.0068055}, {"type": "node", "id": 7139624489, "lat": 40.7043352, "lon": -74.0063136, "tags": {"barrier": "kerb", "kerb": "lowered", "tactile_paving": "no", "wheelchair": "yes"}}, {"type": "node", "id": 7139624495, "lat": 40.7049525, "lon": -74.0068104}, {"type": "node", "id": 7513118635, "lat": 40.701492, "lon": -74.0109606}, {"type": "node", "id": 7513118641, "lat": 40.7014638, "lon": -74.0111492}, {"type": "node", "id": 7596991341, "lat": 40.706227, "lon": -74.0075097, "tags": {"addr:city": "New York", "addr:housenumber": "70", "addr:postcode": "10005", "addr:state": "NY", "addr:street": "Pine Street", "amenity": "restaurant", "name": "Crown Shy", "opening_hours": "17:30-24:00", "phone": "+1-212-517-1932", "website": "https://www.crownshy.nyc"}}, {"type": "node", "id": 7717760985, "lat": 40.7046131, "lon": -74.0116878, "tags": {"addr:city": "New York", "addr:housenumber": "74", "addr:postcode": "10004", "addr:state": "NY", "addr:street": "Broad Street", "amenity": "restaurant", "branch": "Financial District", "brand": "Tacombi", "brand:wikidata": "Q123165959", "cuisine": "mexican", "indoor_seating": "yes", "name": "Tacombi", "opening_hours": "Mo-Su 11:00-23:00", "outdoor_seating": "yes", "phone": "+1 917-261-7136", "reservation": "yes", "reservation:website": "https://resy.com/cities/ny/tacombi-financial-district", "website": "https://www.tacombi.com/"}}, {"type": "node", "id": 7722040206, "lat": 40.7015138, "lon": -74.0112204}, {"type": "node", "id": 8262936617, "lat": 40.7095801, "lon": -74.0116553, "tags": {"barrier": "kerb", "kerb": "lowered", "tactile_paving": "yes", "wheelchair": "yes"}}, {"type": "node", "id": 8262936618, "lat": 40.7093169, "lon": -74.0118366, "tags": {"barrier": "kerb", "kerb": "lowered", "tactile_paving": "yes", "wheelchair": "yes"}}, {"type": "node", "id": 8276468467, "lat": 40.7048901, "lon": -74.0067116}, {"type": "node", "id": 8276468550, "lat": 40.7052197, "lon": -74.0071372}, {"type": "node", "id": 8276468685, "lat": 40.7048889, "lon": -74.0089652}, {"type": "node", "id": 8276468689, "lat": 40.7048109, "lon": -74.0096941}, {"type": "node", "id": 8276468951, "lat": 40.7015437, "lon": -74.0110892}, {"type": "node", "id": 8276468953, "lat": 40.7019168, "lon": -74.0093552, "tags": {"barrier": "gate"}}, {"type": "node", "id": 8276468955, "lat": 40.7018582, "lon": -74.0095346, "tags": {"barrier": "gate"}}, {"type": "node", "id": 8276469017, "lat": 40.7039779, "lon": -74.0058811}, {"type": "node", "id": 8276469022, "lat": 40.7040271, "lon": -74.0058045}, {"type": "node", "id": 8276469025, "lat": 40.7041162, "lon": -74.0056661}, {"type": "node", "id": 8276469035, "lat": 40.7041642, "lon": -74.0055916}, {"type": "node", "id": 8276469036, "lat": 40.704482, "lon": -74.0050932}, {"type": "node", "id": 8276469045, "lat": 40.7045479, "lon": -74.0049875}, {"type": "node", "id": 8276469046, "lat": 40.7045961, "lon": -74.0049102}, {"type": "node", "id": 8276469060, "lat": 40.7049046, "lon": -74.0044481}, {"type": "node", "id": 8276469061, "lat": 40.7050365, "lon": -74.0042549}, {"type": "node", "id": 8276469070, "lat": 40.7051086, "lon": -74.0041453}, {"type": "node", "id": 8276469137, "lat": 40.7047145, "lon": -74.0035566}, {"type": "node", "id": 8276469138, "lat": 40.704765, "lon": -74.0032458}, {"type": "node", "id": 9025308623, "lat": 40.7041266, "lon": -74.0103867}, {"type": "node", "id": 9025308625, "lat": 40.7044111, "lon": -74.0105524}, {"type": "node", "id": 9025308626, "lat": 40.7041928, "lon": -74.0104765}, {"type": "node", "id": 9025349991, "lat": 40.7048689, "lon": -74.0095345, "tags": {"addr:housenumber": "3", "addr:postcode": "10004", "addr:street": "Hanover Square", "brand": "Block Advisors", "brand:wikidata": "Q64166231", "name": "Block Advisors", "office": "tax_advisor"}}, {"type": "node", "id": 9120821898, "lat": 40.7088439, "lon": -74.0113831, "tags": {"addr:city": "New York", "addr:housenumber": "9", "addr:postcode": "10006", "addr:state": "NY", "addr:street": "Thames Street", "amenity": "restaurant", "cuisine": "pizza", "name": "Big Al's Chicago Style Pizza"}}, {"type": "node", "id": 9476721913, "lat": 40.706345, "lon": -74.0073491, "tags": {"addr:housenumber": "70", "addr:postcode": "10005", "addr:street": "Pine Street", "amenity": "restaurant", "cuisine": "pizza", "name": "Artichoke Basille's Pizza"}}, {"type": "node", "id": 9652667817, "lat": 40.7052164, "lon": -74.0091284, "tags": {"addr:housenumber": "5", "addr:street": "Hanover Street", "amenity": "cafe", "name": "The Little Beet"}}, {"type": "node", "id": 9753289208, "lat": 40.707271, "lon": -74.0077613, "tags": {"addr:housenumber": "80", "addr:postcode": "10038", "addr:street": "Maiden Lane", "amenity": "restaurant", "cuisine": "american;asian;sandwich", "delivery": "yes", "email": "info@cafehestia.com", "indoor_seating": "yes", "level": "0", "name": "Caf\u00e9 Hestia", "opening_hours": "Mo-Fr 07:00-20:00; Sa 07:00-17:00; Su 09:00-17:00", "outdoor_seating": "no", "phone": "+1 917-261-7005", "takeaway": "yes", "website": "https://www.cafehestia.com", "wheelchair": "yes"}}, {"type": "node", "id": 10268906107, "lat": 40.7062579, "lon": -74.0114037, "tags": {"addr:city": "New York", "addr:housenumber": "30", "addr:postcode": "10004", "addr:state": "NY", "addr:street": "Broad Street", "amenity": "restaurant", "cuisine": "italian", "name": "Serafina Vino e Cucina", "opening_hours": "Fr-Sa 12:00-22:00; Su off", "phone": "+1-347-647-9030", "website": "https://serafinavinoecucina.com/"}}, {"type": "node", "id": 10290401161, "lat": 40.7095787, "lon": -74.0116227}, {"type": "node", "id": 10290401162, "lat": 40.7095701, "lon": -74.0116785}, {"type": "node", "id": 10290401163, "lat": 40.7095774, "lon": -74.0116677}, {"type": "node", "id": 10290401164, "lat": 40.7095813, "lon": -74.0116439}, {"type": "node", "id": 10290401165, "lat": 40.7095809, "lon": -74.0116333}, {"type": "node", "id": 10290401166, "lat": 40.7090991, "lon": -74.0106835}, {"type": "node", "id": 10290401167, "lat": 40.7091134, "lon": -74.0106746, "tags": {"barrier": "kerb", "kerb": "lowered", "tactile_paving": "yes", "wheelchair": "yes"}}, {"type": "node", "id": 10290401168, "lat": 40.7091447, "lon": -74.0106724}, {"type": "node", "id": 10290401169, "lat": 40.7091335, "lon": -74.0106682}, {"type": "node", "id": 10290401170, "lat": 40.7091235, "lon": -74.0106687}, {"type": "node", "id": 10290401171, "lat": 40.7088955, "lon": -74.0108539}, {"type": "node", "id": 10290401172, "lat": 40.7088822, "lon": -74.010898}, {"type": "node", "id": 10290401173, "lat": 40.7088815, "lon": -74.0108829}, {"type": "node", "id": 10290401174, "lat": 40.708886, "lon": -74.0108684}, {"type": "node", "id": 10290401177, "lat": 40.7093397, "lon": -74.0118364}, {"type": "node", "id": 10290401178, "lat": 40.7093013, "lon": -74.011824}, {"type": "node", "id": 10290401179, "lat": 40.7093269, "lon": -74.0118396}, {"type": "node", "id": 10290401180, "lat": 40.7093085, "lon": -74.011833}, {"type": "node", "id": 10290401193, "lat": 40.7091564, "lon": -74.0106886, "tags": {"barrier": "kerb", "kerb": "lowered", "tactile_paving": "yes", "wheelchair": "yes"}}, {"type": "node", "id": 10290401197, "lat": 40.7088913, "lon": -74.0108603, "tags": {"barrier": "kerb", "kerb": "lowered", "tactile_paving": "yes", "wheelchair": "yes"}}, {"type": "node", "id": 10312413177, "lat": 40.7069566, "lon": -74.0081568, "tags": {"amenity": "restaurant", "check_date": "2023-01-06", "cuisine": "russian", "name": "Farida Downtown", "payment:credit_cards": "yes", "payment:debit_cards": "yes"}}, {"type": "node", "id": 10344043175, "lat": 40.7047913, "lon": -74.0097097}, {"type": "node", "id": 10344043176, "lat": 40.704776, "lon": -74.0096911}, {"type": "node", "id": 10344043177, "lat": 40.7046176, "lon": -74.0094723}, {"type": "node", "id": 10344043178, "lat": 40.7046184, "lon": -74.0094875}, {"type": "node", "id": 10344043179, "lat": 40.7049764, "lon": -74.0089618}, {"type": "node", "id": 10344043180, "lat": 40.7049418, "lon": -74.0089519}, {"type": "node", "id": 10344043181, "lat": 40.7049277, "lon": -74.0089484}, {"type": "node", "id": 10344043182, "lat": 40.704902, "lon": -74.0089534}, {"type": "node", "id": 10344043183, "lat": 40.704915, "lon": -74.0089485}, {"type": "node", "id": 10344043184, "lat": 40.7048951, "lon": -74.008958}, {"type": "node", "id": 10344043190, "lat": 40.7049598, "lon": -74.0089571, "tags": {"barrier": "kerb", "kerb": "lowered", "tactile_paving": "yes", "wheelchair": "yes"}}, {"type": "node", "id": 10344354958, "lat": 40.704779, "lon": -74.0096947, "tags": {"barrier": "kerb", "kerb": "lowered", "tactile_paving": "no", "wheelchair": "yes"}}, {"type": "node", "id": 10344354960, "lat": 40.7049745, "lon": -74.008972}, {"type": "node", "id": 10556966545, "lat": 40.7051768, "lon": -74.0072463, "tags": {"barrier": "kerb", "kerb": "lowered", "tactile_paving": "yes", "wheelchair": "yes"}}, {"type": "node", "id": 10556966548, "lat": 40.7051277, "lon": -74.0072656, "tags": {"barrier": "kerb", "kerb": "lowered", "tactile_paving": "yes", "wheelchair": "yes"}}, {"type": "node", "id": 10557036378, "lat": 40.7036304, "lon": -74.0065114}, {"type": "node", "id": 10557036379, "lat": 40.7036162, "lon": -74.0064957}, {"type": "node", "id": 10557036380, "lat": 40.7037227, "lon": -74.006352}, {"type": "node", "id": 10557036381, "lat": 40.7037144, "lon": -74.0063425}, {"type": "node", "id": 10557036382, "lat": 40.7037716, "lon": -74.006253}, {"type": "node", "id": 10557036383, "lat": 40.7037818, "lon": -74.0062657}, {"type": "node", "id": 10557036384, "lat": 40.703925, "lon": -74.0060713}, {"type": "node", "id": 10557036385, "lat": 40.7038839, "lon": -74.0060214}, {"type": "node", "id": 10557036397, "lat": 40.7037992, "lon": -74.0064394}, {"type": "node", "id": 10557036398, "lat": 40.703736, "lon": -74.0063669}, {"type": "node", "id": 10707474704, "lat": 40.7073886, "lon": -74.0074223, "tags": {"amenity": "restaurant", "indoor_seating": "yes", "name": "Mezcali", "outdoor_seating": "no"}}, {"type": "node", "id": 10757806380, "lat": 40.7072563, "lon": -74.0123018, "tags": {"addr:city": "New York", "addr:housenumber": "65", "addr:postcode": "10006", "addr:state": "NY", "addr:street": "Broadway", "amenity": "restaurant", "cuisine": "italian;chinese;mexican", "name": "Slow Food Market"}}, {"type": "node", "id": 10866135205, "lat": 40.7054271, "lon": -74.0074507, "tags": {"addr:city": "New York", "addr:floor": "25", "addr:housenumber": "120", "addr:postcode": "10005", "addr:state": "NY", "addr:street": "Water Street", "amenity": "bar", "email": "info@highwaterrooftop.com", "min_age": "21", "name": "Highwater Rooftop", "opening_hours": "Tu-Th 17:00-23:00; Fr-Sa 17:00-02:00; Su-Mo 17:00-22:00", "phone": "+1-646-869-6710", "website": "https://www.highwaterrooftop.com/"}}, {"type": "node", "id": 11014606999, "lat": 40.7018708, "lon": -74.0094962}, {"type": "node", "id": 11014607000, "lat": 40.7019102, "lon": -74.0093753}, {"type": "node", "id": 11028155841, "lat": 40.7036228, "lon": -74.0065049}, {"type": "node", "id": 11028158741, "lat": 40.7019263, "lon": -74.0093258}, {"type": "node", "id": 11030790955, "lat": 40.7037923, "lon": -74.0063985}, {"type": "node", "id": 11030790956, "lat": 40.7037489, "lon": -74.0063495}, {"type": "node", "id": 11030790957, "lat": 40.7037833, "lon": -74.0062965}, {"type": "node", "id": 11030790958, "lat": 40.7038267, "lon": -74.0063455}, {"type": "node", "id": 11031452754, "lat": 40.7043307, "lon": -74.0062725}, {"type": "node", "id": 11032958104, "lat": 40.7078432, "lon": -73.999596}, {"type": "node", "id": 11032985205, "lat": 40.7078732, "lon": -73.9995305}, {"type": "node", "id": 11032985206, "lat": 40.7078758, "lon": -73.9995325}, {"type": "node", "id": 11032985231, "lat": 40.705858, "lon": -74.0035494}, {"type": "node", "id": 11032985232, "lat": 40.7057771, "lon": -74.0037578}, {"type": "node", "id": 11032985233, "lat": 40.7042534, "lon": -74.0061365}, {"type": "node", "id": 11032985234, "lat": 40.7036438, "lon": -74.0070948}, {"type": "node", "id": 11032985235, "lat": 40.7035459, "lon": -74.0069956}, {"type": "node", "id": 11032985236, "lat": 40.7032199, "lon": -74.0075179}, {"type": "node", "id": 11032985237, "lat": 40.7031459, "lon": -74.0076326}, {"type": "node", "id": 11032985238, "lat": 40.7031022, "lon": -74.0076882}, {"type": "node", "id": 11032985239, "lat": 40.703056, "lon": -74.0077299}, {"type": "node", "id": 11032985240, "lat": 40.7030218, "lon": -74.0077553}, {"type": "node", "id": 11032985241, "lat": 40.7030038, "lon": -74.0077544}, {"type": "node", "id": 11032985242, "lat": 40.7029552, "lon": -74.0077775}, {"type": "node", "id": 11032985243, "lat": 40.7029135, "lon": -74.0078126}, {"type": "node", "id": 11032985244, "lat": 40.7028809, "lon": -74.0078623}, {"type": "node", "id": 11032985245, "lat": 40.702653, "lon": -74.0082356}, {"type": "node", "id": 11032985246, "lat": 40.7022887, "lon": -74.0088407}, {"type": "node", "id": 11032985247, "lat": 40.7020809, "lon": -74.0091882}, {"type": "node", "id": 11032985248, "lat": 40.7020619, "lon": -74.0092253}, {"type": "node", "id": 11032985249, "lat": 40.7020418, "lon": -74.0092716}, {"type": "node", "id": 11032985250, "lat": 40.7019645, "lon": -74.0094947}, {"type": "node", "id": 11032985251, "lat": 40.7018807, "lon": -74.0097641}, {"type": "node", "id": 11032985252, "lat": 40.7018044, "lon": -74.0100547}, {"type": "node", "id": 11032985253, "lat": 40.7017422, "lon": -74.0102586}, {"type": "node", "id": 11032985254, "lat": 40.7049092, "lon": -74.0037713}, {"type": "node", "id": 11032985255, "lat": 40.702847, "lon": -74.0077274}, {"type": "node", "id": 11032985256, "lat": 40.7102121, "lon": -73.9883745}, {"type": "node", "id": 11032985257, "lat": 40.7100671, "lon": -73.9896205}, {"type": "node", "id": 11032985258, "lat": 40.7100321, "lon": -73.9898879}, {"type": "node", "id": 11032985259, "lat": 40.7099439, "lon": -73.9904826}, {"type": "node", "id": 11032985260, "lat": 40.7096745, "lon": -73.9923095}, {"type": "node", "id": 11032985261, "lat": 40.7094999, "lon": -73.9934441}, {"type": "node", "id": 11032985262, "lat": 40.7094156, "lon": -73.9941789}, {"type": "node", "id": 11032985263, "lat": 40.7091136, "lon": -73.9963419}, {"type": "node", "id": 11032985264, "lat": 40.7089766, "lon": -73.9963061}, {"type": "node", "id": 11032985265, "lat": 40.7089143, "lon": -73.9967638}, {"type": "node", "id": 11032985266, "lat": 40.7088752, "lon": -73.997004}, {"type": "node", "id": 11032985267, "lat": 40.7087984, "lon": -73.9973788}, {"type": "node", "id": 11032985268, "lat": 40.7087276, "lon": -73.9976574}, {"type": "node", "id": 11032985269, "lat": 40.7086018, "lon": -73.9981038}, {"type": "node", "id": 11032985270, "lat": 40.7084641, "lon": -73.9984663}, {"type": "node", "id": 11032985271, "lat": 40.7082277, "lon": -73.9989528}, {"type": "node", "id": 11032985320, "lat": 40.7092303, "lon": -73.9942235}, {"type": "node", "id": 11032985321, "lat": 40.7092541, "lon": -73.9938811}, {"type": "node", "id": 11032985322, "lat": 40.7099353, "lon": -73.9891497}, {"type": "node", "id": 11032985323, "lat": 40.7098329, "lon": -73.9899386}, {"type": "node", "id": 11032985324, "lat": 40.708954, "lon": -73.9960082}, {"type": "node", "id": 11032985325, "lat": 40.7088433, "lon": -73.9968127}, {"type": "node", "id": 11032985326, "lat": 40.7087573, "lon": -73.9972572}, {"type": "node", "id": 11032985462, "lat": 40.7092567, "lon": -73.9938038}, {"type": "node", "id": 11032985463, "lat": 40.7092799, "lon": -73.9936353}, {"type": "node", "id": 11033263620, "lat": 40.7093088, "lon": -73.9934627}, {"type": "node", "id": 11033263621, "lat": 40.7093217, "lon": -73.9933789}, {"type": "node", "id": 11033263630, "lat": 40.7092367, "lon": -73.9941651}, {"type": "node", "id": 11033263646, "lat": 40.7093669, "lon": -73.9930613}, {"type": "node", "id": 11033263650, "lat": 40.7093928, "lon": -73.992892}, {"type": "node", "id": 11033263668, "lat": 40.7095128, "lon": -73.9921208}, {"type": "node", "id": 11033263695, "lat": 40.7095928, "lon": -73.9915727}, {"type": "node", "id": 11033263696, "lat": 40.7096153, "lon": -73.9914114}, {"type": "node", "id": 11033263700, "lat": 40.7095756, "lon": -73.9916939}, {"type": "node", "id": 11033263721, "lat": 40.7097036, "lon": -73.9908005}, {"type": "node", "id": 11033263726, "lat": 40.7097327, "lon": -73.9906024}, {"type": "node", "id": 11033263750, "lat": 40.7098365, "lon": -73.9899124}, {"type": "node", "id": 11033263755, "lat": 40.7098586, "lon": -73.9897529}, {"type": "node", "id": 11033263769, "lat": 40.709882, "lon": -73.9895831}, {"type": "node", "id": 11033263770, "lat": 40.709908, "lon": -73.9893756}, {"type": "node", "id": 11033263799, "lat": 40.7099262, "lon": -73.9885994}, {"type": "node", "id": 11033263801, "lat": 40.7098634, "lon": -73.9885738}, {"type": "node", "id": 11033263802, "lat": 40.7098733, "lon": -73.9884968}, {"type": "node", "id": 11033263807, "lat": 40.7098995, "lon": -73.9884032}, {"type": "node", "id": 11033263826, "lat": 40.7092472, "lon": -73.9881793}, {"type": "node", "id": 11033263827, "lat": 40.7096754, "lon": -73.9882506}, {"type": "node", "id": 11033263849, "lat": 40.710049, "lon": -73.9883373}, {"type": "node", "id": 11033263864, "lat": 40.7099597, "lon": -73.9885302}, {"type": "node", "id": 11040350793, "lat": 40.7042511, "lon": -74.0106636}, {"type": "node", "id": 11064559007, "lat": 40.7070451, "lon": -74.0125704, "tags": {"level": "32", "name": "Framestore", "office": "it"}}, {"type": "node", "id": 11084146197, "lat": 40.7094717, "lon": -74.0085899, "tags": {"addr:city": "New York", "addr:housenumber": "67", "addr:postcode": "10038", "addr:state": "NY", "addr:street": "Nassau Street", "amenity": "restaurant", "check_date:opening_hours": "2023-08-02", "cuisine": "sushi", "indoor_seating": "yes", "name": "Sushi & Co", "opening_hours:signed": "no", "outdoor_seating": "no", "phone": "+1-646-799-9911", "website": "https://www.sushinco.com/"}}, {"type": "node", "id": 11084168882, "lat": 40.7092141, "lon": -74.0088431, "tags": {"amenity": "cafe", "cuisine": "coffee_shop", "indoor_seating": "yes", "name": "Simpl Coffee Shop", "opening_hours": "Mo-Su 07:00-19:00", "outdoor_seating": "no"}}, {"type": "node", "id": 11119879312, "lat": 40.7094844, "lon": -74.008186, "tags": {"amenity": "cafe", "brand": "Matto Espresso", "brand:wikidata": "Q122209496", "cuisine": "coffee_shop", "indoor_seating": "no", "name": "Matto Espresso", "outdoor_seating": "no", "takeaway": "only"}}, {"type": "node", "id": 11159662142, "lat": 40.7075759, "lon": -74.0111489, "tags": {"amenity": "restaurant", "check_date": "2023-08-31", "check_date:opening_hours": "2023-09-06", "cuisine": "poke;italian", "indoor_seating": "yes", "name": "Gnoccheria Wall Street", "opening_hours:signed": "no", "outdoor_seating": "no"}}, {"type": "node", "id": 11159676323, "lat": 40.7075238, "lon": -74.0110938, "tags": {"amenity": "cafe", "cuisine": "coffee_shop", "indoor_seating": "no", "name": "Tenthousand Coffee", "opening_hours": "Mo-Fr 07:00-18:00; Sa,Su 10:00-17:00", "outdoor_seating": "yes"}}, {"type": "node", "id": 11172400856, "lat": 40.7065445, "lon": -74.0112372, "tags": {"addr:housenumber": "22", "addr:street": "Broad Street", "amenity": "cafe", "brand": "Blue Bottle Coffee", "brand:en": "Blue Bottle Coffee", "brand:ja": "\u30d6\u30eb\u30fc\u30dc\u30c8\u30eb\u30b3\u30fc\u30d2\u30fc", "brand:wikidata": "Q4928917", "cuisine": "coffee_shop", "indoor_seating": "yes", "name": "Blue Bottle Coffee", "name:en": "Blue Bottle Coffee", "name:ja": "\u30d6\u30eb\u30fc\u30dc\u30c8\u30eb\u30b3\u30fc\u30d2\u30fc", "outdoor_seating": "yes", "takeaway": "yes"}}, {"type": "node", "id": 11188992731, "lat": 40.7061571, "lon": -74.0056905, "tags": {"addr:city": "New York", "addr:housenumber": "155", "addr:postcode": "10038", "addr:state": "NY", "addr:street": "Water Street", "amenity": "cafe", "branch": "Water & Maiden", "brand": "Starbucks", "brand:wikidata": "Q37158", "check_date": "2024-02-10", "cuisine": "coffee_shop", "indoor_seating": "yes", "name": "Starbucks", "official_name": "Starbucks Coffee", "opening_hours": "Mo-Fr 06:00-19:00; Sa 07:00-20:00; Su 07:00-19:00", "outdoor_seating": "no", "phone": "+1 212-480-3970", "ref": "1004742", "takeaway": "yes", "website": "https://www.starbucks.com/store-locator/store/1004742/water-maiden-155-water-street-new-york-ny-100384920-us"}}, {"type": "node", "id": 11189011965, "lat": 40.7063928, "lon": -74.0078861, "tags": {"amenity": "restaurant", "diet:vegan": "yes", "diet:vegetarian": "yes", "indoor_seating": "yes", "name": "Blue Park Kitchen", "opening_hours": "Mo-Fr 11:00-22:00", "outdoor_seating": "no"}}, {"type": "node", "id": 11189050331, "lat": 40.7058522, "lon": -74.0075084, "tags": {"amenity": "restaurant", "cuisine": "chinese", "name": "Old Xi'an Delicacy"}}, {"type": "node", "id": 11189058880, "lat": 40.7058873, "lon": -74.0074806, "tags": {"amenity": "restaurant", "name": "Poke Green"}}, {"type": "node", "id": 11208744396, "lat": 40.7058839, "lon": -74.0102847, "tags": {"amenity": "bar", "indoor_seating": "yes", "name": "Split Eights", "outdoor_seating": "no"}}, {"type": "node", "id": 11208788096, "lat": 40.7045634, "lon": -74.0098904, "tags": {"amenity": "bar", "indoor_seating": "yes", "name": "Harry's Side Bar", "outdoor_seating": "yes", "wheelchair": "no"}}, {"type": "node", "id": 11222032513, "lat": 40.7094131, "lon": -74.0067312, "tags": {"addr:city": "New York", "addr:housenumber": "123", "addr:postcode": "10038", "addr:state": "NY", "addr:street": "William Street", "amenity": "restaurant", "branch": "State Department", "cuisine": "chinese;dumplings", "indoor_seating": "yes", "name": "Dim Sum Palace", "opening_hours": "10:00-03:00", "outdoor_seating": "no", "phone": "+1-212-901-9760", "website": "https://dimsumpalace.com/contact-8/"}}, {"type": "node", "id": 11223060596, "lat": 40.7080354, "lon": -74.0105959, "tags": {"amenity": "cafe", "indoor_seating": "yes", "name": "Ashby's", "outdoor_seating": "no"}}, {"type": "node", "id": 11223076752, "lat": 40.7081186, "lon": -74.0111656, "tags": {"brand": "Charles Schwab", "brand:wikidata": "Q1066028", "name": "Charles Schwab", "office": "financial_advisor"}}, {"type": "node", "id": 11315107354, "lat": 40.7043282, "lon": -74.0062814}, {"type": "node", "id": 11315551815, "lat": 40.7047768, "lon": -74.0068474}, {"type": "node", "id": 11315551816, "lat": 40.7048179, "lon": -74.0068556}, {"type": "node", "id": 11315551817, "lat": 40.7048079, "lon": -74.0068612}, {"type": "node", "id": 11315551818, "lat": 40.704796, "lon": -74.0068622}, {"type": "node", "id": 11315551919, "lat": 40.704871, "lon": -74.0069237, "tags": {"barrier": "kerb", "kerb": "lowered", "tactile_paving": "no", "wheelchair": "yes"}}, {"type": "node", "id": 11315551920, "lat": 40.7048133, "lon": -74.0068582, "tags": {"barrier": "kerb", "kerb": "lowered", "tactile_paving": "no", "wheelchair": "yes"}}, {"type": "node", "id": 11315551926, "lat": 40.7048825, "lon": -74.006974}, {"type": "node", "id": 11315551927, "lat": 40.7048699, "lon": -74.0069324}, {"type": "node", "id": 11315551928, "lat": 40.7049675, "lon": -74.0068286}, {"type": "node", "id": 11315551949, "lat": 40.7051681, "lon": -74.0072572}, {"type": "node", "id": 11315551950, "lat": 40.7051594, "lon": -74.0072641}, {"type": "node", "id": 11315551951, "lat": 40.7051467, "lon": -74.0072689}, {"type": "node", "id": 11315551952, "lat": 40.705217, "lon": -74.007194}, {"type": "node", "id": 11315551961, "lat": 40.705092, "lon": -74.0072248}, {"type": "node", "id": 11316404988, "lat": 40.7051994, "lon": -74.0071119}, {"type": "node", "id": 11316404989, "lat": 40.7049848, "lon": -74.0068498}, {"type": "node", "id": 11350190890, "lat": 40.7077506, "lon": -74.0081875}, {"type": "node", "id": 11350190891, "lat": 40.7077225, "lon": -74.0081688}, {"type": "node", "id": 11350190892, "lat": 40.7074101, "lon": -74.0076615}, {"type": "node", "id": 11350190895, "lat": 40.7078994, "lon": -74.0080431}, {"type": "node", "id": 11350190896, "lat": 40.7079018, "lon": -74.0080317}, {"type": "node", "id": 11350190897, "lat": 40.707899, "lon": -74.0080102}, {"type": "node", "id": 11350190898, "lat": 40.7076832, "lon": -74.008109}, {"type": "node", "id": 11350190899, "lat": 40.7076351, "lon": -74.0078123}, {"type": "node", "id": 11350190900, "lat": 40.7077089, "lon": -74.0078978}, {"type": "node", "id": 11350190901, "lat": 40.7076735, "lon": -74.0078737}, {"type": "node", "id": 11350190902, "lat": 40.7076817, "lon": -74.0078528}, {"type": "node", "id": 11350190903, "lat": 40.7077171, "lon": -74.0078769}, {"type": "node", "id": 11365172080, "lat": 40.7092483, "lon": -74.0081689}, {"type": "node", "id": 11365172083, "lat": 40.7092333, "lon": -74.0081469, "tags": {"barrier": "gate"}}, {"type": "node", "id": 11365172084, "lat": 40.7092183, "lon": -74.0081272}, {"type": "node", "id": 11365172106, "lat": 40.7091251, "lon": -74.0079946, "tags": {"barrier": "gate"}}, {"type": "node", "id": 11365172108, "lat": 40.7091172, "lon": -74.0079833}, {"type": "node", "id": 11365172113, "lat": 40.7089031, "lon": -74.0082439}, {"type": "node", "id": 11369414048, "lat": 40.7074268, "lon": -74.008398}, {"type": "node", "id": 11369414049, "lat": 40.7074416, "lon": -74.0084255}, {"type": "node", "id": 11369414061, "lat": 40.7073167, "lon": -74.008513}, {"type": "node", "id": 11369414063, "lat": 40.7073532, "lon": -74.0085171}, {"type": "node", "id": 11369490572, "lat": 40.7073793, "lon": -74.0084899}, {"type": "node", "id": 11369490573, "lat": 40.7073955, "lon": -74.0084733}, {"type": "node", "id": 11369490575, "lat": 40.7074388, "lon": -74.00842}, {"type": "node", "id": 11369490578, "lat": 40.7072722, "lon": -74.008442}, {"type": "node", "id": 11369490583, "lat": 40.707289, "lon": -74.0084688}, {"type": "node", "id": 11369490586, "lat": 40.7072489, "lon": -74.0084049}, {"type": "node", "id": 11369490589, "lat": 40.7072299, "lon": -74.0083746}, {"type": "node", "id": 11369490591, "lat": 40.7071688, "lon": -74.0082776}, {"type": "node", "id": 11369490594, "lat": 40.7071502, "lon": -74.0082475}, {"type": "node", "id": 11369490595, "lat": 40.707124, "lon": -74.0082058}, {"type": "node", "id": 11369490596, "lat": 40.7072203, "lon": -74.0081106}, {"type": "node", "id": 11369490605, "lat": 40.7071355, "lon": -74.0082242}, {"type": "node", "id": 11369490606, "lat": 40.7071392, "lon": -74.0082299}, {"type": "node", "id": 11369490640, "lat": 40.7074215, "lon": -74.0084464}, {"type": "node", "id": 11369490656, "lat": 40.7071296, "lon": -74.0082148}, {"type": "node", "id": 11369490663, "lat": 40.7073435, "lon": -74.0084143}, {"type": "node", "id": 11369490664, "lat": 40.7073276, "lon": -74.0084316}, {"type": "node", "id": 11369490665, "lat": 40.7073496, "lon": -74.008465}, {"type": "node", "id": 11369490666, "lat": 40.7073649, "lon": -74.0084492}, {"type": "node", "id": 11629287173, "lat": 40.709189, "lon": -74.0078111, "tags": {"addr:city": "New York", "addr:housenumber": "45", "addr:postcode": "10038", "addr:state": "NY", "addr:street": "John Street", "amenity": "bar", "min_age": "21", "name": "Zizi's Wine Bar", "opening_hours": "Mo-Su 3:00-23:00"}}, {"type": "node", "id": 11754487748, "lat": 40.7054382, "lon": -74.0091433, "tags": {"addr:city": "New York", "addr:housenumber": "6", "addr:postcode": "10005", "addr:state": "NY", "addr:street": "Hanover Street", "amenity": "cafe", "email": "concierge@conwellcoffeehall.com", "name": "Conwell Coffee Hall", "opening_hours": "Mo-Fr 07:30-21:00; Sa-Su 09:00-21:00", "outdoor_seating": "no", "website": "https://conwellcoffeehall.com", "website:menu": "https://conwellcoffeehall.com/menus/"}}, {"type": "node", "id": 11905528875, "lat": 40.7070267, "lon": -74.0082784, "tags": {"air_conditioning": "yes", "amenity": "restaurant", "cuisine": "meat;asian;noodle;chinese;dumplings", "diet:vegetarian": "yes", "drink:beer": "no", "indoor_seating": "yes", "name": "Goku Kitchen", "outdoor_seating": "no", "payment:credit_cards": "yes", "payment:debit_cards": "yes", "phone": "+6464498289", "smoking": "no", "website": "https://gokukit.com/", "wheelchair": "no"}}, {"type": "node", "id": 12050009362, "lat": 40.7086274, "lon": -74.010127, "tags": {"addr:city": "New York", "addr:housenumber": "140", "addr:postcode": "10005", "addr:state": "NY", "addr:street": "Broadway", "addr:unit": "46th Floor, PMB 300", "name": "NYC Injury Attorneys P.C.", "office": "lawyer", "opening_hours": "24/7", "phone": "+1-646-452-3663", "website": "https://nyc-injury-attorneys.com"}}, {"type": "node", "id": 12100372936, "lat": 40.7043697, "lon": -74.011809, "tags": {"addr:city": "New York", "addr:housenumber": "80", "addr:postcode": "10004", "addr:state": "NY", "addr:street": "Broad Street", "addr:unit": "Suite 703", "contact:facebook": "workingsolutionsnyc", "contact:instagram": "workingsolutionsnyc", "contact:twitter": "LawOfficeofCQD", "email": "slack@workingsolutionsnyc.com", "image": "https://local-platform.s3.us-east-2.amazonaws.com/intake_location/logo/192187/sMJIonhso1GOjQnFnJEFgDHPMbwce2tPTLn1DIzs.jpg", "language:en": "yes", "language:es": "yes", "language:ur": "yes", "name": "Working Solutions Law Firm", "office": "lawyer", "opening_hours": "24/7", "payment:cheque": "yes", "payment:credit_cards": "yes", "payment:online_payment": "yes", "phone": "+1-646-699-3083", "phone:tollfree": "+1-833-967-5692", "start_date": "2014-08-01", "website": "https://www.workingsolutionsnyc.com/"}}, {"type": "node", "id": 12179203315, "lat": 40.7060039, "lon": -74.0068394, "tags": {"addr:city": "New York", "addr:housenumber": "80", "addr:postcode": "10005", "addr:state": "NY", "addr:street": "Pine Street", "addr:unit": "Floor 24", "alt_name": "iC Consult US Corp.", "consulting": "security", "name": "iC Consult Americas LLC", "office": "it", "website": "https://ic-consult.com/"}}, {"type": "node", "id": 12339677014, "lat": 40.7044333, "lon": -74.0107111, "tags": {"entrance": "yes"}}, {"type": "node", "id": 12343164633, "lat": 40.7041087, "lon": -74.0101879}, {"type": "node", "id": 12343164635, "lat": 40.7040585, "lon": -74.0102568}, {"type": "node", "id": 12343164637, "lat": 40.7039991, "lon": -74.010338}, {"type": "node", "id": 12343164641, "lat": 40.7042071, "lon": -74.010055}, {"type": "node", "id": 12343278068, "lat": 40.7043018, "lon": -74.0099329}, {"type": "node", "id": 12355026163, "lat": 40.7050172, "lon": -74.0107175, "tags": {"entrance": "main"}}, {"type": "node", "id": 12355026164, "lat": 40.7049909, "lon": -74.011006, "tags": {"entrance": "yes"}}, {"type": "node", "id": 12358205057, "lat": 40.7049281, "lon": -74.0091784, "tags": {"entrance": "yes"}}, {"type": "node", "id": 12361291561, "lat": 40.7089279, "lon": -74.0123571, "tags": {"entrance": "yes"}}, {"type": "node", "id": 12361377540, "lat": 40.7091832, "lon": -74.0121953, "tags": {"entrance": "yes"}}, {"type": "node", "id": 12366551501, "lat": 40.7065765, "lon": -74.0080763, "tags": {"amenity": "bar", "name": "Overstory"}}, {"type": "node", "id": 12480002393, "lat": 40.7087658, "lon": -74.0083225, "tags": {"addr:city": "New York", "addr:housenumber": "59", "addr:postcode": "10038", "addr:state": "NY", "addr:street": "Maiden Lane", "addr:unit": "6th floor", "contact:facebook": "https://www.facebook.com/ParkerWaichmanLLP/", "contact:instagram": "https://www.instagram.com/parkerwaichman/", "contact:linkedin": "https://www.linkedin.com/company/parker-waichman-llp", "contact:pinterest": "https://www.pinterest.com/parkerwaichman/", "contact:twitter": "https://x.com/parkerwaichman", "language:en": "yes", "name": "Parker Waichman LLP, Personal Injury Accident Attorneys", "office": "lawyer", "opening_hours": "24/7", "phone": "+1-212-267-6700", "website": "https://www.yourlawyer.com/new-york-city-personal-injury/", "year_of_construction": "1993"}}, {"type": "node", "id": 12643783750, "lat": 40.7046128, "lon": -74.0112906, "tags": {"amenity": "school", "mascot": "Phoenix", "name": "Millenium High School"}}, {"type": "node", "id": 12965535575, "lat": 40.7081048, "lon": -74.0104126, "tags": {"addr:city": "New York", "addr:floor": "31", "addr:housenumber": "120", "addr:postcode": "10271", "addr:state": "NY", "addr:street": "Broadway", "addr:unit": "31st Floor", "air_conditioning": "yes", "branch": "Manhattan", "fax": "+1-212-720-3488", "government": "yes", "name": "New York City Department of City Planning", "office": "government", "operator": "New York City Department of City Planning", "operator:type": "government", "operator:wikidata": "Q8354830", "phone": "+1-212-720-3480", "website": "https://www1.nyc.gov/site/planning/index.page", "wikipedia": "en:New York City Department of City Planning"}}, {"type": "node", "id": 13064363257, "lat": 40.7053265, "lon": -74.0112644, "tags": {"addr:city": "New York", "addr:housenumber": "55", "addr:postcode": "10004", "addr:state": "NY", "addr:street": "Broad Street", "consulting": "marketing", "name": "HVR Studio", "office": "consulting", "website": "https://www.hvrstudio.net"}}, {"type": "node", "id": 13071727592, "lat": 40.7051235, "lon": -74.0085966, "tags": {"amenity": "restaurant", "name": "The Cocoa Exchange"}}, {"type": "node", "id": 13071776167, "lat": 40.7068019, "lon": -74.0099313, "tags": {"amenity": "restaurant", "cuisine": "italian", "name": "NeroLab"}}, {"type": "node", "id": 13071817975, "lat": 40.7042942, "lon": -74.0094919, "tags": {"amenity": "cafe", "cuisine": "coffee_shop", "name": "Pearl"}}, {"type": "node", "id": 13128155401, "lat": 40.7090937, "lon": -74.0071689, "tags": {"addr:housenumber": "123", "addr:postcode": "10038-3804", "addr:street": "William Street", "level": "2", "name": "NYS Department of State - Division of Licensing Services", "office": "government", "opening_hours": "Mo-Fr 09:00-16:30"}}, {"type": "node", "id": 13254235312, "lat": 40.7051211, "lon": -74.0096508, "tags": {"addr:city": "New York", "addr:housenumber": "60", "addr:postcode": "10004", "addr:state": "NY", "addr:street": "Beaver Street", "amenity": "restaurant", "cuisine": "asian;ramen;noodle;uyghur", "name": "Caravan Uyghur Cuisine", "name:de": "Karawanen-Uigurische K\u00fcche", "name:fr": "Cuisine Ou\u00efghoure de la caravane", "name:tr": "Karavan Uygur Yemekleri", "opening_hours": "12:00-22:00 Fr 17:00-22:00", "phone": "+1 929-318-8615", "website": "https://www.caravanuyghur.com/"}}, {"type": "node", "id": 13312214083, "lat": 40.7070527, "lon": -74.0101215, "tags": {"addr:city": "New York", "addr:housenumber": "30", "addr:postcode": "10005", "addr:state": "NY", "addr:street": "Wall Street", "office": "lawyer", "opening_hours": "Mo-Th 10:00-19:00 Fr 10:00-14:00", "phone": "+1-646-825-3850", "website": "https://mcadefenseattorney.com"}}, {"type": "way", "id": 25026338, "nodes": [272194598, 10290401177, 10290401179, 8262936618, 10290401180, 10290401178, 272194601, 10290401172, 10290401173, 10290401174, 10290401197, 10290401171, 10290401166, 10290401167, 10290401170, 10290401169, 10290401168, 272194602, 10290401193, 10290401161, 10290401165, 10290401164, 8262936617, 10290401163, 10290401162, 272194598], "tags": {"leisure": "park", "name": "Zuccotti Park", "name:etymology:wikidata": "Q9012427", "name:ko": "\uc988\uce74\ud2f0 \uacf5\uc6d0", "old_name": "Liberty Plaza Park", "wikidata": "Q227659", "wikipedia": "en:Zuccotti Park"}}, {"type": "way", "id": 109447376, "nodes": [6262915542, 6262915550, 11350190890, 6262915540, 7138157354, 11350190891, 11350190898, 3738928737, 42422056, 3738928727, 3738928726, 11350190892, 3738928728, 3738928730, 3738928739, 11350190899, 6262915546, 11350190897, 6262915538, 11350190896, 11350190895, 6262915542], "tags": {"addr:city": "New York", "addr:postcode": "10038", "addr:state": "NY", "check_date": "2023-11-14", "ele": "5", "gnis:feature_id": "2058391", "leisure": "park", "name": "Louise Nevelson Plaza", "name:etymology:wikidata": "Q7531", "start_date": "1978", "wikidata": "Q49519601"}}, {"type": "way", "id": 208360494, "nodes": [2186614214, 10344043175, 10344354958, 10344043176, 1251958258, 10344043178, 10344043177, 2186614209, 8276468685, 10344043184, 10344043182, 10344043183, 10344043181, 10344043180, 10344043190, 10344043179, 10344354960, 2186614223, 12358205057, 2824829418, 781712009, 2186614225, 8276468689, 2186614214], "tags": {"addr:city": "New York", "addr:housenumber": "11", "addr:postcode": "10005", "addr:state": "NY", "addr:street": "Hanover Square", "alt_name": "British Garden at Hanover Square", "leisure": "park", "name": "The Queen Elizabeth II September 11th Garden", "old_name": "Hanover Square Park", "operator": "New York City Department of Parks and Recreation", "operator:short": "NYC Parks", "operator:type": "government", "operator:wikidata": "Q1894232", "website": "https://www.nycgovparks.org/parks/british-garden-at-hanover-square/", "wikidata": "Q4970000", "wikipedia": "en:Queen Elizabeth II September 11th Garden"}}, {"type": "way", "id": 278033590, "nodes": [2824641604, 3762209186, 2824641586, 12361377540, 2824641561, 2824641576, 3762209179, 3762209180, 2824641585, 2824641590, 2824641596, 2824641604], "tags": {"addr:city": "New York", "addr:housenumber": "100", "addr:street": "Trinity Place", "amenity": "school", "building": "school", "building:levels": "10", "ele": "5", "gnis:feature_id": "2083910", "mascot": "Panthers", "name": "High School of Economics and Finance", "nycdoitt:bin": "1001037", "wikidata": "Q5756623"}}, {"type": "way", "id": 278033603, "nodes": [2824641547, 2824641556, 2824641555, 2824641565, 2824641564, 2824641569, 2824641554, 2824641552, 2824641551, 12361291561, 2824641541, 2824641543, 2824641540, 3772831306, 2824641547], "tags": {"addr:city": "New York", "addr:housenumber": "90", "addr:postcode": "10006", "addr:state": "NY", "addr:street": "Trinity Place", "amenity": "school", "building": "school", "ele": "5", "gnis:feature_id": "2083909", "height": "62.7", "mascot": "Panthers", "name": "Leadership and Public Service High School", "nycdoitt:bin": "1001035", "polling_station": "yes", "wikidata": "Q6508641"}}, {"type": "way", "id": 278053528, "nodes": [2824829296, 2824829283, 2824829401, 2824829411, 2824829409, 2824829408, 2824829407, 2824829410, 2824829405, 2824829441, 12355026164, 12355026163, 2824829448, 2824829414, 2824829420, 2824829296], "tags": {"addr:city": "New York", "addr:housenumber": "44", "addr:postcode": "10005", "addr:state": "NY", "addr:street": "Beaver Street", "building": "yes", "government": "yes", "height": "54.4", "name": "New York City Department of Sanitation", "nycdoitt:bin": "1000850", "office": "government"}}, {"type": "way", "id": 278053575, "nodes": [2824829093, 2824829217, 2824829231, 2824829223, 2824829226, 2824829209, 12343164641, 2824829093], "tags": {"addr:city": "New York", "addr:housenumber": "54", "addr:postcode": "10004", "addr:state": "NY", "addr:street": "Stone Street", "amenity": "restaurant", "building": "yes", "cuisine": "pizza", "height": "25.1", "name": "Adrienne's Pizza Bar", "nycdoitt:bin": "1088620", "outdoor_seating": "street", "website": "https://stonestreettavernnyc.com/", "wheelchair": "yes"}}, {"type": "way", "id": 278076364, "nodes": [2825053164, 2825053163, 2825053168, 2825053169, 2825053170, 2825053167, 2825053164], "tags": {"addr:city": "New York", "addr:housenumber": "212", "addr:postcode": "10038", "addr:state": "NY", "addr:street": "Pearl Street", "amenity": "restaurant", "building": "yes", "cuisine": "diner", "facebook": "https://www.facebook.com/Pearl-Diner-Catering-101482783236191", "height": "4.6", "indoor_seating": "yes", "name": "Pearl Diner", "nycdoitt:bin": "1001133", "opening_hours": "Mo-Fr 7:00-21:00; Sa, Su 08:00-02:45", "outdoor_seating": "no", "phone": "+1 212-344-6620", "website": "http://pearldinerny.com", "wheelchair": "no"}}, {"type": "way", "id": 337839343, "nodes": [2824829209, 12343278068, 3448974183, 3448974184, 2824829231, 2824829223, 2824829226, 2824829209], "tags": {"addr:city": "New York", "addr:housenumber": "95", "addr:postcode": "10004", "addr:state": "NY", "addr:street": "Pearl Street", "amenity": "restaurant", "building": "yes", "height": "19.1", "name": "Ulysses'", "note": "Entrances on Stone Street and Pearl Street. Spans the ground floor of two different buildings.", "nycdoitt:bin": "1000840", "outdoor_seating": "street", "website": "https://www.ulyssesnyc.com/home", "wheelchair": "yes"}}, {"type": "way", "id": 375369088, "nodes": [2824697588, 2824697561, 11365172113, 1695926392, 1695926394, 2824697587, 11365172108, 11365172106, 2824697588], "tags": {"leisure": "park", "opening_hours": "sunrise-sunset"}}, {"type": "way", "id": 375369089, "nodes": [2824697701, 11365172084, 11365172083, 11365172080, 2824697702, 3748367336, 2824697586, 2824697572, 2824697701], "tags": {"leisure": "park", "opening_hours": "sunrise-sunset"}}, {"type": "way", "id": 460496521, "nodes": [4561414124, 11315551816, 11315551920, 11315551817, 11315551818, 7139624393, 11315551815, 7139624489, 7139624418, 11315107354, 11031452754, 7139624454, 4561414018, 7139624420, 2825052390, 2825052398, 2825052619, 8276468467, 7139624440, 7139624484, 4561414124]}, {"type": "way", "id": 504045549, "nodes": [2824988421, 11369490595, 11369490656, 11369490605, 11369490606, 11369490594, 11369490591, 11369490589, 11369490586, 11369490578, 11369490583, 11369414061, 4942593330, 11369414063, 11369490572, 11369490573, 11369490640, 11369414049, 11369490575, 11369414048, 2824988508, 2824988505, 2824988503, 2824988501, 2824988497, 2824988495, 2824988494, 2824988485, 2824988484, 2824988474, 2824988476, 2824988471, 2824988469, 2824988459, 2824988458, 2824988465, 2824988452, 2824988442, 2824988446, 11369490596, 4942593331, 2824988421], "tags": {"dog": "leashed", "leisure": "park", "outdoor_seating": "yes", "smoking": "no", "wheelchair": "yes"}}, {"type": "way", "id": 504045550, "nodes": [4942593338, 4942593339, 11369490664, 11369490663, 4942593348, 4942593349, 11369490666, 11369490665, 4942593338], "tags": {"amenity": "cafe", "building": "yes", "name": "Pi Greek Caf\u00e9 Bakerie", "shelter_type": "gazebo"}}, {"type": "way", "id": 764215673, "nodes": [11315551928, 11316404989, 11316404988, 8276468550, 4561414165, 11315551952, 10556966545, 11315551949, 11315551950, 11315551951, 7139608181, 10556966548, 7139608176, 11315551961, 11315551926, 7139624464, 7139624394, 11315551927, 11315551919, 7139624386, 7139624473, 7139624495, 11315551928]}, {"type": "way", "id": 975290221, "nodes": [2824829063, 2824829203, 2824829098, 2824829049, 12343164635, 2824829063], "tags": {"addr:housenumber": "81", "addr:postcode": "10004", "addr:street": "Pearl Street", "amenity": "restaurant", "level": "0", "name": "Beckett's Bar and Grill", "outdoor_seating": "street", "website": "http://www.beckettsnyc.com/", "wheelchair": "limited"}}, {"type": "way", "id": 975290222, "nodes": [2824829036, 2824829092, 9025308626, 2824828301, 9025308623, 2824829049, 12343164637, 2824829036], "tags": {"addr:housenumber": "79", "addr:postcode": "10004", "addr:street": "Pearl Street", "amenity": "restaurant", "atm": "yes", "bar": "yes", "brewery": "yes", "check_date": "2023-04-04", "cuisine": "american;barbecue", "diet:gluten_free": "yes", "diet:vegan": "yes", "diet:vegetarian": "yes", "internet_access": "wlan", "internet_access:fee": "customers", "level": "0", "name": "Route 66 Smokehouse", "opening_hours": "Su-We 11:00-22:00; Th-Sa 11:00-23:00", "outdoor_seating": "yes", "phone": "+12129431602", "website": "https://www.route66smokehouse.com/", "wheelchair": "no"}}, {"type": "way", "id": 975290223, "nodes": [2824829203, 2824829210, 2824829075, 12343164633, 2824829063, 2824829203], "tags": {"addr:city": "New York", "addr:housenumber": "83", "addr:postcode": "10004", "addr:state": "NY", "addr:street": "Pearl Street", "amenity": "restaurant", "building": "yes", "cuisine": "mexican", "height": "16", "name": "Mad Dog and Beans", "nycdoitt:bin": "1078964", "opening_hours": "Tu-Sa 11:30-23:30; Su-Mo 11:30-01:00", "outdoor_seating": "street", "phone": "+12122691177", "website": "https://www.maddogandbeans.com/", "wheelchair": "yes"}}, {"type": "way", "id": 975290224, "nodes": [2824829234, 12339677014, 2824829239, 3738776600, 9025308625, 2824829212, 2824829206, 11040350793, 2824829234], "tags": {"addr:city": "New York", "addr:housenumber": "45", "addr:postcode": "10004", "addr:state": "NY", "addr:street": "Stone Street", "amenity": "bar", "name": "Havana Social", "theme": "irish"}}, {"type": "way", "id": 1187931338, "nodes": [11030790955, 11030790956, 11030790957, 11030790958, 11030790955]}, {"type": "way", "id": 1188139996, "nodes": [166878965, 11032985231, 11032985232, 11032985233, 11032985234, 11032985235, 11032985236, 11032985237, 11032985238, 11032985239, 11032985240, 11032985241, 11032985242, 11032985243, 11032985244, 11032985245, 11032985246, 11032985247, 11032985248, 11032985249, 11032985250, 11032985251, 11032985252, 11032985253, 8276468951, 7722040206, 2824828428, 205014386, 7513118641, 2044000655, 7513118635, 2044000651, 2044000645, 2044000659, 166878932, 8276468955, 11014606999, 11014607000, 8276468953, 11028158741, 166878943, 205014388, 11032985255, 205014765, 205014766, 166878945, 166878949, 10557036397, 10557036398, 10557036378, 11028155841, 10557036379, 10557036380, 10557036381, 10557036382, 10557036383, 10557036384, 10557036385, 205014926, 8276469017, 8276469022, 8276469025, 8276469035, 2044000663, 8276469036, 8276469045, 8276469046, 166878958, 166878961, 8276469060, 8276469061, 8276469070, 1813618926, 11032985254, 8276469137, 1813618924, 1813618927, 8276469138, 166878963, 1813618913, 166878965]}, {"type": "way", "id": 1188139997, "nodes": [3350496439, 3350496158, 1318427654, 205012841, 1318427664, 2044000639, 1318427669, 2044000667, 1318427650, 2044000672, 1318427680, 1318427663, 1318427659, 1318427671, 1318427667, 1318427668, 205012823, 11032958104, 11032985205, 11032985206, 1318427666, 1318427678, 205012824, 1318427665, 166878977, 1318427649, 11032985326, 205009541, 11032985325, 11032985324, 1318427677, 1318427670, 11032985320, 11033263630, 205009543, 11032985321, 11032985462, 205009544, 11032985463, 11033263620, 2043977887, 11033263621, 11033263646, 1318427653, 11033263650, 205009545, 11033263668, 11033263700, 1318427651, 11033263695, 11033263696, 2043977866, 1318427672, 11033263721, 11033263726, 205009547, 11032985323, 11033263750, 11033263755, 11033263769, 1318427675, 11033263770, 11032985322, 205009549, 1318427661, 2043977880, 1318427676, 2043977889, 2043977851, 11033263799, 11033263864, 3235899216, 3235899215, 3235899214, 11033263807, 3235899213, 11033263802, 11033263801, 166878978, 1318427655, 166878979, 1318427656, 1318427660, 1318427673, 1827914505, 5496610256, 2826658205, 11033263826, 11033263827, 11033263849, 11032985256, 11032985257, 11032985258, 11032985259, 11032985260, 11032985261, 11032985262, 11032985263, 11032985264, 11032985265, 11032985266, 11032985267, 11032985268, 11032985269, 11032985270, 11032985271, 3350496440, 3350496439]}, {"type": "way", "id": 1223670554, "nodes": [11350190900, 11350190901, 11350190902, 11350190903, 11350190900], "tags": {"building": "yes", "office": "security"}}, {"type": "relation", "id": 6802606, "members": [{"type": "way", "ref": 460496521, "role": "outer"}, {"type": "way", "ref": 764215673, "role": "outer"}], "tags": {"addr:city": "New York", "addr:postcode": "10005", "addr:state": "NY", "addr:street": "Wall Street", "check_date": "2023-11-04", "leisure": "park", "name": "Mannahatta Park", "operator": "New York City Department of Parks and Recreation", "operator:short": "NYC Parks", "operator:type": "government", "operator:wikidata": "Q1894232", "type": "multipolygon", "website": "https://www.nycgovparks.org/parks/mannahatta-park"}}, {"type": "relation", "id": 16066428, "members": [{"type": "way", "ref": 1188139997, "role": "outer"}, {"type": "way", "ref": 1188139996, "role": "outer"}, {"type": "way", "ref": 1187931338, "role": "inner"}], "tags": {"addr:city": "New York", "addr:state": "NY", "leisure": "park", "name": "East River Waterfront Esplanade", "operator": "New York City Department of Parks and Recreation", "operator:short": "NYC Parks", "operator:type": "government", "operator:wikidata": "Q1894232", "type": "multipolygon"}}]}