{"version": 0.6, "generator": "Overpass API 0.7.62.8 e802775f", "osm3s": {"timestamp_osm_base": "2025-12-01T16:42:15Z", "copyright": "The data included in this document is from www.openstreetmap.org. The data is made available under ODbL."}, "elements": [{"type": "node", "id": 243775506, "lat": 40.7528464, "lon": -73.9830608}, {"type": "node", "id": 243775508, "lat": 40.7546551, "lon": -73.9839967}, {"type": "node", "id": 243775509, "lat": 40.7535787, "lon": -73.984804}, {"type": "node", "id": 643414350, "lat": 40.756994, "lon": -73.9865512, "tags": {"addr:city": "New York", "addr:housenumber": "1501", "addr:postcode": "10036", "addr:street": "Broadway", "amenity": "restaurant", "branch": "New York", "brand": "Hard Rock Cafe", "brand:wikidata": "Q918151", "changing_table": "yes", "cuisine": "american", "delivery": "yes", "email": "new_york_social@hardrock.com", "facebook": "hardrockcafenewyork", "instagram": "hardrocknewyork", "name": "Hard Rock Cafe", "phone": "+1 212-343-3355", "reservation": "yes", "twitter": "HardRockCafeNYC", "website": "https://www.hardrockcafe.com/location/new-york/", "wheelchair": "yes"}}, {"type": "node", "id": 1000793325, "lat": 40.7550015, "lon": -73.9848576}, {"type": "node", "id": 1000793351, "lat": 40.7545246, "lon": -73.9852114}, {"type": "node", "id": 1426250385, "lat": 40.7566623, "lon": -73.9858678, "tags": {"addr:city": "New York", "addr:housenumber": "1500", "addr:postcode": "10036", "addr:state": "NY", "addr:street": "Broadway", "amenity": "cafe", "branch": "43rd & Broadway", "brand": "Starbucks", "brand:wikidata": "Q37158", "cuisine": "coffee_shop", "internet_access": "wlan", "internet_access:fee": "no", "name": "Starbucks", "official_name": "Starbucks Coffee", "opening_hours": "24/7", "phone": "+1 212-221-7515", "takeaway": "yes", "website": "https://www.starbucks.com/store-locator/store/13918/43rd-broadway-1500-broadway-new-york-ny-100364015-us"}}, {"type": "node", "id": 1426275725, "lat": 40.7566921, "lon": -73.9867194, "tags": {"addr:city": "New York", "addr:housenumber": "3", "addr:street": "Times Square", "amenity": "cafe", "name": "Europa Cafe", "website": "https://www.europacafe.com/"}}, {"type": "node", "id": 1426311638, "lat": 40.7556031, "lon": -73.987571, "tags": {"amenity": "restaurant", "brand": "Red Lobster", "brand:wikidata": "Q846301", "cuisine": "seafood", "name": "Red Lobster"}}, {"type": "node", "id": 1428036650, "lat": 40.7545385, "lon": -73.9840441, "tags": {"amenity": "cafe", "check_date": "2023-01-21", "name": "Wafels and Dinges", "outdoor_seating": "yes", "payment:american_express": "yes", "payment:cash": "yes", "payment:contactless": "yes", "payment:discover_card": "yes", "payment:mastercard": "yes", "payment:visa": "yes", "wheelchair": "yes"}}, {"type": "node", "id": 1487449793, "lat": 40.7563915, "lon": -73.9854253, "tags": {"addr:city": "New York", "addr:country": "US", "addr:housenumber": "147", "addr:state": "NY", "addr:street": "West 43rd Street", "amenity": "restaurant", "cuisine": "italian", "name": "Tony's", "official_name": "Tony's Di Napoli", "start_date": "1959", "website": "https://www.tonysnyc.com/"}}, {"type": "node", "id": 1512037938, "lat": 40.7545899, "lon": -73.9851629}, {"type": "node", "id": 1512037943, "lat": 40.7549313, "lon": -73.9849097}, {"type": "node", "id": 1753098052, "lat": 40.7572678, "lon": -73.9836738, "tags": {"entrance": "main"}}, {"type": "node", "id": 1753098061, "lat": 40.7573011, "lon": -73.9837558, "tags": {"entrance": "main"}}, {"type": "node", "id": 1753205377, "lat": 40.756616, "lon": -73.9845926, "tags": {"amenity": "restaurant", "check_date": "2023-09-07", "name": "The Lambs Club", "website": "https://www.thechatwalny.com/The-Lambs-Club/The-Lambs-Club-Restaurant"}}, {"type": "node", "id": 2178743034, "lat": 40.757236, "lon": -73.9891169, "tags": {"addr:city": "Port Authority", "addr:housenumber": "625", "addr:postcode": "10018", "addr:state": "NY", "addr:street": "Eighth Avenue", "amenity": "cafe", "branch": "Port Authority South Wing", "brand": "Starbucks", "brand:wikidata": "Q37158", "check_date": "2013-08-06", "cuisine": "coffee_shop", "diet:vegan": "yes", "drink:soy_milk": "yes", "name": "Starbucks", "official_name": "Starbucks Coffee", "phone": "+1 212-273-9613", "ref": "1005154", "takeaway": "yes", "website": "https://www.starbucks.com/store-locator/store/1005154/port-authority-south-wing-625-eighth-avenue-new-york-ny-100181415-us"}}, {"type": "node", "id": 2275780476, "lat": 40.7551069, "lon": -73.9851054}, {"type": "node", "id": 2275780483, "lat": 40.7546299, "lon": -73.985459}, {"type": "node", "id": 2489419027, "lat": 40.7535612, "lon": -73.9858179, "tags": {"addr:city": "New York", "addr:country": "US", "addr:housenumber": "104", "addr:postcode": "10018", "addr:state": "NY", "addr:street": "West 40th Street", "name": "The Verge New York Office", "office": "yes", "operator": "Vox Media", "wikidata": "Q7581168"}}, {"type": "node", "id": 2610440248, "lat": 40.7554443, "lon": -73.987112, "tags": {"addr:city": "New York", "amenity": "restaurant", "cuisine": "mexican", "name": "Pink Taco"}}, {"type": "node", "id": 2611782760, "lat": 40.75555, "lon": -73.9840554, "tags": {"addr:city": "New York", "addr:housenumber": "1101", "addr:postcode": "10036", "addr:state": "NY", "addr:street": "6th Avenue", "amenity": "cafe", "branch": "43rd & Sixth", "brand": "Starbucks", "brand:wikidata": "Q37158", "cuisine": "coffee_shop", "internet_access": "wlan", "internet_access:fee": "no", "name": "Starbucks", "official_name": "Starbucks Coffee", "opening_hours": "Mo-Fr 06:00-21:00; Sa 07:30-19:00; Su 08:00-16:30", "phone": "+1 212-382-3917", "takeaway": "yes", "website": "https://www.starbucks.com/store-locator/store/20501/43rd-sixth-1101-1109-avenue-of-the-americas-new-york-ny-10036", "wheelchair": "yes"}}, {"type": "node", "id": 2678466842, "lat": 40.7572318, "lon": -73.9863898, "tags": {"addr:city": "New York", "addr:housenumber": "1501", "addr:postcode": "10036", "addr:state": "NY", "addr:street": "Broadway", "air_conditioning": "yes", "amenity": "restaurant", "bar": "yes", "branch": "New York, NY", "brand": "Bubba Gump Shrimp Company", "brand:wikidata": "Q50024", "cuisine": "seafood", "diet:gluten_free": "yes", "diet:vegetarian": "yes", "level": "0", "name": "Bubba Gump Shrimp Company", "opening_hours": "Mo-Th 11:00-23:00; Fr-Sa 10:30-00:00; Su 10:30-23:00", "outdoor_seating": "no", "phone": "+1-212-391-7100", "reservation": "yes", "smoking": "no", "takeaway": "yes", "toilets": "yes", "website": "https://www.bubbagump.com/locations/new-york-city/"}}, {"type": "node", "id": 2709702235, "lat": 40.7541088, "lon": -73.9860614, "tags": {"addr:housenumber": "1440", "addr:street": "Broadway", "amenity": "restaurant", "branch": "Times Square", "cocktails": "yes", "cuisine": "mexican", "delivery": "yes", "drink:beer": "yes", "happy_hours": "Mo-Fr 15:00-18:00", "name": "Mexicue", "opening_hours": "Mo-Fr 11:00-23:00; Sa 12:00-23:00; Su 12:00-21:00", "opening_hours:covid19": "Su, Mo 11:00-21:00; Tu-Th 11:00-22:00; Fr, Sa 11:00-23:00", "phone": "+1 212-302-0385", "takeaway": "yes", "website": "https://www.mexicue.com/location/times-square"}}, {"type": "node", "id": 2709702424, "lat": 40.7523932, "lon": -73.9893008, "tags": {"addr:city": "New York", "addr:housenumber": "485", "addr:postcode": "10018", "addr:state": "NY", "addr:street": "7th Avenue", "air_conditioning": "yes", "amenity": "bar", "indoor_seating": "yes", "min_age": "21", "name": "Magic Hour", "opening_hours": "Mo-Th 16:00-02:00, Fr 16:00-04:00, Sa 11:30-04:00, Su 11:30-23:00", "outdoor_seating": "yes", "payment:credit_cards": "yes", "payment:debit_cards": "yes", "smoking": "no", "wheelchair": "yes"}}, {"type": "node", "id": 2716231113, "lat": 40.7572061, "lon": -73.9893098, "tags": {"addr:city": "New York", "addr:housenumber": "263", "addr:postcode": "10036", "addr:state": "NY", "addr:street": "West 42nd Street", "amenity": "restaurant", "cuisine": "pizza", "name": "Villa Fresh Italian Kitchen", "website": "https://villaitaliankitchen.com/"}}, {"type": "node", "id": 2716231115, "lat": 40.7569552, "lon": -73.9887186, "tags": {"addr:city": "New York", "addr:housenumber": "241", "addr:postcode": "10036", "addr:state": "NY", "addr:street": "West 42nd Street", "amenity": "restaurant", "branch": "Times Square", "brand": "Dallas BBQ", "brand:wikidata": "Q122209839", "check_date": "2025-01-30", "cuisine": "barbecue", "name": "Dallas BBQ", "opening_hours": "Su-Th 11:00-24:00; Fr,Sa 11:00-1:00; ", "phone": "+1-212-221-9000", "website": "https://www.dallasbbq.com/times-square"}}, {"type": "node", "id": 2717223348, "lat": 40.7550162, "lon": -73.9880032, "tags": {"addr:housenumber": "560", "addr:postcode": "10018", "addr:street": "7th Avenue", "amenity": "restaurant", "brand:wikidata": "Q6199715", "name": "Margaritaville", "website": "https://www.margaritavilletimessquare.com"}}, {"type": "node", "id": 2717545066, "lat": 40.7572363, "lon": -73.9835963}, {"type": "node", "id": 2717545159, "lat": 40.7572858, "lon": -73.983718}, {"type": "node", "id": 2717545182, "lat": 40.7573043, "lon": -73.9835481}, {"type": "node", "id": 2717545186, "lat": 40.7573107, "lon": -73.9837795}, {"type": "node", "id": 2717545189, "lat": 40.7573159, "lon": -73.9837758}, {"type": "node", "id": 2717545193, "lat": 40.7573236, "lon": -73.9835345}, {"type": "node", "id": 2717545203, "lat": 40.7573445, "lon": -73.9835197}, {"type": "node", "id": 2717545216, "lat": 40.7573633, "lon": -73.9835065}, {"type": "node", "id": 2717545262, "lat": 40.757431, "lon": -73.9834585}, {"type": "node", "id": 2717545281, "lat": 40.7574804, "lon": -73.9835802}, {"type": "node", "id": 2717545295, "lat": 40.7575054, "lon": -73.9836417}, {"type": "node", "id": 2790840179, "lat": 40.7523035, "lon": -73.9894117, "tags": {"addr:housenumber": "481", "addr:street": "7th Avenue", "amenity": "restaurant", "check_date": "2025-05-19", "cuisine": "pizza", "name": "PaPi Pasta & Pizza", "opening_hours": "11:00-23:00", "website": "https://www.papinewyorkcity.com/"}}, {"type": "node", "id": 2790840192, "lat": 40.7523552, "lon": -73.9901323, "tags": {"addr:housenumber": "202", "addr:street": "West 36th Street", "amenity": "pub", "cuisine": "irish;american;sandwich;salad;steak;burger;seafood", "drink:beer": "yes", "drink:coffee": "yes", "email": "info@pignwhistleon36th.com", "name": "Pig 'N' Whistle On 36th", "opening_hours": "Mo-Su 11:00-04:00", "phone": "+1-212-239-4820", "reservation": "yes", "takeaway": "yes", "toilets": "yes", "website": "https://pignwhistleon36th.com/", "wheelchair": "yes"}}, {"type": "node", "id": 3246839605, "lat": 40.7548801, "lon": -73.9859787, "tags": {"amenity": "restaurant", "name": "Ootoya"}}, {"type": "node", "id": 3597257541, "lat": 40.7542147, "lon": -73.9840492, "tags": {"amenity": "cafe", "brand": "Le Pain Quotidien", "brand:wikidata": "Q2046903", "check_date": "2024-05-14", "cuisine": "coffee_shop", "diet:vegetarian": "yes", "indoor_seating": "no", "name": "Le Pain Quotidien", "outdoor_seating": "pedestrian_zone", "payment:american_express": "yes", "payment:cash": "yes", "payment:contactless": "yes", "payment:discover_card": "yes", "payment:mastercard": "yes", "payment:visa": "yes", "smoking": "no", "takeaway": "yes", "wheelchair": "yes"}}, {"type": "node", "id": 3821171656, "lat": 40.7536535, "lon": -73.984378, "tags": {"amenity": "cafe", "check_date": "2023-01-21", "cuisine": "burger", "name": "Southwest Porch", "outdoor_seating": "yes", "payment:american_express": "yes", "payment:cash": "yes", "payment:contactless": "yes", "payment:credit_cards": "yes", "payment:discover_card": "yes", "payment:mastercard": "yes", "payment:visa": "yes", "wheelchair": "yes"}}, {"type": "node", "id": 3974095815, "lat": 40.7560857, "lon": -73.9846852, "tags": {"addr:city": "New York", "addr:housenumber": "125", "addr:postcode": "10036", "addr:street": "West 43rd Street", "alt_name": "BXL", "amenity": "pub", "cocktails": "yes", "cuisine": "belgian", "drink:beer": "draught", "drink:liquor": "yes", "drink:wine": "yes", "name": "BXL Cafe", "opening_hours": "Mo-Su 10:00-24:00+", "opening_hours:kitchen": "Mo-Su 10:00-23:00", "phone": "+1-212-768-0200", "toilets": "yes", "toilets:unisex": "no", "website": "https://www.bxlrestaurants.com/location/cafe/"}}, {"type": "node", "id": 3974095816, "lat": 40.7567033, "lon": -73.9847548, "tags": {"addr:city": "New York", "addr:country": "US", "addr:housenumber": "140", "addr:postcode": "10036", "addr:state": "NY", "addr:street": "West 44th Street", "amenity": "pub", "name": "Jimmy's Corner", "website": "https://nymag.com/listings/bar/jimmys_corner/"}}, {"type": "node", "id": 4316345593, "lat": 40.7565134, "lon": -73.9857687, "tags": {"addr:housenumber": "155", "addr:postcode": "10036", "addr:street": "West 43rd Street", "air_conditioning": "yes", "amenity": "restaurant", "branch": "Times Square", "cuisine": "diner", "indoor_seating": "yes", "internet_access": "wlan", "name": "Brooklyn Diner", "opening_hours": "Mo, Su 08:00-23:00; Tu-Sa 08:00-24:00", "outdoor_seating": "no", "payment:credit_cards": "yes", "payment:debit_cards": "yes", "phone": "+1 212-265-5400", "smoking": "no", "toilets": "yes", "toilets:wheelchair": "no", "website": "https://www.brooklyndiner.com/location/brooklyn-diner-times-square/", "wheelchair": "limited"}}, {"type": "node", "id": 4394357390, "lat": 40.7532402, "lon": -73.9845838, "tags": {"addr:housenumber": "70", "addr:street": "West 40th Street", "air_conditioning": "yes", "amenity": "cafe", "branch": "Bryant Park", "brand": "Le Pain Quotidien", "brand:wikidata": "Q2046903", "check_date": "2024-07-21", "contact:facebook": "https://www.facebook.com/LePainQuotidienus/", "contact:instagram": "https://www.instagram.com/lepainquotidienus", "cuisine": "coffee_shop", "delivery": "yes", "drive_through": "no", "internet_access": "wlan", "internet_access:fee": "customers", "name": "Le Pain Quotidien", "opening_hours": "Mo-Fr 06:00-21:00; Sa-Su 07:00-21:00", "outdoor_seating": "no", "payment:cash": "yes", "payment:contactless": "yes", "payment:credit_cards": "yes", "payment:debit_cards": "yes", "phone": "+1 212-354-5224", "takeaway": "yes", "website": "https://www.lepainquotidien.com/us/en/locations/127:%20Bryant%20Park/70-W-40th-St", "wheelchair": "yes"}}, {"type": "node", "id": 4447034701, "lat": 40.7568784, "lon": -73.9853179, "tags": {"addr:housenumber": "152", "addr:street": "West 44th Street", "amenity": "restaurant", "diet:vegan": "no", "diet:vegetarian": "yes", "name": "Virgil's Real BBQ", "name:en": "Virgil's Real BBQ"}}, {"type": "node", "id": 4455392287, "lat": 40.7545392, "lon": -73.9896037, "tags": {"addr:city": "New York", "addr:housenumber": "229", "addr:postcode": "10018", "addr:state": "NY", "addr:street": "West 39th Street", "amenity": "pub", "cocktails": "yes", "contact:facebook": "https://www.facebook.com/CarrasNYC/", "contact:instagram": "https://www.instagram.com/carrasnyc", "contact:twitter": "https://twitter.com/carrasnyc", "drink:beer": "yes", "drink:wine": "yes", "name": "Carragher's", "opening_hours": "Mo 11:00-24:00; Tu-Fr 11:00-24:00; Sa 10:00-24:00; Su 10:00-01:00", "phone": "+1-646-370-1545", "reservation": "yes", "smoking": "no", "website": "https://www.carraghersnyc.com/"}}, {"type": "node", "id": 4515559287, "lat": 40.7553245, "lon": -73.9889879, "tags": {"addr:city": "New York", "addr:housenumber": "219", "addr:postcode": "10018", "addr:state": "NY", "addr:street": "West 40th Street", "amenity": "university", "name": "CUNY Graduate School of Journalism", "operator": "City University of New York (CUNY)", "phone": "+1 646 758 7700", "website": "https://www.journalism.cuny.edu/", "wikidata": "Q14706210", "wikipedia": "en:Craig Newmark Graduate School of Journalism at the City University of New York"}}, {"type": "node", "id": 4544917700, "lat": 40.7545427, "lon": -73.985254}, {"type": "node", "id": 4544917701, "lat": 40.7550222, "lon": -73.9849064}, {"type": "node", "id": 4661316591, "lat": 40.7572001, "lon": -73.983437, "tags": {"addr:housenumber": "115", "addr:street": "West 45th Street", "amenity": "cafe", "name": "Cook Eatery", "opening_hours": "24/7"}}, {"type": "node", "id": 4711391870, "lat": 40.7526386, "lon": -73.9845169, "tags": {"addr:city": "New York", "addr:housenumber": "45", "addr:postcode": "10018", "addr:street": "West 39th Street", "amenity": "cafe", "name": "Mangia Organic", "opening_hours": "Mo-Fr 07:00-20:00", "wheelchair": "yes"}}, {"type": "node", "id": 4760672500, "lat": 40.7545627, "lon": -73.9839414, "tags": {"amenity": "cafe", "delivery": "yes", "name": "Breads Bakery", "outdoor_seating": "yes", "takeaway": "yes", "website": "https://www.breadsbakery.com/location/bp/", "wheelchair": "yes"}}, {"type": "node", "id": 4762031974, "lat": 40.7534774, "lon": -73.9842882, "tags": {"amenity": "cafe", "check_date": "2023-01-21", "cuisine": "coffee", "name": "Joe Coffee Company", "opening_hours": "Mo-Fr 08:00-20:00; Sa,Su 09:00-20:00", "outdoor_seating": "yes", "payment:american_express": "yes", "payment:cash": "yes", "payment:contactless": "yes", "payment:credit_cards": "yes", "payment:discover_card": "yes", "payment:mastercard": "yes", "payment:visa": "yes", "phone": "+1 212-924-7400", "website": "https://joecoffeecompany.com/locations/bryant-park/", "wheelchair": "yes"}}, {"type": "node", "id": 4846658821, "lat": 40.7520894, "lon": -73.9900673, "tags": {"amenity": "cafe", "name": "The Bread Factory Cafe", "wheelchair": "yes"}}, {"type": "node", "id": 4947760421, "lat": 40.7523558, "lon": -73.9835488, "tags": {"addr:housenumber": "21", "addr:street": "West 39th Street", "amenity": "restaurant", "cuisine": "chinese;tea", "delivery": "yes", "name": "Szechuan Gourmet", "name:en": "Szechuan Gourmet", "opening_hours": "Mo-Fr 11:30-22:00; Sa, Su 12:00-22:00", "payment:cash": "yes", "payment:credit_cards": "yes", "phone": "+1-212-921-0233", "reservation": "yes", "takeaway": "yes", "website": "https://szechuan-gourmet.com/", "wheelchair": "yes"}}, {"type": "node", "id": 5142544476, "lat": 40.7522319, "lon": -73.9841646, "tags": {"amenity": "restaurant", "bar": "yes", "cocktails": "yes", "cuisine": "cuban;chinese", "drink:beer": "yes", "drink:liquor": "yes", "drink:wine": "yes", "happy_hours": "Mo-Su 16:00-19:00", "name": "Calle Dao", "opening_hours": "Mo-We 11:00-23:00; Th-Sa 11:00-24:00; Su 11:00-22:00", "phone": "+1-212-221-9002", "toilets": "yes", "toilets:unisex": "yes", "website": "https://www.calledao.com/bryant-park/", "wheelchair": "yes"}}, {"type": "node", "id": 5212949753, "lat": 40.7538793, "lon": -73.989343, "tags": {"addr:city": "New York", "addr:housenumber": "209", "addr:postcode": "10018", "addr:state": "NY", "addr:street": "West 38th Street", "addr:unit": "2", "name": "Garment District Alliance (BID)", "office": "ngo", "phone": "+1 212-764-9600", "website": "https://garmentdistrict.nyc/"}}, {"type": "node", "id": 5213820731, "lat": 40.7552841, "lon": -73.9868258, "tags": {"addr:housenumber": "7", "addr:postcode": "10036", "addr:street": "Times Square", "amenity": "restaurant", "branch": "Times Square", "brand": "The Counter", "brand:wikidata": "Q7727763", "cuisine": "burger", "delivery": "yes", "name": "The Counter", "opening_hours": "Mo-We, Su 11:00-23:00; Th 11:00-24:00; Fr, Sa 11:00-01:00", "phone": "+1 212-997-6801", "takeaway": "yes", "website": "https://www.thecounter.com/stores/times-square/32021"}}, {"type": "node", "id": 5228777785, "lat": 40.7525184, "lon": -73.9860712, "tags": {"amenity": "cafe", "brand": "Tim Hortons", "brand:wikidata": "Q175106", "cuisine": "coffee_shop", "fixme:atp": "no ATP match, check if still exists", "name": "Tim Hortons", "takeaway": "yes"}}, {"type": "node", "id": 5328483492, "lat": 40.7538023, "lon": -73.9851089, "tags": {"amenity": "cafe", "cuisine": "american", "name": "L\u2019Adresse American Bistro", "opening_hours": "Mo-Sa 09:00-21:00; Su 09:00-15:00", "website": "https://ladressenyc.com/"}}, {"type": "node", "id": 5401978051, "lat": 40.7548007, "lon": -73.9882955, "tags": {"addr:street": "West 40th Street", "amenity": "restaurant", "name": "Empanada Mama", "takeaway": "yes"}}, {"type": "node", "id": 5424133927, "lat": 40.7567716, "lon": -73.9896414, "tags": {"addr:housenumber": "11", "addr:street": "Times Square", "brand": "Microsoft", "name": "Microsoft Technology Center", "office": "it", "opening_hours": "Mo-Fr 08:00-18:00", "payment:credit_cards": "yes", "phone": "+1-212-245-2100", "reservation": "required", "website": "https://www.microsoft.com/en-us/mtc/locations/newyork.aspx"}}, {"type": "node", "id": 5425463232, "lat": 40.7553036, "lon": -73.9869647, "tags": {"addr:housenumber": "141", "addr:street": "West 41st Street", "amenity": "restaurant", "cuisine": "japanese", "name": "Ootoya", "opening_hours": "Mo-Fr 11:30-14:30, 17:30-22:30; Sa, Su 11:30-15:00, 17:30-22:30", "phone": "+1-212-704-0833"}}, {"type": "node", "id": 5483625196, "lat": 40.754263, "lon": -73.990254, "tags": {"addr:housenumber": "245", "addr:postcode": "10018", "addr:street": "West 38th Street", "amenity": "pub", "bar": "yes", "branch": "Midtown West", "catering": "yes", "cuisine": "burger", "delivery": "yes", "drink:beer": "draught", "drink:liquor": "yes", "drink:wine": "yes", "happy_hours": "Mo-Fr 15:00-18:00", "name": "Black Iron Burger", "opening_hours": "Mo-Fr 11:00-24:00, Sa-Su 12:00-24:00", "phone": "+1-646-476-3116", "takeaway": "yes", "website": "https://www.blackironburger.com/location/black-iron-burger-midtown-west/"}}, {"type": "node", "id": 5576503130, "lat": 40.752335, "lon": -73.9836718, "tags": {"addr:housenumber": "23", "addr:street": "West 39th Street", "amenity": "restaurant", "fax": "+1-212-869-3885", "happy_hours": "Mo-Fr 15:00-19:00", "name": "Windfall Lounge", "opening_hours": "Mo 15:00-23:00; Tu, We 15:00-00:00; Th, Fr 15:00-02:00", "payment:cash": "yes", "payment:credit_cards": "yes", "phone": "+1-212-869-4606", "reservation": "yes", "toilets": "yes", "website": "https://windfallnyc.com/", "wheelchair": "no"}}, {"type": "node", "id": 5578984004, "lat": 40.7530461, "lon": -73.9840983, "tags": {"addr:housenumber": "54", "addr:postcode": "10018", "addr:street": "West 40th Street", "amenity": "cafe", "branch": "Bryant Park", "brand": "Blue Bottle Coffee", "brand:en": "Blue Bottle Coffee", "brand:ja": "\u30d6\u30eb\u30fc\u30dc\u30c8\u30eb\u30b3\u30fc\u30d2\u30fc", "brand:wikidata": "Q4928917", "cuisine": "coffee_shop", "name": "Blue Bottle Coffee", "name:en": "Blue Bottle Coffee", "name:ja": "\u30d6\u30eb\u30fc\u30dc\u30c8\u30eb\u30b3\u30fc\u30d2\u30fc", "opening_hours": "Mo-Fr 06:30-19:00; Sa-Su 07:00-19:00; Jan 01 off; Nov Th[4] off; Dec 25 off", "payment:cash": "yes", "payment:contactless": "yes", "payment:credit_cards": "yes", "phone": "+1-510-653-3394", "takeaway": "yes", "website": "https://bluebottlecoffee.com/cafes/bryant-park"}}, {"type": "node", "id": 5651033403, "lat": 40.7565864, "lon": -73.9886009, "tags": {"entrance": "yes"}}, {"type": "node", "id": 5651033420, "lat": 40.756552, "lon": -73.988518}, {"type": "node", "id": 5651034221, "lat": 40.7564253, "lon": -73.9886069}, {"type": "node", "id": 5651034222, "lat": 40.7566534, "lon": -73.9887623, "tags": {"entrance": "yes"}}, {"type": "node", "id": 5651034223, "lat": 40.756665, "lon": -73.9887903}, {"type": "node", "id": 5651034224, "lat": 40.7565383, "lon": -73.9888791}, {"type": "node", "id": 5651034225, "lat": 40.7564912, "lon": -73.9887656}, {"type": "node", "id": 5651034226, "lat": 40.7566179, "lon": -73.9886767}, {"type": "node", "id": 5664788646, "lat": 40.7542367, "lon": -73.9889033, "tags": {"addr:city": "New York", "addr:housenumber": "200", "addr:postcode": "10018", "addr:street": "West 39th Street", "amenity": "cafe", "branch": "Fashion District", "brand": "Caf\u00e9 Grumpy", "internet_access": "no", "name": "Caf\u00e9 Grumpy", "opening_hours": "Mo-Fr 07:00-20:00; Sa, Su 08:00-19:00", "phone": "+1 646-449-8747", "website": "https://cafegrumpy.com/locations/fashion-district"}}, {"type": "node", "id": 5752764087, "lat": 40.7541745, "lon": -73.9888207, "tags": {"addr:housenumber": "200", "addr:street": "West 39th Street", "amenity": "bar", "cocktails": "yes", "drink:beer": "yes", "drink:liquor": "yes", "drink:wine": "yes", "email": "info@theskylarknyc.com", "level": "29", "name": "The Skylark", "opening_hours": "We 16:30-01:00; Th, Fr 16:30-01:30; Mo, Tu 16:30-00:00", "phone": "+1-212-257-4577", "reservation": "yes", "toilets": "yes", "website": "https://theskylarknyc.com/", "wheelchair": "yes"}}, {"type": "node", "id": 5753139882, "lat": 40.7540102, "lon": -73.9888897, "tags": {"addr:city": "New York", "addr:housenumber": "200", "addr:postcode": "10018", "addr:state": "NY", "addr:street": "West 39th Street", "addr:unit": "97", "fax": "+1-212-423-3203", "name": "Complete Shredding Solutions A Data-struction Company", "office": "company", "opening_hours": "Mo-Fr 08:30-17:00; Sa 08:00-13:00", "payment:american_express": "yes", "payment:cheque": "yes", "payment:discover_card": "yes", "payment:mastercard": "yes", "payment:visa": "yes", "phone": "+1-212-939-7534", "website": "https://completeshreddingsolutions.com/"}}, {"type": "node", "id": 5771831853, "lat": 40.7524881, "lon": -73.9880033, "tags": {"amenity": "cafe", "brand": "Bluestone Lane", "brand:wikidata": "Q130381059", "check_date": "2024-01-27", "name": "Bluestone Lane", "wheelchair": "no"}}, {"type": "node", "id": 5816354728, "lat": 40.7525209, "lon": -73.9899817, "tags": {"addr:housenumber": "207", "addr:street": "West 36th Street", "amenity": "restaurant", "cuisine": "steak", "drink:beer": "yes", "drink:coffee": "yes", "drink:liquor": "yes", "drink:wine": "yes", "email": "info@delmonicoskitchen.com", "name": "Delmonico's Kitchen", "opening_hours": "Sa 17:00-22:00; Su 17:00-21:00", "phone": "+1-212-695-5220", "reservation": "recommended", "takeaway": "yes", "website": "https://delmonicoskitchen.com/", "wheelchair": "yes"}}, {"type": "node", "id": 5916502085, "lat": 40.7532189, "lon": -73.9842351, "tags": {"office": "ngo"}}, {"type": "node", "id": 6053487985, "lat": 40.7539008, "lon": -73.9892603, "tags": {"addr:housenumber": "209", "addr:street": "West 38th Street", "amenity": "restaurant", "branch": "Manhattan", "cuisine": "deli", "diet:kosher": "only", "email": "manhattan@bensdeli.net", "fax": "+1 212-398-3354", "name": "Ben's Delicatessen", "opening_hours": "09:00-21:00 open \"Deli\" || 11:00-21:00 open \"Dining room\"", "phone": "+1 212-398-2367", "seats": "250", "takeaway": "09:00-21:00", "website": "https://www.bensdeli.net/locations/manhattan-ny-kosher-deli-restaurant/"}}, {"type": "node", "id": 6067214134, "lat": 40.7541518, "lon": -73.9861387, "tags": {"addr:housenumber": "1440", "addr:street": "Broadway", "amenity": "cafe", "check_date": "2023-01-07", "name": "Le Caf\u00e9 Coffee", "outdoor_seating": "no", "phone": "+1 212-768-3602"}}, {"type": "node", "id": 6104250725, "lat": 40.7535315, "lon": -73.9874051, "tags": {"addr:housenumber": "1407", "addr:street": "Broadway", "amenity": "cafe", "brand": "Heytea", "brand:en": "Heytea", "brand:wikidata": "Q60875376", "brand:zh": "\u559c\u8336", "cuisine": "bubble_tea", "name": "Heytea", "name:en": "Heytea", "name:zh": "\u559c\u8336", "takeaway": "yes"}}, {"type": "node", "id": 6133822485, "lat": 40.7566505, "lon": -73.9841404, "tags": {"amenity": "cafe", "name": "cafe un deux trois", "wheelchair": "no"}}, {"type": "node", "id": 6237327830, "lat": 40.755078, "lon": -73.9850376}, {"type": "node", "id": 6280452083, "lat": 40.7558996, "lon": -73.9837205, "tags": {"addr:housenumber": "1333", "addr:postcode": "10036", "addr:street": "Avenue of the Americas", "name": "ING Financial Holdings Corporation", "office": "financial", "opening_hours": "Mo-Fr 07:30-18:00", "phone": "+1 646-424-6000", "website": "https://www.ingwb.com/network-offices/americas/united-states-of-america"}}, {"type": "node", "id": 6400825486, "lat": 40.7531767, "lon": -73.987425, "tags": {"addr:postcode": "10018", "amenity": "restaurant", "brand": "Mighty Quinn's", "brand:wikidata": "Q122209813", "cuisine": "barbecue", "name": "Mighty Quinn's", "opening_hours": "Mo-Su 11:00-22:00", "website": "https://www.mightyquinnsbbq.com/", "wheelchair": "yes"}}, {"type": "node", "id": 6501259685, "lat": 40.7568075, "lon": -73.9867028, "tags": {"addr:housenumber": "211", "addr:street": "West 43rd Street", "amenity": "restaurant", "name": "bella vita tranttoria"}}, {"type": "node", "id": 6554084385, "lat": 40.7524576, "lon": -73.9871786, "tags": {"addr:housenumber": "1374", "addr:street": "Broadway", "amenity": "restaurant", "check_date": "2024-01-27", "cuisine": "sandwich", "name": "Mr. Broadway Kosher"}}, {"type": "node", "id": 6566684054, "lat": 40.7531459, "lon": -73.9851227, "tags": {"addr:city": "New York", "addr:housenumber": "1040", "addr:postcode": "10018", "addr:state": "NY", "addr:street": "6th Avenue", "air_conditioning": "yes", "amenity": "cafe", "branch": "6th between 39th and 40th", "brand": "Starbucks", "brand:wikidata": "Q37158", "check_date": "2024-07-21", "cuisine": "coffee_shop", "delivery": "yes", "drive_through": "no", "internet_access": "yes", "internet_access:fee": "no", "name": "Starbucks", "official_name": "Starbucks Coffee", "opening_hours": "Mo-Fr 05:30-21:00; Sa-Su 06:30-20:00", "outdoor_seating": "no", "payment:cash": "yes", "payment:contactless": "yes", "payment:credit_cards": "yes", "payment:debit_cards": "yes", "phone": "+1 212-302-2132", "smoking": "no", "takeaway": "yes", "website": "https://www.starbucks.com/store-locator/store/1014050/6th-between-39th-and-40th-1040-sixth-avenue-new-york-ny-100183703-us", "wheelchair": "yes"}}, {"type": "node", "id": 6593121096, "lat": 40.7534485, "lon": -73.9842789}, {"type": "node", "id": 6593121097, "lat": 40.7534686, "lon": -73.9843269}, {"type": "node", "id": 6593121524, "lat": 40.753506, "lon": -73.9842995}, {"type": "node", "id": 6593121543, "lat": 40.753923, "lon": -73.9822727}, {"type": "node", "id": 6593122247, "lat": 40.7543773, "lon": -73.9833425}, {"type": "node", "id": 6593122559, "lat": 40.7538066, "lon": -73.9843458}, {"type": "node", "id": 6593122560, "lat": 40.7538257, "lon": -73.9842891}, {"type": "node", "id": 6593122561, "lat": 40.7537929, "lon": -73.9843132}, {"type": "node", "id": 6593122562, "lat": 40.7538394, "lon": -73.9843218}, {"type": "node", "id": 6593123410, "lat": 40.7534858, "lon": -73.9842515}, {"type": "node", "id": 6597932385, "lat": 40.7522458, "lon": -73.9853353, "tags": {"amenity": "bar", "name": "refinery rooftop"}}, {"type": "node", "id": 6605262902, "lat": 40.753211, "lon": -73.9839324}, {"type": "node", "id": 6605262906, "lat": 40.7540175, "lon": -73.9824866}, {"type": "node", "id": 6763864286, "lat": 40.7526496, "lon": -73.985124, "tags": {"amenity": "restaurant", "cuisine": "indian", "name": "Curry Dream"}}, {"type": "node", "id": 6836090976, "lat": 40.7539456, "lon": -73.9895539, "tags": {"addr:housenumber": "221", "addr:street": "West 38th Street", "amenity": "restaurant", "cocktails": "yes", "contact:email": "taginedining@gmail.com", "contact:facebook": "https://www.facebook.com/Tagine-Fine-Moroccan-Cuisine-120692417943320/", "contact:instagram": "https://instagram.com/taginefinemoroccannyc", "cuisine": "moroccan", "diet:gluten_free": "yes", "diet:vegan": "yes", "drink:beer": "yes", "drink:wine": "yes", "happy_hours": "Mo-Th 13:00-18:00", "level": "0", "name": "Tagine", "opening_hours": "12:00-04:00", "phone": "+1 646-373-6265", "smoking": "hookah", "website": "https://taginedining.com/"}}, {"type": "node", "id": 7047049185, "lat": 40.7552396, "lon": -73.9860413, "tags": {"addr:postcode": "10036", "amenity": "bar", "name": "St. Cloud Rooftop Bar", "opening_hours": "Mo-Su 16:00-23:00"}}, {"type": "node", "id": 7047864187, "lat": 40.755533, "lon": -73.9902804, "tags": {"addr:housenumber": "260", "addr:postcode": "10018", "amenity": "bar", "name": "Castell Rooftop Lounge"}}, {"type": "node", "id": 7139389687, "lat": 40.7558772, "lon": -73.9850095, "tags": {"amenity": "restaurant", "brand": "Burger & Lobster", "brand:wikidata": "Q113547162", "cuisine": "burger;seafood", "name": "Burger & Lobster", "opening_hours": "Mo 11:30-22:00; Tu-Th, Su 11:30-23:00; Fr, Sa 11:30-24:00"}}, {"type": "node", "id": 7780676529, "lat": 40.752949, "lon": -73.9840106, "tags": {"addr:city": "New York", "addr:housenumber": "50", "addr:postcode": "10018", "addr:state": "NY", "addr:street": "West 40th Street", "amenity": "college", "internet_access": "yes", "name": "Stella and Charles Guttman Community College", "operator": "The City University of New York", "operator:type": "public", "website": "https://guttman.cuny.edu", "wikidata": "Q7006662", "wikipedia": "en:Guttman Community College"}}, {"type": "node", "id": 7820953442, "lat": 40.7531352, "lon": -73.9882647, "tags": {"addr:housenumber": "156", "addr:street": "West 38th Street", "amenity": "pub", "name": "Jimmy\u2019s"}}, {"type": "node", "id": 8062702032, "lat": 40.7527533, "lon": -73.9875518, "tags": {"addr:housenumber": "1385", "addr:postcode": "10018", "addr:street": "Broadway", "alt_name": "AO Bowl", "amenity": "restaurant", "check_date": "2024-01-27", "cuisine": "japanese", "diet:kosher": "yes", "name": "AO Organic Japanese", "opening_hours": "Mo-Th 11:30-20:20; Su 12:00-20:00 \"may be closed certain Jewish or federal holidays\"", "phone": "+1-646-682-9100", "website": "https://www.aobowl.com"}}, {"type": "node", "id": 8281310695, "lat": 40.7524864, "lon": -73.9839015, "tags": {"3d_printing": "habitat", "addr:city": "New York", "addr:housenumber": "25", "addr:postcode": "10018", "addr:state": "NY", "addr:street": "West 39th Street", "aerospace:product": "robot", "email": "contact@aispacefactory.com", "name": "AI SpaceFactory", "office": "company", "robot:type": "spaceflight", "website": "https://www.aispacefactory.com"}}, {"type": "node", "id": 8418834099, "lat": 40.7528591, "lon": -73.9875245, "tags": {"addr:housenumber": "1385", "addr:postcode": "10018", "addr:street": "Broadway", "amenity": "restaurant", "brand": "CAVA", "brand:wikidata": "Q85751038", "check_date": "2024-01-27", "cuisine": "mediterranean", "name": "CAVA", "takeaway": "only"}}, {"type": "node", "id": 8669771128, "lat": 40.7572312, "lon": -73.9873203, "tags": {"addr:housenumber": "229", "addr:postcode": "10036", "addr:street": "West 43rd Street", "amenity": "restaurant", "branch": "Times Square", "cocktails": "yes", "cuisine": "sushi;japanese", "delivery": "Mo-Th, Su 10:30-22:15; Fr, Sa 10:30-23:00", "facebook": "HaruSushi", "happy_hours": "15:00-18:00", "instagram": "harusushinyc", "name": "Haru Sushi", "opening_hours": "Mo-Th, Su 11:00-22:00; Fr, Sa 11:00-23:00", "phone": "+1 212-398-9810", "reservation": "yes", "takeaway": "yes", "twitter": "HaruSushi", "website": "https://harusushi.com/location/newyork-timessquare"}}, {"type": "node", "id": 8729437331, "lat": 40.7555484, "lon": -73.9853184, "tags": {"addr:city": "New York", "addr:housenumber": "135", "addr:state": "NY", "addr:street": "West 42nd Street", "amenity": "restaurant", "cuisine": "steak_house", "name": "Charlie Palmer Steak"}}, {"type": "node", "id": 8751484419, "lat": 40.7550523, "lon": -73.9849772}, {"type": "node", "id": 8751484434, "lat": 40.7550115, "lon": -73.9851761}, {"type": "node", "id": 8751484437, "lat": 40.7550365, "lon": -73.9851575}, {"type": "node", "id": 8751484439, "lat": 40.7548407, "lon": -73.9849769, "tags": {"covered": "yes", "door": "hinged", "entrance": "yes", "wheelchair": "yes"}}, {"type": "node", "id": 8751484440, "lat": 40.7548493, "lon": -73.9849705, "tags": {"covered": "yes", "door": "revolving", "entrance": "yes", "wheelchair": "no"}}, {"type": "node", "id": 8751484447, "lat": 40.7546196, "lon": -73.9854347}, {"type": "node", "id": 8751484531, "lat": 40.754728, "lon": -73.9853863}, {"type": "node", "id": 8751484534, "lat": 40.7546787, "lon": -73.9854229}, {"type": "node", "id": 8751484541, "lat": 40.7549959, "lon": -73.9851886}, {"type": "node", "id": 8751484544, "lat": 40.7548905, "lon": -73.9852648}, {"type": "node", "id": 8751484545, "lat": 40.7548238, "lon": -73.9849894}, {"type": "node", "id": 8751484548, "lat": 40.7547085, "lon": -73.9850749}, {"type": "node", "id": 8751484587, "lat": 40.7550048, "lon": -73.9848656}, {"type": "node", "id": 8872982362, "lat": 40.7538538, "lon": -73.9868085, "tags": {"addr:housenumber": "1412", "addr:postcode": "10018", "addr:street": "Broadway", "amenity": "cafe", "check_date": "2024-01-27", "level": "0", "name": "Cook", "opening_hours": "Mo-Fr 06:00-22:00; Sa 07:00-17:00", "phone": "+1 212-997-7601"}}, {"type": "node", "id": 8872982376, "lat": 40.7537312, "lon": -73.985779, "tags": {"amenity": "restaurant", "indoor_seating": "yes", "name": "Croton Reservoir Tavern", "outdoor_seating": "no"}}, {"type": "node", "id": 8872982377, "lat": 40.7543258, "lon": -73.9871718, "tags": {"addr:city": "New York", "addr:housenumber": "1411", "addr:postcode": "10018", "addr:state": "NY", "addr:street": "Broadway", "amenity": "cafe", "branch": "40th & Broadway", "brand": "Starbucks", "brand:wikidata": "Q37158", "cuisine": "coffee_shop", "name": "Starbucks", "official_name": "Starbucks Coffee", "phone": "+1 917-675-2766", "ref": "1017641", "takeaway": "yes", "website": "https://www.starbucks.com/store-locator/store/1017641/40th-broadway-1411-broadway-new-york-ny-100183496-us"}}, {"type": "node", "id": 9490966717, "lat": 40.7530188, "lon": -73.9868395, "tags": {"amenity": "restaurant", "name:fr": "Le Paim Quotidien"}}, {"type": "node", "id": 9590209941, "lat": 40.754635, "lon": -73.9840853}, {"type": "node", "id": 10151666949, "lat": 40.755372, "lon": -73.9877527, "tags": {"addr:city": "New York", "addr:housenumber": "200", "addr:postcode": "10036", "addr:state": "NY", "addr:street": "West 41st Street", "amenity": "restaurant", "cuisine": "pizza", "name": "Carnegie Pizza"}}, {"type": "node", "id": 10158132117, "lat": 40.7551463, "lon": -73.9873113, "tags": {"addr:housenumber": "575", "addr:street": "7th Avenue", "alcohol": "yes", "amenity": "restaurant", "brand": "Yard House", "brand:wikidata": "Q21189156", "cuisine": "american", "name": "Yard House"}}, {"type": "node", "id": 10669944786, "lat": 40.7526379, "lon": -73.9890578, "tags": {"addr:city": "New York", "addr:housenumber": "499", "addr:postcode": "10018", "addr:state": "NY", "addr:street": "7th Avenue", "addr:unit": "18th Floor South", "branch": "New York", "consulting": "building_consultant;real_estate_consultant", "name": "MGAC", "office": "consulting", "opening_hours": "Mo-Fr 08:30-17:30", "phone": "+1 929-273-1996", "website": "https://www.mgac.com/"}}, {"type": "node", "id": 10732644795, "lat": 40.7561061, "lon": -73.9902945, "tags": {"addr:city": "New York", "addr:housenumber": "620", "addr:postcode": "10018", "addr:state": "NY", "addr:street": "8th Avenue", "building": "yes", "check_date": "2025-10-27", "name": "The New York Times", "office": "newspaper", "website": "https://www.nytimes.com/", "wikidata": "Q9684", "wikipedia": "en:The New York Times"}}, {"type": "node", "id": 10791083576, "lat": 40.7570456, "lon": -73.9869703, "tags": {"addr:housenumber": "1501", "addr:street": "Broadway", "air_conditioning": "yes", "amenity": "restaurant", "bar": "no", "brewery": "yes", "check_date": "2023-04-06", "cuisine": "burger;pizza;sandwich;salad", "internet_access": "wlan", "internet_access:fee": "customers", "microbrewery": "no", "name": "Brooklyn Deli", "opening_hours": "Mo-Th,Su 07:00-20:00; Fr-Sa 07:00-23:00", "outdoor_seating": "no", "payment:cash": "yes", "payment:credit_cards": "yes", "phone": "+1 212-840-5800", "takeaway": "yes", "website": "https://brooklyndelicatessen.com", "wheelchair": "yes"}}, {"type": "node", "id": 10800150639, "lat": 40.7547138, "lon": -73.9855296, "tags": {"addr:city": "New York", "addr:housenumber": "135", "addr:postcode": "10036", "addr:state": "NY", "addr:street": "West 41st Street", "air_conditioning": "yes", "amenity": "restaurant", "branch": "Bryant Park", "delivery": "yes", "name": "Carrot Express", "opening_hours": "Mo-Th 10:00-20:00; Fr 10:00-19:00; Sa-Su 11:00-17:00", "payment:cash": "yes", "payment:contactless": "yes", "payment:credit_cards": "yes", "phone": "+1 646-455-0400", "takeaway": "yes", "website": "https://carrotexpress.com"}}, {"type": "node", "id": 11342349919, "lat": 40.7552077, "lon": -73.9892867, "tags": {"addr:housenumber": "236", "addr:street": "West 40th Street", "amenity": "restaurant", "name": "Times Square Pizza", "phone": "+1 212-229-1222", "takeaway": "yes"}}, {"type": "node", "id": 11399352938, "lat": 40.7525257, "lon": -73.9897468, "tags": {"amenity": "cafe", "cuisine": "bubble_tea", "name": "Song Tea"}}, {"type": "node", "id": 11399352946, "lat": 40.7536834, "lon": -73.9888962, "tags": {"amenity": "cafe", "cuisine": "dessert;crepe;waffle;ice_cream", "name": "Chocolate Dip", "outdoor_seating": "no"}}, {"type": "node", "id": 11399352953, "lat": 40.754545, "lon": -73.9882746, "tags": {"amenity": "cafe", "name": "Frame Gourmet Eatery"}}, {"type": "node", "id": 11399352959, "lat": 40.754464, "lon": -73.9876603, "tags": {"brand": "H&R Block", "brand:wikidata": "Q5627799", "name": "H&R Block", "office": "tax_advisor"}}, {"type": "node", "id": 11399352960, "lat": 40.7542503, "lon": -73.9878848, "tags": {"amenity": "cafe", "brand": "Gregorys Coffee", "brand:wikidata": "Q28229714", "cuisine": "coffee_shop", "name": "Gregorys Coffee", "note": "lack of apostrophe in name is not a typo"}}, {"type": "node", "id": 11399352963, "lat": 40.7536851, "lon": -73.9884107, "tags": {"amenity": "cafe", "brand": "Starbucks", "brand:wikidata": "Q37158", "cuisine": "coffee_shop", "name": "Starbucks", "official_name": "Starbucks Coffee", "takeaway": "yes"}}, {"type": "node", "id": 11399352965, "lat": 40.7532206, "lon": -73.9887428, "tags": {"amenity": "cafe", "cuisine": "mexican", "name": "Caf\u00e9 Hestia"}}, {"type": "node", "id": 11399372270, "lat": 40.7523507, "lon": -73.9893208, "tags": {"amenity": "restaurant", "cuisine": "american", "name": "Legasea Bar & Grill"}}, {"type": "node", "id": 11418235696, "lat": 40.7539389, "lon": -73.9887119, "tags": {"amenity": "cafe", "cuisine": "italian", "name": "Italian Trattoria"}}, {"type": "node", "id": 11536106180, "lat": 40.754069, "lon": -73.9849241, "tags": {"addr:city": "New York", "addr:housenumber": "1073", "addr:postcode": "10018", "addr:state": "NY", "addr:street": "6th Avenue", "air_conditioning": "yes", "amenity": "cafe", "cuisine": "coffee_shop", "diet:vegetarian": "yes", "indoor_seating": "yes", "level": "1", "name": "Cafe Zaiya", "note": "inside Kinokuniya bookstore", "opening_hours": "Mo-Sa 11:00-19:00; Su 11:00-18:00", "outdoor_seating": "no", "smoking": "no", "wheelchair": "yes"}}, {"type": "node", "id": 11558110355, "lat": 40.7525395, "lon": -73.9886477, "tags": {"addr:city": "New York", "addr:housenumber": "144", "addr:postcode": "10018", "addr:state": "NY", "addr:street": "West 37th Street", "amenity": "restaurant", "check_date": "2025-10-24", "contact:instagram": "https://www.instagram.com/tengri_tagh_uyghur_cuisine_nyc", "contact:yelp": "tengri-tagh-uyghur-cuisine-new-york", "cuisine": "uyghur", "diet:halal": "yes", "diet:vegetarian": "yes", "internet_access": "no", "level": "0", "name": "Tengri Tagh Uyghur Cuisine", "name:de": "Tengri Tagh Uigurische K\u00fcche", "name:fr": "Cuisine Ou\u00efghoure Tengri Tagh", "name:tr": "Tanr\u0131 Da\u011f\u0131 Uygur Yemekleri", "opening_hours": "Mo-Su 11:30-21:00", "payment:american_express": "yes", "payment:cash": "yes", "payment:mastercard": "yes", "payment:visa": "yes", "phone": "+1 646-870-0222", "toilets": "no", "website": "tengritaghny.com"}}, {"type": "node", "id": 11558119422, "lat": 40.7524663, "lon": -73.9884545, "tags": {"addr:city": "New York", "addr:housenumber": "134", "addr:postcode": "10018", "addr:state": "NY", "addr:street": "West 37th Street", "air_conditioning": "yes", "amenity": "restaurant", "bar": "yes", "branch": "West 37th Street", "check_date": "2025-09-24", "contact:facebook": "https://www.facebook.com/BeyondSushi/", "contact:instagram": "https://www.instagram.com/beyondsushinyc", "cuisine": "asian", "delivery": "yes", "diet:kosher": "yes", "diet:vegan": "only", "diet:vegetarian": "yes", "highchair": "yes", "name": "Beyond Sushi - Vegan Restaurant", "opening_hours": "Mo-Th,Su 11:30-21:30; Fr-Sa 11:30-22:30", "payment:cash": "yes", "payment:credit_cards": "yes", "phone": "+1 212-564-0869", "reservation": "yes", "takeaway": "yes", "toilets": "yes", "website": "https://beyondsushi.com/locations/w-37th-street/", "website:menu": "https://beyondsushi.com/menu/", "wheelchair": "yes", "wikidata": "Q136352184"}}, {"type": "node", "id": 11746463843, "lat": 40.7521719, "lon": -73.9872338, "tags": {"addr:city": "New York", "addr:housenumber": "109", "addr:postcode": "10018", "addr:state": "NY", "addr:street": "West 37th Street", "amenity": "restaurant", "cuisine": "korean", "name": "ONGI", "opening_hours": "Mo-Su 11:00-21:00", "phone": "+16466091738", "website": "https://www.on-gi.com", "website:orders": "https://ongi-863993.square.site/"}}, {"type": "node", "id": 11762033170, "lat": 40.7538905, "lon": -73.9850776, "tags": {"addr:housenumber": "1065", "addr:street": "6th Avenue", "amenity": "cafe", "delivery": "yes", "name": "Zucker's Bagels & Smoked Fish", "opening_hours": "Mo-Su 07:00-16:00", "phone": "+1 212-671-2400", "takeaway": "yes", "website": "https://www.zuckersbagels.com/"}}, {"type": "node", "id": 11850487564, "lat": 40.7569998, "lon": -73.9868447, "tags": {"addr:city": "New York", "addr:floor": "4", "addr:housenumber": "1501", "addr:postcode": "10036", "addr:state": "NY", "addr:street": "Broadway", "consulate": "consulate_general", "country": "DO", "diplomatic": "consulate", "diplomatic:services:citizen_services": "yes", "diplomatic:services:passport": "yes", "diplomatic:services:visa": "yes", "email": "informacion@consuladord-ny.org", "name": "Consulate General of the Dominican Republic", "name:es": "Consulado General de la Rep\u00fablica Dominicana", "office": "diplomatic", "official_name:es": "Consulado General de la Rep\u00fablica Dominicana en New York, EE. UU.", "phone": "+1-212-768-2480", "target": "US", "website": "https://usa.mirex.gob.do/consular/new-york/"}}, {"type": "node", "id": 11861000618, "lat": 40.7537679, "lon": -73.9858648, "tags": {"air_conditioning": "yes", "amenity": "restaurant", "changing_table": "no", "diet:halal": "no", "diet:kosher": "no", "indoor_seating": "yes", "name": "Handcraft Burgers & Brew", "opening_hours": "Mo-Su 11:30-21:00", "outdoor_seating": "no", "payment:credit_cards": "yes", "payment:debit_cards": "yes", "smoking": "no", "toilets": "yes", "toilets:wheelchair": "limited", "wheelchair": "limited"}}, {"type": "node", "id": 11872565844, "lat": 40.7546757, "lon": -73.9874489, "tags": {"addr:housenumber": "147", "addr:street": "West 40th Street", "amenity": "bar", "name": "The Independent"}}, {"type": "node", "id": 11872590937, "lat": 40.7548345, "lon": -73.9864878, "tags": {"addr:housenumber": "1450", "addr:street": "Broadway", "amenity": "cafe", "brand": "Paris Baguette", "brand:wikidata": "Q62605260", "name": "Paris Baguette", "opening_hours": "Mo, We-Su 06:00-00:00; Tu 07:00-22:00", "phone": "+1 516-595-0404", "shop": "bakery", "website": "https://parisbaguette.com"}}, {"type": "node", "id": 11872704825, "lat": 40.7548664, "lon": -73.985372, "tags": {"addr:housenumber": "126", "addr:street": "West 42nd Street", "amenity": "restaurant", "contact:facebook": "ValbellaAtThePark", "contact:instagram": "valbellaatthepark", "cuisine": "italian", "level": "0;1", "name": "Valbella at the Park", "outdoor_seating": "yes", "website": "https://valbellaatthepark.com/"}}, {"type": "node", "id": 11884796769, "lat": 40.7520357, "lon": -73.9858812, "tags": {"addr:housenumber": "1012", "addr:street": "6th Avenue", "amenity": "restaurant", "cuisine": "pizza", "name": "Pizza Town"}}, {"type": "node", "id": 11918740847, "lat": 40.7568638, "lon": -73.9852285, "tags": {"amenity": "pub", "name": "O'Donoghue's", "opening_hours": "11:00-24:00; 00:00-04:00", "outdoor_seating": "yes", "website": "https://odpubnyc.com/"}}, {"type": "node", "id": 12045059816, "lat": 40.7540475, "lon": -73.9859163, "tags": {"addr:housenumber": "119", "addr:street": "West 40th Street", "amenity": "restaurant", "cuisine": "japanese", "name": "Glaze", "opening_hours": "Mo-Fr 11:30-21:00; Sa, Su 12:00-21:00"}}, {"type": "node", "id": 12516954542, "lat": 40.7524292, "lon": -73.9847258, "tags": {"addr:city": "New York", "addr:housenumber": "54", "addr:state": "NY", "addr:street": "West 39th Street", "amenity": "restaurant", "email": "events@dawson39.com", "level": "0", "name": "The Dawson 39", "website": "https://www.dawson39.com/"}}, {"type": "node", "id": 12516954543, "lat": 40.7537518, "lon": -73.9859292, "tags": {"addr:housenumber": "110", "addr:street": "West 40th Street", "addr:unit": "505", "email": "info@nyys.org", "facebook": "https://www.facebook.com/newyorkyouthsymphony", "level": "4", "name": "New York Youth Symphony", "office": "yes", "phone": "+1-212-581-5933", "website": "nyys.org"}}, {"type": "node", "id": 12857850351, "lat": 40.7561252, "lon": -73.9848062, "tags": {"addr:city": "New York", "addr:housenumber": "127A", "addr:postcode": "10036", "addr:street": "West 43rd Street", "amenity": "restaurant", "bar": "yes", "cocktails": "yes", "cuisine": "mexican", "drink:beer": "draught", "drink:liquor": "yes", "drink:wine": "yes", "happy_hours": "Mo-Su 16:00-17:30", "name": "Bar Mexicana", "opening_hours": "Mo-Su 11:30-21:00", "phone": "+1-917-914-7037", "website": "https://www.barmexicananyc.com"}}, {"type": "node", "id": 12857850352, "lat": 40.7537971, "lon": -73.9859365, "tags": {"amenity": "restaurant", "branch": "Bryant Park", "cuisine": "chinese", "diet:vegetarian": "yes", "indoor_seating": "yes", "name": "Simply Noodles & Dim Sum", "opening_hours": "Mo-Su 11:00-21:00", "outdoor_seating": "no", "payment:credit_cards": "yes", "phone": "+1-212-884-5818", "takeaway": "yes"}}, {"type": "node", "id": 12898340499, "lat": 40.753645, "lon": -73.9867772, "tags": {"addr:city": "New York", "addr:housenumber": "1412", "addr:postcode": "10018", "addr:state": "NY", "addr:street": "Broadway", "amenity": "bar", "name": "Elsie Rooftop", "opening_hours": "Mo off; Tu-Th 17:00-00:00; Fr 17:00-04:00; Sa 11:00-04:00; Su 11:00-00:00", "phone": "+1-646-834-2291", "website": "https://elsierooftop.com/"}}, {"type": "node", "id": 12908269982, "lat": 40.7520674, "lon": -73.9850554, "tags": {"amenity": "restaurant", "cuisine": "japanese_fusion", "drink:liquor": "yes", "drink:sake": "yes", "drink:wine": "yes", "happy_hours": "Mo-Su 12:15-14:30, 17:15--18:30", "name": "Class on 38th", "opening_hours": "Mo-Su 12:15-14:30, 17:15-21:00", "phone": "+1-929-292-0691", "website": "https://www.classon38th.com"}}, {"type": "node", "id": 12917521996, "lat": 40.7568873, "lon": -73.98349, "tags": {"amenity": "cafe", "check_date": "2025-06-15", "cuisine": "coffee_shop", "name": "Gumption Coffee"}}, {"type": "node", "id": 12917521997, "lat": 40.7572479, "lon": -73.9835396, "tags": {"amenity": "pub", "check_date": "2025-06-15", "name": "Merrion Row"}}, {"type": "node", "id": 12917521998, "lat": 40.7570814, "lon": -73.9838681, "tags": {"amenity": "restaurant", "check_date": "2025-06-15", "name": "Bobby Van's Grill"}}, {"type": "node", "id": 13034372961, "lat": 40.7556286, "lon": -73.9902396, "tags": {"addr:city": "New York", "addr:housenumber": "260", "addr:postcode": "10018", "addr:state": "NY", "addr:street": "W 40th St", "amenity": "restaurant", "cuisine": "spanish", "name": "Boqueria W40th", "phone": "+1 212-255-6047", "website": "https://boqueriarestaurant.com/location/nyc/times-square/"}}, {"type": "node", "id": 13190222586, "lat": 40.7560591, "lon": -73.9845398, "tags": {"addr:city": "New York", "addr:housenumber": "123", "addr:state": "NY", "addr:street": "West 43rd Street", "amenity": "school", "name": "Repertory Company High School for Theatre Arts", "phone": "+1-212-382-1875", "website": "https://www.repertorycompanyhs.org"}}, {"type": "node", "id": 13261388255, "lat": 40.7561707, "lon": -73.9902365, "tags": {"addr:floor": "45", "addr:housenumber": "620", "addr:street": "8th Avenue", "check_date": "2025-10-27", "name": "Datadog", "office": "it", "phone": "+1-866-329-4466", "website": "https://www.datadoghq.com/"}}, {"type": "way", "id": 22727025, "nodes": [243775506, 6593121543, 6605262906, 6593122247, 243775508, 9590209941, 243775509, 6605262902, 243775506], "tags": {"addr:city": "New York", "addr:full": "Between 40th and 42nd Streets at 6th Avenue", "addr:postcode": "10018", "addr:state": "NY", "check_date:opening_hours": "2021-11-16", "ele": "20", "gnis:feature_id": "2083160", "heritage": "2", "heritage:operator": "nrhp", "leisure": "park", "lpc:inscription_date": "1974-11-12", "name": "Bryant Park", "name:etymology:wikidata": "Q454840", "name:ja": "\u30d6\u30e9\u30a4\u30a2\u30f3\u30c8\u30d1\u30fc\u30af", "name:ko": "\ube0c\ub77c\uc774\uc5b8\ud2b8 \uacf5\uc6d0", "name:ru": "\u0411\u0440\u0430\u0439\u0430\u043d\u0442-\u043f\u0430\u0440\u043a", "name:tr": "Bryant Park", "nrhp:inscription_date": "1966-10-15", "old_name": "Reservoir Square", "opening_hours": "Mo-Su 07:00-23:00", "operator": "Bryant Park Corporation", "ref:lpc": "0879", "ref:nrhp": "66000547", "tourism": "attraction", "website": "https://bryantpark.org/", "wheelchair": "yes", "wikidata": "Q995174", "wikipedia": "en:Bryant Park"}}, {"type": "way", "id": 218327131, "nodes": [2275780476, 8751484437, 8751484434, 8751484541, 8751484544, 8751484531, 8751484534, 2275780483, 8751484447, 4544917700, 1000793351, 1512037938, 8751484548, 8751484545, 8751484439, 8751484440, 1512037943, 1000793325, 8751484587, 4544917701, 8751484419, 6237327830, 2275780476], "tags": {"access": "yes", "addr:city": "New York", "addr:state": "NY", "leisure": "park", "lit": "yes", "name": "Verizon Plaza", "operator": "Callahan Capital Properties", "surface": "paving_stones"}}, {"type": "way", "id": 266170540, "nodes": [2717545066, 1753098052, 2717545159, 2717545281, 2717545262, 2717545216, 2717545203, 2717545193, 2717545182, 2717545066], "tags": {"addr:city": "New York", "addr:housenumber": "121", "addr:postcode": "10036", "addr:state": "NY", "addr:street": "West 45th Street", "amenity": "pub", "building": "yes", "building:colour": "#2C2428", "building:levels": "3", "check_date": "2024-10-10", "height": "12.5", "name": "Connolly's", "nycdoitt:bin": "1022638", "official_name": "Connolly's Pub & Restaurant", "roof:material": "concrete", "roof:shape": "flat", "website": "https://www.connollyspubandrestaurant.com/"}}, {"type": "way", "id": 266170760, "nodes": [2717545159, 1753098061, 2717545186, 2717545189, 2717545295, 2717545281, 2717545159], "tags": {"addr:city": "New York", "addr:housenumber": "123", "addr:postcode": "10036", "addr:state": "NY", "addr:street": "West 45th Street", "amenity": "pub", "building": "yes", "building:colour": "#CDC7AF", "building:levels": "5", "check_date": "2024-10-10", "height": "16.6", "name": "Perfect Pint", "nycdoitt:bin": "1022657", "official_name": "The Perfect Pint", "roof:material": "concrete", "roof:shape": "flat", "website": "https://www.theperfectpintnyc.com/"}}, {"type": "way", "id": 591988954, "nodes": [5651034225, 5651034221, 5651033420, 5651033403, 5651034226, 5651034225], "tags": {"addr:housenumber": "234", "addr:postcode": "10036", "addr:state": "NY", "addr:street": "West 42nd Street", "amenity": "restaurant", "brand": "Dave & Buster's", "brand:wikidata": "Q5228205", "cuisine": "american", "leisure": "amusement_arcade", "name": "Dave & Buster's", "opening_hours": "Mo-Th 10:00-01:00, Fr-Sa 10:00-02:00, Su 10:00-24:00", "phone": "+1-646-495-2015", "website": "https://www.daveandbusters.com/locations/new-york-city-times-square"}}, {"type": "way", "id": 591988959, "nodes": [5651034226, 5651034225, 5651034224, 5651034223, 5651034222, 5651034226], "tags": {"addr:housenumber": "234", "addr:postcode": "10036", "addr:state": "NY", "addr:street": "West 42nd Street", "amenity": "restaurant", "brand": "Applebee's Neighborhood Grill & Bar", "brand:wikidata": "Q621532", "cuisine": "american", "name": "Applebee's", "official_name": "Applebee's Neighborhood Grill & Bar", "opening_hours": "Su-We 07:00-01:00; Th-Fr 07:00-02:00", "phone": "+1-212-391-7414", "website": "https://restaurants.applebees.com/en-us/ny/new-york/234-w.-42nd-st.-95017", "website:menu": "https://www.applebees.com/en/menu?StoreNumber=95017&action=viewmenu"}}, {"type": "way", "id": 702073570, "nodes": [6593121524, 6593121097, 6593121096, 6593123410, 6593121524], "tags": {"amenity": "cafe"}}, {"type": "way", "id": 702073749, "nodes": [6593122562, 6593122560, 6593122561, 6593122559, 6593122562], "tags": {"addr:housenumber": "41", "addr:postcode": "10018", "addr:street": "West 40th Street", "amenity": "restaurant", "bar": "yes", "building": "yes", "check_date": "2023-01-21", "cuisine": "american", "diet:local": "yes", "name": "LOR Porch at Bryant Park", "opening_hours": "Mo-Su 11:00-22:00", "outdoor_seating": "yes", "payment:cash": "yes", "payment:contactless": "yes", "payment:credit_cards": "yes", "payment:debit_cards": "yes", "phone": "+1 212-840-0324", "website": "https://lorporchatbryantpark.com/"}}]}