{"version": 0.6, "generator": "Overpass API 0.7.62.8 e802775f", "osm3s": {"timestamp_osm_base": "2025-12-01T03:49:55Z", "copyright": "The data included in this document is from www.openstreetmap.org. The data is made available under ODbL."}, "elements": [{"type": "node", "id": 357621684, "lat": 40.7751127, "lon": -73.9618052, "tags": {"addr:city": "New York", "addr:housenumber": "60", "addr:postcode": "10075", "addr:state": "NY", "addr:street": "East 78th Street", "amenity": "school", "denomination": "orthodox", "ele": "22", "email": "us@ramaz.org", "gnis:feature_id": "2083999", "name": "Ramaz Upper School", "operator": "Ramaz", "phone": "+1 212-774-8070", "religion": "jewish", "website": "https://www.ramaz.org/"}}, {"type": "node", "id": 2723782890, "lat": 40.771213, "lon": -73.9563888, "tags": {"addr:housenumber": "1454", "addr:postcode": "10021", "addr:street": "2nd Avenue", "amenity": "bar", "check_date": "2024-09-01", "cocktails": "yes", "contact:facebook": "https://www.facebook.com/thestumbleinn", "contact:instagram": "https://www.instagram.com/thestumbleinnnyc/", "cuisine": "american", "drink:beer": "draught;bottled", "email": "thestumbleinn@nycbestbars.com", "happy_hours": "12:00-19:00", "name": "Stumble Inn", "opening_hours": "11:30-04:00", "operator": "NYC Best Bars", "phone": "+1 212-650-0561", "website": "http://thestumbleinn.eatdrinkandbemerry.com/"}}, {"type": "node", "id": 2723825029, "lat": 40.7722902, "lon": -73.9589738, "tags": {"addr:housenumber": "1328", "addr:postcode": "10021", "addr:street": "3rd Avenue", "amenity": "restaurant", "cuisine": "chinese", "delivery": "yes", "diet:vegetarian": "yes", "name": "Tang's Garden", "opening_hours": "Su-Th 11:00-21:30; Fr-Sa 11:00-22:00", "phone": "+1 212-249-2102", "takeaway": "yes", "website": "https://www.tangtangnyc.com/"}}, {"type": "node", "id": 2723920630, "lat": 40.7715139, "lon": -73.9624218, "tags": {"addr:city": "New York", "addr:country": "US", "addr:housenumber": "113", "addr:postcode": "10021", "addr:state": "NY", "addr:street": "East 73rd Street", "name": "New York Carpet Cleaning", "office": "company"}}, {"type": "node", "id": 2723953331, "lat": 40.7742485, "lon": -73.9629901, "tags": {"addr:housenumber": "35", "addr:postcode": "10021", "addr:street": "East 76th Street", "amenity": "cafe", "name": "Caf\u00e9 Carlyle", "tourism": "yes", "website": "https://www.rosewoodhotels.com/en/the-carlyle-new-york/dining/cafe-carlyle", "wikidata": "Q5043145"}}, {"type": "node", "id": 2723958312, "lat": 40.7762227, "lon": -73.9628737}, {"type": "node", "id": 2723958326, "lat": 40.7762605, "lon": -73.9629646}, {"type": "node", "id": 2723958361, "lat": 40.7764228, "lon": -73.9627296}, {"type": "node", "id": 2723958365, "lat": 40.7764606, "lon": -73.9628205}, {"type": "node", "id": 2723963877, "lat": 40.7731405, "lon": -73.9583584, "tags": {"addr:housenumber": "1356", "addr:postcode": "10075", "addr:street": "3rd Avenue", "branch": "NYC Upper East Side", "brand": "Fidelity Investments", "brand:wikidata": "Q1411292", "check_date": "2024-03-13", "level": "0;1", "name": "Fidelity Investments", "office": "financial_advisor", "opening_hours": "Mo-Fr 08:30-17:00", "phone": "+1 800-237-8834", "short_name": "Fidelity", "website": "https://www.fidelity.com/branches/investor-center-upper-east-side-nyc-new-york-10075"}}, {"type": "node", "id": 2723965261, "lat": 40.7737711, "lon": -73.9578856, "tags": {"addr:housenumber": "1374", "addr:postcode": "10075", "addr:street": "3rd Avenue", "amenity": "cafe", "branch": "Upper East Side", "cuisine": "pastry;sandwich", "drink:coffee": "yes", "drink:tea": "yes", "name": "Harbs", "opening_hours": "Mo-Su 11:00-21:00, Fr-Sa 11:00-22:00", "operator": "Shigemitsu New York", "phone": "+1 646-896-1511", "website": "https://www.harbsnyc.com"}}, {"type": "node", "id": 2723968634, "lat": 40.7723105, "lon": -73.9576838}, {"type": "node", "id": 2723968656, "lat": 40.7723704, "lon": -73.95764}, {"type": "node", "id": 2723968662, "lat": 40.7723883, "lon": -73.9578679}, {"type": "node", "id": 2723968678, "lat": 40.7724211, "lon": -73.9578439}, {"type": "node", "id": 2723968686, "lat": 40.7724365, "lon": -73.9575916}, {"type": "node", "id": 2723968693, "lat": 40.772455, "lon": -73.9576354}, {"type": "node", "id": 2723968700, "lat": 40.7724739, "lon": -73.9577458}, {"type": "node", "id": 2723968706, "lat": 40.7724844, "lon": -73.9575567}, {"type": "node", "id": 2723968711, "lat": 40.7724931, "lon": -73.9577912}, {"type": "node", "id": 2723968716, "lat": 40.7725029, "lon": -73.9576004}, {"type": "node", "id": 2723968734, "lat": 40.772543, "lon": -73.9576953}, {"type": "node", "id": 2723968740, "lat": 40.772556, "lon": -73.9575043}, {"type": "node", "id": 2723968743, "lat": 40.7725622, "lon": -73.9577408}, {"type": "node", "id": 2723968768, "lat": 40.7726338, "lon": -73.9576885}, {"type": "node", "id": 2724189347, "lat": 40.7749423, "lon": -73.957062, "tags": {"addr:housenumber": "1406", "addr:postcode": "10075", "addr:street": "3rd Avenue", "amenity": "restaurant", "check_date": "2024-09-01", "cuisine": "sushi", "delivery": "yes", "level": "0", "name": "Amber", "opening_hours": "12:00-22:00", "phone": "+1 212-249-5020", "reservation": "https://www.yelp.com/reservations/amber-new-york-36?from_reserve_now=1", "takeaway": "yes", "website": "https://www.ambernewyork.com/"}}, {"type": "node", "id": 3341829009, "lat": 40.7736696, "lon": -73.9596624, "tags": {"addr:city": "New York", "addr:housenumber": "1101", "addr:postcode": "10075", "addr:street": "Lexington Avenue", "amenity": "cafe", "check_date": "2024-03-13", "cuisine": "bagel;sandwich", "delivery": "yes", "name": "Pick-A-Bagel", "phone": "+1 212-517-6590", "website": "https://www.pickabagelnyc.net/", "wheelchair": "yes"}}, {"type": "node", "id": 3448866514, "lat": 40.771073, "lon": -73.9593705, "tags": {"addr:housenumber": "1291", "addr:postcode": "10021", "addr:street": "3rd Avenue", "amenity": "pub", "check_date": "2024-06-16", "cocktails": "yes", "cuisine": "american;burger", "drink:beer": "yes", "drink:wine": "yes", "name": "J.G. Melon", "opening_hours": "Mo-We 11:30-03:00; Th-Sa 11:30-04:00; Su 11:30-01:00", "payment:cash": "only", "phone": "+1 212-744-0585", "toilets:wheelchair": "no", "website": "https://jgmelon-nyc.com", "wheelchair": "limited", "wikidata": "Q6104078", "wikipedia": "en:J.G. Melon"}}, {"type": "node", "id": 3792073193, "lat": 40.7711856, "lon": -73.9568688, "tags": {"addr:city": "New York", "addr:housenumber": "1449", "addr:postcode": "10021", "addr:state": "NY", "addr:street": "Second Avenue", "amenity": "cafe", "branch": "Pickup - 76th & Second", "brand": "Starbucks", "brand:wikidata": "Q37158", "check_date": "2024-09-01", "cuisine": "coffee_shop", "name": "Starbucks", "official_name": "Starbucks Coffee", "phone": "+1 212-472-0653", "ref": "15674", "takeaway": "yes", "website": "https://www.starbucks.com/store-locator/store/15674/pickup-76th-second-1449-second-avenue-new-york-ny-100212904-us"}}, {"type": "node", "id": 4346186291, "lat": 40.7753842, "lon": -73.9567313, "tags": {"addr:housenumber": "1420", "addr:postcode": "10028", "addr:street": "3rd Avenue", "amenity": "restaurant", "check_date": "2024-09-01", "contact:email": "pigheavenny@gmail.com", "contact:facebook": "pigheavennyc", "contact:instagram": "pigheavennyc", "cuisine": "chinese", "delivery": "yes", "happy_hours": "Mo-Fr 16:00-19:00", "name": "Pig Heaven", "opening_hours": "12:00-22:00", "phone": "+1 212-744-4333", "reservation": "yes", "takeaway": "yes", "website": "https://pigheavennyc.com/"}}, {"type": "node", "id": 4657293694, "lat": 40.7742739, "lon": -73.9598549, "tags": {"addr:postcode": "10075-0381", "amenity": "school", "name": "Allen-Stevenson School", "phone": "+1 212-288-6710", "website": "https://www.allen-stevenson.org/", "wikidata": "Q4731484"}}, {"type": "node", "id": 4776954938, "lat": 40.7761311, "lon": -73.9624593, "tags": {"amenity": "restaurant", "cuisine": "italian", "delivery": "yes", "name": "Serafina Fabulous Pizza", "opening_hours": "11:30-23:30", "phone": "+1 212 734 2676", "website": "http://fabulouspizza.serafinarestaurant.com/"}}, {"type": "node", "id": 4822836522, "lat": 40.7742561, "lon": -73.962989, "tags": {"addr:housenumber": "35", "addr:postcode": "10021", "addr:street": "East 76th Street", "amenity": "bar", "cuisine": "bar", "name": "Bemelmans Bar", "name:en": "Bemelmans bar", "opening_hours": "Mo, Su 12:00-00:30; Tu-Th 12:00-01:00; Fr, Sa 12:00-01:30", "opening_hours:kitchen": "17:00-23:30", "phone": "+1 212-744-1600", "website": "https://m.rosewoodhotels.com/en/the-carlyle-new-york/dining/bemelmans-bar"}}, {"type": "node", "id": 5123352621, "lat": 40.7743516, "lon": -73.9591659, "tags": {"addr:housenumber": "1125", "addr:postcode": "10075", "addr:street": "Lexington Avenue", "amenity": "restaurant", "branch": "Upper East Side", "contact:instagram": "therealpastramiqueen", "cuisine": "jewish", "delivery": "yes", "diet:kosher": "only", "fax": "+1 212-734-0835", "level": "0", "name": "Pastrami Queen", "opening_hours": "10:00-21:00", "payment:american_express": "yes", "payment:mastercard": "yes", "payment:visa": "yes", "phone": "+1 212-734-1500", "takeaway": "yes", "toilets": "yes", "website": "https://www.pastramiqueen.com/"}}, {"type": "node", "id": 5852364693, "lat": 40.7718742, "lon": -73.9563636, "tags": {"addr:housenumber": "1475", "addr:postcode": "10075", "addr:street": "2nd Avenue", "amenity": "cafe", "branch": "2nd Ave", "check_date": "2024-09-01", "contact:facebook": "https://www.facebook.com/Pick-A-Bagel-on-2nd-Ave-159512760747772/", "cuisine": "bagel", "delivery": "yes", "name": "Pick-A-Bagel", "opening_hours": "Mo-Su 06:00-23:00", "outdoor_seating": "yes", "phone": "+1 212-717-4668"}}, {"type": "node", "id": 5859940717, "lat": 40.7720548, "lon": -73.9608314, "tags": {"addr:housenumber": "1045", "addr:postcode": "10021", "addr:street": "Lexington Avenue", "amenity": "cafe", "branch": "E 75th & Lexington", "brand": "Joe Coffee Company", "check_date": "2023-12-06", "cuisine": "coffee_shop", "drink:coffee": "yes", "drink:espresso": "yes", "drink:tea": "yes", "name": "Joe Coffee Company", "opening_hours": "Mo-Su 07:00-19:00", "phone": "+1 212-988-2500", "website": "https://joecoffeecompany.com/locations/lexington/"}}, {"type": "node", "id": 5978556693, "lat": 40.7715971, "lon": -73.9611763, "tags": {"addr:housenumber": "1031", "addr:postcode": "10021", "addr:street": "Lexington Avenue", "amenity": "cafe", "check_date": "2024-03-13", "cuisine": "coffee_shop", "level": "0", "name": "Colomba Coffee"}}, {"type": "node", "id": 6125413922, "lat": 40.775402, "lon": -73.9587626, "tags": {"addr:housenumber": "1150", "addr:street": "Lexington Avenue", "amenity": "restaurant", "cuisine": "diner", "delivery": "yes", "name": "Burger One", "opening_hours": "Mo-Fr 06:00-20:00; Sa 07:00-17:00; Su 08:00-17:00", "phone": "+1 212-737-0095"}}, {"type": "node", "id": 6240316485, "lat": 40.7746187, "lon": -73.9572996, "tags": {"addr:city": "New York", "addr:housenumber": "1394", "addr:state": "NY", "addr:street": "3rd Avenue", "amenity": "pub", "check_date": "2024-09-01", "contact:facebook": "lukesbargrill", "contact:instagram": "lukesbargrill", "contact:twitter": "Lukes79thSt", "delivery": "yes", "email": "lukesbargrill@gmail.com", "name": "Luke\u2019s Bar & Grill", "opening_hours": "Mo-Fr 11:30-24:00; Sa, Su 11:00-12:00", "phone": "+1 212-249-7070", "start_date": "1991", "website": "https://lukesbarandgrill.com/"}}, {"type": "node", "id": 6240316486, "lat": 40.7748819, "lon": -73.9571029, "tags": {"addr:housenumber": "1404", "addr:postcode": "10075", "addr:street": "3rd Ave", "amenity": "restaurant", "contact:email": "info@parmanuovanyc.com", "contact:instagram": "parmanuovanyc", "cuisine": "italian", "delivery": "yes", "level": "0", "name": "parma Nuova", "opening_hours": "12:00-15:00; 17:00-22:00", "phone": "+1 212-535-3520", "reservation": "yes", "takeaway": "yes", "website": "https://parmanuovanyc.com/"}}, {"type": "node", "id": 6374756586, "lat": 40.7745987, "lon": -73.9589824, "tags": {"addr:housenumber": "1133", "addr:postcode": "10075", "addr:street": "Lexington Avenue", "amenity": "restaurant", "cuisine": "italian;pizza", "delivery": "yes", "drink:beer": "bottled", "drink:wine": "served", "level": "0", "name": "Don Filippo", "opening_hours": "Mo-Sa 11:00-23:00; Su 11:00-22:00", "phone": "+1 212-744-3610", "start_date": "1980", "takeaway": "yes", "website": "https://www.donfilipporestaurant.com/", "wheelchair": "yes"}}, {"type": "node", "id": 6403172421, "lat": 40.7734593, "lon": -73.9598061, "tags": {"addr:city": "New York", "addr:housenumber": "1095", "addr:postcode": "10075", "addr:state": "NY", "addr:street": "Lexington Avenue", "amenity": "cafe", "branch": "77th St. & Lexington", "brand": "Starbucks", "brand:wikidata": "Q37158", "cuisine": "coffee_shop", "indoor_seating": "yes", "name": "Starbucks", "official_name": "Starbucks Coffee", "outdoor_seating": "no", "phone": "+1 347-658-3047", "ref": "1023211", "takeaway": "yes", "toilets": "yes", "website": "https://www.starbucks.com/store-locator/store/1023211/77th-st-lexington-1095-lexington-ave-new-york-ny-100751804-us", "wheelchair": "yes"}}, {"type": "node", "id": 7041755289, "lat": 40.771859, "lon": -73.9592877, "tags": {"amenity": "cafe", "brand": "Joe & The Juice", "brand:wikidata": "Q26221514", "check_date": "2024-06-16", "cuisine": "coffee_shop", "name": "Joe & The Juice", "takeaway": "yes"}}, {"type": "node", "id": 7055185614, "lat": 40.7725796, "lon": -73.958785, "tags": {"addr:city": "New York", "addr:housenumber": "1332", "addr:postcode": "10021", "addr:state": "NY", "addr:street": "3rd Avenue", "amenity": "restaurant", "branch": "Upper East 76th Street", "check_date": "2024-06-16", "cuisine": "sandwich", "delivery": "yes", "name": "Lenwich", "opening_hours": "08:00-18:00", "phone": "+1 212-288-5288", "takeaway": "yes", "website": "https://www.lenwich.com"}}, {"type": "node", "id": 7098944758, "lat": 40.7715244, "lon": -73.9615969, "tags": {"addr:housenumber": "1032", "addr:postcode": "10021", "addr:street": "Lexington Avenue", "amenity": "restaurant", "check_date": "2024-03-14", "cocktails": "yes", "cuisine": "steak_house", "drink:wine": "served", "level": "0", "name": "BLT Prime", "opening_hours": "Mo-Fr 17:30-22:30; Sa 17:30-23:00; Su 17:00-22:00", "operator": "ESquared Hospitality", "phone": "+1 212-995-8500", "reservation": "yes", "website": "https://bltrestaurants.com/blt-prime/new-york-city/", "wheelchair": "yes"}}, {"type": "node", "id": 7098987894, "lat": 40.7724091, "lon": -73.9605564, "tags": {"addr:housenumber": "1057", "addr:postcode": "10021", "addr:street": "Lexington Avenue", "amenity": "restaurant", "check_date": "2024-03-13", "cocktails": "yes", "contact:facebook": "https://www.facebook.com/Orsayrestaurant", "contact:instagram": "https://www.instagram.com/orsayrestaurant/", "contact:phone": "+1 212 517 6400", "contact:twitter": "https://twitter.com/orsayrestaurant", "contact:website": "https://www.orsayrestaurant.com/", "cuisine": "french", "delivery": "yes", "drink:wine": "served", "name": "Orsay", "opening_hours": "Mo-Fr 12:00-22:30; Sa 11:00-22:30; Su 11:00-21:30", "reservation": "yes", "takeaway": "yes", "wheelchair": "yes"}}, {"type": "node", "id": 7099017456, "lat": 40.7710341, "lon": -73.9619458, "tags": {"addr:housenumber": "1020", "addr:postcode": "10021", "addr:street": "Lexington Avenue", "amenity": "bar", "branch": "Lexington", "check_date": "2024-03-14", "cocktails": "yes", "contact:email": "melodyspianobar@gmail.com", "contact:instagram": "melodyspianobar", "drink:beer": "served", "drink:wine": "served", "level": "0", "name": "Melody's Piano Bar", "opening_hours": "Mo-Th 17:00-02:00; Fr, Sa 17:00-04:00", "phone": "+1 646-559-2808", "website": "https://www.melodyspianobar.com/", "wheelchair": "no"}}, {"type": "node", "id": 7108601966, "lat": 40.7750684, "lon": -73.95648, "tags": {"addr:housenumber": "1413", "addr:postcode": "10028", "addr:street": "3rd Avenue", "air_conditioning": "yes", "amenity": "restaurant", "brand": "Eli Zabar", "check_date": "2024-09-01", "cocktails": "yes", "contact:email": "elistable@elizabar.com", "contact:instagram": "elistable_nyc", "cuisine": "american", "delivery": "yes", "drink:beer": "draught;bottled", "drink:wine": "served", "name": "Eli's Table", "opening_hours": "Tu-Sa 17:30-21:30", "operator": "Eli Zabar", "payment:american_express": "yes", "payment:cash": "yes", "payment:credit_cards": "yes", "payment:debit_cards": "yes", "payment:mastercard": "yes", "payment:visa": "yes", "phone": "+1 212-717-9798", "reservation": "yes", "smoking": "no", "takeaway": "yes", "website": "https://www.elizabar.com/Elis-Table.aspx", "wheelchair": "yes"}}, {"type": "node", "id": 7134303426, "lat": 40.7754041, "lon": -73.9629918, "tags": {"amenity": "restaurant", "name": "Sant Ambroeus"}}, {"type": "node", "id": 7165016688, "lat": 40.7738414, "lon": -73.9595305, "tags": {"amenity": "restaurant", "cuisine": "asian", "name": "Mighty Bowl"}}, {"type": "node", "id": 8333736488, "lat": 40.7738874, "lon": -73.9581318, "tags": {"addr:housenumber": "181", "addr:street": "East 78th Street", "amenity": "restaurant", "cuisine": "japanese;sushi", "delivery": "yes", "drink:sake": "served", "drink:wine": "served", "email": "reservations@sushinoz.com", "instagram": "sushinoznyc", "name": "Sushi Noz", "phone": "+1 917-338-1792", "reservation": "required", "seats": "8", "takeaway": "yes", "website": "https://www.sushinoz.com/"}}, {"type": "node", "id": 8333736489, "lat": 40.773817, "lon": -73.9579582, "tags": {"amenity": "restaurant", "name": "Noz Market"}}, {"type": "node", "id": 8333736490, "lat": 40.7739606, "lon": -73.9578708, "tags": {"addr:housenumber": "1378", "addr:postcode": "10075", "addr:street": "3rd Avenue", "amenity": "restaurant", "contact:facebook": "tridimshanghai", "contact:instagram": "tridimshanghai", "contact:twitter": "tridimshanghai", "cuisine": "chinese;shanghai", "delivery": "yes", "name": "Tri Dim Shanghai", "name:zh": "\u9f0e\u8c50", "opening_hours": "Mo-Fr 11:45-22:00; Sa, Su 12:00-22:00", "phone": "+1 212-585-3388", "reservation": "yes", "takeaway": "yes", "website": "https://tridimshanghai.net/"}}, {"type": "node", "id": 8333736491, "lat": 40.7745082, "lon": -73.9590066, "tags": {"addr:housenumber": "1129", "addr:street": "Lexington Avenue", "amenity": "restaurant", "check_date": "2024-01-29", "contact:email": "info@rtrestaurant.com", "contact:instagram": "rothschildtlv", "cuisine": "mediterranean", "delivery": "yes", "diet:kosher": "only", "name": "Rothschild TLV", "opening_hours": "Mo-Th,Su 12:00-22:30", "phone": "+1 917-341-4169", "reservation": "yes", "reservation:website": "https://resy.com/cities/ny/rothschild-tlv", "takeaway": "yes", "website": "https://rtrestaurant.com/"}}, {"type": "node", "id": 8333736492, "lat": 40.7744055, "lon": -73.9591389, "tags": {"addr:housenumber": "1125", "addr:postcode": "10075", "addr:street": "Lexington Avenue", "amenity": "restaurant", "cuisine": "sandwich;american", "level": "0", "name": "Wrap-N-Run Grill", "phone": "+1 212-744-1588", "website": "https://www.wrapnrungrill.getsauce.com/"}}, {"type": "node", "id": 8333736493, "lat": 40.7744968, "lon": -73.9573847, "tags": {"addr:housenumber": "189", "addr:street": "East 79th Street", "air_conditioning": "yes", "amenity": "restaurant", "bar": "yes", "brand": "Eli Zabar", "brewery": "various", "check_date": "2023-05-10", "cuisine": "american", "delivery": "yes", "drive_through": "no", "email": "nightshift@elizabar.com", "highchair": "yes", "name": "Eli's Night Shift", "opening_hours": "Mo-Fr 16:00-22:00; Sa-Su 14:00-22:00", "operator": "Eli Zabar", "payment:american_express": "yes", "payment:credit_cards": "yes", "payment:debit_cards": "yes", "payment:mastercard": "yes", "payment:visa": "yes", "phone": "+1 212-879-7160", "reservation": "yes", "smoking": "no", "takeaway": "yes", "website": "https://www.elizabar.com/nightshift.aspx", "wheelchair": "yes"}}, {"type": "node", "id": 8333736495, "lat": 40.7746639, "lon": -73.9572619, "tags": {"addr:housenumber": "1396", "addr:postcode": "10075", "addr:street": "3rd Avenue", "amenity": "restaurant", "check_date": "2024-09-01", "cuisine": "italian", "name": "Due", "opening_hours": "12:00-22:00", "phone": "+1 212-772-3331", "reservation": "yes", "start_date": "1985", "website": "https://www.duenyc.com/"}}, {"type": "node", "id": 8333736496, "lat": 40.7753173, "lon": -73.9563154, "tags": {"addr:housenumber": "1427", "addr:postcode": "10028", "addr:street": "3rd Avenue", "amenity": "cafe", "check_date": "2025-04-25", "contact:phone": "+1 646-443-6658", "contact:website": "https://www.modernbreadandbagel.com/", "cuisine": "bagel;pizza;sandwich;salad;pastry", "diet:gluten_free": "only", "diet:kosher": "only", "name": "Modern Bread and Bagel", "takeaway": "only"}}, {"type": "node", "id": 8333736499, "lat": 40.7755873, "lon": -73.9565983, "tags": {"amenity": "restaurant", "check_date": "2024-09-01", "name": "Emmy Squared\u2013Upper East Side"}}, {"type": "node", "id": 8333736500, "lat": 40.7756861, "lon": -73.9567751, "tags": {"addr:housenumber": "170", "addr:street": "East 81st Street", "amenity": "restaurant", "cocktails": "yes", "contact:instagram": "antonuccicafe", "contact:phone": "+1 212-570-5100", "contact:website": "https://antonuccicafe81.com", "cuisine": "italian", "delivery": "16:00-22:00", "drink:wine": "served", "name": "Antonucci Cafe", "opening_hours": "Su, Mo 12:00-22:00; Tu-Sa 12:00-22:30", "reservation": "yes"}}, {"type": "node", "id": 8333736505, "lat": 40.7760832, "lon": -73.9625104, "tags": {"amenity": "restaurant", "name": "Serafina Juice Bar"}}, {"type": "node", "id": 8630492211, "lat": 40.7723547, "lon": -73.9570678, "tags": {"addr:housenumber": "236", "addr:postcode": "10075", "addr:street": "East 77th Street", "amenity": "restaurant", "branch": "236 E 77th St", "check_date": "2024-03-13", "cuisine": "italian", "delivery": "12:00-22:45", "level": "0", "name": "Caffe Buon Gusto", "opening_hours": "12:00-23:00", "phone": "+1 212-535-6884", "takeaway": "yes", "website": "https://www.caffebuongusto.nyc"}}, {"type": "node", "id": 9015394965, "lat": 40.7717248, "lon": -73.9564509, "tags": {"addr:housenumber": "1463", "addr:postcode": "10021", "addr:street": "2nd Avenue", "amenity": "restaurant", "check_date": "2024-09-01", "cocktails": "no", "cuisine": "pizza", "delivery": "yes", "drink:beer": "no", "drink:wine": "no", "fax": "+1 212-988-4222", "name": "Centro Pizza", "opening_hours": "Mo-We, Su 10:00-02:00; Th 10:00-03:00; Fr, Sa 10:00-04:00", "outdoor_seating": "yes", "phone": "+1 212-988-4200", "takeaway": "yes", "website": "http://centropizzanyc.com"}}, {"type": "node", "id": 9015420301, "lat": 40.7711935, "lon": -73.9593206, "tags": {"addr:housenumber": "1295", "addr:postcode": "10021", "addr:street": "3rd Avenue", "amenity": "restaurant", "check_date": "2023-12-12", "cuisine": "italian", "delivery": "yes", "drink:wine": "served", "email": "info@mezzalunanyc.com", "facebook": "mezzalunanyc", "instagram": "mezzalunanyc", "name": "Mezzaluna", "opening_hours": "12:00-22:00", "outdoor_seating": "yes", "phone": "+1 212-535-9600", "start_date": "1984", "takeaway": "yes", "website": "https://mezzalunanyc.com"}}, {"type": "node", "id": 9173102299, "lat": 40.7711285, "lon": -73.9564384, "tags": {"addr:housenumber": "1452", "addr:street": "2nd Avenue", "amenity": "bar", "check_date": "2024-09-01", "cocktails": "yes", "drink:beer": "yes", "drink:wine": "yes", "happy_hours": "13:00-19:00", "name": "Iggy's", "outdoor_seating": "yes"}}, {"type": "node", "id": 9173426747, "lat": 40.77401, "lon": -73.9572092, "tags": {"addr:city": "New York", "addr:housenumber": "200", "addr:postcode": "10075", "addr:state": "NY", "addr:street": "East 79th Street", "branch": "Upper East Side", "brand": "Charles Schwab", "brand:wikidata": "Q1066028", "check_date": "2024-09-01", "name": "Charles Schwab", "office": "financial_advisor", "opening_hours": "Mo-Fr 08:30-17:00", "phone": "+1 212-452-4520", "website": "https://client.schwab.com/public/branchlocator/branchdetails.aspx?branchid=1163"}}, {"type": "node", "id": 9321760830, "lat": 40.7715895, "lon": -73.956552, "tags": {"addr:housenumber": "1465", "addr:street": "2nd Avenue", "amenity": "cafe", "check_date": "2024-09-01", "name": "Ella's Cafe", "outdoor_seating": "yes", "phone": "+1 917-409-0307"}}, {"type": "node", "id": 9480316905, "lat": 40.7709533, "lon": -73.96202, "tags": {"addr:housenumber": "1016", "addr:street": "Lexington Avenue", "amenity": "restaurant", "check_date": "2024-03-14", "cuisine": "ramen;chinese;japanese", "description": "Reopens June 14", "email": "hello@pengsnoodlefolk.com", "name": "Peng's Noodle Folk", "opening_hours": "closed", "phone": "+1 212-348-2878", "takeaway": "yes", "website": "https://www.pengsnoodlefolk.com/"}}, {"type": "node", "id": 9559467211, "lat": 40.7725552, "lon": -73.957013, "tags": {"addr:housenumber": "233", "addr:postcode": "10021", "addr:street": "East 77th Street", "amenity": "restaurant", "check_date": "2024-03-13", "cocktails": "yes", "cuisine": "mexican", "delivery": "yes", "drink:beer": "bottled", "level": "-1", "name": "Sabor A Mexico II", "opening_hours": "Mo-Sa 11:00-23:00; Su 11:00-22:00", "outdoor_seating": "yes", "payment:cash": "yes", "payment:credit_cards": "yes", "phone": "+1 212-439-8301", "takeaway": "yes", "website": "https://www.saboramexicony.com/", "wheelchair": "no"}}, {"type": "node", "id": 9571664618, "lat": 40.7757456, "lon": -73.9569141, "tags": {"addr:housenumber": "1", "addr:postcode": "10028", "addr:street": "East 81st Street", "amenity": "restaurant", "cocktails": "yes", "cuisine": "italian", "drink:wine": "served", "name": "Al Vaporetto", "opening_hours": "17:00-22:00", "phone": "+1 212-570-5100", "reservation": "only", "website": "https://antonuccicafe81.com/pages/al-vaporetto", "wheelchair": "yes"}}, {"type": "node", "id": 10000521613, "lat": 40.7740338, "lon": -73.9597573, "tags": {"addr:city": "New York", "addr:housenumber": "1108", "addr:postcode": "10075", "addr:state": "NY", "addr:street": "Lexington Avenue", "amenity": "restaurant", "check_date": "2024-03-13", "cuisine": "falafel", "diet:vegan": "yes", "level": "0", "name": "Tamam Falafel", "phone": "+12126391818", "website": "https://tamamfalafel.com/", "wheelchair": "yes"}}, {"type": "node", "id": 10755612112, "lat": 40.7755174, "lon": -73.9566349, "tags": {"addr:housenumber": "1424", "addr:postcode": "10028", "addr:street": "3rd Avenue", "amenity": "cafe", "branch": "Upper East Side", "brand": "Maman", "contact:phone": "+1 917-675-7667", "delivery": "yes", "level": "0", "name": "Maman", "opening_hours": "Mo-Fr 07:30-18:00; Sa,Su 08:00-18:00", "opening_hours:kitchen": "Mo-Fr 07:30-16:00; Sa, Su 08:00-16:00", "outdoor_seating": "yes", "takeaway": "yes", "website": "https://mamannyc.com/"}}, {"type": "node", "id": 11085058403, "lat": 40.7741135, "lon": -73.9593294, "tags": {"addr:housenumber": "1121", "addr:postcode": "10075", "addr:street": "Lexington Avenue", "amenity": "cafe", "branch": "Lexington", "contact:facebook": "angelinaparisusa", "contact:instagram": "angelinaparisusa", "cuisine": "pastry;french", "delivery": "yes", "name": "Angelina Paris", "opening_hours": "Mo-Fr 07:00-19:00; Sa, Su 09:00-18:00", "phone": "+1 646-454-1418", "reservation": "no", "takeaway": "yes", "website": "https://angelinaparisusa.com"}}, {"type": "node", "id": 12162695407, "lat": 40.776242, "lon": -73.9623694, "tags": {"amenity": "restaurant", "check_date": "2024-09-07", "cuisine": "sushi", "level": "0", "name": "Tokogawa", "wheelchair": "yes"}}, {"type": "node", "id": 12616615378, "lat": 40.7735516, "lon": -73.9631203, "tags": {"amenity": "school", "mascot": "Hawks", "mascot:name": "Harriet the Hawk", "name": "The Hewitt School"}}, {"type": "node", "id": 13081665240, "lat": 40.7736075, "lon": -73.9595127, "tags": {"addr:city": "New York", "addr:housenumber": "151", "addr:state": "NY", "addr:street": "East 77th Street", "amenity": "cafe", "contact:facebook": "https://www.facebook.com/handcraftcoffeeNYC/", "cuisine": "coffee_shop", "name": "Handcraft Coffee", "phone": "+1-646-922-7025"}}, {"type": "way", "id": 266898950, "nodes": [2723958312, 2723958326, 2723958365, 2723958361, 2723958312], "tags": {"addr:city": "New York", "addr:country": "US", "addr:housenumber": "14", "addr:postcode": "10075", "addr:state": "NY", "addr:street": "East 79th Street", "alt_name": "UN Mission Iraq", "building": "yes", "country": "IQ", "diplomatic": "embassy", "email": "iraq.mission@un.int", "embassy": "mission", "height": "21.4", "name": "Permanent Mission of Iraq to the United Nations", "nycdoitt:bin": "1041888", "office": "diplomatic", "official_name": "Permanent Mission of the Republic of Iraq to the United Nations", "phone": "+1-212-737-4433", "target": "UN"}}, {"type": "way", "id": 266900463, "nodes": [2723968706, 2723968716, 2723968693, 2723968686, 2723968656, 2723968634, 2723968662, 2723968678, 2723968711, 2723968700, 2723968734, 2723968743, 2723968768, 2723968740, 2723968706], "tags": {"addr:city": "New York", "addr:housenumber": "210", "addr:postcode": "10021", "addr:state": "NY", "addr:street": "East 77th Street", "amenity": "school", "building": "yes", "check_date": "2024-03-13", "height": "41.3", "name": "Birch Wathen Lenox School", "nycdoitt:bin": "1044089", "phone": "+1-212-861-0404", "website": "https://www.bwl.org/", "wikidata": "Q4915696", "wikipedia": "en:Birch Wathen Lenox School"}}]}