{"version": 0.6, "generator": "Overpass API 0.7.62.8 e802775f", "osm3s": {"timestamp_osm_base": "2025-12-01T17:37:27Z", "copyright": "The data included in this document is from www.openstreetmap.org. The data is made available under ODbL."}, "elements": [{"type": "node", "id": 122002387, "lat": 40.8341973, "lon": -73.9502983}, {"type": "node", "id": 122002450, "lat": 40.8271388, "lon": -73.9572789}, {"type": "node", "id": 122002459, "lat": 40.8270244, "lon": -73.9569686}, {"type": "node", "id": 122002470, "lat": 40.8279644, "lon": -73.9563188}, {"type": "node", "id": 122002484, "lat": 40.8274618, "lon": -73.9550126}, {"type": "node", "id": 122002504, "lat": 40.8230204, "lon": -73.9581498}, {"type": "node", "id": 122002515, "lat": 40.8236389, "lon": -73.959591}, {"type": "node", "id": 256172186, "lat": 40.8284686, "lon": -73.9540424}, {"type": "node", "id": 256172187, "lat": 40.8278598, "lon": -73.9546149}, {"type": "node", "id": 256172188, "lat": 40.8279332, "lon": -73.9546914}, {"type": "node", "id": 357616326, "lat": 40.8275716, "lon": -73.94688, "tags": {"addr:city": "New York", "addr:housenumber": "511", "addr:postcode": "10031", "addr:state": "NY", "addr:street": "West 148th Street", "denomination": "pentecostal", "ele": "38", "email": "mbi511w@gmail.com", "gnis:feature_id": "2079014", "name": "Manhattan Bible Institute of New York", "nycdoitt:bin": "1062029", "office": "educational_institution", "phone": "+1-646-907-1999", "religion": "christian", "start_date": "1898", "website": "https://www.facebook.com/ManhattanBibleInstitute/"}}, {"type": "node", "id": 1215636737, "lat": 40.8362418, "lon": -73.9496359}, {"type": "node", "id": 1215636768, "lat": 40.836713, "lon": -73.9493197}, {"type": "node", "id": 1215636769, "lat": 40.8367796, "lon": -73.949305}, {"type": "node", "id": 1217455640, "lat": 40.8367744, "lon": -73.9492745}, {"type": "node", "id": 1332843430, "lat": 40.8223103, "lon": -73.9562165}, {"type": "node", "id": 1332843437, "lat": 40.8240953, "lon": -73.9487148}, {"type": "node", "id": 1332843443, "lat": 40.8279324, "lon": -73.951249}, {"type": "node", "id": 1332843445, "lat": 40.8224611, "lon": -73.9568219}, {"type": "node", "id": 1332843457, "lat": 40.8247703, "lon": -73.9548164}, {"type": "node", "id": 1332843458, "lat": 40.8276483, "lon": -73.9534484}, {"type": "node", "id": 1332843461, "lat": 40.8277213, "lon": -73.9513939}, {"type": "node", "id": 1332843463, "lat": 40.8265279, "lon": -73.9526545}, {"type": "node", "id": 1332843475, "lat": 40.8212629, "lon": -73.9574986}, {"type": "node", "id": 1332843490, "lat": 40.823045, "lon": -73.9557766}, {"type": "node", "id": 1332843492, "lat": 40.8323405, "lon": -73.9498489}, {"type": "node", "id": 1332843516, "lat": 40.8245192, "lon": -73.9563337}, {"type": "node", "id": 1332843520, "lat": 40.8304505, "lon": -73.9500311}, {"type": "node", "id": 1332843524, "lat": 40.8227974, "lon": -73.9559161}, {"type": "node", "id": 1332843555, "lat": 40.824231, "lon": -73.9485104}, {"type": "node", "id": 1332843557, "lat": 40.8360751, "lon": -73.9494243}, {"type": "node", "id": 1332843558, "lat": 40.8250707, "lon": -73.9544623}, {"type": "node", "id": 1332843560, "lat": 40.8239828, "lon": -73.9554011}, {"type": "node", "id": 1332843577, "lat": 40.8318128, "lon": -73.9497309}, {"type": "node", "id": 1332843588, "lat": 40.8295689, "lon": -73.9501878}, {"type": "node", "id": 1332843597, "lat": 40.8367612, "lon": -73.9492112}, {"type": "node", "id": 1332843604, "lat": 40.8240684, "lon": -73.9486454}, {"type": "node", "id": 1332843614, "lat": 40.8239143, "lon": -73.956795}, {"type": "node", "id": 1332843621, "lat": 40.8329452, "lon": -73.9503746}, {"type": "node", "id": 1332843633, "lat": 40.8311959, "lon": -73.9498436}, {"type": "node", "id": 1332843671, "lat": 40.8213488, "lon": -73.9576909}, {"type": "node", "id": 1332843681, "lat": 40.8364641, "lon": -73.9493178}, {"type": "node", "id": 1332843695, "lat": 40.825984, "lon": -73.9549934}, {"type": "node", "id": 1332843731, "lat": 40.8243522, "lon": -73.9551812}, {"type": "node", "id": 1332843778, "lat": 40.8344023, "lon": -73.9499401}, {"type": "node", "id": 1332843781, "lat": 40.8291417, "lon": -73.9503891}, {"type": "node", "id": 1332843786, "lat": 40.8253507, "lon": -73.9540654}, {"type": "node", "id": 1332843788, "lat": 40.8315009, "lon": -73.9497623}, {"type": "node", "id": 1332843800, "lat": 40.8258182, "lon": -73.9531902}, {"type": "node", "id": 1332843806, "lat": 40.8272748, "lon": -73.9520108}, {"type": "node", "id": 1332843811, "lat": 40.8228894, "lon": -73.9575912}, {"type": "node", "id": 1332843830, "lat": 40.8249286, "lon": -73.9559697}, {"type": "node", "id": 1332843850, "lat": 40.8328647, "lon": -73.9499554}, {"type": "node", "id": 1332843852, "lat": 40.8275758, "lon": -73.9538929}, {"type": "node", "id": 1332843860, "lat": 40.8276854, "lon": -73.95363}, {"type": "node", "id": 1332843862, "lat": 40.8256105, "lon": -73.9535236}, {"type": "node", "id": 1332843868, "lat": 40.827766, "lon": -73.953781}, {"type": "node", "id": 1332843915, "lat": 40.8219246, "lon": -73.9572518}, {"type": "node", "id": 1332843918, "lat": 40.8235728, "lon": -73.9555835}, {"type": "node", "id": 2041861219, "lat": 40.8282282, "lon": -73.9543076}, {"type": "node", "id": 2041861221, "lat": 40.8363939, "lon": -73.9496122}, {"type": "node", "id": 2041861227, "lat": 40.836134, "lon": -73.9496942}, {"type": "node", "id": 2041861235, "lat": 40.8342732, "lon": -73.9502622}, {"type": "node", "id": 2041861237, "lat": 40.8367005, "lon": -73.9494375}, {"type": "node", "id": 2041861240, "lat": 40.8353686, "lon": -73.9498634}, {"type": "node", "id": 2041861242, "lat": 40.83552, "lon": -73.9497964}, {"type": "node", "id": 2041861243, "lat": 40.8344737, "lon": -73.9501292}, {"type": "node", "id": 2041861249, "lat": 40.8332484, "lon": -73.9509333}, {"type": "node", "id": 2041861254, "lat": 40.835723, "lon": -73.9497435}, {"type": "node", "id": 2041861255, "lat": 40.8366019, "lon": -73.9495611}, {"type": "node", "id": 2041861256, "lat": 40.8343293, "lon": -73.950201}, {"type": "node", "id": 2041861269, "lat": 40.8340907, "lon": -73.9503885}, {"type": "node", "id": 2041861270, "lat": 40.8358606, "lon": -73.9497172}, {"type": "node", "id": 2041861274, "lat": 40.8362023, "lon": -73.9496621}, {"type": "node", "id": 2041861276, "lat": 40.8346029, "lon": -73.9501097}, {"type": "node", "id": 2041861282, "lat": 40.8230954, "lon": -73.9580986}, {"type": "node", "id": 2041861287, "lat": 40.8347812, "lon": -73.95005}, {"type": "node", "id": 2041861289, "lat": 40.8347157, "lon": -73.9500745}, {"type": "node", "id": 2041861298, "lat": 40.8366524, "lon": -73.9495297}, {"type": "node", "id": 2041861303, "lat": 40.8283281, "lon": -73.9542378}, {"type": "node", "id": 2041861305, "lat": 40.8330664, "lon": -73.9510305}, {"type": "node", "id": 2041861306, "lat": 40.8340085, "lon": -73.9504219}, {"type": "node", "id": 2041861310, "lat": 40.8363229, "lon": -73.9496289}, {"type": "node", "id": 2041861314, "lat": 40.8335752, "lon": -73.9507417}, {"type": "node", "id": 2041861316, "lat": 40.8349385, "lon": -73.9499934}, {"type": "node", "id": 2041861318, "lat": 40.8345331, "lon": -73.9501226}, {"type": "node", "id": 2041861321, "lat": 40.8307109, "lon": -73.9525781}, {"type": "node", "id": 2041861322, "lat": 40.8351845, "lon": -73.9499194}, {"type": "node", "id": 2041861323, "lat": 40.8278744, "lon": -73.9545637}, {"type": "node", "id": 2041861324, "lat": 40.8342316, "lon": -73.9502851}, {"type": "node", "id": 2041861326, "lat": 40.8344141, "lon": -73.9501551}, {"type": "node", "id": 2041861329, "lat": 40.8281581, "lon": -73.9543766}, {"type": "node", "id": 2041861334, "lat": 40.836677, "lon": -73.9494956}, {"type": "node", "id": 2041861338, "lat": 40.8293651, "lon": -73.953446}, {"type": "node", "id": 2041861340, "lat": 40.8346597, "lon": -73.9500962}, {"type": "node", "id": 2041861341, "lat": 40.8340434, "lon": -73.9504079}, {"type": "node", "id": 2041861348, "lat": 40.8341664, "lon": -73.9503245}, {"type": "node", "id": 2041861349, "lat": 40.8285984, "lon": -73.9539383}, {"type": "node", "id": 2041861354, "lat": 40.8297426, "lon": -73.9532286}, {"type": "node", "id": 2041861355, "lat": 40.8280194, "lon": -73.9544739}, {"type": "node", "id": 2041861356, "lat": 40.8341332, "lon": -73.9503621}, {"type": "node", "id": 2041861357, "lat": 40.8283938, "lon": -73.9541707}, {"type": "node", "id": 2041861359, "lat": 40.8334107, "lon": -73.9508311}, {"type": "node", "id": 2041861361, "lat": 40.8279188, "lon": -73.9545332}, {"type": "node", "id": 2041861362, "lat": 40.8338989, "lon": -73.9505025}, {"type": "node", "id": 2041861369, "lat": 40.8351465, "lon": -73.9499404}, {"type": "node", "id": 2041861370, "lat": 40.8348415, "lon": -73.9500261}, {"type": "node", "id": 2041861375, "lat": 40.8359766, "lon": -73.9496969}, {"type": "node", "id": 2041861377, "lat": 40.8329458, "lon": -73.9510589}, {"type": "node", "id": 2041861380, "lat": 40.8311318, "lon": -73.9522913}, {"type": "node", "id": 2041861381, "lat": 40.8360895, "lon": -73.9496993}, {"type": "node", "id": 2041861388, "lat": 40.8284971, "lon": -73.9540117}, {"type": "node", "id": 2041861389, "lat": 40.8354478, "lon": -73.9498198}, {"type": "node", "id": 2041861391, "lat": 40.8365662, "lon": -73.9495804}, {"type": "node", "id": 2041861400, "lat": 40.8278884, "lon": -73.9545942}, {"type": "node", "id": 2603955343, "lat": 40.8241234, "lon": -73.9481734, "tags": {"amenity": "restaurant", "cuisine": "ecuadorian", "name": "Ecuatoriana Restaurant"}}, {"type": "node", "id": 2768296947, "lat": 40.8284123, "lon": -73.94869, "tags": {"addr:housenumber": "3600", "addr:postcode": "10031", "addr:street": "Broadway", "amenity": "restaurant", "cuisine": "chinese", "name": "The Handpulled Noodle", "website": "https://www.thehandpullednoodle.com/"}}, {"type": "node", "id": 2768296962, "lat": 40.8286652, "lon": -73.948469, "tags": {"addr:housenumber": "3612", "addr:postcode": "10031", "addr:street": "Broadway", "amenity": "restaurant", "cuisine": "american", "name": "At The Wallace", "website": "https://www.atthewallace.com/"}}, {"type": "node", "id": 2768305932, "lat": 40.8274731, "lon": -73.9493563, "tags": {"addr:city": "New York", "addr:housenumber": "3570;3576", "addr:postcode": "10031", "addr:state": "NY", "addr:street": "Broadway", "amenity": "cafe", "cuisine": "regional", "internet_access": "wlan", "internet_access:fee": "no", "name": "Hamilton's Bakery and Cafe"}}, {"type": "node", "id": 3452345665, "lat": 40.8240742, "lon": -73.9518105, "tags": {"addr:housenumber": "3468", "addr:postcode": "10031", "addr:street": "Broadway", "amenity": "restaurant", "cuisine": "sushi;japanese", "name": "Geisha Sushi", "phone": "+1-212-862-7800"}}, {"type": "node", "id": 4747210026, "lat": 40.8285671, "lon": -73.9485323, "tags": {"addr:city": "New York", "addr:housenumber": "3610", "addr:postcode": "10031", "addr:state": "NY", "addr:street": "Broadway", "amenity": "cafe", "internet_access": "yes", "name": "Chipped Cup Coffee & Victuals", "name:en": "Chipped Cup Coffee & Victuals", "opening_hours": "Su, Sa 08:00-20:00; Mo-Fr 07:00-20:00", "phone": "+1-212-368-8881", "website": "https://chippedcupcoffee.com"}}, {"type": "node", "id": 4928962209, "lat": 40.8259256, "lon": -73.9473575, "tags": {"addr:city": "New York", "addr:housenumber": "500", "addr:state": "NY", "addr:street": "West 146th Street", "amenity": "restaurant", "cuisine": "japanese", "name": "Chopped Parsley"}}, {"type": "node", "id": 4928962210, "lat": 40.8265979, "lon": -73.9470509, "tags": {"addr:city": "New York", "addr:housenumber": "1750", "addr:state": "NY", "addr:street": "Amsterdam Avenue", "amenity": "school", "name": "Hamilton Heights School"}}, {"type": "node", "id": 5281908451, "lat": 40.8257932, "lon": -73.9493394, "tags": {"addr:housenumber": "528", "addr:street": "West 145th Street", "amenity": "restaurant", "name": "Jimbo's Hamburgers"}}, {"type": "node", "id": 6356475285, "lat": 40.828715, "lon": -73.9484416, "tags": {"amenity": "restaurant", "name": "Harlem Public"}}, {"type": "node", "id": 7935055486, "lat": 40.8314728, "lon": -73.9497698}, {"type": "node", "id": 8333828561, "lat": 40.8288048, "lon": -73.9491362, "tags": {"amenity": "restaurant", "name": "Sita Thai"}}, {"type": "node", "id": 8333828570, "lat": 40.8284805, "lon": -73.9486189, "tags": {"addr:city": "New York", "addr:housenumber": "3604", "addr:postcode": "10031", "addr:street": "Broadway", "amenity": "restaurant", "cuisine": "american", "name": "The Honey Well", "website": "https://www.thehoneywellnyc.com/"}}, {"type": "node", "id": 8333828573, "lat": 40.8280217, "lon": -73.9489143, "tags": {"amenity": "restaurant", "cuisine": "pizza", "name": "Jumbos Pizza Coffee Shop", "website": "https://jumbospizzany.com/"}}, {"type": "node", "id": 8333828574, "lat": 40.8275316, "lon": -73.9493119, "tags": {"addr:city": "New York", "addr:housenumber": "3578", "addr:postcode": "10031", "addr:street": "Broadway", "amenity": "restaurant", "name": "Broadway Wholesome Food & Beer Garden"}}, {"type": "node", "id": 8333828575, "lat": 40.8272038, "lon": -73.949673, "tags": {"amenity": "restaurant", "name": "Tacos Azteca Food Truck"}}, {"type": "node", "id": 8333828576, "lat": 40.8276305, "lon": -73.9499637, "tags": {"amenity": "restaurant", "name": "Sing Wah Kitchen"}}, {"type": "node", "id": 8333828577, "lat": 40.8274612, "lon": -73.9502495, "tags": {"amenity": "restaurant", "name": "Mamasushi"}}, {"type": "node", "id": 10106777980, "lat": 40.8252449, "lon": -73.9509886, "tags": {"addr:city": "New York", "addr:housenumber": "3508", "addr:postcode": "10031", "addr:state": "NY", "addr:street": "Broadway", "amenity": "restaurant", "name": "The Chick Inn Harlem", "website": "https://www.nychickinn.com/"}}, {"type": "node", "id": 12952282803, "lat": 40.8284992, "lon": -73.9508271}, {"type": "node", "id": 12952282804, "lat": 40.8288918, "lon": -73.9505557}, {"type": "node", "id": 12952282805, "lat": 40.8293557, "lon": -73.9502751}, {"type": "node", "id": 12952282806, "lat": 40.8298541, "lon": -73.9501178}, {"type": "node", "id": 12952282807, "lat": 40.8302814, "lon": -73.9500698}, {"type": "node", "id": 12952282808, "lat": 40.8307235, "lon": -73.9499269}, {"type": "node", "id": 12952282809, "lat": 40.8309086, "lon": -73.9498325}, {"type": "way", "id": 118524658, "nodes": [1332843604, 1332843437, 1332843555, 1332843604], "tags": {"alt_name": "Johnny Hartman Plaza", "ele": "40", "gnis:feature_id": "2083663", "leisure": "park", "name": "Johnny Hartman Square", "old_name": "Alexander Hamilton Square", "operator": "New York City Department of Parks and Recreation", "operator:short": "NYC Parks", "operator:type": "government", "operator:wikidata": "Q1894232", "source": "Bing", "website": "https://www.nycgovparks.org/parks/johnny-hartman-square", "wikidata": "Q34802348", "wikimedia_commons": "File:Looking_north_on_Hamilton_Place_next_to_Johnny_Hartman_Square.jpg"}}, {"type": "way", "id": 118524675, "nodes": [122002387, 2041861324, 2041861235, 2041861256, 2041861326, 2041861243, 2041861318, 2041861276, 2041861340, 2041861289, 2041861287, 2041861370, 2041861316, 2041861369, 2041861322, 2041861240, 2041861389, 2041861242, 2041861254, 2041861270, 2041861375, 2041861381, 2041861227, 2041861274, 1215636737, 2041861310, 2041861221, 2041861391, 2041861255, 2041861298, 2041861334, 2041861237, 1215636768, 1215636769, 1217455640, 1332843597, 1332843681, 1332843557, 1332843778, 1332843621, 1332843850, 1332843492, 1332843577, 1332843788, 7935055486, 1332843633, 12952282809, 12952282808, 1332843520, 12952282807, 12952282806, 1332843588, 12952282805, 1332843781, 12952282804, 12952282803, 1332843443, 1332843461, 1332843806, 1332843463, 1332843800, 1332843862, 1332843786, 1332843558, 1332843457, 1332843731, 1332843560, 1332843918, 1332843490, 1332843524, 1332843430, 1332843475, 1332843671, 1332843915, 1332843445, 1332843811, 1332843614, 1332843516, 1332843830, 1332843695, 1332843458, 1332843860, 1332843868, 1332843852, 256172187, 2041861323, 2041861361, 2041861355, 2041861329, 2041861219, 2041861303, 2041861357, 256172186, 2041861388, 2041861349, 2041861338, 2041861354, 2041861321, 2041861380, 2041861377, 2041861305, 2041861249, 2041861359, 2041861314, 2041861362, 2041861306, 2041861341, 2041861269, 2041861356, 2041861348, 122002387], "tags": {"leisure": "park", "name": "Riverside Park", "source": "Bing"}}, {"type": "way", "id": 118524694, "nodes": [1332843811, 2041861282, 122002504, 122002515, 122002450, 122002459, 122002470, 122002484, 256172188, 2041861400, 256172187, 1332843852, 1332843868, 1332843860, 1332843458, 1332843695, 1332843830, 1332843516, 1332843614, 1332843811], "tags": {"addr:city": "New York", "addr:housenumber": "679", "addr:postcode": "10031", "addr:state": "NY", "addr:street": "Riverside Drive", "alt_name": "Denny J. Farrell Riverbank State Park", "ele": "2", "gnis:feature_id": "2082742", "layer": "2", "leisure": "park", "level": "4", "name": "Riverbank State Park", "official_name": "Denny Farrell Riverbank State Park", "opening_hours": "sunrise-sunset", "operator": "New York State Office of Parks, Recreation and Historic Preservation", "operator:short": "NYS OPRHP", "operator:type": "public", "operator:wikidata": "Q1706660", "operator:wikipedia": "en:New York State Office of Parks, Recreation and Historic Preservation", "phone": "+1 212-694-3600", "ref": "93", "source": "Bing", "website": "https://parks.ny.gov/parks/riverbank", "wikidata": "Q2724117", "wikipedia": "en:Riverbank State Park"}}]}