{"version": 0.6, "generator": "Overpass API 0.7.62.8 e802775f", "osm3s": {"timestamp_osm_base": "2025-12-01T15:39:43Z", "copyright": "The data included in this document is from www.openstreetmap.org. The data is made available under ODbL."}, "elements": [{"type": "node", "id": 2552880653, "lat": 40.5768425, "lon": -73.9642555, "tags": {"addr:city": "Brooklyn", "addr:housenumber": "290", "addr:postcode": "11235", "addr:state": "NY", "addr:street": "Brighton Beach Avenue", "amenity": "restaurant", "check_date:opening_hours": "2024-04-17", "cuisine": "russian", "delivery": "yes", "highchair": "no", "indoor_seating": "yes", "name": "Oceanview Cafe", "opening_hours": "Mo-Th 10:00-10:00; Fr-Sa 10:00-11:00; Su 10:00-10:00", "outdoor_seating": "parklet", "payment:cash": "yes", "payment:contactless": "yes", "payment:credit_cards": "yes", "payment:debit_cards": "yes", "phone": "+1 718-332-1900", "reservation": "yes", "smoking": "no", "takeaway": "yes", "website": "https://www.oceanviewcafeny.com", "wheelchair": "no"}}, {"type": "node", "id": 2552890772, "lat": 40.5798728, "lon": -73.9599815, "tags": {"addr:city": "Brooklyn", "addr:housenumber": "3120", "addr:postcode": "11235", "addr:state": "NY", "addr:street": "Coney Island Avenue", "air_conditioning": "yes", "amenity": "cafe", "bar": "yes", "check_date": "2025-03-30", "cuisine": "coffee_shop", "delivery": "yes", "drive_through": "no", "highchair": "no", "level": "0", "name": "Totli Cafe", "opening_hours": "Mo-Sa 08:00-23:00; Su 08:00-01:00", "outdoor_seating": "yes", "payment:cash": "yes", "payment:contactless": "yes", "payment:credit_cards": "yes", "payment:debit_cards": "yes", "reservation": "yes", "smoking": "no", "takeaway": "yes", "toilets": "yes", "wheelchair": "yes"}}, {"type": "node", "id": 2552942681, "lat": 40.5782572, "lon": -73.9594472, "tags": {"addr:city": "Brooklyn", "addr:housenumber": "1001", "addr:postcode": "11235", "addr:street": "Brighton Beach Avenue", "air_conditioning": "yes", "amenity": "cafe", "check_date": "2025-04-27", "cuisine": "georgian", "delivery": "yes", "drive_through": "no", "name": "Imereti Cafe & Bakery", "outdoor_seating": "yes", "payment:cash": "yes", "payment:contactless": "yes", "payment:credit_cards": "yes", "payment:debit_cards": "yes", "phone": "+1 929-769-0999", "smoking": "no", "takeaway": "yes", "wheelchair": "yes"}}, {"type": "node", "id": 2715822995, "lat": 40.5796752, "lon": -73.9621338}, {"type": "node", "id": 2715822996, "lat": 40.5798231, "lon": -73.961435}, {"type": "node", "id": 2715822997, "lat": 40.5806647, "lon": -73.9624998}, {"type": "node", "id": 2715822998, "lat": 40.5808126, "lon": -73.9618077}, {"type": "node", "id": 3315132867, "lat": 40.5767835, "lon": -73.9645313, "tags": {"addr:city": "Brooklyn", "addr:housenumber": "282", "addr:postcode": "11235", "addr:state": "NY", "addr:street": "Brighton Beach Avenue", "air_conditioning": "yes", "amenity": "restaurant", "bar": "yes", "check_date": "2024-05-24", "contact:facebook": "https://www.facebook.com/NotaBeneDining", "contact:instagram": "https://www.instagram.com/notabene.dining", "contact:linkedin": "https://www.linkedin.com/company/notabenerestaurant", "contact:twitter": "https://twitter.com/NotaBenDining", "cuisine": "italian;georgian;french", "email": "info@notabene-restaurant.com", "name": "Nora Bene", "opening_hours": "Mo-We,Su 10:00-01:00; Th-Sa 10:00-02:00", "outdoor_seating": "no", "payment:cash": "yes", "payment:contactless": "yes", "payment:credit_cards": "yes", "payment:debit_cards": "yes", "phone": "+1 718-676-0297", "reservation": "yes", "website": "https://notabene-restaurant.com/", "wheelchair": "yes"}}, {"type": "node", "id": 3315216995, "lat": 40.5778792, "lon": -73.9609953, "tags": {"addr:city": "Brooklyn", "addr:housenumber": "615", "addr:postcode": "11235", "addr:state": "NY", "addr:street": "Brighton Beach Avenue", "air_conditioning": "yes", "amenity": "restaurant", "bar": "yes", "check_date": "2025-03-31", "check_date:opening_hours": "2024-04-13", "contact:facebook": "https://www.facebook.com/SkovorodkaNY/", "cuisine": "russian", "delivery": "yes", "name": "Skovorodka", "name:en": "Skovorodka", "name:ru": "\u0421\u043a\u043e\u0432\u043e\u0440\u043e\u0434\u043a\u0430", "opening_hours": "Su-Fr 10:00-22:00; Sa 11:00-23:00", "outdoor_seating": "no", "payment:credit_cards": "yes", "payment:debit_cards": "yes", "phone": "+1-718-615-3096", "reservation": "yes", "smoking": "no", "takeaway": "yes", "toilets": "yes", "wheelchair": "yes"}}, {"type": "node", "id": 3315216998, "lat": 40.5773628, "lon": -73.9612739, "tags": {"addr:city": "Brooklyn", "addr:housenumber": "602", "addr:postcode": "11235", "addr:state": "NY", "addr:street": "Brighton Beach Avenue", "air_conditioning": "yes", "amenity": "cafe", "check_date": "2025-03-31", "check_date:opening_hours": "2024-04-13", "cuisine": "russian;georgian", "delivery": "yes", "highchair": "no", "indoor_seating": "yes", "name": "Euroasia Cafe", "opening_hours:signed": "no", "outdoor_seating": "sidewalk", "payment:credit_cards": "yes", "payment:debit_cards": "yes", "phone": "+1 718-891-0008", "smoking": "no", "takeaway": "yes", "wheelchair": "yes"}}, {"type": "node", "id": 3315227379, "lat": 40.5781545, "lon": -73.9580725}, {"type": "node", "id": 3315227380, "lat": 40.5781325, "lon": -73.9577422}, {"type": "node", "id": 3315227381, "lat": 40.5778863, "lon": -73.9568925}, {"type": "node", "id": 3315227383, "lat": 40.5776608, "lon": -73.9568667}, {"type": "node", "id": 3315227384, "lat": 40.5776808, "lon": -73.9573202}, {"type": "node", "id": 3315227385, "lat": 40.5776693, "lon": -73.9576937}, {"type": "node", "id": 3315227386, "lat": 40.5777961, "lon": -73.957701}, {"type": "node", "id": 3315227387, "lat": 40.5777805, "lon": -73.9580509}, {"type": "node", "id": 3315227388, "lat": 40.5780756, "lon": -73.958087}, {"type": "node", "id": 3315227390, "lat": 40.5777551, "lon": -73.9586496}, {"type": "node", "id": 3315227391, "lat": 40.5777629, "lon": -73.9582969}, {"type": "node", "id": 3315227392, "lat": 40.5781226, "lon": -73.9583793}, {"type": "node", "id": 3382236048, "lat": 40.5749396, "lon": -73.9659285}, {"type": "node", "id": 3382236049, "lat": 40.574949, "lon": -73.9649029}, {"type": "node", "id": 3382236050, "lat": 40.5754518, "lon": -73.9649496}, {"type": "node", "id": 3382236051, "lat": 40.5754359, "lon": -73.9658166}, {"type": "node", "id": 4707285671, "lat": 40.5780569, "lon": -73.9586741}, {"type": "node", "id": 4878970825, "lat": 40.5773, "lon": -73.9621202, "tags": {"addr:city": "Brooklyn", "addr:housenumber": "504", "addr:postcode": "11235", "addr:state": "NY", "addr:street": "Brighton Beach Avenue", "air_conditioning": "yes", "amenity": "restaurant", "check_date": "2024-05-05", "delivery": "yes", "diet:halal": "yes", "name:ru": "\u0414\u043e\u043c\u0430\u0448\u043d\u044f\u044f \u043a\u0443\u0445\u043d\u044f", "outdoor_seating": "no", "payment:cash": "yes", "payment:contactless": "yes", "payment:credit_cards": "yes", "payment:debit_cards": "yes", "phone": "+1 929-339-0505", "takeaway": "yes", "wheelchair": "no"}}, {"type": "node", "id": 5349318381, "lat": 40.5777995, "lon": -73.958266}, {"type": "node", "id": 5937385486, "lat": 40.5752969, "lon": -73.9627591, "tags": {"addr:housenumber": "3145", "addr:postcode": "11235", "addr:street": "Brighton 4th Street", "air_conditioning": "yes", "amenity": "restaurant", "bar": "yes", "check_date": "2025-03-14", "check_date:opening_hours": "2021-03-03", "cuisine": "american", "delivery": "yes", "name": "Breva", "opening_hours": "Mo-Tu off; We-Fr 12:00-22:00; Sa-Su 11:00-22:00", "payment:cash": "yes", "payment:contactless": "yes", "payment:credit_cards": "yes", "payment:debit_cards": "yes", "reservation": "yes", "smoking": "no", "takeaway": "yes", "website": "https://www.brevabrightonbeach.com/location/breva-brighton-beach/", "website:menu": "https://www.brevabrightonbeach.com/menus/", "wheelchair": "yes"}}, {"type": "node", "id": 7979204471, "lat": 40.578069, "lon": -73.9582824}, {"type": "node", "id": 7979204472, "lat": 40.578106, "lon": -73.9583201}, {"type": "node", "id": 8021897550, "lat": 40.5751562, "lon": -73.9616883, "tags": {"addr:city": "Brooklyn", "addr:housenumber": "3152", "addr:postcode": "11235", "addr:street": "Brighton 6th Street", "amenity": "restaurant", "bar": "yes", "check_date": "2024-08-17", "cuisine": "russian", "delivery": "yes", "name": "Tatiana Restaurant", "outdoor_seating": "yes", "payment:cash": "yes", "payment:contactless": "yes", "payment:credit_cards": "yes", "payment:debit_cards": "yes", "reservation": "yes", "takeaway": "yes", "wheelchair": "yes"}}, {"type": "node", "id": 9083056682, "lat": 40.5754503, "lon": -73.9651323}, {"type": "node", "id": 9083056684, "lat": 40.5752653, "lon": -73.9649289}, {"type": "node", "id": 9601671752, "lat": 40.5778339, "lon": -73.9612102, "tags": {"addr:city": "Brooklyn", "addr:housenumber": "607", "addr:postcode": "11235", "addr:state": "NY", "addr:street": "Brighton Beach Avenue", "air_conditioning": "yes", "amenity": "cafe", "branch": "607 Brighton Beach Avenue", "brand": "Starbucks", "brand:wikidata": "Q37158", "check_date": "2025-01-10", "cuisine": "coffee_shop", "delivery": "yes", "drive_through": "no", "internet_access": "wlan", "internet_access:fee": "no", "name": "Starbucks", "official_name": "Starbucks Coffee", "opening_hours": "Mo-Fr 06:00-19:00; Sa-Su 06:00-18:30", "outdoor_seating": "no", "payment:cash": "yes", "payment:contactless": "yes", "payment:credit_cards": "yes", "payment:debit_cards": "yes", "phone": "+1 718-934-3211", "ref": "9148", "smoking": "no", "takeaway": "yes", "website": "https://www.starbucks.com/store-locator/store/9148/607-brighton-beach-ave-607-brighton-beach-avenue-brooklyn-ny-112356405-us", "wheelchair": "yes"}}, {"type": "node", "id": 9703831982, "lat": 40.5784423, "lon": -73.9580391, "tags": {"addr:city": "Brooklyn", "addr:housenumber": "1049", "addr:postcode": "11235", "addr:state": "NY", "addr:street": "Brighton Beach Avenue", "air_conditioning": "yes", "amenity": "restaurant", "changing_table": "no", "cuisine": "pizza", "delivery": "yes", "internet_access": "no", "level": "0", "name": "Luigi's Pizza", "opening_hours": "Mo-Su 10:30-22:00", "outdoor_seating": "no", "payment:cash": "yes", "payment:contactless": "yes", "payment:credit_cards": "yes", "phone": "+1-718-332-1155", "smoking": "no", "takeaway": "yes", "toilets": "no", "website": "https://www.luigisofbrightonbeach.com/", "wheelchair": "yes"}}, {"type": "node", "id": 9755341610, "lat": 40.580414, "lon": -73.96166}, {"type": "node", "id": 9755341611, "lat": 40.5802661, "lon": -73.962352}, {"type": "node", "id": 10726531752, "lat": 40.5772761, "lon": -73.9593992, "tags": {"addr:city": "Brooklyn", "addr:housenumber": "3215", "addr:postcode": "11235", "addr:state": "NY", "addr:street": "Coney Island Avenue", "air_conditioning": "yes", "amenity": "restaurant", "bar": "yes", "check_date": "2025-03-14", "cuisine": "russian;uzbek", "delivery": "yes", "diet:halal": "yes", "email": "info@gosht.com", "highchair": "yes", "name": "Gosht Josper Grill", "opening_hours": "11:00-24:00", "outdoor_seating": "yes", "payment:cash": "yes", "payment:contactless": "yes", "payment:credit_cards": "yes", "payment:debit_cards": "yes", "phone": "+1 718-504-8880", "reservation": "yes", "smoking": "no", "takeaway": "yes", "toilets": "yes", "website": "https://www.gosht.com/", "wheelchair": "yes"}}, {"type": "node", "id": 10740024405, "lat": 40.5781272, "lon": -73.9608476, "tags": {"addr:city": "Brooklyn", "addr:housenumber": "623", "addr:postcode": "11235", "addr:state": "NY", "addr:street": "Brighton Beach Avenue", "addr:unit": "2", "name": "Express Language Solutions", "office": "company", "opening_hours": "Mo-Fr 09:00-18:00; Sa 11:00-15:00", "phone": "+1-718-769-7979", "website": "https://www.elstranslations.com/"}}, {"type": "node", "id": 11845453917, "lat": 40.576897, "lon": -73.9630866, "tags": {"addr:city": "Brooklyn", "addr:housenumber": "3087", "addr:postcode": "11235", "addr:state": "NY", "addr:street": "Brighton 4th Street", "air_conditioning": "yes", "amenity": "pub", "brewery": "yes", "check_date": "2024-04-24", "name": "Oktoberfest", "outdoor_seating": "yes", "payment:cash": "yes", "payment:contactless": "yes", "payment:credit_cards": "yes", "payment:debit_cards": "yes", "phone": "+1 347-492-3222", "wheelchair": "yes"}}, {"type": "node", "id": 11931618254, "lat": 40.5771366, "lon": -73.9628679, "tags": {"addr:housenumber": "410", "addr:postcode": "11235", "addr:street": "Brighton Beach Avenue", "air_conditioning": "yes", "amenity": "restaurant", "bar": "yes", "check_date": "2025-01-18", "delivery": "yes", "name": "Oleandr", "opening_hours": "Mo-Tu off; We-Th,Su 12:00-22:00; Fr-Sa 12:00-24:00", "outdoor_seating": "no", "payment:cash": "yes", "payment:contactless": "yes", "payment:credit_cards": "yes", "payment:debit_cards": "yes", "phone": "+1 718-648-5484", "reservation": "yes", "takeaway": "yes", "wheelchair": "no"}}, {"type": "node", "id": 12117552389, "lat": 40.5751464, "lon": -73.9625633, "tags": {"addr:housenumber": "3145", "addr:postcode": "11235", "addr:street": "Brighton 4th Street", "air_conditioning": "yes", "amenity": "restaurant", "bar": "yes", "check_date": "2025-03-14", "cuisine": "russian;mediterranean", "delivery": "yes", "name": "Tatiana Grill", "opening_hours": "Mo-Fr 10:00-22:00; Sa-Su 10:30-23:00", "outdoor_seating": "yes", "payment:cash": "yes", "payment:contactless": "yes", "payment:credit_cards": "yes", "payment:debit_cards": "yes", "phone": "+1 718-646-4342", "reservation": "yes", "smoking": "no", "takeaway": "yes", "toilets": "yes", "wheelchair": "yes"}}, {"type": "node", "id": 12117625733, "lat": 40.5751974, "lon": -73.9614251, "tags": {"addr:housenumber": "3152", "addr:postcode": "11235", "addr:street": "Brighton 6th Street", "air_conditioning": "yes", "amenity": "bar", "brewery": "yes;various", "check_date": "2025-03-14", "min_age": "21", "name": "Boardwalk Beer Garden", "opening_hours": "Mo-Fr 17:30-01:00; Sa-Su 12:00-01:00", "outdoor_seating": "yes", "payment:cash": "yes", "payment:contactless": "yes", "payment:credit_cards": "yes", "payment:debit_cards": "yes", "phone": "+1 929-205-6408", "smoking": "no", "sport": "basketball;baseball;soccer;american_football;tennis;softball;volleyball;ice_hockey", "website": "https://boardwalkbeergarden.com/", "wheelchair": "yes"}}, {"type": "node", "id": 12117625734, "lat": 40.5752103, "lon": -73.961249, "tags": {"air_conditioning": "yes", "amenity": "restaurant", "bar": "yes", "check_date": "2024-08-17", "delivery": "yes", "name": "Garden Of Joy", "outdoor_seating": "yes", "payment:cash": "yes", "payment:contactless": "yes", "payment:credit_cards": "yes", "payment:debit_cards": "yes", "phone": "+1 917-818-1729", "reservation": "yes", "takeaway": "yes", "toilets": "yes", "wheelchair": "yes"}}, {"type": "node", "id": 12592958416, "lat": 40.5749426, "lon": -73.9654188}, {"type": "node", "id": 12592958422, "lat": 40.5751014, "lon": -73.9649154}, {"type": "node", "id": 12869546134, "lat": 40.5783678, "lon": -73.9586376, "tags": {"addr:housenumber": "1023", "addr:street": "Brighton Beach Avenue", "amenity": "restaurant", "check_date": "2025-05-27", "name": "Brighton Flaming Grill"}}, {"type": "node", "id": 13295131126, "lat": 40.5749435, "lon": -73.9650772}, {"type": "node", "id": 13295131127, "lat": 40.575067, "lon": -73.9649126}, {"type": "node", "id": 13329039603, "lat": 40.5773975, "lon": -73.963227, "tags": {"addr:housenumber": "403", "addr:postcode": "11235", "addr:street": "Brighton Beach Avenue", "air_conditioning": "yes", "amenity": "cafe", "branch": "Brighton Beach", "check_date": "2025-11-24", "cuisine": "coffee_shop", "delivery": "yes", "drive_through": "no", "highchair": "no", "name": "Moka & Co.", "opening_hours": "07:00-21:00", "payment:cash": "yes", "payment:credit_cards": "yes", "payment:debit_cards": "yes", "smoking": "no", "takeaway": "yes", "website": "https://www.mokanco.com/locations/brooklyn-brighton-beach", "wheelchair": "yes"}}, {"type": "way", "id": 265984867, "nodes": [2715822996, 9755341610, 2715822998, 2715822997, 9755341611, 2715822995, 2715822996], "tags": {"addr:city": "Brooklyn", "addr:postcode": "11235", "addr:state": "NY", "addr:street": "Ocean View Avenue", "amenity": "school", "check_date": "2024-06-04", "education": "school", "name": "Public School 253"}}, {"type": "way", "id": 324849968, "nodes": [3315227379, 3315227380, 3315227381, 3315227383, 3315227384, 3315227385, 3315227386, 3315227387, 3315227388, 3315227379], "tags": {"check_date": "2025-04-30", "leisure": "park"}}, {"type": "way", "id": 324849971, "nodes": [4707285671, 3315227390, 3315227391, 5349318381, 7979204471, 7979204472, 3315227392, 4707285671], "tags": {"ADA_acs": "no", "access": "yes", "bin": "no", "drinking_water": "no", "leisure": "park", "lit": "no", "name": "Tilyou Playground", "operator": "New York City Department of Parks and Recreation", "operator:short": "NYC Parks", "operator:type": "government", "operator:wikidata": "Q1894232", "sensory_friendly:accommodation": "yes", "surface": "rubber", "tree_coverage": "yes"}}, {"type": "way", "id": 331161421, "nodes": [3382236048, 12592958416, 13295131126, 3382236049, 13295131127, 12592958422, 9083056684, 3382236050, 9083056682, 3382236051, 3382236048], "tags": {"addr:city": "Brooklyn", "addr:postcode": "11235", "addr:state": "NY", "addr:street": "Brightwater Court", "ele": "3", "gnis:feature_id": "2129377", "leisure": "park", "name": "Brighton Playground", "operator": "New York City Department of Parks and Recreation", "operator:short": "NYC Parks", "operator:type": "government", "operator:wikidata": "Q1894232", "operator:wikipedia": "en:New York City Department of Parks and Recreation", "website": "https://www.nycgovparks.org/parks/brighton-playground", "wikidata": "Q34810847"}}]}