{"version": 0.6, "generator": "Overpass API 0.7.62.8 e802775f", "osm3s": {"timestamp_osm_base": "2025-12-01T17:17:01Z", "copyright": "The data included in this document is from www.openstreetmap.org. The data is made available under ODbL."}, "elements": [{"type": "node", "id": 243775506, "lat": 40.7528464, "lon": -73.9830608}, {"type": "node", "id": 243775508, "lat": 40.7546551, "lon": -73.9839967}, {"type": "node", "id": 243775509, "lat": 40.7535787, "lon": -73.984804}, {"type": "node", "id": 368043739, "lat": 40.7555187, "lon": -73.9819926, "tags": {"addr:city": "New York", "addr:housenumber": "42", "addr:postcode": "10036", "addr:state": "NY", "addr:street": "West 44th Street", "ele": "19", "gnis:feature_id": "2083168", "name": "Association of the Bar of the City of New York", "office": "association", "source": "USGS Geonames", "website": "https://www.nycbar.org/", "wheelchair": "yes", "wikidata": "Q5915627"}}, {"type": "node", "id": 1000793325, "lat": 40.7550015, "lon": -73.9848576}, {"type": "node", "id": 1000793351, "lat": 40.7545246, "lon": -73.9852114}, {"type": "node", "id": 1288901367, "lat": 40.7569746, "lon": -73.981566}, {"type": "node", "id": 1288901370, "lat": 40.7565135, "lon": -73.9818991}, {"type": "node", "id": 1288901371, "lat": 40.7563841, "lon": -73.981585}, {"type": "node", "id": 1288901376, "lat": 40.7567312, "lon": -73.9813326}, {"type": "node", "id": 1426250385, "lat": 40.7566623, "lon": -73.9858678, "tags": {"addr:city": "New York", "addr:housenumber": "1500", "addr:postcode": "10036", "addr:state": "NY", "addr:street": "Broadway", "amenity": "cafe", "branch": "43rd & Broadway", "brand": "Starbucks", "brand:wikidata": "Q37158", "cuisine": "coffee_shop", "internet_access": "wlan", "internet_access:fee": "no", "name": "Starbucks", "official_name": "Starbucks Coffee", "opening_hours": "24/7", "phone": "+1 212-221-7515", "takeaway": "yes", "website": "https://www.starbucks.com/store-locator/store/13918/43rd-broadway-1500-broadway-new-york-ny-100364015-us"}}, {"type": "node", "id": 1426275725, "lat": 40.7566921, "lon": -73.9867194, "tags": {"addr:city": "New York", "addr:housenumber": "3", "addr:street": "Times Square", "amenity": "cafe", "name": "Europa Cafe", "website": "https://www.europacafe.com/"}}, {"type": "node", "id": 1426311638, "lat": 40.7556031, "lon": -73.987571, "tags": {"amenity": "restaurant", "brand": "Red Lobster", "brand:wikidata": "Q846301", "cuisine": "seafood", "name": "Red Lobster"}}, {"type": "node", "id": 1428036328, "lat": 40.7528897, "lon": -73.9811056, "tags": {"amenity": "cafe", "name": "Andaz", "wheelchair": "yes"}}, {"type": "node", "id": 1428036650, "lat": 40.7545385, "lon": -73.9840441, "tags": {"amenity": "cafe", "check_date": "2023-01-21", "name": "Wafels and Dinges", "outdoor_seating": "yes", "payment:american_express": "yes", "payment:cash": "yes", "payment:contactless": "yes", "payment:discover_card": "yes", "payment:mastercard": "yes", "payment:visa": "yes", "wheelchair": "yes"}}, {"type": "node", "id": 1487449793, "lat": 40.7563915, "lon": -73.9854253, "tags": {"addr:city": "New York", "addr:country": "US", "addr:housenumber": "147", "addr:state": "NY", "addr:street": "West 43rd Street", "amenity": "restaurant", "cuisine": "italian", "name": "Tony's", "official_name": "Tony's Di Napoli", "start_date": "1959", "website": "https://www.tonysnyc.com/"}}, {"type": "node", "id": 1512037938, "lat": 40.7545899, "lon": -73.9851629}, {"type": "node", "id": 1512037943, "lat": 40.7549313, "lon": -73.9849097}, {"type": "node", "id": 1706037451, "lat": 40.7555936, "lon": -73.982172, "tags": {"addr:housename": "Royalton Hotel", "addr:housenumber": "44", "addr:street": "West 44th St.", "amenity": "bar", "name": "Forty Four", "website": "https://www.royaltonhotel.com/", "wheelchair": "limited"}}, {"type": "node", "id": 1706038616, "lat": 40.7557338, "lon": -73.9824831, "tags": {"amenity": "cafe", "name": "Gregory Coffee", "wheelchair": "yes"}}, {"type": "node", "id": 1753205377, "lat": 40.756616, "lon": -73.9845926, "tags": {"amenity": "restaurant", "check_date": "2023-09-07", "name": "The Lambs Club", "website": "https://www.thechatwalny.com/The-Lambs-Club/The-Lambs-Club-Restaurant"}}, {"type": "node", "id": 2275780476, "lat": 40.7551069, "lon": -73.9851054}, {"type": "node", "id": 2275780483, "lat": 40.7546299, "lon": -73.985459}, {"type": "node", "id": 2489419027, "lat": 40.7535612, "lon": -73.9858179, "tags": {"addr:city": "New York", "addr:country": "US", "addr:housenumber": "104", "addr:postcode": "10018", "addr:state": "NY", "addr:street": "West 40th Street", "name": "The Verge New York Office", "office": "yes", "operator": "Vox Media", "wikidata": "Q7581168"}}, {"type": "node", "id": 2498992619, "lat": 40.756751, "lon": -73.9813794}, {"type": "node", "id": 2498992620, "lat": 40.7568871, "lon": -73.9812804}, {"type": "node", "id": 2569497878, "lat": 40.7525424, "lon": -73.981445, "tags": {"addr:city": "New York", "addr:housename": "Suite 3100", "addr:housenumber": "489", "addr:postcode": "10017", "addr:street": "5th Avenue", "name": "The Forefront Law Group", "office": "lawyer", "website": "https://www.the-forefront.com/"}}, {"type": "node", "id": 2610440248, "lat": 40.7554443, "lon": -73.987112, "tags": {"addr:city": "New York", "amenity": "restaurant", "cuisine": "mexican", "name": "Pink Taco"}}, {"type": "node", "id": 2611782760, "lat": 40.75555, "lon": -73.9840554, "tags": {"addr:city": "New York", "addr:housenumber": "1101", "addr:postcode": "10036", "addr:state": "NY", "addr:street": "6th Avenue", "amenity": "cafe", "branch": "43rd & Sixth", "brand": "Starbucks", "brand:wikidata": "Q37158", "cuisine": "coffee_shop", "internet_access": "wlan", "internet_access:fee": "no", "name": "Starbucks", "official_name": "Starbucks Coffee", "opening_hours": "Mo-Fr 06:00-21:00; Sa 07:30-19:00; Su 08:00-16:30", "phone": "+1 212-382-3917", "takeaway": "yes", "website": "https://www.starbucks.com/store-locator/store/20501/43rd-sixth-1101-1109-avenue-of-the-americas-new-york-ny-10036", "wheelchair": "yes"}}, {"type": "node", "id": 2709702235, "lat": 40.7541088, "lon": -73.9860614, "tags": {"addr:housenumber": "1440", "addr:street": "Broadway", "amenity": "restaurant", "branch": "Times Square", "cocktails": "yes", "cuisine": "mexican", "delivery": "yes", "drink:beer": "yes", "happy_hours": "Mo-Fr 15:00-18:00", "name": "Mexicue", "opening_hours": "Mo-Fr 11:00-23:00; Sa 12:00-23:00; Su 12:00-21:00", "opening_hours:covid19": "Su, Mo 11:00-21:00; Tu-Th 11:00-22:00; Fr, Sa 11:00-23:00", "phone": "+1 212-302-0385", "takeaway": "yes", "website": "https://www.mexicue.com/location/times-square"}}, {"type": "node", "id": 2709703274, "lat": 40.7514688, "lon": -73.9837048}, {"type": "node", "id": 2709703288, "lat": 40.7515448, "lon": -73.9838849}, {"type": "node", "id": 2709703291, "lat": 40.7515578, "lon": -73.9836399}, {"type": "node", "id": 2709703297, "lat": 40.7515737, "lon": -73.9836283}, {"type": "node", "id": 2709703300, "lat": 40.7515745, "lon": -73.9836795}, {"type": "node", "id": 2709703311, "lat": 40.7515904, "lon": -73.9836679}, {"type": "node", "id": 2709703354, "lat": 40.7516361, "lon": -73.9860101}, {"type": "node", "id": 2709703368, "lat": 40.7516813, "lon": -73.9835499}, {"type": "node", "id": 2709703381, "lat": 40.7517097, "lon": -73.986184}, {"type": "node", "id": 2709703404, "lat": 40.7517559, "lon": -73.9859225}, {"type": "node", "id": 2709703406, "lat": 40.7517573, "lon": -73.98373}, {"type": "node", "id": 2709703408, "lat": 40.7517636, "lon": -73.9859409}, {"type": "node", "id": 2709703417, "lat": 40.7517783, "lon": -73.9859302}, {"type": "node", "id": 2709703445, "lat": 40.7518441, "lon": -73.9860858}, {"type": "node", "id": 2717223348, "lat": 40.7550162, "lon": -73.9880032, "tags": {"addr:housenumber": "560", "addr:postcode": "10018", "addr:street": "7th Avenue", "amenity": "restaurant", "brand:wikidata": "Q6199715", "name": "Margaritaville", "website": "https://www.margaritavilletimessquare.com"}}, {"type": "node", "id": 2717543694, "lat": 40.7542, "lon": -73.9822192}, {"type": "node", "id": 2717543702, "lat": 40.7543018, "lon": -73.9824604}, {"type": "node", "id": 2717543708, "lat": 40.7543305, "lon": -73.982441}, {"type": "node", "id": 2717543739, "lat": 40.7546514, "lon": -73.982206}, {"type": "node", "id": 2717543748, "lat": 40.7546747, "lon": -73.9818757}, {"type": "node", "id": 2717543766, "lat": 40.7547758, "lon": -73.9821173}, {"type": "node", "id": 2717544032, "lat": 40.7559522, "lon": -73.9824888}, {"type": "node", "id": 2717544046, "lat": 40.7559789, "lon": -73.9825516}, {"type": "node", "id": 2717544080, "lat": 40.7560241, "lon": -73.9824362}, {"type": "node", "id": 2717544179, "lat": 40.7560942, "lon": -73.9823853}, {"type": "node", "id": 2717544225, "lat": 40.7561538, "lon": -73.9824241}, {"type": "node", "id": 2717544232, "lat": 40.7561699, "lon": -73.9823302}, {"type": "node", "id": 2717544245, "lat": 40.7561886, "lon": -73.9823166}, {"type": "node", "id": 2717544253, "lat": 40.7562151, "lon": -73.9823796}, {"type": "node", "id": 2717544457, "lat": 40.7565451, "lon": -73.9818763}, {"type": "node", "id": 2717544546, "lat": 40.7566218, "lon": -73.9814121}, {"type": "node", "id": 2954383806, "lat": 40.7542253, "lon": -73.9822007}, {"type": "node", "id": 2954383816, "lat": 40.7543623, "lon": -73.9821016}, {"type": "node", "id": 2954383828, "lat": 40.7545124, "lon": -73.9819939}, {"type": "node", "id": 2954386638, "lat": 40.7545933, "lon": -73.9819342}, {"type": "node", "id": 2954386639, "lat": 40.7546075, "lon": -73.9819239}, {"type": "node", "id": 2954386642, "lat": 40.7546297, "lon": -73.9819076}, {"type": "node", "id": 2954386644, "lat": 40.7546525, "lon": -73.981891}, {"type": "node", "id": 3081362062, "lat": 40.7560001, "lon": -73.9825359}, {"type": "node", "id": 3246839605, "lat": 40.7548801, "lon": -73.9859787, "tags": {"amenity": "restaurant", "name": "Ootoya"}}, {"type": "node", "id": 3501487382, "lat": 40.7518998, "lon": -73.987756, "tags": {"addr:city": "New York", "addr:floor": "5", "addr:postcode": "10018", "addr:state": "NY", "addr:street": "Broadway", "name": "NICE Actimize", "office": "company", "wikidata": "Q4676831", "wikipedia": "en:Actimize"}}, {"type": "node", "id": 3597257541, "lat": 40.7542147, "lon": -73.9840492, "tags": {"amenity": "cafe", "brand": "Le Pain Quotidien", "brand:wikidata": "Q2046903", "check_date": "2024-05-14", "cuisine": "coffee_shop", "diet:vegetarian": "yes", "indoor_seating": "no", "name": "Le Pain Quotidien", "outdoor_seating": "pedestrian_zone", "payment:american_express": "yes", "payment:cash": "yes", "payment:contactless": "yes", "payment:discover_card": "yes", "payment:mastercard": "yes", "payment:visa": "yes", "smoking": "no", "takeaway": "yes", "wheelchair": "yes"}}, {"type": "node", "id": 3759225465, "lat": 40.7555778, "lon": -73.9815595, "tags": {"addr:housenumber": "37", "addr:postcode": "10036", "addr:street": "West 44th Street", "alt_name": "NYYC", "club": "sport", "name": "New York Yacht Club", "office": "yes", "website": "https://nyyc.org/", "wikidata": "Q282897", "wikipedia": "en:New York Yacht Club"}}, {"type": "node", "id": 3821171656, "lat": 40.7536535, "lon": -73.984378, "tags": {"amenity": "cafe", "check_date": "2023-01-21", "cuisine": "burger", "name": "Southwest Porch", "outdoor_seating": "yes", "payment:american_express": "yes", "payment:cash": "yes", "payment:contactless": "yes", "payment:credit_cards": "yes", "payment:discover_card": "yes", "payment:mastercard": "yes", "payment:visa": "yes", "wheelchair": "yes"}}, {"type": "node", "id": 3913367689, "lat": 40.756996, "lon": -73.9815502}, {"type": "node", "id": 3974095815, "lat": 40.7560857, "lon": -73.9846852, "tags": {"addr:city": "New York", "addr:housenumber": "125", "addr:postcode": "10036", "addr:street": "West 43rd Street", "alt_name": "BXL", "amenity": "pub", "cocktails": "yes", "cuisine": "belgian", "drink:beer": "draught", "drink:liquor": "yes", "drink:wine": "yes", "name": "BXL Cafe", "opening_hours": "Mo-Su 10:00-24:00+", "opening_hours:kitchen": "Mo-Su 10:00-23:00", "phone": "+1-212-768-0200", "toilets": "yes", "toilets:unisex": "no", "website": "https://www.bxlrestaurants.com/location/cafe/"}}, {"type": "node", "id": 3974095816, "lat": 40.7567033, "lon": -73.9847548, "tags": {"addr:city": "New York", "addr:country": "US", "addr:housenumber": "140", "addr:postcode": "10036", "addr:state": "NY", "addr:street": "West 44th Street", "amenity": "pub", "name": "Jimmy's Corner", "website": "https://nymag.com/listings/bar/jimmys_corner/"}}, {"type": "node", "id": 4198113799, "lat": 40.7515794, "lon": -73.9858142, "tags": {"addr:city": "New York", "addr:housenumber": "59", "addr:postcode": "10018", "addr:state": "NY", "addr:street": "West 37th Street", "amenity": "restaurant", "contact:instagram": "https://www.instagram.com/cafechina/", "cuisine": "chinese", "name": "Cafe China", "name:zh-Hant": "\u50be\u57ce", "opening_hours": "Su-We 11:30-22:30; Th-Sa 11:30-23:00", "phone": "+12122132810", "smoking": "outside", "takeaway": "yes", "website": "http://www.cafechinanyc.com/"}}, {"type": "node", "id": 4316345593, "lat": 40.7565134, "lon": -73.9857687, "tags": {"addr:housenumber": "155", "addr:postcode": "10036", "addr:street": "West 43rd Street", "air_conditioning": "yes", "amenity": "restaurant", "branch": "Times Square", "cuisine": "diner", "indoor_seating": "yes", "internet_access": "wlan", "name": "Brooklyn Diner", "opening_hours": "Mo, Su 08:00-23:00; Tu-Sa 08:00-24:00", "outdoor_seating": "no", "payment:credit_cards": "yes", "payment:debit_cards": "yes", "phone": "+1 212-265-5400", "smoking": "no", "toilets": "yes", "toilets:wheelchair": "no", "website": "https://www.brooklyndiner.com/location/brooklyn-diner-times-square/", "wheelchair": "limited"}}, {"type": "node", "id": 4394357390, "lat": 40.7532402, "lon": -73.9845838, "tags": {"addr:housenumber": "70", "addr:street": "West 40th Street", "air_conditioning": "yes", "amenity": "cafe", "branch": "Bryant Park", "brand": "Le Pain Quotidien", "brand:wikidata": "Q2046903", "check_date": "2024-07-21", "contact:facebook": "https://www.facebook.com/LePainQuotidienus/", "contact:instagram": "https://www.instagram.com/lepainquotidienus", "cuisine": "coffee_shop", "delivery": "yes", "drive_through": "no", "internet_access": "wlan", "internet_access:fee": "customers", "name": "Le Pain Quotidien", "opening_hours": "Mo-Fr 06:00-21:00; Sa-Su 07:00-21:00", "outdoor_seating": "no", "payment:cash": "yes", "payment:contactless": "yes", "payment:credit_cards": "yes", "payment:debit_cards": "yes", "phone": "+1 212-354-5224", "takeaway": "yes", "website": "https://www.lepainquotidien.com/us/en/locations/127:%20Bryant%20Park/70-W-40th-St", "wheelchair": "yes"}}, {"type": "node", "id": 4418672239, "lat": 40.7538183, "lon": -73.9810974, "tags": {"addr:city": "New York", "addr:housenumber": "500", "addr:postcode": "10110", "addr:state": "NY", "addr:street": "5th Avenue", "description": "Freelance Web Designer", "name": "Don Peterson", "office": "it", "website": "https://newark1.com"}}, {"type": "node", "id": 4447034701, "lat": 40.7568784, "lon": -73.9853179, "tags": {"addr:housenumber": "152", "addr:street": "West 44th Street", "amenity": "restaurant", "diet:vegan": "no", "diet:vegetarian": "yes", "name": "Virgil's Real BBQ", "name:en": "Virgil's Real BBQ"}}, {"type": "node", "id": 4503855910, "lat": 40.7547044, "lon": -73.9828698, "tags": {"addr:city": "New York", "addr:housenumber": "1114", "addr:postcode": "10036", "addr:state": "NY", "addr:street": "6th Avenue", "name": "Bain & Company", "office": "company", "phone": "+16465628000", "website": "http://www.bain.com/offices/newyork/en_us/index.aspx"}}, {"type": "node", "id": 4507025555, "lat": 40.7532049, "lon": -73.9829323, "tags": {"addr:city": "New York", "addr:housenumber": "25", "addr:postcode": "10018", "addr:state": "NY", "addr:street": "West 40th Street", "amenity": "restaurant", "name": "Bryant Park Grill", "opening_hours": "Su-Sa 11:30-22:00", "outdoor_seating": "yes", "phone": "+1 212-840-6500", "reservation": "recommended", "website": "https://bryantparkgrillnyc.com/"}}, {"type": "node", "id": 4544917700, "lat": 40.7545427, "lon": -73.985254}, {"type": "node", "id": 4544917701, "lat": 40.7550222, "lon": -73.9849064}, {"type": "node", "id": 4711391870, "lat": 40.7526386, "lon": -73.9845169, "tags": {"addr:city": "New York", "addr:housenumber": "45", "addr:postcode": "10018", "addr:street": "West 39th Street", "amenity": "cafe", "name": "Mangia Organic", "opening_hours": "Mo-Fr 07:00-20:00", "wheelchair": "yes"}}, {"type": "node", "id": 4760672500, "lat": 40.7545627, "lon": -73.9839414, "tags": {"amenity": "cafe", "delivery": "yes", "name": "Breads Bakery", "outdoor_seating": "yes", "takeaway": "yes", "website": "https://www.breadsbakery.com/location/bp/", "wheelchair": "yes"}}, {"type": "node", "id": 4762031974, "lat": 40.7534774, "lon": -73.9842882, "tags": {"amenity": "cafe", "check_date": "2023-01-21", "cuisine": "coffee", "name": "Joe Coffee Company", "opening_hours": "Mo-Fr 08:00-20:00; Sa,Su 09:00-20:00", "outdoor_seating": "yes", "payment:american_express": "yes", "payment:cash": "yes", "payment:contactless": "yes", "payment:credit_cards": "yes", "payment:discover_card": "yes", "payment:mastercard": "yes", "payment:visa": "yes", "phone": "+1 212-924-7400", "website": "https://joecoffeecompany.com/locations/bryant-park/", "wheelchair": "yes"}}, {"type": "node", "id": 4947760421, "lat": 40.7523558, "lon": -73.9835488, "tags": {"addr:housenumber": "21", "addr:street": "West 39th Street", "amenity": "restaurant", "cuisine": "chinese;tea", "delivery": "yes", "name": "Szechuan Gourmet", "name:en": "Szechuan Gourmet", "opening_hours": "Mo-Fr 11:30-22:00; Sa, Su 12:00-22:00", "payment:cash": "yes", "payment:credit_cards": "yes", "phone": "+1-212-921-0233", "reservation": "yes", "takeaway": "yes", "website": "https://szechuan-gourmet.com/", "wheelchair": "yes"}}, {"type": "node", "id": 5142544476, "lat": 40.7522319, "lon": -73.9841646, "tags": {"amenity": "restaurant", "bar": "yes", "cocktails": "yes", "cuisine": "cuban;chinese", "drink:beer": "yes", "drink:liquor": "yes", "drink:wine": "yes", "happy_hours": "Mo-Su 16:00-19:00", "name": "Calle Dao", "opening_hours": "Mo-We 11:00-23:00; Th-Sa 11:00-24:00; Su 11:00-22:00", "phone": "+1-212-221-9002", "toilets": "yes", "toilets:unisex": "yes", "website": "https://www.calledao.com/bryant-park/", "wheelchair": "yes"}}, {"type": "node", "id": 5213820731, "lat": 40.7552841, "lon": -73.9868258, "tags": {"addr:housenumber": "7", "addr:postcode": "10036", "addr:street": "Times Square", "amenity": "restaurant", "branch": "Times Square", "brand": "The Counter", "brand:wikidata": "Q7727763", "cuisine": "burger", "delivery": "yes", "name": "The Counter", "opening_hours": "Mo-We, Su 11:00-23:00; Th 11:00-24:00; Fr, Sa 11:00-01:00", "phone": "+1 212-997-6801", "takeaway": "yes", "website": "https://www.thecounter.com/stores/times-square/32021"}}, {"type": "node", "id": 5228777785, "lat": 40.7525184, "lon": -73.9860712, "tags": {"amenity": "cafe", "brand": "Tim Hortons", "brand:wikidata": "Q175106", "cuisine": "coffee_shop", "fixme:atp": "no ATP match, check if still exists", "name": "Tim Hortons", "takeaway": "yes"}}, {"type": "node", "id": 5328483492, "lat": 40.7538023, "lon": -73.9851089, "tags": {"amenity": "cafe", "cuisine": "american", "name": "L\u2019Adresse American Bistro", "opening_hours": "Mo-Sa 09:00-21:00; Su 09:00-15:00", "website": "https://ladressenyc.com/"}}, {"type": "node", "id": 5425463232, "lat": 40.7553036, "lon": -73.9869647, "tags": {"addr:housenumber": "141", "addr:street": "West 41st Street", "amenity": "restaurant", "cuisine": "japanese", "name": "Ootoya", "opening_hours": "Mo-Fr 11:30-14:30, 17:30-22:30; Sa, Su 11:30-15:00, 17:30-22:30", "phone": "+1-212-704-0833"}}, {"type": "node", "id": 5576503130, "lat": 40.752335, "lon": -73.9836718, "tags": {"addr:housenumber": "23", "addr:street": "West 39th Street", "amenity": "restaurant", "fax": "+1-212-869-3885", "happy_hours": "Mo-Fr 15:00-19:00", "name": "Windfall Lounge", "opening_hours": "Mo 15:00-23:00; Tu, We 15:00-00:00; Th, Fr 15:00-02:00", "payment:cash": "yes", "payment:credit_cards": "yes", "phone": "+1-212-869-4606", "reservation": "yes", "toilets": "yes", "website": "https://windfallnyc.com/", "wheelchair": "no"}}, {"type": "node", "id": 5578984004, "lat": 40.7530461, "lon": -73.9840983, "tags": {"addr:housenumber": "54", "addr:postcode": "10018", "addr:street": "West 40th Street", "amenity": "cafe", "branch": "Bryant Park", "brand": "Blue Bottle Coffee", "brand:en": "Blue Bottle Coffee", "brand:ja": "\u30d6\u30eb\u30fc\u30dc\u30c8\u30eb\u30b3\u30fc\u30d2\u30fc", "brand:wikidata": "Q4928917", "cuisine": "coffee_shop", "name": "Blue Bottle Coffee", "name:en": "Blue Bottle Coffee", "name:ja": "\u30d6\u30eb\u30fc\u30dc\u30c8\u30eb\u30b3\u30fc\u30d2\u30fc", "opening_hours": "Mo-Fr 06:30-19:00; Sa-Su 07:00-19:00; Jan 01 off; Nov Th[4] off; Dec 25 off", "payment:cash": "yes", "payment:contactless": "yes", "payment:credit_cards": "yes", "phone": "+1-510-653-3394", "takeaway": "yes", "website": "https://bluebottlecoffee.com/cafes/bryant-park"}}, {"type": "node", "id": 5620855721, "lat": 40.755845, "lon": -73.9822708, "tags": {"amenity": "restaurant", "cuisine": "french", "name": "DB Bistro Moderne", "website": "https://www.dbbistro.com/nyc/"}}, {"type": "node", "id": 5771831853, "lat": 40.7524881, "lon": -73.9880033, "tags": {"amenity": "cafe", "brand": "Bluestone Lane", "brand:wikidata": "Q130381059", "check_date": "2024-01-27", "name": "Bluestone Lane", "wheelchair": "no"}}, {"type": "node", "id": 5781268723, "lat": 40.7523763, "lon": -73.9814434, "tags": {"addr:housenumber": "461", "addr:postcode": "10017", "addr:street": "5th Avenue", "amenity": "restaurant", "cuisine": "sushi", "name": "Sushi Ginza Onodera", "opening_hours": "Mo-Fr 12:00-15:00, 18:00-23:00, 09:00-18:00; Sa 18:00-23:00", "phone": "+1 212-390-0925", "reservation": "only", "website": "https://www.sushiginzaonoderanewyork.com"}}, {"type": "node", "id": 5916502085, "lat": 40.7532189, "lon": -73.9842351, "tags": {"office": "ngo"}}, {"type": "node", "id": 6067214134, "lat": 40.7541518, "lon": -73.9861387, "tags": {"addr:housenumber": "1440", "addr:street": "Broadway", "amenity": "cafe", "check_date": "2023-01-07", "name": "Le Caf\u00e9 Coffee", "outdoor_seating": "no", "phone": "+1 212-768-3602"}}, {"type": "node", "id": 6104250725, "lat": 40.7535315, "lon": -73.9874051, "tags": {"addr:housenumber": "1407", "addr:street": "Broadway", "amenity": "cafe", "brand": "Heytea", "brand:en": "Heytea", "brand:wikidata": "Q60875376", "brand:zh": "\u559c\u8336", "cuisine": "bubble_tea", "name": "Heytea", "name:en": "Heytea", "name:zh": "\u559c\u8336", "takeaway": "yes"}}, {"type": "node", "id": 6133822485, "lat": 40.7566505, "lon": -73.9841404, "tags": {"amenity": "cafe", "name": "cafe un deux trois", "wheelchair": "no"}}, {"type": "node", "id": 6237327830, "lat": 40.755078, "lon": -73.9850376}, {"type": "node", "id": 6280452083, "lat": 40.7558996, "lon": -73.9837205, "tags": {"addr:housenumber": "1333", "addr:postcode": "10036", "addr:street": "Avenue of the Americas", "name": "ING Financial Holdings Corporation", "office": "financial", "opening_hours": "Mo-Fr 07:30-18:00", "phone": "+1 646-424-6000", "website": "https://www.ingwb.com/network-offices/americas/united-states-of-america"}}, {"type": "node", "id": 6400825486, "lat": 40.7531767, "lon": -73.987425, "tags": {"addr:postcode": "10018", "amenity": "restaurant", "brand": "Mighty Quinn's", "brand:wikidata": "Q122209813", "cuisine": "barbecue", "name": "Mighty Quinn's", "opening_hours": "Mo-Su 11:00-22:00", "website": "https://www.mightyquinnsbbq.com/", "wheelchair": "yes"}}, {"type": "node", "id": 6501259685, "lat": 40.7568075, "lon": -73.9867028, "tags": {"addr:housenumber": "211", "addr:street": "West 43rd Street", "amenity": "restaurant", "name": "bella vita tranttoria"}}, {"type": "node", "id": 6554084385, "lat": 40.7524576, "lon": -73.9871786, "tags": {"addr:housenumber": "1374", "addr:street": "Broadway", "amenity": "restaurant", "check_date": "2024-01-27", "cuisine": "sandwich", "name": "Mr. Broadway Kosher"}}, {"type": "node", "id": 6566684054, "lat": 40.7531459, "lon": -73.9851227, "tags": {"addr:city": "New York", "addr:housenumber": "1040", "addr:postcode": "10018", "addr:state": "NY", "addr:street": "6th Avenue", "air_conditioning": "yes", "amenity": "cafe", "branch": "6th between 39th and 40th", "brand": "Starbucks", "brand:wikidata": "Q37158", "check_date": "2024-07-21", "cuisine": "coffee_shop", "delivery": "yes", "drive_through": "no", "internet_access": "yes", "internet_access:fee": "no", "name": "Starbucks", "official_name": "Starbucks Coffee", "opening_hours": "Mo-Fr 05:30-21:00; Sa-Su 06:30-20:00", "outdoor_seating": "no", "payment:cash": "yes", "payment:contactless": "yes", "payment:credit_cards": "yes", "payment:debit_cards": "yes", "phone": "+1 212-302-2132", "smoking": "no", "takeaway": "yes", "website": "https://www.starbucks.com/store-locator/store/1014050/6th-between-39th-and-40th-1040-sixth-avenue-new-york-ny-100183703-us", "wheelchair": "yes"}}, {"type": "node", "id": 6593121096, "lat": 40.7534485, "lon": -73.9842789}, {"type": "node", "id": 6593121097, "lat": 40.7534686, "lon": -73.9843269}, {"type": "node", "id": 6593121524, "lat": 40.753506, "lon": -73.9842995}, {"type": "node", "id": 6593121543, "lat": 40.753923, "lon": -73.9822727}, {"type": "node", "id": 6593122247, "lat": 40.7543773, "lon": -73.9833425}, {"type": "node", "id": 6593122559, "lat": 40.7538066, "lon": -73.9843458}, {"type": "node", "id": 6593122560, "lat": 40.7538257, "lon": -73.9842891}, {"type": "node", "id": 6593122561, "lat": 40.7537929, "lon": -73.9843132}, {"type": "node", "id": 6593122562, "lat": 40.7538394, "lon": -73.9843218}, {"type": "node", "id": 6593123410, "lat": 40.7534858, "lon": -73.9842515}, {"type": "node", "id": 6597932385, "lat": 40.7522458, "lon": -73.9853353, "tags": {"amenity": "bar", "name": "refinery rooftop"}}, {"type": "node", "id": 6605262902, "lat": 40.753211, "lon": -73.9839324}, {"type": "node", "id": 6605262906, "lat": 40.7540175, "lon": -73.9824866}, {"type": "node", "id": 6615272823, "lat": 40.756182, "lon": -73.9810387, "tags": {"amenity": "cafe", "name": "Manhattan", "wheelchair": "limited"}}, {"type": "node", "id": 6615272829, "lat": 40.7562438, "lon": -73.9812159, "tags": {"addr:housenumber": "45", "addr:postcode": "10036", "addr:street": "West 45th Street", "amenity": "restaurant", "cocktails": "yes", "contact:instagram": "https://www.instagram.com/valerienewyorkcity/", "cuisine": "american", "drink:beer": "draught", "drink:wine": "yes", "email": "contact@valerienewyorkcity.com", "name": "Valerie", "opening_hours": "11:00-02:00", "opening_hours:covid19": "off", "opening_hours:kitchen": "Mo-Fr 11:00-16:00, 17:00-24:00; Sa, Su 11:00-15:00, 17:00-24:00", "phone": "+1 212-302-4545", "reservation": "yes", "toilets:wheelchair": "no", "website": "https://www.valerienewyorkcity.com/", "wheelchair": "yes"}}, {"type": "node", "id": 6763864286, "lat": 40.7526496, "lon": -73.985124, "tags": {"amenity": "restaurant", "cuisine": "indian", "name": "Curry Dream"}}, {"type": "node", "id": 7047037587, "lat": 40.7548374, "lon": -73.9827653, "tags": {"addr:postcode": "10036", "amenity": "restaurant", "name": "STK Midtown"}}, {"type": "node", "id": 7047049185, "lat": 40.7552396, "lon": -73.9860413, "tags": {"addr:postcode": "10036", "amenity": "bar", "name": "St. Cloud Rooftop Bar", "opening_hours": "Mo-Su 16:00-23:00"}}, {"type": "node", "id": 7047832885, "lat": 40.7519614, "lon": -73.9847937, "tags": {"addr:postcode": "10018", "amenity": "bar", "name": "Spyglass Rooftop"}}, {"type": "node", "id": 7093921948, "lat": 40.7568104, "lon": -73.9811459, "tags": {"amenity": "cafe", "cuisine": "american;latin_american;breakfast", "name": "Caf\u00e9 Cello", "phone": "+1-212-764-8600", "toilets:wheelchair": "no", "wheelchair": "yes"}}, {"type": "node", "id": 7139389687, "lat": 40.7558772, "lon": -73.9850095, "tags": {"amenity": "restaurant", "brand": "Burger & Lobster", "brand:wikidata": "Q113547162", "cuisine": "burger;seafood", "name": "Burger & Lobster", "opening_hours": "Mo 11:30-22:00; Tu-Th, Su 11:30-23:00; Fr, Sa 11:30-24:00"}}, {"type": "node", "id": 7780676529, "lat": 40.752949, "lon": -73.9840106, "tags": {"addr:city": "New York", "addr:housenumber": "50", "addr:postcode": "10018", "addr:state": "NY", "addr:street": "West 40th Street", "amenity": "college", "internet_access": "yes", "name": "Stella and Charles Guttman Community College", "operator": "The City University of New York", "operator:type": "public", "website": "https://guttman.cuny.edu", "wikidata": "Q7006662", "wikipedia": "en:Guttman Community College"}}, {"type": "node", "id": 8062702032, "lat": 40.7527533, "lon": -73.9875518, "tags": {"addr:housenumber": "1385", "addr:postcode": "10018", "addr:street": "Broadway", "alt_name": "AO Bowl", "amenity": "restaurant", "check_date": "2024-01-27", "cuisine": "japanese", "diet:kosher": "yes", "name": "AO Organic Japanese", "opening_hours": "Mo-Th 11:30-20:20; Su 12:00-20:00 \"may be closed certain Jewish or federal holidays\"", "phone": "+1-646-682-9100", "website": "https://www.aobowl.com"}}, {"type": "node", "id": 8281310695, "lat": 40.7524864, "lon": -73.9839015, "tags": {"3d_printing": "habitat", "addr:city": "New York", "addr:housenumber": "25", "addr:postcode": "10018", "addr:state": "NY", "addr:street": "West 39th Street", "aerospace:product": "robot", "email": "contact@aispacefactory.com", "name": "AI SpaceFactory", "office": "company", "robot:type": "spaceflight", "website": "https://www.aispacefactory.com"}}, {"type": "node", "id": 8418834099, "lat": 40.7528591, "lon": -73.9875245, "tags": {"addr:housenumber": "1385", "addr:postcode": "10018", "addr:street": "Broadway", "amenity": "restaurant", "brand": "CAVA", "brand:wikidata": "Q85751038", "check_date": "2024-01-27", "cuisine": "mediterranean", "name": "CAVA", "takeaway": "only"}}, {"type": "node", "id": 8729437331, "lat": 40.7555484, "lon": -73.9853184, "tags": {"addr:city": "New York", "addr:housenumber": "135", "addr:state": "NY", "addr:street": "West 42nd Street", "amenity": "restaurant", "cuisine": "steak_house", "name": "Charlie Palmer Steak"}}, {"type": "node", "id": 8751484419, "lat": 40.7550523, "lon": -73.9849772}, {"type": "node", "id": 8751484434, "lat": 40.7550115, "lon": -73.9851761}, {"type": "node", "id": 8751484437, "lat": 40.7550365, "lon": -73.9851575}, {"type": "node", "id": 8751484439, "lat": 40.7548407, "lon": -73.9849769, "tags": {"covered": "yes", "door": "hinged", "entrance": "yes", "wheelchair": "yes"}}, {"type": "node", "id": 8751484440, "lat": 40.7548493, "lon": -73.9849705, "tags": {"covered": "yes", "door": "revolving", "entrance": "yes", "wheelchair": "no"}}, {"type": "node", "id": 8751484447, "lat": 40.7546196, "lon": -73.9854347}, {"type": "node", "id": 8751484531, "lat": 40.754728, "lon": -73.9853863}, {"type": "node", "id": 8751484534, "lat": 40.7546787, "lon": -73.9854229}, {"type": "node", "id": 8751484541, "lat": 40.7549959, "lon": -73.9851886}, {"type": "node", "id": 8751484544, "lat": 40.7548905, "lon": -73.9852648}, {"type": "node", "id": 8751484545, "lat": 40.7548238, "lon": -73.9849894}, {"type": "node", "id": 8751484548, "lat": 40.7547085, "lon": -73.9850749}, {"type": "node", "id": 8751484587, "lat": 40.7550048, "lon": -73.9848656}, {"type": "node", "id": 8872982362, "lat": 40.7538538, "lon": -73.9868085, "tags": {"addr:housenumber": "1412", "addr:postcode": "10018", "addr:street": "Broadway", "amenity": "cafe", "check_date": "2024-01-27", "level": "0", "name": "Cook", "opening_hours": "Mo-Fr 06:00-22:00; Sa 07:00-17:00", "phone": "+1 212-997-7601"}}, {"type": "node", "id": 8872982376, "lat": 40.7537312, "lon": -73.985779, "tags": {"amenity": "restaurant", "indoor_seating": "yes", "name": "Croton Reservoir Tavern", "outdoor_seating": "no"}}, {"type": "node", "id": 8872982377, "lat": 40.7543258, "lon": -73.9871718, "tags": {"addr:city": "New York", "addr:housenumber": "1411", "addr:postcode": "10018", "addr:state": "NY", "addr:street": "Broadway", "amenity": "cafe", "branch": "40th & Broadway", "brand": "Starbucks", "brand:wikidata": "Q37158", "cuisine": "coffee_shop", "name": "Starbucks", "official_name": "Starbucks Coffee", "phone": "+1 917-675-2766", "ref": "1017641", "takeaway": "yes", "website": "https://www.starbucks.com/store-locator/store/1017641/40th-broadway-1411-broadway-new-york-ny-100183496-us"}}, {"type": "node", "id": 9490966717, "lat": 40.7530188, "lon": -73.9868395, "tags": {"amenity": "restaurant", "name:fr": "Le Paim Quotidien"}}, {"type": "node", "id": 9590209941, "lat": 40.754635, "lon": -73.9840853}, {"type": "node", "id": 10151666949, "lat": 40.755372, "lon": -73.9877527, "tags": {"addr:city": "New York", "addr:housenumber": "200", "addr:postcode": "10036", "addr:state": "NY", "addr:street": "West 41st Street", "amenity": "restaurant", "cuisine": "pizza", "name": "Carnegie Pizza"}}, {"type": "node", "id": 10158132117, "lat": 40.7551463, "lon": -73.9873113, "tags": {"addr:housenumber": "575", "addr:street": "7th Avenue", "alcohol": "yes", "amenity": "restaurant", "brand": "Yard House", "brand:wikidata": "Q21189156", "cuisine": "american", "name": "Yard House"}}, {"type": "node", "id": 10585987700, "lat": 40.7561716, "lon": -73.9827853, "tags": {"addr:city": "New York", "addr:housenumber": "1140", "addr:postcode": "10036", "addr:state": "NY", "addr:street": "6th Avenue", "level": "9", "name": "McMenamin Law Group", "office": "lawyer", "opening_hours": "24/7", "payment:cheque": "yes", "phone": "+1-917-312-8334", "website": "https://mcmenaminlawgroup.com/"}}, {"type": "node", "id": 10616783226, "lat": 40.7518188, "lon": -73.9815906, "tags": {"addr:city": "New York", "addr:housename": "Stavros Niarchos Foundation Library", "addr:housenumber": "455", "addr:postcode": "10018", "addr:state": "NY", "addr:street": "5th Avenue", "amenity": "cafe", "internet_access": "yes", "name": "The Library Caf\u00e9 by Amy's Bread", "opening_hours": "Mo-Sa 10:30-16:30; PH off", "outdoor_seating": "yes", "website": "https://www.nypl.org/about/locations/snfl/cafe"}}, {"type": "node", "id": 10800150639, "lat": 40.7547138, "lon": -73.9855296, "tags": {"addr:city": "New York", "addr:housenumber": "135", "addr:postcode": "10036", "addr:state": "NY", "addr:street": "West 41st Street", "air_conditioning": "yes", "amenity": "restaurant", "branch": "Bryant Park", "delivery": "yes", "name": "Carrot Express", "opening_hours": "Mo-Th 10:00-20:00; Fr 10:00-19:00; Sa-Su 11:00-17:00", "payment:cash": "yes", "payment:contactless": "yes", "payment:credit_cards": "yes", "phone": "+1 646-455-0400", "takeaway": "yes", "website": "https://carrotexpress.com"}}, {"type": "node", "id": 11157794983, "lat": 40.7517217, "lon": -73.987791, "tags": {"addr:city": "New York", "addr:housenumber": "1359", "addr:postcode": "10018", "addr:state": "NY", "addr:street": "Broadway, Suites 106", "amenity": "cafe", "branch": "Pickup - Broadway btwn 36th &", "brand": "Starbucks", "brand:wikidata": "Q37158", "cuisine": "coffee_shop", "name": "Starbucks", "official_name": "Starbucks Coffee", "phone": "+1 929-924-5003", "ref": "1030963", "takeaway": "yes", "website": "https://www.starbucks.com/store-locator/store/1030963/pickup-broadway-btwn-36th-1359-broadway-suites-106-c-04-new-york-ny-10018710"}}, {"type": "node", "id": 11399352959, "lat": 40.754464, "lon": -73.9876603, "tags": {"brand": "H&R Block", "brand:wikidata": "Q5627799", "name": "H&R Block", "office": "tax_advisor"}}, {"type": "node", "id": 11399352960, "lat": 40.7542503, "lon": -73.9878848, "tags": {"amenity": "cafe", "brand": "Gregorys Coffee", "brand:wikidata": "Q28229714", "cuisine": "coffee_shop", "name": "Gregorys Coffee", "note": "lack of apostrophe in name is not a typo"}}, {"type": "node", "id": 11505171169, "lat": 40.7537445, "lon": -73.982553, "tags": {"addr:city": "New York", "addr:postcode": "10018", "addr:state": "NY", "addr:street": "West 42nd Street", "amenity": "cafe", "name": "Bryant Park Caf\u00e9", "opening_hours": "Mo-Su 11:00-23:30", "outdoor_seating": "yes", "phone": "+1-212-840-6500", "website": "https://bryantpark.org/shop-eat/bryant-park-cafe"}}, {"type": "node", "id": 11536106180, "lat": 40.754069, "lon": -73.9849241, "tags": {"addr:city": "New York", "addr:housenumber": "1073", "addr:postcode": "10018", "addr:state": "NY", "addr:street": "6th Avenue", "air_conditioning": "yes", "amenity": "cafe", "cuisine": "coffee_shop", "diet:vegetarian": "yes", "indoor_seating": "yes", "level": "1", "name": "Cafe Zaiya", "note": "inside Kinokuniya bookstore", "opening_hours": "Mo-Sa 11:00-19:00; Su 11:00-18:00", "outdoor_seating": "no", "smoking": "no", "wheelchair": "yes"}}, {"type": "node", "id": 11746463843, "lat": 40.7521719, "lon": -73.9872338, "tags": {"addr:city": "New York", "addr:housenumber": "109", "addr:postcode": "10018", "addr:state": "NY", "addr:street": "West 37th Street", "amenity": "restaurant", "cuisine": "korean", "name": "ONGI", "opening_hours": "Mo-Su 11:00-21:00", "phone": "+16466091738", "website": "https://www.on-gi.com", "website:orders": "https://ongi-863993.square.site/"}}, {"type": "node", "id": 11762033170, "lat": 40.7538905, "lon": -73.9850776, "tags": {"addr:housenumber": "1065", "addr:street": "6th Avenue", "amenity": "cafe", "delivery": "yes", "name": "Zucker's Bagels & Smoked Fish", "opening_hours": "Mo-Su 07:00-16:00", "phone": "+1 212-671-2400", "takeaway": "yes", "website": "https://www.zuckersbagels.com/"}}, {"type": "node", "id": 11827019955, "lat": 40.7518318, "lon": -73.9823981, "tags": {"addr:city": "New York", "addr:housenumber": "442", "addr:postcode": "10018", "addr:state": "NY", "addr:street": "5th Avenue", "addr:unit": "1075", "name": "Reputation Rhino", "office": "advertising_agency", "phone": "+1-888-975-3331", "website": "https://www.reputationrhino.com/"}}, {"type": "node", "id": 11861000618, "lat": 40.7537679, "lon": -73.9858648, "tags": {"air_conditioning": "yes", "amenity": "restaurant", "changing_table": "no", "diet:halal": "no", "diet:kosher": "no", "indoor_seating": "yes", "name": "Handcraft Burgers & Brew", "opening_hours": "Mo-Su 11:30-21:00", "outdoor_seating": "no", "payment:credit_cards": "yes", "payment:debit_cards": "yes", "smoking": "no", "toilets": "yes", "toilets:wheelchair": "limited", "wheelchair": "limited"}}, {"type": "node", "id": 11872565844, "lat": 40.7546757, "lon": -73.9874489, "tags": {"addr:housenumber": "147", "addr:street": "West 40th Street", "amenity": "bar", "name": "The Independent"}}, {"type": "node", "id": 11872590937, "lat": 40.7548345, "lon": -73.9864878, "tags": {"addr:housenumber": "1450", "addr:street": "Broadway", "amenity": "cafe", "brand": "Paris Baguette", "brand:wikidata": "Q62605260", "name": "Paris Baguette", "opening_hours": "Mo, We-Su 06:00-00:00; Tu 07:00-22:00", "phone": "+1 516-595-0404", "shop": "bakery", "website": "https://parisbaguette.com"}}, {"type": "node", "id": 11872704825, "lat": 40.7548664, "lon": -73.985372, "tags": {"addr:housenumber": "126", "addr:street": "West 42nd Street", "amenity": "restaurant", "contact:facebook": "ValbellaAtThePark", "contact:instagram": "valbellaatthepark", "cuisine": "italian", "level": "0;1", "name": "Valbella at the Park", "outdoor_seating": "yes", "website": "https://valbellaatthepark.com/"}}, {"type": "node", "id": 11872851264, "lat": 40.7545541, "lon": -73.9830108, "tags": {"addr:city": "New York", "addr:state": "NY", "addr:street": "West 42nd Street", "amenity": "cafe", "brand": "Joe & The Juice", "brand:wikidata": "Q26221514", "cuisine": "coffee_shop", "name": "Joe & The Juice", "takeaway": "yes", "wheelchair": "yes"}}, {"type": "node", "id": 11884796769, "lat": 40.7520357, "lon": -73.9858812, "tags": {"addr:housenumber": "1012", "addr:street": "6th Avenue", "amenity": "restaurant", "cuisine": "pizza", "name": "Pizza Town"}}, {"type": "node", "id": 11918740847, "lat": 40.7568638, "lon": -73.9852285, "tags": {"amenity": "pub", "name": "O'Donoghue's", "opening_hours": "11:00-24:00; 00:00-04:00", "outdoor_seating": "yes", "website": "https://odpubnyc.com/"}}, {"type": "node", "id": 12045059816, "lat": 40.7540475, "lon": -73.9859163, "tags": {"addr:housenumber": "119", "addr:street": "West 40th Street", "amenity": "restaurant", "cuisine": "japanese", "name": "Glaze", "opening_hours": "Mo-Fr 11:30-21:00; Sa, Su 12:00-21:00"}}, {"type": "node", "id": 12412579864, "lat": 40.756143, "lon": -73.9828175, "tags": {"addr:city": "New York", "addr:housenumber": "1140", "addr:postcode": "10036", "addr:state": "NY", "addr:street": "6th Avenue", "addr:unit": "1035", "description": "Greco Neyland, P.C. is a boutique criminal defense law firm founded by former prosecutors. We have over 50 years of collective experience at Greco Neyland. We have offices in Manhattan as well as in White Plains (Westchester County), New York.", "email": "info@gnlaw.nyc", "name": "Greco Neyland, PC", "office": "lawyer", "opening_hours": "24/7", "phone": "+1 212-951-1300", "website": "https://www.newyorkcriminallawyer.com"}}, {"type": "node", "id": 12516954542, "lat": 40.7524292, "lon": -73.9847258, "tags": {"addr:city": "New York", "addr:housenumber": "54", "addr:state": "NY", "addr:street": "West 39th Street", "amenity": "restaurant", "email": "events@dawson39.com", "level": "0", "name": "The Dawson 39", "website": "https://www.dawson39.com/"}}, {"type": "node", "id": 12516954543, "lat": 40.7537518, "lon": -73.9859292, "tags": {"addr:housenumber": "110", "addr:street": "West 40th Street", "addr:unit": "505", "email": "info@nyys.org", "facebook": "https://www.facebook.com/newyorkyouthsymphony", "level": "4", "name": "New York Youth Symphony", "office": "yes", "phone": "+1-212-581-5933", "website": "nyys.org"}}, {"type": "node", "id": 12548036253, "lat": 40.7516443, "lon": -73.9859621, "tags": {"addr:city": "New York", "addr:housenumber": "63", "addr:postcode": "10018", "addr:state": "NY", "addr:street": "West 37th Street", "amenity": "restaurant", "certification": "diet:kosher", "certification:certifier": "ou kosher", "certification:rating": "ou;ou-m", "cuisine": "burger;sandwich;salad", "diet:kosher": "yes", "name": "Smash House", "opening_hours": "Mo-Th 11:00-23:00; Su 12:30-23:00", "phone": "+1-347-937-6274", "website": "https://www.smashhouseburgers.com/locations/new-york/manhattan-37th-st/"}}, {"type": "node", "id": 12779303802, "lat": 40.7563009, "lon": -73.9820134, "tags": {"addr:floor": "7", "addr:housenumber": "62", "addr:street": "West 45th Street", "country": "RS", "diplomatic": "consulate", "email": "consulate.newyork@mfa.rs", "fax": "+1 212 5964 363", "name": "Consulate General of the Republic of Serbia", "name:en": "Consulate General of the Republic of Serbia", "name:sr": "\u0413\u0435\u043d\u0435\u0440\u0430\u043b\u043d\u0438 \u043a\u043e\u043d\u0437\u0443\u043b\u0430\u0442 \u0420\u0435\u043f\u0443\u0431\u043b\u0438\u043a\u0435 \u0421\u0440\u0431\u0438\u0458\u0435", "name:sr-Latn": "Generalni konzulat Republike Srbije", "office": "diplomatic", "opening_hours": "Mo-Fr 09:00-17:00", "phone": "+1 212 5964 241", "target": "US", "website": "http://www.newyork.mfa.gov.rs"}}, {"type": "node", "id": 12857850351, "lat": 40.7561252, "lon": -73.9848062, "tags": {"addr:city": "New York", "addr:housenumber": "127A", "addr:postcode": "10036", "addr:street": "West 43rd Street", "amenity": "restaurant", "bar": "yes", "cocktails": "yes", "cuisine": "mexican", "drink:beer": "draught", "drink:liquor": "yes", "drink:wine": "yes", "happy_hours": "Mo-Su 16:00-17:30", "name": "Bar Mexicana", "opening_hours": "Mo-Su 11:30-21:00", "phone": "+1-917-914-7037", "website": "https://www.barmexicananyc.com"}}, {"type": "node", "id": 12857850352, "lat": 40.7537971, "lon": -73.9859365, "tags": {"amenity": "restaurant", "branch": "Bryant Park", "cuisine": "chinese", "diet:vegetarian": "yes", "indoor_seating": "yes", "name": "Simply Noodles & Dim Sum", "opening_hours": "Mo-Su 11:00-21:00", "outdoor_seating": "no", "payment:credit_cards": "yes", "phone": "+1-212-884-5818", "takeaway": "yes"}}, {"type": "node", "id": 12898340499, "lat": 40.753645, "lon": -73.9867772, "tags": {"addr:city": "New York", "addr:housenumber": "1412", "addr:postcode": "10018", "addr:state": "NY", "addr:street": "Broadway", "amenity": "bar", "name": "Elsie Rooftop", "opening_hours": "Mo off; Tu-Th 17:00-00:00; Fr 17:00-04:00; Sa 11:00-04:00; Su 11:00-00:00", "phone": "+1-646-834-2291", "website": "https://elsierooftop.com/"}}, {"type": "node", "id": 12908269982, "lat": 40.7520674, "lon": -73.9850554, "tags": {"amenity": "restaurant", "cuisine": "japanese_fusion", "drink:liquor": "yes", "drink:sake": "yes", "drink:wine": "yes", "happy_hours": "Mo-Su 12:15-14:30, 17:15--18:30", "name": "Class on 38th", "opening_hours": "Mo-Su 12:15-14:30, 17:15-21:00", "phone": "+1-929-292-0691", "website": "https://www.classon38th.com"}}, {"type": "node", "id": 12917458454, "lat": 40.7562131, "lon": -73.9811182, "tags": {"amenity": "bar", "check_date": "2025-06-15", "name": "Lolita"}}, {"type": "node", "id": 12917458455, "lat": 40.7567436, "lon": -73.982279, "tags": {"amenity": "cafe", "check_date": "2025-06-15", "cuisine": "coffee_shop", "name": "Ground Central"}}, {"type": "node", "id": 12917521996, "lat": 40.7568873, "lon": -73.98349, "tags": {"amenity": "cafe", "check_date": "2025-06-15", "cuisine": "coffee_shop", "name": "Gumption Coffee"}}, {"type": "node", "id": 13190222586, "lat": 40.7560591, "lon": -73.9845398, "tags": {"addr:city": "New York", "addr:housenumber": "123", "addr:state": "NY", "addr:street": "West 43rd Street", "amenity": "school", "name": "Repertory Company High School for Theatre Arts", "phone": "+1-212-382-1875", "website": "https://www.repertorycompanyhs.org"}}, {"type": "way", "id": 22727025, "nodes": [243775506, 6593121543, 6605262906, 6593122247, 243775508, 9590209941, 243775509, 6605262902, 243775506], "tags": {"addr:city": "New York", "addr:full": "Between 40th and 42nd Streets at 6th Avenue", "addr:postcode": "10018", "addr:state": "NY", "check_date:opening_hours": "2021-11-16", "ele": "20", "gnis:feature_id": "2083160", "heritage": "2", "heritage:operator": "nrhp", "leisure": "park", "lpc:inscription_date": "1974-11-12", "name": "Bryant Park", "name:etymology:wikidata": "Q454840", "name:ja": "\u30d6\u30e9\u30a4\u30a2\u30f3\u30c8\u30d1\u30fc\u30af", "name:ko": "\ube0c\ub77c\uc774\uc5b8\ud2b8 \uacf5\uc6d0", "name:ru": "\u0411\u0440\u0430\u0439\u0430\u043d\u0442-\u043f\u0430\u0440\u043a", "name:tr": "Bryant Park", "nrhp:inscription_date": "1966-10-15", "old_name": "Reservoir Square", "opening_hours": "Mo-Su 07:00-23:00", "operator": "Bryant Park Corporation", "ref:lpc": "0879", "ref:nrhp": "66000547", "tourism": "attraction", "website": "https://bryantpark.org/", "wheelchair": "yes", "wikidata": "Q995174", "wikipedia": "en:Bryant Park"}}, {"type": "way", "id": 113690621, "nodes": [1288901370, 1288901371, 2717544546, 1288901376, 2498992619, 2498992620, 3913367689, 1288901367, 2717544457, 1288901370], "tags": {"leisure": "park", "name": "Marsh & McLennan Public Space", "smoking": "no"}}, {"type": "way", "id": 218327131, "nodes": [2275780476, 8751484437, 8751484434, 8751484541, 8751484544, 8751484531, 8751484534, 2275780483, 8751484447, 4544917700, 1000793351, 1512037938, 8751484548, 8751484545, 8751484439, 8751484440, 1512037943, 1000793325, 8751484587, 4544917701, 8751484419, 6237327830, 2275780476], "tags": {"access": "yes", "addr:city": "New York", "addr:state": "NY", "leisure": "park", "lit": "yes", "name": "Verizon Plaza", "operator": "Callahan Capital Properties", "surface": "paving_stones"}}, {"type": "way", "id": 265301808, "nodes": [2709703297, 2709703311, 2709703300, 2709703291, 2709703274, 2709703288, 2709703406, 2709703368, 2709703297], "tags": {"addr:city": "New York", "addr:country": "US", "addr:housenumber": "15", "addr:postcode": "10018", "addr:state": "NY", "addr:street": "West 38th Street", "building": "yes", "country": "CY", "diplomatic": "embassy", "email": "unmission@mfa.gov.cy", "embassy": "mission", "height": "48.5", "name": "Permanent Mission of Cyprus to the United Nations", "nycdoitt:bin": "1016002", "office": "diplomatic", "phone": "+1-212-481-6023", "target": "UN", "website": "https://www.cyprusun.org/"}}, {"type": "way", "id": 265302122, "nodes": [2709703408, 2709703404, 2709703354, 2709703381, 2709703445, 2709703417, 2709703408], "tags": {"addr:city": "New York", "addr:housenumber": "1000", "addr:postcode": "10018", "addr:state": "NY", "addr:street": "6th Avenue", "addr:unit": "404", "building": "yes", "building:levels": "4", "height": "16.0", "name": "PrimeXchange", "nycdoitt:bin": "1080732", "office": "yes"}}, {"type": "way", "id": 266170732, "nodes": [2717544032, 2717544046, 3081362062, 2717544225, 2717544253, 2717544245, 2717544232, 2717544179, 2717544080, 2717544032], "tags": {"addr:city": "New York", "addr:housenumber": "65", "addr:postcode": "10036", "addr:street": "West 44th Street", "air_conditioning": "yes", "amenity": "bar", "building": "yes", "building:colour": "#ACA9A6", "building:levels": "3", "height": "13.3", "name": "The Blue Bar", "nycdoitt:bin": "1081061", "roof:material": "concrete", "roof:shape": "flat", "smoking": "no", "website": "https://www.algonquinhotel.com/the-blue-bar/"}}, {"type": "way", "id": 266170762, "nodes": [2717543694, 2717543702, 2717543708, 2717543739, 2717543766, 2717543748, 2954386644, 2954386642, 2954386639, 2954386638, 2954383828, 2954383816, 2954383806, 2717543694], "tags": {"amenity": "college", "building": "college", "ele": "21", "gnis:feature_id": "2083165", "height": "89.0", "name": "SUNY State College of Optometry", "nycdoitt:bin": "1034197", "official_name": "State University of New York College of Optometry", "start_date": "1912", "website": "https://www.sunyopt.edu/", "wheelchair": "yes", "wikidata": "Q14707354", "wikipedia": "en:State University of New York College of Optometry"}}, {"type": "way", "id": 702073570, "nodes": [6593121524, 6593121097, 6593121096, 6593123410, 6593121524], "tags": {"amenity": "cafe"}}, {"type": "way", "id": 702073749, "nodes": [6593122562, 6593122560, 6593122561, 6593122559, 6593122562], "tags": {"addr:housenumber": "41", "addr:postcode": "10018", "addr:street": "West 40th Street", "amenity": "restaurant", "bar": "yes", "building": "yes", "check_date": "2023-01-21", "cuisine": "american", "diet:local": "yes", "name": "LOR Porch at Bryant Park", "opening_hours": "Mo-Su 11:00-22:00", "outdoor_seating": "yes", "payment:cash": "yes", "payment:contactless": "yes", "payment:credit_cards": "yes", "payment:debit_cards": "yes", "phone": "+1 212-840-0324", "website": "https://lorporchatbryantpark.com/"}}]}