{"version": 0.6, "generator": "Overpass API 0.7.62.8 e802775f", "osm3s": {"timestamp_osm_base": "2025-12-01T17:37:27Z", "copyright": "The data included in this document is from www.openstreetmap.org. The data is made available under ODbL."}, "elements": [{"type": "node", "id": 357618189, "lat": 40.7544444, "lon": -73.9311111, "tags": {"amenity": "school", "ele": "12", "gnis:feature_id": "2080394", "name": "Queens Lutheran School"}}, {"type": "node", "id": 2846596452, "lat": 40.7545497, "lon": -73.9257025, "tags": {"addr:housenumber": "36-02", "addr:postcode": "11106", "addr:street": "36th Avenue", "amenity": "restaurant", "contact:facebook": "thai36astoria", "cuisine": "thai", "name": "Thai 36", "opening_hours": "Mo-Fr 11:00-21:00; Sa, Su 12:00-21:00", "phone": "+1 718-707-0407", "website": "https://thai36astoria.com/"}}, {"type": "node", "id": 2853050591, "lat": 40.754026, "lon": -73.929788, "tags": {"addr:housenumber": "37-10", "addr:postcode": "11101", "addr:street": "33rd Street", "amenity": "restaurant", "cuisine": "seafood", "level": "0", "name": "Astoria Seafood", "opening_hours": "Tu-Sa 12:00-21:00", "outdoor_seating": "yes", "website": "https://www.astoriaseafoodnyc.com/"}}, {"type": "node", "id": 2853050594, "lat": 40.7519896, "lon": -73.9255705, "tags": {"addr:housenumber": "37-18", "addr:postcode": "11101", "addr:state": "NY", "addr:street": "Northern Boulevard", "amenity": "cafe", "cuisine": "coffee_shop", "internet_access": "yes", "name": "Coffeed", "opening_hours": "Mo-Fr 07:00-16:00, Sa-Su 09:00-16:00", "phone": "+1 718 6061299", "smoking": "outside", "website": "https://www.coffeednyc.com/", "wheelchair": "no"}}, {"type": "node", "id": 5406249603, "lat": 40.7519672, "lon": -73.9256448, "tags": {"addr:housenumber": "37-18", "addr:street": "Northern Boulevard", "name": "The LGBT Network", "office": "ngo"}}, {"type": "node", "id": 10772011576, "lat": 40.7518414, "lon": -73.9292138, "tags": {"addr:city": "Long Island City", "addr:housenumber": "34-18", "addr:postcode": "11101", "addr:state": "NY", "addr:street": "Northern Boulevard", "consulate": "consulate_general", "country": "BD", "diplomatic": "consulate", "diplomatic:services:citizen_services": "yes", "name": "Consulate General of Bangladesh", "office": "diplomatic", "opening_hours": "Mo-Fr 09:30-17:30", "phone": "+1-212-599-6767", "target": "US", "website": "https://bdcgny.org"}}, {"type": "node", "id": 10772011577, "lat": 40.7518467, "lon": -73.9291336, "tags": {"addr:city": "Long Island City", "addr:housenumber": "34-18", "addr:postcode": "11101", "addr:state": "NY", "addr:street": "Northern Boulevard", "internet_access": "yes", "name": "Greendesk", "office": "coworking", "phone": "+1-718-210-3650", "website": "https://greendesk.com/coworking-spaces/queens/3418-northern-blvd/"}}, {"type": "node", "id": 10772011578, "lat": 40.7518467, "lon": -73.9292784, "tags": {"addr:city": "Long Island City", "addr:housenumber": "34-18", "addr:postcode": "11101", "addr:state": "NY", "addr:street": "Northern Boulevard", "name": "Super Kickers Sport Corporation", "office": "company", "opening_hours": "Mo-Fr 09:00-14:00", "phone": "+1-888-439-1068", "website": "https://www.superkickers.com/"}}, {"type": "node", "id": 10772011579, "lat": 40.7518176, "lon": -73.9299677, "tags": {"addr:city": "Long Island City", "addr:housenumber": "3328", "addr:postcode": "11101", "addr:state": "NY", "addr:street": "Northern Boulevard", "government": "public_service", "name": "Queens Income Support Center", "note": "Entrance on One Honeywell Street\nThis center includes a Children's Corner, which provides supervision during limited hours.", "office": "government", "opening_hours": "Mo-Fr 08:30-17:00", "phone": "+1-718-752-3937", "website": "https://www.nyc.gov/site/hra/locations/snap-locations.page#queens"}}, {"type": "node", "id": 10772011581, "lat": 40.7515493, "lon": -73.9311473, "tags": {"addr:city": "Long Island City", "addr:housenumber": "1", "addr:postcode": "11101", "addr:state": "NY", "addr:street": "Honeywell Street", "addr:unit": "Floor 1", "name": "East River Job Center", "note": "Located in \nThe Center Building\n3300 Northern Blvd. \nQueens, NY 11101\n\nSome businesses have entrance on Honeywell  and separate address", "office": "employment_agency", "opening_hours": "Mo-Fr 08:30-17:00", "phone": "+1-718-784-2922", "website": "https://www.nyc.gov/site/hra/locations/job-locations-and-service-centers.page#queens"}}, {"type": "node", "id": 11278151796, "lat": 40.7546481, "lon": -73.9308065, "tags": {"government": "social_security", "name": "Social Security Administration", "office": "government", "operator": "Social Security Administration", "operator:short": "SSA", "operator:wikidata": "Q2824618"}}, {"type": "node", "id": 12195636501, "lat": 40.7535922, "lon": -73.931946, "tags": {"addr:housenumber": "01", "addr:street": "38th Avenue", "amenity": "restaurant", "name": "Suzuki Shokudo", "opening_hours": "Mo-Sa 12:00-15:00, 17:00-21:30", "website": "https://www.suzukishokudo.com/"}}, {"type": "node", "id": 12705859472, "lat": 40.7536511, "lon": -73.9256982, "tags": {"addr:housenumber": "36-30", "addr:street": "37th Street", "name": "VNYPM", "office": "property_management", "phone": "+1 718-626-8833"}}]}