{"version": 0.6, "generator": "Overpass API 0.7.62.8 e802775f", "osm3s": {"timestamp_osm_base": "2025-12-01T17:12:02Z", "copyright": "The data included in this document is from www.openstreetmap.org. The data is made available under ODbL."}, "elements": [{"type": "node", "id": 357580766, "lat": 40.8100265, "lon": -73.9458311, "tags": {"amenity": "school", "ele": "9", "gnis:feature_id": "961807", "name": "Public School 68"}}, {"type": "node", "id": 357621375, "lat": 40.8077778, "lon": -73.9444444, "tags": {"amenity": "school", "ele": "8", "gnis:feature_id": "2083890", "name": "Fellowship of Learning School"}}, {"type": "node", "id": 357621718, "lat": 40.8063889, "lon": -73.9438889, "tags": {"amenity": "school", "ele": "7", "gnis:feature_id": "2084007", "name": "Saint Benedict Day Nursery and Kindergarten"}}, {"type": "node", "id": 419367529, "lat": 40.810011, "lon": -73.9431823, "tags": {"amenity": "cafe", "capacity": "2", "cityracks.housenum": "370", "cityracks.installed": "5/1/2000", "cityracks.large": "0", "cityracks.rackid": "926", "cityracks.small": "1", "cityracks.street": "Malcolm X Blvd", "cuisine": "coffee_shop", "internet_access": "wlan", "name": "Lenox Coffee"}}, {"type": "node", "id": 2099150482, "lat": 40.8027553, "lon": -73.9432189}, {"type": "node", "id": 2099150483, "lat": 40.8027553, "lon": -73.9432279}, {"type": "node", "id": 2099150484, "lat": 40.8027565, "lon": -73.9432084}, {"type": "node", "id": 2099150485, "lat": 40.8027567, "lon": -73.9432369}, {"type": "node", "id": 2099150486, "lat": 40.8027579, "lon": -73.943198}, {"type": "node", "id": 2099150487, "lat": 40.8027607, "lon": -73.9432538}, {"type": "node", "id": 2099150488, "lat": 40.802761, "lon": -73.9431841}, {"type": "node", "id": 2099150489, "lat": 40.8027667, "lon": -73.9432724}, {"type": "node", "id": 2099150490, "lat": 40.8027743, "lon": -73.9432932}, {"type": "node", "id": 2099150491, "lat": 40.8027873, "lon": -73.943092}, {"type": "node", "id": 2099150492, "lat": 40.8027933, "lon": -73.9430803}, {"type": "node", "id": 2099150493, "lat": 40.8028009, "lon": -73.9430687}, {"type": "node", "id": 2099150494, "lat": 40.8028089, "lon": -73.9430586}, {"type": "node", "id": 2099150495, "lat": 40.8028186, "lon": -73.9430501}, {"type": "node", "id": 2099150496, "lat": 40.8038414, "lon": -73.9458148}, {"type": "node", "id": 2099150497, "lat": 40.8038488, "lon": -73.9458294}, {"type": "node", "id": 2099150498, "lat": 40.8038554, "lon": -73.9458384}, {"type": "node", "id": 2099150499, "lat": 40.803863, "lon": -73.9458458}, {"type": "node", "id": 2099150500, "lat": 40.8038734, "lon": -73.9458532}, {"type": "node", "id": 2099150502, "lat": 40.8039485, "lon": -73.9458765}, {"type": "node", "id": 2099150503, "lat": 40.8039585, "lon": -73.9458784}, {"type": "node", "id": 2099150504, "lat": 40.8039643, "lon": -73.9458787}, {"type": "node", "id": 2099150505, "lat": 40.8039716, "lon": -73.9458779}, {"type": "node", "id": 2099150506, "lat": 40.803979, "lon": -73.9458755}, {"type": "node", "id": 2099150507, "lat": 40.8039868, "lon": -73.945872}, {"type": "node", "id": 2099150508, "lat": 40.8039953, "lon": -73.945867}, {"type": "node", "id": 2099150509, "lat": 40.8049759, "lon": -73.9414715}, {"type": "node", "id": 2099150510, "lat": 40.8049836, "lon": -73.9414689}, {"type": "node", "id": 2099150511, "lat": 40.804993, "lon": -73.9414674}, {"type": "node", "id": 2099150512, "lat": 40.805004, "lon": -73.9414667}, {"type": "node", "id": 2099150513, "lat": 40.8050154, "lon": -73.9414667}, {"type": "node", "id": 2099150514, "lat": 40.8050259, "lon": -73.941467}, {"type": "node", "id": 2099150515, "lat": 40.8050353, "lon": -73.9414689}, {"type": "node", "id": 2099150516, "lat": 40.8050985, "lon": -73.9414918}, {"type": "node", "id": 2099150517, "lat": 40.8051062, "lon": -73.9414959}, {"type": "node", "id": 2099150518, "lat": 40.8051136, "lon": -73.9415008}, {"type": "node", "id": 2099150519, "lat": 40.8051181, "lon": -73.9415068}, {"type": "node", "id": 2099150520, "lat": 40.8051235, "lon": -73.9415162}, {"type": "node", "id": 2099150521, "lat": 40.8061625, "lon": -73.9442787}, {"type": "node", "id": 2099150522, "lat": 40.8061733, "lon": -73.9442705}, {"type": "node", "id": 2099150523, "lat": 40.8061787, "lon": -73.9442649}, {"type": "node", "id": 2099150524, "lat": 40.8061847, "lon": -73.9442574}, {"type": "node", "id": 2099150525, "lat": 40.8061898, "lon": -73.9442488}, {"type": "node", "id": 2099150526, "lat": 40.8061935, "lon": -73.9442401}, {"type": "node", "id": 2099150527, "lat": 40.8061992, "lon": -73.9442229}, {"type": "node", "id": 2099150528, "lat": 40.8062176, "lon": -73.9440999}, {"type": "node", "id": 2328486871, "lat": 40.8058566, "lon": -73.9432464}, {"type": "node", "id": 2328488033, "lat": 40.8052558, "lon": -73.941838}, {"type": "node", "id": 2328488037, "lat": 40.8054974, "lon": -73.9423994}, {"type": "node", "id": 2328508299, "lat": 40.8028332, "lon": -73.9434238}, {"type": "node", "id": 2328508302, "lat": 40.802957, "lon": -73.9429489}, {"type": "node", "id": 2328588283, "lat": 40.8093452, "lon": -73.9430591}, {"type": "node", "id": 2328588288, "lat": 40.8096112, "lon": -73.9428635}, {"type": "node", "id": 2328588294, "lat": 40.8095771, "lon": -73.9427827}, {"type": "node", "id": 2328588301, "lat": 40.8093111, "lon": -73.9429782}, {"type": "node", "id": 2340535406, "lat": 40.8055203, "lon": -73.9478538}, {"type": "node", "id": 2340535409, "lat": 40.8058256, "lon": -73.9476291}, {"type": "node", "id": 2562438634, "lat": 40.8086893, "lon": -73.9451659, "tags": {"addr:city": "New York", "addr:country": "US", "addr:housenumber": "321", "addr:postcode": "10027", "addr:state": "NY", "addr:street": "Lenox Avenue", "amenity": "restaurant", "name": "Corner Social", "opening_hours": "Su-We 11:00-02:00; Th 11:00-03:00; Fr-Sa 11:00-04:00", "website": "https://cornersocialnyc.com/"}}, {"type": "node", "id": 2562438637, "lat": 40.8070737, "lon": -73.9456305, "tags": {"addr:city": "New York", "addr:country": "US", "addr:housenumber": "282", "addr:postcode": "10027", "addr:state": "NY", "addr:street": "Lenox Avenue", "amenity": "restaurant", "cuisine": "caribbean", "name": "Caribbean Starr", "takeaway": "yes"}}, {"type": "node", "id": 2562438646, "lat": 40.8078217, "lon": -73.9450772, "tags": {"addr:city": "New York", "addr:postcode": "10027", "addr:state": "NY", "amenity": "cafe", "branch": "125th & Lenox", "brand": "Starbucks", "brand:wikidata": "Q37158", "check_date": "2025-05-30", "cuisine": "coffee_shop", "internet_access": "wlan", "internet_access:fee": "no", "name": "Starbucks", "official_name": "Starbucks Coffee", "opening_hours": "Su-Th 06:00-22:00; Fr-Sa 06:00-23:00", "phone": "+1 917-492-2454", "ref": "12294", "takeaway": "yes", "website": "https://www.starbucks.com/store-locator/store/12294/125th-lenox-83-west-125th-street-new-york-ny-100274512-us"}}, {"type": "node", "id": 2765639279, "lat": 40.8067413, "lon": -73.9426052, "tags": {"addr:city": "New York", "addr:housenumber": "5", "addr:postcode": "10035", "addr:state": "NY", "addr:street": "West 125th Street", "branch": "Harlem", "government": "transportation", "name": "Dept Motor Vehicles NY State", "office": "government", "opening_hours": "Mo-Fr 07:30-17:00", "operator": "New York State Department of Motor Vehicles", "operator:short": "New York DMV", "operator:wikidata": "Q17109616", "website": "https://dmv.ny.gov/"}}, {"type": "node", "id": 2765766251, "lat": 40.8055306, "lon": -73.9478463}, {"type": "node", "id": 2765766302, "lat": 40.8056557, "lon": -73.9477542}, {"type": "node", "id": 2765766412, "lat": 40.8058638, "lon": -73.9476011}, {"type": "node", "id": 2765766462, "lat": 40.8059882, "lon": -73.9475102}, {"type": "node", "id": 2765766553, "lat": 40.8062529, "lon": -73.949155}, {"type": "node", "id": 2765766570, "lat": 40.8062942, "lon": -73.9490169}, {"type": "node", "id": 2765766586, "lat": 40.8063242, "lon": -73.9483064}, {"type": "node", "id": 2765766590, "lat": 40.806329, "lon": -73.9490994}, {"type": "node", "id": 2765766706, "lat": 40.8065173, "lon": -73.9488538}, {"type": "node", "id": 2765766732, "lat": 40.8065476, "lon": -73.9488316}, {"type": "node", "id": 2767372132, "lat": 40.8078969, "lon": -73.9448395}, {"type": "node", "id": 2767372143, "lat": 40.8079568, "lon": -73.9447958}, {"type": "node", "id": 2767372146, "lat": 40.8079751, "lon": -73.9450253}, {"type": "node", "id": 2767372169, "lat": 40.808035, "lon": -73.9449816}, {"type": "node", "id": 2767372242, "lat": 40.8090091, "lon": -73.9472187}, {"type": "node", "id": 2767372245, "lat": 40.8090148, "lon": -73.9471456}, {"type": "node", "id": 2767372247, "lat": 40.8090148, "lon": -73.9471839}, {"type": "node", "id": 2767372249, "lat": 40.809018, "lon": -73.94724}, {"type": "node", "id": 2767372252, "lat": 40.8090246, "lon": -73.9472074}, {"type": "node", "id": 2767372253, "lat": 40.8090271, "lon": -73.947175}, {"type": "node", "id": 2767372254, "lat": 40.8090281, "lon": -73.9472575}, {"type": "node", "id": 2767372256, "lat": 40.8090305, "lon": -73.947231}, {"type": "node", "id": 2767372259, "lat": 40.8090385, "lon": -73.94725}, {"type": "node", "id": 2767372261, "lat": 40.8090459, "lon": -73.9473}, {"type": "node", "id": 2767372263, "lat": 40.8090544, "lon": -73.9472938}, {"type": "node", "id": 2767372264, "lat": 40.8090564, "lon": -73.9473204}, {"type": "node", "id": 2767372265, "lat": 40.8090634, "lon": -73.9473153}, {"type": "node", "id": 2767372266, "lat": 40.8090672, "lon": -73.9473462}, {"type": "node", "id": 2767372267, "lat": 40.8090689, "lon": -73.947373}, {"type": "node", "id": 2767372268, "lat": 40.8090753, "lon": -73.9473403}, {"type": "node", "id": 2767372269, "lat": 40.8090843, "lon": -73.9473618}, {"type": "node", "id": 2767372270, "lat": 40.8091457, "lon": -73.9470505}, {"type": "node", "id": 2767372272, "lat": 40.8091572, "lon": -73.9470779}, {"type": "node", "id": 2767372273, "lat": 40.8091663, "lon": -73.9476054}, {"type": "node", "id": 2767372275, "lat": 40.8091708, "lon": -73.947068}, {"type": "node", "id": 2767372278, "lat": 40.8091808, "lon": -73.947092}, {"type": "node", "id": 2767372279, "lat": 40.8091817, "lon": -73.9475942}, {"type": "node", "id": 2767372281, "lat": 40.8091827, "lon": -73.9476224}, {"type": "node", "id": 2767372283, "lat": 40.809191, "lon": -73.9476164}, {"type": "node", "id": 2767372284, "lat": 40.8091929, "lon": -73.947114}, {"type": "node", "id": 2767372285, "lat": 40.8091931, "lon": -73.9476473}, {"type": "node", "id": 2767372287, "lat": 40.8091961, "lon": -73.947081}, {"type": "node", "id": 2767372289, "lat": 40.8092007, "lon": -73.9471325}, {"type": "node", "id": 2767372290, "lat": 40.8092014, "lon": -73.9476413}, {"type": "node", "id": 2767372292, "lat": 40.8092014, "lon": -73.9476664}, {"type": "node", "id": 2767372293, "lat": 40.809206, "lon": -73.9471045}, {"type": "node", "id": 2767372294, "lat": 40.8092095, "lon": -73.9476605}, {"type": "node", "id": 2767372295, "lat": 40.8092152, "lon": -73.947122}, {"type": "node", "id": 2767372297, "lat": 40.8092198, "lon": -73.9471741}, {"type": "node", "id": 2767372298, "lat": 40.8092208, "lon": -73.9477127}, {"type": "node", "id": 2767372299, "lat": 40.8092247, "lon": -73.9477312}, {"type": "node", "id": 2767372300, "lat": 40.8092274, "lon": -73.9471921}, {"type": "node", "id": 2767372302, "lat": 40.8092324, "lon": -73.9477043}, {"type": "node", "id": 2767372303, "lat": 40.809233, "lon": -73.9471646}, {"type": "node", "id": 2767372306, "lat": 40.8092349, "lon": -73.9477555}, {"type": "node", "id": 2767372307, "lat": 40.8092364, "lon": -73.9471855}, {"type": "node", "id": 2767372308, "lat": 40.8092392, "lon": -73.9477206}, {"type": "node", "id": 2767372311, "lat": 40.8092483, "lon": -73.9477458}, {"type": "node", "id": 2767372312, "lat": 40.8092577, "lon": -73.9477682}, {"type": "node", "id": 2767372315, "lat": 40.8092728, "lon": -73.9477572}, {"type": "node", "id": 2767372316, "lat": 40.8092762, "lon": -73.9472804}, {"type": "node", "id": 2767372317, "lat": 40.80928, "lon": -73.9472777}, {"type": "node", "id": 2767372318, "lat": 40.8092847, "lon": -73.9477854}, {"type": "node", "id": 2767372324, "lat": 40.8093322, "lon": -73.9474199}, {"type": "node", "id": 2767372325, "lat": 40.8093379, "lon": -73.9474158}, {"type": "node", "id": 2767372327, "lat": 40.8093409, "lon": -73.9474406}, {"type": "node", "id": 2767372328, "lat": 40.809344, "lon": -73.9474383}, {"type": "node", "id": 2767372330, "lat": 40.8093666, "lon": -73.9475234}, {"type": "node", "id": 2767372332, "lat": 40.8093739, "lon": -73.9475409}, {"type": "node", "id": 2767372334, "lat": 40.8093766, "lon": -73.9475161}, {"type": "node", "id": 2767372337, "lat": 40.8093868, "lon": -73.9475316}, {"type": "node", "id": 2767372339, "lat": 40.8093944, "lon": -73.947584}, {"type": "node", "id": 2767372342, "lat": 40.8094018, "lon": -73.9476018}, {"type": "node", "id": 2767372344, "lat": 40.8094054, "lon": -73.947576}, {"type": "node", "id": 2767372346, "lat": 40.8094056, "lon": -73.9476612}, {"type": "node", "id": 2767372348, "lat": 40.8094093, "lon": -73.9476272}, {"type": "node", "id": 2767372350, "lat": 40.8094149, "lon": -73.9475923}, {"type": "node", "id": 2767372353, "lat": 40.8094173, "lon": -73.9476891}, {"type": "node", "id": 2767372354, "lat": 40.8094193, "lon": -73.9476512}, {"type": "node", "id": 2767372356, "lat": 40.8094248, "lon": -73.9476159}, {"type": "node", "id": 2767466847, "lat": 40.8086204, "lon": -73.9451767}, {"type": "node", "id": 2767466952, "lat": 40.8087273, "lon": -73.9450994}, {"type": "node", "id": 2767466968, "lat": 40.8087489, "lon": -73.9451884}, {"type": "node", "id": 2767466971, "lat": 40.8087491, "lon": -73.945485}, {"type": "node", "id": 2767466972, "lat": 40.8087504, "lon": -73.9451549}, {"type": "node", "id": 2767466990, "lat": 40.8087604, "lon": -73.9451573}, {"type": "node", "id": 2767466992, "lat": 40.8087608, "lon": -73.9451798}, {"type": "node", "id": 2767467005, "lat": 40.8087782, "lon": -73.9452214}, {"type": "node", "id": 2767467009, "lat": 40.8087809, "lon": -73.9452065}, {"type": "node", "id": 2767467017, "lat": 40.8087872, "lon": -73.9452429}, {"type": "node", "id": 2767467020, "lat": 40.8087922, "lon": -73.9450525}, {"type": "node", "id": 2767467023, "lat": 40.808799, "lon": -73.9452497}, {"type": "node", "id": 2767467032, "lat": 40.8088107, "lon": -73.9451209}, {"type": "node", "id": 2767467033, "lat": 40.8088153, "lon": -73.9451079}, {"type": "node", "id": 2767467042, "lat": 40.8088312, "lon": -73.9451701}, {"type": "node", "id": 2767467050, "lat": 40.8088431, "lon": -73.9451744}, {"type": "node", "id": 2767467051, "lat": 40.8088441, "lon": -73.9454163}, {"type": "node", "id": 2767467060, "lat": 40.8088493, "lon": -73.9452134}, {"type": "node", "id": 2767467062, "lat": 40.8088494, "lon": -73.9453704}, {"type": "node", "id": 2767467063, "lat": 40.8088521, "lon": -73.9451959}, {"type": "node", "id": 2767467102, "lat": 40.8088997, "lon": -73.945334}, {"type": "node", "id": 2767467647, "lat": 40.8093475, "lon": -73.9460855}, {"type": "node", "id": 2767467726, "lat": 40.8094001, "lon": -73.9460479}, {"type": "node", "id": 2767467746, "lat": 40.8094141, "lon": -73.9460379}, {"type": "node", "id": 2767467785, "lat": 40.8094431, "lon": -73.9460172}, {"type": "node", "id": 2767467803, "lat": 40.8094535, "lon": -73.9460772}, {"type": "node", "id": 2767467875, "lat": 40.8094979, "lon": -73.945978}, {"type": "node", "id": 2767467997, "lat": 40.8095761, "lon": -73.9459896}, {"type": "node", "id": 2767482268, "lat": 40.8093324, "lon": -73.9429626}, {"type": "node", "id": 2767482281, "lat": 40.8093618, "lon": -73.9430469}, {"type": "node", "id": 2767482338, "lat": 40.8094532, "lon": -73.9428737}, {"type": "node", "id": 2767482381, "lat": 40.8094978, "lon": -73.9429469}, {"type": "node", "id": 3023172088, "lat": 40.8030234, "lon": -73.9429003}, {"type": "node", "id": 3023172097, "lat": 40.8028501, "lon": -73.9434512}, {"type": "node", "id": 3023173701, "lat": 40.8056128, "lon": -73.9426714}, {"type": "node", "id": 3023173702, "lat": 40.8056443, "lon": -73.9427457}, {"type": "node", "id": 3023173705, "lat": 40.8056994, "lon": -73.9428757}, {"type": "node", "id": 3023173706, "lat": 40.8057301, "lon": -73.942948}, {"type": "node", "id": 3023173729, "lat": 40.805717, "lon": -73.9429172}, {"type": "node", "id": 3023173731, "lat": 40.8056285, "lon": -73.9427086}, {"type": "node", "id": 3845617365, "lat": 40.8087638, "lon": -73.9454744}, {"type": "node", "id": 3845617366, "lat": 40.8086909, "lon": -73.9453456}, {"type": "node", "id": 3866505463, "lat": 40.8061121, "lon": -73.9492585}, {"type": "node", "id": 4231923696, "lat": 40.8086285, "lon": -73.9445189, "tags": {"addr:city": "New York", "addr:housenumber": "328", "addr:postcode": "10027", "addr:street": "Malcolm X Boulevard", "amenity": "restaurant", "building": "yes", "cuisine": "seafood;regional", "email": "info@sylviasrestaurant.com", "fax": "+1 212 427-6389", "name": "Sylvia's Restaurant", "opening_hours": "Mo-Tu 11:00-22:30;We-Sa 09:00-22:30;Su 11:00-20:00", "phone": "+1 212 996-0660", "website": "https://sylviasrestaurant.com/", "wikidata": "Q7660869", "wikipedia": "en:Sylvia's Restaurant of Harlem"}}, {"type": "node", "id": 5186830447, "lat": 40.8063573, "lon": -73.9478277, "tags": {"addr:city": "New York", "addr:housenumber": "119", "addr:postcode": "10027", "addr:state": "NY", "addr:street": "West 122nd Street", "name": "Independent Order of Mechanics", "office": "ngo"}}, {"type": "node", "id": 5266905521, "lat": 40.8058627, "lon": -73.9472248, "tags": {"addr:housenumber": "239", "addr:street": "Malcolm X Boulevard", "amenity": "restaurant", "cuisine": "soul_food", "name": "BLVD Bistro"}}, {"type": "node", "id": 6296851635, "lat": 40.8102607, "lon": -73.9439964, "tags": {"addr:housenumber": "373", "addr:street": "Lenox Avenue", "amenity": "restaurant", "cuisine": "soul_food", "email": "cateringquote@jacobrestaurant.com;jacob373@jacobrestaurant.com", "name": "Jacob Restaurant", "opening_hours": "Mo-Su 10:00-22:00", "phone": "+1-212-866-3663", "website": "https://www.jacobrestaurant.com/"}}, {"type": "node", "id": 7048004285, "lat": 40.805587, "lon": -73.9475248, "tags": {"addr:postcode": "10027", "amenity": "restaurant", "name": "Sottocasa Pizzeria", "phone": "+16469284870", "website": "https://sottocasanyc.com/"}}, {"type": "node", "id": 7554344636, "lat": 40.8088971, "lon": -73.9450332, "tags": {"addr:city": "New York", "addr:housenumber": "331", "addr:postcode": "10027", "addr:state": "NY", "addr:street": "Malcolm X Boulevard", "amenity": "restaurant", "cuisine": "italian;pizza", "name": "Babbalucci", "phone": "+16469186572", "website": "http://www.babbalucci.com/"}}, {"type": "node", "id": 8333828579, "lat": 40.8085008, "lon": -73.9489844, "tags": {"amenity": "restaurant", "name": "New York Gourmet Deli"}}, {"type": "node", "id": 11871273548, "lat": 40.8072545, "lon": -73.942467, "tags": {"addr:city": "New York", "addr:housenumber": "8", "addr:postcode": "10027", "addr:state": "NY", "addr:street": "West 126th Street", "brand": "WeWork", "brand:wikidata": "Q19995004", "fee": "yes", "name": "WeWork", "office": "coworking"}}, {"type": "node", "id": 11980400027, "lat": 40.8103162, "lon": -73.947018, "tags": {"addr:city": "New York", "addr:housenumber": "2143", "addr:postcode": "10027", "addr:state": "NY", "addr:street": "Adam Clayton Powell Jr. Boulevard", "amenity": "restaurant", "cuisine": "caribbean", "name": "Jerk House Caribbean", "phone": "+1-917-675-7477"}}, {"type": "node", "id": 12103705440, "lat": 40.8095548, "lon": -73.9459374}, {"type": "node", "id": 12103705441, "lat": 40.8093689, "lon": -73.9461377}, {"type": "node", "id": 13136631202, "lat": 40.8070888, "lon": -73.9445455, "tags": {"addr:housenumber": "60", "addr:postcode": "10027", "addr:street": "West 125th Street", "amenity": "restaurant", "cuisine": "asian;fish;oriental;seafood;sushi", "name": "Teppanyaki One", "outdoor_seating": "no", "phone": "+1-917-388-2690", "website": "https://teppanyakione.com/"}}, {"type": "way", "id": 199925533, "nodes": [2099150491, 2099150492, 2099150493, 2099150494, 2099150495, 2328508302, 3023172088, 2099150509, 2099150510, 2099150511, 2099150512, 2099150513, 2099150514, 2099150515, 2099150516, 2099150517, 2099150518, 2099150519, 2099150520, 2328488033, 2328488037, 3023173701, 3023173731, 3023173702, 3023173705, 3023173729, 3023173706, 2328486871, 2099150528, 2099150527, 2099150526, 2099150525, 2099150524, 2099150523, 2099150522, 2099150521, 2099150508, 2099150507, 2099150506, 2099150505, 2099150504, 2099150503, 2099150502, 2099150500, 2099150499, 2099150498, 2099150497, 2099150496, 3023172097, 2328508299, 2099150490, 2099150489, 2099150487, 2099150485, 2099150483, 2099150482, 2099150484, 2099150486, 2099150488, 2099150491], "tags": {"alt_name": "Marcus Garvey Park", "leisure": "park", "name": "Marcus Garvey Memorial Park", "name:etymology:wikidata": "Q272504", "old_name": "Mount Morris Park", "source": "Bing", "wikidata": "Q1585658", "wikipedia": "en:Marcus Garvey Park"}}, {"type": "way", "id": 224029303, "nodes": [2328588283, 2328588301, 2767482268, 2767482338, 2328588294, 2328588288, 2767482381, 2767482281, 2328588283], "tags": {"leisure": "park", "name": "Rev. Linnette C Williamson Memorial Park", "website": "https://www.nycgovparks.org/about/history/historical-signs/listings?id=12811"}}, {"type": "way", "id": 271798850, "nodes": [2767372132, 2767372146, 2767372169, 2767372143, 2767372132], "tags": {"addr:city": "New York", "addr:housenumber": "310", "addr:postcode": "10027", "addr:street": "Lenox Avenue", "amenity": "restaurant", "building": "yes", "check_date": "2025-05-30", "cuisine": "southern", "height": "14.9", "name": "Red Rooster Harlem", "nycdoitt:bin": "1053495", "phone": "+1 212 792-9001", "website": "https://www.redroosterharlem.com/", "wikidata": "Q7138155"}}, {"type": "way", "id": 271798907, "nodes": [2767372342, 2767372339, 2767372344, 2767372337, 2767372332, 2767372330, 2767372334, 2767372328, 2767372327, 2767372324, 2767372325, 2767372317, 2767372316, 2767372307, 2767372300, 2767372297, 2767372303, 2767372295, 2767372289, 2767372284, 2767372293, 2767372287, 2767372278, 2767372275, 2767372272, 2767372270, 2767372245, 2767372253, 2767372247, 2767372252, 2767372242, 2767372249, 2767372256, 2767372259, 2767372254, 2767372261, 2767372263, 2767372265, 2767372264, 2767372266, 2767372268, 2767372269, 2767372267, 2767372273, 2767372279, 2767372283, 2767372281, 2767372285, 2767372290, 2767372294, 2767372292, 2767372298, 2767372302, 2767372308, 2767372299, 2767372306, 2767372311, 2767372312, 2767372315, 2767372318, 2767372353, 2767372346, 2767372354, 2767372348, 2767372356, 2767372350, 2767372342], "tags": {"addr:city": "New York", "addr:housenumber": "163", "addr:postcode": "10027", "addr:street": "West 126th Street", "building": "yes", "height": "88.9", "name": "Adam Clayton Powell Jr. State Office Building", "nycdoitt:bin": "1081602", "office": "government", "wikidata": "Q4678869", "wikipedia": "en:Adam Clayton Powell Jr. State Office Building"}}, {"type": "way", "id": 271807581, "nodes": [2767467050, 2767467042, 2767467032, 2767467033, 2767467020, 2767466952, 2767466972, 2767466990, 2767467009, 2767467005, 2767467017, 2767467023, 2767467062, 2767467102, 2767467060, 2767467063, 2767467050], "tags": {"addr:city": "New York", "addr:housenumber": "325", "addr:postcode": "10027", "addr:state": "NY", "addr:street": "Malcolm X Boulevard", "amenity": "bar", "building": "yes", "height": "18.3", "name": "Cove Lounge", "nycdoitt:bin": "1057864"}}, {"type": "way", "id": 271808028, "nodes": [2767466952, 2767466847, 3845617366, 2767466971, 3845617365, 2767467051, 2767466968, 2767466992, 2767466972, 2767466952], "tags": {"amenity": "restaurant", "building": "yes", "height": "25.0", "nycdoitt:bin": "1057863"}}, {"type": "way", "id": 383395628, "nodes": [3866505463, 2765766553, 2765766590, 2765766570, 2765766706, 2765766732, 2765766586, 2765766462, 2765766412, 2340535409, 2765766302, 2765766251, 2340535406, 3866505463], "tags": {"amenity": "school", "grades": "K-8", "isced:level": "0;1;2", "name": "Future Leaders Institute", "website": "https://www.futureleadersinstitute.org/"}}, {"type": "way", "id": 1306968918, "nodes": [2767467997, 12103705440, 2767467875, 2767467785, 2767467746, 2767467726, 2767467647, 12103705441, 2767467803, 2767467997], "tags": {"addr:city": "New York", "addr:housenumber": "130", "addr:postcode": "10027", "addr:state": "NY", "addr:street": "West 127th Street", "leisure": "park", "name": "Harlem Grown 127th Street Learning Annex"}}]}