{"version": 0.6, "generator": "Overpass API 0.7.62.8 e802775f", "osm3s": {"timestamp_osm_base": "2025-12-01T03:54:01Z", "copyright": "The data included in this document is from www.openstreetmap.org. The data is made available under ODbL."}, "elements": [{"type": "node", "id": 357563924, "lat": 40.82028, "lon": -73.92556, "tags": {"amenity": "school", "ele": "16", "gnis:feature_id": "952444", "name": "Cardinal Hayes High School", "wikidata": "Q5038559"}}, {"type": "node", "id": 449203183, "lat": 40.8257044, "lon": -73.9249366}, {"type": "node", "id": 449203184, "lat": 40.8253166, "lon": -73.9237606}, {"type": "node", "id": 449203186, "lat": 40.8237519, "lon": -73.9246071}, {"type": "node", "id": 449203187, "lat": 40.8227351, "lon": -73.92497}, {"type": "node", "id": 449203188, "lat": 40.8218835, "lon": -73.9254358}, {"type": "node", "id": 449203189, "lat": 40.8214281, "lon": -73.9258232}, {"type": "node", "id": 449203190, "lat": 40.8209665, "lon": -73.926372}, {"type": "node", "id": 449203191, "lat": 40.8219148, "lon": -73.9272743}, {"type": "node", "id": 449203192, "lat": 40.8223438, "lon": -73.9268462}, {"type": "node", "id": 449203193, "lat": 40.8236969, "lon": -73.9260924}, {"type": "node", "id": 449203194, "lat": 40.8245694, "lon": -73.9256075}, {"type": "node", "id": 2409030664, "lat": 40.8240215, "lon": -73.9245335}, {"type": "node", "id": 2822074705, "lat": 40.8248534, "lon": -73.9240365}, {"type": "node", "id": 2822074706, "lat": 40.8238927, "lon": -73.9245843}, {"type": "node", "id": 2822074707, "lat": 40.8253949, "lon": -73.9237949}, {"type": "node", "id": 2822074708, "lat": 40.8257337, "lon": -73.9247922}, {"type": "node", "id": 2822074709, "lat": 40.8257378, "lon": -73.9248705}, {"type": "node", "id": 2822074710, "lat": 40.8257413, "lon": -73.9248378}, {"type": "node", "id": 2822074711, "lat": 40.8257304, "lon": -73.9249062}, {"type": "node", "id": 2822074712, "lat": 40.8253662, "lon": -73.9237549}, {"type": "node", "id": 2822074713, "lat": 40.8253431, "lon": -73.9237523}, {"type": "node", "id": 2822074714, "lat": 40.8253763, "lon": -73.923764}, {"type": "node", "id": 2822074723, "lat": 40.822868, "lon": -73.9249226}, {"type": "node", "id": 2822074728, "lat": 40.8222971, "lon": -73.9251844}, {"type": "node", "id": 2822074729, "lat": 40.8229952, "lon": -73.927479}, {"type": "node", "id": 2822074730, "lat": 40.8225153, "lon": -73.9277436}, {"type": "node", "id": 2822074731, "lat": 40.8208312, "lon": -73.9264574}, {"type": "node", "id": 2822074821, "lat": 40.8214007, "lon": -73.9258557}, {"type": "node", "id": 2822074841, "lat": 40.8224149, "lon": -73.9270535}, {"type": "node", "id": 2822074842, "lat": 40.8217299, "lon": -73.9271238}, {"type": "node", "id": 2822077912, "lat": 40.821143, "lon": -73.9261622}, {"type": "node", "id": 4450394989, "lat": 40.8194448, "lon": -73.9271344, "tags": {"amenity": "restaurant", "name": "Giovanni's G-Bar", "name:en": "Giovanni's G-Bar"}}, {"type": "node", "id": 6047027646, "lat": 40.8202974, "lon": -73.9274141, "tags": {"addr:city": "Bronx", "addr:housenumber": "192", "addr:postcode": "10451", "addr:state": "NY", "addr:street": "East 151st Street", "amenity": "school", "name": "Boys Prep Bronx Elementary School", "operator": "PublicPrep", "phone": "+1-718-742-4321", "website": "https://publicprep.org/"}}, {"type": "node", "id": 7163469999, "lat": 40.8188673, "lon": -73.9266015, "tags": {"addr:city": "Bronx", "addr:floor": "Roof", "addr:housenumber": "558", "addr:postcode": "10451", "addr:state": "NY", "addr:street": "Grand Concourse", "amenity": "restaurant", "check_date": "2023-10-10", "cuisine": "cuban", "level": "4", "name": "Zona de Cuba", "opening_hours": "Mo-Fr 17:00-12:00; Sa 17:00-01:00; Su 12:00-01:00", "payment:cash": "yes", "payment:mastercard": "yes", "payment:visa": "yes", "phone": "+1 718-292-1400", "website": "https://zonadecuba.com"}}, {"type": "node", "id": 7668537805, "lat": 40.8189224, "lon": -73.9277894, "tags": {"addr:city": "The Bronx", "addr:housenumber": "149", "addr:postcode": "10451", "addr:state": "NY", "addr:street": "East 149th Street", "contact:email": "joresky@oreskylaw.com", "contact:facebook": "https://www.facebook.com/Oreskylaw/", "contact:instagram": "https://www.instagram.com/oreskylaw/", "contact:phone": "+1-718-993-9999", "contact:website": "https://www.oreskylaw.com/", "name": "Oresky & Associates pllc", "office": "lawyer", "opening_hours": "24/7"}}, {"type": "node", "id": 10133472979, "lat": 40.8249372, "lon": -73.9253954}, {"type": "node", "id": 10133472980, "lat": 40.8247592, "lon": -73.9254905}, {"type": "node", "id": 10133472981, "lat": 40.8241963, "lon": -73.9258153}, {"type": "node", "id": 10133472982, "lat": 40.8239393, "lon": -73.925962}, {"type": "node", "id": 10133472983, "lat": 40.8232938, "lon": -73.9263166}, {"type": "node", "id": 10133472984, "lat": 40.8226997, "lon": -73.9266452}, {"type": "node", "id": 10133472985, "lat": 40.8221071, "lon": -73.9269611}, {"type": "node", "id": 10570664498, "lat": 40.819008, "lon": -73.9283781, "tags": {"addr:housenumber": "553", "addr:street": "Walton Avenue", "amenity": "restaurant", "name": "Cafe Royale Restaurant", "phone": "+1 718-401-4684"}}, {"type": "node", "id": 10570670804, "lat": 40.8189402, "lon": -73.9279137, "tags": {"addr:housenumber": "145", "addr:street": "East 149th Street", "amenity": "bar", "name": "Glen Roy Bar", "wheelchair": "no"}}, {"type": "node", "id": 10570671487, "lat": 40.8188351, "lon": -73.927628, "tags": {"addr:housenumber": "155", "addr:street": "East 149th Street", "amenity": "restaurant", "name": "Ocky Fried Chicken & Pizza", "wheelchair": "no"}}, {"type": "node", "id": 10570683024, "lat": 40.8190811, "lon": -73.9286386, "tags": {"addr:housenumber": "135", "addr:street": "East 149th Street", "amenity": "bar", "name": "Glacken's Bar & Grill"}}, {"type": "node", "id": 12055913882, "lat": 40.8215195, "lon": -73.9269678}, {"type": "node", "id": 12393033932, "lat": 40.8173762, "lon": -73.928631}, {"type": "node", "id": 12393033933, "lat": 40.8172585, "lon": -73.9281697}, {"type": "node", "id": 12393033934, "lat": 40.8175934, "lon": -73.9280014}, {"type": "node", "id": 12393033935, "lat": 40.8176665, "lon": -73.9281945}, {"type": "node", "id": 12393033936, "lat": 40.8177051, "lon": -73.9282233}, {"type": "node", "id": 12393033937, "lat": 40.8178431, "lon": -73.9281643}, {"type": "node", "id": 12393033938, "lat": 40.8179182, "lon": -73.9284587}, {"type": "way", "id": 38158356, "nodes": [2822074841, 449203191, 2822074730, 2822074729, 2822074841]}, {"type": "way", "id": 277746908, "nodes": [449203192, 10133472984, 10133472983, 449203193, 10133472982, 10133472981, 449203194, 10133472980, 10133472979, 449203183, 2822074711, 2822074709, 2822074710, 2822074708, 2822074707, 2822074714, 2822074712, 2822074713, 449203184, 2822074705, 2409030664, 2822074706, 449203186, 2822074723, 449203187, 2822074728, 449203188, 449203189, 2822074821, 2822077912, 449203190, 2822074731, 12055913882, 2822074842]}, {"type": "way", "id": 277746909, "nodes": [2822074842, 10133472985, 449203192]}, {"type": "way", "id": 1339757519, "nodes": [12393033932, 12393033933, 12393033934, 12393033935, 12393033936, 12393033937, 12393033938, 12393033932], "tags": {"leisure": "park"}}, {"type": "relation", "id": 3690749, "members": [{"type": "way", "ref": 38158356, "role": "outer"}, {"type": "way", "ref": 277746909, "role": "outer"}, {"type": "way", "ref": 277746908, "role": "outer"}], "tags": {"ele": "26", "gnis:feature_id": "950642", "leisure": "park", "name": "Franz Sigel Park", "name:etymology:wikidata": "Q63190", "type": "multipolygon", "wikidata": "Q49491599"}}]}