{"version": 0.6, "generator": "Overpass API 0.7.62.8 e802775f", "osm3s": {"timestamp_osm_base": "2025-12-01T15:34:30Z", "copyright": "The data included in this document is from www.openstreetmap.org. The data is made available under ODbL."}, "elements": [{"type": "node", "id": 1292782896, "lat": 40.7498004, "lon": -73.9796606, "tags": {"addr:housenumber": "70", "addr:street": "Park Avenue", "amenity": "pub", "name": "Silverleaf Tavern", "postal_code": "10016"}}, {"type": "node", "id": 1292790745, "lat": 40.7504996, "lon": -73.9791604, "tags": {"addr:city": "New York", "addr:housenumber": "90", "addr:postcode": "10016", "addr:state": "NY", "addr:street": "Park Avenue", "amenity": "cafe", "branch": "39th & Park", "brand": "Starbucks", "brand:wikidata": "Q37158", "cuisine": "coffee_shop", "name": "Starbucks", "official_name": "Starbucks Coffee", "phone": "+1 212-661-5489", "ref": "14439", "takeaway": "yes", "website": "https://www.starbucks.com/store-locator/store/14439/39th-park-90-park-ave-new-york-ny-10016-us"}}, {"type": "node", "id": 1292794350, "lat": 40.7502231, "lon": -73.9786924, "tags": {"amenity": "pub", "name": "Park Avenue Tavern"}}, {"type": "node", "id": 1292813810, "lat": 40.7521093, "lon": -73.9779307}, {"type": "node", "id": 1292813812, "lat": 40.7516193, "lon": -73.9782887}, {"type": "node", "id": 1292819650, "lat": 40.7518527, "lon": -73.9775605, "tags": {"amenity": "cafe", "brand": "Starbucks", "brand:wikidata": "Q37158", "check_date": "2011-05-20", "cuisine": "coffee_shop", "name": "Starbucks", "official_name": "Starbucks Coffee", "takeaway": "yes"}}, {"type": "node", "id": 1427212436, "lat": 40.75218, "lon": -73.9795023, "tags": {"amenity": "restaurant", "name": "Madison & Vine"}}, {"type": "node", "id": 1427212491, "lat": 40.7523353, "lon": -73.9793753, "tags": {"addr:housenumber": "303", "addr:postcode": "10017", "addr:street": "Madison Avenue", "amenity": "restaurant", "contact:facebook": "https://www.facebook.com/peranyc", "contact:instagram": "https://www.instagram.com/peranewyork", "cuisine": "mediterranean", "email": "pera@peranyc.com", "happy_hours": "15:30-19:00", "name": "Pera", "official_name": "Pera Mediterranean Brasserie", "opening_hours": "Mo-Fr 11:30-22:30; Sa 17:00-22:00; Su 17:00-21:00", "phone": "+1 212-878-6301", "website": "https://www.peranyc.com/"}}, {"type": "node", "id": 1427233358, "lat": 40.7532708, "lon": -73.9773865, "tags": {"amenity": "restaurant", "name": "LA Fonda Del Sol"}}, {"type": "node", "id": 1427265072, "lat": 40.7542362, "lon": -73.977239, "tags": {"amenity": "restaurant", "cuisine": "greek", "name": "ammos estiatorio", "website": "https://ammosnewyork.com/"}}, {"type": "node", "id": 1427265079, "lat": 40.7539377, "lon": -73.9768745, "tags": {"amenity": "cafe", "name": "The Beer Bar Cafe Centro"}}, {"type": "node", "id": 1427265082, "lat": 40.7543596, "lon": -73.9763714, "tags": {"amenity": "cafe", "brand": "Starbucks", "brand:wikidata": "Q37158", "check_date": "2011-09-08", "cuisine": "coffee_shop", "name": "Starbucks", "official_name": "Starbucks Coffee", "takeaway": "yes"}}, {"type": "node", "id": 1427265083, "lat": 40.7538356, "lon": -73.9761648, "tags": {"amenity": "restaurant", "check_date": "2025-06-15", "name": "The Capital Grille"}}, {"type": "node", "id": 1427273332, "lat": 40.7529578, "lon": -73.9752216, "tags": {"amenity": "cafe", "brand": "Starbucks", "brand:wikidata": "Q37158", "check_date": "2011-09-08", "cuisine": "coffee_shop", "name": "Starbucks", "official_name": "Starbucks Coffee", "takeaway": "yes"}}, {"type": "node", "id": 1427273333, "lat": 40.7526573, "lon": -73.9746261, "tags": {"addr:city": "New York", "addr:housenumber": "141", "addr:postcode": "10017", "addr:street": "East 44th Street", "amenity": "pub", "cocktails": "yes", "drink:beer": "draught", "drink:liquor": "yes", "drink:wine": "yes", "name": "The Wheeltapper Pub", "opening_hours": "Mo-Su 07:30-02:00", "payment:credit_cards": "yes", "payment:debit_cards": "yes"}}, {"type": "node", "id": 1427273368, "lat": 40.7523179, "lon": -73.9738176, "tags": {"addr:housenumber": "155", "addr:street": "East 44th Street", "air_conditioning": "yes", "amenity": "cafe", "branch": "Midtown East", "check_date": "2025-04-21", "cuisine": "breakfast;sandwich;chicken;coffee_shop", "delivery": "yes", "drive_through": "no", "highchair": "no", "name": "Maman", "opening_hours": "Mo-Fr 07:30-18:00; Sa-Su 08:00-16:00", "opening_hours:kitchen": "Mo-Fr 07:30-16:00; Sa-Su 08:00-16:00", "outdoor_seating": "no", "payment:credit_cards": "yes", "payment:debit_cards": "yes", "phone": "+1 646-682-7557", "smoking": "no", "takeaway": "yes", "website": "https://mamannyc.com/locations/midtown-east", "wheelchair": "yes"}}, {"type": "node", "id": 1427285902, "lat": 40.7520527, "lon": -73.9759313, "tags": {"amenity": "cafe", "brand": "Starbucks", "brand:wikidata": "Q37158", "check_date": "2011-09-08", "cuisine": "coffee_shop", "name": "Starbucks", "official_name": "Starbucks Coffee", "takeaway": "yes"}}, {"type": "node", "id": 1427286079, "lat": 40.750611, "lon": -73.9768239, "tags": {"addr:housenumber": "370", "addr:postcode": "10017", "addr:street": "Lexington Avenue", "amenity": "cafe", "branch": "Grand Central", "cuisine": "bagel;sandwich", "drink:coffee": "yes", "drink:espresso": "yes", "internet_access": "yes", "internet_access:fee": "no", "name": "Zucker's Bagels & Smoked Fish", "opening_hours": "Mo-Fr 07:00-17:30, Sa-Su 07:00-14:30", "phone": "+1-212-661-1080", "toilets": "yes", "website": "https://www.zuckersbagels.com"}}, {"type": "node", "id": 1427286257, "lat": 40.7519302, "lon": -73.978195, "tags": {"amenity": "cafe", "name": "Central Cafe"}}, {"type": "node", "id": 1427499765, "lat": 40.7519234, "lon": -73.9797222, "tags": {"addr:city": "New York", "addr:country": "US", "addr:housenumber": "295", "addr:postcode": "10017", "addr:state": "NY", "addr:street": "Madison Avenue", "amenity": "cafe", "brand": "Starbucks", "brand:wikidata": "Q37158", "check_date": "2013-06-24", "cuisine": "coffee_shop", "internet_access": "wlan", "name": "Starbucks", "official_name": "Starbucks Coffee", "opening_hours": "Mo-Fr 05:30-22:00; Sa-Su 07:00-21:00", "takeaway": "yes"}}, {"type": "node", "id": 1427499791, "lat": 40.7517125, "lon": -73.9799108, "tags": {"addr:housenumber": "291", "addr:street": "Madison Avenue", "amenity": "restaurant", "cuisine": "burger", "name": "The Heavenly Burger"}}, {"type": "node", "id": 1428427548, "lat": 40.7538901, "lon": -73.9787699, "tags": {"addr:city": "New York", "addr:housenumber": "340", "addr:postcode": "10173", "addr:state": "NY", "addr:street": "Madison Avenue", "amenity": "cafe", "branch": "44th & Madison", "brand": "Starbucks", "brand:wikidata": "Q37158", "cuisine": "coffee_shop", "name": "Starbucks", "official_name": "Starbucks Coffee", "phone": "+1 212-867-0928", "ref": "16970", "takeaway": "yes", "website": "https://www.starbucks.com/store-locator/store/16970/44th-madison-340-madison-avenue-new-york-ny-10173-us"}}, {"type": "node", "id": 1719682811, "lat": 40.749808, "lon": -73.9759379}, {"type": "node", "id": 1719682822, "lat": 40.7502808, "lon": -73.9755923}, {"type": "node", "id": 1719691006, "lat": 40.7495479, "lon": -73.9759111}, {"type": "node", "id": 1719691007, "lat": 40.7495909, "lon": -73.9758783}, {"type": "node", "id": 2573054489, "lat": 40.7543448, "lon": -73.975626, "tags": {"addr:city": "New York", "addr:housenumber": "230", "addr:postcode": "10169", "addr:street": "Park Avenue", "amenity": "restaurant", "check_date": "2025-06-15", "cuisine": "steak_house", "name": "Bobby Van's Steakhouse - Park Ave", "phone": "+1-212-867-5490", "website": "https://www.bobbyvans.com/park-ave.html"}}, {"type": "node", "id": 2666765609, "lat": 40.7510852, "lon": -73.9748309}, {"type": "node", "id": 2666765610, "lat": 40.7511342, "lon": -73.9747947}, {"type": "node", "id": 2666765611, "lat": 40.7511942, "lon": -73.9747503}, {"type": "node", "id": 2666765612, "lat": 40.7512227, "lon": -73.9748173}, {"type": "node", "id": 2666765614, "lat": 40.7513537, "lon": -73.9747205}, {"type": "node", "id": 2666765620, "lat": 40.7514443, "lon": -73.9749341}, {"type": "node", "id": 2710867609, "lat": 40.7490477, "lon": -73.9793452}, {"type": "node", "id": 2710867612, "lat": 40.7490569, "lon": -73.9793672}, {"type": "node", "id": 2710867620, "lat": 40.7490721, "lon": -73.979275}, {"type": "node", "id": 2710867627, "lat": 40.749089, "lon": -73.9793153}, {"type": "node", "id": 2710867628, "lat": 40.7490913, "lon": -73.979261}, {"type": "node", "id": 2710867636, "lat": 40.7491354, "lon": -73.9795546}, {"type": "node", "id": 2710867646, "lat": 40.749196, "lon": -73.9795107}, {"type": "node", "id": 2710957430, "lat": 40.7504324, "lon": -73.9785908, "tags": {"addr:housenumber": "99", "addr:postcode": "10016", "addr:street": "Park Avenue", "office": "lawyer", "phone": "+1-212-949-5900", "website": "https://pelglaw.com/"}}, {"type": "node", "id": 2710957434, "lat": 40.749045, "lon": -73.9779619}, {"type": "node", "id": 2710957436, "lat": 40.7490989, "lon": -73.9779227}, {"type": "node", "id": 2710957438, "lat": 40.7491409, "lon": -73.9781892}, {"type": "node", "id": 2710957442, "lat": 40.7491535, "lon": -73.97818}, {"type": "node", "id": 2710957446, "lat": 40.749186, "lon": -73.9781294}, {"type": "node", "id": 2710957450, "lat": 40.7491947, "lon": -73.9781499}, {"type": "node", "id": 2710957552, "lat": 40.7494497, "lon": -73.9781264}, {"type": "node", "id": 2710957570, "lat": 40.7494772, "lon": -73.9781916}, {"type": "node", "id": 2710957645, "lat": 40.7496574, "lon": -73.977975}, {"type": "node", "id": 2710957655, "lat": 40.7496849, "lon": -73.9780402}, {"type": "node", "id": 2714704296, "lat": 40.7493393, "lon": -73.9772354, "tags": {"addr:housenumber": "132", "addr:postcode": "10016", "addr:street": "East 39th Street", "amenity": "restaurant", "cuisine": "italian", "name": "Sam's Place", "phone": "+1-212-599-6360"}}, {"type": "node", "id": 2714704323, "lat": 40.7491333, "lon": -73.9775523, "tags": {"addr:city": "New York", "addr:country": "US", "addr:housenumber": "315", "addr:postcode": "10016", "addr:state": "NY", "addr:street": "Lexington Avenue", "alt_name": "UN Mission Cuba", "country": "CU", "diplomatic": "embassy", "email": "cuba_onu@cubamission.com", "embassy": "mission", "name": "Permanent Mission of Cuba to the United Nations", "office": "diplomatic", "official_name": "Permanent Mission of the Republic of Cuba to the United Nations", "phone": "+1-212-689-7215", "target": "UN", "website": "http://www.cubadiplomatica.cu/onu/"}}, {"type": "node", "id": 2714704324, "lat": 40.7493894, "lon": -73.9773773, "tags": {"addr:city": "New York", "addr:housenumber": "331", "addr:postcode": "10016", "addr:state": "NY", "addr:street": "Lexington Avenue", "amenity": "restaurant", "cuisine": "thai", "name": "Tam Sang", "opening_hours": "Mo-Fr 11:00-21:30; Sa-Su 12:30-21:30", "phone": "+1-212-499-0045", "takeaway": "yes", "website": "https://www.tamsang-nyc.com/midtown/"}}, {"type": "node", "id": 2714704987, "lat": 40.7489552, "lon": -73.9770059}, {"type": "node", "id": 2714705000, "lat": 40.7489881, "lon": -73.9770822}, {"type": "node", "id": 2714705036, "lat": 40.7491911, "lon": -73.9768305}, {"type": "node", "id": 2714705040, "lat": 40.749217, "lon": -73.9769119}, {"type": "node", "id": 2714705042, "lat": 40.7492239, "lon": -73.9769068}, {"type": "node", "id": 2714777534, "lat": 40.7492477, "lon": -73.9757843, "tags": {"addr:city": "New York", "addr:country": "US", "addr:housenumber": "600", "addr:postcode": "10016", "addr:state": "NY", "addr:street": "3rd Avenue", "alt_name": "UN Mission Austria", "country": "AT", "diplomatic": "embassy", "email": "new-york-ov@bmeia.gv.at", "embassy": "mission", "fax": "+1-212-949-1840", "level": "31", "name": "Permanent Mission of Austria to the United Nations", "office": "diplomatic", "official_name": "Permanent Mission of the Republic of Austria to the United Nations", "phone": "+1-917-542-8400", "target": "UN", "website": "https://www.bmeia.gv.at/oev-new-york"}}, {"type": "node", "id": 2714777540, "lat": 40.7497757, "lon": -73.9748979, "tags": {"addr:city": "New York", "addr:country": "US", "addr:housenumber": "633", "addr:postcode": "10017", "addr:state": "NY", "addr:street": "3rd Avenue", "alt_name": "UN Mission Afghanistan", "country": "AF", "diplomatic": "embassy", "embassy": "mission", "fax": "+1-212-972-1216", "level": "27", "name": "Permanent Mission of Afghanistan to the United Nations", "office": "diplomatic", "phone": "+1-212-972-1212", "target": "UN"}}, {"type": "node", "id": 2714777819, "lat": 40.7494493, "lon": -73.9762641}, {"type": "node", "id": 2714777880, "lat": 40.7496806, "lon": -73.9760941}, {"type": "node", "id": 2714777891, "lat": 40.7497256, "lon": -73.975411}, {"type": "node", "id": 2714777894, "lat": 40.74975, "lon": -73.9758008}, {"type": "node", "id": 2714777899, "lat": 40.7497755, "lon": -73.9755289}, {"type": "node", "id": 2714777905, "lat": 40.7497976, "lon": -73.9755127}, {"type": "node", "id": 2714777906, "lat": 40.749799, "lon": -73.9753575}, {"type": "node", "id": 2714777926, "lat": 40.7498794, "lon": -73.9757063}, {"type": "node", "id": 2714777929, "lat": 40.7499049, "lon": -73.9756101}, {"type": "node", "id": 2714777931, "lat": 40.7499228, "lon": -73.975597}, {"type": "node", "id": 2714777933, "lat": 40.7499482, "lon": -73.9756578}, {"type": "node", "id": 2714777945, "lat": 40.7502227, "lon": -73.9754572}, {"type": "node", "id": 2714805250, "lat": 40.7521428, "lon": -73.9739415, "tags": {"addr:city": "New York", "addr:housenumber": "160", "addr:postcode": "10017", "addr:state": "NY", "addr:street": "East 44th Street", "air_conditioning": "no", "amenity": "cafe", "brand": "Gong Cha", "brand:wikidata": "Q5581670", "brand:zh": "\u8ca2\u8336", "check_date": "2024-12-30", "cuisine": "bubble_tea", "delivery": "yes", "drink:bubble_tea": "yes", "drink:tea": "yes", "drive_through": "no", "highchair": "no", "int_name": "Gong Cha", "name": "Gong Cha", "name:zh": "\u8ca2\u8336", "opening_hours": "10:30-21:30", "outdoor_seating": "no", "payment:cash": "yes", "payment:contactless": "yes", "payment:credit_cards": "yes", "payment:debit_cards": "yes", "phone": "+1 646-707-3375", "smoking": "no", "takeaway": "yes", "toilets": "no", "website": "https://gongchausa.com/new-york-44thst/", "wheelchair": "yes"}}, {"type": "node", "id": 2714805255, "lat": 40.7508066, "lon": -73.9739974, "tags": {"addr:city": "New York", "addr:country": "US", "addr:housenumber": "201", "addr:postcode": "10017", "addr:state": "NY", "addr:street": "East 42nd Street", "alt_name": "UN Mission Papua New Guinea", "country": "PG", "diplomatic": "embassy", "email": "pngun@pngmission.org", "embassy": "mission", "fax": "+1-212-557-5009", "name": "Permanent Mission of Papua New Guinea to the United Nations", "office": "diplomatic", "official_name": "Permanent Mission of the Independent State of Papua New Guinea to the United Nations", "phone": "+1-212-557-5001", "target": "UN"}}, {"type": "node", "id": 2714805259, "lat": 40.7506675, "lon": -73.973776, "tags": {"addr:housenumber": "205", "addr:postcode": "10017", "addr:street": "East 42nd Street", "amenity": "cafe", "brand": "Aroma Espresso Bar", "brand:wikidata": "Q2909872", "cuisine": "coffee_shop", "drink:coffee": "yes", "drink:espresso": "yes", "name": "Aroma Espresso Bar", "takeaway": "yes", "toilets:wheelchair": "no", "wheelchair": "no"}}, {"type": "node", "id": 2714805301, "lat": 40.750791, "lon": -73.9739648, "tags": {"addr:city": "New York", "addr:country": "US", "addr:housenumber": "675", "addr:postcode": "10017", "addr:state": "NY", "addr:street": "3rd Avenue", "alt_name": "UN Mission Belize", "country": "BZ", "diplomatic": "embassy", "embassy": "mission", "fax": "+1-212-593-0932", "name": "Permanent Mission of Belize to the United Nations", "office": "diplomatic", "phone": "+1-212-986-1240", "target": "UN"}}, {"type": "node", "id": 2714805390, "lat": 40.7511523, "lon": -73.9749903}, {"type": "node", "id": 2714805392, "lat": 40.7511662, "lon": -73.9749801}, {"type": "node", "id": 2714805394, "lat": 40.7511879, "lon": -73.9750766}, {"type": "node", "id": 2714805399, "lat": 40.751206, "lon": -73.9750518}, {"type": "node", "id": 2714805405, "lat": 40.7512351, "lon": -73.9751352}, {"type": "node", "id": 2714805420, "lat": 40.7514378, "lon": -73.9749871}, {"type": "node", "id": 2714805421, "lat": 40.7514593, "lon": -73.9749714}, {"type": "node", "id": 2714855288, "lat": 40.7515422, "lon": -73.9798731, "tags": {"addr:housenumber": "23", "addr:postcode": "10017", "addr:street": "East 40th Street", "amenity": "restaurant", "cuisine": "steak_house", "name": "Benjamin Prime", "website": "https://benjaminsteakhouse.com/prime/"}}, {"type": "node", "id": 2714855346, "lat": 40.7506914, "lon": -73.9798879}, {"type": "node", "id": 2714855786, "lat": 40.7506594, "lon": -73.9798658}, {"type": "node", "id": 2714855788, "lat": 40.7506769, "lon": -73.9798531}, {"type": "node", "id": 2714855792, "lat": 40.7507387, "lon": -73.9800171}, {"type": "node", "id": 2714855794, "lat": 40.7507438, "lon": -73.9800133}, {"type": "node", "id": 2714855808, "lat": 40.7508171, "lon": -73.979751}, {"type": "node", "id": 2714855816, "lat": 40.7508841, "lon": -73.9799113}, {"type": "node", "id": 2714913597, "lat": 40.7523642, "lon": -73.9735814, "tags": {"addr:city": "New York", "addr:housenumber": "155", "addr:postcode": "10017", "addr:state": "NY", "addr:street": "East 44th Street", "alt_name": "UN Mission Lithuania", "check_date": "2024-12-18", "country": "LT", "diplomatic": "embassy", "embassy": "mission", "fax": "+1-212-983-9473", "level": "10", "name": "Permanent Mission of the Republic of Lithuania to the United Nations", "office": "diplomatic", "phone": "+1-212-983-9474", "target": "UN", "website": "lithuaniaun@gmail.com"}}, {"type": "node", "id": 2715512001, "lat": 40.7503295, "lon": -73.9770276, "tags": {"addr:city": "New York", "addr:housenumber": "360", "addr:postcode": "10017", "addr:state": "NY", "addr:street": "Lexington Avenue", "amenity": "cafe", "branch": "40th & Lex", "brand": "Starbucks", "brand:wikidata": "Q37158", "cuisine": "coffee_shop", "name": "Starbucks", "official_name": "Starbucks Coffee", "phone": "+1 212-953-1662", "ref": "16936", "takeaway": "yes", "website": "https://www.starbucks.com/store-locator/store/16936/40th-lex-360-lexington-avenue-new-york-ny-10017-us"}}, {"type": "node", "id": 2715512141, "lat": 40.7514362, "lon": -73.9778739}, {"type": "node", "id": 2715512152, "lat": 40.7519063, "lon": -73.9775305}, {"type": "node", "id": 2857798400, "lat": 40.750704, "lon": -73.9798334}, {"type": "node", "id": 2857798801, "lat": 40.7507223, "lon": -73.97982}, {"type": "node", "id": 2857798802, "lat": 40.7507548, "lon": -73.9797964}, {"type": "node", "id": 2932866815, "lat": 40.7516349, "lon": -73.9782773}, {"type": "node", "id": 2932866825, "lat": 40.7516734, "lon": -73.9782492}, {"type": "node", "id": 2932866827, "lat": 40.7516838, "lon": -73.9782416}, {"type": "node", "id": 2932866846, "lat": 40.7517124, "lon": -73.9782207}, {"type": "node", "id": 2932866848, "lat": 40.7517189, "lon": -73.978216}, {"type": "node", "id": 2932866851, "lat": 40.7517477, "lon": -73.9781949}, {"type": "node", "id": 2932866854, "lat": 40.7517581, "lon": -73.9781873}, {"type": "node", "id": 2932866856, "lat": 40.751787, "lon": -73.9781662}, {"type": "node", "id": 2932866858, "lat": 40.7517934, "lon": -73.9781615}, {"type": "node", "id": 2932866862, "lat": 40.7518224, "lon": -73.9781403}, {"type": "node", "id": 2932866864, "lat": 40.7518329, "lon": -73.9781327}, {"type": "node", "id": 2932866866, "lat": 40.7518618, "lon": -73.9781116}, {"type": "node", "id": 2932866868, "lat": 40.7518682, "lon": -73.9781069}, {"type": "node", "id": 2932866871, "lat": 40.7518972, "lon": -73.9780857}, {"type": "node", "id": 2932866873, "lat": 40.7519077, "lon": -73.9780781}, {"type": "node", "id": 2932866875, "lat": 40.7519366, "lon": -73.9780569}, {"type": "node", "id": 2932866877, "lat": 40.751943, "lon": -73.9780522}, {"type": "node", "id": 2932866879, "lat": 40.7519721, "lon": -73.978031}, {"type": "node", "id": 2932866881, "lat": 40.7519825, "lon": -73.9780234}, {"type": "node", "id": 2932866883, "lat": 40.7520113, "lon": -73.9780023}, {"type": "node", "id": 2932866885, "lat": 40.7520178, "lon": -73.9779976}, {"type": "node", "id": 2932866888, "lat": 40.7520465, "lon": -73.9779766}, {"type": "node", "id": 2932866890, "lat": 40.752057, "lon": -73.977969}, {"type": "node", "id": 2932866893, "lat": 40.7520937, "lon": -73.9779421}, {"type": "node", "id": 2943221398, "lat": 40.7515926, "lon": -73.9777596}, {"type": "node", "id": 2943221406, "lat": 40.7517496, "lon": -73.9776449}, {"type": "node", "id": 3056935563, "lat": 40.7510405, "lon": -73.9755221, "tags": {"addr:city": "New York", "addr:country": "US", "addr:housenumber": "150", "addr:postcode": "10017", "addr:state": "NY", "addr:street": "East 42nd Street", "alt_name": "UN Mission Australia", "country": "AU", "diplomatic": "embassy", "email": "australia@un.int", "embassy": "mission", "fax": "+1-212-351-6610", "level": "33", "name": "Permanent Mission of Australia to the United Nations", "office": "diplomatic", "official_name": "Permanent Mission of the Commonwealth of Australia to the United Nations", "phone": "+1-212-351-6600", "target": "UN", "website": "https://unny.mission.gov.au/"}}, {"type": "node", "id": 3056992407, "lat": 40.7534898, "lon": -73.9733112, "tags": {"addr:city": "New York", "addr:housenumber": "160", "addr:postcode": "10017", "addr:street": "East 46th Street", "air_conditioning": "yes", "amenity": "restaurant", "bar": "yes", "check_date": "2025-04-14", "name": "Aretsky's Patroon", "official_name": "Aretsky's Patroon Townhouse", "opening_hours": "Mo-Fr 11:45-14:45, 17:30-22:00", "outdoor_seating": "yes", "payment:cash": "yes", "payment:contactless": "yes", "payment:credit_cards": "yes", "payment:debit_cards": "yes", "phone": "+1 212-883-7373", "reservation": "yes", "website": "https://aretskyspatroon.com", "wheelchair": "yes"}}, {"type": "node", "id": 3056992409, "lat": 40.7534654, "lon": -73.973422, "tags": {"addr:city": "New York", "addr:country": "US", "addr:housenumber": "154", "addr:postcode": "10017", "addr:state": "NY", "addr:street": "East 46th Street", "alt_name": "UN Mission Botswana", "check_date": "2025-04-14", "country": "BW", "diplomatic": "embassy", "email": "botswana@un.int", "embassy": "mission", "fax": "+1-212-725-5061", "name": "The Permanent Mission of Botswana to the United Nations", "office": "diplomatic", "official_name": "Permanent Mission of the Republic of Botswana to the United Nations", "phone": "+1-212-889-2277", "target": "UN"}}, {"type": "node", "id": 3056992410, "lat": 40.7497637, "lon": -73.9748535, "tags": {"addr:city": "New York", "addr:country": "US", "addr:housenumber": "633", "addr:postcode": "10017", "addr:state": "NY", "addr:street": "3rd Avenue", "alt_name": "UN Mission Burkina Faso", "country": "BF", "diplomatic": "embassy", "email": "bfapm@un.int", "embassy": "mission", "fax": "+1-212-308-4690", "level": "31", "name": "Permanent Mission of Burkina Faso to the United Nations", "office": "diplomatic", "phone": "+1-212-308-4720", "target": "UN"}}, {"type": "node", "id": 3057210739, "lat": 40.7523481, "lon": -73.9744712, "tags": {"addr:city": "New York", "addr:country": "US", "addr:housenumber": "144", "addr:postcode": "10017", "addr:state": "NY", "addr:street": "East 44th Street", "alt_name": "UN Mission Dominican Republic", "country": "DO", "diplomatic": "embassy", "email": "drun@un.int", "embassy": "mission", "fax": "+1-212-986-4694", "level": "4", "name": "Permanent Mission of the Dominican Republic to the United Nations", "office": "diplomatic", "phone": "+1-212-867-0833", "target": "UN"}}, {"type": "node", "id": 3057275125, "lat": 40.7502598, "lon": -73.9756539, "tags": {"addr:city": "New York", "addr:country": "US", "addr:housenumber": "622", "addr:state": "NY", "addr:street": "3rd Avenue", "alt_name": "UN Mission Iran", "country": "IR", "diplomatic": "embassy", "embassy": "mission", "fax": "+1-212-867-7086", "level": "34", "name": "Permanent Mission of Iran to the United Nations", "office": "diplomatic", "official_name": "Permanent Mission of the Islamic Republic of Iran to the United Nations", "phone": "+1-212-687-2020", "target": "UN", "website": "https://www.iran-un.org/"}}, {"type": "node", "id": 3057399345, "lat": 40.7498118, "lon": -73.9748675, "tags": {"addr:city": "New York", "addr:country": "US", "addr:housenumber": "633", "addr:postcode": "10017", "addr:state": "NY", "addr:street": "3rd Avenue", "alt_name": "UN Mission Liechtenstein", "country": "LI", "diplomatic": "embassy", "email": "newyork@llv.li", "embassy": "mission", "level": "27", "name": "Permanent Mission of Liechtenstein to the United Nations", "office": "diplomatic", "official_name": "Permanent Mission of the Principality of Liechtenstein to the United Nations", "phone": "+1-212-599-0220", "target": "UN"}}, {"type": "node", "id": 3058733176, "lat": 40.7492094, "lon": -73.9758155, "tags": {"addr:city": "New York", "addr:country": "US", "addr:housenumber": "600", "addr:postcode": "10016", "addr:state": "NY", "addr:street": "3rd Avenue", "alt_name": "UN Mission New Zealand", "country": "NZ", "diplomatic": "embassy", "email": "nzpmun@gmail.com", "embassy": "mission", "fax": "+1-212-758-0827", "level": "14", "name": "Permanent Mission of New Zealand to the United Nations", "name:de": "St\u00e4ndige Vertretung von Neuseeland bei den Vereinten Nationen", "name:en": "Permanent Mission of New Zealand to the United Nations", "office": "diplomatic", "opening_hours": "Mo-Fr 09:00-17:30", "phone": "+1-212-826-1960", "target": "UN;WTO", "website": "https://www.mfat.govt.nz/en/countries-and-regions/united-nations/permanent-mission-to-the-united-nations-new-york/", "wikidata": "Q76009978"}}, {"type": "node", "id": 3058733179, "lat": 40.7511342, "lon": -73.9744561, "tags": {"addr:city": "New York", "addr:country": "US", "addr:housenumber": "666", "addr:postcode": "10017", "addr:state": "NY", "addr:street": "3rd Avenue", "addr:unit": "19th Floor", "alt_name": "UN Mission Netherlands", "consulate": "consulate_general", "country": "NL", "diplomatic": "consulate", "email": "nyc@minbuza.nl", "fax": "+1-212-370-1954", "level": "19", "name": "The Netherlands Consulate General in New York", "office": "diplomatic", "opening_hours": "Mo-Fr 09:00-17:00", "phone": "+1-646-557-2200", "target": "UN", "website": "https://www.netherlandsandyou.nl/web/pr-un-new-york"}}, {"type": "node", "id": 3058859501, "lat": 40.7509542, "lon": -73.9740451, "tags": {"addr:city": "New York", "addr:country": "US", "addr:housenumber": "675", "addr:postcode": "10017", "addr:street": "3rd Avenue", "alt_name": "UN Mission Sao Tome and Principe", "country": "ST", "diplomatic": "embassy", "email": "rdstppmun@gmail.com", "embassy": "mission", "fax": "+1-212-651-8117", "level": "7", "name": "Permanent Mission of Sao Tome and Principe to the United Nations", "note": "Temporarily located at 336 East 45th Street, level 13", "office": "diplomatic", "official_name": "Permanent Mission of the Democratic Republic of Sao Tome and Principe to the United Nations", "phone": "+1-212-651-8116", "target": "UN"}}, {"type": "node", "id": 3059069173, "lat": 40.7500445, "lon": -73.9752214, "tags": {"addr:city": "New York", "addr:country": "US", "addr:housenumber": "630", "addr:postcode": "10017", "addr:state": "NY", "addr:street": "3rd Avenue", "alt_name": "UN Mission Slovenia", "country": "SI", "diplomatic": "embassy", "email": "slovenia@un.int", "embassy": "mission", "fax": "+1-212-370-1824", "level": "20", "name": "Permanent Mission of Slovenia to the United Nations", "office": "diplomatic", "official_name": "Permanent Mission of the Republic of Slovenia to the United Nations", "phone": "+1-212-370-3007", "target": "UN", "website": "https://www.newyork.mission.sl", "wikidata": "Q19937098"}}, {"type": "node", "id": 3059121630, "lat": 40.7497955, "lon": -73.9748245, "tags": {"addr:city": "New York", "addr:country": "US", "addr:housenumber": "633", "addr:postcode": "10017", "addr:street": "3rd Avenue", "alt_name": "UN Mission Switzerland", "country": "CH", "diplomatic": "embassy", "embassy": "mission", "level": "29", "name": "Permanent Mission of Switzerland to the United Nations", "office": "diplomatic", "target": "UN"}}, {"type": "node", "id": 3059147272, "lat": 40.7498263, "lon": -73.9748008, "tags": {"addr:city": "New York", "addr:country": "US", "addr:housenumber": "633", "addr:postcode": "10017", "addr:state": "NY", "addr:street": "3rd Avenue", "alt_name": "UN Mission Trinidad and Tobago", "country": "TT", "diplomatic": "embassy", "email": "tto@un.int", "embassy": "mission", "fax": "+1-212-682-3580", "level": "12", "name": "Permanent Mission of Trinidad and Tobago to the United Nations", "office": "diplomatic", "official_name": "Permanent Mission of the Republic of Trinidad and Tobago to the United Nations", "phone": "+1-212-697-7620", "target": "UN"}}, {"type": "node", "id": 3066339955, "lat": 40.752534, "lon": -73.9733861, "tags": {"addr:city": "New York", "addr:housenumber": "712", "addr:postcode": "10017", "addr:state": "NY", "addr:street": "3rd Avenue", "air_conditioning": "yes", "amenity": "restaurant", "bar": "yes", "brand": "Hofbr\u00e4u M\u00fcnchen", "check_date": "2025-11-06", "contact:facebook": "http://www.facebook.com/bierhausnyc", "contact:instagram": "http://instagram.com/bierhausnyc", "contact:twitter": "https://twitter.com/BierhausNYC", "cuisine": "german", "drink:beer": "draught", "email": "info@bierhausnyc.com", "name": "Bierhaus NYC", "opening_hours": "Mo-We 11:30-22:00; Th-Fr 11:30-24:00; Sa 12:00-24:00; Su 12:00-22:00", "outdoor_seating": "yes", "payment:cash": "yes", "payment:contactless": "yes", "payment:credit_cards": "yes", "payment:debit_cards": "yes", "phone": "+1 212-867-2337", "reservation": "yes", "smoking": "no", "toilets": "yes", "website": "https://www.bierhausnyc.com"}}, {"type": "node", "id": 3577542666, "lat": 40.7531885, "lon": -73.9797511, "tags": {"addr:housenumber": "11", "addr:postcode": "10017", "addr:street": "East 42nd Street", "amenity": "cafe", "brand": "Bluestone Lane", "brand:wikidata": "Q130381059", "cuisine": "coffee_shop", "drink:coffee": "yes", "drink:espresso": "yes", "drink:tea": "yes", "name": "Bluestone Lane", "opening_hours": "Mo-Th 06:30-18:00; Fr 06:30-17:00; Sa-Su 07:00-16:00", "takeaway": "yes"}}, {"type": "node", "id": 3618193490, "lat": 40.7493521, "lon": -73.9767192, "tags": {"addr:city": "New York", "addr:housenumber": "145", "addr:postcode": "10016", "addr:state": "NY", "addr:street": "East 34th Street", "amenity": "restaurant", "branch": "Murray Hill", "cocktails": "yes", "cuisine": "italian", "drink:beer": "served", "name": "Arthur & Sons", "opening_hours": "Su-Th 17:00-22:00; Fr-Sa 17:00-23:00", "reservation": "yes", "website": "https://arthurandsonsnyc.com/pages/murray-hill"}}, {"type": "node", "id": 3618193491, "lat": 40.7493147, "lon": -73.9765665, "tags": {"amenity": "bar", "name": "POD 39 Rooftop"}}, {"type": "node", "id": 3618200208, "lat": 40.7505917, "lon": -73.9802461, "tags": {"addr:city": "New York", "addr:housenumber": "24", "addr:postcode": "10016", "addr:street": "East 39th Street", "amenity": "pub", "name": "The Shakespeare", "website": "https://www.theshakespearenyc.com/"}}, {"type": "node", "id": 3661019455, "lat": 40.7516877, "lon": -73.9803474, "tags": {"addr:city": "New York", "addr:housenumber": "286", "addr:state": "NY", "addr:street": "Madison Avenue", "name": "RJS Pest Management", "office": "company", "phone": "+1-212-896-1299", "website": "https://www.rjspest.com/"}}, {"type": "node", "id": 3733142431, "lat": 40.7530185, "lon": -73.9772838, "tags": {"addr:city": "Grand Central Station", "addr:housenumber": "35", "addr:postcode": "10017", "addr:state": "NY", "addr:street": "Track", "amenity": "cafe", "branch": "Grand Central", "brand": "Starbucks", "brand:wikidata": "Q37158", "cuisine": "coffee_shop", "level": "-1", "name": "Starbucks", "official_name": "Starbucks Coffee", "phone": "+1 212-370-4161", "takeaway": "yes", "website": "https://www.starbucks.com/store-locator/store/15298/grand-central-86-grand-central-at-track-35-track-35-new-york-ny-"}}, {"type": "node", "id": 3792513846, "lat": 40.7510046, "lon": -73.9765387, "tags": {"amenity": "cafe", "cuisine": "coffee_shop", "internet_access": "wlan", "internet_access:fee": "no", "name": "FIKA Grand Central", "opening_hours": "Mo-Fr 07:00-19:00; Sa 08:00-17:00; Su 09:00-17:00", "phone": "+1-212-832-0022", "website": "https://www.fikanyc.com/"}}, {"type": "node", "id": 3830882165, "lat": 40.7493606, "lon": -73.9760467}, {"type": "node", "id": 3830888625, "lat": 40.7496317, "lon": -73.9759764}, {"type": "node", "id": 3847565724, "lat": 40.7519669, "lon": -73.9777869, "tags": {"amenity": "restaurant", "name": "Pershing Square", "source": "survey", "website": "https://www.pershingsquare.com/"}}, {"type": "node", "id": 3938667582, "lat": 40.7513197, "lon": -73.9800709, "tags": {"addr:city": "New York", "addr:housenumber": "275", "addr:postcode": "10016", "addr:state": "NY", "addr:street": "Madison Avenue", "name": "Rosa Luxemburg Foundation, New York Office", "name:de": "Rosa Luxemburg Stiftung (RLS), New York Office", "note": "RLS-NYC", "office": "ngo", "opening_hours": "Mo-Fr 09:00-17:00", "source": "http://rosalux-nyc.org/", "website": "http://rosalux-nyc.org/"}}, {"type": "node", "id": 3958753835, "lat": 40.7507733, "lon": -73.9800415, "tags": {"addr:city": "New York", "addr:country": "US", "addr:housenumber": "25", "addr:postcode": "10016", "addr:state": "NY", "addr:street": "East 39th Street", "alt_name": "UN Mission Holy See", "country": "VA", "diplomatic": "embassy", "email": "office@holyseemission.org", "embassy": "mission", "fax": "+1-212-370-9622", "name": "Permanent Observer Mission of the Holy See to the United Nations", "office": "diplomatic", "phone": "+1-212-370-7885", "target": "UN", "website": "https://holyseemission.org"}}, {"type": "node", "id": 3960139719, "lat": 40.7506394, "lon": -73.9737151, "tags": {"addr:housenumber": "209", "addr:postcode": "10017", "addr:street": "East 42nd Street", "amenity": "restaurant", "cuisine": "italian", "name": "Osteria Laguna", "website": "http://www.osterialagunanyc.com/"}}, {"type": "node", "id": 3976829275, "lat": 40.7535732, "lon": -73.9734874, "tags": {"addr:housenumber": "152", "addr:street": "East 46th Street", "amenity": "restaurant", "check_date": "2025-04-14", "cuisine": "indian", "delivery": "yes", "name": "Muna", "payment:cash": "yes", "payment:contactless": "yes", "payment:credit_cards": "yes", "payment:debit_cards": "yes", "phone": "+1 646-398-7960", "smoking": "no", "takeaway": "yes"}}, {"type": "node", "id": 3976829277, "lat": 40.7536128, "lon": -73.9735973, "tags": {"addr:housenumber": "148", "addr:street": "East 46th Street", "air_conditioning": "yes", "amenity": "restaurant", "check_date": "2025-04-14", "cuisine": "indian", "delivery": "yes", "highchair": "no", "name": "Curry and Tandoor", "outdoor_seating": "no", "payment:cash": "yes", "payment:contactless": "yes", "payment:credit_cards": "yes", "payment:debit_cards": "yes", "phone": "+1 212-490-1277", "smoking": "no", "takeaway": "yes", "wheelchair": "no"}}, {"type": "node", "id": 4190039995, "lat": 40.7537677, "lon": -73.9779905, "tags": {"addr:street": "Vanderbilt Avenue", "amenity": "restaurant", "name": "Urban Space"}}, {"type": "node", "id": 4217644287, "lat": 40.751705, "lon": -73.97489, "tags": {"addr:city": "New York", "addr:housenumber": "132", "addr:postcode": "10017", "addr:state": "NY", "addr:street": "East 43rd Street", "description": "Record Nations is dedicated to helping homes and businesses with all types of data conversion projects.", "name": "Record Nations", "office": "company", "phone": "+1-917-633-4642", "website": "https://www.recordnations.com/featured/new-york-city"}}, {"type": "node", "id": 4273123512, "lat": 40.7495075, "lon": -73.9746391, "tags": {"addr:city": "New York", "addr:housenumber": "633", "addr:postcode": "10017", "addr:state": "NY", "addr:street": "3rd Avenue", "consulate": "consulate_general", "country": "CH", "description": "Also Swiss Business Hub and Permanent Mission of Switzerland to the UN", "diplomatic": "consulate", "level": "30", "name": "Consulate General of Switzerland", "name:de": "Schweizerisches Generalkonsulat", "office": "diplomatic", "phone": "+1 212 599 5700", "target": "US", "website": "https://www.eda.admin.ch/newyork"}}, {"type": "node", "id": 4405040689, "lat": 40.7495793, "lon": -73.9734965, "tags": {"addr:housenumber": "225", "addr:postcode": "10017-6927", "addr:street": "East 41st Street", "consulate": "consulate_general", "country": "BR", "diplomatic": "consulate", "name": "Brazilian Consulate General", "name:en": "Brazilian Consulate General", "office": "diplomatic", "website": "http://novayork.itamaraty.gov.br/en-us/Main.xml"}}, {"type": "node", "id": 4513926394, "lat": 40.7503349, "lon": -73.9750642, "tags": {"addr:housenumber": "640", "addr:street": "3rd Avenue", "air_conditioning": "yes", "amenity": "restaurant", "bar": "yes", "check_date": "2025-04-08", "cuisine": "mexican", "delivery": "yes", "internet_access": "wlan", "name": "Sinigual", "outdoor_seating": "no", "payment:cash": "yes", "payment:contactless": "yes", "payment:credit_cards": "yes", "payment:debit_cards": "yes", "reservation": "yes", "smoking": "no", "takeaway": "yes", "wheelchair": "yes"}}, {"type": "node", "id": 4555837496, "lat": 40.7516202, "lon": -73.974679, "tags": {"addr:city": "New York", "addr:housenumber": "666", "addr:postcode": "10017", "addr:state": "NY", "addr:street": "3rd Avenue", "air_conditioning": "yes", "amenity": "restaurant", "branch": "Midtown", "check_date": "2024-12-30", "cuisine": "american", "delivery": "Mo-Fr 11:00-20:00", "email": "hello@blueparkkitchen.com", "name": "Blue-Park Kitchen", "opening_hours": "Mo-Fr 08:00-10:15,11:00-20:00", "payment:cash": "yes", "payment:contactless": "yes", "payment:credit_cards": "yes", "payment:debit_cards": "yes", "phone": "+1-646-760-2168", "takeaway": "Mo-Fr 11:00-20:00", "website": "https://www.blueparkkitchen.com/location/midtown/", "website:menu": "https://www.blueparkkitchen.com/menu/", "wheelchair": "yes"}}, {"type": "node", "id": 4557782565, "lat": 40.752013, "lon": -73.975055, "tags": {"air_conditioning": "yes", "amenity": "cafe", "check_date": "2024-12-30", "cuisine": "deli", "delivery": "yes", "drive_through": "no", "indoor_seating": "yes", "internet_access": "yes", "level": "0", "name": "Bagel Market", "outdoor_seating": "yes", "payment:cash": "yes", "payment:contactless": "yes", "payment:credit_cards": "yes", "payment:debit_cards": "yes", "phone": "+1 212-681-6300", "smoking": "no", "takeaway": "yes", "wheelchair": "yes"}}, {"type": "node", "id": 4561048492, "lat": 40.7522516, "lon": -73.9736217, "tags": {"addr:city": "New York", "addr:housenumber": "708", "addr:postcode": "10017", "addr:state": "NY", "addr:street": "3rd Avenue", "amenity": "restaurant", "brand": "CAVA", "brand:wikidata": "Q85751038", "check_date": "2025-03-03", "cuisine": "mediterranean", "name": "CAVA", "opening_hours": "Mo 10:45-22:00; Tu 10:45-20:00; We-Su 10:45-22:00", "payment:cash": "yes", "payment:contactless": "yes", "payment:credit_cards": "yes", "payment:debit_cards": "yes", "phone": "+1-332-345-2438", "takeaway": "yes", "website": "https://cava.com/locations/708-3rd-ave-ny", "wheelchair": "yes"}}, {"type": "node", "id": 4676426947, "lat": 40.7528247, "lon": -73.9775449}, {"type": "node", "id": 4676427556, "lat": 40.7527932, "lon": -73.9775683}, {"type": "node", "id": 4676427557, "lat": 40.7528578, "lon": -73.9775204}, {"type": "node", "id": 4676427871, "lat": 40.7529579, "lon": -73.9775951}, {"type": "node", "id": 4676427874, "lat": 40.7529453, "lon": -73.9775647}, {"type": "node", "id": 4676428105, "lat": 40.75293, "lon": -73.9775302}, {"type": "node", "id": 4676428106, "lat": 40.7529094, "lon": -73.9774817}, {"type": "node", "id": 4676428107, "lat": 40.7528976, "lon": -73.9774906}, {"type": "node", "id": 4676428108, "lat": 40.7528722, "lon": -73.9775096}, {"type": "node", "id": 4676428109, "lat": 40.7528351, "lon": -73.9776869}, {"type": "node", "id": 4676428110, "lat": 40.752874, "lon": -73.9776585}, {"type": "node", "id": 4676428111, "lat": 40.7528926, "lon": -73.9777016}, {"type": "node", "id": 4676428112, "lat": 40.7529406, "lon": -73.9776655}, {"type": "node", "id": 4676428113, "lat": 40.752922, "lon": -73.9776224}, {"type": "node", "id": 4676428114, "lat": 40.752953, "lon": -73.9775989}, {"type": "node", "id": 4676428263, "lat": 40.7527865, "lon": -73.9775733}, {"type": "node", "id": 4687199589, "lat": 40.7497376, "lon": -73.9774652, "tags": {"addr:city": "New York", "addr:housenumber": "336", "addr:postcode": "10016", "addr:state": "NY", "addr:street": "Lexington Avenue", "amenity": "restaurant", "cuisine": "south_indian", "diet:vegetarian": "yes", "name": "Adyar Ananda Bhavan", "opening_hours": "Mo-Fr 11:30-15:00,17:00-21:00; Sa-Su 12:00-21:00", "phone": "+1-212-986-1520", "website": "https://adyaranandabhavanlex.com/"}}, {"type": "node", "id": 4947762721, "lat": 40.7498696, "lon": -73.9777147, "tags": {"addr:housenumber": "125", "addr:postcode": "10016", "addr:street": "East 39th Street", "amenity": "restaurant", "contact:facebook": "https://www.facebook.com/pages/Kajitsu-Shojin-Cuisine/541387535930249", "diet:vegetarian": "only", "level": "1", "name": "Kaijitsu", "opening_hours": "Tu-Su 17:30-21:00", "phone": "+1-212-228-4873", "website": "https://kajitsunyc.com/", "wheelchair": "no"}}, {"type": "node", "id": 5090753899, "lat": 40.7499785, "lon": -73.9772998, "tags": {"addr:housenumber": "346", "addr:postcode": "10016", "addr:street": "Lexington Avenue", "amenity": "restaurant", "bar": "yes", "cuisine": "jamaican", "drink:beer": "yes", "drink:liquor": "yes", "drink:wine": "yes", "name": "Jumieka Grand", "phone": "+1-646-922-7830", "website": "https://jumiekagrand.com"}}, {"type": "node", "id": 5254559384, "lat": 40.7518926, "lon": -73.9738545, "tags": {"addr:housenumber": "694", "addr:street": "3rd Avenue", "amenity": "restaurant", "check_date": "2025-01-07", "cuisine": "asian;sushi", "fax": "+1-212-986-7777", "name": "Amaze", "opening_hours": "Mo-Th 11:00-23:00; Fr 11:00-23:30; Sa 12:00-23:30; Su 12:00-23:00", "payment:cash": "yes", "payment:contactless": "yes", "payment:credit_cards": "yes", "payment:debit_cards": "yes", "phone": "+1-212-986-5555", "website": "https://amaze43.com/", "wheelchair": "yes"}}, {"type": "node", "id": 5319150021, "lat": 40.752605, "lon": -73.9778482, "tags": {"addr:housenumber": "15", "addr:postcode": "10017", "addr:street": "Vanderbilt Avenue", "amenity": "bar", "name": "The Campbell Bar", "opening_hours": "Mo-Su 12:00-02:00", "phone": "+1-212-297-1781", "website": "https://www.thecampbellnyc.com/", "wikidata": "Q5027988"}}, {"type": "node", "id": 5664814202, "lat": 40.7521444, "lon": -73.9757163, "tags": {"addr:city": "New York", "addr:housenumber": "89", "addr:postcode": "10017", "addr:street": "East 42nd Street", "amenity": "cafe", "branch": "Grand Central Terminal", "brand": "Caf\u00e9 Grumpy", "cuisine": "coffee_shop", "drink:coffee": "yes", "drink:espresso": "yes", "internet_access": "no", "name": "Caf\u00e9 Grumpy", "opening_hours": "Mo-Fr 06:00-20:00; Sa, Su 07:00-20:00", "payment:cash": "yes", "payment:mastercard": "yes", "payment:visa": "yes", "phone": "+1 212-661-2198", "website": "https://cafegrumpy.com/locations/grand-central-terminal"}}, {"type": "node", "id": 5716116193, "lat": 40.7523028, "lon": -73.9784305, "tags": {"addr:housenumber": "60", "addr:postcode": "10165", "addr:street": "East 42nd Street", "addr:unit": "140", "amenity": "cafe", "branch": "Grand Central Place", "brand": "Blue Bottle Coffee", "brand:en": "Blue Bottle Coffee", "brand:ja": "\u30d6\u30eb\u30fc\u30dc\u30c8\u30eb\u30b3\u30fc\u30d2\u30fc", "brand:wikidata": "Q4928917", "cuisine": "coffee_shop", "name": "Blue Bottle Coffee", "name:en": "Blue Bottle Coffee", "name:ja": "\u30d6\u30eb\u30fc\u30dc\u30c8\u30eb\u30b3\u30fc\u30d2\u30fc", "opening_hours": "Mo-Fr 07:00-19:00; Sa, Su 09:00-18:00; Jan 01 off; Nov Th[4] off; Dec 25 off", "takeaway": "yes", "website": "https://bluebottlecoffee.com/cafes/grand-central-place"}}, {"type": "node", "id": 5759612785, "lat": 40.7518535, "lon": -73.9733935, "tags": {"addr:housenumber": "685", "addr:postcode": "10017", "addr:street": "3rd Avenue", "air_conditioning": "yes", "amenity": "cafe", "brand": "Le Pain Quotidien", "brand:wikidata": "Q2046903", "check_date": "2025-02-03", "cuisine": "coffee_shop", "delivery": "yes", "drive_through": "no", "highchair": "no", "name": "Le Pain Quotidien", "outdoor_seating": "yes", "payment:cash": "yes", "payment:contactless": "yes", "payment:credit_cards": "yes", "payment:debit_cards": "yes", "smoking": "no", "takeaway": "yes", "wheelchair": "yes"}}, {"type": "node", "id": 5778856805, "lat": 40.749175, "lon": -73.9760359, "tags": {"addr:city": "New York", "addr:housenumber": "600", "addr:postcode": "10016", "addr:state": "NY", "addr:street": "3rd Avenue", "email": "bryan@nylawyersteam.com", "level": "2", "name": "Gordon Law, P.C. - NYC Family and Divorce Lawyer", "office": "lawyer", "phone": "+1-917-768-3130", "website": "https://www.nylawyersteam.com/family-law-attorney/locations/manhattan-nyc"}}, {"type": "node", "id": 5806583254, "lat": 40.7512755, "lon": -73.9793045, "tags": {"addr:housenumber": "33", "addr:street": "east 40th street", "amenity": "cafe", "name": "Taylor St. Baristas"}}, {"type": "node", "id": 5981570885, "lat": 40.7510216, "lon": -73.9804011, "tags": {"addr:housenumber": "267", "addr:postcode": "10016", "addr:street": "Madison Avenue", "alt_name": "Mulligan's Irish Pub", "amenity": "pub", "cocktails": "yes", "cuisine": "pub", "drink:beer": "draught", "drink:liquor": "yes", "drink:wine": "yes", "happy_hours": "Mo-Fr 16:00-19:00", "name": "Mulligan's Pub", "opening_hours": "Mo 11:00-02:00, Tu 11:00-03:00, We-Sa 11:00-04:00, Su 12:00-02:00", "phone": "+1-212-286-0207", "short_name": "Mulligan's", "website": "https://www.mulligansnyc.com"}}, {"type": "node", "id": 5984431287, "lat": 40.7492545, "lon": -73.9774425, "tags": {"addr:housenumber": "327", "addr:postcode": "10016", "addr:street": "Lexington Avenue", "amenity": "restaurant", "contact:facebook": "https://www.facebook.com/Wokuninyc/", "contact:instagram": "https://www.instagram.com/wokuni_nyc", "cuisine": "japanese;seafood", "email": "info@wokuninyc.com", "name": "Wokuni", "opening_hours": "Mo 11:30-14:45, 17:00-22:00; Tu-Fr 11:30-14:45, 17:00-23:00; Sa 11:30-15:45, 17:00-23:00; Su 17:00-22:00, 11:30-15:45", "operator": "Tokyo Ichiban Foods", "phone": "+1 212-447-1212", "reservation": "yes", "website": "https://wokuninyc.com/"}}, {"type": "node", "id": 6006320286, "lat": 40.7544586, "lon": -73.9764655, "tags": {"addr:housenumber": "81", "addr:street": "East 45th Street", "amenity": "cafe", "brand": "Moka Matcha", "cuisine": "coffee_shop", "drink:coffee": "yes", "drink:espresso": "yes", "drink:tea": "yes", "name": "Moka Matcha", "phone": "+1 646-747-0801", "website": "https://www.mokamatcha.com/"}}, {"type": "node", "id": 6369348985, "lat": 40.7541973, "lon": -73.9738747, "tags": {"addr:housenumber": "485", "addr:street": "Lexington Avenue", "air_conditioning": "yes", "amenity": "cafe", "bar": "no", "check_date": "2025-04-14", "cuisine": "coffee_shop", "delivery": "yes", "drive_through": "no", "highchair": "no", "name": "Dae Dae", "outdoor_seating": "no", "payment:cash": "yes", "payment:contactless": "yes", "payment:credit_cards": "yes", "payment:debit_cards": "yes", "smoking": "no", "takeaway": "yes", "wheelchair": "yes"}}, {"type": "node", "id": 6445572939, "lat": 40.7493187, "lon": -73.9773908, "tags": {"amenity": "pub", "cuisine": "pub", "drink:beer": "draught", "drink:liquor": "yes", "drink:wine": "yes", "happy_hours": "Mo-Sa 11:00-19:00; Su 11:00-22:00", "name": "The Junction", "opening_hours": "Mo-Su 11:00-04:00", "opening_hours:kitchen": "Mo-Sa 11:00-23:00; Su 11:00-22:00", "outdoor_seating": "sidewalk", "phone": "+1-212-682-7700", "website": "https://www.thejunctionnyc.com"}}, {"type": "node", "id": 6542803860, "lat": 40.7499156, "lon": -73.9767115, "tags": {"addr:housenumber": "130", "addr:postcode": "10016", "addr:street": "East 40th Street", "amenity": "pub", "drink:beer": "draught", "internet_access": "wlan", "internet_access:fee": "no", "name": "Peter Dillon's", "sport": "billiards"}}, {"type": "node", "id": 6574923326, "lat": 40.7508089, "lon": -73.9755931, "tags": {"addr:city": "New York", "addr:housenumber": "150", "addr:postcode": "10017", "addr:state": "NY", "addr:street": "East 42nd Street", "email": "newyork@videobeat.net", "level": "13", "name": "Videobeat", "office": "company", "opening_hours": "Mo-Fr 09:00-18:00"}}, {"type": "node", "id": 6602256355, "lat": 40.7512429, "lon": -73.9766136, "tags": {"addr:city": "New York", "addr:housenumber": "122", "addr:postcode": "10168", "addr:state": "NY", "addr:street": "E 42nd St 39th Floor", "fax": "+1-212-319-3406", "name": "Law Office of Gina T. Danetti", "office": "lawyer", "opening_hours": "Mo-Fr 09:00-17:00", "phone": "+1 212-319-3405", "start_date": "2006", "website": "https://danettilaw.com/"}}, {"type": "node", "id": 6612404175, "lat": 40.7541498, "lon": -73.9787021, "tags": {"amenity": "cafe", "brand": "Le Pain Quotidien", "brand:wikidata": "Q2046903", "cuisine": "coffee_shop", "level": "0", "name": "Le Pain Quotidien", "opening_hours": "Mo-Fr 07:00-19:00, Sa-Su 08:00-16:00", "takeaway": "yes", "wheelchair": "yes"}}, {"type": "node", "id": 6618868120, "lat": 40.7524677, "lon": -73.9757799, "tags": {"addr:city": "New York", "addr:housenumber": "420", "addr:postcode": "10170", "addr:state": "NY", "addr:street": "Lexington Avenue", "addr:unit": "#1733", "fax": "+1-212-752-6436", "name": "Arthur V. Fox CPA PC", "office": "accountant", "opening_hours": "Mo-Th 09:30-18:30", "payment:american_express": "yes", "payment:mastercard": "yes", "payment:visa": "yes", "phone": "+1-212-752-6400", "website": "http://www.arthurfox.com"}}, {"type": "node", "id": 6819947813, "lat": 40.7517696, "lon": -73.9733803, "tags": {"addr:housenumber": "685", "addr:street": "3rd Avenue", "check_date": "2025-10-06", "name": "Ubiquiti Networks", "office": "company", "website": "https://www.ui.com/"}}, {"type": "node", "id": 6852143017, "lat": 40.7491928, "lon": -73.9751891, "tags": {"addr:city": "New York", "addr:housenumber": "605", "addr:postcode": "10016", "addr:state": "NY", "addr:street": "3rd Avenue", "air_conditioning": "yes", "amenity": "cafe", "branch": "40th & Third Avenue", "brand": "Starbucks", "brand:wikidata": "Q37158", "check_date": "2025-04-08", "cuisine": "coffee_shop", "delivery": "yes", "drive_through": "no", "highchair": "yes", "name": "Starbucks", "official_name": "Starbucks Coffee", "outdoor_seating": "no", "payment:cash": "yes", "payment:contactless": "yes", "payment:credit_cards": "yes", "payment:debit_cards": "yes", "phone": "+1 917-574-4123", "smoking": "no", "takeaway": "yes", "website": "https://www.starbucks.com/store-locator/store/1016824/40th-third-avenue-605-third-ave-new-york-ny-10158-us", "wheelchair": "yes"}}, {"type": "node", "id": 6852207220, "lat": 40.7497555, "lon": -73.9770311, "tags": {"level": "1", "noname": "yes", "office": "estate_agent"}}, {"type": "node", "id": 6852207223, "lat": 40.7496807, "lon": -73.9771518, "tags": {"amenity": "restaurant", "cuisine": "chinese", "name": "Hunan Village", "opening_hours": "Mo-Fr 11:00-21:30, Sa-Su 11:30-21:30", "phone": "+1-646-692-4888", "takeaway": "yes", "website": "https://www.hunanvillagenewyork.com"}}, {"type": "node", "id": 6852207224, "lat": 40.7496958, "lon": -73.9768932, "tags": {"level": "4", "name": "Manhattan Realty Group", "office": "estate_agent"}}, {"type": "node", "id": 6852273046, "lat": 40.7497088, "lon": -73.9775565, "tags": {"addr:housenumber": "334B", "addr:postcode": "10016", "addr:street": "Lexington Avenue", "amenity": "restaurant", "cuisine": "italian", "delivery": "yes", "level": "1", "name": "La Stanza", "opening_hours": "Mo-Fr 12:00-21:00; Sa-Su 17:00-21:00", "phone": "+1-212-883-9556", "takeaway": "only", "website": "https://lastanzanyc.com", "wheelchair": "limited"}}, {"type": "node", "id": 6852273047, "lat": 40.7497373, "lon": -73.9776384, "tags": {"addr:housenumber": "127", "addr:postcode": "10016", "addr:street": "East 39th Street", "amenity": "restaurant", "cuisine": "japanese;sushi", "name": "Sushi Zo", "wheelchair": "limited"}}, {"type": "node", "id": 6852273049, "lat": 40.749812, "lon": -73.9777557, "tags": {"addr:housenumber": "125", "addr:street": "East 39th Street", "amenity": "restaurant", "cuisine": "japanese", "drink:coffee": "yes", "drink:tea": "yes", "level": "0", "name": "Kokage", "opening_hours": "Tu-Sa 11:00-15:30, 17:30-21:15; Su 17:30-21:15", "operator": "Kajitsu", "phone": "+1 212-228-4873", "reservation": "yes", "website": "http://www.kajitsunyc.com/kokage_cafe.html"}}, {"type": "node", "id": 6852273050, "lat": 40.7498479, "lon": -73.9774133, "tags": {"amenity": "restaurant", "cuisine": "steak_house;sushi", "diet:kosher": "only", "fax": "+1-212-972-2207", "name": "La Brochette Steakhouse", "phone": "+1-212-972-2200", "website": "https://labrochetteny.com"}}, {"type": "node", "id": 6920037989, "lat": 40.7524188, "lon": -73.9773429, "tags": {"alt_name": "Grand Central Oyster Bar", "amenity": "restaurant", "cuisine": "seafood", "name": "Grand Central Oyster Bar and Restaurant", "website": "https://www.oysterbarny.com/", "wikidata": "Q564259"}}, {"type": "node", "id": 6955002285, "lat": 40.7513984, "lon": -73.9742258, "tags": {"addr:street": "3rd Avenue", "amenity": "restaurant", "check_date": "2025-06-15", "diet:vegetarian": "only", "name": "Le Botaniste Organic Vegetarian Wine Bar"}}, {"type": "node", "id": 6955003385, "lat": 40.7512579, "lon": -73.9743148, "tags": {"addr:street": "3rd Avenue", "amenity": "cafe", "check_date": "2025-06-15", "name": "Joe The Juice Coffee"}}, {"type": "node", "id": 7581054282, "lat": 40.751645, "lon": -73.9777214, "tags": {"description": "all 4,5,6,<6>,7,<7>,S trains", "level": "0", "railway": "subway_entrance", "wheelchair": "no"}}, {"type": "node", "id": 7581054283, "lat": 40.7516973, "lon": -73.9776832, "tags": {"description": "all 4,5,6,<6>,7,<7>,S trains", "level": "0", "railway": "subway_entrance", "wheelchair": "no"}}, {"type": "node", "id": 8310593692, "lat": 40.7490865, "lon": -73.975106, "tags": {"addr:city": "New York", "addr:housenumber": "605", "addr:postcode": "10158-3650", "addr:state": "NY", "addr:street": "3rd Avenue", "alt_name": "ADL", "name": "Anti-Defamation League", "office": "ngo", "phone": "+1 212-885-7700", "website": "https://www.adl.org"}}, {"type": "node", "id": 8551468898, "lat": 40.7529752, "lon": -73.9747483, "tags": {"addr:street": "Lexington Avenue", "amenity": "cafe", "check_date": "2025-06-15", "cuisine": "coffee_shop", "name": "Ground Central"}}, {"type": "node", "id": 8551468902, "lat": 40.7522546, "lon": -73.9752551, "tags": {"addr:city": "New York", "addr:housenumber": "425", "addr:postcode": "10017", "addr:state": "NY", "addr:street": "Lexington", "amenity": "cafe", "branch": "43rd & Lex", "brand": "Starbucks", "brand:wikidata": "Q37158", "cuisine": "coffee_shop", "name": "Starbucks", "official_name": "Starbucks Coffee", "phone": "+1 212-922-3589", "ref": "1007742", "takeaway": "yes", "website": "https://www.starbucks.com/store-locator/store/1007742/43rd-lex-425-lexington-new-york-ny-10017-us"}}, {"type": "node", "id": 8551640071, "lat": 40.7514356, "lon": -73.9764854, "tags": {"amenity": "cafe", "brand": "Gregorys Coffee", "brand:wikidata": "Q28229714", "name": "Gregorys Coffee", "note": "lack of apostrophe in name is not a typo", "opening_hours": "Mo-Fr 06:30-18:00; Sa,Su 08:00-17:00", "payment:credit_cards": "yes", "payment:debit_cards": "yes"}}, {"type": "node", "id": 8789533322, "lat": 40.7523935, "lon": -73.9735028, "tags": {"addr:city": "New York", "addr:housenumber": "708", "addr:postcode": "10017", "addr:state": "NY", "addr:street": "3rd Avenue", "air_conditioning": "yes", "amenity": "cafe", "branch": "3rd Ave", "check_date": "2025-03-03", "delivery": "yes", "drive_through": "no", "name": "Little Collins", "opening_hours": "Tu-Fr 07:00-16:00; Sa,Su 07:30-16:00; Mo 07:00-18:00", "outdoor_seating": "no", "payment:cash": "yes", "payment:contactless": "yes", "payment:credit_cards": "yes", "payment:debit_cards": "yes", "phone": "+1-212-308-1969", "smoking": "no", "takeaway": "yes", "website": "https://www.littlecollinsnyc.com/", "website:menu": "https://www.littlecollinsnyc.com/menu", "wheelchair": "yes"}}, {"type": "node", "id": 8791561184, "lat": 40.7511158, "lon": -73.9802401, "tags": {"addr:door": "608", "addr:housenumber": "271", "addr:street": "Madison Avenue", "name": "SGF Associates", "office": "company", "website": "http://sgfnyc.com"}}, {"type": "node", "id": 8808753153, "lat": 40.752154, "lon": -73.978267, "tags": {"addr:housenumber": "60", "addr:street": "East 42nd Street", "brand": "Charles Schwab", "brand:wikidata": "Q1066028", "level": "0", "name": "Charles Schwab", "office": "financial_advisor", "website": "https://www.schwab.com/"}}, {"type": "node", "id": 9682578220, "lat": 40.7528121, "lon": -73.9739556, "tags": {"addr:city": "New York", "addr:housenumber": "140", "addr:postcode": "10017", "addr:state": "NY", "addr:street": "East 45th Street", "addr:unit": "44th Floor", "country": "US", "fax": "+1-212-843-8933", "name": "McGarry & Simon", "office": "lawyer", "opening_hours": "Mo-Fr 09:00-17:00", "phone": "+1-212-867-1238", "website": "https://wsimonlaw.com"}}, {"type": "node", "id": 9737988787, "lat": 40.7495103, "lon": -73.9751059, "tags": {"air_conditioning": "yes", "amenity": "restaurant", "bar": "yes", "check_date": "2025-04-08", "cuisine": "seafood", "delivery": "yes", "name": "Docks", "opening_hours": "Mo-Fr 11:30-16:00", "outdoor_seating": "no", "payment:cash": "yes", "payment:contactless": "yes", "payment:credit_cards": "yes", "payment:debit_cards": "yes", "reservation": "yes", "smoking": "no", "takeaway": "yes", "wheelchair": "yes"}}, {"type": "node", "id": 10250997496, "lat": 40.7519283, "lon": -73.9754588, "tags": {"addr:city": "New York", "addr:housenumber": "132", "addr:postcode": "10174", "addr:state": "NY", "addr:street": "East 43rd Street", "description": "Drexel Estimating provides cost estimates for NYC, LA, SF, DC & Philadelphia.", "email": "drexelestimating@gmail.com", "name": "Drexel Estimating LLC", "office": "company", "opening_hours": "Fr-Sa 08:00-24:00; Su-Th 08:00-22:00", "phone": "+1-516-380-2804", "website": "https://www.drexelestimatingllc.com"}}, {"type": "node", "id": 10964087311, "lat": 40.7492203, "lon": -73.9778582, "tags": {"alt_name": "Dun Huang", "amenity": "restaurant", "cuisine": "chinese", "delivery": "yes", "disused:website": "http://www.dunhuangfood.com", "name": "DH Noodles", "opening_hours": "Mo-Su 11:30-21:30", "phone": "+1-646-964-4007", "takeaway": "yes"}}, {"type": "node", "id": 11028051980, "lat": 40.7508338, "lon": -73.9756542, "tags": {"addr:housenumber": "150", "addr:street": "East 42nd Street", "air_conditioning": "yes", "check_date": "2022-11-02", "description": "Corporate offices (employee only)", "internet_access": "wired", "name": "Wells Fargo", "office": "company", "opening_hours": "24/7", "wheelchair": "yes"}}, {"type": "node", "id": 11140531009, "lat": 40.7511996, "lon": -73.9765888, "tags": {"addr:city": "New York", "addr:floor": "12", "addr:housenumber": "122", "addr:postcode": "10168", "addr:state": "NY", "addr:street": "East 42nd Street", "alt_name": "International Rescue Committee", "name": "Inter-agency Network for Education in Emergencies", "name:en": "Inter-agency Network for Education in Emergencies", "name:es": "Red Interagencial para la Educaci\u00f3n en Situaciones de Emergencia", "name:fr": "R\u00e9seau Inter-agence pour l'\u00e9ducation en situations d'urgences", "name:pt": "Rede Interinstitucional para a Educa\u00e7\u00e3o em Situa\u00e7\u00f5es de Emerg\u00eancia", "office": "ngo", "short_name": "INEE", "website": "https://inee.org/"}}, {"type": "node", "id": 11244208098, "lat": 40.7518415, "lon": -73.9738906, "tags": {"addr:city": "New York", "addr:floor": "G", "addr:housenumber": "692", "addr:postcode": "10017", "addr:state": "NY", "addr:street": "3rd Avenue", "air_conditioning": "yes", "amenity": "pub", "brewery": "various", "check_date": "2025-03-03", "cuisine": "pub", "email": "info@malonesnyc.com", "level": "0", "name": "Malone's Irish Bar & Grill", "opening_hours": "Mo-Fr 08:00-24:00; Sa-Su 11:00-24:00", "outdoor_seating": "no", "payment:cash": "yes", "payment:contactless": "yes", "payment:credit_cards": "yes", "payment:debit_cards": "yes", "phone": "+1 646-858-0110", "toilets": "yes", "website": "https://malonesnyc.com/", "wheelchair": "yes"}}, {"type": "node", "id": 11244928130, "lat": 40.7506739, "lon": -73.9799006}, {"type": "node", "id": 11244928131, "lat": 40.7507293, "lon": -73.9799785}, {"type": "node", "id": 11244928132, "lat": 40.7507118, "lon": -73.9799912}, {"type": "node", "id": 11244928133, "lat": 40.7507263, "lon": -73.9800261}, {"type": "node", "id": 11483835215, "lat": 40.7497476, "lon": -73.9749175, "tags": {"addr:city": "New York", "addr:housenumber": "633", "addr:postcode": "10017", "addr:state": "NY", "addr:street": "3rd Avenue", "alt_name": "UN Mission Azerbaijan", "country": "AZ", "diplomatic": "embassy", "email": "mission@azerbaijanun.org", "embassy": "mission", "fax": "+1-646-738-6143", "name": "Permanent Mission of Azerbaijan to the United Nations", "office": "diplomatic", "official_name": "Permanent Mission of the Republic of Azerbaijan to the United Nations", "phone": "+1-212-371-2559", "target": "UN", "website": "https://un.mfa.gov.az/en"}}, {"type": "node", "id": 11483835217, "lat": 40.7537721, "lon": -73.9745254, "tags": {"addr:city": "New York", "addr:country": "US", "addr:floor": "14", "addr:housename": "One Dag Hammarskjold Plaza", "addr:housenumber": "466", "addr:postcode": "10017", "addr:state": "NY", "addr:street": "Lexington Avenue", "alt_name": "UN Mission Canada", "country": "CA", "diplomatic": "embassy", "email": "canada.un@international.gc.ca", "embassy": "mission", "fax": "+1-212-848-1195", "level": "20", "name": "Permanent Mission of Canada to the United Nations", "office": "diplomatic", "phone": "+1-212-848-1100", "target": "UN", "website": "https://www.un.int/canada", "wikidata": "Q11422613"}}, {"type": "node", "id": 11483835218, "lat": 40.7503777, "lon": -73.9766517, "tags": {"addr:city": "New York", "addr:country": "US", "addr:housenumber": "369", "addr:postcode": "10017", "addr:state": "NY", "addr:street": "Lexington Avenue", "alt_name": "UN Mission Central Africa", "country": "CF", "diplomatic": "embassy", "email": "repercaf.ny@gmail.com", "embassy": "mission", "fax": "+1-646-833-7289", "level": "7", "name": "Permanent Mission of the Central African Republic to the United Nations", "office": "diplomatic", "phone": "+1-646-833-7937", "target": "UN"}}, {"type": "node", "id": 11483892419, "lat": 40.7512989, "lon": -73.9743298, "tags": {"addr:city": "New York", "addr:housenumber": "666", "addr:postcode": "10017", "addr:state": "NY", "addr:street": "3rd Avenue", "alt_name": "UN Mission Denmark", "country": "DK", "diplomatic": "embassy", "email": "nycmis@um.dk", "embassy": "mission", "level": "11", "name": "Permanent Mission of Denmark to the United Nations", "office": "diplomatic", "official_name": "Permanent Mission of the Kingdom of Denmark to the United Nations", "phone": "+1-212-308-7009", "target": "UN", "website": "https://www.fnnewyork.um.dk/en"}}, {"type": "node", "id": 11483892420, "lat": 40.7516725, "lon": -73.9734075, "tags": {"addr:city": "New York", "addr:country": "US", "addr:housenumber": "685", "addr:postcode": "10017", "addr:state": "NY", "addr:street": "3rd Avenue", "alt_name": "UN Mission Dominica", "check_date": "2025-02-03", "country": "DM", "diplomatic": "embassy", "email": "dominicaun@gmail.com", "embassy": "mission", "fax": "+1-212-808-4975", "name": "Permanent Mission of Dominica to the United Nations", "office": "diplomatic", "official_name": "Permanent Mission of the Commonwealth of Dominica to the United Nations", "phone": "+1-212-949-0853", "target": "UN"}}, {"type": "node", "id": 11486612983, "lat": 40.75177, "lon": -73.9733141, "tags": {"addr:city": "New York", "addr:housenumber": "685", "addr:postcode": "10017", "addr:state": "NY", "addr:street": "3rd Avenue", "alt_name": "UN Mission Grenada", "check_date": "2025-02-03", "country": "GD", "diplomatic": "embassy", "email": "grenada@un.int", "embassy": "mission", "fax": "+1-212-599-1540", "name": "Permanent Mission of Grenada to the United Nations", "office": "diplomatic", "phone": "+1-212-599-0301", "target": "UN", "website": "https://grenadamissiontotheun.org"}}, {"type": "node", "id": 11486668906, "lat": 40.7516448, "lon": -73.9734131, "tags": {"addr:city": "New York", "addr:housenumber": "685", "addr:postcode": "10017", "addr:state": "NY", "addr:street": "3rd Avenue", "alt_name": "UN Mission Kiribati", "check_date": "2025-02-03", "country": "KI", "diplomatic": "embassy", "email": "kimission.newyork@mfa.gov.ki", "embassy": "mission", "fax": "+1-212-867-3320", "name": "Permanent Mission of Kiribati to the United Nations", "office": "diplomatic", "official_name": "Permanent Mission of the Republic of Kiribati to the United Nations", "phone": "+1-212-867-3310", "target": "UN"}}, {"type": "node", "id": 11486862486, "lat": 40.7522912, "lon": -73.9737464, "tags": {"addr:city": "New York", "addr:housenumber": "155", "addr:postcode": "10017", "addr:state": "NY", "addr:street": "East 44th Street", "alt_name": "UN Mission Panama", "country": "PA", "diplomatic": "embassy", "email": "emb@panama-un.org", "embassy": "mission", "level": "26", "name": "Permanent Mission of Panama to the United Nations", "office": "diplomatic", "official_name": "Permanent Mission of the Republic of Panama to the United Nations", "phone": "+1-212-421-5420", "target": "UN", "website": "https://www.panama-un.org"}}, {"type": "node", "id": 11488408583, "lat": 40.7507111, "lon": -73.9768276, "tags": {"addr:city": "New York", "addr:housenumber": "370", "addr:postcode": "10017", "addr:state": "NY", "addr:street": "Lexington Avenue", "addr:unit": "2202", "alt_name": "UN Mission Saint Kitts and Nevis", "country": "KN", "diplomatic": "embassy", "email": "sknmission@aol.com", "embassy": "mission", "fax": "+1-212-535-6854", "level": "22", "name": "Permanent Mission of Saint Kitts and Nevis to the United Nations", "office": "diplomatic", "phone": "+1-212-535-1234", "target": "UN"}}, {"type": "node", "id": 11488408584, "lat": 40.7499565, "lon": -73.9752837, "tags": {"alt_name": "UN Mission Saint Lucia", "country": "LC", "diplomatic": "embassy", "email": "info@stluciamission.org", "embassy": "mission", "fax": "+1-212-697-4993", "name": "Permanent Mission of Saint Lucia to the United Nations", "office": "diplomatic", "phone": "+1-212-697-9360", "target": "UN"}}, {"type": "node", "id": 11488408585, "lat": 40.7516303, "lon": -73.9734569, "tags": {"addr:city": "New York", "addr:housenumber": "685", "addr:postcode": "10017", "addr:state": "NY", "addr:street": "3rd Avenue", "alt_name": "UN Mission Saint Vincent and the Grenadines", "check_date": "2025-02-03", "country": "VC", "diplomatic": "embassy", "email": "svgmission@gmail.com", "embassy": "mission", "fax": "+1-212-599-1020", "name": "Permanent Mission of Saint Vincent and the Grenadines to the United Nations", "office": "diplomatic", "phone": "+1-212-599-0950", "target": "UN", "website": "https://www.svg-un.org"}}, {"type": "node", "id": 11488408586, "lat": 40.7516914, "lon": -73.9733673, "tags": {"addr:city": "New York", "addr:housenumber": "685", "addr:postcode": "10017", "addr:state": "NY", "addr:street": "3rd Avenue", "alt_name": "UN Mission Samoa", "check_date": "2025-02-03", "country": "WS", "diplomatic": "embassy", "email": "samoanymission@outlook.com", "embassy": "mission", "fax": "+1-212-599-0797", "name": "Permanent Mission of Samoa to the United Nations", "office": "diplomatic", "official_name": "Permanent Mission of the Independent State of Samoa to the United Nations", "phone": "+1-212-599-6196", "target": "UN"}}, {"type": "node", "id": 11488408588, "lat": 40.7516508, "lon": -73.9733451, "tags": {"addr:city": "New York", "addr:housenumber": "685", "addr:postcode": "10017", "addr:state": "NY", "addr:street": "3rd Avenue", "alt_name": "UN Mission Seychelles", "check_date": "2025-02-03", "country": "SC", "diplomatic": "embassy", "email": "seychellesmissionun@gmail.com", "embassy": "mission", "fax": "+1-212-972-1786", "level": "11", "name": "Permanent Mission of the Republic of Seychelles to the United Nations", "office": "diplomatic", "phone": "+1-212-972-1785", "target": "UN"}}, {"type": "node", "id": 11488408592, "lat": 40.7497452, "lon": -73.9748849, "tags": {"addr:city": "New York", "addr:country": "US", "addr:housenumber": "633", "addr:postcode": "10017", "addr:state": "NY", "addr:street": "3rd Avenue", "alt_name": "UN Mission Suriname", "country": "SR", "diplomatic": "embassy", "email": "suriname@un.int", "embassy": "mission", "name": "Permanent Mission of Suriname to the United Nations", "office": "diplomatic", "official_name": "Permanent Mission of the Republic of Suriname to the United Nations", "phone": "+1-212-826-0660", "target": "UN"}}, {"type": "node", "id": 11488408593, "lat": 40.7492449, "lon": -73.9770503, "tags": {"addr:city": "New York", "addr:country": "US", "addr:housenumber": "136", "addr:postcode": "10016", "addr:state": "NY", "addr:street": "East 39th Street", "alt_name": "UN Mission Suriname", "country": "TH", "diplomatic": "embassy", "email": "thailand@un.int", "embassy": "mission", "fax": "+1-212-644-8110", "fixme": "Is this the right building? The building to the left is 132, and the one to the right is 138.", "name": "Permanent Mission of Thailand to the United Nations", "office": "diplomatic", "phone": "+1-212-754-2230", "target": "UN"}}, {"type": "node", "id": 11488408594, "lat": 40.750652, "lon": -73.9768727, "tags": {"addr:city": "New York", "addr:housenumber": "370", "addr:postcode": "10017", "addr:state": "NY", "addr:street": "Lexington Avenue", "addr:unit": "1704", "alt_name": "UN Mission Timor-Leste", "country": "TL", "diplomatic": "embassy", "email": "timor-leste@un.int", "embassy": "mission", "fax": "+1-212-759-4196", "name": "Permanent Mission of Timor-Leste to the United Nations", "office": "diplomatic", "official_name": "Permanent Mission of the Democratic Republic of Timor-Leste to the United Nations", "phone": "+1-212-759-3675", "target": "UN"}}, {"type": "node", "id": 11488408595, "lat": 40.7492751, "lon": -73.9757598, "tags": {"addr:city": "New York", "addr:housenumber": "600", "addr:postcode": "10016", "addr:state": "NY", "addr:street": "3rd Avenue", "alt_name": "UN Mission Togo", "country": "TG", "diplomatic": "embassy", "embassy": "mission", "fax": "+1-212-983-6684", "name": "Permanent Mission of Togo to the United Nations", "office": "diplomatic", "phone": "+1-212-90-3455", "target": "UN", "website": "https://www.missiontogo-onu-newyork.com"}}, {"type": "node", "id": 11488408597, "lat": 40.7517225, "lon": -73.973324, "tags": {"addr:city": "New York", "addr:housenumber": "685", "addr:postcode": "10017", "addr:state": "NY", "addr:street": "3rd Avenue", "alt_name": "UN Mission Tuvalu", "check_date": "2025-02-03", "country": "TV", "diplomatic": "embassy", "email": "tuvalumission.un@gmail.com", "embassy": "mission", "fax": "+1-212-808-4975", "name": "Permanent Mission of Tuvalu to the United Nations", "office": "diplomatic", "phone": "+1-212-490-0534", "target": "UN"}}, {"type": "node", "id": 11488408599, "lat": 40.7498014, "lon": -73.9748782, "tags": {"addr:city": "New York", "addr:country": "US", "addr:housenumber": "633", "addr:postcode": "10017", "addr:state": "NY", "addr:street": "3rd Avenue", "country": "UY", "diplomatic": "embassy", "email": "urudeleg@mrree.gub.uy", "embassy": "mission", "fax": "+1-212-593-0935", "name": "Permanent Mission of Uruguay to the United Nations", "office": "diplomatic", "official_name": "Permanent Mission of the Oriental Republic of Uruguay to the United Nations", "phone": "+1-212-752-8240", "target": "UN", "website": "https://www.urudeleg.org"}}, {"type": "node", "id": 11488408600, "lat": 40.7500079, "lon": -73.975252, "tags": {"addr:city": "New York", "addr:country": "US", "addr:housenumber": "630", "addr:postcode": "10017", "addr:state": "NY", "addr:street": "3rd Avenue", "alt_name": "UN Mission Uzbekistan", "country": "UZ", "diplomatic": "embassy", "email": "uzbekistan.uz@gmail.com", "embassy": "mission", "fax": "+1-212-486-7998", "level": "5", "name": "Permanent Mission of Uzbekistan to the United Nations", "office": "diplomatic", "official_name": "Permanent Mission of the Republic of Uzbekistan to the United Nations", "phone": "+1-212-486-4242", "target": "UN"}}, {"type": "node", "id": 11488408601, "lat": 40.7517411, "lon": -73.9733867, "tags": {"addr:city": "New York", "addr:housenumber": "685", "addr:postcode": "10017", "addr:state": "NY", "addr:street": "3rd Avenue", "alt_name": "UN Mission Vanuatu", "check_date": "2025-02-03", "country": "VU", "diplomatic": "embassy", "email": "vanunmis@aol.com", "embassy": "mission", "fax": "+1-212-661-5544", "name": "Permanent Mission of Vanuatu to the United Nations", "office": "diplomatic", "official_name": "Permanent Mission of the Republic of Vanuatu to the United Nations", "phone": "+1-212-661-4303", "target": "UN"}}, {"type": "node", "id": 11506834512, "lat": 40.7515711, "lon": -73.9783156, "tags": {"barrier": "kerb", "kerb": "lowered", "tactile_paving": "yes", "wheelchair": "yes"}}, {"type": "node", "id": 11506834518, "lat": 40.7513989, "lon": -73.9779011}, {"type": "node", "id": 11506834519, "lat": 40.751574, "lon": -73.9783219}, {"type": "node", "id": 11506834520, "lat": 40.7521393, "lon": -73.9779088}, {"type": "node", "id": 11506834521, "lat": 40.7519633, "lon": -73.9774889}, {"type": "node", "id": 11506834530, "lat": 40.7519341, "lon": -73.9775102}, {"type": "node", "id": 11506834557, "lat": 40.7514189, "lon": -73.9778865}, {"type": "node", "id": 11506834614, "lat": 40.7521144, "lon": -73.9779267}, {"type": "node", "id": 11506834634, "lat": 40.7520575, "lon": -73.9777135, "tags": {"barrier": "kerb", "kerb": "lowered", "tactile_paving": "yes", "wheelchair": "yes"}}, {"type": "node", "id": 11507193258, "lat": 40.7514126, "lon": -73.9779354, "tags": {"barrier": "kerb", "kerb": "lowered", "tactile_paving": "yes", "wheelchair": "yes"}}, {"type": "node", "id": 11601442413, "lat": 40.7513225, "lon": -73.9765574, "tags": {"addr:city": "New York", "addr:housenumber": "122", "addr:postcode": "10168", "addr:state": "NY", "addr:street": "East 42nd Street", "addr:unit": "2902", "description": "Quadrant Regulatory Group provides Broker-Dealers and Registered Investment Advisers with services that support compliance with SEC, FINRA, MSRB, NFA, and state securities laws.", "name": "Quadrant Regulatory Group", "office": "financial_advisor", "phone": "+1-646-930-1900", "website": "https://www.quadrantregulatory.com/"}}, {"type": "node", "id": 11644060306, "lat": 40.7510875, "lon": -73.9756449, "tags": {"addr:city": "New York", "addr:housenumber": "150", "addr:postcode": "10017", "addr:state": "NY", "addr:street": "East 42nd Street", "consulate": "consulate_general", "country": "AU", "diplomatic": "consulate", "name": "Australian Consulate-General", "office": "diplomatic", "phone": "+1-212-351-6500", "target": "US", "website": "https://usa.embassy.gov.au", "wikidata": "Q124618434"}}, {"type": "node", "id": 11704876920, "lat": 40.7525798, "lon": -73.9744452, "tags": {"amenity": "cafe", "cuisine": "coffee_shop;breakfast;sandwich", "drink:coffee": "yes", "drink:espresso": "yes", "name": "Madman Espresso", "opening_hours": "Mo,Fr 07:00-15:00; Tu-Th 07:00-16:00; Sa 08:00-14:00; Su 09:00-14:00", "payment:credit_cards": "yes", "payment:debit_cards": "yes"}}, {"type": "node", "id": 11755411614, "lat": 40.7516676, "lon": -73.9755644, "tags": {"addr:city": "New York", "addr:housenumber": "405", "addr:postcode": "10174", "addr:state": "NY", "addr:street": "Lexington Avenue", "addr:unit": "Ste 731", "aerospace:product": "spacecraft_propulsion", "company": "aerospace", "email": "contact@rocketstar.nyc", "name": "RocketStar", "office": "company", "website": "https://rocketstar.nyc"}}, {"type": "node", "id": 11927700831, "lat": 40.7522678, "lon": -73.9786075, "tags": {"addr:city": "New York", "addr:country": "US", "addr:housenumber": "60", "addr:postcode": "10165", "addr:state": "NY", "addr:street": "East 42nd Street", "addr:unit": "1410", "email": "woodslonergan@lawyermarketingexperts.com", "name": "Woods Lonergan PLLC", "office": "lawyer", "opening_hours": "Mo-Fr 09:00-17:00", "operator": "James Woods", "phone": "+1-212-684-2500", "website": "https://www.woodslaw.com/"}}, {"type": "node", "id": 12045441778, "lat": 40.751274, "lon": -73.9743628, "tags": {"addr:city": "New York", "addr:floor": "6", "addr:housenumber": "666", "addr:postcode": "10017", "addr:state": "NY", "addr:street": "3rd Avenue", "level": "5", "name": "Kayenta", "office": "financial", "phone": "+1-332-900-6897", "website": "https://kayenta.io/"}}, {"type": "node", "id": 12260702840, "lat": 40.7513402, "lon": -73.9743939, "tags": {"addr:city": "New York", "addr:country": "US", "addr:housenumber": "666", "addr:postcode": "10017", "addr:state": "NY", "addr:street": "3rd Avenue", "addr:unit": "31st Floor", "check_date": "2024-10-18", "contact:email": "delegation-new-york@eeas.europa.eu", "contact:phone": "+1 212-292-8600", "contact:website": "https://www.eeas.europa.eu/delegations/un-new-york_en", "country": "EU", "diplomatic": "embassy", "embassy": "delegation", "level": "31", "name": "Delegation of the European Union", "name:az": "Avropa \u0130ttifaq\u0131n\u0131n N\u00fcmay\u0259nd\u0259liyi", "name:bg": "\u0414\u0435\u043b\u0435\u0433\u0430\u0446\u0438\u044f \u043d\u0430 \u0415\u0432\u0440\u043e\u043f\u0435\u0439\u0441\u043a\u0438\u044f \u0441\u044a\u044e\u0437", "name:cs": "Delegace Evropsk\u00e9 unie", "name:cy": "Dirprwyo'r Undeb Ewropeaidd", "name:da": "Delegationen af Den Europ\u00e6iske Union", "name:de": "Delegation der Europ\u00e4ischen Union", "name:el": "\u0391\u03bd\u03c4\u03b9\u03c0\u03c1\u03bf\u03c3\u03c9\u03c0\u03b5\u03af\u03b1 \u03c4\u03b7\u03c2 \u0395\u03c5\u03c1\u03c9\u03c0\u03b1\u03ca\u03ba\u03ae\u03c2 \u0388\u03bd\u03c9\u03c3\u03b7\u03c2", "name:en": "Delegation of the European Union", "name:es": "Delegaci\u00f3n de la Uni\u00f3n Europea", "name:et": "Euroopa Liidu delegatsioon", "name:fi": "Euroopan unionin valtuuskunta", "name:fr": "D\u00e9l\u00e9gation de l'Union europ\u00e9enne", "name:ga": "Toscaireacht an Aontais Eorpaigh", "name:gd": "Tiomnadh an Aonaidh E\u00f2rpaich", "name:hr": "Delegacija Europske unije", "name:hu": "Az Eur\u00f3pai Uni\u00f3 k\u00fcld\u00f6tts\u00e9ge", "name:it": "Delegazione dell'Unione europea", "name:kw": "Kanasedh Unyans Europek", "name:lt": "Europos S\u0105jungos delegacija", "name:lv": "Eiropas Savien\u012bbas deleg\u0101cija", "name:mt": "Delegazzjoni tal-Unjoni Ewropea", "name:nb": "Den europeiske unions delegasjon", "name:nl": "Delegatie van de Europese Unie", "name:pl": "Delegacja Unii Europejskiej", "name:pt": "Delega\u00e7\u00e3o da Uni\u00e3o Europeia", "name:ro": "Delega\u021bia Uniunii Europene", "name:sco": "Delegation o the European Union", "name:se": "Eurohp\u00e1 uniovnna delega\u0161uvdna", "name:sk": "Deleg\u00e1cia Eur\u00f3pskej \u00fanie", "name:sl": "Delegacija Evropske unije", "name:sv": "Europeiska unionens delegation", "name:tr": "Avrupa Birli\u011fi Temsilcili\u011fi", "office": "diplomatic", "opening_hours": "Mo-Fr 08:00-18:00", "subject:wikimedia_commons": "File:666 3rd Avenue.jpg", "target": "UN", "wikidata": "Q16968907", "wikipedia": "en:Delegation of the European Union to the United Nations"}}, {"type": "node", "id": 12278185059, "lat": 40.7534645, "lon": -73.9766148, "tags": {"addr:city": "New York", "addr:country": "US", "addr:housenumber": "200", "addr:postcode": "10166", "addr:state": "NY", "addr:street": "Park Avenue", "addr:unit": "Floor 17", "check_date": "2024-10-22", "consulate": "consulate_general", "contact:facebook": "https://www.facebook.com/IrelandinNY", "contact:phone": "+1 917-335-1685", "contact:twitter": "https://twitter.com/IrelandinNY", "contact:website": "https://www.ireland.ie/en/usa/newyork", "contact:youtube": "https://youtube.com/user/IrishForeignMinistry", "country": "IE", "diplomatic": "consulate", "emergency:phone": "+1 917-335-1685", "level": "17", "name": "Consulate General of Ireland", "name:bg": "\u0413\u0435\u043d\u0435\u0440\u0430\u043b\u043d\u043e \u043a\u043e\u043d\u0441\u0443\u043b\u0441\u0442\u0432\u043e \u043d\u0430 \u0418\u0440\u043b\u0430\u043d\u0434\u0438\u044f", "name:br": "Ko\u00f1suldi-meur Iwerzhon", "name:ca": "Consolat General d'Irlanda", "name:co": "Cunsulatu Generale d'Irlanda", "name:cs": "Gener\u00e1ln\u00ed konzul\u00e1t Irska", "name:da": "Irlands generalkonsulat", "name:de": "Generalkonsulat von Irland", "name:el": "\u0393\u03b5\u03bd\u03b9\u03ba\u03cc \u03a0\u03c1\u03bf\u03be\u03b5\u03bd\u03b5\u03af\u03bf \u03c4\u03b7\u03c2 \u0399\u03c1\u03bb\u03b1\u03bd\u03b4\u03af\u03b1\u03c2", "name:en": "Consulate General of Ireland", "name:es": "Consulado General de Irlanda", "name:et": "Iirimaa peakonsulaat", "name:eu": "Irlandako kontsulatu nagusia", "name:fi": "Irlannin p\u00e4\u00e4konsulaatti", "name:fr": "Consulat g\u00e9n\u00e9ral d'Irlande", "name:ga": "Ard-Chonsalacht na h\u00c9ireann", "name:gl": "Consulado Xeral de Irlanda", "name:hr": "Generalni konzulat Irske", "name:hu": "\u00cdrorsz\u00e1g f\u0151konzul\u00e1tusa", "name:it": "Consolato generale d'Irlanda", "name:lb": "Consulat General vun Irland", "name:lt": "Airijos generalinis konsulatas", "name:lv": "\u012arijas \u0123ener\u0101lkonsul\u0101ts", "name:mt": "Konsulat \u0120enerali tal-Irlanda", "name:nl": "Consulaat-Generaal van Ierland", "name:no": "Irlands generalkonsulat", "name:oc": "Consolat General d'Irlanda", "name:pl": "Konsulat Generalny Irlandii", "name:pt": "Consulado Geral da Irlanda", "name:ro": "Consulatul General al Irlandei", "name:rom": "Generalo Konzul\u00e0to an\u03b8-i Irlanda", "name:ru": "\u0413\u0435\u043d\u0435\u0440\u0430\u043b\u044c\u043d\u043e\u0435 \u043a\u043e\u043d\u0441\u0443\u043b\u044c\u0441\u0442\u0432\u043e \u0418\u0440\u043b\u0430\u043d\u0434\u0438\u0438", "name:se": "Irl\u00e1ndda v\u00e1ldokonsul\u00e1hta", "name:sk": "Gener\u00e1lny konzul\u00e1t \u00cdrska", "name:sl": "Generalni konzulat Irske", "name:sq": "Konsullata e P\u00ebrgjithshme e Irland\u00ebs", "name:sr": "\u0413\u0435\u043d\u0435\u0440\u0430\u043b\u043d\u0438 \u043a\u043e\u043d\u0437\u0443\u043b\u0430\u0442 \u0418\u0440\u0441\u043a\u0435", "name:sv": "Irlands generalkonsulat", "name:tr": "\u0130rlanda Ba\u015fkonsoloslu\u011fu", "name:uk": "\u0413\u0435\u043d\u0435\u0440\u0430\u043b\u044c\u043d\u0435 \u043a\u043e\u043d\u0441\u0443\u043b\u044c\u0441\u0442\u0432\u043e \u0406\u0440\u043b\u0430\u043d\u0434\u0456\u0457", "office": "diplomatic", "opening_hours": "Mo-Fr open \"By appointment only\";PH off", "target": "US"}}, {"type": "node", "id": 12288613872, "lat": 40.7494227, "lon": -73.9799574, "tags": {"amenity": "cafe", "cuisine": "scandinavian", "name": "Bj\u00f6rk Cafe", "opening_hours": "Mo 11:00-17:00, Tu-Sa 11:00-20:00, Su 11:00-17:00", "operator": "Scandinavia House", "phone": "+1-212-847-9745", "website": "https://www.bjorkcafe.com"}}, {"type": "node", "id": 12377182082, "lat": 40.7524928, "lon": -73.9775859, "tags": {"addr:city": "New York", "addr:housenumber": "89", "addr:postcode": "10017", "addr:state": "NY", "addr:street": "East 42nd Street", "addr:unit": "Vanderbilt Hall", "amenity": "restaurant", "cuisine": "french", "name": "Grand Brasserie", "opening_hours": "Mo-Su 5:30 - 2:00", "website": "https://www.grandbrasserie.com/"}}, {"type": "node", "id": 12412959742, "lat": 40.7507303, "lon": -73.9767376, "tags": {"addr:housenumber": "370", "addr:postcode": "10017", "addr:street": "Lexington Avenue", "amenity": "cafe", "brand": "Le Pain Quotidien", "brand:wikidata": "Q2046903", "cuisine": "coffee_shop", "name": "Le Pain Quotidien", "opening_hours": "Mo-Fr 06:30-18:00, Sa-Su 07:30-17:00", "outdoor_seating": "sidewalk", "phone": "+1-332-910-7522", "takeaway": "yes", "website": "https://www.lepainquotidien.com/us/en/locations/3011:%2041st%20&%20Lex/370-Lexington-Avenue"}}, {"type": "node", "id": 12453392832, "lat": 40.753269, "lon": -73.9741075, "tags": {"addr:city": "New York", "addr:floor": "G", "addr:housenumber": "135", "addr:postcode": "10017", "addr:state": "NY", "addr:street": "East 45th Street", "air_conditioning": "yes", "amenity": "restaurant", "check_date": "2025-05-22", "contact:facebook": "https://www.facebook.com/Oki-Poke-Ramen-1025600527594519/", "cuisine": "ramen;japanese", "delivery": "yes", "fax": "+1-212-922-1902", "highchair": "yes", "level": "0", "name": "Oki Poke & Ramen", "opening_hours": "Mo-Th 11:00-21:30; Fr 11:00-21:00; Sa-Su 12:00-21:00", "outdoor_seating": "no", "payment:cash": "yes", "payment:contactless": "yes", "payment:credit_cards": "yes", "payment:debit_cards": "yes", "phone": "+1 212-922-1900", "smoking": "no", "takeaway": "yes", "website": "https://www.okipokeramen.com/", "wheelchair": "yes"}}, {"type": "node", "id": 12453438626, "lat": 40.7532023, "lon": -73.9739738, "tags": {"addr:floor": "G", "addr:housenumber": "139", "addr:street": "East 45th Street", "air_conditioning": "yes", "amenity": "restaurant", "check_date": "2024-12-26", "cuisine": "chinese", "delivery": "yes", "highchair": "no", "level": "0", "name": "Hop Won Express", "outdoor_seating": "no", "payment:cash": "yes", "payment:contactless": "yes", "payment:credit_cards": "yes", "payment:debit_cards": "yes", "phone": "+1 212-867-4996", "smoking": "no", "takeaway": "yes", "wheelchair": "no"}}, {"type": "node", "id": 12463668755, "lat": 40.7532286, "lon": -73.9739994, "tags": {"addr:city": "New York", "addr:housenumber": "139", "addr:postcode": "10017", "addr:state": "NY", "addr:street": "East 45th Street", "amenity": "bar", "contact:facebook": "https://www.facebook.com/unclecharliesnyc/", "lgbtq": "primary", "name": "Uncle Charlie\u2019s Piano Lounge", "opening_hours": "16:00-04:00", "phone": "+1-646-476-9532", "wheelchair": "no"}}, {"type": "node", "id": 12469063673, "lat": 40.7531442, "lon": -73.974998, "tags": {"addr:city": "New York", "addr:housenumber": "450", "addr:postcode": "10017", "addr:state": "NY", "addr:street": "Lexington Avenue", "amenity": "cafe", "cuisine": "coffee_shop;bakery", "name": "Angelina Bakery Grand Central", "phone": "+1-646-682-9497", "website": "https://angelinabakery.com/"}}, {"type": "node", "id": 12484826227, "lat": 40.7533944, "lon": -73.9744469, "tags": {"addr:housenumber": "459", "addr:postcode": "10017", "addr:street": "Lexington Avenue", "air_conditioning": "yes", "amenity": "restaurant", "branch": "Lexington Avenue", "check_date": "2025-01-08", "cuisine": "sushi;japanese", "delivery": "yes", "name": "Sushi & Co", "opening_hours": "11:30-21:00", "outdoor_seating": "no", "payment:cash": "yes", "payment:contactless": "yes", "payment:credit_cards": "yes", "payment:debit_cards": "yes", "phone": "+1 646-870-0006", "smoking": "no", "takeaway": "yes", "website": "https://sushinco.com", "website:menu": "https://www.sushinco.com/menu", "wheelchair": "yes"}}, {"type": "node", "id": 12512735661, "lat": 40.7498922, "lon": -73.9773723, "tags": {"addr:city": "New York", "addr:housenumber": "342", "addr:postcode": "10016", "addr:state": "NY", "addr:street": "Lexington Avenue", "amenity": "restaurant", "cuisine": "ramen;japanese", "delivery": "yes", "name": "Momosan Ramen & Sake", "opening_hours": "Su-Th 11:30-15:00,17:00-21:00; Fr-Sa 11:30-15:00,17:00-22:00", "phone": "+1-646-201-5529", "takeaway": "yes", "website": "https://www.https://momosanramen.com/restaurants/lexington/"}}, {"type": "node", "id": 12512778763, "lat": 40.7497897, "lon": -73.9774286, "tags": {"addr:city": "New York", "addr:housenumber": "338", "addr:postcode": "10016", "addr:state": "NY", "addr:street": "Lexington Avenue", "alt_name": "Dao Dimsum", "amenity": "restaurant", "cuisine": "chinese;dimsum", "drink:beer": "yes", "drink:sake": "yes", "drink:wine": "yes", "name": "Dimsum Garden", "opening_hours": "Mo-Su 11:00-22:00", "phone": "+1-646-559-2388", "website": "https://www.daodimsum.com"}}, {"type": "node", "id": 12521456176, "lat": 40.750825, "lon": -73.9779407, "tags": {"addr:housenumber": "101", "addr:postcode": "10017", "addr:street": "Park Avenue", "name": "HJ Kalikow & Co.", "office": "company", "phone": "+1-212-808-7000", "website": "https://www.hjkalikow.com"}}, {"type": "node", "id": 12641327760, "lat": 40.7517488, "lon": -73.9734989, "tags": {"addr:housenumber": "685", "addr:street": "3rd Avenue", "air_conditioning": "yes", "amenity": "cafe", "branch": "Midtown East", "check_date": "2025-10-06", "cuisine": "brazilian", "delivery": "yes", "diet:gluten_free": "yes", "drive_through": "no", "email": "midtowneast@tapnyc.com", "highchair": "yes", "name": "Tap NYC", "opening_hours": "Mo-Fr 07:00-20:00; Sa-Su 10:00-17:00", "outdoor_seating": "yes", "payment:cash": "yes", "payment:contactless": "yes", "payment:credit_cards": "yes", "payment:debit_cards": "yes", "phone": "+1 646-704-0084", "smoking": "no", "takeaway": "yes", "toilets": "no", "website": "https://www.eattap.co/", "wheelchair": "yes"}}, {"type": "node", "id": 12739328856, "lat": 40.751535, "lon": -73.9736439, "tags": {"air_conditioning": "yes", "amenity": "cafe", "brand": "Starbucks", "brand:wikidata": "Q37158", "check_date": "2025-04-08", "cuisine": "coffee_shop", "delivery": "yes", "drive_through": "no", "highchair": "yes", "name": "Starbucks", "official_name": "Starbucks Coffee", "outdoor_seating": "no", "payment:cash": "yes", "payment:contactless": "yes", "payment:credit_cards": "yes", "payment:debit_cards": "yes", "smoking": "no", "takeaway": "yes", "wheelchair": "yes"}}, {"type": "node", "id": 12754726336, "lat": 40.7542025, "lon": -73.9742699, "tags": {"addr:city": "New York", "addr:housenumber": "480", "addr:postcode": "10017", "addr:state": "NY", "addr:street": "Lexington Avenue", "air_conditioning": "yes", "amenity": "restaurant", "bar": "yes", "branch": "Lexington", "check_date": "2025-04-14", "cuisine": "mexican", "delivery": "yes", "highchair": "no", "name": "Dos Caminos", "opening_hours": "Mo-Th 11:00-21:00; Fr 11:00-22:00; Sa 16:00-22:00; Su 16:00-21:00", "organic": "yes", "outdoor_seating": "yes", "payment:cash": "yes", "payment:contactless": "yes", "payment:credit_cards": "yes", "payment:debit_cards": "yes", "phone": "+1-332-233-7205", "reservation": "yes", "smoking": "no", "takeaway": "yes", "toilets": "yes", "website": "https://www.doscaminos.com/location/dos-caminos-lexington/", "website:menu": "https://www.doscaminos.com/location/dos-caminos-lexington/#main", "wheelchair": "yes"}}, {"type": "node", "id": 12815123724, "lat": 40.7515592, "lon": -73.9755403, "tags": {"addr:city": "New York", "addr:housenumber": "405", "addr:postcode": "10174", "addr:state": "NY", "addr:street": "Lexington Avenue", "name": "KPI Creatives Videography Studio", "office": "advertising_agency", "opening_hours": "Mo-Fr 09:00-17:00", "payment:contactless": "yes", "payment:credit_cards": "yes", "payment:cryptocurrencies": "yes", "payment:debit_cards": "yes", "payment:electronic_purses": "yes", "payment:visa": "yes", "phone": "+1-573-427-3913", "website": "https://www.kpi-creatives.com/the-chrysler-building-405-lexington-ave-new-york-ny-10174"}}, {"type": "node", "id": 12855947326, "lat": 40.7533789, "lon": -73.9744178, "tags": {"amenity": "cafe", "brand": "Tiger Sugar", "brand:wikidata": "Q76099070", "check_date": "2025-05-22", "cuisine": "bubble_tea", "name": "Tiger Sugar", "payment:cash": "yes", "payment:contactless": "yes", "payment:credit_cards": "yes", "payment:debit_cards": "yes", "takeaway": "yes", "wheelchair": "no"}}, {"type": "node", "id": 12922047974, "lat": 40.7497315, "lon": -73.9782595, "tags": {"amenity": "restaurant", "check_date": "2025-06-17", "name": "Bukhara Grill"}}, {"type": "node", "id": 13064239933, "lat": 40.7535527, "lon": -73.9784024, "tags": {"addr:housenumber": "22", "addr:street": "Vanderbilt Avenue", "amenity": "restaurant", "name": "Melangerie", "website": "https://www.22vanderbilt.com/hospitality"}}, {"type": "node", "id": 13064239934, "lat": 40.7534146, "lon": -73.9780533, "tags": {"addr:housenumber": "22", "addr:street": "Vanderbilt Avenue", "amenity": "cafe", "name": "The Clock", "website": "https://www.22vanderbilt.com/hospitality"}}, {"type": "node", "id": 13064239935, "lat": 40.7535242, "lon": -73.9777794, "tags": {"addr:housenumber": "22", "addr:street": "Vanderbilt Avenue", "amenity": "bar", "name": "Bergamo's", "website": "https://www.bergamos.co/"}}, {"type": "node", "id": 13067012376, "lat": 40.7531376, "lon": -73.9775826, "tags": {"amenity": "restaurant", "cuisine": "seafood;steak_house", "name": "Palladino's Steak & Seafood", "website": "https://palladinos.com/"}}, {"type": "node", "id": 13250232454, "lat": 40.7504146, "lon": -73.9762096, "tags": {"addr:housenumber": "140", "addr:street": "East 41st Street", "air_conditioning": "yes", "amenity": "bar", "check_date": "2025-10-22", "email": "info@albertsbar.com", "name": "Albert\u2019s Bar", "opening_hours": "Mo-Fr 11:30-02:00; Sa 11:00-02:00; Su 11:00-23:00", "outdoor_seating": "no", "payment:cash": "yes", "payment:credit_cards": "yes", "payment:debit_cards": "yes", "phone": "+1 212-597-9345", "smoking": "no", "website": "https://www.albertsbar.com/location/alberts-bar/", "wheelchair": "yes"}}, {"type": "way", "id": 265419271, "nodes": [2710867636, 2710867646, 2710867628, 2710867620, 2710867627, 2710867609, 2710867612, 2710867636], "tags": {"addr:city": "New York", "addr:country": "US", "addr:housenumber": "57", "addr:postcode": "10016", "addr:state": "NY", "addr:street": "Park Avenue", "alt_name": "UN Mission Guatemala", "building": "yes", "building:levels": "5", "country": "GT", "diplomatic": "embassy", "ele": "23", "email": "onunewyork@minex.gob.gt", "embassy": "mission", "fax": "+1-212-685-8741", "gnis:feature_id": "2083184", "height": "27.3", "name": "Permanent Mission of Guatemala to the United Nations", "nycdoitt:bin": "1019078", "office": "diplomatic", "official_name": "Permanent Mission of the Republic of Guatemala to the United Nations", "phone": "+1-212-679-4760", "target": "UN", "website": "https://www.guatemalaun.org", "wikidata": "Q5754060"}}, {"type": "way", "id": 265427653, "nodes": [2710957552, 2710957570, 2710957655, 2710957645, 2710957552], "tags": {"addr:city": "New York", "addr:country": "US", "addr:housenumber": "124", "addr:postcode": "10016", "addr:state": "NY", "addr:street": "East 39th Street", "alt_name": "UN Mission Rwanda", "building": "yes", "country": "RW", "diplomatic": "embassy", "email": "ambanewyork@minaffet.gov.rw", "embassy": "mission", "fax": "+1-917-591-9279", "height": "16.9", "name": "Permanent Mission of Rwanda to the United Nations", "nycdoitt:bin": "1019163", "office": "diplomatic", "official_name": "Permanent Mission of the Republic of Rwanda to the United Nations", "phone": "+1-212-679-9010", "target": "UN"}}, {"type": "way", "id": 265427672, "nodes": [2710957436, 2710957434, 2710957438, 2710957442, 2710957450, 2710957446, 2710957436], "tags": {"addr:city": "New York", "addr:country": "US", "addr:housenumber": "125", "addr:postcode": "10016", "addr:state": "NY", "addr:street": "East 38th Street", "alt_name": "UN Mission Benin", "building": "yes", "country": "BJ", "diplomatic": "embassy", "email": "onu.newyork@gouv.bj", "embassy": "mission", "fax": "+1-646-790-3556", "height": "15.9", "name": "Permanent Mission of Benin to the United Nations", "nycdoitt:bin": "1019133", "office": "diplomatic", "official_name": "Permanent Mission of the Republic of Benin to the United Nations", "phone": "+1-212-684-1339", "target": "UN"}}, {"type": "way", "id": 265857326, "nodes": [2714704987, 2714705000, 2714705040, 2714705042, 2714705036, 2714704987], "tags": {"addr:city": "New York", "addr:country": "US", "addr:housenumber": "140", "addr:postcode": "10016", "addr:state": "NY", "addr:street": "East 39th Street", "alt_name": "UN Mission Guinea", "building": "yes", "country": "GN", "diplomatic": "embassy", "email": "missionofguinea.un@gmail.com", "embassy": "mission", "fax": "+1-212-687-8248", "height": "14.4", "name": "Permanent Mission of Guinea to the United Nations", "nycdoitt:bin": "1019154", "office": "diplomatic", "official_name": "Permanent Mission of the Republic of Guinea to the United Nations", "phone": "+1-212-687-8115", "target": "UN"}}, {"type": "way", "id": 265869510, "nodes": [2714805390, 2714805392, 2714805394, 2714805399, 2714805405, 2714805420, 2714805421, 2666765620, 2666765614, 2666765612, 2666765611, 2666765610, 2666765609, 2714805390], "tags": {"addr:city": "New York", "addr:housenumber": "155", "addr:postcode": "10017", "addr:street": "East 42nd Street", "amenity": "restaurant", "building": "yes", "height": "21.4", "name": "The Capital Grille", "nycdoitt:bin": "1036160", "website": "https://www.thecapitalgrille.com/"}}, {"type": "way", "id": 265875576, "nodes": [2714855788, 2714855786, 11244928130, 2714855346, 11244928131, 11244928132, 11244928133, 2714855792, 2714855794, 2714855816, 2714855808, 2857798802, 2857798801, 2857798400, 2714855788], "tags": {"addr:housenumber": "27", "addr:postcode": "10016", "addr:street": "East 39th Street", "building": "yes", "country": "MX", "diplomatic": "consulate", "height": "18.0", "name": "Consulate General of Mexico in New York City", "nycdoitt:bin": "1017594", "office": "diplomatic", "website": "https://consulmex.sre.gob.mx/nuevayork/", "wikimedia_commons": "File:Consulate-General of Mexico in New York.jpg"}}, {"type": "way", "id": 379758354, "nodes": [2714777880, 3830888625, 1719691007, 1719691006, 3830882165, 2714777819, 2714777880], "tags": {"access": "permissive", "leisure": "park", "opening_hours": "24/7"}}, {"type": "way", "id": 473560431, "nodes": [4676428114, 4676428113, 4676428112, 4676428111, 4676428110, 4676428109, 4676428263, 4676427556, 4676426947, 4676427557, 4676428108, 4676428107, 4676428106, 4676428105, 4676427874, 4676427871, 4676428114], "tags": {"amenity": "restaurant", "indoor": "room", "level": "1", "name": "CIPRIANI"}}, {"type": "way", "id": 1059903962, "nodes": [2714777894, 1719682811, 1719682822, 2714777945, 2714777933, 2714777931, 2714777929, 2714777906, 2714777891, 2714777899, 2714777905, 2714777926, 2714777894], "tags": {"access": "permissive", "leisure": "park", "opening_hours": "24/7"}}, {"type": "way", "id": 1238700037, "nodes": [2715512141, 11506834557, 11506834518, 11507193258, 11506834512, 11506834519, 1292813812, 2932866815, 2932866825, 2932866827, 2932866846, 2932866848, 2932866851, 2932866854, 2932866856, 2932866858, 2932866862, 2932866864, 2932866866, 2932866868, 2932866871, 2932866873, 2932866875, 2932866877, 2932866879, 2932866881, 2932866883, 2932866885, 2932866888, 2932866890, 2932866893, 1292813810, 11506834614, 11506834520, 11506834634, 11506834521, 11506834530, 2715512152, 2943221406, 7581054283, 7581054282, 2943221398, 2715512141], "tags": {"addr:city": "New York", "addr:state": "NY", "leisure": "park", "name": "Pershing Square", "name:etymology:wikidata": "Q272383", "operator": "Grand Central Partnership", "operator:type": "public", "wikidata": "Q17182259", "wikipedia": "en:Pershing Square, Manhattan"}}]}