{"version": 0.6, "generator": "Overpass API 0.7.62.8 e802775f", "osm3s": {"timestamp_osm_base": "2025-12-01T15:18:04Z", "copyright": "The data included in this document is from www.openstreetmap.org. The data is made available under ODbL."}, "elements": [{"type": "node", "id": 357580682, "lat": 40.7278799, "lon": -74.0040284, "tags": {"amenity": "school", "ele": "6", "gnis:feature_id": "961786", "name": "Public School 621"}}, {"type": "node", "id": 357650436, "lat": 40.7286448, "lon": -74.0021947}, {"type": "node", "id": 1861646903, "lat": 40.7242486, "lon": -74.0033107, "tags": {"amenity": "restaurant", "cuisine": "french", "name": "Vin et Fleur", "wheelchair": "yes"}}, {"type": "node", "id": 2477336967, "lat": 40.7262443, "lon": -74.002053, "tags": {"addr:housenumber": "180", "addr:street": "Prince Street", "amenity": "restaurant", "cuisine": "french", "name": "Raoul's", "wheelchair": "no"}}, {"type": "node", "id": 2477560535, "lat": 40.7268225, "lon": -74.0031547}, {"type": "node", "id": 2477560537, "lat": 40.7254238, "lon": -74.0045001}, {"type": "node", "id": 2477560540, "lat": 40.7265342, "lon": -74.0034641}, {"type": "node", "id": 2477560547, "lat": 40.7253745, "lon": -74.00426}, {"type": "node", "id": 2477560549, "lat": 40.7244657, "lon": -74.0046197}, {"type": "node", "id": 2477560551, "lat": 40.7244708, "lon": -74.0046441}, {"type": "node", "id": 2477560555, "lat": 40.7295732, "lon": -74.0021648, "tags": {"barrier": "kerb", "kerb": "lowered", "tactile_paving": "yes"}}, {"type": "node", "id": 2477560571, "lat": 40.7268663, "lon": -74.0033164}, {"type": "node", "id": 2522432385, "lat": 40.7289291, "lon": -74.0023504}, {"type": "node", "id": 2522432386, "lat": 40.7287964, "lon": -74.0020662}, {"type": "node", "id": 2522432388, "lat": 40.7284946, "lon": -74.0018833}, {"type": "node", "id": 2522432389, "lat": 40.7282289, "lon": -74.0021063}, {"type": "node", "id": 2522432390, "lat": 40.7284715, "lon": -74.0026017}, {"type": "node", "id": 2522452461, "lat": 40.7279023, "lon": -74.0070286, "tags": {"addr:city": "New York", "addr:housenumber": "88", "addr:postcode": "10014", "addr:state": "NY", "addr:street": "King Street", "amenity": "restaurant", "cuisine": "mediterranean", "name": "Port Sa'id", "opening_hours": "Mo-Tu 17:00-22:00; We-Th 17:00-23:00; Fr 17:00-25:00; Sa 11:00-15:00, 17:00-25:00", "phone": "+1-212-256-0841", "website": "https://www.portsaidnyc.com/"}}, {"type": "node", "id": 2547223602, "lat": 40.725385, "lon": -74.000397, "tags": {"addr:city": "New York City", "addr:housenumber": "130", "addr:postcode": "10012", "addr:state": "NY", "addr:street": "Prince Street", "amenity": "restaurant", "name": "Manuela", "phone": "+1-917-245-2770", "website": "https://manuela-nyc.com"}}, {"type": "node", "id": 2547224143, "lat": 40.7235754, "lon": -74.0032596}, {"type": "node", "id": 2547224153, "lat": 40.7236057, "lon": -74.0033217}, {"type": "node", "id": 2547224174, "lat": 40.7236888, "lon": -74.0031642}, {"type": "node", "id": 2547224178, "lat": 40.7237191, "lon": -74.0032263}, {"type": "node", "id": 2550012191, "lat": 40.7277615, "lon": -74.0011504, "tags": {"addr:city": "New York", "addr:housenumber": "128", "addr:postcode": "10012", "addr:state": "NY", "addr:street": "West Houston Street", "air_conditioning": "yes", "amenity": "restaurant", "bar": "no", "cuisine": "japanese;cocktails", "diet:gluten_free": "yes", "diet:vegan": "yes", "diet:vegetarian": "yes", "level": "0", "name": "Bar Moga", "opening_hours": "Mo-Th 17:00-00:00; Fr 17:00-00:30; Sa 12:00-15:00,17:00-00:30; Su 12:00-15:00,17:00-22:00", "phone": "+1-929-399-5853", "website": "https://www.barmoga.com/"}}, {"type": "node", "id": 2550012207, "lat": 40.7281515, "lon": -74.0018859, "tags": {"addr:housenumber": "146", "addr:postcode": "10012", "addr:street": "West Houston Street", "amenity": "bar", "name": "Bar Veloce", "website": "https://winebarveloce.com/greenwich-village-new-york-location/"}}, {"type": "node", "id": 2550012966, "lat": 40.7288832, "lon": -74.0024384}, {"type": "node", "id": 2550551525, "lat": 40.7288472, "lon": -74.0002307, "tags": {"addr:city": "New York", "addr:housenumber": "169", "addr:postcode": "10012", "addr:state": "NY", "addr:street": "Bleecker Street", "amenity": "bar", "check_date": "2024-11-09", "name": "Bosco"}}, {"type": "node", "id": 2551316458, "lat": 40.7261948, "lon": -74.0054884, "tags": {"addr:city": "New York", "addr:country": "US", "addr:housenumber": "150", "addr:postcode": "10013", "addr:state": "NY", "addr:street": "Varick Street", "contact:bluesky": "adafruit.com", "contact:mastodon": "@adafruit@fosstodon.org", "image": "File:New Adafruit office - moving in (8089978082).jpg", "logo": "File:Adafruit logo.svg", "name": "Adafruit Industries", "office": "company", "operator:type": "private", "short_name": "Adafruit", "website": "https://www.adafruit.com/", "wikidata": "Q19599368", "wikimedia_commons": "Category:Adafruit Industries", "wikipedia": "en:Adafruit Industries"}}, {"type": "node", "id": 2562444051, "lat": 40.7244662, "lon": -74.0056631, "tags": {"addr:housenumber": "558", "addr:postcode": "10013", "addr:street": "Broome Street", "amenity": "restaurant", "cuisine": "fondue", "name": "Taureau", "opening_hours": "Mo-Th 16:00-22:00, Fr-Sa 16:00-23:00, Su 16:00-22:00", "phone": "+1-212-228-2222", "website": "https://taureaunyc.com"}}, {"type": "node", "id": 2562449987, "lat": 40.7279824, "lon": -74.0055903}, {"type": "node", "id": 2562450038, "lat": 40.7281189, "lon": -74.0070277}, {"type": "node", "id": 2562450076, "lat": 40.7285289, "lon": -74.0055006}, {"type": "node", "id": 2562450091, "lat": 40.7286305, "lon": -74.0046387}, {"type": "node", "id": 2562450095, "lat": 40.7286476, "lon": -74.0048162}, {"type": "node", "id": 2562450100, "lat": 40.7286654, "lon": -74.006938}, {"type": "node", "id": 2562450109, "lat": 40.7287161, "lon": -74.004622}, {"type": "node", "id": 2562450110, "lat": 40.7287165, "lon": -74.004631}, {"type": "node", "id": 2562450117, "lat": 40.7287547, "lon": -74.0048009}, {"type": "node", "id": 2562450120, "lat": 40.7287624, "lon": -74.0048945}, {"type": "node", "id": 2562450123, "lat": 40.728775, "lon": -74.0048927}, {"type": "node", "id": 2562450125, "lat": 40.7287832, "lon": -74.0047968}, {"type": "node", "id": 2562450132, "lat": 40.7288024, "lon": -74.0046143}, {"type": "node", "id": 2562450150, "lat": 40.728855, "lon": -74.0046404}, {"type": "node", "id": 2562450159, "lat": 40.7288779, "lon": -74.0049448}, {"type": "node", "id": 2562450168, "lat": 40.7289038, "lon": -74.0048631}, {"type": "node", "id": 2562450191, "lat": 40.7289566, "lon": -74.0046959}, {"type": "node", "id": 2562450556, "lat": 40.7277301, "lon": -74.0028571, "tags": {"addr:housenumber": "5", "addr:postcode": "10014", "addr:street": "King Street", "amenity": "restaurant", "name": "Charley Bird"}}, {"type": "node", "id": 2562450557, "lat": 40.7279065, "lon": -74.0023777, "tags": {"addr:housenumber": "51", "addr:postcode": "10014", "addr:street": "Mac Dougal Street", "amenity": "post_box", "name": "Something Special", "office": "notary"}}, {"type": "node", "id": 2562450616, "lat": 40.7278816, "lon": -74.0026257}, {"type": "node", "id": 2562450620, "lat": 40.7279032, "lon": -74.0028464}, {"type": "node", "id": 2562450625, "lat": 40.7280177, "lon": -74.0024992}, {"type": "node", "id": 2562450626, "lat": 40.7281305, "lon": -74.0027518}, {"type": "node", "id": 2705023058, "lat": 40.7276924, "lon": -74.0022708, "tags": {"addr:city": "New York", "addr:housenumber": "60", "addr:street": "MacDougal Street", "amenity": "school", "name": "Cooke Center Academy"}}, {"type": "node", "id": 2705024402, "lat": 40.7282859, "lon": -74.0017773, "tags": {"amenity": "restaurant", "name": "Chez Jacqueline"}}, {"type": "node", "id": 2705025714, "lat": 40.7280654, "lon": -74.0017062, "tags": {"addr:city": "New York", "addr:housenumber": "142", "addr:street": "West Houston Street", "amenity": "restaurant", "cuisine": "pizza", "name": "Marcella"}}, {"type": "node", "id": 2705025715, "lat": 40.7281274, "lon": -74.001839, "tags": {"addr:city": "New York", "addr:housenumber": "146", "addr:state": "NY", "addr:street": "West Houston Street", "amenity": "restaurant", "cuisine": "pizza;italian", "name": "Song\u2019 E Napule", "opening_hours": "12:00-23:00", "phone": "+1-212-533-1242", "smoking": "no", "website": "https://songenapule.us/"}}, {"type": "node", "id": 2705025716, "lat": 40.727606, "lon": -74.0023607, "tags": {"addr:city": "New York", "addr:housenumber": "58", "addr:street": "MacDougal Street", "amenity": "restaurant", "cuisine": "latin_american", "name": "Comodo"}}, {"type": "node", "id": 2705029788, "lat": 40.7275501, "lon": -74.0024076, "tags": {"addr:city": "New York", "addr:housenumber": "56", "addr:street": "MacDougal Street", "amenity": "restaurant", "cuisine": "mediterranean", "name": "12 Chairs"}}, {"type": "node", "id": 2722711709, "lat": 40.7273671, "lon": -74.0025442, "tags": {"addr:city": "New York", "addr:housenumber": "50", "addr:postcode": "10012", "addr:state": "NY", "addr:street": "MacDougal Street", "amenity": "restaurant", "cuisine": "american;pizza", "name": "Emmett's", "note": "Serves Chicago style pizza", "opening_hours": "Tu 17:00-23:00; We 12:00-23:00; Th 12:00-24:00; Fr-Sa 12:00-25:00; Su 12:00-22:00", "phone": "+1 917 639 3571", "website": "https://www.emmettsnyc.com/"}}, {"type": "node", "id": 2722711716, "lat": 40.7273101, "lon": -74.0025925, "tags": {"addr:city": "New York", "addr:housenumber": "48", "addr:postcode": "10012", "addr:state": "NY", "addr:street": "MacDougal Street", "amenity": "restaurant", "cuisine": "japanese", "email": "soho@rakunyc.com", "name": "Raku Soho", "opening_hours": "Su-Th 00:00-22:00; Fr,Sa 00:00-23:00", "phone": "+1 212-228-1324", "website": "https://rakunyc.com/"}}, {"type": "node", "id": 2722712554, "lat": 40.7285324, "lon": -74.0018748, "tags": {"addr:city": "New York", "addr:housenumber": "69", "addr:street": "MacDougal Street", "amenity": "restaurant", "cuisine": "italian", "name": "Villa Mosconi", "wheelchair": "yes"}}, {"type": "node", "id": 2757780163, "lat": 40.7244951, "lon": -74.0076618}, {"type": "node", "id": 2757780164, "lat": 40.7240083, "lon": -74.0077456}, {"type": "node", "id": 2757780165, "lat": 40.7239719, "lon": -74.0077227}, {"type": "node", "id": 2757780166, "lat": 40.724086, "lon": -74.007551}, {"type": "node", "id": 2757780167, "lat": 40.7241115, "lon": -74.007555}, {"type": "node", "id": 2757780168, "lat": 40.7242314, "lon": -74.0073632}, {"type": "node", "id": 2757780169, "lat": 40.7243513, "lon": -74.0072268}, {"type": "node", "id": 2757780170, "lat": 40.7244052, "lon": -74.0071951}, {"type": "node", "id": 2757780171, "lat": 40.7244457, "lon": -74.0072327}, {"type": "node", "id": 2757780172, "lat": 40.7244696, "lon": -74.0073059}, {"type": "node", "id": 2890392801, "lat": 40.7276391, "lon": -74.000211, "tags": {"addr:street": "Thompson Street", "amenity": "restaurant", "cuisine": "italian", "delivery": "no", "name": "Lupa", "outdoor_seating": "no", "smoking": "no", "takeaway": "no"}}, {"type": "node", "id": 2892746201, "lat": 40.723743, "lon": -74.004462, "tags": {"addr:housenumber": "112", "addr:street": "6th Avenue", "amenity": "bar", "contact:instagram": "bisoubarnyc", "contact:tiktok": "bisouwinebar", "cuisine": "french", "name": "Bisou Wine Bar", "opening_hours": "Mo-Th, Su 17:00-00:00; Fr, Sa 17:00-01:00", "reservation": "yes", "reservation:website": "https://resy.com/cities/ny/bisou", "website": "https://bisoubarnyc.com/"}}, {"type": "node", "id": 3270276100, "lat": 40.7280272, "lon": -74.0060611}, {"type": "node", "id": 3270276101, "lat": 40.7280505, "lon": -74.0055791}, {"type": "node", "id": 3270276103, "lat": 40.7280741, "lon": -74.0065567}, {"type": "node", "id": 3270276122, "lat": 40.7284622, "lon": -74.0055115}, {"type": "node", "id": 3270276126, "lat": 40.7285738, "lon": -74.0059715}, {"type": "node", "id": 3270276127, "lat": 40.7286207, "lon": -74.0064671}, {"type": "node", "id": 3270458561, "lat": 40.7273252, "lon": -74.0061913, "tags": {"addr:city": "New York", "addr:housenumber": "175", "addr:postcode": "10014", "addr:state": "NY", "addr:street": "Varick Street", "brand": "WeWork", "brand:wikidata": "Q19995004", "fee": "yes", "name": "WeWork", "office": "coworking", "website": "https://www.wework.com/buildings/175-varick-st--new-york-city--NY"}}, {"type": "node", "id": 3358631412, "lat": 40.7242727, "lon": -74.0068777}, {"type": "node", "id": 3358631413, "lat": 40.724155, "lon": -74.0067609}, {"type": "node", "id": 3358631414, "lat": 40.7240161, "lon": -74.0065683}, {"type": "node", "id": 3358631415, "lat": 40.7239338, "lon": -74.0063967}, {"type": "node", "id": 3358631416, "lat": 40.7238993, "lon": -74.0062939}, {"type": "node", "id": 3358631417, "lat": 40.7239223, "lon": -74.0062204}, {"type": "node", "id": 3358631418, "lat": 40.7242842, "lon": -74.0061783}, {"type": "node", "id": 3358631419, "lat": 40.7242231, "lon": -74.0062706}, {"type": "node", "id": 3358631420, "lat": 40.7241939, "lon": -74.0064492}, {"type": "node", "id": 3358631421, "lat": 40.7241966, "lon": -74.0065916}, {"type": "node", "id": 3358631422, "lat": 40.7242293, "lon": -74.0067516}, {"type": "node", "id": 3358631423, "lat": 40.7242736, "lon": -74.0061456}, {"type": "node", "id": 3358631424, "lat": 40.7239825, "lon": -74.0061865}, {"type": "node", "id": 3358631687, "lat": 40.7244311, "lon": -74.0068228}, {"type": "node", "id": 3358631688, "lat": 40.7243912, "lon": -74.0068485}, {"type": "node", "id": 3358631689, "lat": 40.7243452, "lon": -74.0067959}, {"type": "node", "id": 3358631690, "lat": 40.7242842, "lon": -74.0066617}, {"type": "node", "id": 3358631691, "lat": 40.7242771, "lon": -74.0065146}, {"type": "node", "id": 3358631692, "lat": 40.7242948, "lon": -74.0063908}, {"type": "node", "id": 3358631893, "lat": 40.724355, "lon": -74.0062928}, {"type": "node", "id": 3358631894, "lat": 40.7243833, "lon": -74.0062846}, {"type": "node", "id": 3608041636, "lat": 40.7261431, "lon": -74.0025063, "tags": {"addr:city": "New York", "addr:housenumber": "119", "addr:street": "Sullivan Street", "amenity": "restaurant", "cuisine": "american;japanese", "name": "Blue Ribbon", "wheelchair": "no"}}, {"type": "node", "id": 3608053295, "lat": 40.7265551, "lon": -74.0021692, "tags": {"addr:housenumber": "131", "addr:street": "Sullivan Street", "amenity": "restaurant", "check_date": "2023-07-15", "name": "The Dutch"}}, {"type": "node", "id": 3891950890, "lat": 40.7288886, "lon": -74.0024715}, {"type": "node", "id": 3891960761, "lat": 40.7295699, "lon": -74.0020882, "tags": {"barrier": "kerb", "kerb": "lowered", "tactile_paving": "yes"}}, {"type": "node", "id": 3925063780, "lat": 40.725171, "lon": -74.00295, "tags": {"addr:city": "New York", "addr:floor": "0", "addr:housenumber": "189", "addr:postcode": "10012", "addr:street": "Spring Street", "amenity": "cafe", "check_date": "2023-04-20", "delivery": "yes", "email": "info@dominiqueansel.com", "facebook": "Dominique.Ansel.Bakery", "fax": "+1 917-591-2330", "instagram": "DominiqueAnsel", "internet_access": "wlan", "internet_access:fee": "no", "name": "Dominique Ansel Bakery", "opening_hours": "Su 09:00-19:00; Mo-Sa 08:00-19:00", "outdoor_seating": "yes", "payment:credit_cards": "yes", "payment:debit_cards": "yes", "payment:mastercard": "yes", "payment:visa": "yes", "phone": "+1 212-219-2773", "reservation": "no", "shop": "bakery", "takeaway": "yes", "twitter": "DominiqueAnsel", "website": "https://www.dominiqueanselny.com", "wheelchair": "yes"}}, {"type": "node", "id": 4159335789, "lat": 40.7279837, "lon": -74.001356, "tags": {"addr:city": "New York", "addr:housenumber": "132", "addr:postcode": "10012", "addr:state": "NY", "addr:street": "West Houston Street", "amenity": "restaurant", "cuisine": "caribbean", "name": "Miss Lily's (Soho)", "opening_hours": "Mo-Th 12:00-23:00; Fr 12:00-00:00; Sa 11:00-00:00; Su 11:00-23:00", "phone": "+1-212-812-1482", "website": "https://www.misslilys.com/location/miss-lilys-soho/"}}, {"type": "node", "id": 4254615310, "lat": 40.7273302, "lon": -74.000275, "tags": {"addr:city": "New York", "addr:housenumber": "100", "addr:street": "West Houston Street", "amenity": "restaurant", "name": "Jane", "opening_hours": "Mo-Th 11:45-22:00; Fr 11:45-23:00; Sa 09:00-23:00; Su 09:00-22:00", "phone": "+1-212-254-7000", "website": "https://janerestaurant.com/"}}, {"type": "node", "id": 4392870291, "lat": 40.7277469, "lon": -74.0020266, "tags": {"addr:housenumber": "142", "addr:postcode": "10012", "addr:street": "West Houston Street", "amenity": "restaurant", "name": "Da Marcella", "name:en": "Da Marcella"}}, {"type": "node", "id": 4406319594, "lat": 40.7238705, "lon": -74.004215, "tags": {"addr:housenumber": "529", "addr:postcode": "10013", "addr:street": "Broome Street", "amenity": "restaurant", "branch": "SoHo", "contact:email": "events@blacktapnyc.com", "contact:facebook": "blacktapnyc", "contact:instagram": "blacktapnyc", "contact:twitter": "blacktapnyc", "cuisine": "burger;american", "delivery": "yes", "name": "Black Tap", "opening_hours": "Su 11:00-22:00; Mo-Th 12:00-22:00,Fr, Sa 11:00-24:00,Su 11:00-00:00", "phone": "+1 917-639-3089", "takeaway": "yes", "website": "https://blacktap.com/location/soho/"}}, {"type": "node", "id": 4426826294, "lat": 40.725453, "lon": -74.0030128, "tags": {"amenity": "restaurant", "cuisine": "american;barbecue;fine_dining", "name": "Blue Ribbon Brassiere", "opening_hours": "Mo-Su 16:00-04:00", "phone": "+1 212-274-0404", "website": "https://www.blueribbonbrasserie.com/"}}, {"type": "node", "id": 4431347690, "lat": 40.7273991, "lon": -74.0003974, "tags": {"addr:housenumber": "106", "addr:street": "West Houston Street", "amenity": "restaurant", "name": "Arturo's Coal Oven Pizza", "name:en": "Arturo's Pizza", "opening_hours": "Mo-Su 17:00-23:00", "phone": "+1 212-677-3820", "wheelchair": "yes"}}, {"type": "node", "id": 4461051681, "lat": 40.7234132, "lon": -74.0032224}, {"type": "node", "id": 4461051682, "lat": 40.7234279, "lon": -74.0032139}, {"type": "node", "id": 4461051683, "lat": 40.7236346, "lon": -74.0036078}, {"type": "node", "id": 4461051684, "lat": 40.7234996, "lon": -74.0037218}, {"type": "node", "id": 4462798731, "lat": 40.7253962, "lon": -74.0034071, "tags": {"addr:city": "New York", "addr:housenumber": "203", "addr:postcode": "10012", "addr:state": "NY", "addr:street": "Spring Street", "amenity": "pub", "name": "Soho Room", "opening_hours": "Mo-Th 11:00-02:00; Fr-Sa 11:00-03:00; Su 12:00-01:00", "owner": "Louis Raiolo", "payment:american_express": "yes", "payment:cash": "yes", "payment:discover_card": "yes", "payment:mastercard": "yes", "payment:visa": "yes", "phone": "+1-212-334-3855", "website": "https://www.sohoroomnyc.com/", "wheelchair": "no"}}, {"type": "node", "id": 4468394389, "lat": 40.7244709, "lon": -74.0057117, "tags": {"addr:housenumber": "558", "addr:postcode": "10013", "addr:street": "Broome Street", "amenity": "restaurant", "cuisine": "french", "name": "La Sir\u00e8ne", "opening_hours": "Mo-Th 16:00-22:00, Fr-Sa 16:00-23:15, Su 16:00-22:00", "phone": "+1-212-925-3061", "website": "https://lasirenenyc.com", "wheelchair": "yes"}}, {"type": "node", "id": 4470023190, "lat": 40.7248202, "lon": -74.0022169, "tags": {"addr:housenumber": "171", "addr:postcode": "10012", "addr:street": "Spring Street", "amenity": "restaurant", "cocktails": "yes", "contact:email": "Soho@baqueriaNYC.com", "contact:facebook": "BoqueriaNYC", "contact:instagram": "boqueria", "contact:phone": "+1-212-343-4255", "contact:website": "https://boqueriarestaurant.com/tapas-bar-nyc-soho", "cuisine": "tapas;spanish", "delivery": "yes", "drink:beer": "bottled", "drink:wine": "served", "happy_hours": "Mo-Su 14:30-17:30", "level": "0", "name": "Boqueria Soho", "opening_hours": "Mo-Su 12:00-22:00", "reservation": "yes", "takeaway": "yes", "wheelchair": "yes"}}, {"type": "node", "id": 4751507921, "lat": 40.723681, "lon": -74.0045295, "tags": {"addr:housenumber": "110", "addr:postcode": "10013", "addr:street": "6th Avenue", "amenity": "restaurant", "cocktails": "yes", "contact:email": "lupeskitchen4@gmail.com", "contact:facebook": "LupesKitchen", "contact:instagram": "lupesnyc", "cuisine": "mexican", "delivery": "yes", "name": "lupe's East L.A. Kitchen", "opening_hours": "Tu 12:00-23:00; We-Fr 12:00-24:00; Sa 11:00-11:30; Su 11:00-23:00", "phone": "+1 212-966-1326", "reservation": "yes", "takeaway": "yes", "website": "https://lupeskitchen.com/"}}, {"type": "node", "id": 4781188614, "lat": 40.7289162, "lon": -74.0054734, "tags": {"addr:city": "New York", "addr:housenumber": "225", "addr:postcode": "10014", "addr:state": "NY", "addr:street": "Varick Street", "amenity": "cafe", "cuisine": "deli", "name": "Getting Hungry", "opening_hours": "06:00-17:00"}}, {"type": "node", "id": 4953706821, "lat": 40.7254542, "lon": -74.0047415, "tags": {"addr:city": "New York", "addr:housenumber": "234", "addr:postcode": "10013", "addr:state": "NY", "addr:street": "Spring Street", "air_conditioning": "yes", "amenity": "restaurant", "bar": "yes", "contact:email": "info@altroparadiso.com", "contact:instagram": "altroparadiso", "cuisine": "italian", "level": "0", "name": "Altro Paradiso", "opening_hours": "Su 12:00-22:00; Mo-Sa 12:00-22:30", "outdoor_seating": "yes", "reservation": "yes", "reservation:website": "https://resy.com/cities/ny/altro-paradiso", "smoking": "no", "website": "https://altroparadiso.com/", "wheelchair": "yes"}}, {"type": "node", "id": 5015212723, "lat": 40.7279209, "lon": -74.0013375, "tags": {"addr:city": "New York", "addr:housenumber": "168", "addr:postcode": "10012", "addr:state": "NY", "addr:street": "Sullivan Street", "air_conditioning": "yes", "amenity": "restaurant", "cuisine": "italian", "level": "0", "name": "Pepe Rosso", "name:en": "Pepe Rosso", "name:fr": "Pepe Rosso", "opening_hours": "Mo-Sa 11:00-23:00; Su 15:00-22:00", "phone": "+1-212-677-4555", "reservation": "no", "smoking": "no", "website": "https://peperossotogo.com"}}, {"type": "node", "id": 5216127223, "lat": 40.7287909, "lon": -74.0016623, "tags": {"addr:housenumber": "79", "addr:street": "MacDougal Street", "amenity": "restaurant", "name": "Dante", "phone": "+12129825275", "toilets:wheelchair": "no", "website": "https://www.dante-nyc.com/", "wheelchair": "limited"}}, {"type": "node", "id": 5353031436, "lat": 40.7237641, "lon": -74.0028162, "tags": {"addr:housenumber": "380", "addr:street": "West Broadway", "description": "Not open to the public.", "name": "The Adolph & Esther Gottlieb Foundation", "office": "government", "website": "https://gottliebfoundation.org"}}, {"type": "node", "id": 5399823086, "lat": 40.7242595, "lon": -74.0019929, "tags": {"addr:housenumber": "399", "addr:street": "West Broadway", "amenity": "cafe", "cuisine": "coffee_shop;sandwich;pastry", "diet:vegetarian": "yes", "email": "steven@groundsupportcafe.com", "internet_access": "wlan", "internet_access:ssid": "Ground Support", "name": "Ground Support Caf\u00e9", "opening_hours": "Sa, Su 08:00-20:00; Mo-Fr 07:00-20:00", "payment:cash": "yes", "payment:credit_cards": "yes", "payment:debit_cards": "yes", "phone": "+1-212-219-8733", "toilets": "yes", "toilets:access": "permissive", "toilets:unisex": "yes", "toilets:wheelchair": "no", "website": "https://www.groundsupportcafe.com/", "wheelchair": "no"}}, {"type": "node", "id": 5515156304, "lat": 40.723831, "lon": -74.0033719, "tags": {"addr:housenumber": "54", "addr:postcode": "10012", "addr:street": "Thompson Street", "amenity": "restaurant", "cuisine": "mediterranean", "happy_hours": "Mo-Fr 16:30-18:30", "internet_access": "wlan", "internet_access:ssid": "PeraSoho-guest", "name": "Pera SoHo", "opening_hours": "Mo-Tu 16:30-21:30; We-Fr 12:00-22:30; Sa 10:30-23:00; Su 10:30-21:30", "outdoor_seating": "yes", "payment:credit_cards": "yes", "payment:debit_cards": "yes", "phone": "+1-212-878-6305", "reservation": "yes", "toilets": "yes", "toilets:wheelchair": "yes", "website": "https://www.pera-soho.com", "wheelchair": "yes"}}, {"type": "node", "id": 5515185730, "lat": 40.7239715, "lon": -74.003139, "tags": {"addr:housenumber": "60", "addr:street": "Thompson Street", "amenity": "bar", "email": "events@mercerstreethospitality.com", "name": "The Gordon Bar", "opening_hours": "Mo-Su 17:00-02:00", "payment:credit_cards": "yes", "phone": "+1-212-219-3200", "toilets": "yes", "website": "https://www.thegordonbar.com/"}}, {"type": "node", "id": 5515196277, "lat": 40.7239998, "lon": -74.0031136, "tags": {"addr:housenumber": "60", "addr:street": "Thompson Street", "amenity": "restaurant", "cuisine": "italian;coffee", "diet:vegetarian": "yes", "email": "info@sessantanyc.com", "lunch": "Mo-Su 11:00-17:00", "name": "Sessanta", "opening_hours": "Mo-We, Su 07:00-22:00; Th-Sa 07:00-23:00", "payment:credit_cards": "yes", "phone": "+1-212-219-8119", "reservation": "yes", "takeaway": "yes", "website": "https://www.sessantanyc.com/", "wheelchair": "yes"}}, {"type": "node", "id": 5515220109, "lat": 40.7235403, "lon": -74.0031561, "tags": {"addr:housenumber": "510", "addr:postcode": "10013", "addr:street": "Broome Street", "amenity": "restaurant", "cocktails": "yes", "cuisine": "italian", "drink:beer": "yes", "drink:liquor": "yes", "drink:wine": "yes", "email": "info@aurorasoho.com", "name": "Aurora SoHo", "opening_hours": "Mo-Th 12:00-23:00; Fr 12:00-23:30; Sa 11:00-23:30; Su 11:00-22:30", "payment:credit_cards": "yes", "phone": "+1-212-334-9020", "reservation": "recommended", "takeaway": "yes", "website": "https://www.aurorasoho.com", "wheelchair": "no"}}, {"type": "node", "id": 5642382126, "lat": 40.7257638, "lon": -74.0011009, "tags": {"addr:housenumber": "152", "addr:street": "Prince Street", "amenity": "cafe", "cuisine": "yogurt;coffee_shop", "fireplace": "yes", "indoor_seating": "yes", "name": "Chobani SoHo", "opening_hours": "Mo-Fr 07:30-19:00; Sa, Su 08:30-19:00", "outdoor_seating": "no", "phone": "+1-212-364-3970", "takeaway": "yes", "website": "https://chobani.com/", "wheelchair": "yes"}}, {"type": "node", "id": 5695181417, "lat": 40.7261091, "lon": -74.0013079, "tags": {"addr:city": "New York", "addr:housenumber": "161", "addr:postcode": "10012", "addr:state": "NY", "addr:street": "Prince Street", "addr:unit": "2", "name": "New York Boyer Foundation", "office": "foundation"}}, {"type": "node", "id": 5796438080, "lat": 40.7257887, "lon": -74.0011724, "tags": {"addr:housenumber": "154", "addr:street": "Prince Street", "amenity": "cafe", "brand": "La Colombe Coffee Roasters", "brand:wikidata": "Q23461663", "cuisine": "coffee_shop", "drink:coffee": "served;retail", "drink:tea": "yes", "email": "help@lacolombe.net", "name": "La Colombe Coffee Roasters", "opening_hours": "Mo-Fr 07:30-19:00; Sa, Su 08:30-19:00", "payment:credit_cards": "yes", "payment:debit_cards": "yes", "phone": "+1-646-690-7340", "short_name": "La Colombe", "takeaway": "yes", "website": "https://lacolombe.com/", "wheelchair": "yes"}}, {"type": "node", "id": 5883645807, "lat": 40.7288339, "lon": -74.0007577, "tags": {"addr:city": "New York", "addr:housenumber": "174", "addr:postcode": "10012", "addr:state": "NY", "addr:street": "Bleecker Street", "amenity": "restaurant", "cuisine": "georgian", "delivery": "yes", "email": "oldtibilisigarden@gmail.com", "facebook": "oldtbilisigardennyc", "name": "Old Tbilisi Garden", "opening_hours": "Mo-Th, Su 12:00-22:00; Fr, Sa 12:00-23:00", "outdoor_seating": "yes", "payment:american_express": "yes", "payment:cash": "yes", "phone": "+1 212-470-6064", "reservation": "yes", "smoking": "no", "toilets:wheelchair": "no", "twitter": "oldtbilisinyc", "website": "https://www.oldtbilisigarden.com/", "wheelchair": "limited"}}, {"type": "node", "id": 5896851985, "lat": 40.7273043, "lon": -74.0059691, "tags": {"addr:city": "New York", "addr:housenumber": "175", "addr:postcode": "10014", "addr:state": "NY", "addr:street": "Varick Street", "air_conditioning": "yes", "amenity": "cafe", "check_date": "2024-06-05", "cuisine": "coffee_shop;cake", "drink:espresso": "yes", "internet_access": "wlan", "name": "Seven Grams Caff\u00e9", "opening_hours": "Mo-Th 07:00-18:00; Fr 07:00-16:00; Sa 08:00-16:00", "outdoor_seating": "yes", "phone": "+19172617527", "website": "https://sevengramscaffe.com/"}}, {"type": "node", "id": 5987843785, "lat": 40.7263749, "lon": -74.0018624, "tags": {"amenity": "restaurant", "cuisine": "chinese", "name": "Pinch Chinese", "website": "https://www.pinchchinese.com/", "wheelchair": "limited"}}, {"type": "node", "id": 6206584785, "lat": 40.7278638, "lon": -74.001067, "tags": {"addr:city": "New York", "addr:housenumber": "169", "addr:postcode": "10012", "addr:state": "NY", "addr:street": "Sullivan Street", "air_conditioning": "yes", "amenity": "cafe", "diet:gluten_free": "yes", "diet:lactose_free": "yes", "indoor_seating": "yes", "name": "Banter", "opening_hours": "Mo-Fr 08:00-15:00; Sa-Su 08:00-16:00", "outdoor_seating": "yes", "reservation": "no", "smoking": "no", "website": "https://www.banternyc.com", "website:menu": "https://cdn.prod.website-files.com/658913d44deb0f411264e1cf/6626a94b28be8c905b3ba103_BANTER%20MENU%20Greenwich%20Village.pdf"}}, {"type": "node", "id": 6418378714, "lat": 40.7280028, "lon": -74.0002252, "tags": {"addr:city": "New York", "addr:housenumber": "181", "addr:postcode": "10012", "addr:state": "NY", "addr:street": "Thompson Street", "amenity": "restaurant", "cuisine": "italian", "name": "Carbone", "phone": "+1-212-254-3000", "website": "https://carbonenewyork.com/"}}, {"type": "node", "id": 6491645894, "lat": 40.7265621, "lon": -74.0034041}, {"type": "node", "id": 6622267485, "lat": 40.7252195, "lon": -74.0037768, "tags": {"amenity": "restaurant", "name": "The Woo"}}, {"type": "node", "id": 6630517161, "lat": 40.7274974, "lon": -74.0071128, "tags": {"addr:city": "New York", "addr:housenumber": "350", "addr:postcode": "10014", "addr:state": "NY", "addr:street": "Hudson Street", "air_conditioning": "yes", "amenity": "restaurant", "brand": "CAVA", "brand:wikidata": "Q85751038", "construction:shop": "yes", "cuisine": "mediterranean", "level": "0", "name": "CAVA", "opening_hours": "Mo-Su 10:45-22:00", "phone": "+1-332-222-6749", "website": "https://cava.com/locations/350-hudson-ny", "wheelchair": "yes"}}, {"type": "node", "id": 6630517163, "lat": 40.7277372, "lon": -74.0070702, "tags": {"addr:city": "New York", "addr:housenumber": "350", "addr:postcode": "10014", "addr:state": "NY", "addr:street": "Hudson Street", "amenity": "restaurant", "cuisine": "sushi", "name": "MakiMaki", "opening_hours": "Mo-Th 11:00-20:00; Fr 11:00-17:00", "outdoor_seating": "no", "phone": "+1-646-833-7063", "website": "https://makimaki.nyc/"}}, {"type": "node", "id": 6630517164, "lat": 40.7277965, "lon": -74.0070614, "tags": {"addr:city": "New York", "addr:housenumber": "350", "addr:postcode": "10014", "addr:state": "NY", "addr:street": "Hudson Street", "amenity": "restaurant", "cuisine": "japanese", "name": "Glaze", "opening_hours": "Mo-Fr 11:30-21:00; Sa-Su 12:00-21:00", "phone": "+1-212-933-1322", "website": "https://www.glaze.com/glaze-hudson-square", "wheelchair": "yes"}}, {"type": "node", "id": 6732642779, "lat": 40.7285346, "lon": -74.0058604, "tags": {"addr:housenumber": "245", "addr:postcode": "10014", "addr:street": "West Houston Street", "check_date": "2023-12-10", "name": "U.S. Department of Veterans Affairs", "office": "government"}}, {"type": "node", "id": 6732642783, "lat": 40.7287287, "lon": -74.0050957, "tags": {"addr:city": "New York", "addr:housenumber": "206", "addr:postcode": "10014", "addr:state": "NY", "addr:street": "Varick Street", "air_conditioning": "yes", "amenity": "restaurant", "bar": "no", "cuisine": "pizza", "level": "0", "name": "Five Boys Fresh Pizza", "opening_hours": "Mo-Sa 10:00-23:00, Su 10:00-22:00", "phone": "+1-646-398-8605", "reservation": "no", "smoking": "no", "takeaway": "only", "toilets": "no"}}, {"type": "node", "id": 6734071958, "lat": 40.7276892, "lon": -74.0004432, "tags": {"amenity": "cafe"}}, {"type": "node", "id": 6734071961, "lat": 40.7286547, "lon": -74.0045899, "tags": {"addr:city": "New York", "addr:housenumber": "220", "addr:state": "NY", "addr:street": "West Houston Street", "air_conditioning": "yes", "amenity": "bar", "level": "0", "name": "The Brooklyneer", "outdoor_seating": "yes", "smoking": "no"}}, {"type": "node", "id": 6791524796, "lat": 40.7251488, "lon": -74.0022186, "tags": {"addr:city": "New York", "addr:housenumber": "90", "addr:street": "Thompson Street", "amenity": "restaurant", "cocktails": "yes", "contact:email": "info@sancarlonyc.com", "contact:facebook": "https://www.facebook.com/SAN-CARLO-Osteria-Piemonte-471656579693228/", "contact:instagram": "https://www.instagram.com/sancarlonyc/", "contact:twitter": "https://twitter.com/sancarlonyc/", "cuisine": "italian", "drink:beer": "yes", "drink:wine": "yes", "fax": "+1 212-625-1242", "happy_hours": "Su-Th 16:30-18:30", "name": "San Carlo Osteria Piemonte", "opening_hours": "Mo-Th, Su 11:30-23:30; Fr, Sa 11:30-01:00", "phone": "+1 212-625-1212", "reservation": "yes", "website": "https://www.sancarlonyc.com/"}}, {"type": "node", "id": 7048001985, "lat": 40.7262766, "lon": -74.0021542, "tags": {"addr:postcode": "10012", "amenity": "restaurant", "name": "Piccola Cucina"}}, {"type": "node", "id": 7164989985, "lat": 40.7242457, "lon": -74.0023993, "tags": {"amenity": "restaurant", "name": "Barolo"}}, {"type": "node", "id": 7195064985, "lat": 40.72461, "lon": -74.0030234, "tags": {"addr:housenumber": "75", "addr:postcode": "10012", "addr:street": "Thompson Street", "amenity": "restaurant", "contact:facebook": "piccolacucinany", "contact:instagram": "piccolacucinany", "contact:twitter": "PCucinaNYC", "cuisine": "sicilian;italian", "delivery": "yes", "drink:wine": "served", "email": "info@piccolacucinagroup.com", "level": "0", "name": "Piccola Cuccina Estiatorio", "opening_hours": "Mo-Th 17:30-23:00; Fr 17:30-00:00; Sa 11:30-00:00; Su 11:30-23:00", "phone": "+1 646-781-9183", "reservation": "yes", "takeaway": "yes", "website": "https://www.piccolacucinagroup.com/en/piccola-cucina-estiatorio-soho-nyc"}}, {"type": "node", "id": 7992059162, "lat": 40.7283416, "lon": -74.0051083, "tags": {"addr:city": "New York", "addr:housenumber": "200", "addr:postcode": "10014", "addr:state": "NY", "addr:street": "Varick Street", "addr:unit": "Rm 1000", "air_conditioning": "yes", "baby_feeding": "no", "branch": "Manhattan Borough Office", "fax": "+1-646-638-2047", "internet_access": "no", "level": "9", "name": "Board of Elections in the City of New York", "office": "government", "phone": "+1-212-886-2100", "smoking": "no", "website": "https://www.vote.nyc", "wheelchair": "yes"}}, {"type": "node", "id": 7992059164, "lat": 40.7283847, "lon": -74.0069687, "tags": {"addr:city": "New York", "addr:housenumber": "376", "addr:postcode": "10014-3621", "addr:state": "NY", "addr:street": "Hudson Street", "air_conditioning": "yes", "name": "New York Passport Agency", "office": "government", "opening_hours": "Mo-Fr 07:30-18:00", "reservation": "required", "smoking": "no", "website": "https://travel.state.gov/content/travel/en/passports/get-fast/passport-agencies/new-york.html", "wheelchair": "yes"}}, {"type": "node", "id": 8309469077, "lat": 40.7275806, "lon": -74.0034217, "tags": {"addr:housenumber": "18", "addr:postcode": "10014", "addr:street": "King Street", "amenity": "restaurant", "cocktails": "yes", "cuisine": "italian", "drink:beer": "yes", "drink:liquor": "yes", "drink:wine": "yes", "name": "King", "opening_hours": "Mo-Su 17:00-22:00", "outdoor_seating": "street", "phone": "+1-917-825-1618", "website": "https://kingrestaurant.nyc"}}, {"type": "node", "id": 8511743557, "lat": 40.7261365, "lon": -74.0043283, "tags": {"addr:city": "New York", "addr:housenumber": "12", "addr:postcode": "10013", "addr:state": "NY", "addr:street": "Vandam Street", "amenity": "bar", "name": "Torch & Crown Brewing Company", "opening_hours": "Mo-We 12:00-22:00; Th-Sa 12:00-23:00; Su 12:00-21:00", "outdoor_seating": "yes", "phone": "+1-212-228-7005", "start_date": "2018", "website": "https://www.torchandcrown.com/"}}, {"type": "node", "id": 8789178531, "lat": 40.727044, "lon": -74.0031369, "tags": {"amenity": "restaurant", "outdoor_seating": "yes"}}, {"type": "node", "id": 9167795118, "lat": 40.7272672, "lon": -74.005323, "tags": {"addr:city": "New York", "addr:housenumber": "180", "addr:postcode": "10014", "addr:state": "NY", "addr:street": "Varick Street", "amenity": "restaurant", "cuisine": "pizza", "name": "Little Italy Pizzeria & Deli", "phone": "+12123665566"}}, {"type": "node", "id": 9170066779, "lat": 40.724918, "lon": -74.00246, "tags": {"addr:city": "New York", "addr:housenumber": "177", "addr:postcode": "10012", "addr:state": "NY", "addr:street": "Spring Street", "amenity": "restaurant", "branch": "177 Spring Street", "cuisine": "pizza", "delivery": "yes", "level": "0", "name": "Famous Ben's Pizza", "opening_hours": "Mo-Sa 11:00-20:00; Su 12:00-20:00", "outdoor_seating": "yes", "phone": "+1 212-966-4494", "start_date": "1977", "takeaway": "yes", "website": "https://famousbenspizzaofsoho.com"}}, {"type": "node", "id": 9535119733, "lat": 40.7236733, "lon": -74.0038719, "tags": {"addr:housenumber": "519", "addr:postcode": "10013", "addr:street": "Broome Street", "amenity": "restaurant", "contact:email": "mishkasoho@mishkasoho.com", "contact:facebook": "Mishka-Restaurant-Soho-106731477822260", "contact:instagram": "mishkasoho_", "contact:phone": "+1 646-590-1498", "contact:website": "https://www.mishkasoho.com", "cuisine": "eastern_european", "delivery": "yes", "drink:tea": "yes", "level": "0", "name": "Mishka Soho", "opening_hours": "Mo-Th, Su 12:00-22:00; Fr 10:00-22:00; Sa 10:00-01:00", "outdoor_seating": "yes", "reservation": "yes", "takeaway": "yes"}}, {"type": "node", "id": 9664809923, "lat": 40.7247352, "lon": -74.0025962, "tags": {"addr:housenumber": "180", "addr:postcode": "10012", "addr:street": "Spring Street", "amenity": "restaurant", "cocktails": "yes", "contact:facebook": "bistro_les_amis", "cuisine": "french", "delivery": "yes", "drink:beer": "draught", "drink:wine": "served", "happy_hours": "Mo-Fr 14:30-18:30", "level": "0", "name": "Bistro les Amis", "opening_hours": "11:30-23:30", "outdoor_seating": "yes", "phone": "+1 212-226-8645", "reservation": "yes", "takeaway": "yes", "website": "https://bistrolesamis.com"}}, {"type": "node", "id": 9754324598, "lat": 40.7283592, "lon": -74.0023725, "tags": {"barrier": "gate"}}, {"type": "node", "id": 9896425447, "lat": 40.7274691, "lon": -74.0034457, "tags": {"addr:housenumber": "213", "addr:postcode": "10014", "addr:street": "Avenue Of The Americas", "amenity": "restaurant"}}, {"type": "node", "id": 9934396018, "lat": 40.7236281, "lon": -74.0028707, "tags": {"addr:housenumber": "376", "addr:postcode": "10012", "addr:street": "West Broadway", "amenity": "restaurant", "name": "Cipriani Downtown NYC", "opening_hours": "Mo-Su 12:00-00:00"}}, {"type": "node", "id": 10202468517, "lat": 40.7259881, "lon": -74.0018204, "tags": {"addr:city": "New York", "addr:housenumber": "113", "addr:postcode": "10012", "addr:state": "NY", "addr:street": "Thompson Street", "amenity": "restaurant", "cuisine": "japanese", "email": "info@omen-azen.com", "name": "Omen Azen", "name:ja_rm": "\u304a\u3081\u3093", "opening_hours": "Mo-Sa 17:00-22:00; Su off", "phone": "+1-212-925-8923", "website": "https://www.omen-azen.com/"}}, {"type": "node", "id": 10208805585, "lat": 40.7265423, "lon": -74.0034342}, {"type": "node", "id": 10830817800, "lat": 40.7280345, "lon": -74.0016502, "tags": {"amenity": "restaurant", "cuisine": "japanese", "name": "DOMODOMO"}}, {"type": "node", "id": 10830954967, "lat": 40.7261823, "lon": -74.0019199, "tags": {"addr:city": "New York", "addr:housenumber": "176", "addr:postcode": "10012", "addr:state": "NY", "addr:street": "Prince Street", "air_conditioning": "yes", "amenity": "restaurant", "cuisine": "italian;pasta;seafood", "diet:meat": "yes", "diet:seafood": "yes", "name": "Il Corallo Trattoria", "opening_hours": "Su-Th 12:00-22:00; Fr-Su 12:00-23:00", "outdoor_seating": "yes", "phone": "+1-212-941-7119", "website": "https://www.ilcorallotrattoria.com/"}}, {"type": "node", "id": 10830968028, "lat": 40.7260837, "lon": -74.001279, "tags": {"addr:city": "New York", "addr:housenumber": "161", "addr:postcode": "10012", "addr:state": "NY", "addr:street": "Prince Street", "air_conditioning": "yes", "amenity": "cafe", "brand": "Joe & The Juice", "brand:wikidata": "Q26221514", "check_date": "2023-07-15", "cuisine": "coffee_shop", "internet_access": "yes", "internet_access:fee": "no", "name": "Joe & The Juice", "opening_hours": "Mo-Su 07:00-20:00", "phone": "+1-212-777-0034", "takeaway": "yes", "toilets": "yes", "website": "https://www.joejuice.com/", "wheelchair": "yes"}}, {"type": "node", "id": 10839772010, "lat": 40.7270593, "lon": -74.0027981, "tags": {"addr:city": "New York", "addr:housenumber": "38", "addr:postcode": "10012", "addr:state": "NY", "addr:street": "MacDougal Street", "amenity": "restaurant", "check_date": "2023-07-15", "cuisine": "mediterranean", "delivery": "yes", "name": "Shuka", "phone": "+1-212-475-7500", "takeaway": "yes", "website": "https://www.shukanewyork.com"}}, {"type": "node", "id": 10853807646, "lat": 40.7244067, "lon": -74.0068385}, {"type": "node", "id": 10908635405, "lat": 40.7282617, "lon": -74.0051457, "tags": {"addr:postcode": "10014", "amenity": "cafe", "name": "Gregory\u2019s coffee", "opening_hours": "Mo-Fr 06:30-19:00; Su,Sa 07:00-17:00", "payment:credit_cards": "yes", "payment:debit_cards": "yes"}}, {"type": "node", "id": 11048648635, "lat": 40.7264448, "lon": -74.0020207, "tags": {"amenity": "cafe", "check_date": "2023-07-15", "name": "Blank Slate"}}, {"type": "node", "id": 11077605269, "lat": 40.7260032, "lon": -74.0011522, "tags": {"addr:city": "New York", "addr:housenumber": "157", "addr:postcode": "10012", "addr:state": "NY", "addr:street": "Prince Street", "name": "Bapple", "office": "estate_agent"}}, {"type": "node", "id": 11123639305, "lat": 40.7264761, "lon": -74.0020131, "tags": {"amenity": "cafe", "name": "Blank Street Coffee"}}, {"type": "node", "id": 11210299208, "lat": 40.7253658, "lon": -74.004903, "tags": {"addr:housenumber": "155", "addr:postcode": "10013", "addr:street": "Avenue of the Americas", "contact:email": "hello@propublica.org", "contact:facebook": "propublica", "contact:mastodon": "https://newsie.social/@ProPublica", "contact:twitter": "propublica", "fax": "+1 212-785-2634", "level": "12", "name": "ProPublica", "office": "association", "phone": "+1 212-514-5250", "website": "https://www.propublica.org/", "wikidata": "Q1817856", "wikipedia": "en:ProPublica"}}, {"type": "node", "id": 11433238611, "lat": 40.7287461, "lon": -74.0031498, "tags": {"addr:city": "New York", "addr:housenumber": "178", "addr:postcode": "10014", "addr:state": "NY", "addr:street": "West Houston Street", "amenity": "restaurant", "check_date": "2023-12-19", "cuisine": "french", "diet:vegan": "only", "diet:vegetarian": "only", "level": "0", "name": "D\u00e9lice & Sarrasin", "opening_hours": "11:00-23:00", "payment:cash": "yes", "payment:mastercard": "yes", "payment:visa": "yes", "phone": "+1 212-243-7200", "website": "https://delicesarrasin.com", "wheelchair": "yes"}}, {"type": "node", "id": 11515031316, "lat": 40.7279908, "lon": -74.0056784}, {"type": "node", "id": 11515031368, "lat": 40.7285373, "lon": -74.0055887}, {"type": "node", "id": 11738012197, "lat": 40.7258776, "lon": -74.0036174, "tags": {"amenity": "cafe", "name": "Sui Yoga Studio.Cafe"}}, {"type": "node", "id": 11739055903, "lat": 40.7257767, "lon": -74.0055352, "tags": {"addr:housenumber": "150", "addr:postcode": "10013", "addr:street": "Varick Street", "amenity": "cafe", "branch": "Spring & Varick", "brand": "Starbucks", "brand:wikidata": "Q37158", "cuisine": "coffee_shop", "name": "Starbucks", "official_name": "Starbucks Coffee", "opening_hours": "Mo-Fr 05:30-19:00; Sa, Su 06:00-19:00", "phone": "+1 646-230-9816", "takeaway": "yes", "website": "https://www.starbucks.com/store-locator/store/8947/spring-and-varick-150-varick-street-new-york-ny-100131218-us"}}, {"type": "node", "id": 11739055904, "lat": 40.7255235, "lon": -74.0053247, "tags": {"addr:housenumber": "246", "addr:postcode": "10013", "addr:street": "Spring Street", "amenity": "restaurant", "cocktails": "yes", "contact:email": "Zac@vestrynyc.com", "contact:facebook": "vestrynyc", "contact:instagram": "vestrynyc", "cuisine": "seafood", "name": "Vestry", "opening_hours": "Mo-Sa 17:00-24:00", "opening_hours:kitchen": "Mo-Th 17:00-22:00; Fr,Sa 17:00-22:30", "phone": "+1 212-784-1350", "reservation": "yes", "reservation:website": "https://resy.com/cities/ny/vestry", "website": "https://www.vestrynyc.com/"}}, {"type": "node", "id": 11746463844, "lat": 40.7270969, "lon": -74.0020062, "tags": {"addr:city": "New York", "addr:housenumber": "144", "addr:postcode": "10012", "addr:state": "NY", "addr:street": "Sullivan Street", "amenity": "restaurant", "cuisine": "japanese", "name": "Mori", "opening_hours": "Mo-Sa 17:30-22:30", "reservation": "required", "reservation:website": "https://resy.com/cities/ny/mori-omakase", "website": "https://www.instagram.com/mori_omakase"}}, {"type": "node", "id": 11746463845, "lat": 40.727044, "lon": -74.0020491, "tags": {"addr:city": "New York", "addr:housenumber": "142", "addr:postcode": "10012", "addr:state": "NY", "addr:street": "Sullivan Street", "amenity": "bar", "name": "142 Sullivan Bar", "opening_hours": "Mo-Su 17:00-25:00", "phone": "+12124772404", "website": "https://soho.142sullivan.com"}}, {"type": "node", "id": 12273485199, "lat": 40.7294782, "lon": -74.0019107}, {"type": "node", "id": 12273485200, "lat": 40.7295297, "lon": -74.0021889}, {"type": "node", "id": 12273517801, "lat": 40.7295021, "lon": -74.0021769}, {"type": "node", "id": 12273517803, "lat": 40.729582, "lon": -74.0021473}, {"type": "node", "id": 12273517804, "lat": 40.729584, "lon": -74.0021231}, {"type": "node", "id": 12273517806, "lat": 40.7294678, "lon": -74.0019199}, {"type": "node", "id": 12350543849, "lat": 40.7258246, "lon": -74.0012786, "tags": {"addr:city": "New York", "addr:housenumber": "156", "addr:postcode": "10012", "addr:state": "NY", "addr:street": "Prince Street", "amenity": "cafe", "check_date": "2024-04-26", "contact:facebook": "https://www.facebook.com/burdickchocolate", "contact:instagram": "https://www.instagram.com/burdickchocolate", "cuisine": "coffee_shop;chocolate", "name": "L.A. Burdick Handmade Chocolates", "opening_hours": "Mo-Th 08:00-18:00; Fr-Sa 08:00-20:00; Su 10:00-20:00", "phone": "+1 212-796-0143", "website": "https://www.burdickchocolate.com/location-new-york"}}, {"type": "node", "id": 12517077499, "lat": 40.724465, "lon": -74.0046338}, {"type": "node", "id": 12517077500, "lat": 40.7254518, "lon": -74.0044815}, {"type": "node", "id": 12605085818, "lat": 40.7246281, "lon": -74.0050184, "tags": {"alt_name": "Chelsea Vocational School", "amenity": "school", "fax": "+1-212-941-7934", "grades": "9-12", "mascot": "Lions", "name": "Chelsea Career and Techincal High School", "phone": "+1-212-925-1080", "ref:nycdoe": "M615", "website": "https://www.chelseacte.org", "wikidata": "Q5090099"}}, {"type": "node", "id": 12605220561, "lat": 40.7269267, "lon": -74.0047831, "tags": {"amenity": "school", "mascot": "Knights", "name": "Elisabeth Irwin High School"}}, {"type": "node", "id": 12729059749, "lat": 40.7277245, "lon": -74.0025523, "tags": {"addr:city": "New York", "addr:housenumber": "43", "addr:postcode": "10012", "addr:state": "NY", "addr:street": "MacDougal Street", "amenity": "restaurant", "cuisine": "italian", "name": "Roscioli NYC", "website": "https://rosciolinyc.com/"}}, {"type": "node", "id": 13175877701, "lat": 40.7256156, "lon": -74.0021423, "tags": {"addr:housenumber": "101", "addr:street": "Thompson Street", "amenity": "cafe", "name": "ans\u0101 Micro Coffee Roastery"}}, {"type": "node", "id": 13316102816, "lat": 40.7280467, "lon": -74.0027867}, {"type": "node", "id": 13316102822, "lat": 40.7279721, "lon": -74.0028177}, {"type": "way", "id": 239988106, "nodes": [2477560547, 12517077500, 2477560537, 2477560551, 12517077499, 2477560549, 2477560547], "tags": {"gnis:feature_id": "2500758", "leisure": "park", "name": "Spring Street Park", "website": "https://www.nycgovparks.org/parks/soho-square", "wikidata": "Q28209401"}}, {"type": "way", "id": 239988118, "nodes": [2477560571, 2477560535, 6491645894, 10208805585, 2477560540, 2477560571], "tags": {"gnis:feature_id": "2500755", "leisure": "park", "name": "Father Fagan Park", "wikidata": "Q49488572"}}, {"type": "way", "id": 244977216, "nodes": [2522432385, 2522432386, 357650436, 2522432388, 2522432389, 9754324598, 2522432390, 2522432385], "tags": {"alt_name": "Passannante Square", "ele": "6", "gnis:feature_id": "2500753", "leisure": "park", "name": "William E. Passannante Ballfield", "name:etymology:wikidata": "Q58010925", "website": "https://www.nycgovparks.org/parks/william-f-passannante-ballfield/", "wikidata": "Q49540080"}}, {"type": "way", "id": 247865132, "nodes": [2547224143, 2547224153, 2547224178, 2547224174, 2547224143], "tags": {"addr:city": "New York", "addr:housenumber": "512", "addr:postcode": "10013", "addr:street": "Broome Street", "amenity": "restaurant", "building": "yes", "cuisine": "greek", "height": "5.2", "name": "Pi Bakerie", "nycdoitt:bin": "1007340", "opening_hours": "Mo-Su 07:00-21:00", "phone": "+1-212-226-2701", "website": "https://pibakerie.com"}}, {"type": "way", "id": 249664994, "nodes": [2562450120, 2562450123, 2562450159, 2562450168, 2562450125, 2562450117, 2562450120], "tags": {"addr:housenumber": "64", "addr:postcode": "10014", "addr:street": "Downing Street", "amenity": "restaurant", "building": "yes", "building:levels": "1", "height": "3.6", "nycdoitt:bin": "1008388"}}, {"type": "way", "id": 249665003, "nodes": [2562450132, 2562450109, 2562450110, 2562450091, 2562450095, 2562450117, 2562450125, 2562450168, 2562450191, 2562450150, 2562450132], "tags": {"addr:city": "New York", "addr:housenumber": "222", "addr:state": "NY", "addr:street": "West Houston Street", "amenity": "bar", "building": "yes", "height": "6.7", "name": "Houston Hall", "nycdoitt:bin": "1008384", "outdoor_seating": "no", "smoking": "no"}}, {"type": "way", "id": 249665026, "nodes": [2562449987, 11515031316, 3270276100, 3270276103, 2562450038, 2562450100, 3270276127, 3270276126, 11515031368, 2562450076, 3270276122, 3270276101, 2562449987], "tags": {"addr:city": "New York", "addr:housenumber": "201", "addr:postcode": "10014", "addr:street": "Varick Street", "air_conditioning": "yes", "architect": "Buchman and Kahn", "building": "yes", "building:levels": "12", "name": "Federal Building", "nycdoitt:bin": "1009755", "office": "government", "operator": "U.S. General Services Administration", "smoking": "no", "start_date": "1928", "website": "https://www.gsa.gov/historic-buildings/federal-building-new-york-ny"}}, {"type": "way", "id": 249665058, "nodes": [2562450620, 13316102822, 13316102816, 2562450626, 2562450625, 2562450616, 2562450620], "tags": {"ele": "6", "gnis:feature_id": "2500754", "leisure": "park", "name": "Playground of the Americas", "website": "https://www.nycgovparks.org/parks/playground-of-the-americas/"}}, {"type": "way", "id": 270791455, "nodes": [2757780163, 2757780164, 2757780165, 2757780166, 2757780167, 2757780168, 2757780169, 2757780170, 2757780171, 2757780172, 2757780163], "tags": {"addr:city": "New York", "leisure": "park", "name": "Freeman Plaza West"}}, {"type": "way", "id": 329041506, "nodes": [3358631412, 3358631413, 3358631414, 3358631415, 3358631416, 3358631417, 3358631424, 3358631423, 3358631418, 3358631419, 3358631420, 3358631421, 3358631422, 3358631412], "tags": {"leisure": "park", "name": "Freeman Plaza East"}}, {"type": "way", "id": 329041537, "nodes": [3358631687, 10853807646, 3358631688, 3358631689, 3358631690, 3358631691, 3358631692, 3358631893, 3358631894, 3358631687], "tags": {"leisure": "park", "name": "Freeman Plaza North"}}, {"type": "way", "id": 385858615, "nodes": [12273485199, 12273517806, 2550012966, 3891950890, 12273517801, 12273485200, 2477560555, 12273517803, 12273517804, 3891960761, 12273485199], "tags": {"ele": "6", "gnis:feature_id": "2500751", "leisure": "park", "name": "Little Red Square"}}, {"type": "way", "id": 449139914, "nodes": [4461051681, 4461051682, 4461051683, 4461051684, 4461051681], "tags": {"leisure": "park", "name": "Urban Park"}}]}