{"version": 0.6, "generator": "Overpass API 0.7.62.8 e802775f", "osm3s": {"timestamp_osm_base": "2025-12-01T15:54:09Z", "copyright": "The data included in this document is from www.openstreetmap.org. The data is made available under ODbL."}, "elements": [{"type": "node", "id": 2528446240, "lat": 40.6586858, "lon": -73.9963796}, {"type": "node", "id": 2547733501, "lat": 40.6630815, "lon": -73.9950173}, {"type": "node", "id": 2547734957, "lat": 40.6621205, "lon": -73.9945204}, {"type": "node", "id": 2547735060, "lat": 40.6622072, "lon": -73.9944332}, {"type": "node", "id": 2547735530, "lat": 40.6627367, "lon": -73.9943872}, {"type": "node", "id": 2547735611, "lat": 40.6628051, "lon": -73.9945008}, {"type": "node", "id": 2547745116, "lat": 40.6598071, "lon": -73.9966221, "tags": {"name": "Royal Industries", "office": "company"}}, {"type": "node", "id": 2547745147, "lat": 40.6608722, "lon": -73.9969594, "tags": {"addr:housenumber": "249B", "addr:postcode": "11232", "addr:street": "24th Street", "name": "Ironwood Property Management", "office": "yes", "phone": "+1-718-499-4833"}}, {"type": "node", "id": 2547745181, "lat": 40.6611638, "lon": -73.9969799, "tags": {"addr:housenumber": "721", "addr:postcode": "11232", "addr:street": "4th Avenue", "amenity": "restaurant", "cuisine": "diner;italian;mexican", "drink:coffee": "yes", "name": "Jey Diner", "phone": "+1-917-635-0863"}}, {"type": "node", "id": 2547745199, "lat": 40.658549, "lon": -73.9965608, "tags": {"addr:housenumber": "758", "addr:postcode": "11232", "addr:street": "5th Avenue", "amenity": "bar", "cocktails": "yes", "cuisine": "mexican", "drink:beer": "yes", "drink:liquor": "yes", "drink:wine": "yes", "name": "Blue Mezcal", "old_name": "Club Xstasy", "outdoor_seating": "yes", "smoking": "hookah"}}, {"type": "node", "id": 2547745471, "lat": 40.6582287, "lon": -73.9968533}, {"type": "node", "id": 2547745487, "lat": 40.6583221, "lon": -73.9970074}, {"type": "node", "id": 2547745490, "lat": 40.6583383, "lon": -73.9967387}, {"type": "node", "id": 2547745499, "lat": 40.6583921, "lon": -73.9966824}, {"type": "node", "id": 2547745505, "lat": 40.6584314, "lon": -73.9966413}, {"type": "node", "id": 2547745506, "lat": 40.6584317, "lon": -73.9968928}, {"type": "node", "id": 2547745509, "lat": 40.6584404, "lon": -73.9969072}, {"type": "node", "id": 2547745522, "lat": 40.6584943, "lon": -73.9968509}, {"type": "node", "id": 2547745523, "lat": 40.6584947, "lon": -73.9967457}, {"type": "node", "id": 2547745528, "lat": 40.6585211, "lon": -73.996895}, {"type": "node", "id": 2547745543, "lat": 40.6585603, "lon": -73.9968539}, {"type": "node", "id": 2547745625, "lat": 40.6587904, "lon": -73.9962704}, {"type": "node", "id": 2547745647, "lat": 40.6599699, "lon": -73.9969973}, {"type": "node", "id": 2547745650, "lat": 40.6588504, "lon": -73.9975883}, {"type": "node", "id": 2547745653, "lat": 40.6588543, "lon": -73.99666}, {"type": "node", "id": 2547745691, "lat": 40.6588962, "lon": -73.9961599}, {"type": "node", "id": 2547745771, "lat": 40.6590059, "lon": -73.9963424}, {"type": "node", "id": 2547745775, "lat": 40.6590109, "lon": -73.997853}, {"type": "node", "id": 2547745786, "lat": 40.6598819, "lon": -73.9968508}, {"type": "node", "id": 2547745792, "lat": 40.6590216, "lon": -73.9978705}, {"type": "node", "id": 2547745813, "lat": 40.659052, "lon": -73.9964537}, {"type": "node", "id": 2547745820, "lat": 40.6590604, "lon": -73.9973688}, {"type": "node", "id": 2547745821, "lat": 40.6590607, "lon": -73.9979351}, {"type": "node", "id": 2547745822, "lat": 40.6590647, "lon": -73.9964403}, {"type": "node", "id": 2547745823, "lat": 40.6590663, "lon": -73.9970129}, {"type": "node", "id": 2547745842, "lat": 40.659094, "lon": -73.9977661}, {"type": "node", "id": 2547745853, "lat": 40.6591047, "lon": -73.9977836}, {"type": "node", "id": 2547745869, "lat": 40.6591233, "lon": -73.9966057}, {"type": "node", "id": 2547745900, "lat": 40.6592579, "lon": -73.9964652}, {"type": "node", "id": 2547745904, "lat": 40.6591945, "lon": -73.9966626}, {"type": "node", "id": 2547745908, "lat": 40.6591973, "lon": -73.9967502}, {"type": "node", "id": 2547745915, "lat": 40.6591982, "lon": -73.9966688}, {"type": "node", "id": 2547745919, "lat": 40.6591632, "lon": -73.9965641}, {"type": "node", "id": 2547745941, "lat": 40.6593854, "lon": -73.9963913, "tags": {"entrance": "main"}}, {"type": "node", "id": 2547745943, "lat": 40.6592315, "lon": -73.997651}, {"type": "node", "id": 2547745947, "lat": 40.6592409, "lon": -73.9968306}, {"type": "node", "id": 2547745949, "lat": 40.6592433, "lon": -73.9964005}, {"type": "node", "id": 2547745958, "lat": 40.6592707, "lon": -73.9977156}, {"type": "node", "id": 2547745960, "lat": 40.6592728, "lon": -73.9964497}, {"type": "node", "id": 2547745968, "lat": 40.6592969, "lon": -73.9964151}, {"type": "node", "id": 2547745969, "lat": 40.6593004, "lon": -73.9964209}, {"type": "node", "id": 2547745970, "lat": 40.6593011, "lon": -73.9965372}, {"type": "node", "id": 2547745972, "lat": 40.6593101, "lon": -73.9965521}, {"type": "node", "id": 2547745979, "lat": 40.659334, "lon": -73.9963058}, {"type": "node", "id": 2547745987, "lat": 40.6593601, "lon": -73.9963492}, {"type": "node", "id": 2547745991, "lat": 40.6593635, "lon": -73.996355}, {"type": "node", "id": 2547745999, "lat": 40.6594068, "lon": -73.9964269}, {"type": "node", "id": 2547746210, "lat": 40.6601364, "lon": -73.9967083}, {"type": "node", "id": 2547746233, "lat": 40.6601795, "lon": -73.9967801}, {"type": "node", "id": 2547746240, "lat": 40.660352, "lon": -73.9964849}, {"type": "node", "id": 2547746256, "lat": 40.6603124, "lon": -73.9960628}, {"type": "node", "id": 2547746266, "lat": 40.660356, "lon": -73.996135}, {"type": "node", "id": 2547746281, "lat": 40.6603071, "lon": -73.9964103}, {"type": "node", "id": 2547746314, "lat": 40.6605241, "lon": -73.9958424}, {"type": "node", "id": 2547746327, "lat": 40.6605677, "lon": -73.9959145}, {"type": "node", "id": 2550598743, "lat": 40.661386, "lon": -74.001263, "tags": {"addr:housenumber": "130", "addr:postcode": "11232", "addr:street": "26th Street", "name": "Truenorth Mechanical", "office": "company"}}, {"type": "node", "id": 2561908123, "lat": 40.6596924, "lon": -73.9995636}, {"type": "node", "id": 2561908143, "lat": 40.6597438, "lon": -73.9995098}, {"type": "node", "id": 2561908170, "lat": 40.6598254, "lon": -73.9997844}, {"type": "node", "id": 2561908174, "lat": 40.6598364, "lon": -74.0007315}, {"type": "node", "id": 2561908193, "lat": 40.6598744, "lon": -74.0007948}, {"type": "node", "id": 2561908209, "lat": 40.6599063, "lon": -73.9993397}, {"type": "node", "id": 2561908237, "lat": 40.6599501, "lon": -74.0006129}, {"type": "node", "id": 2561908261, "lat": 40.6600393, "lon": -73.9995605}, {"type": "node", "id": 2561908263, "lat": 40.6600438, "lon": -74.0005151}, {"type": "node", "id": 2561908267, "lat": 40.6600476, "lon": -74.0005112}, {"type": "node", "id": 2561908286, "lat": 40.6600856, "lon": -74.0005744}, {"type": "node", "id": 2561908392, "lat": 40.6604408, "lon": -74.0008057}, {"type": "node", "id": 2561908397, "lat": 40.6604737, "lon": -74.0008603}, {"type": "node", "id": 2561908408, "lat": 40.6605481, "lon": -74.0006934}, {"type": "node", "id": 2561908410, "lat": 40.6605809, "lon": -74.000748}, {"type": "node", "id": 2561909714, "lat": 40.6606889, "lon": -73.9993435}, {"type": "node", "id": 2561909717, "lat": 40.6607106, "lon": -73.9991687}, {"type": "node", "id": 2561909718, "lat": 40.6607191, "lon": -73.9991599}, {"type": "node", "id": 2561909720, "lat": 40.6607398, "lon": -73.999435}, {"type": "node", "id": 2561909721, "lat": 40.6607424, "lon": -73.9994324}, {"type": "node", "id": 2561909722, "lat": 40.660767, "lon": -73.9992626}, {"type": "node", "id": 2561909723, "lat": 40.6608155, "lon": -73.9990599}, {"type": "node", "id": 2561909724, "lat": 40.6608179, "lon": -73.9990639}, {"type": "node", "id": 2561909725, "lat": 40.6608308, "lon": -73.9995864}, {"type": "node", "id": 2561909727, "lat": 40.6608804, "lon": -73.9995349}, {"type": "node", "id": 2561909728, "lat": 40.6608874, "lon": -73.9989919}, {"type": "node", "id": 2561909730, "lat": 40.6609597, "lon": -73.9991122}, {"type": "node", "id": 2561909733, "lat": 40.6609936, "lon": -73.999077}, {"type": "node", "id": 2561909734, "lat": 40.6610296, "lon": -73.9991368}, {"type": "node", "id": 2561909737, "lat": 40.6610369, "lon": -73.9991292}, {"type": "node", "id": 2561909739, "lat": 40.6611271, "lon": -73.9992792}, {"type": "node", "id": 2562018481, "lat": 40.6572991, "lon": -74.0001273}, {"type": "node", "id": 2715767141, "lat": 40.6626742, "lon": -73.9954414}, {"type": "node", "id": 2715767142, "lat": 40.6625483, "lon": -73.9940791}, {"type": "node", "id": 2715767143, "lat": 40.6630221, "lon": -73.9948559}, {"type": "node", "id": 2715768320, "lat": 40.6576364, "lon": -74.0006867}, {"type": "node", "id": 2715768321, "lat": 40.6577199, "lon": -73.9996864}, {"type": "node", "id": 2715768322, "lat": 40.6580572, "lon": -74.0002458}, {"type": "node", "id": 5455223691, "lat": 40.6612944, "lon": -73.9968528, "tags": {"addr:housenumber": "719", "addr:street": "4th Avenue", "amenity": "cafe", "cuisine": "coffee_shop;sandwich;breakfast", "drink:coffee": "yes", "drink:espresso": "yes", "drink:tea": "yes", "name": "Tin Cup Cafe", "opening_hours": "Mo-Fr 07:00-18:00; Sa 08:00-17:00; Su 08:00-17:00", "outdoor_seating": "sidewalk", "phone": "+1-347-725-3506"}}, {"type": "node", "id": 5840534170, "lat": 40.6584982, "lon": -73.9966106, "tags": {"addr:housenumber": "760", "addr:postcode": "11232", "addr:street": "5th Avenue", "fax": "+1-718-499-2666", "name": "Viptax", "office": "tax_advisor", "phone": "+1-718-499-0221"}}, {"type": "node", "id": 6855574833, "lat": 40.6626999, "lon": -73.997682, "tags": {"name": "First Response Exterminating", "office": "company", "phone": "+1-212-431-2096", "website": "https://frpest.com/"}}, {"type": "node", "id": 6855574834, "lat": 40.6627346, "lon": -73.9976459, "tags": {"name": "First Response Restoration", "office": "company", "phone": "+1-212-431-2094", "website": "http://frdry.com"}}, {"type": "node", "id": 6855574835, "lat": 40.6627693, "lon": -73.9976099, "tags": {"fax": "+1-212-431-2259", "name": "Viking Restoration Services", "office": "company", "phone": "+1-212-431-1261", "website": "http://vikingrestorations.com"}}, {"type": "node", "id": 6855574836, "lat": 40.6628039, "lon": -73.9975738, "tags": {"name": "Degmor Environmental Services", "office": "company", "phone": "+1-212-431-0696", "website": "http://www.degmorinc.com"}}, {"type": "node", "id": 6874194977, "lat": 40.6603019, "lon": -73.9959804, "tags": {"craft": "gardener", "name": "The Organic Gardener", "office": "company", "phone": "+1-917-383-0818", "website": "https://www.organicgardenernyc.com"}}, {"type": "node", "id": 6874272045, "lat": 40.6602239, "lon": -73.9973574, "tags": {"amenity": "taxi", "name": "Legends Limousine", "office": "yes", "phone": "+1-718-788-1234", "website": "https://www.legendslimousine.com"}}, {"type": "node", "id": 6874272046, "lat": 40.661006, "lon": -73.9971347, "tags": {"amenity": "money_transfer", "atm": "yes", "description": "check cashing, money orders, bill pay, and Western Union money wires", "money_transfer": "Western Union", "name": "PL$", "office": "financial", "opening_hours": "24/7"}}, {"type": "node", "id": 6874272049, "lat": 40.6602723, "lon": -73.9974179, "tags": {"name": "Kam Fon Corp", "office": "company"}}, {"type": "node", "id": 6898547033, "lat": 40.659166, "lon": -73.9966924}, {"type": "node", "id": 6983496818, "lat": 40.6600576, "lon": -73.9990692, "tags": {"fax": "+1-347-750-8344", "name": "Law Firm of Adam Kalish", "office": "lawyer", "phone": "+1-646-568-9313", "website": "https://www.kalishlawnyc.com"}}, {"type": "node", "id": 6983496819, "lat": 40.6619973, "lon": -74.0003399, "tags": {"name": "5 Boro's Construction", "office": "construction"}}, {"type": "node", "id": 6983496821, "lat": 40.6600119, "lon": -73.9991236, "tags": {"fax": "+1-718-857-3665", "name": "Law Offices of Jamie Lathrop, P.C.", "office": "lawyer", "opening_hours": "Mo-Fr 09:00-17:00; Sa 10:00-16:00", "phone": "+1-718-857-3663", "website": "https://parkslopelawyer.com/"}}, {"type": "node", "id": 6983496822, "lat": 40.6620242, "lon": -74.0003847, "tags": {"name": "Gateway Builders Corp.", "office": "construction"}}, {"type": "node", "id": 6983496823, "lat": 40.6600451, "lon": -73.999178, "tags": {"name": "Tracy Sales", "office": "company", "phone": "+1-718-369-7790"}}, {"type": "node", "id": 6990351870, "lat": 40.6622807, "lon": -73.9947868, "tags": {"access": "private", "barrier": "gate"}}, {"type": "node", "id": 6990351878, "lat": 40.6623757, "lon": -73.9942583}, {"type": "node", "id": 6990351879, "lat": 40.6623769, "lon": -73.9949467}, {"type": "node", "id": 6990365099, "lat": 40.6629989, "lon": -73.9948804}, {"type": "node", "id": 7057069080, "lat": 40.6596421, "lon": -73.9985587, "tags": {"fax": "+1-718-369-4569", "name": "4 Ave. Estate", "office": "estate_agent", "phone": "+1-718-369-7373"}}, {"type": "node", "id": 7057069081, "lat": 40.6598153, "lon": -73.9989918, "tags": {"addr:city": "Brooklyn", "addr:housenumber": "782", "addr:postcode": "11232", "addr:state": "NY", "addr:street": "4th Avenue", "amenity": "restaurant", "cocktails": "yes", "cuisine": "mexican", "delivery": "yes", "diet:vegetarian": "yes", "drink:beer": "yes", "drink:liquor": "yes", "drink:wine": "yes", "name": "Molkajete", "opening_hours": "Mo-Su 11:00-23:00", "phone": "+1-718-576-3113", "takeaway": "yes", "toilets": "yes", "toilets:access": "customers", "website": "https://molkajetebrooklyn.com"}}, {"type": "node", "id": 8322361905, "lat": 40.6629277, "lon": -73.9982444, "tags": {"alt_name": "High Rise Fire Protection", "fax": "+1-718-369-0375", "name": "High Rise Fire and Security", "office": "company", "phone": "+1-718-369-3434", "website": "https://highrisefire.com/"}}, {"type": "node", "id": 8766088444, "lat": 40.6612746, "lon": -73.9974748, "tags": {"name": "N & Y Associates", "office": "tax_advisor", "phone": "+1-917-607-6004"}}, {"type": "node", "id": 10248988534, "lat": 40.6588298, "lon": -73.9962617, "tags": {"addr:housenumber": "755", "addr:postcode": "11232", "addr:street": "5th Avenue", "amenity": "cafe", "cuisine": "coffee_shop;breakfast;sandwich", "drink:coffee": "yes", "drink:espresso": "yes", "name": "Baked in Brooklyn", "opening_hours": "Mo-Fr 06:30-19:00; Sa 07:00-19:00; Su 07:00-18:00", "operator": "Alladin Bakers", "outdoor_seating": "sidewalk", "phone": "+1-718-788-3164", "shop": "bakery", "website": "https://bakedinbrooklynny.com/about-the-store/"}}, {"type": "node", "id": 11787343788, "lat": 40.6606692, "lon": -73.9981069, "tags": {"name": "H.L. Dynasty", "office": "estate_agent", "phone": "+1-718-834-8675", "website": "https://www.hldynastyre.com"}}, {"type": "way", "id": 247930631, "nodes": [2547745792, 2547745821, 2547745958, 2547745943, 2547745853, 2547745792], "tags": {"addr:housenumber": "220", "addr:postcode": "11232", "addr:street": "26th Street", "alt_name": "The Lobster Farm", "building": "yes", "height": "7.1", "name": "TJ Kings Lobster", "nycdoitt:bin": "3009682", "office": "company", "phone": "+1-718-855-8887"}}, {"type": "way", "id": 247930698, "nodes": [2547745969, 2547745968, 2547745987, 2547745979, 2547745949, 2547745960, 2547745969], "tags": {"addr:housenumber": "242", "addr:postcode": "11232", "addr:street": "25th Street", "building": "yes", "height": "4.4", "name": "Monument Office", "nycdoitt:bin": "3336874", "office": "yes", "operator": "Green-Wood Cemetery"}}, {"type": "way", "id": 247930720, "nodes": [2547746256, 2547746266, 2547746327, 2547746314, 2547746256], "tags": {"addr:housenumber": "293", "addr:postcode": "11232", "addr:street": "24th Street", "building": "yes", "height": "7.2", "name": "Guide Connection", "nycdoitt:bin": "3009557", "office": "company", "phone": "+1-718-499-4770"}}, {"type": "way", "id": 247930745, "nodes": [2547745505, 2547745499, 2547745522, 2547745528, 2547745543, 2547745523, 2547745505], "tags": {"addr:housenumber": "760A", "addr:postcode": "11232", "addr:street": "5th Avenue", "building": "commercial", "height": "9.4", "name": "Easy Way Install", "nycdoitt:bin": "3342213", "office": "company", "phone": "+1-917-267-9485"}}, {"type": "way", "id": 247930747, "nodes": [2547745490, 2547745506, 2547745509, 2547745522, 2547745499, 2547745490], "tags": {"addr:housenumber": "762", "addr:postcode": "11232", "addr:street": "5th Avenue", "building": "yes", "fax": "+1-518-776-1877", "height": "4.9", "name": "Royal Service Pro", "nycdoitt:bin": "3336880", "office": "insurance", "phone": "+1-877-997-6925", "website": "https://royalservicepro.com"}}, {"type": "way", "id": 247930749, "nodes": [2547745471, 2547745487, 2547745506, 2547745490, 2547745471], "tags": {"addr:housenumber": "764", "addr:postcode": "11232", "addr:street": "5th Avenue", "alt_name": "NRS", "building": "yes", "height": "4.9", "name": "National Recording Supplies", "nycdoitt:bin": "3009692", "office": "company", "phone": "+1-718-369-8273"}}, {"type": "way", "id": 249606320, "nodes": [2561908174, 2561908193, 2561908286, 2561908267, 2561908263, 2561908237, 2561908174], "tags": {"addr:housenumber": "160", "addr:postcode": "11232", "addr:street": "27th Street", "building": "yes", "height": "6.3", "name": "Major Elevator", "nycdoitt:bin": "3009724", "office": "company", "phone": "+1-212-267-3049"}}, {"type": "way", "id": 249606349, "nodes": [2561908123, 2561908170, 2561908261, 2561908209, 2561908143, 2561908123], "tags": {"addr:housenumber": "183", "addr:postcode": "11232", "addr:street": "27th Street", "building": "industrial", "height": "5.3", "name": "Zizo USA", "nycdoitt:bin": "3009660", "office": "company", "phone": "+1-718-439-3187", "website": "https://zizousa.com"}}, {"type": "way", "id": 249606395, "nodes": [2561908392, 2561908397, 2561908410, 2561908408, 2561908392], "tags": {"addr:housenumber": "787", "addr:postcode": "11232", "addr:street": "3rd Avenue", "amenity": "bar", "building": "yes", "cocktails": "yes", "contact:instagram": "https://www.instagram.com/mamatriedbk/", "cuisine": "snack", "drink:beer": "draught", "drink:liquor": "yes", "drink:wine": "yes", "happy_hours": "Mo-Th 17:00-20:00; Fr 15:00-20:00", "height": "3.9", "name": "Mama Tried", "nycdoitt:bin": "3009670", "opening_hours": "Mo-Fr 16:00-04:00; Sa-Su 13:00-04:00", "phone": "+1-929-387-8181", "toilets": "yes", "toilets:unisex": "yes", "website": "https://www.mamatriedbk.com"}}, {"type": "way", "id": 249606604, "nodes": [2561909717, 2561909722, 2561909714, 2561909721, 2561909720, 2561909725, 2561909727, 2561909739, 2561909737, 2561909734, 2561909733, 2561909730, 2561909728, 2561909724, 2561909723, 2561909718, 2561909717], "tags": {"addr:housenumber": "166", "addr:postcode": "11232", "addr:street": "25th Street", "building": "industrial", "height": "7.3", "man_made": "works", "name": "Excello Film Pak", "nycdoitt:bin": "3009603", "office": "company", "phone": "+1-718-499-0300", "product": "packaging", "website": "https://excellofilmpak.com"}}, {"type": "way", "id": 265976884, "nodes": [2715767141, 2547733501, 6990365099, 2715767143, 2547735611, 2547735530, 2715767142, 6990351878, 2547735060, 2547734957, 6990351870, 6990351879, 2715767141], "tags": {"addr:housenumber": "675", "addr:postcode": "11232", "addr:street": "4th Avenue", "amenity": "school", "fax": "+1-718-768-7088", "name": "Al-Noor School", "phone": "+1-718-768-7181", "religion": "muslim", "website": "https://www.alnoornyc.org", "wikidata": "Q4703030", "wikipedia": "en:Al-Noor School"}}, {"type": "way", "id": 265976973, "nodes": [2715768321, 2562018481, 2715768320, 2715768322, 2715768321], "tags": {"amenity": "school", "name": "Public School 172"}}, {"type": "way", "id": 736833336, "nodes": [2547745813, 2547745869, 2547745919, 2547745900, 2547745991, 2547745941, 2547745999, 2547745970, 2547745972, 2547745915, 2547745904, 6898547033, 2547745908, 2547745947, 2547745823, 2547745653, 2528446240, 2547745625, 2547745691, 2547745771, 2547745822, 2547745813], "tags": {"addr:housenumber": "240", "addr:postcode": "11232", "addr:street": "25th Street", "alt_name": "Alladin Bread", "craft": "bakery", "name": "Alladin Bakers", "office": "company", "phone": "+1-718-499-1818", "website": "https://www.aladdinbakers.com"}}, {"type": "way", "id": 736833337, "nodes": [2547745943, 2547745820, 2547745650, 2547745775, 2547745842, 2547745853, 2547745943], "tags": {"name": "Paul Signs", "office": "company"}}, {"type": "way", "id": 738335593, "nodes": [2547746240, 2547746281, 2547745786, 2547745647, 2547746233, 2547746210, 2547746240], "tags": {"addr:housenumber": "223", "addr:postcode": "11232", "addr:street": "25th Street", "craft": "metal_construction", "fax": "+1-718-788-3553", "name": "New Project", "office": "company", "phone": "+1-718-788-3444", "website": "https://www.newproject.cc"}}]}