{"version": 0.6, "generator": "Overpass API 0.7.62.8 e802775f", "osm3s": {"timestamp_osm_base": "2025-12-01T16:03:27Z", "copyright": "The data included in this document is from www.openstreetmap.org. The data is made available under ODbL."}, "elements": [{"type": "node", "id": 617357397, "lat": 40.7099117, "lon": -73.9400848}, {"type": "node", "id": 617357398, "lat": 40.7101718, "lon": -73.9373402}, {"type": "node", "id": 617357400, "lat": 40.7124115, "lon": -73.9383756}, {"type": "node", "id": 617357401, "lat": 40.7119097, "lon": -73.9404277}, {"type": "node", "id": 617357403, "lat": 40.7116478, "lon": -73.94034}, {"type": "node", "id": 617375609, "lat": 40.7084876, "lon": -73.9398081}, {"type": "node", "id": 617375628, "lat": 40.7089921, "lon": -73.9398867}, {"type": "node", "id": 2630333113, "lat": 40.7092274, "lon": -73.9372024, "tags": {"addr:city": "Brooklyn", "addr:housenumber": "57", "addr:postcode": "11206", "addr:street": "Waterbury Street", "amenity": "pub", "cocktails": "yes", "cuisine": "burrito;burger", "drink:beer": "yes", "drink:liquor": "yes", "drink:wine": "yes", "email": "eightydowd@gmail.com", "happy_hours": "yes", "name": "The Anchored Inn", "opening_hours": "Su-Th 12:00-28:00; Fr-Sa 12:00-27:00", "outdoor_seating": "yes", "phone": "+1-718-576-3297", "source": "local knowledge", "sport": "billiards", "toilets": "yes", "toilets:unisex": "yes", "toilets:wheelchair": "yes", "website": "https://theanchoredinn.com/", "wheelchair": "yes"}}, {"type": "node", "id": 2633282810, "lat": 40.7077942, "lon": -73.9397036, "tags": {"addr:city": "Brooklyn", "addr:housenumber": "241", "addr:postcode": "11206", "addr:state": "NY", "addr:street": "Bushwick Avenue", "alt_name": "Danny's Cafe", "amenity": "restaurant", "contact:sms": "+1-929-429-4010", "cuisine": "pizza;italian", "delivery": "yes", "drink:beer": "yes", "name": "Danny's Pizzeria", "opening_hours": "Mo-Th 11:00-22:00, Fr-Sa 11:00-23:00, Su 11:00-22:00", "phone": "+1-718-381-1669", "takeaway": "yes", "website": "https://dannyspizzeria.com/"}}, {"type": "node", "id": 2715578922, "lat": 40.7113178, "lon": -73.940306}, {"type": "node", "id": 2715582210, "lat": 40.7086257, "lon": -73.9383541}, {"type": "node", "id": 2715582211, "lat": 40.7090198, "lon": -73.939892}, {"type": "node", "id": 2715582212, "lat": 40.7091785, "lon": -73.9384474}, {"type": "node", "id": 2838510034, "lat": 40.7074472, "lon": -73.9433955, "tags": {"addr:city": "Brooklyn", "addr:housenumber": "159", "addr:postcode": "11206", "addr:state": "NY", "addr:street": "Graham Avenue", "air_conditioning": "yes", "amenity": "restaurant", "check_date": "2024-10-25", "cuisine": "american;asian;taiwanese", "disused:amenity": "restaurant", "email": "info@winsonbrooklyn.com", "name": "Win Son", "old_name": "Win Son", "opening_hours": "Tu-Sa 17:30-23:00; Su 17:30-22:00", "outdoor_seating": "yes", "phone": "+1-347-457-6010", "reservation": "yes", "toilets": "yes", "website": "https://www.winsonbrooklyn.com", "website:menu": "https://winsonbrooklyn.com/restaurant/dinner"}}, {"type": "node", "id": 2838510036, "lat": 40.7064444, "lon": -73.943238, "tags": {"addr:housenumber": "135", "addr:postcode": "11206", "addr:street": "Graham Avenue", "amenity": "pub", "name": "Sweet Science", "outdoor_seating": "sidewalk;street"}}, {"type": "node", "id": 2838554711, "lat": 40.7075295, "lon": -73.9396531, "tags": {"addr:city": "Brooklyn", "addr:housenumber": "243", "addr:postcode": "11206", "addr:state": "NY", "addr:street": "Bushwick Avenue", "amenity": "restaurant", "name": "Bushwick Pita Palace"}}, {"type": "node", "id": 2838577387, "lat": 40.7046903, "lon": -73.9389969}, {"type": "node", "id": 2838577601, "lat": 40.7048289, "lon": -73.9382758}, {"type": "node", "id": 2838577603, "lat": 40.7048469, "lon": -73.9390488}, {"type": "node", "id": 2838577670, "lat": 40.7052182, "lon": -73.9391735}, {"type": "node", "id": 2838577810, "lat": 40.705357, "lon": -73.938451}, {"type": "node", "id": 2838577852, "lat": 40.7055132, "lon": -73.9393377}, {"type": "node", "id": 2838577864, "lat": 40.7055482, "lon": -73.9391471}, {"type": "node", "id": 2838578125, "lat": 40.705912, "lon": -73.9391356}, {"type": "node", "id": 2838578126, "lat": 40.7059177, "lon": -73.9390661}, {"type": "node", "id": 2839764749, "lat": 40.7091683, "lon": -73.9384464}, {"type": "node", "id": 3012552183, "lat": 40.7082233, "lon": -73.9432081, "tags": {"amenity": "bar", "name": "The Graham"}}, {"type": "node", "id": 3061926346, "lat": 40.7074571, "lon": -73.9402479, "tags": {"addr:city": "Brooklyn", "addr:housenumber": "222", "addr:postcode": "11206", "addr:street": "Montrose Avenue", "amenity": "cafe", "branch": "East Williamsburg", "contact:facebook": "https://www.facebook.com/dunwelldoughnuts/", "contact:instagram": "@dunwelldoughnuts", "contact:twitter": "@dunwelldoughnut", "cuisine": "donut", "diet:vegan": "yes", "drink:coffee": "yes", "drink:espresso": "yes", "drink:tea": "yes", "name": "Dun-Well Doughnuts", "opening_hours": "Mo-Fr 7:00-19:00; Sa-Su 8:00-19:00", "phone": "+1-347-294-0871", "website": "https://www.dunwelldoughnuts.com/"}}, {"type": "node", "id": 3154274262, "lat": 40.7081846, "lon": -73.9400945, "tags": {"addr:housenumber": "222", "addr:street": "Bushwick Avenue", "amenity": "bar", "email": "info@tradesmanbar.com", "lunch": "Sa-Su 11:30-16:30", "name": "The Tradesman Bar", "opening_hours": "Mo-Th 12:00-26:00; Fr 12:00-28:00; Sa, Su 11:30-28:00", "outdoor_seating": "yes", "payment:cash": "only", "phone": "+1-718-386-5300", "reservation": "yes", "toilets": "yes", "website": "https://tradesmanbar.com/"}}, {"type": "node", "id": 3154274268, "lat": 40.7081622, "lon": -73.9397458, "tags": {"amenity": "cafe", "name": "Jessie's Bakery"}}, {"type": "node", "id": 4315270690, "lat": 40.7084618, "lon": -73.9408912, "tags": {"addr:housenumber": "197", "addr:street": "Meserole Street", "amenity": "restaurant", "contact:instagram": "https://www.instagram.com/rosdinerbk/", "craft": "caterer", "cuisine": "american", "delivery": "yes", "diet:vegan": "only", "diet:vegetarian": "yes", "drink:coffee": "yes", "drink:tea": "yes", "name": "Ro's Diner", "opening_hours": "Mo-Su 10:00-25:00", "payment:cash": "yes", "payment:credit_cards": "yes", "phone": "+1-917-909-1665", "takeaway": "yes", "toilets": "yes", "toilets:wheelchair": "yes", "website": "https://www.rosdiner.com/", "wheelchair": "yes"}}, {"type": "node", "id": 4837692921, "lat": 40.7084243, "lon": -73.9377081, "tags": {"addr:housenumber": "272", "addr:postcode": "11206", "addr:street": "Meserole Street", "amenity": "bar", "atm": "yes", "cocktails": "yes", "cuisine": "burrito", "drink:beer": "yes", "drink:liquor": "yes", "drink:wine": "yes", "happy_hours": "Mo-Su 16:00-21:00", "internet_access": "wlan", "internet_access:fee": "no", "leisure": "dance", "name": "The Well", "opening_hours": "Mo-Th 16:00-01:00; Fr 16:00-03:00; Sa 12:00-03:00; Su 12:00-01:00", "outdoor_seating": "backyard", "payment:debit_cards": "yes", "phone": "+1-347-338-3612", "sport": "yes", "toilets": "yes", "toilets:unisex": "no", "toilets:wheelchair": "no", "website": "https://www.thewellbrooklyn.com/", "wheelchair": "no"}}, {"type": "node", "id": 5716101714, "lat": 40.70593, "lon": -73.9365884, "tags": {"addr:housenumber": "279", "addr:postcode": "11206", "addr:street": "McKibben Street", "amenity": "cafe", "branch": "Bushwick", "brand": "Blue Bottle Coffee", "brand:en": "Blue Bottle Coffee", "brand:ja": "\u30d6\u30eb\u30fc\u30dc\u30c8\u30eb\u30b3\u30fc\u30d2\u30fc", "brand:wikidata": "Q4928917", "cuisine": "coffee_shop", "drink:coffee": "yes", "drink:tea": "yes", "fireplace": "yes", "internet_access": "wlan", "internet_access:fee": "no", "name": "Blue Bottle Coffee", "name:en": "Blue Bottle Coffee", "name:ja": "\u30d6\u30eb\u30fc\u30dc\u30c8\u30eb\u30b3\u30fc\u30d2\u30fc", "opening_hours": "Mo-Fr 08:00-17:00; Sa, Su 09:00-17:00; Jan 1 off; Dec 25 off", "payment:contactless": "yes", "phone": "+1-510-653-3394", "takeaway": "yes", "website": "https://bluebottlecoffee.com/cafes/bushwick", "wheelchair": "yes"}}, {"type": "node", "id": 6002923285, "lat": 40.7084122, "lon": -73.9381164, "tags": {"addr:housenumber": "260", "addr:street": "Meserole Street", "amenity": "bar", "cocktails": "yes", "contact:facebook": "https://www.facebook.com/3dollarbillbk/", "contact:phone": "+1-718-366-3031", "contact:website": "https://www.3dollarbillbk.com/", "cuisine": "tacos;burger;burrito;nachos", "description": "A queer (LGBTQIA+) oriented bar with dancefloor and regular club nights.", "diet:vegan": "limited", "diet:vegetarian": "yes", "drink:beer": "yes", "drink:liquor": "yes", "internet_access": "wlan", "internet_access:fee": "no", "leisure": "dance", "lgbtq": "primary", "lgbtq_owner": "yes", "name": "3 Dollar Bill", "opening_hours": "Mo-Su 14:00-04:00", "source:lgbtq": "https://www.3dollarbillbk.com/", "source:lgbtq_owner": "https://www.facebook.com/3dollarbillbk/", "sport": "billiards", "toilets": "yes", "toilets:unisex": "yes", "wheelchair": "yes"}}, {"type": "node", "id": 6049957187, "lat": 40.708624, "lon": -73.9383817}, {"type": "node", "id": 6049957190, "lat": 40.7091766, "lon": -73.9384592}, {"type": "node", "id": 6049957192, "lat": 40.7085465, "lon": -73.9391484}, {"type": "node", "id": 6049957194, "lat": 40.7090843, "lon": -73.9393179}, {"type": "node", "id": 6050149079, "lat": 40.7091248, "lon": -73.9371954, "tags": {"addr:housenumber": "55", "addr:street": "Waterbury Street", "amenity": "restaurant", "craft": "caterer", "cuisine": "mediterranean", "delivery": "yes", "diet:vegan": "yes", "diet:vegetarian": "yes", "drink:coffee": "yes", "drink:tea": "yes", "name": "Newtown", "opening_hours": "Mo-Sa 11:00-22:00; Su 11:00-17:00", "phone": "+1-347-984-6215", "takeaway": "yes", "website": "https://newtownbk.com/", "wheelchair": "yes"}}, {"type": "node", "id": 6191339187, "lat": 40.707503, "lon": -73.9427869, "tags": {"addr:city": "Brooklyn", "addr:housenumber": "161", "addr:postcode": "11206", "addr:state": "NY", "addr:street": "Montrose Avenue", "air_conditioning": "yes", "amenity": "bar", "atm": "yes", "check_date": "2024-10-25", "cocktails": "yes", "drink:beer": "draught", "drink:liquor": "yes", "drink:wine": "yes", "min_age": "21", "name": "duckduck", "opening_hours": "Fr-Sa 16:00-28:00; Su-Mo 16:00-24:00; Tu-Th 16:00-26:00", "outdoor_seating": "yes", "payment:cash": "only", "phone": "+1-347-799-1449", "smoking": "outside"}}, {"type": "node", "id": 7561948494, "lat": 40.7055746, "lon": -73.9389997}, {"type": "node", "id": 7561948495, "lat": 40.7056409, "lon": -73.9390153}, {"type": "node", "id": 7561948500, "lat": 40.7055583, "lon": -73.939097}, {"type": "node", "id": 7561948501, "lat": 40.7056675, "lon": -73.9390218}, {"type": "node", "id": 8548018137, "lat": 40.7052037, "lon": -73.9392677}, {"type": "node", "id": 8548018138, "lat": 40.7048397, "lon": -73.9390812}, {"type": "node", "id": 8548018143, "lat": 40.7057593, "lon": -73.9393776}, {"type": "node", "id": 8548018147, "lat": 40.7060094, "lon": -73.9394192}, {"type": "node", "id": 8548018181, "lat": 40.7061455, "lon": -73.9394427}, {"type": "node", "id": 8548018182, "lat": 40.7060399, "lon": -73.939425}, {"type": "node", "id": 8548018183, "lat": 40.7061535, "lon": -73.9393582}, {"type": "node", "id": 8548018184, "lat": 40.7058973, "lon": -73.9393175}, {"type": "node", "id": 8548018186, "lat": 40.7059797, "lon": -73.9393292}, {"type": "node", "id": 9673072467, "lat": 40.7071589, "lon": -73.9395935, "tags": {"addr:city": "Brooklyn", "addr:housenumber": "255", "addr:postcode": "11206", "addr:state": "NY", "addr:street": "Bushwick Avenue", "addr:unit": "A", "amenity": "restaurant", "cuisine": "mexican", "name": "Arcos de Puebla", "opening_hours": "Mo-Su 11:30-22:30", "phone": "+1-347-916-1230", "website": "https://arcos-de-puebla-corp.business.site/"}}, {"type": "node", "id": 9673089865, "lat": 40.7072464, "lon": -73.939549, "tags": {"addr:city": "Brooklyn", "addr:housenumber": "253", "addr:postcode": "11206", "addr:state": "NY", "addr:street": "Bushwick Avenue", "amenity": "bar", "name": "Pink Metal"}}, {"type": "node", "id": 9673090632, "lat": 40.7074088, "lon": -73.9396195, "tags": {"addr:city": "Brooklyn", "addr:housenumber": "249", "addr:postcode": "11206", "addr:state": "NY", "addr:street": "Bushwick Avenue", "amenity": "restaurant", "name": "Carribean Soul"}}, {"type": "node", "id": 12253456376, "lat": 40.7072233, "lon": -73.9430166, "tags": {"addr:city": "Brooklyn", "addr:housenumber": "164", "addr:postcode": "11206", "addr:state": "NY", "addr:street": "Graham Avenue", "amenity": "cafe", "check_date": "2024-10-25", "cuisine": "coffee_shop;asian;taiwanese;pastry", "email": "bakery@winsonbrooklyn.com", "indoor_seating": "yes", "name": "Win Son Bakery", "opening_hours": "Th-Sa 09:00-22:00; Su 09:00-21:00; Tu-We 09:00-21:00", "outdoor_seating": "yes", "phone": "+1-917-909-1725", "website": "https://www.winsonbrooklyn.com", "website:menu": "https://winsonbrooklyn.com/bakery/menu"}}, {"type": "way", "id": 48610330, "nodes": [617357397, 617357398, 617357400, 617357401, 617357403, 2715578922, 617357397], "tags": {"addr:city": "Brooklyn", "addr:housenumber": "850", "addr:postcode": "11211", "addr:state": "NY", "addr:street": "Grand Street", "amenity": "school", "mascot": "Wolves", "name": "The High School of Enterprise, Business, and Technology", "website": "https://sites.google.com/ebtbrooklyn.com/home/", "wikidata": "Q14706363", "wikipedia": "en:High School of Enterprise, Business, & Technology"}}, {"type": "way", "id": 265955275, "nodes": [2715582212, 2839764749, 2715582210, 6049957187, 6049957192, 617375609, 617375628, 2715582211, 6049957194, 6049957190, 2715582212], "tags": {"amenity": "school", "ele": "13", "gnis:feature_id": "961482", "name": "Public School 196"}}, {"type": "way", "id": 920642658, "nodes": [8548018137, 8548018138, 2838577603, 2838577387, 2838577601, 2838577810, 2838577670, 8548018137]}, {"type": "way", "id": 920642663, "nodes": [8548018181, 8548018182, 8548018147, 8548018143, 2838577852, 2838577864, 7561948500, 7561948494, 7561948495, 7561948501, 2838578126, 2838578125, 8548018184, 8548018186, 8548018183, 8548018181]}, {"type": "relation", "id": 12475907, "members": [{"type": "way", "ref": 920642663, "role": "outer"}, {"type": "way", "ref": 920642658, "role": "outer"}], "tags": {"alt_name": "Public School 147 Brooklyn;The Isaac Remsen School", "alt_name:etymology": "Isaac B. Remsen", "amenity": "school", "ele": "5", "gnis:feature_id": "961357", "name": "Public School 147", "official_name": "School for Environmental Engineering", "operator": "New York City Department of Education", "operator:short": "NYC Public Schools", "operator:type": "public", "operator:wikidata": "Q408230", "operator:wikipedia": "en:New York City Department of Education", "ref": "K147", "short_name": "P.S. 147", "type": "multipolygon", "website": "https://ps147brooklyn-org.webs.com/", "wikidata": "Q109444303"}}]}