{"version": 0.6, "generator": "Overpass API 0.7.62.8 e802775f", "osm3s": {"timestamp_osm_base": "2025-12-01T17:14:02Z", "copyright": "The data included in this document is from www.openstreetmap.org. The data is made available under ODbL."}, "elements": [{"type": "node", "id": 357628411, "lat": 40.5918857, "lon": -73.9769492}, {"type": "node", "id": 2555640553, "lat": 40.5903492, "lon": -73.973173, "tags": {"addr:city": "Brooklyn", "addr:housenumber": "263", "addr:postcode": "11223", "addr:state": "NY", "addr:street": "Avenue X", "amenity": "bar", "check_date": "2024-02-19", "name": "Zona Bar", "opening_hours": "20:00-04:00", "outdoor_seating": "no", "phone": "+1 718-612-8564"}}, {"type": "node", "id": 2555640561, "lat": 40.5905398, "lon": -73.9713886, "tags": {"addr:city": "Brooklyn", "addr:housenumber": "315", "addr:postcode": "11223", "addr:state": "NY", "addr:street": "Avenue X", "amenity": "pub", "check_date": "2025-04-10", "cuisine": "pub;eastern_european", "drink:beer": "draught", "name": "Draft Barn", "outdoor_seating": "garden", "phone": "+1-718-285-2356", "website": "https://www.draftbarnny.com/avex/"}}, {"type": "node", "id": 2555640748, "lat": 40.5902915, "lon": -73.9735002}, {"type": "node", "id": 2555640750, "lat": 40.5903, "lon": -73.9734265}, {"type": "node", "id": 2555640779, "lat": 40.5903764, "lon": -73.9735192}, {"type": "node", "id": 2555640783, "lat": 40.5903784, "lon": -73.9735042}, {"type": "node", "id": 2555640837, "lat": 40.5904523, "lon": -73.9735208}, {"type": "node", "id": 2555640844, "lat": 40.5904599, "lon": -73.9734622}, {"type": "node", "id": 6126651219, "lat": 40.5919029, "lon": -73.976771}, {"type": "node", "id": 6126651220, "lat": 40.591753, "lon": -73.9767472}, {"type": "node", "id": 6126651221, "lat": 40.5918886, "lon": -73.9769309}, {"type": "node", "id": 6126651222, "lat": 40.5918703, "lon": -73.9769477}, {"type": "node", "id": 6126651223, "lat": 40.5917522, "lon": -73.9767629}, {"type": "node", "id": 6126651224, "lat": 40.5917647, "lon": -73.9767381}, {"type": "node", "id": 6126651225, "lat": 40.5919027, "lon": -73.9767884}, {"type": "node", "id": 9809871507, "lat": 40.589945, "lon": -73.9728274, "tags": {"addr:city": "Brooklyn", "addr:housenumber": "274", "addr:postcode": "11223", "addr:state": "NY", "addr:street": "Avenue X", "addr:unit": "A", "amenity": "cafe", "check_date": "2022-06-10", "name": "Jezero Cafe", "outdoor_seating": "yes", "phone": "+1 917-933-4064"}}, {"type": "node", "id": 10126837778, "lat": 40.5904681, "lon": -73.9720319, "tags": {"addr:city": "Brooklyn", "addr:housenumber": "293", "addr:postcode": "11223", "addr:state": "NY", "addr:street": "Avenue X", "amenity": "restaurant", "check_date": "2025-04-10", "cuisine": "chinese", "delivery": "yes", "highchair": "no", "name": "Hunan Cottage Restaurant", "outdoor_seating": "no", "payment:cash": "yes", "payment:contactless": "yes", "payment:credit_cards": "yes", "payment:debit_cards": "yes", "phone": "+1 718-998-7505", "smoking": "no", "takeaway": "yes", "wheelchair": "no"}}, {"type": "way", "id": 248835672, "nodes": [2555640748, 2555640779, 2555640783, 2555640837, 2555640844, 2555640750, 2555640748], "tags": {"addr:housenumber": "253", "addr:postcode": "11223", "addr:street": "Avenue X", "amenity": "restaurant", "building": "yes", "check_date": "2023-10-27", "cuisine": "chinese;mexican", "delivery": "yes", "height": "4.4", "name": "Famous Restaurant", "nycdoitt:bin": "3329380", "opening_hours": "Mo-Th 11:00-22:30; Fr,Sa 11:00-23:00; Su 12:00-22:30", "outdoor_seating": "no", "payment:credit_cards": "yes", "payment:debit_cards": "yes", "phone": "+1 718-339-3399; +1 718-339-8899", "smoking": "no", "takeaway": "yes", "website": "https://famouschinesefoodny.com", "wheelchair": "yes"}}, {"type": "way", "id": 653758926, "nodes": [357628411, 6126651221, 6126651225, 6126651219, 6126651224, 6126651220, 6126651223, 6126651222, 357628411], "tags": {"addr:city": "Brooklyn", "addr:postcode": "11223", "addr:state": "NY", "addr:street": "86th Street", "check_date": "2024-04-25", "ele": "4", "gnis:feature_id": "2129328", "leisure": "park", "name": "Cutinella Triangle", "website": "https://www.nycgovparks.org/parks/cutinella-triangle", "wikidata": "Q34821500"}}]}