{"version": 0.6, "generator": "Overpass API 0.7.62.8 e802775f", "osm3s": {"timestamp_osm_base": "2025-12-01T17:27:16Z", "copyright": "The data included in this document is from www.openstreetmap.org. The data is made available under ODbL."}, "elements": [{"type": "node", "id": 2552629028, "lat": 40.6291026, "lon": -74.0289086}, {"type": "node", "id": 2552629047, "lat": 40.6291474, "lon": -74.0290969}, {"type": "node", "id": 2552629057, "lat": 40.6291688, "lon": -74.0290882}, {"type": "node", "id": 2552629059, "lat": 40.6291723, "lon": -74.0288801}, {"type": "node", "id": 2552629067, "lat": 40.629177, "lon": -74.0291229}, {"type": "node", "id": 2552629076, "lat": 40.629196, "lon": -74.029077}, {"type": "node", "id": 2552629082, "lat": 40.6292043, "lon": -74.0291118}, {"type": "node", "id": 2552629088, "lat": 40.6292171, "lon": -74.0290684}, {"type": "node", "id": 2552658192, "lat": 40.6284146, "lon": -74.0288756, "tags": {"addr:housenumber": "7901", "addr:postcode": "11209", "addr:street": "3rd Avenue", "amenity": "pub", "name": "The Pour House"}}, {"type": "node", "id": 2552691851, "lat": 40.6320913, "lon": -74.0277077, "tags": {"addr:housenumber": "7404", "addr:postcode": "11209", "addr:street": "3rd Avenue", "amenity": "restaurant", "cuisine": "chinese", "delivery": "yes", "diet:halal": "yes", "diet:vegan": "yes", "name": "Dave's Garden", "opening_hours": "Mo,We-Su 11:30-22:30", "phone": "+1-718-333-5431", "takeaway": "yes"}}, {"type": "node", "id": 2552692455, "lat": 40.6310003, "lon": -74.0274661}, {"type": "node", "id": 2552692490, "lat": 40.6310353, "lon": -74.0276091}, {"type": "node", "id": 2552692539, "lat": 40.6310727, "lon": -74.0274355}, {"type": "node", "id": 2552692553, "lat": 40.6310815, "lon": -74.0277982}, {"type": "node", "id": 2552692603, "lat": 40.6311315, "lon": -74.0280887, "tags": {"name": "Sands & Mammolito P.C.", "office": "lawyer"}}, {"type": "node", "id": 2552692624, "lat": 40.631154, "lon": -74.0277676}, {"type": "node", "id": 2552692643, "lat": 40.631177, "lon": -74.0280699, "tags": {"amenity": "cafe", "cuisine": "bagel;breakfast;sandwich", "drink:coffee": "yes", "drink:espresso": "yes", "name": "Bagel Schmagel", "phone": "+1-718-833-1774"}}, {"type": "node", "id": 2552693318, "lat": 40.6312254, "lon": -74.0280498, "tags": {"amenity": "restaurant", "craft": "caterer", "cuisine": "indian", "delivery": "yes", "diet:vegan": "yes", "diet:vegetarian": "yes", "name": "Mint Bay", "opening_hours": "Mo-Fr 11:00-15:00, 17:00-23:00; Sa-Su 12:00-23:00", "phone": "+1-718-333-5599", "takeaway": "yes", "website": "https://www.mintbayindiancuisineny.com"}}, {"type": "node", "id": 2552693369, "lat": 40.6312733, "lon": -74.02803, "tags": {"amenity": "restaurant", "bar": "yes", "cocktails": "yes", "cuisine": "mexican", "drink:beer": "yes", "drink:wine": "yes", "happy_hours": "Tu-Fr 12:00-19:00", "name": "Coszcal de Allende", "opening_hours": "Tu-Th 12:00-22:00, Fr 12:00-24:00, Sa 11:00-24:00, Su 11:00-22:00", "phone": "+1-718-921-3523", "website": "https://coszcalbk.com"}}, {"type": "node", "id": 2552720451, "lat": 40.6319153, "lon": -74.025038}, {"type": "node", "id": 2552720454, "lat": 40.6316683, "lon": -74.0249972}, {"type": "node", "id": 2552720455, "lat": 40.6316986, "lon": -74.0251258}, {"type": "node", "id": 2552720457, "lat": 40.6317472, "lon": -74.0249653}, {"type": "node", "id": 2552720458, "lat": 40.631749, "lon": -74.024973}, {"type": "node", "id": 2552720459, "lat": 40.6318325, "lon": -74.0249103}, {"type": "node", "id": 2552720460, "lat": 40.6318387, "lon": -74.0249366}, {"type": "node", "id": 2552720461, "lat": 40.6318934, "lon": -74.0248856}, {"type": "node", "id": 2552720462, "lat": 40.631895, "lon": -74.0249519}, {"type": "node", "id": 2552720465, "lat": 40.6319014, "lon": -74.0249792}, {"type": "node", "id": 2552720467, "lat": 40.6319078, "lon": -74.0249467}, {"type": "node", "id": 2552720539, "lat": 40.6323157, "lon": -74.0278218}, {"type": "node", "id": 2552720543, "lat": 40.6323319, "lon": -74.0278892}, {"type": "node", "id": 2552720549, "lat": 40.6323361, "lon": -74.0278875}, {"type": "node", "id": 2552720562, "lat": 40.6323698, "lon": -74.0277994}, {"type": "node", "id": 2552720567, "lat": 40.6323861, "lon": -74.0278674}, {"type": "node", "id": 2552908976, "lat": 40.6290934, "lon": -74.0232865, "tags": {"alt_name": "Bay Ridge Manor Catering", "craft": "caterer", "name": "Bay Ridge Manor Banquet Office", "office": "yes", "phone": "+1-718-748-8855", "website": "https://thebayridgemanor.com/"}}, {"type": "node", "id": 2552908994, "lat": 40.6290698, "lon": -74.0229817, "tags": {"amenity": "bar", "name": "Johnny Pumps"}}, {"type": "node", "id": 2552908995, "lat": 40.6289017, "lon": -74.0230572, "tags": {"addr:housenumber": "7526", "addr:postcode": "11209", "addr:street": "5th Avenue", "amenity": "cafe", "drink:coffee": "yes", "drink:espresso": "yes", "drink:tea": "yes", "name": "Jean Danet Pastry", "phone": "+1-718-737-7152", "shop": "pastry"}}, {"type": "node", "id": 2552909475, "lat": 40.628084, "lon": -74.0236712, "tags": {"alt_name": "Academy of Medicine of Brooklyn", "name": "Medical Society County of Kings", "office": "association", "official_name": "Medical Society of the County of Kings", "phone": "+1-718-745-5800", "short_name": "Kings County Medical Society"}}, {"type": "node", "id": 2553000238, "lat": 40.627328, "lon": -74.0233474, "tags": {"amenity": "restaurant", "cuisine": "middle_eastern;yemeni", "name": "Yenmenat", "opening_hours": "Mo-Su 13:00-23:00", "phone": "+1-718-491-5600", "website": "https://www.yemenat.rest"}}, {"type": "node", "id": 2553044743, "lat": 40.627871, "lon": -74.0228867, "tags": {"addr:housenumber": "507A", "addr:postcode": "11209", "addr:street": "77th Street", "amenity": "taxi", "fax": "+1-718-491-8511", "name": "SSA 77 Car & Limo", "office": "taxi", "phone": "+1-718-491-3636"}}, {"type": "node", "id": 2553044798, "lat": 40.6301419, "lon": -74.0221806, "tags": {"addr:housenumber": "7401", "addr:postcode": "11209", "addr:street": "5th Avenue", "name": "T.C.A. Income Tax & Accounting", "office": "accountant", "phone": "+1-718-833-4500"}}, {"type": "node", "id": 2553044823, "lat": 40.628731, "lon": -74.0227824, "tags": {"addr:housenumber": "7525", "addr:postcode": "11209", "addr:street": "5th Avenue", "amenity": "pub", "cuisine": "pub", "drink:beer": "draught", "drink:liquor": "yes", "name": "Bean Post Pub", "phone": "+1-718-745-9413", "website": "https://beanpostpub.com"}}, {"type": "node", "id": 5574466294, "lat": 40.6298391, "lon": -74.0286236, "tags": {"amenity": "restaurant", "cuisine": "pizza", "drink:beer": "bottled", "drink:wine": "yes", "name": "Peppinos", "opening_hours": "We,Th 16:00-21:00; Fr 11:00-22:00; Sa 12:00-22:00; Su 12:00-21:00", "phone": "+1-718-833-3364", "website": "https://ilovepeppinos.com"}}, {"type": "node", "id": 6551947377, "lat": 40.6304268, "lon": -74.0220787, "tags": {"amenity": "restaurant", "bar": "yes", "cuisine": "german", "delivery": "yes", "drink:beer": "draught", "drink:liquor": "yes", "drink:wine": "yes", "name": "Schnitzel Haus", "opening_hours": "Mo-We 16:00-22:00+; Th 12:00-22:00+; Fr-Sa 12:00-24:00+; Su 12:00-22:00+", "opening_hours:kitchen": "Mo-We 16:00-21:00; Th 12:00-21:00; Fr-Sa 12:00-23:00; Su 12:00-21:00", "outdoor_seating": "street", "phone": "+1-718-836-5600", "website": "https://www.schnitzelhausny.com"}}, {"type": "node", "id": 6814990054, "lat": 40.6304226, "lon": -74.0283804, "tags": {"addr:city": "Brooklyn", "addr:housenumber": "7612", "addr:postcode": "11209", "addr:state": "NY", "addr:street": "3rd Avenue", "amenity": "cafe", "bar": "yes", "cocktails": "yes", "cuisine": "greek", "drink:beer": "draught", "drink:liquor": "yes", "drink:wine": "yes", "name": "Omonia Cafe", "phone": "+1-718-491-1435", "shop": "pastry", "website": "https://omoniacafe.com/bayridge/"}}, {"type": "node", "id": 8979854446, "lat": 40.6297451, "lon": -74.022711, "tags": {"addr:city": "Brooklyn", "addr:housenumber": "7428", "addr:postcode": "11209", "addr:state": "NY", "addr:street": "5th Avenue", "branch": "Reliable", "brand": "Coldwell Banker", "brand:wikidata": "Q738853", "name": "Coldwell Banker", "office": "estate_agent", "opening_hours": "Mo-Fr 10:00-18:00; Sa 10:00-16:00; Su 10:00-15:00", "phone": "+1-718-921-3100", "website": "https://www.coldwellbanker.com/coldwell-banker-reliable-147c/bay-ridge-brooklyn-office-4532d"}}, {"type": "node", "id": 9694850817, "lat": 40.6289974, "lon": -74.0286257, "tags": {"amenity": "restaurant", "cuisine": "vietnamese", "delivery": "yes", "name": "Mai's", "opening_hours": "Mo-Sa 11:30-21:30, Su 12:00-21:00", "phone": "+1-718-333-5992", "takeaway": "yes", "website": "https://www.mais-vietnamese.com"}}, {"type": "node", "id": 9755777224, "lat": 40.6319474, "lon": -74.0274226, "tags": {"name": "S. Marchetti & Associates Accounting", "office": "accountant"}}, {"type": "node", "id": 9755777225, "lat": 40.6319755, "lon": -74.0274109, "tags": {"name": "George Marchetti Brokerage", "office": "insurance"}}, {"type": "node", "id": 9780522586, "lat": 40.6297867, "lon": -74.0286536, "tags": {"amenity": "pub", "name": "The Harp", "outdoor_seating": "garden", "phone": "+1-718-745-4277"}}, {"type": "node", "id": 9780522587, "lat": 40.6296747, "lon": -74.0286993, "tags": {"addr:city": "Brooklyn", "addr:housenumber": "7716", "addr:postcode": "11209", "addr:state": "NY", "addr:street": "3rd Avenue", "government": "legislator", "name": "Congresswoman Nicole Malliotakis", "office": "government", "opening_hours": "Mo-Fr 09:00-17:00", "operator": "Nicole Malliotakis", "operator:wikidata": "Q7030112", "phone": "+1-718-306-1620"}}, {"type": "node", "id": 9780522588, "lat": 40.6289914, "lon": -74.0289734, "tags": {"amenity": "restaurant", "cuisine": "japanese", "delivery": "yes", "drink:beer": "yes", "name": "Sapporo", "opening_hours": "Mo 11:30-22:30, We-Th 11:30-22:30, Fr-Sa 11:30-22:45, Su 11:30-22:30", "phone": "+1-718-748-3322", "takeaway": "yes", "website": "https://sapporobk.com"}}, {"type": "node", "id": 9826331332, "lat": 40.6316014, "lon": -74.0219564, "tags": {"amenity": "restaurant", "cuisine": "yemeni", "delivery": "yes", "name": "Uncle Taher Restaurant", "phone": "+1-718-808-8877"}}, {"type": "node", "id": 10159420066, "lat": 40.6323802, "lon": -74.0272509, "tags": {"amenity": "restaurant", "cuisine": "indian", "delivery": "yes", "drink:coffee": "yes", "drink:tea": "yes", "fax": "+1-718-836-1516", "name": "Taj Mahal", "opening_hours": "Mo-Su 11:00-21:00", "phone": "+1-718-836-1512", "takeaway": "yes", "website": "https://tajmahalbayridge.com"}}, {"type": "node", "id": 10160671298, "lat": 40.6318787, "lon": -74.0277941, "tags": {"amenity": "restaurant", "cuisine": "italian", "drink:beer": "bottled", "drink:wine": "yes", "happy_hours": "Fr-Sa 13:00-17:00", "name": "Piccante", "opening_hours": "Mo-Th 16:00-22:00, Fr-Su 13:00-22:00", "phone": "+1-718-833-3919", "takeaway": "yes", "website": "https://piccanteny.com"}}, {"type": "node", "id": 10771836081, "lat": 40.6319152, "lon": -74.0219825, "tags": {"addr:housenumber": "479B", "addr:postcode": "11209", "addr:street": "72nd Street", "fax": "+1-718-567-4186", "name": "NBE Services & Associates", "office": "employment_agency", "phone": "+1-718-567-4187"}}, {"type": "node", "id": 10773959528, "lat": 40.6288482, "lon": -74.0290321, "tags": {"alt_name": "Banat Real Estate", "estate_agent": "yes", "name": "Banat Law Office", "office": "lawyer", "operator": "George A. Banat", "phone": "+1-718-921-0021", "website": "https://georgebanat.com"}}, {"type": "node", "id": 10773959529, "lat": 40.6288014, "lon": -74.0290513, "tags": {"alt_name": "Offshore Diner", "amenity": "restaurant", "delivery": "yes", "name": "Offshore Restaurant", "opening_hours": "Mo-Su 07:00-21:00", "phone": "+1-718-921-5900", "takeaway": "yes", "website": "https://www.offshorediner.com"}}, {"type": "node", "id": 10773959531, "lat": 40.6303535, "lon": -74.0284087, "tags": {"alt_name": "Something Greek", "amenity": "restaurant", "cuisine": "greek", "delivery": "yes", "name": "Somethingreek", "opening_hours": "Mo-Sa 11:00-22:00; Su 12:00-21:00", "outdoor_seating": "garden", "phone": "+1-718-748-8200", "takeaway": "yes", "website": "https://www.somethingreekonline.com"}}, {"type": "node", "id": 10773959534, "lat": 40.631856, "lon": -74.0274634, "tags": {"amenity": "restaurant", "cuisine": "japanese", "name": "Mikawa", "phone": "+1-718-866-8090"}}, {"type": "node", "id": 10797371357, "lat": 40.6304791, "lon": -74.0220573, "tags": {"amenity": "restaurant", "cuisine": "middle_eastern", "name": "Yemen Cafe", "phone": "+1-718-745-3000"}}, {"type": "node", "id": 10797403540, "lat": 40.6299435, "lon": -74.0226208, "tags": {"amenity": "restaurant", "cuisine": "italian;pizza", "name": "Gino's"}}, {"type": "node", "id": 10797403543, "lat": 40.6300862, "lon": -74.0225655, "tags": {"name": "Connors & Sullivan", "office": "lawyer", "phone": "+1-718-238-6500", "website": "https://www.connorsandsullivan.com"}}, {"type": "node", "id": 10797403545, "lat": 40.6299775, "lon": -74.0222584, "tags": {"amenity": "cafe", "cuisine": "coffee_shop", "drink:coffee": "yes", "drink:espresso": "yes", "drink:tea": "yes", "name": "Cup of Joe", "opening_hours": "Mo-Th 06:30-20:00; Fr-Sa 6:30-21:00; Su 07:30-19:00", "phone": "+1-718-921-1000", "website": "https://www.cupofjoecoffeeco.com"}}, {"type": "node", "id": 10800201815, "lat": 40.6295364, "lon": -74.0231386, "tags": {"name": "Diconza, Larocca, Dicunto & Kaplin LLP", "office": "lawyer", "phone": "+1-718-238-6800", "website": "https://dldklaw.com"}}, {"type": "node", "id": 10822527405, "lat": 40.6293835, "lon": -74.0229364, "tags": {"level": "1", "name": "Hanna & Vlahakis", "office": "lawyer", "phone": "+1-718-680-8400", "website": "https://hvlawoffices.com"}}, {"type": "node", "id": 10822527412, "lat": 40.6290073, "lon": -74.0226531, "tags": {"addr:city": "Brooklyn", "addr:housenumber": "7511", "addr:postcode": "11209", "addr:state": "NY", "addr:street": "5th Avenue", "brand": "H&R Block", "brand:wikidata": "Q5627799", "name": "H&R Block", "office": "tax_advisor", "phone": "+1-718-748-2996", "website": "https://www.hrblock.com/local-tax-offices/new-york/brooklyn/7511-fifth-ave/29651"}}, {"type": "node", "id": 10822653417, "lat": 40.6283352, "lon": -74.0229376, "tags": {"amenity": "restaurant", "cuisine": "diner", "drink:coffee": "yes", "name": "Mike's Royal Diner", "opening_hours": "Mo-Sa 06:00-22:00; Su 07:00-20:00", "phone": "+1-718-745-3444", "short_name": "Mike's Diner"}}, {"type": "node", "id": 10822653418, "lat": 40.6283942, "lon": -74.0232641, "tags": {"amenity": "cafe", "cuisine": "yemeni", "name": "Asal Yemen", "opening_hours": "Mo-Fr 07:30-21:00; Sa-Su 08:00-21:00", "phone": "+1-347-560-6329", "website": "https://asal-yn.com"}}, {"type": "node", "id": 10822653431, "lat": 40.6282878, "lon": -74.0235749, "tags": {"addr:housenumber": "475", "addr:postcode": "11209", "addr:street": "77th Street", "disused:website": "http://www.mntcpa.com", "name": "M&T Certified Public Accountants", "office": "accountant", "phone": "+1-646-829-5888"}}, {"type": "node", "id": 10822653434, "lat": 40.6282776, "lon": -74.0229608, "tags": {"name": "Crystal Tax", "office": "accountant", "phone": "+1-718-921-9800", "website": "https://crystaltaxinc.com"}}, {"type": "node", "id": 10822776517, "lat": 40.6276253, "lon": -74.0232329, "tags": {"brand": "United Healthcare", "brand:wikidata": "Q2103926", "name": "United Healthcare", "office": "insurance", "phone": "+1-212-518-6317"}}, {"type": "node", "id": 10822776521, "lat": 40.6276906, "lon": -74.0231401, "tags": {"name": "Law Offices of Seth E. Cohen", "office": "lawyer"}}, {"type": "node", "id": 10822776524, "lat": 40.6277192, "lon": -74.0231895, "tags": {"name": "Sichenze & Sichenze", "office": "lawyer"}}, {"type": "node", "id": 10822776528, "lat": 40.6275316, "lon": -74.0236086, "tags": {"name": "S.A.V.E. Associates", "office": "accountant", "phone": "+1-718-836-7000"}}, {"type": "node", "id": 10822776531, "lat": 40.6276182, "lon": -74.0235755, "tags": {"amenity": "restaurant", "cuisine": "japanese;ramen", "delivery": "yes", "name": "Tanoshii", "opening_hours": "Mo-Th 11:30-21:30; Fr-Sa 11:30-22:00", "phone": "+1-929-345-2059"}}, {"type": "node", "id": 11008681025, "lat": 40.6270458, "lon": -74.0238142, "tags": {"amenity": "cafe", "name": "Sheba Hookah Lounge", "phone": "+1-585-456-0973", "smoking": "hookah"}}, {"type": "node", "id": 11764892852, "lat": 40.6291028, "lon": -74.0285806, "tags": {"addr:housenumber": "7803", "addr:postcode": "11209", "addr:street": "3rd Avenue", "amenity": "restaurant", "cuisine": "thai", "delivery": "yes", "name": "Come On Thai", "opening_hours": "Mo-Su 12:00-16:00,17:00-22:00", "phone": "+1-347-560-6666", "takeaway": "yes", "website": "https://comeonthaicuisine.com"}}, {"type": "node", "id": 12384563315, "lat": 40.6294569, "lon": -74.0284475, "tags": {"amenity": "restaurant", "bar": "yes", "cocktails": "yes", "craft": "caterer", "cuisine": "american;italian", "drink:beer": "yes", "drink:coffee": "yes", "drink:espresso": "yes", "drink:wine": "yes", "name": "Cappuccino Cafe", "opening_hours": "Mo-Fr 12:00-21:30, Sa 11:00-21:30, Su 11:00-20:00", "phone": "+1-718-238-8700", "website": "https://www.cappcafebayridge.com"}}, {"type": "node", "id": 12783319213, "lat": 40.6290446, "lon": -74.0286038, "tags": {"alt_name": "Venezia Realty Group LLC", "name": "Venezia Realty", "office": "estate_agent", "phone": "+1-347-541-7253", "website": "https://www.veneziarealtygroup.com"}}, {"type": "node", "id": 12823938130, "lat": 40.6295543, "lon": -74.0284121, "tags": {"amenity": "restaurant", "bar": "yes", "cuisine": "italian", "drink:beer": "draught", "drink:liquor": "yes", "drink:wine": "yes", "name": "Greenhouse Cafe", "opening_hours": "Mo-Fr 12:00-21:30, Sa 11:00-21:30, Su 11:00-20:00", "phone": "+1-718-833-8200", "website": "https://www.greenhousecafe.com"}}, {"type": "node", "id": 13067634242, "lat": 40.6308149, "lon": -74.0278883, "tags": {"addr:city": "Brooklyn", "addr:housenumber": "7523", "addr:postcode": "11209", "addr:state": "NY", "addr:street": "3rd Avenue", "amenity": "restaurant", "cuisine": "palestinian_&_middle_eastern", "diet:gluten_free": "yes", "diet:vegan": "yes", "diet:vegetarian": "yes", "email": "info@tanoreen.com", "name": "Tanoreen", "opening_hours": "Tu-Su 12:00-10:00", "phone": "+1-718-748-5600", "website": "https://tanoreen.com"}}, {"type": "way", "id": 248473006, "nodes": [2552629028, 2552629047, 2552629057, 2552629067, 2552629082, 2552629076, 2552629088, 2552629059, 2552629028], "tags": {"addr:housenumber": "7804", "addr:postcode": "11209", "addr:street": "3rd Avenue", "alt_name": "Aleli Cocina Mexicana", "amenity": "restaurant", "building": "yes", "cocktails": "yes", "cuisine": "mexican", "drink:beer": "yes", "drink:liquor": "yes", "drink:wine": "yes", "height": "5.0", "name": "Aleli", "nycdoitt:bin": "3150254", "opening_hours": "Mo 16:00-22:00; Tu-Sa 16:00-22:00; Su 16:00-21:00", "website": "https://alelicocina.com", "wheelchair": "yes"}}, {"type": "way", "id": 248483479, "nodes": [2552692553, 2552692624, 2552692539, 2552692455, 2552692490, 2552692553], "tags": {"addr:housenumber": "7509", "addr:postcode": "11209", "addr:street": "3rd Avenue", "amenity": "pub", "building": "yes", "cocktails": "yes", "cuisine": "pub", "delivery": "yes", "drink:beer": "draught", "drink:liquor": "yes", "drink:wine": "yes", "height": "5.8", "name": "Salty Dog", "nycdoitt:bin": "3148711", "opening_hours:kitchen": "Mo-Su 11:30-22:30", "phone": "+1-718-238-0030", "takeaway": "yes", "website": "https://www.saltydogbayridge.com"}}, {"type": "way", "id": 248487410, "nodes": [2552720539, 2552720543, 2552720549, 2552720567, 2552720562, 2552720539], "tags": {"addr:city": "Brooklyn", "addr:housenumber": "275", "addr:postcode": "11209", "addr:state": "NY", "addr:street": "74th Street", "amenity": "cafe", "building": "yes", "building:levels": "1", "contact:instagram": "https://www.instagram.com/clockfacecoffee/", "cuisine": "coffee_shop;pastry", "height": "4.3", "internet_access": "wlan", "name": "Clockface Coffee", "nycdoitt:bin": "3383239", "opening_hours": "Mo-Su 07:00-16:00", "outdoor_seating": "yes", "website:menu": "https://places.singleplatform.com/clockface-coffee/menu"}}, {"type": "way", "id": 248487673, "nodes": [2552720462, 2552720467, 2552720461, 2552720459, 2552720460, 2552720458, 2552720457, 2552720454, 2552720455, 2552720451, 2552720465, 2552720462], "tags": {"addr:housenumber": "7320", "addr:postcode": "11209", "addr:street": "4th Avenue", "building": "yes", "denomination": "roman_catholic", "height": "15.0", "name": "Our Lady of Angels Rectory", "nycdoitt:bin": "3147855", "office": "religion", "religion": "christian"}}]}