{"version": 0.6, "generator": "Overpass API 0.7.62.8 e802775f", "osm3s": {"timestamp_osm_base": "2025-12-01T16:44:14Z", "copyright": "The data included in this document is from www.openstreetmap.org. The data is made available under ODbL."}, "elements": [{"type": "node", "id": 2550109570, "lat": 40.711143, "lon": -73.7928889, "tags": {"addr:city": "Jamaica", "addr:housenumber": "87-47", "addr:postcode": "11432", "addr:state": "NY", "addr:street": "Homelawn Street", "amenity": "restaurant", "cuisine": "chinese;indian", "delivery": "yes", "diet:halal": "yes", "name": "Sagar Chinese", "opening_hours": "Su-Th 12:00-22:00; Fr 13:00-22:00; Sa 12:00-22:00", "phone": "+1-718-657-3333; +1-718-657-3334", "takeaway": "yes", "website": "https://sagarchinese.com/locations/jamaica/"}}, {"type": "node", "id": 2550109599, "lat": 40.7114075, "lon": -73.7915136}, {"type": "node", "id": 2550109601, "lat": 40.7114352, "lon": -73.791437}, {"type": "node", "id": 2550109612, "lat": 40.711494, "lon": -73.7914737}, {"type": "node", "id": 2550109615, "lat": 40.7114999, "lon": -73.7914574}, {"type": "node", "id": 2550109620, "lat": 40.7115067, "lon": -73.7914616}, {"type": "node", "id": 2550109637, "lat": 40.7115899, "lon": -73.7915336}, {"type": "node", "id": 2550109639, "lat": 40.7115958, "lon": -73.7915173}, {"type": "node", "id": 2550109643, "lat": 40.7116176, "lon": -73.7915509}, {"type": "node", "id": 2550109644, "lat": 40.7116352, "lon": -73.7916558}, {"type": "node", "id": 2550109653, "lat": 40.7116629, "lon": -73.7915792}, {"type": "node", "id": 2550112121, "lat": 40.710612, "lon": -73.7928298, "tags": {"addr:city": "Jamaica", "addr:housenumber": "169-02", "addr:postcode": "11432", "addr:state": "NY", "addr:street": "Hillside Avenue", "amenity": "cafe", "cuisine": "coffee_shop", "level": "0", "name": "Richie\u2019s Place Coffee Shop", "opening_hours": "Mo-Sa 08:00-17:00; Su 08:00-14:00", "outdoor_seating": "no", "phone": "+1-718-297-4006", "takeaway": "yes"}}, {"type": "node", "id": 2550112122, "lat": 40.710879, "lon": -73.7920744, "tags": {"addr:city": "Jamaica", "addr:housenumber": "169-28", "addr:postcode": "11432", "addr:state": "NY", "addr:street": "Hillside Avenue", "amenity": "restaurant", "cuisine": "chinese;indian", "delivery": "yes", "diet:halal": "yes", "email": "customercare@dhanshiriny.com", "fax": "+1-718-725-0051", "indoor_seating": "yes", "level": "0", "name": "DhanShiri", "name:bn": "\u09a7\u09be\u09a8\u09b8\u09bf\u09dc\u09bf", "opening_hours": "Su-Th 12:00-22:30; Fr-Sa 12:00-23:00", "outdoor_seating": "no", "phone": "+1-718-725-0001", "smoking": "no", "takeaway": "yes", "website": "https://www.dhanshiriny.com"}}, {"type": "node", "id": 2550112128, "lat": 40.7111369, "lon": -73.7913764, "tags": {"addr:city": "Jamaica", "addr:housenumber": "170-16", "addr:postcode": "11432", "addr:state": "NY", "addr:street": "Hillside Avenue", "email": "info@smartapple.us", "name": "Smart Apple Insurance", "office": "insurance", "phone": "+1-718-523-5353", "website": "https://www.smartapple.us/"}}, {"type": "node", "id": 2550901832, "lat": 40.7098154, "lon": -73.7960823, "tags": {"addr:city": "Jamaica", "addr:housenumber": "166-07", "addr:postcode": "11432", "addr:state": "NY", "addr:street": "Hillside Avenue", "check_date:opening_hours": "2024-06-19", "name": "Zara Leasing Office", "office": "estate_agent", "opening_hours:signed": "no", "phone": "+1-718-291-3331"}}, {"type": "node", "id": 2553550641, "lat": 40.7114811, "lon": -73.7902494, "tags": {"addr:city": "Jamaica", "addr:housenumber": "171-16", "addr:postcode": "11432", "addr:state": "NY", "addr:street": "Hillside Avenue", "amenity": "bar", "delivery": "yes", "indoor_seating": "yes", "level": "0", "name": "Guyana Palm Court", "opening_hours": "Mo-Fr 11:00-24:00; Sa-Su 11:00-2:00", "outdoor_seating": "no", "payment:credit_cards": "yes", "phone": "+1-718-298-6500;+1-718-298-6875"}}, {"type": "node", "id": 2895553230, "lat": 40.709561, "lon": -73.7957382, "tags": {"addr:city": "Jamaica", "addr:housenumber": "166-12", "addr:postcode": "11432", "addr:state": "NY", "addr:street": "Hillside Avenue", "amenity": "restaurant", "cuisine": "thai;chinese", "diet:halal": "yes", "indoor_seating": "yes", "name": "Chang Pai", "outdoor_seating": "no", "phone": "+1-718-291-8222", "website": "https://changpaichinese.com"}}, {"type": "node", "id": 4166735737, "lat": 40.7106537, "lon": -73.7926704, "tags": {"addr:city": "Jamaica", "addr:housenumber": "169-08", "addr:postcode": "11432", "addr:state": "NY", "addr:street": "Hillside Avenue", "amenity": "taxi", "drive_through": "no", "level": "1", "name": "Red Cap Car Service", "office": "yes", "phone": "+1-718-658-5252"}}, {"type": "node", "id": 4166735738, "lat": 40.7106924, "lon": -73.7925657, "tags": {"addr:city": "Jamaica", "addr:housenumber": "169-12", "addr:postcode": "11432", "addr:state": "NY", "addr:street": "Hillside Avenue", "drive_through": "no", "level": "1", "name": "R.D. Kali Realty Corp.", "office": "estate_agent"}}, {"type": "node", "id": 4166735739, "lat": 40.7106945, "lon": -73.7925601, "tags": {"addr:city": "Jamaica", "addr:housenumber": "169-12", "addr:postcode": "11432", "addr:state": "NY", "addr:street": "Hillside Avenue", "amenity": "school", "drive_through": "no", "level": "1", "name": "Arcel Driving School"}}, {"type": "node", "id": 4215776492, "lat": 40.7109161, "lon": -73.7933089, "tags": {"addr:city": "Jamaica", "addr:housenumber": "87-52", "addr:postcode": "11432", "addr:state": "NY", "addr:street": "169th Street", "amenity": "taxi", "drive_through": "no", "level": "0", "name": "Hillside Car Service", "office": "yes", "phone": "+1-718-739-2222"}}, {"type": "node", "id": 4299327620, "lat": 40.710629, "lon": -73.7927817, "tags": {"addr:city": "Jamaica", "addr:housenumber": "169-04", "addr:postcode": "11432", "addr:state": "NY", "addr:street": "Hillside Avenue", "amenity": "restaurant", "cuisine": "kebab", "level": "0", "name": "My Second Wife Kebab Palace"}}, {"type": "node", "id": 4880765443, "lat": 40.7097912, "lon": -73.7948917, "tags": {"addr:city": "Jamaica", "addr:housenumber": "167-16", "addr:postcode": "11432", "addr:state": "NY", "addr:street": "Hillside Avenue", "amenity": "restaurant", "indoor_seating": "yes", "level": "0", "name": "Shahi Kitchen", "outdoor_seating": "no"}}, {"type": "node", "id": 4880823302, "lat": 40.7107581, "lon": -73.7923883, "tags": {"addr:city": "Jamaica", "addr:housenumber": "169-18", "addr:postcode": "11432", "addr:state": "NY", "addr:street": "Hillside Avenue", "delivery": "yes", "drive_through": "no", "level": "1", "name": "US Tax Help, Inc.", "office": "tax_advisor", "phone": "+1-718-291-5550"}}, {"type": "node", "id": 4882289076, "lat": 40.7108494, "lon": -73.7921414, "tags": {"addr:city": "Jamaica", "addr:housenumber": "169-26", "addr:postcode": "11432", "addr:state": "NY", "addr:street": "Hillside Avenue", "addr:unit": "204", "level": "1", "name": "utshob.com", "office": "company", "opening_hours": "Fr-We 12:00-20:00", "phone": "+1-718-262-9795;+1-917-657-0372", "website": "https://utshob.com"}}, {"type": "node", "id": 6704210374, "lat": 40.7090413, "lon": -73.7909921, "tags": {"access": "private", "leisure": "park", "name": "Avalon Terrace Park"}}, {"type": "node", "id": 6992697770, "lat": 40.7107631, "lon": -73.7933421, "tags": {"addr:city": "Jamaica", "addr:housenumber": "168-45", "addr:postcode": "11432", "addr:state": "NY", "addr:street": "Hillside Avenue", "amenity": "cafe", "check_date": "2022-05-16", "level": "0", "name": "Smart 3 Caf\u00e9", "outdoor_seating": "no", "payment:american_express": "yes", "payment:apple_pay": "yes", "payment:discover_card": "yes", "payment:mastercard": "yes", "payment:visa": "yes", "phone": "+1 929-589-7760"}}, {"type": "node", "id": 7014317521, "lat": 40.7107445, "lon": -73.7939553, "tags": {"name": "Dynamic Tax Advising", "office": "tax_advisor"}}, {"type": "node", "id": 9099007317, "lat": 40.7106526, "lon": -73.7927142, "tags": {"addr:city": "Jamaica", "addr:housenumber": "169-06", "addr:postcode": "11432", "addr:state": "NY", "addr:street": "Hillside Avenue", "level": "1", "name": "Hamd Tax and Multiservices Inc.", "office": "tax_advisor", "phone": "+1-347-279-7157", "survey:date": "2021-09-16", "wheelchair": "no"}}, {"type": "node", "id": 12671078845, "lat": 40.7094861, "lon": -73.7971161, "tags": {"name": "Hillside Tax & Multiservices", "office": "tax_advisor"}}, {"type": "way", "id": 248172644, "nodes": [2550109637, 2550109639, 2550109620, 2550109615, 2550109612, 2550109601, 2550109599, 2550109644, 2550109653, 2550109643, 2550109637], "tags": {"addr:city": "Jamaica", "addr:housenumber": "170-19", "addr:postcode": "11432", "addr:state": "NY", "addr:street": "Hillside Avenue", "amenity": "restaurant", "brand": "IHOP", "brand:wikidata": "Q1185675", "building": "yes", "cuisine": "breakfast;pancake", "height": "7.4", "name": "IHOP", "nycdoitt:bin": "4448805", "opening_hours": "Su-Th 06:00-23:00; Fr-Sa 06:00-23:00", "outdoor_seating": "no", "phone": "+1-718-523-4561", "website": "http://restaurants.ihop.com/ny/jamaica/4623/"}}]}