{"version": 0.6, "generator": "Overpass API 0.7.62.8 e802775f", "osm3s": {"timestamp_osm_base": "2025-12-01T16:27:00Z", "copyright": "The data included in this document is from www.openstreetmap.org. The data is made available under ODbL."}, "elements": [{"type": "node", "id": 530697968, "lat": 40.7594616, "lon": -73.9830426}, {"type": "node", "id": 530697969, "lat": 40.7599304, "lon": -73.9826972}, {"type": "node", "id": 663070723, "lat": 40.757084, "lon": -73.977893, "tags": {"addr:city": "New York", "addr:country": "US", "addr:housenumber": "6", "addr:state": "NY", "addr:street": "East 48th Street", "amenity": "cafe", "branch": "E 48th", "cuisine": "sandwich", "name": "Toasties", "opening_hours": "Mo-Fr 06:00-19:00; Sa 08:00-16:00", "phone": "+1 212-230-1320", "website": "http://www.toastiesnyc.com/"}}, {"type": "node", "id": 1288901367, "lat": 40.7569746, "lon": -73.981566}, {"type": "node", "id": 1288901370, "lat": 40.7565135, "lon": -73.9818991}, {"type": "node", "id": 1288901371, "lat": 40.7563841, "lon": -73.981585}, {"type": "node", "id": 1288901376, "lat": 40.7567312, "lon": -73.9813326}, {"type": "node", "id": 1487472478, "lat": 40.7607113, "lon": -73.9807687, "tags": {"addr:city": "New York", "addr:country": "US", "addr:housenumber": "120", "addr:postcode": "10020", "addr:state": "NY", "addr:street": "West 51st Street", "amenity": "restaurant", "name": "Capital Grille at Time-Life", "website": "https://www.thecapitalgrille.com/", "wheelchair": "yes"}}, {"type": "node", "id": 1574243027, "lat": 40.7577419, "lon": -73.9823365, "tags": {"addr:city": "New York", "addr:state": "NY", "addr:street": "6th Avenue", "consulate": "consulate_general", "country": "BR", "diplomatic": "consulate", "level": "21", "name": "Consulate General of Brazil", "name:en": "Consulate General of Brazil", "name:pt": "Consulado Geral do Brasil", "office": "diplomatic", "official_name": "Consulado-Geral do Brasil em Nova York", "target": "US", "website": "http://novayork.itamaraty.gov.br/"}}, {"type": "node", "id": 1593328953, "lat": 40.7602407, "lon": -73.9822244}, {"type": "node", "id": 1593328960, "lat": 40.7604677, "lon": -73.9820585}, {"type": "node", "id": 1711306741, "lat": 40.7581618, "lon": -73.9786165}, {"type": "node", "id": 1711306746, "lat": 40.7581915, "lon": -73.9786886}, {"type": "node", "id": 1711306747, "lat": 40.7578107, "lon": -73.9789672}, {"type": "node", "id": 1711306748, "lat": 40.757781, "lon": -73.9788963}, {"type": "node", "id": 1711332894, "lat": 40.7583205, "lon": -73.9777332}, {"type": "node", "id": 1711332900, "lat": 40.7583679, "lon": -73.9776981}, {"type": "node", "id": 1745856010, "lat": 40.7608045, "lon": -73.9786747}, {"type": "node", "id": 1745856081, "lat": 40.7614232, "lon": -73.9782277}, {"type": "node", "id": 1753098052, "lat": 40.7572678, "lon": -73.9836738, "tags": {"entrance": "main"}}, {"type": "node", "id": 1753098061, "lat": 40.7573011, "lon": -73.9837558, "tags": {"entrance": "main"}}, {"type": "node", "id": 1753134755, "lat": 40.7579634, "lon": -73.9838394, "tags": {"entrance": "main"}}, {"type": "node", "id": 1753205377, "lat": 40.756616, "lon": -73.9845926, "tags": {"amenity": "restaurant", "check_date": "2023-09-07", "name": "The Lambs Club", "website": "https://www.thechatwalny.com/The-Lambs-Club/The-Lambs-Club-Restaurant"}}, {"type": "node", "id": 1758217485, "lat": 40.7604723, "lon": -73.9840506, "tags": {"addr:city": "New York", "addr:country": "US", "addr:housenumber": "202", "addr:postcode": "10019", "addr:state": "NY", "addr:street": "West 49th Street", "amenity": "restaurant", "email": "playact1@aol.com", "fax": "+1-212-664-0563", "name": "The Playwright", "phone": "+1 212-262-9263", "smoking": "no", "website": "https://www.playwrighttavern.com/"}}, {"type": "node", "id": 1762432574, "lat": 40.7586827, "lon": -73.9835886, "tags": {"entrance": "main"}}, {"type": "node", "id": 2134025590, "lat": 40.7593243, "lon": -73.9816604, "tags": {"addr:housenumber": "1221", "addr:postcode": "10020", "addr:street": "6th Avenue", "amenity": "restaurant", "brand": "Del Frisco's Double Eagle Steakhouse", "brand:wikidata": "Q23461481", "cuisine": "steak_house", "delivery": "yes", "drink:wine": "yes", "email": "dfny@ldry.com", "name": "Del Frisco's Double Eagle Steakhouse", "opening_hours": "Mo-Th 11:00-22:00; Fr 11:00-23:00; Sa 16:00-23:00; Su 16:00-22:00", "operator": "Landry's", "payment:american_express": "yes", "payment:cash": "yes", "payment:diners_club": "yes", "payment:discover_card": "yes", "payment:mastercard": "yes", "payment:visa": "yes", "phone": "+1 212-575-5129", "reservation": "yes", "takeaway": "yes", "website": "https://delfriscos.com/steakhouse/new-york/"}}, {"type": "node", "id": 2498992619, "lat": 40.756751, "lon": -73.9813794}, {"type": "node", "id": 2498992620, "lat": 40.7568871, "lon": -73.9812804}, {"type": "node", "id": 2610440246, "lat": 40.7604501, "lon": -73.9839884, "tags": {"addr:city": "New York", "addr:housenumber": "740", "addr:state": "NY", "addr:street": "7th Avenue", "amenity": "restaurant", "name": "Burger Man"}}, {"type": "node", "id": 2610440250, "lat": 40.7608044, "lon": -73.9837222, "tags": {"addr:city": "New York", "addr:housenumber": "750", "addr:postcode": "10019", "addr:state": "NY", "addr:street": "7th Avenue", "amenity": "cafe", "branch": "49th & Seventh", "brand": "Starbucks", "brand:wikidata": "Q37158", "cuisine": "coffee_shop", "name": "Starbucks", "official_name": "Starbucks Coffee", "phone": "+1 212-974-0032", "takeaway": "yes", "website": "https://www.starbucks.com/store-locator/store/11631/49th-seventh-750-seventh-avenue-new-york-ny-100196834-us"}}, {"type": "node", "id": 2689589693, "lat": 40.7583345, "lon": -73.9841851, "tags": {"addr:city": "New York", "addr:housenumber": "151", "addr:street": "West 46th Street", "amenity": "restaurant", "branch": "Times Square", "name": "Havana Central", "website": "https://havanacentral.com/"}}, {"type": "node", "id": 2716012089, "lat": 40.7563907, "lon": -73.9782057, "tags": {"addr:city": "New York", "addr:country": "US", "addr:housenumber": "575", "addr:postcode": "10017", "addr:state": "NY", "addr:street": "5th Avenue", "amenity": "cafe", "branch": "47th & 5th", "brand": "Starbucks", "brand:wikidata": "Q37158", "cuisine": "coffee_shop", "internet_access": "wlan", "name": "Starbucks", "official_name": "Starbucks Coffee", "opening_hours": "Mo-Fr 06:00-22:00; Sa 07:00-22:00; Su 07:00-21:00", "phone": "+1 212-490-3189", "start_date": "1983", "takeaway": "yes", "toilets:wheelchair": "no", "website": "https://www.starbucks.com/store-locator/store/18588/47th-5th-575-fifth-avenue-new-york-ny-100172422-us", "wheelchair": "yes"}}, {"type": "node", "id": 2717323719, "lat": 40.7602955, "lon": -73.9845027, "tags": {"addr:housenumber": "1600", "addr:postcode": "10019", "addr:street": "Broadway", "amenity": "cafe", "brand": "Gong Cha", "brand:wikidata": "Q5581670", "brand:zh": "\u8ca2\u8336", "cuisine": "bubble_tea", "int_name": "Gong Cha", "name": "Gong Cha", "name:zh": "\u8ca2\u8336", "opening_hours": "Su-We 11:00-22:30; Th-Sa 11:00-23:00", "takeaway": "yes"}}, {"type": "node", "id": 2717542733, "lat": 40.7578147, "lon": -73.982208, "tags": {"addr:city": "New York", "addr:housenumber": "1185", "addr:postcode": "10036", "addr:state": "NY", "addr:street": "6th Avenue", "description": "Experienced NY Securities Litigation Attorneys", "level": "37", "name": "Herskovits PLLC", "office": "lawyer"}}, {"type": "node", "id": 2717543271, "lat": 40.7611533, "lon": -73.9779162, "tags": {"addr:housenumber": "40", "addr:postcode": "10019", "addr:street": "West 53rd Street", "amenity": "restaurant", "brand": "Fogo de Ch\u00e3o", "brand:wikidata": "Q5464133", "contact:facebook": "fogorestaurants", "contact:instagram": "fogo", "contact:twitter": "fogorestaurants", "cuisine": "brazilian;steak_house", "name": "Fogo de Ch\u00e3o", "opening_hours": "Mo-Th 23:30-22:30, Fr 11:30-23:00, Sa 11:30-23:00, Su 11:30-22:00", "phone": "+1 212 969 9980", "website": "https://fogodechao.com/location/new-york/", "wheelchair": "yes"}}, {"type": "node", "id": 2717543371, "lat": 40.7601327, "lon": -73.9787879, "tags": {"addr:city": "New York", "addr:country": "US", "addr:housenumber": "51", "addr:postcode": "10019", "addr:state": "NY", "addr:street": "West 51st Street", "amenity": "restaurant", "cuisine": "pizza", "name": "Teresa's", "phone": "+1 212-265-7988", "website": "https://www.teresasnyc.com/", "wikidata": "Q7824322"}}, {"type": "node", "id": 2717544032, "lat": 40.7559522, "lon": -73.9824888}, {"type": "node", "id": 2717544046, "lat": 40.7559789, "lon": -73.9825516}, {"type": "node", "id": 2717544080, "lat": 40.7560241, "lon": -73.9824362}, {"type": "node", "id": 2717544179, "lat": 40.7560942, "lon": -73.9823853}, {"type": "node", "id": 2717544225, "lat": 40.7561538, "lon": -73.9824241}, {"type": "node", "id": 2717544232, "lat": 40.7561699, "lon": -73.9823302}, {"type": "node", "id": 2717544245, "lat": 40.7561886, "lon": -73.9823166}, {"type": "node", "id": 2717544253, "lat": 40.7562151, "lon": -73.9823796}, {"type": "node", "id": 2717544457, "lat": 40.7565451, "lon": -73.9818763}, {"type": "node", "id": 2717544546, "lat": 40.7566218, "lon": -73.9814121}, {"type": "node", "id": 2717545066, "lat": 40.7572363, "lon": -73.9835963}, {"type": "node", "id": 2717545159, "lat": 40.7572858, "lon": -73.983718}, {"type": "node", "id": 2717545182, "lat": 40.7573043, "lon": -73.9835481}, {"type": "node", "id": 2717545186, "lat": 40.7573107, "lon": -73.9837795}, {"type": "node", "id": 2717545189, "lat": 40.7573159, "lon": -73.9837758}, {"type": "node", "id": 2717545193, "lat": 40.7573236, "lon": -73.9835345}, {"type": "node", "id": 2717545203, "lat": 40.7573445, "lon": -73.9835197}, {"type": "node", "id": 2717545216, "lat": 40.7573633, "lon": -73.9835065}, {"type": "node", "id": 2717545262, "lat": 40.757431, "lon": -73.9834585}, {"type": "node", "id": 2717545281, "lat": 40.7574804, "lon": -73.9835802}, {"type": "node", "id": 2717545295, "lat": 40.7575054, "lon": -73.9836417}, {"type": "node", "id": 2717545390, "lat": 40.7576725, "lon": -73.9800083}, {"type": "node", "id": 2717545403, "lat": 40.7576996, "lon": -73.9800727}, {"type": "node", "id": 2717545409, "lat": 40.7577147, "lon": -73.9839856}, {"type": "node", "id": 2717545413, "lat": 40.7577348, "lon": -73.9840348}, {"type": "node", "id": 2717545416, "lat": 40.7577427, "lon": -73.9799374}, {"type": "node", "id": 2717545419, "lat": 40.7577491, "lon": -73.9799527}, {"type": "node", "id": 2717545517, "lat": 40.7578933, "lon": -73.9798281}, {"type": "node", "id": 2717545537, "lat": 40.757901, "lon": -73.9788059}, {"type": "node", "id": 2717545564, "lat": 40.7579268, "lon": -73.9799079}, {"type": "node", "id": 2717545585, "lat": 40.7579537, "lon": -73.9838168}, {"type": "node", "id": 2717545599, "lat": 40.7579738, "lon": -73.983866}, {"type": "node", "id": 2717545656, "lat": 40.7580028, "lon": -73.9787319}, {"type": "node", "id": 2717545825, "lat": 40.7584293, "lon": -73.9837328}, {"type": "node", "id": 2717545835, "lat": 40.758454, "lon": -73.9837918}, {"type": "node", "id": 2717545846, "lat": 40.7584564, "lon": -73.9837974}, {"type": "node", "id": 2717545853, "lat": 40.7584833, "lon": -73.9837777}, {"type": "node", "id": 2717545914, "lat": 40.7586696, "lon": -73.9835575}, {"type": "node", "id": 2717545923, "lat": 40.7586831, "lon": -73.9836319}, {"type": "node", "id": 2717545934, "lat": 40.7586966, "lon": -73.983622}, {"type": "node", "id": 2717546150, "lat": 40.7594997, "lon": -73.9831421}, {"type": "node", "id": 2717546205, "lat": 40.7597028, "lon": -73.9829935}, {"type": "node", "id": 2717546209, "lat": 40.7597089, "lon": -73.983004}, {"type": "node", "id": 2717546319, "lat": 40.7599823, "lon": -73.9828041}, {"type": "node", "id": 2717546353, "lat": 40.7600926, "lon": -73.9825761}, {"type": "node", "id": 2717546365, "lat": 40.7601674, "lon": -73.9827477}, {"type": "node", "id": 2717546378, "lat": 40.760203, "lon": -73.9827113}, {"type": "node", "id": 2717546381, "lat": 40.7602064, "lon": -73.9827194}, {"type": "node", "id": 2717546387, "lat": 40.7603189, "lon": -73.9824107}, {"type": "node", "id": 2717546406, "lat": 40.7603852, "lon": -73.9825551}, {"type": "node", "id": 2717546409, "lat": 40.7603929, "lon": -73.9825734}, {"type": "node", "id": 2717546457, "lat": 40.7605821, "lon": -73.9824121}, {"type": "node", "id": 2717546460, "lat": 40.7605937, "lon": -73.9824399}, {"type": "node", "id": 2717546466, "lat": 40.7606339, "lon": -73.9824107}, {"type": "node", "id": 2717578856, "lat": 40.7574915, "lon": -73.9808385, "tags": {"addr:housenumber": "50", "addr:postcode": "10036", "addr:street": "West 47th Street", "name": "Gemological Institute of America", "office": "association", "short_name": "GIA"}}, {"type": "node", "id": 3081362062, "lat": 40.7560001, "lon": -73.9825359}, {"type": "node", "id": 3447527994, "lat": 40.7591895, "lon": -73.9781127, "tags": {"amenity": "restaurant", "name": "Brasserie Ruhlman"}}, {"type": "node", "id": 3913367689, "lat": 40.756996, "lon": -73.9815502}, {"type": "node", "id": 3974095815, "lat": 40.7560857, "lon": -73.9846852, "tags": {"addr:city": "New York", "addr:housenumber": "125", "addr:postcode": "10036", "addr:street": "West 43rd Street", "alt_name": "BXL", "amenity": "pub", "cocktails": "yes", "cuisine": "belgian", "drink:beer": "draught", "drink:liquor": "yes", "drink:wine": "yes", "name": "BXL Cafe", "opening_hours": "Mo-Su 10:00-24:00+", "opening_hours:kitchen": "Mo-Su 10:00-23:00", "phone": "+1-212-768-0200", "toilets": "yes", "toilets:unisex": "no", "website": "https://www.bxlrestaurants.com/location/cafe/"}}, {"type": "node", "id": 3974095816, "lat": 40.7567033, "lon": -73.9847548, "tags": {"addr:city": "New York", "addr:country": "US", "addr:housenumber": "140", "addr:postcode": "10036", "addr:state": "NY", "addr:street": "West 44th Street", "amenity": "pub", "name": "Jimmy's Corner", "website": "https://nymag.com/listings/bar/jimmys_corner/"}}, {"type": "node", "id": 3976005755, "lat": 40.7607445, "lon": -73.978532}, {"type": "node", "id": 3976008162, "lat": 40.7613592, "lon": -73.9780752}, {"type": "node", "id": 3995212060, "lat": 40.7600927, "lon": -73.9825066, "tags": {"addr:city": "New York", "addr:housenumber": "123", "addr:postcode": "10020", "addr:street": "West 49th Street", "alt_name": "Sushiden 6th Ave", "amenity": "restaurant", "cuisine": "japanese", "name": "Sushiden", "website": "http://sushiden.com/"}}, {"type": "node", "id": 4243439483, "lat": 40.7583844, "lon": -73.9832932, "tags": {"amenity": "bar", "name": "Haven Rooftop Bar"}}, {"type": "node", "id": 4311338891, "lat": 40.7565246, "lon": -73.9798908, "tags": {"addr:city": "New York", "addr:housenumber": "15", "addr:postcode": "10036", "addr:street": "West 46th Street", "amenity": "restaurant", "cuisine": "brazilian", "name": "Emporium Brasil Restaurant", "opening_hours": "Mo-Su 10:00-22:00", "phone": "+1-212-764-4646", "website": "https://emporiumbrasil.com/", "wheelchair": "yes"}}, {"type": "node", "id": 4443479889, "lat": 40.7607731, "lon": -73.9808203, "tags": {"addr:housenumber": "110", "addr:street": "West 51st Street", "amenity": "restaurant", "brand": "Ted's Montana Grill", "brand:wikidata": "Q16953170", "cuisine": "american", "name": "Ted's Montana Grill", "name:en": "Ted's Montana Grill", "opening_hours": "Su-Th 11:00-21:00; Fr,Sa 11:00-22:00"}}, {"type": "node", "id": 4503912490, "lat": 40.7579319, "lon": -73.9821357, "tags": {"addr:housenumber": "1185", "addr:postcode": "10036", "addr:street": "6th Avenue", "amenity": "restaurant", "name": "Carnegie Diner & Cafe"}}, {"type": "node", "id": 4545006872, "lat": 40.7601231, "lon": -73.9826461}, {"type": "node", "id": 4545006873, "lat": 40.7604822, "lon": -73.9820496}, {"type": "node", "id": 4545006874, "lat": 40.7605918, "lon": -73.9823106}, {"type": "node", "id": 4661316591, "lat": 40.7572001, "lon": -73.983437, "tags": {"addr:housenumber": "115", "addr:street": "West 45th Street", "amenity": "cafe", "name": "Cook Eatery", "opening_hours": "24/7"}}, {"type": "node", "id": 4755575514, "lat": 40.7584335, "lon": -73.9831005, "tags": {"amenity": "restaurant", "name": "Tender"}}, {"type": "node", "id": 4794092321, "lat": 40.7613487, "lon": -73.9822791, "tags": {"addr:housenumber": "148", "addr:postcode": "10019", "addr:street": "West 51st Street", "amenity": "restaurant", "brand": "Ruth's Chris Steak House", "brand:wikidata": "Q7382829", "cuisine": "american;steak_house", "name": "Ruth's Chris Steak House", "name:de": "Ruth's Chris Steak House", "phone": "+1 212 265 9600", "website": "https://www.ruthschris.com/"}}, {"type": "node", "id": 4799733303, "lat": 40.7592111, "lon": -73.9804982, "tags": {"addr:city": "New York", "addr:housenumber": "67", "addr:postcode": "10112", "addr:state": "NY", "addr:street": "West 49th Street", "amenity": "restaurant", "cuisine": "seafood", "description": "Oyster Bar focusing on cocktails, seafood, and classic bar snacks", "image": "https://images.squarespace-cdn.com/content/v1/61845d79f159c9288123a385/de8edb92-e011-42a3-b7fc-dbf9bc845c36/Pebble-Bar_3rd-FL_005.jpg", "name": "Pebble Bar", "opening_hours": "Mo-We 16:00-24:00; Th-Sa 16:00-02:00; Su 16:00-24:00", "website": "https://www.pebblebarnyc.com/", "wheelchair": "yes"}}, {"type": "node", "id": 5019124421, "lat": 40.7584571, "lon": -73.9782662, "tags": {"amenity": "restaurant", "cuisine": "fish", "name": "The Sea Grill", "name:en": "The Sea Grill"}}, {"type": "node", "id": 5433333128, "lat": 40.7564172, "lon": -73.9802703, "tags": {"amenity": "cafe", "cuisine": "coffee_shop;breakfast;sandwich", "drink:coffee": "yes", "drink:espresso": "yes", "drink:wine": "yes", "name": "Pav\u00e9", "opening_hours": "Mo-Fr 07:00-16:00, Su 09:00-15:00", "phone": "+1-646-454-1387", "website": "https://www.pave46.com"}}, {"type": "node", "id": 5528676228, "lat": 40.7579702, "lon": -73.9838946, "tags": {"addr:housenumber": "136", "addr:street": "West 46th Street", "amenity": "cafe", "cuisine": "cuban", "level": "0", "name": "Margon Restaurant"}}, {"type": "node", "id": 5840679445, "lat": 40.7608042, "lon": -73.9842008, "tags": {"addr:housenumber": "1626", "addr:postcode": "10019", "addr:street": "Broadway", "air_conditioning": "yes", "amenity": "restaurant", "branch": "49th Street", "check_date": "2025-05-03", "cocktails": "yes", "name": "Junior's", "opening_hours": "Mo-Th,Su 07:00-24:00; Fr-Sa 07:00-01:00", "outdoor_seating": "no", "phone": "+1 212-365-5900", "smoking": "no", "takeaway": "yes", "toilets": "yes", "website": "https://www.juniorscheesecake.com/blog/restaurants/49thstreet/", "wheelchair": "limited"}}, {"type": "node", "id": 5918030057, "lat": 40.7596918, "lon": -73.978275, "tags": {"addr:city": "New York", "addr:housenumber": "45", "addr:postcode": "10111", "addr:state": "NY", "addr:street": "Rockefeller Plaza", "amenity": "restaurant", "cuisine": "seafood", "delivery": "yes", "email": "melissa@limani.com", "name": "Limani", "outdoor_seating": "no", "phone": "+1-212-858-9200", "website": "https://www.limani.com/"}}, {"type": "node", "id": 5922862086, "lat": 40.7611297, "lon": -73.9839743, "tags": {"addr:housenumber": "1626", "addr:street": "Broadway", "amenity": "restaurant", "name": "Junior's Deli"}}, {"type": "node", "id": 5985763486, "lat": 40.758148, "lon": -73.9824848, "tags": {"addr:housenumber": "1185", "addr:postcode": "10036", "addr:street": "6th Avenue", "amenity": "cafe", "brand": "Starbucks", "brand:wikidata": "Q37158", "cuisine": "coffee_shop", "internet_access": "wlan", "name": "Starbucks", "official_name": "Starbucks Coffee", "opening_hours": "Mo-Fr 05:30-21:00; Sa-Su 07:00-21:00", "operator": "Starbucks", "phone": "+1-212-730-7645", "takeaway": "yes", "website": "https://www.starbucks.com/store-locator/store/6945/nhl-store-47th-sixth-1185-avenue-of-the-americas-new-york-ny-100362601-"}}, {"type": "node", "id": 6030389800, "lat": 40.7572238, "lon": -73.9807255, "tags": {"addr:city": "New York", "addr:housenumber": "44", "addr:postcode": "10036", "addr:state": "NY", "addr:street": "West 47th Street", "amenity": "cafe", "cuisine": "coffee_shop;sandwich;soup", "diet:kosher": "yes", "drink:coffee": "yes", "drink:espresso": "yes", "level": "0", "name": "Robusta Espresso Bar", "opening_hours": "Mo-Fr 09:00-17:00", "phone": "+1-212-302-0242", "website": "https://www.robustaigt.com"}}, {"type": "node", "id": 6053407685, "lat": 40.7599574, "lon": -73.9831315, "tags": {"amenity": "restaurant", "cuisine": "deli", "name": "Toasties", "opening_hours": "Mo-Th 06:00-17:00, Fr-Su 06:00-20:00", "phone": "+1-212-398-4900", "website": "http://toastiesnyc.com"}}, {"type": "node", "id": 6064442885, "lat": 40.7565516, "lon": -73.9799617, "tags": {"amenity": "restaurant", "cuisine": "mediterranean", "drink:beer": "yes", "drink:wine": "yes", "happy_hours": "Tu-Fr 16:00-18:00", "name": "Addictive NYC", "opening_hours": "Tu-Su 12:00-21:30", "phone": "+1-212-390-9578", "website": "https://addictivenyc.com"}}, {"type": "node", "id": 6133822485, "lat": 40.7566505, "lon": -73.9841404, "tags": {"amenity": "cafe", "name": "cafe un deux trois", "wheelchair": "no"}}, {"type": "node", "id": 6285668319, "lat": 40.7584918, "lon": -73.983254, "tags": {"addr:city": "New York", "addr:housenumber": "132", "addr:postcode": "10036", "addr:state": "NY", "addr:street": "W 47th St", "amenity": "restaurant", "cuisine": "sushi", "name": "Sushi By Bou", "opening_hours": "Mo-Fr 09:00-18:00", "phone": "+1-917-348-5737", "website": "https://www.sushibybou.com"}}, {"type": "node", "id": 6321504681, "lat": 40.7564278, "lon": -73.9803554, "tags": {"addr:housenumber": "22", "addr:postcode": "10036", "addr:street": "West 46th", "alt_name": "St. Patrick's Pub", "amenity": "bar", "cocktails": "yes", "contact:facebook": "https://www.facebook.com/StPatsBarandGrillNYC", "contact:instagram": "https://www.instagram.com/stpatsbarnyc/", "contact:twitter": "https://www.twitter.com/stpatsbar", "cuisine": "irish", "delivery": "yes", "drink:beer": "yes", "drink:wine": "yes", "email": "info@stpatsbar", "happy_hours": "12:00-15:00", "name": "St. Pat's Bar & Grill", "opening_hours": "10:00-04:00", "outdoor_seating": "yes", "phone": "+1-212-239-1111", "reservation": "yes", "takeaway": "yes", "theme": "irish", "website": "https://stpatsbar.com", "wheelchair": "yes"}}, {"type": "node", "id": 6418252593, "lat": 40.7594748, "lon": -73.9847715, "tags": {"amenity": "restaurant", "brand": "Olive Garden", "brand:wikidata": "Q3045312", "cuisine": "italian", "name": "Olive Garden"}}, {"type": "node", "id": 6422254286, "lat": 40.7607166, "lon": -73.9794734, "tags": {"addr:housenumber": "1290", "addr:postcode": "10019", "addr:street": "6th Avenue", "amenity": "restaurant", "cuisine": "italian", "name:es": "Barilla", "smoking": "no"}}, {"type": "node", "id": 6475002986, "lat": 40.7612776, "lon": -73.9828873, "tags": {"addr:housenumber": "761", "addr:street": "7th Avenue", "amenity": "restaurant", "cuisine": "steak_house", "name": "Tad\u2019s Steakhouse"}}, {"type": "node", "id": 6615272815, "lat": 40.7567769, "lon": -73.9804939, "tags": {"amenity": "restaurant", "cuisine": "thai", "diet:gluten_free": "yes", "name": "Mitr Thai", "opening_hours": "Mo-Th 11:30-16:00,17:00-22:30; Fr-Sa 11:30-16:00,17:00-23:00; Su 11:30-16:00,17:00-22:30", "phone": "+1-212-466-6699", "website": "https://www.mitrthainyc.com"}}, {"type": "node", "id": 6615272821, "lat": 40.7578879, "lon": -73.9831141, "tags": {"amenity": "cafe", "check_date": "2025-06-15", "cuisine": "coffee", "level": "0", "name": "For five coffee roasters", "opening_hours": "Mo-Fr 07:00-19:00; Sa-Su 08:00-16:00", "outdoor_seating": "no", "takeaway": "yes", "wheelchair": "yes"}}, {"type": "node", "id": 6615272822, "lat": 40.7570592, "lon": -73.9811663, "tags": {"addr:city": "New York", "addr:housenumber": "55", "addr:postcode": "10036", "addr:state": "NY", "addr:street": "West 46th Street", "amenity": "cafe", "branch": "46th between 6th and 5th", "brand": "Starbucks", "brand:wikidata": "Q37158", "cuisine": "coffee_shop", "name": "Starbucks", "official_name": "Starbucks Coffee", "phone": "+1 646-647-5558", "takeaway": "yes", "toilets:wheelchair": "yes", "website": "https://www.starbucks.com/store-locator/store/1014671/46th-between-6th-and-5th-55-west-46th-st-new-york-ny-100364276-us", "wheelchair": "limited"}}, {"type": "node", "id": 6615272823, "lat": 40.756182, "lon": -73.9810387, "tags": {"amenity": "cafe", "name": "Manhattan", "wheelchair": "limited"}}, {"type": "node", "id": 6615272824, "lat": 40.7559902, "lon": -73.9805626, "tags": {"amenity": "restaurant", "check_date": "2025-06-15", "name": "The Dawson"}}, {"type": "node", "id": 6615272829, "lat": 40.7562438, "lon": -73.9812159, "tags": {"addr:housenumber": "45", "addr:postcode": "10036", "addr:street": "West 45th Street", "amenity": "restaurant", "cocktails": "yes", "contact:instagram": "https://www.instagram.com/valerienewyorkcity/", "cuisine": "american", "drink:beer": "draught", "drink:wine": "yes", "email": "contact@valerienewyorkcity.com", "name": "Valerie", "opening_hours": "11:00-02:00", "opening_hours:covid19": "off", "opening_hours:kitchen": "Mo-Fr 11:00-16:00, 17:00-24:00; Sa, Su 11:00-15:00, 17:00-24:00", "phone": "+1 212-302-4545", "reservation": "yes", "toilets:wheelchair": "no", "website": "https://www.valerienewyorkcity.com/", "wheelchair": "yes"}}, {"type": "node", "id": 6814895869, "lat": 40.7584631, "lon": -73.9780711}, {"type": "node", "id": 6814895875, "lat": 40.7585715, "lon": -73.9781797}, {"type": "node", "id": 6814895876, "lat": 40.7585238, "lon": -73.9782148}, {"type": "node", "id": 6814895881, "lat": 40.7583907, "lon": -73.9777517}, {"type": "node", "id": 6814895882, "lat": 40.7583423, "lon": -73.9777848}, {"type": "node", "id": 6814895884, "lat": 40.7583446, "lon": -73.9777906}, {"type": "node", "id": 6814933386, "lat": 40.7583355, "lon": -73.9777221}, {"type": "node", "id": 6814933387, "lat": 40.7583251, "lon": -73.9777298}, {"type": "node", "id": 6814933389, "lat": 40.7583635, "lon": -73.9777013}, {"type": "node", "id": 6814933390, "lat": 40.7583527, "lon": -73.9777093}, {"type": "node", "id": 7093921924, "lat": 40.757792, "lon": -73.9796085, "tags": {"addr:city": "New York", "addr:housenumber": "28", "addr:postcode": "10036", "addr:state": "NY", "addr:street": "West 48th Street", "amenity": "cafe", "branch": "48th btwn 5th & 6th", "brand": "Starbucks", "brand:wikidata": "Q37158", "cuisine": "coffee_shop", "name": "Starbucks", "official_name": "Starbucks Coffee", "phone": "+1 646-860-8626", "ref": "1018081", "takeaway": "yes", "toilets:wheelchair": "yes", "website": "https://www.starbucks.com/store-locator/store/1018081/48th-btwn-5th-6th-28-west-48th-street-new-york-ny-100361804-us", "wheelchair": "yes"}}, {"type": "node", "id": 7093921926, "lat": 40.7579901, "lon": -73.9800977, "tags": {"addr:city": "New York", "addr:housenumber": "42", "addr:postcode": "10036", "addr:state": "NY", "addr:street": "West 48th Street", "amenity": "pub", "name": "Sean's Bar and Kitchen", "wheelchair": "yes"}}, {"type": "node", "id": 7093921929, "lat": 40.7582536, "lon": -73.9807387, "tags": {"addr:city": "New York", "addr:housenumber": "64", "addr:postcode": "10036", "addr:state": "NY", "addr:street": "West 48th Street", "addr:unit": "1", "amenity": "restaurant", "cuisine": "noodle", "name": "TsuroTonTan"}}, {"type": "node", "id": 7093921930, "lat": 40.7581616, "lon": -73.9805063, "tags": {"addr:city": "New York", "addr:housenumber": "58", "addr:postcode": "10036", "addr:state": "NY", "addr:street": "West 48th Street", "amenity": "pub", "name": "Pig'n'Whistle", "wheelchair": "limited"}}, {"type": "node", "id": 7093921932, "lat": 40.7581457, "lon": -73.9806079, "tags": {"addr:city": "New York", "addr:housenumber": "60", "addr:postcode": "10036", "addr:state": "NY", "addr:street": "West 48th Street", "amenity": "restaurant", "cuisine": "noodle", "level": "1", "name": "Yama Ramen"}}, {"type": "node", "id": 7093921939, "lat": 40.7565007, "lon": -73.9778114, "tags": {"amenity": "cafe", "name": "Cafe Alice", "wheelchair": "limited"}}, {"type": "node", "id": 7093921941, "lat": 40.7564517, "lon": -73.9804099, "tags": {"amenity": "restaurant", "branch": "NY", "brand": "Ippudo", "brand:en": "Ippudo", "brand:ja": "\u4e00\u98a8\u5802", "brand:wikidata": "Q6065417", "cuisine": "ramen", "name": "Ippudo", "name:en": "Ippudo", "name:ja": "\u4e00\u98a8\u5802", "wheelchair": "yes"}}, {"type": "node", "id": 7093921944, "lat": 40.7566081, "lon": -73.9806982, "tags": {"amenity": "restaurant", "cuisine": "brazilian", "name": "Via Brasil", "wheelchair": "yes"}}, {"type": "node", "id": 7093921945, "lat": 40.7568086, "lon": -73.9805692, "tags": {"amenity": "restaurant", "cuisine": "italian", "diet:gluten_free": "yes", "drink:wine": "yes", "name": "Nino's 46", "opening_hours": "Mo-Fr 11:00-22:00; Sa 16:30-22:30; Su 16:30-22:00", "phone": "+1-212-719-4015", "website": "https://ninos46.com"}}, {"type": "node", "id": 7093921948, "lat": 40.7568104, "lon": -73.9811459, "tags": {"amenity": "cafe", "cuisine": "american;latin_american;breakfast", "name": "Caf\u00e9 Cello", "phone": "+1-212-764-8600", "toilets:wheelchair": "no", "wheelchair": "yes"}}, {"type": "node", "id": 7093921956, "lat": 40.7588628, "lon": -73.9789097, "tags": {"amenity": "cafe", "brand": "Starbucks", "brand:wikidata": "Q37158", "check_date": "2019-12-29", "cuisine": "coffee_shop", "name": "Starbucks", "official_name": "Starbucks Coffee", "takeaway": "yes"}}, {"type": "node", "id": 7172247185, "lat": 40.7580118, "lon": -73.9841151, "tags": {"amenity": "pub", "check_date": "2025-06-15", "cuisine": "burger;irish;american", "name": "Mc Carthy's", "theme": "irish"}}, {"type": "node", "id": 7380145287, "lat": 40.7580252, "lon": -73.9803925, "tags": {"addr:postcode": "10036", "email": "nyctvmounted@gmail.com", "name": "NYC TV Mounts", "office": "company", "opening_hours": "Mo-Su 08:00-21:00", "phone": "+13478749843", "website": "https://nyctvmounted.com/"}}, {"type": "node", "id": 7570844498, "lat": 40.7576317, "lon": -73.9783609, "tags": {"addr:housenumber": "600", "addr:street": "5th Avenue", "brand:wikidata": "Q3259355", "name": "Loral Space & Communications", "office": "company"}}, {"type": "node", "id": 8791561181, "lat": 40.7563578, "lon": -73.9785164, "tags": {"addr:housenumber": "575", "addr:street": "5th Avenue", "name": "Numis Securities", "office": "financial", "website": "https://www.numis.com/"}}, {"type": "node", "id": 9313457709, "lat": 40.7607466, "lon": -73.9847512, "tags": {"amenity": "restaurant", "name": "The Harrison Restaurant & Bar"}}, {"type": "node", "id": 9784352417, "lat": 40.759942, "lon": -73.9816372, "tags": {"amenity": "cafe", "name": "Le Caffe Coffee"}}, {"type": "node", "id": 9784361517, "lat": 40.7575756, "lon": -73.9790831, "tags": {"addr:housenumber": "12", "addr:postcode": "10036", "addr:street": "West 48th Street", "amenity": "cafe", "name": "Maman", "opening_hours": "Mo-Fr 07:30-18:00; Sa-Su 08:00-18:00", "outdoor_seating": "street"}}, {"type": "node", "id": 9815615205, "lat": 40.7604274, "lon": -73.9840645, "tags": {"addr:city": "New York", "addr:housenumber": "736", "addr:state": "NY", "addr:street": "7th Avenue", "amenity": "restaurant", "cuisine": "pizza", "name": "Famous Original Ray's Pizza"}}, {"type": "node", "id": 10173210352, "lat": 40.7608644, "lon": -73.9786314}, {"type": "node", "id": 10215129770, "lat": 40.7607972, "lon": -73.9789137, "tags": {"name": "Vornado", "office": "estate_agent"}}, {"type": "node", "id": 10215147555, "lat": 40.7613084, "lon": -73.9785249, "tags": {"amenity": "restaurant", "cuisine": "steak_house", "name": "Nusr Et"}}, {"type": "node", "id": 10215152666, "lat": 40.7606653, "lon": -73.9786542, "tags": {"addr:city": "New York", "addr:housenumber": "1290", "addr:postcode": "10104", "addr:state": "NY", "addr:street": "6th Avenue", "amenity": "cafe", "branch": "52nd Btwn Fifth & Sixth", "brand": "Starbucks", "brand:wikidata": "Q37158", "cuisine": "coffee_shop", "name": "Starbucks", "official_name": "Starbucks Coffee", "opening_hours": "Mo-Fr 05:30-19:00; Sa-Su 07:00-19:00", "phone": "+1 212-977-4861", "ref": "88886", "takeaway": "yes", "website": "https://www.starbucks.com/store-locator/store/88886/52nd-btwn-fifth-sixth-1290-sixth-avenue-new-york-ny-101040101-us"}}, {"type": "node", "id": 10215153345, "lat": 40.760797, "lon": -73.9789831, "tags": {"amenity": "restaurant", "name": "Global Kitchen"}}, {"type": "node", "id": 10261258830, "lat": 40.7596078, "lon": -73.9830636}, {"type": "node", "id": 10271506764, "lat": 40.7576327, "lon": -73.97844, "tags": {"addr:city": "New York", "addr:housenumber": "600", "addr:postcode": "10020", "addr:state": "NY", "addr:street": "5th Avenue", "addr:unit": "1", "level": "1", "name": "Luxoft", "office": "it", "phone": "+1 212 964 9900", "website": "https://www.luxoft.com"}}, {"type": "node", "id": 10547810049, "lat": 40.7601354, "lon": -73.9832283, "tags": {"addr:city": "New York", "addr:housenumber": "152", "addr:postcode": "10019", "addr:state": "NY", "addr:street": "West 49th Street", "amenity": "restaurant", "branch": "Times Square", "cuisine": "japanese;ramen", "delivery": "yes", "name": "Ichiran", "opening_hours": "Mo-Th 12:00-21:00; Fr-Su 12:00-22:00", "outdoor_seating": "no", "payment:cash": "yes", "payment:credit_cards": "yes", "phone": "+1-646-964-4294", "takeaway": "yes", "website": "https://www.ichiranusa.com/location/times-square/"}}, {"type": "node", "id": 10559992345, "lat": 40.7597577, "lon": -73.9837192, "tags": {"addr:city": "New York", "addr:housenumber": "167", "addr:postcode": "10036", "addr:state": "NY", "addr:street": "West 48th Street", "amenity": "restaurant", "cuisine": "pizza", "delivery": "yes", "name": "Little Italy Pizza", "outdoor_seating": "sidewalk", "phone": "+1-646-360-2346", "takeaway": "yes"}}, {"type": "node", "id": 10585987700, "lat": 40.7561716, "lon": -73.9827853, "tags": {"addr:city": "New York", "addr:housenumber": "1140", "addr:postcode": "10036", "addr:state": "NY", "addr:street": "6th Avenue", "level": "9", "name": "McMenamin Law Group", "office": "lawyer", "opening_hours": "24/7", "payment:cheque": "yes", "phone": "+1-917-312-8334", "website": "https://mcmenaminlawgroup.com/"}}, {"type": "node", "id": 10793024892, "lat": 40.7580402, "lon": -73.9802119, "tags": {"amenity": "restaurant", "cuisine": "chinese", "drink:beer": "bottled", "drink:wine": "yes", "name": "Mr. Sun", "opening_hours": "Mo-Su 11:00-22:00", "phone": "+1-718-316-9977", "takeaway": "yes", "website": "http://mrsun48.com"}}, {"type": "node", "id": 10794176923, "lat": 40.7600479, "lon": -73.9837966, "tags": {"alt_name": "Lagos Times Square", "amenity": "restaurant", "bar": "yes", "cocktails": "yes", "cuisine": "west_african", "drink:beer": "yes", "drink:liquor": "yes", "drink:wine": "yes", "name": "Lagos TSQ", "phone": "+1-212-281-0500", "website": "https://lagosnyc.com"}}, {"type": "node", "id": 10891282153, "lat": 40.7576124, "lon": -73.9791762, "tags": {"addr:housenumber": "16", "addr:postcode": "10036", "addr:street": "West 48th Street", "amenity": "restaurant", "contact:instagram": "nykimchi48", "cuisine": "korean", "email": "talkto@nykimchi48.com", "name": "New York Kimchi", "opening_hours": "Mo-Sa 17:00-23:00", "phone": "+1-212-335-0212", "website": "https://www.nykimchi48.com/", "website:menu": "https://www.nykimchi48.com/menus"}}, {"type": "node", "id": 11079657105, "lat": 40.7575137, "lon": -73.9840845, "tags": {"addr:city": "New York", "addr:housenumber": "135", "addr:postcode": "10036", "addr:state": "NY", "addr:street": "West 45th Street", "amenity": "bar", "level": "54", "name": "Bar 54", "phone": "+1 646 364 1234", "website": "https://www.bar54nyc.com"}}, {"type": "node", "id": 11175531742, "lat": 40.7583068, "lon": -73.9808668, "tags": {"amenity": "pub", "cocktails": "yes", "cuisine": "pub;pizza", "drink:beer": "draught", "drink:liquor": "yes", "drink:wine": "yes", "name": "The Elgin", "opening_hours": "Mo 11:00-23:00; Tu-Fr 11:00-24:00; Sa 11:00-23:00; Su 14:00-22:00", "outdoor_seating": "sidewalk;street", "phone": "+1-212-221-2100", "website": "https://www.elginnyc.com"}}, {"type": "node", "id": 11296226862, "lat": 40.761374, "lon": -73.9782633}, {"type": "node", "id": 11335080026, "lat": 40.7603719, "lon": -73.9807662, "tags": {"amenity": "restaurant", "name": "Avra Rockefeller Center"}}, {"type": "node", "id": 11674339847, "lat": 40.7568355, "lon": -73.9806333, "tags": {"amenity": "restaurant", "branch": "Bryant Park", "cuisine": "chinese", "happy_hours": "Mo-Su 16:00-19:00", "name": "Mala Project", "opening_hours": "Mo-Fr 11:00-21:15; Sa-Su 12:00-21:15", "phone": "+1-917-261-7520"}}, {"type": "node", "id": 11674339848, "lat": 40.7568615, "lon": -73.9806953, "tags": {"amenity": "restaurant", "cuisine": "turkish", "drink:beer": "draught", "drink:wine": "yes", "name": "Akdeniz", "opening_hours": "Mo-Sa 11:00-23:00; Su 15:00-21:00", "phone": "+1-212-575-2307", "website": "https://akdeniz46.com"}}, {"type": "node", "id": 12207819344, "lat": 40.7609179, "lon": -73.9823212, "tags": {"addr:city": "New York", "addr:housenumber": "80", "addr:postcode": "10011", "addr:state": "NY", "addr:street": "Fifth Avenue", "amenity": "cafe", "cuisine": "singaporean;coffee;bubble_tea", "name": "Kopifellas", "opening_hours": "Mo-Fr 09:00-21:00;Sa-Su 10:30-20:30", "phone": "+1-917-485-9846", "website": "https://www.kopifellas.com.sg/usa/"}}, {"type": "node", "id": 12322937601, "lat": 40.7576737, "lon": -73.9805449, "tags": {"addr:postcode": "10036", "amenity": "restaurant", "contact:instagram": "taamtovrestaurant", "level": "3", "name": "Taam Tov", "opening_hours": "Mo-Th 11:00-20:00; Fr 11:00-14:00", "phone": "+13322395265", "website": "https://taamtovkosher.com/"}}, {"type": "node", "id": 12412579864, "lat": 40.756143, "lon": -73.9828175, "tags": {"addr:city": "New York", "addr:housenumber": "1140", "addr:postcode": "10036", "addr:state": "NY", "addr:street": "6th Avenue", "addr:unit": "1035", "description": "Greco Neyland, P.C. is a boutique criminal defense law firm founded by former prosecutors. We have over 50 years of collective experience at Greco Neyland. We have offices in Manhattan as well as in White Plains (Westchester County), New York.", "email": "info@gnlaw.nyc", "name": "Greco Neyland, PC", "office": "lawyer", "opening_hours": "24/7", "phone": "+1 212-951-1300", "website": "https://www.newyorkcriminallawyer.com"}}, {"type": "node", "id": 12548036252, "lat": 40.7575147, "lon": -73.9802829, "tags": {"addr:city": "New York", "addr:housenumber": "33", "addr:postcode": "10036", "addr:state": "NY", "addr:street": "West 47th Street", "amenity": "restaurant", "certification": "diet:kosher", "certification:certifier": "ou kosher", "certification:rating": "ou;ou-m", "cuisine": "burger;sandwich;salad", "diet:kosher": "yes", "name": "Smash House", "opening_hours": "Mo-Th 11:00-20:45; Su 12:30-20:45", "website": "https://www.smashhouseburgers.com/locations/new-york/manhattan-47th-st/"}}, {"type": "node", "id": 12646644778, "lat": 40.7562138, "lon": -73.9797686, "tags": {"amenity": "cafe", "brand": "Matto Espresso", "brand:wikidata": "Q122209496", "cuisine": "coffee_shop", "name": "Matto Espresso", "takeaway": "yes"}}, {"type": "node", "id": 12779303802, "lat": 40.7563009, "lon": -73.9820134, "tags": {"addr:floor": "7", "addr:housenumber": "62", "addr:street": "West 45th Street", "country": "RS", "diplomatic": "consulate", "email": "consulate.newyork@mfa.rs", "fax": "+1 212 5964 363", "name": "Consulate General of the Republic of Serbia", "name:en": "Consulate General of the Republic of Serbia", "name:sr": "\u0413\u0435\u043d\u0435\u0440\u0430\u043b\u043d\u0438 \u043a\u043e\u043d\u0437\u0443\u043b\u0430\u0442 \u0420\u0435\u043f\u0443\u0431\u043b\u0438\u043a\u0435 \u0421\u0440\u0431\u0438\u0458\u0435", "name:sr-Latn": "Generalni konzulat Republike Srbije", "office": "diplomatic", "opening_hours": "Mo-Fr 09:00-17:00", "phone": "+1 212 5964 241", "target": "US", "website": "http://www.newyork.mfa.gov.rs"}}, {"type": "node", "id": 12818145480, "lat": 40.7596608, "lon": -73.9832831, "tags": {"addr:city": "New York", "addr:housenumber": "159", "addr:postcode": "10019", "addr:state": "NY", "addr:street": "West 48th Street", "amenity": "bar", "level": "34", "name": "RT60 Rooftop Bar & Lounge", "opening_hours": "Mo-Tu off; Th-Sa 17:00-02:00; Su,We 17:00-24:00", "outdoor_seating": "yes", "phone": "+1-212-970-1270", "website": "https://hotel.hardrock.com/new-york/rt60-rooftop-bar.aspx"}}, {"type": "node", "id": 12857850351, "lat": 40.7561252, "lon": -73.9848062, "tags": {"addr:city": "New York", "addr:housenumber": "127A", "addr:postcode": "10036", "addr:street": "West 43rd Street", "amenity": "restaurant", "bar": "yes", "cocktails": "yes", "cuisine": "mexican", "drink:beer": "draught", "drink:liquor": "yes", "drink:wine": "yes", "happy_hours": "Mo-Su 16:00-17:30", "name": "Bar Mexicana", "opening_hours": "Mo-Su 11:30-21:00", "phone": "+1-917-914-7037", "website": "https://www.barmexicananyc.com"}}, {"type": "node", "id": 12917458454, "lat": 40.7562131, "lon": -73.9811182, "tags": {"amenity": "bar", "check_date": "2025-06-15", "name": "Lolita"}}, {"type": "node", "id": 12917458455, "lat": 40.7567436, "lon": -73.982279, "tags": {"amenity": "cafe", "check_date": "2025-06-15", "cuisine": "coffee_shop", "name": "Ground Central"}}, {"type": "node", "id": 12917521996, "lat": 40.7568873, "lon": -73.98349, "tags": {"amenity": "cafe", "check_date": "2025-06-15", "cuisine": "coffee_shop", "name": "Gumption Coffee"}}, {"type": "node", "id": 12917521997, "lat": 40.7572479, "lon": -73.9835396, "tags": {"amenity": "pub", "check_date": "2025-06-15", "name": "Merrion Row"}}, {"type": "node", "id": 12917521998, "lat": 40.7570814, "lon": -73.9838681, "tags": {"amenity": "restaurant", "check_date": "2025-06-15", "name": "Bobby Van's Grill"}}, {"type": "node", "id": 12917521999, "lat": 40.7575283, "lon": -73.98419, "tags": {"amenity": "cafe", "check_date": "2025-06-15", "cuisine": "coffee_shop", "name": "T45"}}, {"type": "node", "id": 12917522701, "lat": 40.757443, "lon": -73.9846875, "tags": {"amenity": "cafe", "brand": "Starbucks", "brand:wikidata": "Q37158", "check_date": "2025-06-15", "cuisine": "coffee_shop", "name": "Starbucks", "official_name": "Starbucks Coffee", "takeaway": "yes"}}, {"type": "node", "id": 12917522703, "lat": 40.7580768, "lon": -73.9842248, "tags": {"amenity": "restaurant", "check_date": "2025-06-15", "cuisine": "steak_house", "name": "Le Marais"}}, {"type": "node", "id": 12917522705, "lat": 40.7580046, "lon": -73.984058, "tags": {"amenity": "restaurant", "check_date": "2025-06-15", "cuisine": "steak_house;pasta", "name": "Prime Catch"}}, {"type": "node", "id": 12917522706, "lat": 40.757981, "lon": -73.9840072, "tags": {"amenity": "restaurant", "check_date": "2025-06-15", "cuisine": "chinese", "name": "Silky Kitchen", "opening_hours": "Mo-Fr 11:00-20:45"}}, {"type": "node", "id": 12917522707, "lat": 40.756518, "lon": -73.9805238, "tags": {"amenity": "restaurant", "check_date": "2025-06-15", "cuisine": "italian", "name": "Chazz Palminteri"}}, {"type": "node", "id": 13190222586, "lat": 40.7560591, "lon": -73.9845398, "tags": {"addr:city": "New York", "addr:housenumber": "123", "addr:state": "NY", "addr:street": "West 43rd Street", "amenity": "school", "name": "Repertory Company High School for Theatre Arts", "phone": "+1-212-382-1875", "website": "https://www.repertorycompanyhs.org"}}, {"type": "node", "id": 13304565268, "lat": 40.7599618, "lon": -73.9827619}, {"type": "node", "id": 13304565269, "lat": 40.7594857, "lon": -73.9831055}, {"type": "way", "id": 113690621, "nodes": [1288901370, 1288901371, 2717544546, 1288901376, 2498992619, 2498992620, 3913367689, 1288901367, 2717544457, 1288901370], "tags": {"leisure": "park", "name": "Marsh & McLennan Public Space", "smoking": "no"}}, {"type": "way", "id": 159028631, "nodes": [6814895875, 6814895876, 6814895869, 6814895884, 6814895882, 1711332894, 6814933387, 6814933386, 6814933390, 6814933389, 1711332900, 6814895881, 6814895875], "tags": {"ele": "21", "gnis:feature_id": "2083265", "leisure": "park", "name": "Channel Gardens", "wikidata": "Q34816322"}}, {"type": "way", "id": 266170540, "nodes": [2717545066, 1753098052, 2717545159, 2717545281, 2717545262, 2717545216, 2717545203, 2717545193, 2717545182, 2717545066], "tags": {"addr:city": "New York", "addr:housenumber": "121", "addr:postcode": "10036", "addr:state": "NY", "addr:street": "West 45th Street", "amenity": "pub", "building": "yes", "building:colour": "#2C2428", "building:levels": "3", "check_date": "2024-10-10", "height": "12.5", "name": "Connolly's", "nycdoitt:bin": "1022638", "official_name": "Connolly's Pub & Restaurant", "roof:material": "concrete", "roof:shape": "flat", "website": "https://www.connollyspubandrestaurant.com/"}}, {"type": "way", "id": 266170542, "nodes": [2717545825, 2717545835, 2717545846, 2717545853, 2717545923, 2717545934, 1762432574, 2717545914, 2717545825], "tags": {"addr:city": "New York", "addr:housenumber": "146", "addr:postcode": "10036", "addr:state": "NY", "addr:street": "West 47th Street", "amenity": "restaurant", "building": "yes", "cuisine": "mediterranean", "height": "13.1", "name": "Dervish", "nycdoitt:bin": "1022670", "website": "https://www.dervishrestaurant.com/"}}, {"type": "way", "id": 266170669, "nodes": [2717545416, 2717545419, 2717545390, 2717545403, 2717545564, 2717545517, 2717545416], "tags": {"addr:city": "New York", "addr:housenumber": "36", "addr:postcode": "10036", "addr:state": "NY", "addr:street": "West 48th Street", "amenity": "restaurant", "bar": "yes", "building": "yes", "cuisine": "chinese", "delivery": "yes", "height": "21.3", "name": "Wu Liang Ye", "nycdoitt:bin": "1034495", "opening_hours": "Mo-Su 11:00-21:00", "phone": "+1 212 398 2308", "reservation": "yes", "toilets": "yes", "website": "http://www.wu-liang-ye.com/", "website:menu": "http://www.wu-liang-ye.com/#menu"}}, {"type": "way", "id": 266170732, "nodes": [2717544032, 2717544046, 3081362062, 2717544225, 2717544253, 2717544245, 2717544232, 2717544179, 2717544080, 2717544032], "tags": {"addr:city": "New York", "addr:housenumber": "65", "addr:postcode": "10036", "addr:street": "West 44th Street", "air_conditioning": "yes", "amenity": "bar", "building": "yes", "building:colour": "#ACA9A6", "building:levels": "3", "height": "13.3", "name": "The Blue Bar", "nycdoitt:bin": "1081061", "roof:material": "concrete", "roof:shape": "flat", "smoking": "no", "website": "https://www.algonquinhotel.com/the-blue-bar/"}}, {"type": "way", "id": 266170759, "nodes": [2717545409, 2717545413, 2717545599, 1753134755, 2717545585, 2717545409], "tags": {"addr:city": "New York", "addr:housenumber": "134", "addr:postcode": "10036", "addr:state": "NY", "addr:street": "West 46th Street", "amenity": "restaurant", "building": "yes", "cocktails": "yes", "cuisine": "mexican", "height": "16.0", "name": "Amor Loco", "nycdoitt:bin": "1022646"}}, {"type": "way", "id": 266170760, "nodes": [2717545159, 1753098061, 2717545186, 2717545189, 2717545295, 2717545281, 2717545159], "tags": {"addr:city": "New York", "addr:housenumber": "123", "addr:postcode": "10036", "addr:state": "NY", "addr:street": "West 45th Street", "amenity": "pub", "building": "yes", "building:colour": "#CDC7AF", "building:levels": "5", "check_date": "2024-10-10", "height": "16.6", "name": "Perfect Pint", "nycdoitt:bin": "1022657", "official_name": "The Perfect Pint", "roof:material": "concrete", "roof:shape": "flat", "website": "https://www.theperfectpintnyc.com/"}}, {"type": "way", "id": 267018744, "nodes": [1711306746, 1711306747, 1711306748, 2717545537, 2717545656, 1711306741, 1711306746], "tags": {"addr:city": "New York", "addr:housenumber": "600", "addr:postcode": "10020", "addr:state": "NY", "addr:street": "5th Avenue", "addr:unit": "1201", "building": "yes", "building:colour": "#CAC3A9", "building:levels": "31", "height": "138", "name": "CS DISCO Inc.", "office": "company", "roof:colour": "#956C66", "roof:material": "concrete", "roof:shape": "flat", "website": "https://csdisco.com/"}}, {"type": "way", "id": 458511171, "nodes": [2717546466, 2717546460, 2717546457, 2717546406, 2717546409, 2717546378, 2717546381, 2717546365, 4545006872, 2717546353, 2717546387, 1593328953, 1593328960, 4545006873, 4545006874, 2717546466], "tags": {"access": "yes", "highway": "pedestrian", "leisure": "park", "name": "745 Plaza"}}, {"type": "way", "id": 468472672, "nodes": [1745856081, 3976008162, 3976005755, 1745856010, 10173210352, 11296226862, 1745856081], "tags": {"leisure": "park"}}, {"type": "way", "id": 1317270172, "nodes": [2717546319, 13304565268, 530697969, 530697968, 13304565269, 2717546150, 10261258830, 2717546205, 2717546209, 2717546319], "tags": {"area": "yes", "highway": "pedestrian", "leisure": "park", "name": "McGraw-Hill Park", "surface": "concrete"}}]}