{"version": 0.6, "generator": "Overpass API 0.7.62.8 e802775f", "osm3s": {"timestamp_osm_base": "2025-12-01T17:14:02Z", "copyright": "The data included in this document is from www.openstreetmap.org. The data is made available under ODbL."}, "elements": [{"type": "node", "id": 488992286, "lat": 40.6815581, "lon": -73.9961674}, {"type": "node", "id": 488992288, "lat": 40.6810699, "lon": -73.996305}, {"type": "node", "id": 488992290, "lat": 40.6806755, "lon": -73.9946602}, {"type": "node", "id": 488992293, "lat": 40.680916, "lon": -73.9945045}, {"type": "node", "id": 2357685321, "lat": 40.6822378, "lon": -73.9957916, "tags": {"addr:city": "Brooklyn", "addr:country": "US", "addr:housenumber": "345", "addr:postcode": "11231", "addr:state": "NY", "addr:street": "Court Street", "amenity": "restaurant", "cuisine": "italian", "email": "info@marcopoloristorante.com", "happy_hours": "Mo-Su 16:00-19:00", "name": "Marco Polo Ristorante", "outdoor_seating": "sidewalk", "phone": "+1-718-852-5015", "website": "https://www.marcopoloristorante.com/"}}, {"type": "node", "id": 2494091177, "lat": 40.6828697, "lon": -73.9932109, "tags": {"addr:housenumber": "262", "addr:postcode": "11231", "addr:street": "Smith Street", "name": "Carroll Gardens Realty", "office": "estate_agent", "phone": "+1-718-625-9635", "website": "http://carrollgardensrealty.com"}}, {"type": "node", "id": 2494148902, "lat": 40.6789374, "lon": -73.9977207, "tags": {"addr:housenumber": "442", "addr:postcode": "11231", "addr:street": "Court Street", "amenity": "pub", "atm": "yes", "cocktails": "yes", "cuisine": "american;mexican;brunch", "dog": "outside", "drink:beer": "draught", "drink:liquor": "yes", "drink:wine": "yes", "happy_hours": "Mo-Su 16:00-19:00", "name": "Abilene", "opening_hours": "Mo-Th 11:00-24:00; Fr-Sa 11:00-02:00; Su 11:00-24:00", "opening_hours:kitchen": "Mo-Th 11:00-21:30+; Fr-Sa 11:00-23:30+; Su 11:00-21:30+", "outdoor_seating": "sidewalk;street", "phone": "+1-718-522-6900", "website": "https://www.abilenebarbrooklyn.com"}}, {"type": "node", "id": 2494251587, "lat": 40.6802812, "lon": -73.9961454}, {"type": "node", "id": 2494251982, "lat": 40.6794932, "lon": -73.9954893}, {"type": "node", "id": 2494252653, "lat": 40.6794264, "lon": -73.9955349}, {"type": "node", "id": 2494252699, "lat": 40.6795413, "lon": -73.9958257}, {"type": "node", "id": 2494252707, "lat": 40.6795535, "lon": -73.9958201}, {"type": "node", "id": 2494252800, "lat": 40.6797003, "lon": -73.9957525}, {"type": "node", "id": 2494252806, "lat": 40.679713, "lon": -73.9953394}, {"type": "node", "id": 2494252882, "lat": 40.6798063, "lon": -73.9956802}, {"type": "node", "id": 2494253061, "lat": 40.6803888, "lon": -73.9960932}, {"type": "node", "id": 2494253077, "lat": 40.6804815, "lon": -73.9960172}, {"type": "node", "id": 2494253093, "lat": 40.6804891, "lon": -73.9960445}, {"type": "node", "id": 2494253124, "lat": 40.6806043, "lon": -73.9952228}, {"type": "node", "id": 2494253150, "lat": 40.6806684, "lon": -73.9954523}, {"type": "node", "id": 2494253159, "lat": 40.6806786, "lon": -73.9954473}, {"type": "node", "id": 2494253179, "lat": 40.680731, "lon": -73.9956728}, {"type": "node", "id": 2494253190, "lat": 40.6807403, "lon": -73.9956684}, {"type": "node", "id": 2494253212, "lat": 40.6807859, "lon": -73.9958695}, {"type": "node", "id": 2549988814, "lat": 40.6786, "lon": -73.9957788, "tags": {"addr:housenumber": "385", "addr:postcode": "11231", "addr:street": "Smith Street", "amenity": "cafe", "bar": "yes", "name": "DAE", "outdoor_seating": "sidewalk"}}, {"type": "node", "id": 2549992912, "lat": 40.678742, "lon": -73.9942216, "tags": {"name": "Studio PHH Architects", "office": "architect", "phone": "+1-917-765-9140", "website": "https://www.studiophh.com"}}, {"type": "node", "id": 2549996761, "lat": 40.6829349, "lon": -73.9928447, "tags": {"addr:housenumber": "263", "addr:postcode": "11231", "addr:street": "Smith Street", "amenity": "restaurant", "cocktails": "yes", "cuisine": "french", "drink:beer": "yes", "drink:liquor": "yes", "drink:wine": "yes", "name": "Bar B\u00eate", "opening_hours": "Mo-Sa 17:30-22:00", "phone": "+1-347-844-9950", "website": "https://www.barbete.com"}}, {"type": "node", "id": 2550022546, "lat": 40.6808556, "lon": -73.9915451, "tags": {"addr:housenumber": "415", "addr:postcode": "11231", "addr:street": "Union Street", "alt_name": "Black Mountain Wine House", "amenity": "bar", "cuisine": "american", "description": "wine bar with small plates", "drink:beer": "bottled", "drink:liquor": "no", "drink:wine": "yes", "name": "Black Mountain", "opening_hours": "Mo-Th 15:00-24:00, Fr 15:00-01:00, Sa 13:00-01:00, Su 13:00-24:00", "outdoor_seating": "yes", "phone": "+1-718-522-4340", "website": "https://www.blkmtnwinehouse.com"}}, {"type": "node", "id": 2550023147, "lat": 40.679973, "lon": -73.9914024}, {"type": "node", "id": 2550023160, "lat": 40.680046, "lon": -73.9915912}, {"type": "node", "id": 2550023165, "lat": 40.6798276, "lon": -73.9909573}, {"type": "node", "id": 2550023177, "lat": 40.6797744, "lon": -73.9907614}, {"type": "node", "id": 2550023180, "lat": 40.6801295, "lon": -73.991807}, {"type": "node", "id": 2550023190, "lat": 40.6800362, "lon": -73.9906376}, {"type": "node", "id": 2550023192, "lat": 40.6802025, "lon": -73.9919957}, {"type": "node", "id": 2550023193, "lat": 40.6799058, "lon": -73.9912288}, {"type": "node", "id": 2550023195, "lat": 40.6800774, "lon": -73.9907892}, {"type": "node", "id": 2550023201, "lat": 40.6803625, "lon": -73.9909215}, {"type": "node", "id": 2550023205, "lat": 40.6802456, "lon": -73.9914569}, {"type": "node", "id": 2550023230, "lat": 40.6803291, "lon": -73.9916728}, {"type": "node", "id": 2550023233, "lat": 40.6803355, "lon": -73.9909397}, {"type": "node", "id": 2550023254, "lat": 40.6804027, "lon": -73.9911134}, {"type": "node", "id": 2550023262, "lat": 40.6804297, "lon": -73.9910952}, {"type": "node", "id": 2550023283, "lat": 40.6804757, "lon": -73.9913021}, {"type": "node", "id": 2550023294, "lat": 40.6805027, "lon": -73.9912839}, {"type": "node", "id": 2550023309, "lat": 40.6805592, "lon": -73.9915179}, {"type": "node", "id": 2550023318, "lat": 40.6805862, "lon": -73.9914998}, {"type": "node", "id": 2550023367, "lat": 40.6806592, "lon": -73.9916885}, {"type": "node", "id": 3684650475, "lat": 40.6804986, "lon": -73.994819}, {"type": "node", "id": 3684650476, "lat": 40.6799441, "lon": -73.9951924}, {"type": "node", "id": 3684650477, "lat": 40.6802361, "lon": -73.9961655}, {"type": "node", "id": 3684650478, "lat": 40.6800345, "lon": -73.9954977}, {"type": "node", "id": 4193990751, "lat": 40.6824125, "lon": -73.9935252, "tags": {"addr:city": "Brooklyn", "addr:housenumber": "280", "addr:postcode": "11231", "addr:state": "NY", "addr:street": "Smith Street", "amenity": "bar", "cocktails": "yes", "drink:beer": "draught", "drink:liquor": "yes", "drink:wine": "yes", "name": "Bar Great Harry", "opening_hours": "Mo-Fr 14:00-04:00; Sa-Su 12:30-04:00", "outdoor_seating": "no", "smoking": "no"}}, {"type": "node", "id": 4194049557, "lat": 40.6804846, "lon": -73.9945351, "tags": {"amenity": "bar", "cocktails": "yes", "drink:beer": "draught", "drink:liquor": "yes", "drink:wine": "yes", "name": "Brooklyn Social", "opening_hours": "Mo-Th, Su 17:00-02:00; Fr, Sa 17:00-04:00", "outdoor_seating": "garden", "phone": "+1-718-858-7758", "smoking": "no", "sport": "billiards", "website": "https://brooklynsocialbar.com/"}}, {"type": "node", "id": 4194049886, "lat": 40.6802941, "lon": -73.9946681, "tags": {"addr:housenumber": "343", "addr:postcode": "11231", "addr:street": "Smith Street", "amenity": "cafe", "cuisine": "sandwich;breakfast", "drink:coffee": "yes", "drink:espresso": "yes", "drink:kombucha": "yes", "drink:tea": "yes", "indoor_seating": "yes", "name": "Hungry Ghost Coffee", "opening_hours": "Mo-Su 07:00-19:00", "outdoor_seating": "no", "payment:credit_cards": "yes", "payment:debit_cards": "yes"}}, {"type": "node", "id": 4194085284, "lat": 40.6782209, "lon": -73.9980487, "tags": {"addr:housenumber": "462", "addr:postcode": "11231", "addr:street": "Court Street", "amenity": "restaurant", "cuisine": "thai", "delivery": "yes", "diet:vegetarian": "yes", "fax": "+1-718-490-0479", "name": "Boran", "opening_hours": "Tu-Su 12:00-16:00,17:00-22:00", "outdoor_seating": "sidewalk;street", "phone": "+1-718-490-0207", "takeaway": "yes", "website": "https://www.boranrestaurant.com/"}}, {"type": "node", "id": 4707154215, "lat": 40.6807047, "lon": -73.9950033}, {"type": "node", "id": 4707154218, "lat": 40.6808184, "lon": -73.9953862}, {"type": "node", "id": 4707154226, "lat": 40.681088, "lon": -73.9947483}, {"type": "node", "id": 4707154229, "lat": 40.6812139, "lon": -73.9950741}, {"type": "node", "id": 4724706332, "lat": 40.680263, "lon": -73.9906644}, {"type": "node", "id": 4724706333, "lat": 40.6803087, "lon": -73.9907824, "tags": {"addr:housenumber": "420", "addr:postcode": "11231", "addr:street": "Union Street", "entrance": "main"}}, {"type": "node", "id": 4810807413, "lat": 40.6808485, "lon": -73.9968035, "tags": {"addr:city": "Brooklyn", "addr:housenumber": "394", "addr:postcode": "11231", "addr:state": "NY", "addr:street": "Court Street", "amenity": "restaurant", "cuisine": "italian", "name": "Fragole Ristorante", "takeaway": "yes"}}, {"type": "node", "id": 4815675523, "lat": 40.6827477, "lon": -73.9955411, "tags": {"addr:housenumber": "333", "addr:postcode": "11231", "addr:street": "Court Street", "amenity": "cafe", "club": "board_games", "name": "The Brooklyn Strategist", "opening_hours": "Mo-Sa 09:00-23:00; Su 09:00-20:00", "phone": "+1-718-576-3035", "shop": "games", "website": "https://thebrooklynstrategist.com"}}, {"type": "node", "id": 5214911560, "lat": 40.6779479, "lon": -73.9960941, "tags": {"amenity": "restaurant", "cuisine": "thai", "name": "Hungry Thirsty", "opening_hours": "Mo,Th-Su 17:00-21:00", "phone": "+1-347-227-8004", "website": "https://www.hungrythirstynyc.com"}}, {"type": "node", "id": 5544159819, "lat": 40.6826568, "lon": -73.9933572, "tags": {"amenity": "bar", "cocktails": "yes", "drink:beer": "draught", "drink:liquor": "yes", "drink:wine": "yes", "name": "Union Grounds"}}, {"type": "node", "id": 5544159820, "lat": 40.6826091, "lon": -73.99339, "tags": {"amenity": "restaurant", "bar": "yes", "cocktails": "yes", "cuisine": "cuban", "drink:beer": "bottled", "drink:liquor": "yes", "drink:wine": "yes", "name": "Cubana Cafe", "opening_hours": "Mo-Th 11:00-23:00; Fr 11:00-24:00; Sa 10:00-24:00; Su 10:00-23:00", "outdoor_seating": "sidewalk;street", "payment:cash": "only", "phone": "+1-929-337-6476", "website": "https://www.cubanacafebrooklyn.com", "wheelchair": "limited"}}, {"type": "node", "id": 5544159821, "lat": 40.6824616, "lon": -73.9934914, "tags": {"addr:housenumber": "278", "addr:street": "Smith Street", "amenity": "restaurant", "check_date": "2023-10-23", "cuisine": "thai", "diet:vegetarian": "yes", "drink:beer": "yes", "drink:wine": "yes", "fax": "+1-718-834-6017", "name": "Thaism", "opening_hours": "Mo-Th 12:00-16:00,17:00-22:30; Fr-Sa 12:00-16:00,17:00-23:30; Su 12:00-16:00,17:00-22:30", "payment:cash": "yes", "payment:credit_cards": "yes", "phone": "+1-718-834-0505", "website": "https://thaism.com"}}, {"type": "node", "id": 5558007857, "lat": 40.6813812, "lon": -73.993947, "tags": {"amenity": "bar", "cocktails": "yes", "cuisine": "mexican", "drink:beer": "draught", "drink:liquor": "yes", "drink:wine": "yes", "name": "Bar San Miguel", "opening_hours": "Mo-Th 16:00-00:00; Fr 15:00-00:00; Sa 12:00-00:00; Su 12:00-23:00", "outdoor_seating": "garden;sidewalk", "phone": "+1-718-855-2490", "website": "https://barsanmiguelbrooklyn.com", "wheelchair": "limited"}}, {"type": "node", "id": 5558007858, "lat": 40.6810156, "lon": -73.9941909, "tags": {"alt_name": "Bagels By The Park", "amenity": "cafe", "atm": "yes", "cuisine": "bagel;sandwich;salad;juice", "drink:coffee": "yes", "drink:espresso": "yes", "drink:juice": "yes", "drink:tea": "yes", "name": "Bagels Cafe", "phone": "+1-718-246-1321", "website": "http://www.bagelsbythepark.net"}}, {"type": "node", "id": 5700532141, "lat": 40.6792678, "lon": -73.9956991, "tags": {"amenity": "cafe", "cuisine": "mediterranean;coffee_shop", "drink:coffee": "yes", "drink:espresso": "yes", "drink:tea": "yes", "drink:wine": "yes", "name": "Nili", "outdoor_seating": "yes", "phone": "+1-929-295-0606", "website": "https://www.nilibk.com"}}, {"type": "node", "id": 5700532143, "lat": 40.6797232, "lon": -73.9950713, "tags": {"addr:housenumber": "357", "addr:postcode": "11231", "addr:street": "Smith Street", "description": "insurance and tax preparation", "fax": "+1 718 222 3582", "name": "Action Insurance Agency & Tax Service", "office": "insurance", "phone": "+1 718 222 3581"}}, {"type": "node", "id": 5700532149, "lat": 40.6796717, "lon": -73.9951042, "tags": {"addr:housenumber": "359", "addr:postcode": "11231", "addr:street": "Smith Street", "name": "D'Andrea Craig Realty", "office": "estate_agent", "operator": "Antoinette M. D'Andrea", "phone": "+1-718-855-5800", "website": "https://dandreacraigrealty.com/"}}, {"type": "node", "id": 5794634047, "lat": 40.6820717, "lon": -73.9932357, "tags": {"addr:housenumber": "372", "addr:postcode": "11231", "addr:street": "Sackett Street", "alt_name": "Cafe Cotton Bean", "amenity": "cafe", "drink:coffee": "yes", "drink:espresso": "yes", "drink:tea": "yes", "name": "Cotton Bean", "opening_hours": "Mo-Fr 07:00-17:00; Sa-Su 08:00-18:00", "outdoor_seating": "yes"}}, {"type": "node", "id": 5794664401, "lat": 40.6828547, "lon": -73.9952495, "tags": {"addr:housenumber": "314", "addr:postcode": "11231", "addr:street": "Sackett Street", "amenity": "cafe", "drink:coffee": "yes", "drink:espresso": "yes", "drink:tea": "yes", "name": "Nerd Be Cool", "opening_hours": "Mo-Fr 08:00-15:00; Sa 08:00-16:30; Su 08:00-15:00", "outdoor_seating": "sidewalk"}}, {"type": "node", "id": 5847389629, "lat": 40.6818859, "lon": -73.9936013, "tags": {"alt_name": "Vinny's of Carroll Gardens", "amenity": "restaurant", "cuisine": "italian", "drink:beer": "bottled", "drink:wine": "yes", "name": "Vinny's Restaurant", "opening_hours": "Mo-Sa 11:00-22:00; Su 12:00-21:00", "phone": "+1-718-875-5600", "takeaway": "yes", "website": "https://vinnysofcarrollgardens.com"}}, {"type": "node", "id": 5852378587, "lat": 40.6819521, "lon": -73.995929, "tags": {"amenity": "cafe", "cuisine": "cake;cookie;ice_cream", "drink:coffee": "yes", "name": "Monteleone's Bakery & Cafe", "name:it": "Pasticceria Monteleone", "opening_hours": "Mo-We 08:00-20:00; Th-Sa 08:00-21:00; Su 08:00-20:00", "outdoor_seating": "yes", "phone": "+1-718-852-5600", "shop": "pastry", "website": "https://pasticceriamonteleonebk.com"}}, {"type": "node", "id": 5852378588, "lat": 40.6820499, "lon": -73.995882, "tags": {"name": "Domenick Napoletano", "office": "lawyer", "phone": "+1-718-522-1377"}}, {"type": "node", "id": 5852378589, "lat": 40.6820745, "lon": -73.9958701, "tags": {"name": "Ira S. Levine & Kurt L. Roth", "office": "lawyer", "phone": "+1-718-855-2110"}}, {"type": "node", "id": 5852491182, "lat": 40.6788727, "lon": -73.9974206, "tags": {"name": "Brownstone Agency", "office": "insurance", "opening_hours": "Mo-Th 09:00-16:00", "phone": "+1-718-797-4661", "website": "https://www.brownstoneagency.com"}}, {"type": "node", "id": 5929416343, "lat": 40.6798063, "lon": -73.9909716}, {"type": "node", "id": 5970481592, "lat": 40.6821308, "lon": -73.9961845, "tags": {"name": "Heights Abstract", "office": "estate_agent", "phone": "+1-718-624-3100", "website": "http://heightsabstract.com", "wheelchair": "no"}}, {"type": "node", "id": 5987486727, "lat": 40.6825247, "lon": -73.9931709, "tags": {"amenity": "pub", "atm": "yes", "cocktails": "yes", "cuisine": "american;burger", "drink:beer": "draught", "drink:liquor": "yes", "drink:wine": "yes", "name": "Wing Bar", "opening_hours": "Mo-Th 11:00-24:00, Fr-Sa 11:00-01:00, Su 11:00-24:00", "opening_hours:kitchen": "Mo-Th 11:00-23:00, Fr-Sa 11:00-24:00, Su 11:00-23:00", "phone": "+1-718-237-2728", "toilets": "yes", "toilets:unisex": "yes", "website": "https://www.thewingbar.com/", "wheelchair": "limited"}}, {"type": "node", "id": 5987486732, "lat": 40.6825734, "lon": -73.993138, "tags": {"amenity": "bar", "cocktails": "yes", "drink:beer": "yes", "drink:liquor": "yes", "drink:wine": "yes", "name": "Zombie Hut", "phone": "+1-718-875-3433"}}, {"type": "node", "id": 5990552322, "lat": 40.6826223, "lon": -73.9931049, "tags": {"alt_name": "FOB", "amenity": "restaurant", "cuisine": "filipino", "name": "F.O.B.", "phone": "+1-718-852-8994", "website": "https://www.fobbrooklyn.com"}}, {"type": "node", "id": 6291950048, "lat": 40.6811089, "lon": -73.9963558}, {"type": "node", "id": 6291950049, "lat": 40.681592, "lon": -73.9961171}, {"type": "node", "id": 6291950050, "lat": 40.6815961, "lon": -73.9960554}, {"type": "node", "id": 6291950051, "lat": 40.6811598, "lon": -73.9963625}, {"type": "node", "id": 6291950052, "lat": 40.6806487, "lon": -73.9947116}, {"type": "node", "id": 6291950053, "lat": 40.680996, "lon": -73.9945145}, {"type": "node", "id": 6291950054, "lat": 40.6809589, "lon": -73.9944991}, {"type": "node", "id": 6291950055, "lat": 40.6806451, "lon": -73.9947753}, {"type": "node", "id": 6314774116, "lat": 40.6803395, "lon": -73.9946365, "tags": {"addr:city": "Brooklyn", "addr:housenumber": "341", "addr:postcode": "11231", "addr:state": "NY", "addr:street": "Smith Street", "government": "legislator", "level": "0", "name": "N.Y.S. Assemblymember Jo Anne Simon", "office": "government", "operator": "Jo Anne Simon", "operator:wikidata": "Q23092077", "phone": "+1-718-246-4889"}}, {"type": "node", "id": 6314774119, "lat": 40.6805304, "lon": -73.9945032, "tags": {"amenity": "cafe", "cannabis": "yes", "contact:instagram": "@cafeplanted", "cuisine": "health_food;breakfast", "diet:gluten_free": "yes", "diet:vegan": "only", "drink:coffee": "yes", "drink:kombucha": "draft", "drink:smoothie": "yes", "internet_access": "wlan", "internet_access:fee": "no", "leisure": "sauna", "name": "Planted Cafe", "opening_hours": "Mo-Tu 07:00-20:00, We-Fr 07:00-22:00, Sa-Su 08:00-22:00", "outdoor_seating": "sidewalk", "phone": "+1-917-909-1986", "shop": "florist", "website": "https://www.plantedcommunitycafe.com"}}, {"type": "node", "id": 6314792169, "lat": 40.6779968, "lon": -73.9960712, "tags": {"amenity": "cafe", "contact:facebook": "https://www.facebook.com/Brooklyn-Habit-209055836522993/", "cuisine": "coffee_shop;sandwich;tapas", "drink:beer": "yes", "drink:coffee": "yes", "drink:espresso": "yes", "drink:wine": "yes", "name": "Brooklyn Habit", "opening_hours": "Mo-Su 07:00-23:00", "phone": "+1-718-246-9463"}}, {"type": "node", "id": 6314947986, "lat": 40.6785208, "lon": -73.9931263, "tags": {"description": "travel, real estate", "name": "Alkamar Travel", "office": "travel_agent", "phone": "+1-718-855-3102", "service:notary": "yes"}}, {"type": "node", "id": 6317081214, "lat": 40.6782861, "lon": -73.995926, "tags": {"check_date": "2023-10-10", "description": "digital design and branding", "name": "Fictive Kin", "office": "company", "phone": "+1-844-342-8483", "website": "https://fictivekin.com"}}, {"type": "node", "id": 6317101296, "lat": 40.6791146, "lon": -73.9976275, "tags": {"name": "Empire Pest Control", "office": "company", "phone": "+1-718-237-0989", "website": "https://www.empirepestcontrol.com"}}, {"type": "node", "id": 6332033686, "lat": 40.6800027, "lon": -73.9948789, "tags": {"amenity": "cafe", "contact:twitter": "@EmmasTorch", "cuisine": "coffee_shop;breakfast;american;middle_eastern", "drink:beer": "yes", "drink:coffee": "yes", "drink:espresso": "yes", "drink:wine": "yes", "name": "Emma's Torch", "opening_hours": "Tu-Su 07:00-16:00", "opening_hours:kitchen": "Tu-Su 08:00-15:00", "outdoor_seating": "patio", "phone": "+1-718-243-1222", "website": "https://emmastorch.org/restaurant"}}, {"type": "node", "id": 6381342379, "lat": 40.6777292, "lon": -73.9983527, "tags": {"addr:city": "Brooklyn", "addr:housenumber": "472", "addr:postcode": "11231", "addr:state": "NY", "addr:street": "Court Street", "name": "Poon & Rinn LLC.", "office": "lawyer", "website": "https://www.poonrinn.com"}}, {"type": "node", "id": 6654107125, "lat": 40.6791439, "lon": -73.9972822, "tags": {"addr:housenumber": "411", "addr:postcode": "11231", "addr:street": "Court Street", "check_date:opening_hours": "2023-10-05", "name": "Romeo & Baratta Attorneys at Law", "office": "lawyer", "opening_hours:signed": "no"}}, {"type": "node", "id": 7132080960, "lat": 40.6828487, "lon": -73.9932253, "tags": {"addr:housenumber": "264", "addr:postcode": "11231", "addr:street": "Smith Street", "name": "Morici & Morici LLP", "office": "lawyer", "phone": "+1-718-946-0111", "website": "https://www.moricilaw.com/"}}, {"type": "node", "id": 7208905972, "lat": 40.6801347, "lon": -73.9971248, "tags": {"addr:housenumber": "412", "addr:postcode": "11231", "addr:street": "Court Street", "amenity": "cafe", "cuisine": "bagel;breakfast;sandwich;salad", "delivery": "yes", "diet:vegetarian": "yes", "drink:coffee": "yes", "drink:espresso": "yes", "drink:juice": "yes", "drink:smoothie": "yes", "name": "Brooklyn Bread", "outdoor_seating": "patio", "phone": "+1-929-250-2715", "shop": "bakery", "takeaway": "yes"}}, {"type": "node", "id": 8492147621, "lat": 40.6776403, "lon": -73.9979949, "tags": {"amenity": "pub", "bar": "yes", "cocktails": "yes", "cuisine": "american;brunch", "dog": "outside", "drink:beer": "draught", "drink:liquor": "yes", "drink:wine": "yes", "name": "Luana\u2019s Tavern", "outdoor_seating": "yes", "phone": "+1-929-298-0321"}}, {"type": "node", "id": 8664733508, "lat": 40.6825099, "lon": -73.9934583, "tags": {"addr:housenumber": "276", "addr:postcode": "11231", "addr:street": "Smith Street", "air_conditioning": "yes", "amenity": "restaurant", "bar": "yes", "cuisine": "asian;japanese", "delivery": "yes", "highchair": "no", "microbrewery": "no", "name": "Soboku", "opening_hours": "Mo-Su 17:00-22:00", "payment:cash": "yes", "payment:contactless": "yes", "payment:credit_cards": "yes", "payment:debit_cards": "yes", "payment:telephone_cards": "yes", "phone": "+1 917-909-0328", "smoking": "no", "takeaway": "yes", "toilets": "yes"}}, {"type": "node", "id": 8779921536, "lat": 40.6802234, "lon": -73.991234}, {"type": "node", "id": 8779921537, "lat": 40.6800934, "lon": -73.9911026}, {"type": "node", "id": 8779921538, "lat": 40.6802066, "lon": -73.9911905}, {"type": "node", "id": 8779921539, "lat": 40.6801286, "lon": -73.9911935}, {"type": "node", "id": 8779921540, "lat": 40.6804309, "lon": -73.9918421, "tags": {"addr:housenumber": "317", "addr:postcode": "11231", "addr:street": "Hoyt Street", "entrance": "yes"}}, {"type": "node", "id": 8861316576, "lat": 40.6796632, "lon": -73.9950238, "tags": {"addr:housenumber": "359", "addr:postcode": "11231", "addr:street": "Smith Street", "name": "Rambillo Creative Agency", "office": "company"}}, {"type": "node", "id": 9369350840, "lat": 40.6798632, "lon": -73.9949714, "tags": {"addr:city": "Brooklyn", "addr:housenumber": "351", "addr:postcode": "11231", "addr:state": "NY", "addr:street": "Smith Street", "amenity": "restaurant", "cuisine": "chinese", "delivery": "yes", "name": "Ting Hua", "nycdoitt:bin": "3007557", "opening_hours": "Mo-Sa 11:00-22:30", "phone": "+1-718-852-6287", "takeaway": "yes"}}, {"type": "node", "id": 9369350841, "lat": 40.67991, "lon": -73.9949418, "tags": {"addr:city": "Brooklyn", "addr:housenumber": "349", "addr:postcode": "11231", "addr:state": "NY", "addr:street": "Smith Street", "amenity": "restaurant", "cuisine": "greek", "diet:gluten_free": "yes", "diet:vegan": "yes", "drink:beer": "yes", "drink:wine": "yes", "name": "Avlee", "opening_hours": "Mo-Su 12:00-21:00", "phone": "+1 718 855 5125", "website": "https://avleegreekkitchen.com"}}, {"type": "node", "id": 10870572691, "lat": 40.6816671, "lon": -73.9963998, "tags": {"amenity": "restaurant", "cuisine": "breakfast", "name": "Breakfast by Salt\u2019s Cure", "website": "https://www.breakfastbysaltscure.com/"}}, {"type": "node", "id": 10965288117, "lat": 40.6789046, "lon": -73.9974077, "tags": {"amenity": "cafe", "name": "Noire", "opening_hours": "Tu-Sa 8:00-16:00; Su 9:00-15:00", "outdoor_seating": "no", "website": "https://www.noireny.com/"}}, {"type": "node", "id": 12043679262, "lat": 40.6812052, "lon": -73.9940616, "tags": {"amenity": "cafe", "drink:coffee": "yes", "drink:wine": "yes", "name": "Liz\u2019s  Book Bar", "opening_date": "Tu-We 10-20, th-Sa 10-22,su 10-20", "opening_hours": "Mo 08:00-14:00; Tu-We 08:00-21:00; Th-Fr 08:00-23:00; Sa 09:00-23:00; Su 09:00-21:00", "outdoor_seating": "sidewalk", "phone": "+1-718-210-2222", "shop": "books", "website": "https://www.lizsbookbar.com/"}}, {"type": "way", "id": 40416347, "nodes": [488992286, 6291950051, 6291950048, 488992288, 4707154218, 4707154215, 6291950055, 6291950052, 488992290, 488992293, 6291950054, 6291950053, 4707154226, 4707154229, 6291950050, 6291950049, 488992286], "tags": {"ele": "17", "gnis:feature_id": "945912", "leisure": "park", "name": "Carroll Park", "opening_hours": "Mo-Su 06:00-22:00", "operator": "New York City Department of Parks and Recreation", "operator:short": "NYC Parks", "operator:type": "public", "operator:wikidata": "Q1894232", "website": "https://www.nycgovparks.org/parks/carroll-park", "wikidata": "Q34814583"}}, {"type": "way", "id": 241845896, "nodes": [2494252653, 2494252699, 2494252707, 2494252800, 2494252882, 2494252806, 2494251982, 2494252653], "tags": {"addr:housenumber": "342", "addr:postcode": "11231", "addr:street": "Smith Street", "amenity": "school", "building": "yes", "height": "10.0", "name": "Hannah Senesh Community Day School", "nycdoitt:bin": "3007793", "phone": "+1 718 858 8663", "religion": "jewish", "website": "https://www.hannahsenesh.org/"}}, {"type": "way", "id": 248157106, "nodes": [2550023283, 2550023294, 2550023262, 2550023254, 2550023233, 2550023201, 4724706333, 4724706332, 2550023195, 2550023190, 2550023177, 2550023165, 5929416343, 2550023193, 8779921537, 8779921539, 8779921538, 8779921536, 2550023147, 2550023160, 2550023205, 2550023230, 2550023180, 2550023192, 8779921540, 2550023367, 2550023318, 2550023309, 2550023283], "tags": {"addr:housenumber": "420", "addr:postcode": "11231", "addr:street": "Union Street", "alt_name": "The Samuel Mills Sprole School", "amenity": "school", "building": "school", "ele": "9", "fax": "+1-718-222-6405", "gnis:feature_id": "961647", "height": "14.0", "name": "PS 32", "nycdoitt:bin": "3007326", "phone": "+1-718-222-6400", "website": "https://www.ps32.org"}}, {"type": "way", "id": 364420789, "nodes": [2494253212, 2494253179, 2494253190, 2494253159, 2494253150, 2494253124, 3684650475, 3684650476, 3684650478, 3684650477, 2494251587, 2494253061, 2494253093, 2494253077, 2494253212], "tags": {"addr:city": "Brooklyn", "addr:housenumber": "330", "addr:postcode": "11231", "addr:state": "NY", "addr:street": "Smith Street", "amenity": "school", "check_date": "2024-09-28", "name": "P.S. 58 The Carroll School", "phone": "+1-718-330-9322"}}]}