{"version": 0.6, "generator": "Overpass API 0.7.62.8 e802775f", "osm3s": {"timestamp_osm_base": "2025-12-01T04:06:14Z", "copyright": "The data included in this document is from www.openstreetmap.org. The data is made available under ODbL."}, "elements": [{"type": "node", "id": 42424937, "lat": 40.8105617, "lon": -73.967223, "tags": {"highway": "motorway_junction", "noref": "yes"}}, {"type": "node", "id": 42428867, "lat": 40.8155246, "lon": -73.9587286}, {"type": "node", "id": 42441403, "lat": 40.8162646, "lon": -73.9615293}, {"type": "node", "id": 42441407, "lat": 40.8162461, "lon": -73.9614782}, {"type": "node", "id": 42441412, "lat": 40.816222, "lon": -73.9614252}, {"type": "node", "id": 42441415, "lat": 40.8161962, "lon": -73.9613877}, {"type": "node", "id": 42441417, "lat": 40.8161681, "lon": -73.9613545}, {"type": "node", "id": 42441419, "lat": 40.8161374, "lon": -73.9613306}, {"type": "node", "id": 42458473, "lat": 40.8036231, "lon": -73.9722212}, {"type": "node", "id": 61249177, "lat": 40.8016951, "lon": -73.9735819}, {"type": "node", "id": 61249178, "lat": 40.8023444, "lon": -73.9731319}, {"type": "node", "id": 61249179, "lat": 40.8045999, "lon": -73.9714929}, {"type": "node", "id": 61249181, "lat": 40.8063472, "lon": -73.9701252}, {"type": "node", "id": 61249182, "lat": 40.8072829, "lon": -73.9694072}, {"type": "node", "id": 61249184, "lat": 40.8086614, "lon": -73.9684344}, {"type": "node", "id": 61257626, "lat": 40.809158, "lon": -73.9681085}, {"type": "node", "id": 122003177, "lat": 40.8198029, "lon": -73.9605236}, {"type": "node", "id": 122003186, "lat": 40.8200144, "lon": -73.9603322}, {"type": "node", "id": 122003190, "lat": 40.8181562, "lon": -73.9619779}, {"type": "node", "id": 122003198, "lat": 40.8186479, "lon": -73.9615417}, {"type": "node", "id": 357621403, "lat": 40.8159758, "lon": -73.955665, "tags": {"addr:city": "New York", "addr:housenumber": "509", "addr:postcode": "10027", "addr:state": "NY", "addr:street": "West 129th Street", "amenity": "school", "ele": "10", "gnis:feature_id": "2083897", "name": "Renaissance Leadership Academy (M286)", "website": "http://www.rlascholars.com/"}}, {"type": "node", "id": 357621407, "lat": 40.8156522, "lon": -73.9558478, "tags": {"addr:city": "New York", "addr:housenumber": "509", "addr:postcode": "10027", "addr:state": "NY", "addr:street": "West 129th Street", "amenity": "school", "ele": "10", "gnis:feature_id": "2083898", "name": "The Urban Assembly Institute for New Technologies (M410)", "website": "https://urbanassembly.org/"}}, {"type": "node", "id": 357624515, "lat": 40.8144703, "lon": -73.9562333, "tags": {"addr:city": "New York", "addr:housenumber": "512-516", "addr:postcode": "10027", "addr:state": "NY", "addr:street": "West 125th Street", "amenity": "school", "ele": "8", "gnis:feature_id": "2099761", "name": "Speyer School (Historic Site)", "note": "Currently owned by St. Mary's Episcopal Church and operated as St. Mary's Center for people with HIV/AIDS.", "website": "http://daytoninmanhattan.blogspot.com/2014/06/the-1902-speyer-school-nos-512-516-w.html", "wheelchair": "limited"}}, {"type": "node", "id": 595436258, "lat": 40.8126128, "lon": -73.9654746}, {"type": "node", "id": 595436261, "lat": 40.8133193, "lon": -73.9648631}, {"type": "node", "id": 625883727, "lat": 40.7961331, "lon": -73.9750609}, {"type": "node", "id": 625884281, "lat": 40.8010765, "lon": -73.9738763}, {"type": "node", "id": 625884289, "lat": 40.8006283, "lon": -73.9741584}, {"type": "node", "id": 625884294, "lat": 40.8000584, "lon": -73.9744791}, {"type": "node", "id": 625884299, "lat": 40.7994631, "lon": -73.9746907}, {"type": "node", "id": 625884302, "lat": 40.799061, "lon": -73.9748409}, {"type": "node", "id": 625884307, "lat": 40.7988785, "lon": -73.9746768}, {"type": "node", "id": 625884311, "lat": 40.798717, "lon": -73.9746432}, {"type": "node", "id": 625884313, "lat": 40.7986643, "lon": -73.9746454}, {"type": "node", "id": 625884326, "lat": 40.7985684, "lon": -73.9746772}, {"type": "node", "id": 625884331, "lat": 40.7981691, "lon": -73.9749158}, {"type": "node", "id": 625884334, "lat": 40.7979393, "lon": -73.9750767}, {"type": "node", "id": 625884337, "lat": 40.7976979, "lon": -73.9752286}, {"type": "node", "id": 625884342, "lat": 40.7974196, "lon": -73.9753795}, {"type": "node", "id": 625884347, "lat": 40.7972133, "lon": -73.9754739}, {"type": "node", "id": 625884352, "lat": 40.7969615, "lon": -73.9755598}, {"type": "node", "id": 625884354, "lat": 40.7967985, "lon": -73.9755914}, {"type": "node", "id": 625884358, "lat": 40.7965823, "lon": -73.9755587}, {"type": "node", "id": 625884364, "lat": 40.7963686, "lon": -73.9754632}, {"type": "node", "id": 625884369, "lat": 40.7962596, "lon": -73.9753297}, {"type": "node", "id": 625884371, "lat": 40.7961818, "lon": -73.9751735}, {"type": "node", "id": 1147215107, "lat": 40.8128553, "lon": -73.9629822}, {"type": "node", "id": 1147215134, "lat": 40.81301, "lon": -73.9628841}, {"type": "node", "id": 1332860727, "lat": 40.8185535, "lon": -73.9612626}, {"type": "node", "id": 1332860732, "lat": 40.8137372, "lon": -73.961956}, {"type": "node", "id": 1332860733, "lat": 40.8199639, "lon": -73.9599823}, {"type": "node", "id": 1332860736, "lat": 40.8180299, "lon": -73.9620853}, {"type": "node", "id": 1332860737, "lat": 40.8135132, "lon": -73.9621818}, {"type": "node", "id": 1332860740, "lat": 40.8203832, "lon": -73.960004}, {"type": "node", "id": 1332860742, "lat": 40.8202683, "lon": -73.9597463}, {"type": "node", "id": 1332860744, "lat": 40.8202967, "lon": -73.9598214}, {"type": "node", "id": 1332860745, "lat": 40.8179462, "lon": -73.9619189}, {"type": "node", "id": 1332860746, "lat": 40.8133753, "lon": -73.9614578}, {"type": "node", "id": 1332860748, "lat": 40.8189148, "lon": -73.9609173}, {"type": "node", "id": 1332863754, "lat": 40.8015627, "lon": -73.9735078}, {"type": "node", "id": 1506346465, "lat": 40.8162462, "lon": -73.9596919}, {"type": "node", "id": 1506346469, "lat": 40.8160659, "lon": -73.9595205}, {"type": "node", "id": 1506346485, "lat": 40.8184739, "lon": -73.9554532}, {"type": "node", "id": 1506346490, "lat": 40.8165098, "lon": -73.9599566}, {"type": "node", "id": 1506346515, "lat": 40.8177245, "lon": -73.957108}, {"type": "node", "id": 1506346521, "lat": 40.8156618, "lon": -73.9590458}, {"type": "node", "id": 1506346522, "lat": 40.8164645, "lon": -73.960413}, {"type": "node", "id": 1705982023, "lat": 40.8162727, "lon": -73.9616846}, {"type": "node", "id": 1705982067, "lat": 40.8162739, "lon": -73.9615857}, {"type": "node", "id": 1705982125, "lat": 40.8162759, "lon": -73.961641}, {"type": "node", "id": 1705982127, "lat": 40.8139876, "lon": -73.9623085}, {"type": "node", "id": 1705982137, "lat": 40.8139095, "lon": -73.9623366}, {"type": "node", "id": 1705982150, "lat": 40.8162661, "lon": -73.9617266}, {"type": "node", "id": 1889208625, "lat": 40.8016081, "lon": -73.9736367}, {"type": "node", "id": 2041819939, "lat": 40.8188804, "lon": -73.9613417}, {"type": "node", "id": 2041876762, "lat": 40.8186124, "lon": -73.9615715}, {"type": "node", "id": 2043220869, "lat": 40.8190591, "lon": -73.961188}, {"type": "node", "id": 2329798527, "lat": 40.7963145, "lon": -73.9754086}, {"type": "node", "id": 2329798535, "lat": 40.7964215, "lon": -73.9754998}, {"type": "node", "id": 2329798542, "lat": 40.7964889, "lon": -73.9755321}, {"type": "node", "id": 2329798582, "lat": 40.7966654, "lon": -73.9755782}, {"type": "node", "id": 2329798598, "lat": 40.7967347, "lon": -73.9755891}, {"type": "node", "id": 2329798608, "lat": 40.796884, "lon": -73.9755788}, {"type": "node", "id": 2329798616, "lat": 40.7970897, "lon": -73.9755208}, {"type": "node", "id": 2329798663, "lat": 40.7983548, "lon": -73.9747827}, {"type": "node", "id": 2329798667, "lat": 40.7984202, "lon": -73.9747434}, {"type": "node", "id": 2329798673, "lat": 40.7984963, "lon": -73.9747051}, {"type": "node", "id": 2329798681, "lat": 40.7987747, "lon": -73.9746457}, {"type": "node", "id": 2329798685, "lat": 40.7988308, "lon": -73.9746595}, {"type": "node", "id": 2329798687, "lat": 40.7989241, "lon": -73.9747029}, {"type": "node", "id": 2329798689, "lat": 40.7989687, "lon": -73.9747411}, {"type": "node", "id": 2329798691, "lat": 40.7990167, "lon": -73.9747883}, {"type": "node", "id": 2479519219, "lat": 40.8181449, "lon": -73.9608188, "tags": {"addr:city": "New York", "addr:housenumber": "700", "addr:postcode": "10027", "addr:street": "West 125th Street", "amenity": "restaurant", "cuisine": "barbecue", "name": "Dinosaur Bar-B-Que", "outdoor_seating": "yes", "phone": "+1 212 694-1777", "website": "https://dinosaurbarbque.com/"}}, {"type": "node", "id": 2768376622, "lat": 40.8186063, "lon": -73.955354}, {"type": "node", "id": 2768376652, "lat": 40.8185355, "lon": -73.9551883}, {"type": "node", "id": 2768376772, "lat": 40.8187416, "lon": -73.9549038}, {"type": "node", "id": 2768376779, "lat": 40.818758, "lon": -73.9550231}, {"type": "node", "id": 2768376808, "lat": 40.8187839, "lon": -73.9550042}, {"type": "node", "id": 2768376871, "lat": 40.8189204, "lon": -73.9547733}, {"type": "node", "id": 2768376876, "lat": 40.8189786, "lon": -73.9547308}, {"type": "node", "id": 2768376878, "lat": 40.8191424, "lon": -73.9550933}, {"type": "node", "id": 2768376880, "lat": 40.819263, "lon": -73.9553773}, {"type": "node", "id": 2768382966, "lat": 40.8172051, "lon": -73.9558743}, {"type": "node", "id": 2768383006, "lat": 40.8173024, "lon": -73.9561106}, {"type": "node", "id": 2768383043, "lat": 40.8173928, "lon": -73.9563268}, {"type": "node", "id": 2768383061, "lat": 40.8174586, "lon": -73.9557276}, {"type": "node", "id": 2768383064, "lat": 40.8174581, "lon": -73.9564871}, {"type": "node", "id": 2768383144, "lat": 40.8179076, "lon": -73.9556061}, {"type": "node", "id": 2768383158, "lat": 40.8186343, "lon": -73.9558403}, {"type": "node", "id": 2768392538, "lat": 40.8152922, "lon": -73.9565437}, {"type": "node", "id": 2768392564, "lat": 40.8153266, "lon": -73.9566042}, {"type": "node", "id": 2768392570, "lat": 40.8153504, "lon": -73.9566193}, {"type": "node", "id": 2768392580, "lat": 40.8153572, "lon": -73.9566312}, {"type": "node", "id": 2768392584, "lat": 40.8153665, "lon": -73.956622}, {"type": "node", "id": 2768392590, "lat": 40.8153867, "lon": -73.9566575}, {"type": "node", "id": 2768392621, "lat": 40.815429, "lon": -73.9563799}, {"type": "node", "id": 2768392639, "lat": 40.8154396, "lon": -73.9563984}, {"type": "node", "id": 2768392641, "lat": 40.8154481, "lon": -73.9567142}, {"type": "node", "id": 2768392657, "lat": 40.815486, "lon": -73.9566087}, {"type": "node", "id": 2768392669, "lat": 40.8155022, "lon": -73.9563078}, {"type": "node", "id": 2768392676, "lat": 40.8155108, "lon": -73.9566523}, {"type": "node", "id": 2768392685, "lat": 40.815519, "lon": -73.9562913}, {"type": "node", "id": 2768392712, "lat": 40.8155458, "lon": -73.9565497}, {"type": "node", "id": 2768392753, "lat": 40.8156036, "lon": -73.9566513}, {"type": "node", "id": 2768392799, "lat": 40.8156806, "lon": -73.9565754}, {"type": "node", "id": 2768418984, "lat": 40.8124157, "lon": -73.9618145, "tags": {"addr:housenumber": "120", "addr:postcode": "10027", "addr:street": "Claremont Avenue", "entrance": "yes"}}, {"type": "node", "id": 2768418995, "lat": 40.8141651, "lon": -73.9597532, "tags": {"addr:city": "New York", "addr:housenumber": "3143", "addr:postcode": "10027", "addr:state": "NY", "addr:street": "Broadway", "amenity": "restaurant", "cuisine": "pizza;italian", "entrance": "yes", "name": "Bar 314", "phone": "+1-646-682-7645", "website": "https://www.bar314nyc.com/"}}, {"type": "node", "id": 2768419004, "lat": 40.8126302, "lon": -73.9616584, "tags": {"addr:housenumber": "130", "addr:postcode": "10027", "addr:street": "Claremont Avenue", "entrance": "main", "wheelchair": "yes"}}, {"type": "node", "id": 2768419009, "lat": 40.8127514, "lon": -73.9615692, "tags": {"addr:housenumber": "132", "addr:postcode": "10027", "addr:street": "Claremont Avenue", "entrance": "yes"}}, {"type": "node", "id": 2768419018, "lat": 40.8128439, "lon": -73.9615017, "tags": {"addr:housenumber": "134", "addr:postcode": "10027", "addr:street": "Claremont Avenue", "entrance": "yes"}}, {"type": "node", "id": 2768419680, "lat": 40.81207, "lon": -73.9613774}, {"type": "node", "id": 2768419683, "lat": 40.8120736, "lon": -73.9612409}, {"type": "node", "id": 2768419689, "lat": 40.8121318, "lon": -73.9615259}, {"type": "node", "id": 2768419697, "lat": 40.8122163, "lon": -73.9611371}, {"type": "node", "id": 2768419700, "lat": 40.8122214, "lon": -73.9617414}, {"type": "node", "id": 2768419711, "lat": 40.81229, "lon": -73.961906}, {"type": "node", "id": 2768419735, "lat": 40.8124982, "lon": -73.9609324}, {"type": "node", "id": 2768419739, "lat": 40.8127055, "lon": -73.9616025}, {"type": "node", "id": 2768419741, "lat": 40.8127525, "lon": -73.9607471}, {"type": "node", "id": 2768419744, "lat": 40.8127988, "lon": -73.9608581}, {"type": "node", "id": 2768419752, "lat": 40.8128533, "lon": -73.9610003}, {"type": "node", "id": 2768419753, "lat": 40.812857, "lon": -73.9609976}, {"type": "node", "id": 2768419759, "lat": 40.8129091, "lon": -73.961134}, {"type": "node", "id": 2768419772, "lat": 40.8129407, "lon": -73.9614313}, {"type": "node", "id": 2768419794, "lat": 40.8129977, "lon": -73.9613462}, {"type": "node", "id": 2768419800, "lat": 40.8130127, "lon": -73.96138}, {"type": "node", "id": 2768451021, "lat": 40.8140293, "lon": -73.959994, "tags": {"addr:housenumber": "121", "addr:postcode": "10027", "addr:street": "La Salle Street", "amenity": "cafe", "cuisine": "coffee_shop", "facebook": "https://www.facebook.com/KuroKumaEspressoandCoffee/", "name": "Kuro Kuma", "phone": "+1-347-577-3177"}}, {"type": "node", "id": 2768451022, "lat": 40.8141743, "lon": -73.9603481, "tags": {"addr:city": "New York", "addr:housenumber": "125", "addr:postcode": "10027", "addr:state": "NY", "addr:street": "La Salle Street", "amenity": "restaurant", "cuisine": "italian", "name": "Pisticci", "phone": "+1219323500", "website": "https://www.pisticcinyc.com/"}}, {"type": "node", "id": 2768451029, "lat": 40.8140333, "lon": -73.9598316, "tags": {"addr:city": "New York", "addr:housenumber": "3141", "addr:postcode": "10027", "addr:state": "NY", "addr:street": "Broadway", "amenity": "restaurant", "cuisine": "dumpling;chinese", "name": "La Salle Dumpling Room", "phone": "+12129610300", "website": "https://www.lasalledumplingroom.com/"}}, {"type": "node", "id": 2768451031, "lat": 40.8150497, "lon": -73.9590898, "tags": {"addr:city": "New York", "addr:housenumber": "3165", "addr:postcode": "10027", "addr:state": "NY", "addr:street": "Broadway", "addr:unit": "3167", "amenity": "cafe", "branch": "124th and Broadway", "brand": "Starbucks", "brand:wikidata": "Q37158", "cuisine": "coffee_shop", "name": "Starbucks", "official_name": "Starbucks Coffee", "phone": "+1 929-243-2549", "ref": "1015404", "takeaway": "yes", "website": "https://www.starbucks.com/store-locator/store/1015404/124th-and-broadway-3165-broadway-3167-new-york-ny-100274101-us"}}, {"type": "node", "id": 2768451043, "lat": 40.815181, "lon": -73.9592847, "tags": {"addr:housenumber": "46", "addr:postcode": "10027", "addr:street": "Tiemann Place", "brand": "Allstate", "brand:wikidata": "Q2645636", "name": "Allstate", "office": "insurance", "phone": "+12128772500"}}, {"type": "node", "id": 2768451052, "lat": 40.8154613, "lon": -73.9600115, "tags": {"addr:city": "New York", "addr:housenumber": "64", "addr:postcode": "10027", "addr:state": "NY", "addr:street": "Tiemann Place", "amenity": "bar", "check_date:currency:XBT": "2025-08-19", "currency:XBT": "yes", "name": "The Expat", "opening_hours": "Mo-Th 11:30-23:00; Fr-Sa 11:30-00:00; Su 11:30-23:00", "payment:lightning": "yes", "payment:lightning_contactless": "no", "payment:onchain": "no", "phone": "+1-646-410-2922", "website": "https://www.theexpat.nyc/"}}, {"type": "node", "id": 2768459581, "lat": 40.8153944, "lon": -73.9588496, "tags": {"addr:housenumber": "3183", "addr:postcode": "10027", "addr:street": "Broadway", "amenity": "restaurant", "diet:vegan": "yes", "name": "Jin Ramen", "opening_hours": "Mo-Su 11:30-15:30,17:00-23:00", "phone": "+16465592862", "website": "https://125.jinramen.com/"}}, {"type": "node", "id": 2768459618, "lat": 40.8155671, "lon": -73.9588268}, {"type": "node", "id": 2768459629, "lat": 40.8156404, "lon": -73.9589964}, {"type": "node", "id": 2768459685, "lat": 40.8158331, "lon": -73.9589237}, {"type": "node", "id": 2768459894, "lat": 40.8168026, "lon": -73.9595211}, {"type": "node", "id": 2768459896, "lat": 40.8166968, "lon": -73.9604957}, {"type": "node", "id": 2768459898, "lat": 40.8170015, "lon": -73.959711}, {"type": "node", "id": 2768459900, "lat": 40.8170032, "lon": -73.9606822}, {"type": "node", "id": 2768459902, "lat": 40.8170283, "lon": -73.9606936}, {"type": "node", "id": 2768459904, "lat": 40.8170552, "lon": -73.9607022}, {"type": "node", "id": 2768459906, "lat": 40.8170803, "lon": -73.9607073}, {"type": "node", "id": 2768459908, "lat": 40.8170936, "lon": -73.9607088}, {"type": "node", "id": 2768459910, "lat": 40.8171201, "lon": -73.9607095}, {"type": "node", "id": 2768459912, "lat": 40.8171334, "lon": -73.9607087}, {"type": "node", "id": 2768459914, "lat": 40.8171597, "lon": -73.9607047}, {"type": "node", "id": 2768459916, "lat": 40.8171728, "lon": -73.9607016}, {"type": "node", "id": 2768459918, "lat": 40.8171985, "lon": -73.9606931}, {"type": "node", "id": 2768459922, "lat": 40.817225, "lon": -73.9602338}, {"type": "node", "id": 2768459926, "lat": 40.8172358, "lon": -73.9606748}, {"type": "node", "id": 2768459928, "lat": 40.8172586, "lon": -73.9603152}, {"type": "node", "id": 2768459930, "lat": 40.8172595, "lon": -73.9606591}, {"type": "node", "id": 2768459932, "lat": 40.817282, "lon": -73.9606406}, {"type": "node", "id": 2768459934, "lat": 40.8173326, "lon": -73.9604944}, {"type": "node", "id": 2768462627, "lat": 40.8174837, "lon": -73.9601761}, {"type": "node", "id": 2768462629, "lat": 40.8174839, "lon": -73.9601681}, {"type": "node", "id": 2768462631, "lat": 40.8174845, "lon": -73.9601799}, {"type": "node", "id": 2768462633, "lat": 40.8174868, "lon": -73.9601611}, {"type": "node", "id": 2768462636, "lat": 40.817489, "lon": -73.9601584}, {"type": "node", "id": 2768462638, "lat": 40.8174945, "lon": -73.9601551}, {"type": "node", "id": 2768462640, "lat": 40.8174976, "lon": -73.9601548}, {"type": "node", "id": 2768462642, "lat": 40.8175726, "lon": -73.9603913}, {"type": "node", "id": 2768462646, "lat": 40.8175793, "lon": -73.9603992}, {"type": "node", "id": 2768462647, "lat": 40.8175832, "lon": -73.9604021}, {"type": "node", "id": 2768462648, "lat": 40.8175917, "lon": -73.9604056}, {"type": "node", "id": 2768462650, "lat": 40.8176007, "lon": -73.9604058}, {"type": "node", "id": 2768462651, "lat": 40.8176093, "lon": -73.9604026}, {"type": "node", "id": 2768462655, "lat": 40.8176879, "lon": -73.9603471}, {"type": "node", "id": 2768462656, "lat": 40.8176892, "lon": -73.9603271}, {"type": "node", "id": 2768462930, "lat": 40.8188368, "lon": -73.9563133}, {"type": "node", "id": 2768462964, "lat": 40.8189901, "lon": -73.9566714}, {"type": "node", "id": 2768463029, "lat": 40.819235, "lon": -73.9592167}, {"type": "node", "id": 3874689571, "lat": 40.8179596, "lon": -73.9619049, "tags": {"crossing": "traffic_signals", "highway": "crossing"}}, {"type": "node", "id": 4013803649, "lat": 40.8154665, "lon": -73.9599209}, {"type": "node", "id": 4013803651, "lat": 40.8148721, "lon": -73.9607609}, {"type": "node", "id": 4013803652, "lat": 40.8146273, "lon": -73.960935}, {"type": "node", "id": 4013803654, "lat": 40.8143232, "lon": -73.9607602}, {"type": "node", "id": 4013803655, "lat": 40.8144452, "lon": -73.961055}, {"type": "node", "id": 4013812362, "lat": 40.8147417, "lon": -73.9604486}, {"type": "node", "id": 4013812363, "lat": 40.8157147, "lon": -73.9605208}, {"type": "node", "id": 4375003606, "lat": 40.8199545, "lon": -73.9604312}, {"type": "node", "id": 4375003607, "lat": 40.8199354, "lon": -73.9604069}, {"type": "node", "id": 4375003610, "lat": 40.8190851, "lon": -73.9611551}, {"type": "node", "id": 4375003620, "lat": 40.8190724, "lon": -73.9611707}, {"type": "node", "id": 5319268727, "lat": 40.8157206, "lon": -73.9554612, "tags": {"amenity": "school", "name": "Junior High School 43"}}, {"type": "node", "id": 6223570356, "lat": 40.8181443, "lon": -73.9600162}, {"type": "node", "id": 6223570357, "lat": 40.8186303, "lon": -73.959657}, {"type": "node", "id": 6223570362, "lat": 40.8179931, "lon": -73.9601314}, {"type": "node", "id": 6223570365, "lat": 40.8169969, "lon": -73.95924}, {"type": "node", "id": 6223570366, "lat": 40.8170091, "lon": -73.9592704}, {"type": "node", "id": 6223570377, "lat": 40.816125, "lon": -73.96109}, {"type": "node", "id": 6223570379, "lat": 40.8160958, "lon": -73.9613056}, {"type": "node", "id": 6244980543, "lat": 40.8124258, "lon": -73.9621442}, {"type": "node", "id": 6244980544, "lat": 40.8132749, "lon": -73.9615304}, {"type": "node", "id": 6244980567, "lat": 40.813618, "lon": -73.962101}, {"type": "node", "id": 6244980568, "lat": 40.8135631, "lon": -73.9621463}, {"type": "node", "id": 6244980569, "lat": 40.8136324, "lon": -73.9620857}, {"type": "node", "id": 6244980570, "lat": 40.8136618, "lon": -73.9620044}, {"type": "node", "id": 6244980571, "lat": 40.8136996, "lon": -73.9619944}, {"type": "node", "id": 6244980576, "lat": 40.8134795, "lon": -73.9622084}, {"type": "node", "id": 6244980578, "lat": 40.813395, "lon": -73.9615036}, {"type": "node", "id": 6244980579, "lat": 40.8134825, "lon": -73.9614396}, {"type": "node", "id": 6244980580, "lat": 40.813507, "lon": -73.9615007}, {"type": "node", "id": 6244980581, "lat": 40.813534, "lon": -73.961481}, {"type": "node", "id": 6244980583, "lat": 40.8126822, "lon": -73.9627787}, {"type": "node", "id": 6883897084, "lat": 40.8006719, "lon": -73.9716707, "tags": {"barrier": "kerb", "kerb": "lowered"}}, {"type": "node", "id": 6918462961, "lat": 40.8120265, "lon": -73.9612746}, {"type": "node", "id": 6918735788, "lat": 40.8121035, "lon": -73.961458, "tags": {"addr:housenumber": "601", "addr:postcode": "10027", "addr:street": "West 122nd Street", "entrance": "yes"}}, {"type": "node", "id": 6991157016, "lat": 40.8173313, "lon": -73.9604982, "tags": {"camera:mount": "wall", "camera:type": "dome", "man_made": "surveillance", "surveillance:type": "camera"}}, {"type": "node", "id": 6991157017, "lat": 40.8173307, "lon": -73.9604898, "tags": {"camera:mount": "wall", "camera:type": "dome", "man_made": "surveillance", "surveillance:type": "camera"}}, {"type": "node", "id": 6991157018, "lat": 40.8172629, "lon": -73.9603254, "tags": {"camera:mount": "wall", "camera:type": "dome", "man_made": "surveillance", "surveillance:type": "camera"}}, {"type": "node", "id": 6996564320, "lat": 40.7997746, "lon": -73.9728448}, {"type": "node", "id": 6996564321, "lat": 40.7968275, "lon": -73.97425}, {"type": "node", "id": 6996564323, "lat": 40.8047133, "lon": -73.9687599}, {"type": "node", "id": 6996564325, "lat": 40.8094211, "lon": -73.9655494}, {"type": "node", "id": 6996564332, "lat": 40.7986637, "lon": -73.9738007}, {"type": "node", "id": 6996564333, "lat": 40.7963372, "lon": -73.9747091}, {"type": "node", "id": 6996564335, "lat": 40.8008888, "lon": -73.9714836}, {"type": "node", "id": 6996564336, "lat": 40.7978691, "lon": -73.974214}, {"type": "node", "id": 6996564337, "lat": 40.8083024, "lon": -73.9666089}, {"type": "node", "id": 6996564346, "lat": 40.7979128, "lon": -73.9742028}, {"type": "node", "id": 6996564349, "lat": 40.8005411, "lon": -73.9718326}, {"type": "node", "id": 6996564350, "lat": 40.7970755, "lon": -73.9741979}, {"type": "node", "id": 6996564360, "lat": 40.7995321, "lon": -73.9730801}, {"type": "node", "id": 6996564361, "lat": 40.796785, "lon": -73.974274}, {"type": "node", "id": 6996564363, "lat": 40.8044908, "lon": -73.9688986}, {"type": "node", "id": 6996564365, "lat": 40.8091369, "lon": -73.9657549}, {"type": "node", "id": 6996564372, "lat": 40.7984937, "lon": -73.9739205}, {"type": "node", "id": 6996564373, "lat": 40.7962456, "lon": -73.9748464}, {"type": "node", "id": 6996564375, "lat": 40.8008304, "lon": -73.971527}, {"type": "node", "id": 6996564376, "lat": 40.797813, "lon": -73.9742277}, {"type": "node", "id": 6996564377, "lat": 40.8081588, "lon": -73.9667425}, {"type": "node", "id": 6996574386, "lat": 40.8002927, "lon": -73.97221}, {"type": "node", "id": 6996574389, "lat": 40.800467, "lon": -73.97194}, {"type": "node", "id": 6996574390, "lat": 40.7970309, "lon": -73.974199}, {"type": "node", "id": 6996574403, "lat": 40.7993009, "lon": -73.9732857}, {"type": "node", "id": 6996574404, "lat": 40.7966801, "lon": -73.9743565}, {"type": "node", "id": 6996574406, "lat": 40.8037723, "lon": -73.9693779}, {"type": "node", "id": 6996574408, "lat": 40.8089754, "lon": -73.9658713, "tags": {"barrier": "kerb", "kerb": "lowered"}}, {"type": "node", "id": 6996574416, "lat": 40.79835, "lon": -73.9740176}, {"type": "node", "id": 6996574417, "lat": 40.7961768, "lon": -73.9749599}, {"type": "node", "id": 6996574419, "lat": 40.800761, "lon": -73.971581}, {"type": "node", "id": 6996574420, "lat": 40.7977649, "lon": -73.9742374}, {"type": "node", "id": 6996574422, "lat": 40.8075375, "lon": -73.9671934}, {"type": "node", "id": 6996574430, "lat": 40.8002287, "lon": -73.9723026}, {"type": "node", "id": 6996574432, "lat": 40.8003538, "lon": -73.9721109}, {"type": "node", "id": 6996574433, "lat": 40.7969617, "lon": -73.9742059}, {"type": "node", "id": 6996574435, "lat": 40.808562, "lon": -73.9663106}, {"type": "node", "id": 6996574445, "lat": 40.7990803, "lon": -73.9734644}, {"type": "node", "id": 6996574446, "lat": 40.7965765, "lon": -73.9744485}, {"type": "node", "id": 6996574448, "lat": 40.8025324, "lon": -73.9702802}, {"type": "node", "id": 6996574450, "lat": 40.8088594, "lon": -73.9659707}, {"type": "node", "id": 6996574457, "lat": 40.7981707, "lon": -73.974113}, {"type": "node", "id": 6996574458, "lat": 40.7972973, "lon": -73.9742188}, {"type": "node", "id": 6996574460, "lat": 40.8007061, "lon": -73.9716314}, {"type": "node", "id": 6996574461, "lat": 40.797672, "lon": -73.9742475}, {"type": "node", "id": 6996574463, "lat": 40.8070173, "lon": -73.96753}, {"type": "node", "id": 6996574472, "lat": 40.800023, "lon": -73.972567}, {"type": "node", "id": 6996574474, "lat": 40.8001429, "lon": -73.9724197}, {"type": "node", "id": 6996574475, "lat": 40.7969009, "lon": -73.974221}, {"type": "node", "id": 6996574477, "lat": 40.8064166, "lon": -73.967865}, {"type": "node", "id": 6996574486, "lat": 40.7988577, "lon": -73.9736562}, {"type": "node", "id": 6996574487, "lat": 40.7964887, "lon": -73.974534}, {"type": "node", "id": 6996574489, "lat": 40.8011697, "lon": -73.9712803, "tags": {"barrier": "kerb"}}, {"type": "node", "id": 6996574490, "lat": 40.8084268, "lon": -73.966472}, {"type": "node", "id": 6996574497, "lat": 40.7980528, "lon": -73.9741589}, {"type": "node", "id": 6996574500, "lat": 40.8006433, "lon": -73.9717035}, {"type": "node", "id": 6996574501, "lat": 40.7975428, "lon": -73.9742488}, {"type": "node", "id": 6996574503, "lat": 40.8060277, "lon": -73.9680742}, {"type": "node", "id": 6996574515, "lat": 40.7999638, "lon": -73.9726305}, {"type": "node", "id": 6996574516, "lat": 40.7968664, "lon": -73.9742339}, {"type": "node", "id": 6996574518, "lat": 40.8051414, "lon": -73.9685317}, {"type": "node", "id": 6996574520, "lat": 40.8108606, "lon": -73.964492, "tags": {"barrier": "kerb", "kerb": "lowered", "tactile_paving": "yes"}}, {"type": "node", "id": 6996574528, "lat": 40.7987766, "lon": -73.9737259}, {"type": "node", "id": 6996574529, "lat": 40.7964084, "lon": -73.9746198}, {"type": "node", "id": 6996574531, "lat": 40.8010361, "lon": -73.971377, "tags": {"barrier": "kerb"}}, {"type": "node", "id": 6996574532, "lat": 40.798273, "lon": -73.9740614}, {"type": "node", "id": 6996574533, "lat": 40.8083496, "lon": -73.9665613}, {"type": "node", "id": 6996574541, "lat": 40.7979827, "lon": -73.974181}, {"type": "node", "id": 6996574544, "lat": 40.8005931, "lon": -73.9717598}, {"type": "node", "id": 6996574545, "lat": 40.7971243, "lon": -73.9742014}, {"type": "node", "id": 6996574547, "lat": 40.805747, "lon": -73.9682183}, {"type": "node", "id": 7184120295, "lat": 40.8190429, "lon": -73.9567948}, {"type": "node", "id": 7616688921, "lat": 40.8166294, "lon": -73.9604668}, {"type": "node", "id": 7616688923, "lat": 40.815956, "lon": -73.9606076}, {"type": "node", "id": 7668264638, "lat": 40.8171879, "lon": -73.9589355}, {"type": "node", "id": 7668264639, "lat": 40.816947, "lon": -73.9591103}, {"type": "node", "id": 7668264640, "lat": 40.8168163, "lon": -73.9587958}, {"type": "node", "id": 7668264641, "lat": 40.8170573, "lon": -73.958621}, {"type": "node", "id": 7732551647, "lat": 40.8113466, "lon": -73.9641392}, {"type": "node", "id": 7732551648, "lat": 40.8114776, "lon": -73.9640666}, {"type": "node", "id": 7732551649, "lat": 40.8114307, "lon": -73.9639582}, {"type": "node", "id": 7732551650, "lat": 40.8114228, "lon": -73.9639553}, {"type": "node", "id": 7732551651, "lat": 40.8114205, "lon": -73.9639477}, {"type": "node", "id": 7732551652, "lat": 40.8114247, "lon": -73.9639376}, {"type": "node", "id": 7732551653, "lat": 40.812254, "lon": -73.9633271}, {"type": "node", "id": 7732551654, "lat": 40.8122743, "lon": -73.9633551}, {"type": "node", "id": 7732551655, "lat": 40.81228, "lon": -73.963462}, {"type": "node", "id": 7732551656, "lat": 40.8123518, "lon": -73.9633566}, {"type": "node", "id": 7732551657, "lat": 40.8124221, "lon": -73.9632798}, {"type": "node", "id": 7732551658, "lat": 40.8124519, "lon": -73.9632514}, {"type": "node", "id": 7732551659, "lat": 40.8125564, "lon": -73.963164}, {"type": "node", "id": 7732551661, "lat": 40.8134542, "lon": -73.9625616}, {"type": "node", "id": 7732551662, "lat": 40.8136689, "lon": -73.9624172}, {"type": "node", "id": 7732551663, "lat": 40.8139748, "lon": -73.9619872}, {"type": "node", "id": 7732551664, "lat": 40.8139562, "lon": -73.9620134}, {"type": "node", "id": 7732551665, "lat": 40.8139573, "lon": -73.9620565}, {"type": "node", "id": 7732551666, "lat": 40.8140148, "lon": -73.9622978}, {"type": "node", "id": 7732571797, "lat": 40.8087133, "lon": -73.9661271}, {"type": "node", "id": 7732571798, "lat": 40.8087914, "lon": -73.9660377, "tags": {"barrier": "kerb", "kerb": "lowered"}}, {"type": "node", "id": 7732571799, "lat": 40.8098964, "lon": -73.9652099}, {"type": "node", "id": 7732571800, "lat": 40.8101005, "lon": -73.9650591}, {"type": "node", "id": 7732571802, "lat": 40.8092325, "lon": -73.9656841}, {"type": "node", "id": 7732571820, "lat": 40.8160206, "lon": -73.9612831}, {"type": "node", "id": 7732571825, "lat": 40.8160562, "lon": -73.9612913}, {"type": "node", "id": 7732571886, "lat": 40.8175566, "lon": -73.9611354}, {"type": "node", "id": 7732571887, "lat": 40.8175624, "lon": -73.961102}, {"type": "node", "id": 7732571905, "lat": 40.8176069, "lon": -73.959823}, {"type": "node", "id": 7732571906, "lat": 40.8171552, "lon": -73.9593974}, {"type": "node", "id": 7732571907, "lat": 40.8179651, "lon": -73.9601528}, {"type": "node", "id": 7732571909, "lat": 40.817044, "lon": -73.9597951}, {"type": "node", "id": 7732571910, "lat": 40.8170098, "lon": -73.9597237}, {"type": "node", "id": 7732571911, "lat": 40.8167371, "lon": -73.9590102}, {"type": "node", "id": 7732571912, "lat": 40.816866, "lon": -73.9589155}, {"type": "node", "id": 7732571913, "lat": 40.8165774, "lon": -73.9593159}, {"type": "node", "id": 7732571916, "lat": 40.8198687, "lon": -73.9587549}, {"type": "node", "id": 7732571918, "lat": 40.8175715, "lon": -73.9610682}, {"type": "node", "id": 7732571919, "lat": 40.8175861, "lon": -73.9610387}, {"type": "node", "id": 7732571920, "lat": 40.8175876, "lon": -73.9610286}, {"type": "node", "id": 7732571921, "lat": 40.8175822, "lon": -73.9610052}, {"type": "node", "id": 7732571922, "lat": 40.8175638, "lon": -73.9609594}, {"type": "node", "id": 7732571923, "lat": 40.8175384, "lon": -73.9609096}, {"type": "node", "id": 7732571924, "lat": 40.8175176, "lon": -73.9608751}, {"type": "node", "id": 7732571925, "lat": 40.8175022, "lon": -73.9608639}, {"type": "node", "id": 7732571926, "lat": 40.8168223, "lon": -73.9613609}, {"type": "node", "id": 7732571927, "lat": 40.8167321, "lon": -73.9614356}, {"type": "node", "id": 7732571928, "lat": 40.8166738, "lon": -73.9614963}, {"type": "node", "id": 7732571929, "lat": 40.8166208, "lon": -73.9615547}, {"type": "node", "id": 7732571930, "lat": 40.8165607, "lon": -73.9616364}, {"type": "node", "id": 7732571931, "lat": 40.8165169, "lon": -73.9617125}, {"type": "node", "id": 7732571932, "lat": 40.8165538, "lon": -73.9618508}, {"type": "node", "id": 7732571933, "lat": 40.8164538, "lon": -73.9618955}, {"type": "node", "id": 7732571934, "lat": 40.8136098, "lon": -73.9624528}, {"type": "node", "id": 7732571935, "lat": 40.813744, "lon": -73.9623918}, {"type": "node", "id": 7732571937, "lat": 40.8157881, "lon": -73.963005}, {"type": "node", "id": 7732571939, "lat": 40.8140512, "lon": -73.9619276}, {"type": "node", "id": 7732571940, "lat": 40.8141994, "lon": -73.9618199}, {"type": "node", "id": 7732571944, "lat": 40.8122714, "lon": -73.9633393}, {"type": "node", "id": 7732571945, "lat": 40.8122608, "lon": -73.9633307}, {"type": "node", "id": 7732571953, "lat": 40.8122374, "lon": -73.9634297}, {"type": "node", "id": 7732571954, "lat": 40.8122567, "lon": -73.9633898}, {"type": "node", "id": 7732571955, "lat": 40.8134159, "lon": -73.9625887}, {"type": "node", "id": 7732571956, "lat": 40.8124749, "lon": -73.9632302}, {"type": "node", "id": 7732571957, "lat": 40.8123049, "lon": -73.9634209}, {"type": "node", "id": 7732571958, "lat": 40.8123242, "lon": -73.9633989}, {"type": "node", "id": 7732571959, "lat": 40.8123831, "lon": -73.963319}, {"type": "node", "id": 7732571960, "lat": 40.8162387, "lon": -73.9605465}, {"type": "node", "id": 7732571961, "lat": 40.8164308, "lon": -73.9605663}, {"type": "node", "id": 7732571962, "lat": 40.8167834, "lon": -73.9607353}, {"type": "node", "id": 7732571963, "lat": 40.8168614, "lon": -73.9607863}, {"type": "node", "id": 7732571964, "lat": 40.816691, "lon": -73.9611105}, {"type": "node", "id": 7732571965, "lat": 40.8166742, "lon": -73.9610815}, {"type": "node", "id": 7732571966, "lat": 40.81655, "lon": -73.9611637}, {"type": "node", "id": 7732571967, "lat": 40.8163067, "lon": -73.9611325}, {"type": "node", "id": 7732571968, "lat": 40.8161913, "lon": -73.9611029}, {"type": "node", "id": 7732571969, "lat": 40.8160353, "lon": -73.9610721}, {"type": "node", "id": 7732571979, "lat": 40.8138354, "lon": -73.9623618}, {"type": "node", "id": 7732571993, "lat": 40.8144175, "lon": -73.9616612}, {"type": "node", "id": 7732571994, "lat": 40.8147899, "lon": -73.9613928}, {"type": "node", "id": 7732572000, "lat": 40.8166885, "lon": -73.960674}, {"type": "node", "id": 7732572001, "lat": 40.8165788, "lon": -73.9606111}, {"type": "node", "id": 7732572002, "lat": 40.8165136, "lon": -73.9605841}, {"type": "node", "id": 7732572003, "lat": 40.8163415, "lon": -73.9605532}, {"type": "node", "id": 7732572004, "lat": 40.8154961, "lon": -73.9608684}, {"type": "node", "id": 7732572005, "lat": 40.815791, "lon": -73.9606815}, {"type": "node", "id": 7732572006, "lat": 40.815682, "lon": -73.9607411}, {"type": "node", "id": 7732572007, "lat": 40.8155817, "lon": -73.9608131}, {"type": "node", "id": 7732572009, "lat": 40.8160582, "lon": -73.9605791}, {"type": "node", "id": 7732572010, "lat": 40.8162708, "lon": -73.9605453}, {"type": "node", "id": 7732572011, "lat": 40.8161764, "lon": -73.9605544}, {"type": "node", "id": 7732572012, "lat": 40.8161369, "lon": -73.9605586}, {"type": "node", "id": 7732572013, "lat": 40.816947, "lon": -73.9608261}, {"type": "node", "id": 7732572014, "lat": 40.8170381, "lon": -73.9608519}, {"type": "node", "id": 7732572015, "lat": 40.8164395, "lon": -73.9611699}, {"type": "node", "id": 7732572016, "lat": 40.8163774, "lon": -73.9611565}, {"type": "node", "id": 7732572017, "lat": 40.8165171, "lon": -73.9611709}, {"type": "node", "id": 7732572018, "lat": 40.8164682, "lon": -73.9611722}, {"type": "node", "id": 7732572019, "lat": 40.8170425, "lon": -73.9608685}, {"type": "node", "id": 7732572020, "lat": 40.8168648, "lon": -73.9609892}, {"type": "node", "id": 7732572021, "lat": 40.8162566, "lon": -73.9617622}, {"type": "node", "id": 7732653967, "lat": 40.8163624, "lon": -73.9581191}, {"type": "node", "id": 7732653968, "lat": 40.8157591, "lon": -73.9585656}, {"type": "node", "id": 7732654806, "lat": 40.8146712, "lon": -73.9637849}, {"type": "node", "id": 7732654807, "lat": 40.814209, "lon": -73.9641013}, {"type": "node", "id": 7732654808, "lat": 40.8135831, "lon": -73.9645761}, {"type": "node", "id": 7732654809, "lat": 40.8139197, "lon": -73.9643025}, {"type": "node", "id": 7732654813, "lat": 40.8172536, "lon": -73.9616025}, {"type": "node", "id": 7732654814, "lat": 40.8173853, "lon": -73.9614317}, {"type": "node", "id": 7732654821, "lat": 40.8170826, "lon": -73.9617919}, {"type": "node", "id": 7732654822, "lat": 40.8169307, "lon": -73.9619618}, {"type": "node", "id": 7732654823, "lat": 40.8164346, "lon": -73.9624754}, {"type": "node", "id": 7732654824, "lat": 40.8168006, "lon": -73.9620963}, {"type": "node", "id": 7732654825, "lat": 40.8159317, "lon": -73.962901}, {"type": "node", "id": 7732654826, "lat": 40.8162658, "lon": -73.9626362}, {"type": "node", "id": 7732654830, "lat": 40.8165796, "lon": -73.9623388}, {"type": "node", "id": 7732654831, "lat": 40.816105, "lon": -73.9627705}, {"type": "node", "id": 7732654832, "lat": 40.8163285, "lon": -73.9625791}, {"type": "node", "id": 7732654833, "lat": 40.8173388, "lon": -73.961501}, {"type": "node", "id": 7732654834, "lat": 40.8175116, "lon": -73.9612334}, {"type": "node", "id": 7732654835, "lat": 40.8174582, "lon": -73.961322}, {"type": "node", "id": 7785782253, "lat": 40.8113214, "lon": -73.9641561}, {"type": "node", "id": 7785782265, "lat": 40.8058977, "lon": -73.968141}, {"type": "node", "id": 7785881389, "lat": 40.8083302, "lon": -73.966579}, {"type": "node", "id": 7785881399, "lat": 40.8082407, "lon": -73.9666697}, {"type": "node", "id": 7785881400, "lat": 40.802468, "lon": -73.9703275}, {"type": "node", "id": 7785881409, "lat": 40.806355, "lon": -73.9678981}, {"type": "node", "id": 7908594136, "lat": 40.8102204, "lon": -73.9674444}, {"type": "node", "id": 7908594142, "lat": 40.8104025, "lon": -73.9673276}, {"type": "node", "id": 7908637443, "lat": 40.8084961, "lon": -73.9685451}, {"type": "node", "id": 7908637444, "lat": 40.807448, "lon": -73.9692847}, {"type": "node", "id": 7908637446, "lat": 40.8088247, "lon": -73.9683259}, {"type": "node", "id": 7908637447, "lat": 40.807603, "lon": -73.9691739}, {"type": "node", "id": 7908637449, "lat": 40.808985, "lon": -73.9682222}, {"type": "node", "id": 7908637450, "lat": 40.807764, "lon": -73.9690573}, {"type": "node", "id": 7908637459, "lat": 40.8114331, "lon": -73.9664764}, {"type": "node", "id": 7908637462, "lat": 40.80801, "lon": -73.96888}, {"type": "node", "id": 7908637465, "lat": 40.8081712, "lon": -73.9687668}, {"type": "node", "id": 7908637468, "lat": 40.8083335, "lon": -73.9686553}, {"type": "node", "id": 7908637469, "lat": 40.8071195, "lon": -73.969531}, {"type": "node", "id": 7908669907, "lat": 40.8055248, "lon": -73.9707711}, {"type": "node", "id": 7908669908, "lat": 40.8033025, "lon": -73.9724512}, {"type": "node", "id": 7908669909, "lat": 40.8041087, "lon": -73.9718653}, {"type": "node", "id": 7908669911, "lat": 40.8057018, "lon": -73.9706318}, {"type": "node", "id": 7908669912, "lat": 40.8031247, "lon": -73.9725778}, {"type": "node", "id": 7908669913, "lat": 40.8037655, "lon": -73.9721185}, {"type": "node", "id": 7908669915, "lat": 40.8058525, "lon": -73.9705157}, {"type": "node", "id": 7908669916, "lat": 40.8029658, "lon": -73.9726931}, {"type": "node", "id": 7908669917, "lat": 40.8042693, "lon": -73.9717441}, {"type": "node", "id": 7908669919, "lat": 40.8059965, "lon": -73.9704032}, {"type": "node", "id": 7908669920, "lat": 40.8028086, "lon": -73.9728057}, {"type": "node", "id": 7908669921, "lat": 40.8044437, "lon": -73.9716114}, {"type": "node", "id": 7908669922, "lat": 40.8061625, "lon": -73.9702701}, {"type": "node", "id": 7908669923, "lat": 40.8026473, "lon": -73.9729207}, {"type": "node", "id": 7908669924, "lat": 40.8047495, "lon": -73.9713776}, {"type": "node", "id": 7908669925, "lat": 40.8064855, "lon": -73.9700184}, {"type": "node", "id": 7908669926, "lat": 40.8025017, "lon": -73.9730248}, {"type": "node", "id": 7908669927, "lat": 40.804906, "lon": -73.9712585}, {"type": "node", "id": 7908669928, "lat": 40.8066458, "lon": -73.9698948}, {"type": "node", "id": 7908669929, "lat": 40.8021832, "lon": -73.9732459}, {"type": "node", "id": 7908669930, "lat": 40.8050658, "lon": -73.9711329}, {"type": "node", "id": 7908669931, "lat": 40.8068017, "lon": -73.969772}, {"type": "node", "id": 7908669932, "lat": 40.8020083, "lon": -73.9733681}, {"type": "node", "id": 7908669933, "lat": 40.8052144, "lon": -73.9710166}, {"type": "node", "id": 7908669934, "lat": 40.8069577, "lon": -73.9696529}, {"type": "node", "id": 7908669935, "lat": 40.8018572, "lon": -73.9734719}, {"type": "node", "id": 7908669936, "lat": 40.8053784, "lon": -73.9708867}, {"type": "node", "id": 7908669937, "lat": 40.8034662, "lon": -73.9723351}, {"type": "node", "id": 7908669938, "lat": 40.803944, "lon": -73.9719866}, {"type": "node", "id": 8424054821, "lat": 40.8146576, "lon": -73.9593713, "tags": {"addr:city": "New York", "addr:housenumber": "3155", "addr:postcode": "10027", "addr:state": "NY", "addr:street": "Broadway", "amenity": "bar", "contact:facebook": "TheCraftsmanNYC", "contact:instagram": "thecraftsmannyc", "contact:twitter": "TheCraftsmanNYC", "cuisine": "juice;coffee_shop;tea;sandwich;beer;wine", "dog": "yes", "email": "info@thecraftsmannyc.com", "name": "The Craftsman", "note": "Has espresso machine and offers coffee, yet, a full bar.", "opening_hours": "Mo-Tu 15:00-02:00, We 12:00-02:00, Th-Su 12:00-04:00", "phone": "+1-212-933-0602", "website": "http://www.thecraftsmannyc.com/"}}, {"type": "node", "id": 9459106395, "lat": 40.8182579, "lon": -73.9588927}, {"type": "node", "id": 9459106396, "lat": 40.8181736, "lon": -73.9587087}, {"type": "node", "id": 9459106397, "lat": 40.8177865, "lon": -73.958884}, {"type": "node", "id": 9459106398, "lat": 40.8177814, "lon": -73.9589867}, {"type": "node", "id": 9459106406, "lat": 40.8178161, "lon": -73.9587888}, {"type": "node", "id": 9459106407, "lat": 40.8178672, "lon": -73.958711}, {"type": "node", "id": 9459106408, "lat": 40.8182278, "lon": -73.958791}, {"type": "node", "id": 9459106409, "lat": 40.8181015, "lon": -73.9586553}, {"type": "node", "id": 9459106410, "lat": 40.8180201, "lon": -73.9586373}, {"type": "node", "id": 9459106411, "lat": 40.8179388, "lon": -73.9586566}, {"type": "node", "id": 9459106412, "lat": 40.8178014, "lon": -73.9590863}, {"type": "node", "id": 9459106413, "lat": 40.8178443, "lon": -73.9591722}, {"type": "node", "id": 9459106414, "lat": 40.8179057, "lon": -73.9592355}, {"type": "node", "id": 9459106415, "lat": 40.8179792, "lon": -73.9592697}, {"type": "node", "id": 9459106416, "lat": 40.8180571, "lon": -73.9592711}, {"type": "node", "id": 9459114017, "lat": 40.8181313, "lon": -73.9592397}, {"type": "node", "id": 9459114018, "lat": 40.818194, "lon": -73.9591786}, {"type": "node", "id": 9459114019, "lat": 40.8182387, "lon": -73.9590943}, {"type": "node", "id": 9459114020, "lat": 40.8182608, "lon": -73.9589955}, {"type": "node", "id": 9509211693, "lat": 40.8149795, "lon": -73.9591551, "tags": {"addr:city": "New York", "addr:housenumber": "3163", "addr:postcode": "10027", "addr:state": "NY", "addr:street": "Broadway", "amenity": "restaurant", "cuisine": "juice;smoothie", "facebook": "https://www.facebook.com/Oasis-Jimma-juice-bar-1540017972895806/", "name": "Oasis Jimma Juice Bar", "phone": "+12019364432"}}, {"type": "node", "id": 9509211694, "lat": 40.814926, "lon": -73.9591949, "tags": {"addr:city": "New York", "addr:housenumber": "3163", "addr:postcode": "10027", "addr:state": "NY", "addr:street": "Broadway", "amenity": "restaurant", "cuisine": "chinese", "name": "Peking Garden", "phone": "+12128653600"}}, {"type": "node", "id": 9509211697, "lat": 40.8147613, "lon": -73.9593075, "tags": {"addr:city": "New York", "addr:housenumber": "3157", "addr:postcode": "10027", "addr:state": "NY", "addr:street": "Broadway", "amenity": "bar", "name": "Toast", "phone": "+1212-662-1144", "website": "https://toastnyc.com/"}}, {"type": "node", "id": 9509211698, "lat": 40.8144899, "lon": -73.9595004, "tags": {"addr:city": "New York", "addr:housenumber": "3151", "addr:postcode": "10027", "addr:state": "NY", "addr:street": "Broadway", "amenity": "restaurant", "cuisine": "falafel;middle_eastern", "name": "Falafel on Broadway", "phone": "+12122222300", "website": "https://falafelonbroadwaynyctogo.com/"}}, {"type": "node", "id": 9509211699, "lat": 40.8144371, "lon": -73.959541, "tags": {"addr:city": "New York", "addr:housenumber": "3151", "addr:postcode": "10027", "addr:state": "NY", "addr:street": "Broadway", "amenity": "restaurant", "cuisine": "mexican", "name": "El Porton"}}, {"type": "node", "id": 9509211701, "lat": 40.8142658, "lon": -73.9596702, "tags": {"addr:city": "New York", "addr:housenumber": "3147", "addr:postcode": "10027", "addr:state": "NY", "addr:street": "Broadway", "amenity": "restaurant", "cuisine": "seafood", "name": "Cap't Loui", "phone": "+1212-222-6608", "website": "https://captloui.com/"}}, {"type": "node", "id": 9509315843, "lat": 40.8138324, "lon": -73.9602013, "tags": {"addr:city": "New York", "addr:housenumber": "122", "addr:postcode": "10027", "addr:state": "NY", "addr:street": "La Salle Street", "amenity": "restaurant", "cuisine": "dessert", "name": "Frozen Love"}}, {"type": "node", "id": 9633471059, "lat": 40.8167277, "lon": -73.9585099, "tags": {"addr:city": "New York", "addr:housenumber": "611", "addr:postcode": "10027", "addr:state": "NY", "addr:street": "West 129th Street", "amenity": "cafe", "contact:email": "info@dearmamacoffee.com", "internet_access": "wlan", "internet_access:fee": "no", "name": "Dear Mama", "opening_hours": "Mo-Su 07:00-22:00", "outdoor_seating": "yes", "phone": "+1-716-727-2854", "website": "https://www.dearmamacoffee.com/"}}, {"type": "node", "id": 9646952138, "lat": 40.8169614, "lon": -73.9578631, "tags": {"addr:city": "New York", "addr:housenumber": "3229", "addr:postcode": "10027", "addr:state": "NY", "addr:street": "Broadway", "amenity": "restaurant", "cuisine": "spanish", "name": "Olivia - Spanish Tapas", "opening_hours": "Mo-Sa 08:00-22:00", "website": "https://www.olivatapas.com/"}}, {"type": "node", "id": 10049497815, "lat": 40.8157319, "lon": -73.958993}, {"type": "node", "id": 10050049397, "lat": 40.8156034, "lon": -73.9589146}, {"type": "node", "id": 10054927486, "lat": 40.8145016, "lon": -73.9606312}, {"type": "node", "id": 10054927487, "lat": 40.8143062, "lon": -73.9611554}, {"type": "node", "id": 10054927488, "lat": 40.8144282, "lon": -73.9614501}, {"type": "node", "id": 10054994715, "lat": 40.8128401, "lon": -73.9629514}, {"type": "node", "id": 10055027117, "lat": 40.812937, "lon": -73.9629304}, {"type": "node", "id": 10681840091, "lat": 40.8131932, "lon": -73.9612586}, {"type": "node", "id": 10681840092, "lat": 40.8130559, "lon": -73.9609233}, {"type": "node", "id": 10681840093, "lat": 40.8133097, "lon": -73.9607676}, {"type": "node", "id": 10681840094, "lat": 40.8134387, "lon": -73.9610838}, {"type": "node", "id": 10681841386, "lat": 40.8139026, "lon": -73.9603209}, {"type": "node", "id": 10681841387, "lat": 40.8138776, "lon": -73.9602614}, {"type": "node", "id": 10681841388, "lat": 40.8136696, "lon": -73.9604148}, {"type": "node", "id": 10681841389, "lat": 40.8136934, "lon": -73.9604732}, {"type": "node", "id": 10681854397, "lat": 40.8171885, "lon": -73.9606489}, {"type": "node", "id": 10681854398, "lat": 40.81726, "lon": -73.9604233}, {"type": "node", "id": 10681854399, "lat": 40.8167029, "lon": -73.960088}, {"type": "node", "id": 10681854400, "lat": 40.8166286, "lon": -73.9603101}, {"type": "node", "id": 10798119179, "lat": 40.8137808, "lon": -73.9557256, "tags": {"addr:city": "New York", "addr:housenumber": "1351", "addr:postcode": "10027", "addr:state": "NY", "addr:street": "Amsterdam Avenue", "amenity": "cafe", "branch": "West Harlem", "cuisine": "coffee_shop", "internet_access": "yes", "name": "Plowshares Coffee Roasters", "opening_hours": "Mo-Fr 08:00-15:00; Sa-Su 09:00-16:00", "outdoor_seating": "no", "phone": "+1 212 222 0280", "start_date": "2019", "website": "https://www.plowsharescoffee.com/"}}, {"type": "node", "id": 11772961764, "lat": 40.8136792, "lon": -73.9600959, "tags": {"addr:city": "New York", "addr:housenumber": "3135", "addr:postcode": "10027", "addr:state": "NY", "addr:street": "Broadway", "addr:unit": "A", "name": "Sovereign Associates", "office": "estate_agent", "phone": "+1-646-559-9001", "website": "https://sovereignrealestate.com"}}, {"type": "node", "id": 11772965584, "lat": 40.8151875, "lon": -73.9581244, "tags": {"addr:city": "New York", "addr:housenumber": "576", "addr:postcode": "10027", "addr:state": "NY", "addr:street": "West 125th Street", "amenity": "restaurant", "cuisine": "caribbean", "name": "Island Grill", "phone": "+1-917-965-2027"}}, {"type": "node", "id": 11883021317, "lat": 40.7988107, "lon": -73.9736957, "tags": {"barrier": "kerb", "kerb": "lowered"}}, {"type": "node", "id": 11912203232, "lat": 40.8155542, "lon": -73.9562527}, {"type": "node", "id": 11912203233, "lat": 40.8151284, "lon": -73.9552429}, {"type": "node", "id": 11912203234, "lat": 40.8151716, "lon": -73.9560187}, {"type": "node", "id": 11912203235, "lat": 40.8150148, "lon": -73.9563251}, {"type": "node", "id": 11912203236, "lat": 40.8152776, "lon": -73.9565525}, {"type": "node", "id": 11912203237, "lat": 40.8154334, "lon": -73.9563982}, {"type": "node", "id": 11912203238, "lat": 40.8154253, "lon": -73.9563781}, {"type": "node", "id": 11912203239, "lat": 40.8150825, "lon": -73.955245}, {"type": "node", "id": 11912203240, "lat": 40.8150876, "lon": -73.9558265}, {"type": "node", "id": 11912203241, "lat": 40.814973, "lon": -73.9557309}, {"type": "node", "id": 11912203242, "lat": 40.8144918, "lon": -73.9558775}, {"type": "node", "id": 11912203243, "lat": 40.8147775, "lon": -73.9561149}, {"type": "node", "id": 11912203244, "lat": 40.8146651, "lon": -73.9555342}, {"type": "node", "id": 11934374393, "lat": 40.8177839, "lon": -73.9589355}, {"type": "node", "id": 11951420261, "lat": 40.8096557, "lon": -73.9653863}, {"type": "node", "id": 11951420262, "lat": 40.8095594, "lon": -73.9654514}, {"type": "node", "id": 11951420263, "lat": 40.8090003, "lon": -73.9658559}, {"type": "node", "id": 11951420264, "lat": 40.8084929, "lon": -73.966395}, {"type": "node", "id": 11951420265, "lat": 40.8077592, "lon": -73.9670463, "tags": {"barrier": "kerb", "kerb": "lowered"}}, {"type": "node", "id": 11951420266, "lat": 40.8073943, "lon": -73.9672858}, {"type": "node", "id": 11951420267, "lat": 40.8079437, "lon": -73.9669156}, {"type": "node", "id": 11951420268, "lat": 40.8080756, "lon": -73.9668128}, {"type": "node", "id": 11951438169, "lat": 40.8089275, "lon": -73.9659083}, {"type": "node", "id": 11953237336, "lat": 40.8136368, "lon": -73.96205}, {"type": "node", "id": 11953237337, "lat": 40.8136381, "lon": -73.9620674}, {"type": "node", "id": 11953237338, "lat": 40.8136825, "lon": -73.9620043}, {"type": "node", "id": 11953237355, "lat": 40.8127009, "lon": -73.9627733}, {"type": "node", "id": 11953254632, "lat": 40.8126976, "lon": -73.9627757}, {"type": "node", "id": 11953254633, "lat": 40.8126659, "lon": -73.962768}, {"type": "node", "id": 11953254634, "lat": 40.8124684, "lon": -73.9623004}, {"type": "node", "id": 11953254635, "lat": 40.8124701, "lon": -73.962244}, {"type": "node", "id": 11963757024, "lat": 40.8158938, "lon": -73.9606295}, {"type": "node", "id": 11963757025, "lat": 40.8158202, "lon": -73.9606667, "tags": {"barrier": "kerb", "kerb": "lowered", "tactile_paving": "yes"}}, {"type": "node", "id": 11963757026, "lat": 40.816034, "lon": -73.9605858, "tags": {"barrier": "kerb", "kerb": "lowered", "tactile_paving": "yes"}}, {"type": "node", "id": 11963757033, "lat": 40.8160768, "lon": -73.9612988}, {"type": "node", "id": 11964082493, "lat": 40.8126198, "lon": -73.9626584}, {"type": "node", "id": 11964082494, "lat": 40.8125968, "lon": -73.9626041}, {"type": "node", "id": 12001962362, "lat": 40.8151071, "lon": -73.9583657, "tags": {"addr:city": "New York", "addr:housenumber": "3180", "addr:postcode": "10027", "addr:state": "NY", "addr:street": "Broadway", "name": "Columbia University Employment Information Center", "office": "employment_agency", "opening_hours": "Mo-Fr 09:00-16:00; Sa-Su off", "website": "https://humanresources.columbia.edu/ceic"}}, {"type": "node", "id": 12030146512, "lat": 40.8186939, "lon": -73.961127, "tags": {"barrier": "kerb", "kerb": "lowered", "tactile_paving": "yes"}}, {"type": "node", "id": 12030146513, "lat": 40.8185993, "lon": -73.9612197, "tags": {"barrier": "kerb", "kerb": "lowered", "tactile_paving": "yes"}}, {"type": "node", "id": 12093568553, "lat": 40.8161423, "lon": -73.9595931}, {"type": "node", "id": 12118435378, "lat": 40.8145806, "lon": -73.9594549, "tags": {"addr:city": "New York", "addr:housenumber": "3153", "addr:postcode": "10027", "addr:state": "NY", "addr:street": "Broadway", "amenity": "restaurant", "cuisine": "ethiopian;east_african", "name": "Cafe Massawa", "opening_hours": "Mo-Su 11:30-22:00", "phone": "+12126631800", "website": "https://www.cafemassawa.com/"}}, {"type": "node", "id": 12385430070, "lat": 40.8150778, "lon": -73.9563796, "tags": {"barrier": "gate"}}, {"type": "node", "id": 12385585822, "lat": 40.8150715, "lon": -73.9552528}, {"type": "node", "id": 12385585823, "lat": 40.814998, "lon": -73.9553052}, {"type": "node", "id": 12385585824, "lat": 40.8153872, "lon": -73.9558566}, {"type": "node", "id": 12385585825, "lat": 40.8155176, "lon": -73.9562883}, {"type": "node", "id": 12387617954, "lat": 40.8157711, "lon": -73.9585567}, {"type": "node", "id": 12387617956, "lat": 40.8158002, "lon": -73.9589462}, {"type": "node", "id": 13268373185, "lat": 40.8101617, "lon": -73.9650135}, {"type": "node", "id": 13268373186, "lat": 40.8099215, "lon": -73.9651914}, {"type": "node", "id": 13324400764, "lat": 40.815329, "lon": -73.9582622, "tags": {"addr:city": "New York", "addr:housenumber": "3210", "addr:postcode": "10027", "addr:state": "NY", "addr:street": "Broadway", "amenity": "restaurant", "cuisine": "deli", "diet:halal": "yes", "diet:meat": "yes", "diet:non-halal": "yes", "diet:vegetarian": "yes", "name": "Columbia Deli & Cafe", "opening_hours": "Mo-Sa 06:00-24:00; Su 06:00-22:00", "phone": "+1-646-410-0564", "takeaway": "only"}}, {"type": "way", "id": 118528233, "nodes": [6244980583, 11953254633, 11964082493, 11964082494, 11953254634, 11953254635, 6244980543, 6244980544, 1332860746, 6244980578, 6244980579, 6244980580, 6244980581, 1332860732, 6244980571, 11953237338, 6244980570, 11953237336, 11953237337, 6244980569, 6244980567, 6244980568, 1332860737, 6244980576, 11953237355, 11953254632, 6244980583], "tags": {"leisure": "park", "name": "Sakura Park", "operator": "New York City Department of Parks and Recreation", "operator:short": "NYC Parks", "operator:type": "government", "operator:wikidata": "Q1894232", "wikidata": "Q1100655"}}, {"type": "way", "id": 118528235, "nodes": [1332860744, 1332860740, 122003186, 4375003606, 4375003607, 122003177, 4375003610, 4375003620, 2043220869, 2041819939, 122003198, 2041876762, 122003190, 1332860736, 1332860745, 3874689571, 1332860727, 12030146513, 12030146512, 1332860748, 1332860733, 1332860742, 1332860744], "tags": {"architect": "W Architecture", "leisure": "park", "name": "West Harlem Piers Park", "operator": "NYC Department of Parks and Recreation", "operator:type": "government", "source": "Bing"}}, {"type": "way", "id": 137318990, "nodes": [7732571916, 2768463029, 6223570357, 6223570356, 6223570362, 7732571907, 7732571905, 7732571906, 6223570366, 6223570365, 7668264639, 7732571912, 7732571911, 7732571913, 2768459894, 2768459898, 7732571910, 7732571909, 2768459922, 2768459928, 6991157018, 6991157017, 2768459934, 6991157016, 2768459932, 2768459930, 2768459926, 2768459918, 2768459916, 2768459914, 2768459912, 2768459910, 2768459908, 2768459906, 2768459904, 2768459902, 2768459900, 2768459896, 7616688921, 1506346522, 1506346490, 1506346465, 12093568553, 1506346469, 2768459685, 12387617956, 10049497815, 1506346521, 2768459629, 10050049397, 2768459618, 42428867, 7732653968, 12387617954, 7732653967, 1506346515, 2768383064, 2768383043, 2768383006, 2768382966, 2768383061, 2768383144, 1506346485, 2768376622, 2768376652, 2768376779, 2768376808, 2768376772, 2768376871, 2768376876, 2768376878, 2768376880, 2768383158, 2768462930, 2768462964, 7184120295, 7732571916], "tags": {"addr:postcode": "10027", "addr:state": "NY", "amenity": "university", "name": "Columbia University, Manhattanville Campus", "name:zh": "\u54e5\u4f26\u6bd4\u4e9a\u5927\u5b66", "wikidata": "Q49088", "wikipedia": "en:Columbia University"}}, {"type": "way", "id": 137341003, "nodes": [2768419711, 2768419700, 2768419689, 6918735788, 2768419680, 6918462961, 2768419683, 2768419697, 2768419735, 2768419741, 2768419744, 2768419753, 2768419752, 2768419759, 2768419794, 2768419800, 2768419772, 2768419018, 2768419009, 2768419739, 2768419004, 2768418984, 2768419711], "tags": {"amenity": "university", "name": "Manhattan School of Music", "website": "https://www.msmnyc.edu", "wikidata": "Q1702106", "wikipedia": "en:Manhattan School of Music"}}, {"type": "way", "id": 178575123, "nodes": [7732571933, 7732571932, 7732571931, 7732571930, 7732571929, 7732571928, 7732571927, 7732571926, 7732571925, 7732571924, 7732571923, 7732571922, 7732571921, 7732571920, 7732571919, 7732571918, 7732571887, 7732571886, 7732654834, 7732654835, 7732654814, 7732654833, 7732654813, 7732654821, 7732654822, 7732654824, 7732654830, 7732654823, 7732654832, 7732654826, 7732654831, 7732654825, 7732571937, 7732654806, 7732654807, 7732654809, 7732654808, 595436261, 595436258, 7908637459, 42424937, 7908594142, 7908594136, 61257626, 7908637449, 7908637446, 61249184, 7908637443, 7908637468, 7908637465, 7908637462, 7908637450, 7908637447, 7908637444, 61249182, 7908637469, 7908669934, 7908669931, 7908669928, 7908669925, 61249181, 7908669922, 7908669919, 7908669915, 7908669911, 7908669907, 7908669936, 7908669933, 7908669930, 7908669927, 7908669924, 61249179, 7908669921, 7908669917, 7908669909, 7908669938, 7908669913, 42458473, 7908669937, 7908669908, 7908669912, 7908669916, 7908669920, 7908669923, 7908669926, 61249178, 7908669929, 7908669932, 7908669935, 61249177, 1889208625, 1332863754, 625884281, 625884289, 625884294, 625884299, 625884302, 2329798691, 2329798689, 2329798687, 625884307, 2329798685, 2329798681, 625884311, 625884313, 625884326, 2329798673, 2329798667, 2329798663, 625884331, 625884334, 625884337, 625884342, 625884347, 2329798616, 625884352, 2329798608, 625884354, 2329798598, 2329798582, 625884358, 2329798542, 2329798535, 625884364, 2329798527, 625884369, 625884371, 625883727, 6996574417, 6996564373, 6996564333, 6996574529, 6996574487, 6996574446, 6996574404, 6996564361, 6996564321, 6996574516, 6996574475, 6996574433, 6996574390, 6996564350, 6996574545, 6996574458, 6996574501, 6996574461, 6996574420, 6996564376, 6996564336, 6996564346, 6996574541, 6996574497, 6996574457, 6996574532, 6996574416, 6996564372, 6996564332, 6996574528, 11883021317, 6996574486, 6996574445, 6996574403, 6996564360, 6996564320, 6996574515, 6996574472, 6996574474, 6996574430, 6996574386, 6996574432, 6996574389, 6996564349, 6996574544, 6996574500, 6883897084, 6996574460, 6996574419, 6996564375, 6996564335, 6996574531, 6996574489, 7785881400, 6996574448, 6996574406, 6996564363, 6996564323, 6996574518, 6996574547, 7785782265, 6996574503, 7785881409, 6996574477, 6996574463, 11951420266, 6996574422, 11951420265, 11951420267, 11951420268, 6996564377, 7785881399, 6996564337, 7785881389, 6996574533, 6996574490, 11951420264, 6996574435, 7732571797, 7732571798, 6996574450, 11951438169, 6996574408, 11951420263, 6996564365, 7732571802, 6996564325, 11951420262, 11951420261, 7732571799, 13268373186, 7732571800, 13268373185, 6996574520, 7785782253, 7732551647, 7732551648, 7732551649, 7732551650, 7732551651, 7732551652, 7732551653, 7732571945, 7732571944, 7732551654, 7732571954, 7732571953, 7732551655, 7732571957, 7732571958, 7732551656, 7732571959, 7732551657, 7732551658, 7732571956, 7732551659, 10054994715, 1147215107, 10055027117, 1147215134, 7732571955, 7732551661, 7732571934, 7732551662, 7732571935, 7732571979, 1705982137, 1705982127, 7732551666, 7732551665, 7732551664, 7732551663, 7732571939, 7732571940, 7732571993, 7732571994, 7732572004, 7732572007, 7732572006, 7732572005, 11963757025, 11963757024, 7616688923, 11963757026, 7732572009, 7732572012, 7732572011, 7732571960, 7732572010, 7732572003, 7732571961, 7732572002, 7732572001, 7732572000, 7732571962, 7732571963, 7732572013, 7732572014, 7732572019, 7732572020, 7732571964, 7732571965, 7732571966, 7732572017, 7732572018, 7732572015, 7732572016, 7732571967, 7732571968, 6223570377, 7732571969, 7732571820, 7732571825, 11963757033, 6223570379, 42441419, 42441417, 42441415, 42441412, 42441407, 42441403, 1705982067, 1705982125, 1705982023, 1705982150, 7732572021, 7732571933], "tags": {"is_in:city": "New York", "is_in:state": "NY", "leisure": "park", "name": "Riverside Park", "operator": "New York City Department of Parks and Recreation", "operator:short": "NYC Parks", "operator:type": "government", "operator:wikidata": "Q1894232", "website": "https://www.nycgovparks.org/parks/riverside-park", "wikidata": "Q1339602", "wikipedia": "en:Riverside Park (Manhattan)"}}, {"type": "way", "id": 271912642, "nodes": [2768392621, 2768392639, 2768392538, 2768392564, 2768392570, 2768392580, 2768392584, 2768392590, 2768392641, 2768392676, 2768392657, 2768392712, 2768392753, 2768392799, 2768392685, 2768392669, 2768392621], "tags": {"addr:housenumber": "21", "addr:postcode": "10027", "addr:street": "Old Broadway", "building": "yes", "government": "healthcare", "height": "8.3", "name": "Manhattanville Health Center", "nycdoitt:bin": "1059720", "office": "government", "operator": "NYC Department of Health and Mental Hygiene"}}, {"type": "way", "id": 271923842, "nodes": [2768462627, 2768462631, 2768462642, 2768462646, 2768462647, 2768462648, 2768462650, 2768462651, 2768462655, 2768462656, 2768462640, 2768462638, 2768462636, 2768462633, 2768462629, 2768462627], "tags": {"addr:city": "New York", "addr:housenumber": "656", "addr:postcode": "10027", "addr:street": "West 125th Street", "amenity": "bar", "building": "yes", "height": "6.4", "name": "Cotton Club", "nycdoitt:bin": "1059893", "phone": "+1 212 663-7980", "website": "http://cottonclub-newyork.com/"}}, {"type": "way", "id": 398632274, "nodes": [4013812363, 4013803649, 4013812362, 4013803651, 4013803652, 10054927486, 4013803654, 4013803655, 10054927487, 10054927488, 4013812363], "tags": {"amenity": "university", "landuse": "residential", "name": "Columbia Residential", "operator": "Columbia University", "website": "https://residential.columbia.edu/"}}, {"type": "way", "id": 821278619, "nodes": [7668264638, 7668264639, 7732571912, 7668264640, 7668264641, 7668264638], "tags": {"area": "yes", "highway": "pedestrian", "leisure": "park", "name": "The Plaza", "operator": "Columbia University"}}, {"type": "way", "id": 1025959315, "nodes": [9459106412, 9459106413, 9459106414, 9459106415, 9459106416, 9459114017, 9459114018, 9459114019, 9459114020, 9459106395, 9459106408, 9459106396, 9459106409, 9459106410, 9459106411, 9459106407, 9459106406, 9459106397, 11934374393, 9459106398, 9459106412], "tags": {"leisure": "park", "name": "The Square", "operator": "Columbia University", "operator:type": "ngo", "operator:wikidata": "Q49088", "operator:wikipedia": "en:Columbia University"}}, {"type": "way", "id": 1148064270, "nodes": [10681841386, 10681841387, 10681841388, 10681841389, 10681841386], "tags": {"amenity": "university", "landuse": "residential", "name": "Columbia Residential", "operator": "Columbia University", "operator:type": "university", "website": "https://residential.columbia.edu/"}}, {"type": "way", "id": 1148064911, "nodes": [10681840091, 10681840092, 10681840093, 10681840094, 10681840091], "tags": {"amenity": "university", "landuse": "residential", "name": "Columbia Residential", "operator": "Columbia University", "operator:type": "university", "website": "https://residential.columbia.edu/"}}, {"type": "way", "id": 1148067064, "nodes": [10681854397, 10681854398, 10681854399, 10681854400, 10681854397], "tags": {"amenity": "university", "landuse": "residential", "name": "Columbia Residential", "operator": "Columbia University", "website": "https://residential.columbia.edu/"}}, {"type": "way", "id": 1283910034, "nodes": [11912203232, 12385585824, 11912203233, 11912203239, 12385585822, 12385585823, 11912203244, 11912203242, 11912203243, 11912203241, 11912203240, 11912203234, 11912203235, 12385430070, 11912203236, 11912203237, 11912203238, 12385585825, 11912203232], "tags": {"ele": "10", "gnis:feature_id": "2500813", "leisure": "park", "name": "Sheltering Arms Playground", "operator": "New York City Department of Parks and Recreation", "operator:short": "NYC Parks", "operator:type": "government", "operator:wikidata": "Q1894232", "operator:wikipedia": "en:New York City Department of Parks and Recreation", "website": "https://www.nycgovparks.org/parks/sheltering-arms-park", "wikidata": "Q34860563"}}]}