{"version": 0.6, "generator": "Overpass API 0.7.62.8 e802775f", "osm3s": {"timestamp_osm_base": "2025-12-01T15:19:10Z", "copyright": "The data included in this document is from www.openstreetmap.org. The data is made available under ODbL."}, "elements": [{"type": "node", "id": 277046794, "lat": 40.7428275, "lon": -73.9164917}, {"type": "node", "id": 277046795, "lat": 40.7429065, "lon": -73.9156669}, {"type": "node", "id": 277046797, "lat": 40.7427592, "lon": -73.9150898, "tags": {"barrier": "kerb", "kerb": "lowered"}}, {"type": "node", "id": 277046798, "lat": 40.7427481, "lon": -73.9158355}, {"type": "node", "id": 1754975219, "lat": 40.7420998, "lon": -73.9196581, "tags": {"addr:housenumber": "45-01", "addr:street": "Greenpoint Avenue", "amenity": "cafe", "name": "Ave Coffee House", "opening_hours": "Mo-Fr 08:00-17:00; Sa, Su 07:45-17:00", "toilets": "customers"}}, {"type": "node", "id": 2089938081, "lat": 40.7429062, "lon": -73.9163405}, {"type": "node", "id": 2844759163, "lat": 40.7434176, "lon": -73.9153755, "tags": {"addr:housenumber": "49-11", "addr:postcode": "11377", "addr:street": "Roosevelt Avenue", "amenity": "restaurant", "cuisine": "korean", "delivery": "yes", "name": "Sik Gaek", "opening_hours": "Mo, We, Th, Su 14:00-23:00; Fr, Sa 14:00-00:00", "phone": "+1 718-205-4555", "takeaway": "yes", "website": "http://www.sikgaekwoodside.com/"}}, {"type": "node", "id": 2844848806, "lat": 40.7425119, "lon": -73.9155746, "tags": {"addr:housenumber": "49-10", "addr:postcode": "11377", "addr:street": "Queens Boulevard", "amenity": "restaurant", "contact:email": "TitoRads@yahoo.com", "contact:facebook": "titorads", "cuisine": "filipino", "fax": "+1 71-205-4178", "name": "Tito Rad's Grill", "opening_hours": "Mo-Fr 11:00-20:00; Sa, Su 10:30-20:00", "phone": "+1 718-205-7299", "takeaway": "yes", "website": "http://www.titorads.com/"}}, {"type": "node", "id": 2844942055, "lat": 40.7415676, "lon": -73.9201916, "tags": {"addr:housenumber": "44-20", "addr:postcode": "11104", "addr:street": "Greenpoint Avenue", "amenity": "restaurant", "cuisine": "colombian", "name": "Pecas y Algo Mas"}}, {"type": "node", "id": 2844942074, "lat": 40.7427606, "lon": -73.9189002, "tags": {"addr:housenumber": "45-08", "addr:postcode": "11104", "addr:street": "46th Street", "amenity": "restaurant", "cuisine": "turkish", "delivery": "yes", "diet:halal": "only", "name": "Sofra Mediterranean Grill", "opening_hours": "off", "payment:american_express": "yes", "payment:discover_card": "yes", "payment:mastercard": "yes", "payment:visa": "yes", "phone": "+1 917-396-4777", "takeaway": "yes", "toilets": "customers", "website": "https://www.soframediterraneangrillmenu.com/"}}, {"type": "node", "id": 2844942079, "lat": 40.7427135, "lon": -73.9189098, "tags": {"addr:housenumber": "45-10", "addr:postcode": "11104", "addr:street": "46th Street", "amenity": "restaurant", "contact:facebook": "latino_bites", "contact:instagram": "latino_bites", "cuisine": "colombian; mexican", "drink:beer": "served", "indoor_seating": "yes", "name": "Latino Bites", "opening_hours": "Tu-Th 12:00-00:00; Mo, Fr-Su 12:00-01:00", "phone": "+1 718-424-4906", "website": "https://latinobites.com/"}}, {"type": "node", "id": 2844942090, "lat": 40.7429092, "lon": -73.918991, "tags": {"addr:housenumber": "45-18", "addr:postcode": "11104", "addr:street": "Queens Boulevard", "amenity": "cafe", "branch": "Sunnyside", "level": "0", "name": "M\u00f6ge Tee", "opening_hours": "Mo-Su 12:00-21:00", "phone": "+1 718-550-5888", "website": "https://www.mogeteeusa.com/store-locations-1/ny"}}, {"type": "node", "id": 2844942213, "lat": 40.7413798, "lon": -73.9191699, "tags": {"addr:housenumber": "45-58", "addr:postcode": "11104", "addr:street": "46th Street", "amenity": "cafe", "name": "MiraCali Bakery", "opening_hours": "Mo-Fr 05:00-19:00; Sa 06:00-19:00; Su 06:00-16:00", "phone": "+1 718-482-8840", "wheelchair": "yes"}}, {"type": "node", "id": 2844942222, "lat": 40.7422703, "lon": -73.9182809, "tags": {"addr:housenumber": "46-12", "addr:postcode": "11377", "addr:street": "Greenpoint Avenue", "amenity": "bar", "name": "El Potrero Sports Bar"}}, {"type": "node", "id": 2844942239, "lat": 40.7424335, "lon": -73.9177532, "tags": {"addr:housenumber": "47-02", "addr:postcode": "11377", "addr:street": "Greenpoint Avenue", "amenity": "restaurant", "cuisine": "mexican", "name": "Chihuahua Mexican Restaurant & Cantina"}}, {"type": "node", "id": 2844943174, "lat": 40.742185, "lon": -73.9177216}, {"type": "node", "id": 2844943180, "lat": 40.742195, "lon": -73.9177237}, {"type": "node", "id": 2844943181, "lat": 40.7421957, "lon": -73.9178302}, {"type": "node", "id": 2844943193, "lat": 40.7422396, "lon": -73.9177138}, {"type": "node", "id": 2844943326, "lat": 40.7423096, "lon": -73.9177013}, {"type": "node", "id": 2844943378, "lat": 40.7424387, "lon": -73.9177816}, {"type": "node", "id": 2844943382, "lat": 40.7424535, "lon": -73.9177339}, {"type": "node", "id": 2844950257, "lat": 40.743144, "lon": -73.9210367, "tags": {"addr:city": "Sunnyside", "addr:housenumber": "43-10", "addr:postcode": "11104", "addr:state": "NY", "addr:street": "Queens Boulevard", "amenity": "restaurant", "branch": "Sunnyside", "cuisine": "cajun;seafood", "name": "Cap't Loui Seafood Boil", "opening_hours": "Mo-Su 11:30-23:00", "phone": "+1-718-255-1014", "website": "https://captloui.com"}}, {"type": "node", "id": 2844976428, "lat": 40.743505, "lon": -73.9187481, "tags": {"addr:housenumber": "43-46", "addr:postcode": "11104", "addr:street": "46th Street", "amenity": "restaurant", "catering": "yes", "contact:facebook": "bliss46bistro1", "contact:instagram": "bliss46bistro1", "cuisine": "french;brunch", "delivery": "yes", "drink:beer": "yes", "drink:wine": "yes", "name": "Bliss 46 Bistro", "opening_hours": "Mo-Su 11:00-23:00", "payment:american_express": "yes", "payment:mastercard": "yes", "payment:visa": "yes", "phone": "+1 718-361-0690", "takeaway": "yes", "website": "http://www.bliss46bistro.com"}}, {"type": "node", "id": 2844976438, "lat": 40.7435189, "lon": -73.919231, "tags": {"addr:housenumber": "45-07", "addr:postcode": "11104", "addr:street": "Queens Boulevard", "amenity": "restaurant", "cuisine": "colombian", "name": "1 Buen Sabor", "opening_hours": "Mo-Su 06:00-21:00", "phone": "+1 718-361-8714"}}, {"type": "node", "id": 2844976440, "lat": 40.7435081, "lon": -73.9191403, "tags": {"addr:housenumber": "45-09", "addr:postcode": "11104", "addr:street": "Queens Boulevard", "name": "Delgado Travel", "office": "travel_agent"}}, {"type": "node", "id": 2844976449, "lat": 40.7433836, "lon": -73.9180652, "tags": {"addr:housenumber": "46-17", "addr:postcode": "11104", "addr:street": "Queens Boulevard", "amenity": "restaurant", "cuisine": "ramen;japanese", "drink:beer": "yes", "drink:sake": "yes", "name": "Fuyu Ramen", "opening_hours": "Mo 12:00-22:00, We-Su 12:00-22:00", "phone": "+1-718-786-2200", "takeaway": "yes", "website": "https://fuyuramenandsake.com"}}, {"type": "node", "id": 2844976450, "lat": 40.7433755, "lon": -73.9179937, "tags": {"addr:housenumber": "46-19", "addr:postcode": "11104", "addr:street": "Queens Boulevard", "amenity": "restaurant", "name": "El Pil\u00f3n", "opening_hours": "Mo-Su 05:30-20:00"}}, {"type": "node", "id": 2844976475, "lat": 40.7436533, "lon": -73.9181297}, {"type": "node", "id": 2844999904, "lat": 40.743753, "lon": -73.9212418, "tags": {"addr:housenumber": "43-01", "addr:postcode": "11104", "addr:street": "Queens Boulevard", "amenity": "restaurant", "cuisine": "nepalese; american", "name": "Foodmandu Restaurant & Bar", "opening_hours": "Mo-Th, Su 12:00-22:00; Fr, Sa 12:00-23:00", "phone": "+1 347-396-5681", "website": "https://foodmandunyc.com/"}}, {"type": "node", "id": 2844999905, "lat": 40.7450823, "lon": -73.920947, "tags": {"addr:housenumber": "43-02", "addr:postcode": "11104", "addr:street": "43rd Avenue", "amenity": "bar", "contact:facebook": "thelowerybar", "contact:instagram": "thelowerybar", "happy_hours": "Mo-Fr 15:00-18:00", "name": "The Lowery", "opening_hours": "Mo-We 15:00-00:00; Fr 12:00-01:00; Sa 11:00-01:00; Th 12:00-23:00; Su 11:00-00:00", "phone": "+1 929-208-0054", "reservation": "yes", "reservation:website": "https://tmt.spotapps.co/reservations?spot_id=78119", "website": "https://theloweryqueens.com/"}}, {"type": "node", "id": 2844999909, "lat": 40.7450734, "lon": -73.9208719, "tags": {"addr:city": "Sunnyside", "addr:housenumber": "43-06", "addr:postcode": "11104", "addr:state": "NY", "addr:street": "43rd Avenue", "amenity": "restaurant", "cuisine": "european", "level": "0", "name": "Romanian Garden", "opening_hours": "Mo-Th 11:00-23:00, Fr 11:00-01:00, Sa 11:00-02:00, Su 11:00-00:00", "opening_hours:covid19": "restricted", "phone": "+1-718-786-7894", "website": "https://www.romaniangarden.nyc"}}, {"type": "node", "id": 2844999924, "lat": 40.7438925, "lon": -73.9212315, "tags": {"addr:housenumber": "43-45", "addr:postcode": "11104", "addr:street": "43rd Street", "amenity": "restaurant", "catering": "yes", "contact:fax": "+1 347-642-4383", "cuisine": "indian", "delivery": "yes", "diet:halal": "only", "diet:vegan": "yes", "diet:vegetarian": "yes", "drink:beer": "yes", "indoor_seating": "yes", "name": "Cardamom", "opening_hours": "Mo, We-Fr 16:00-22:00; Sa-Su 16:00-22:00", "phone": "+1-718-706-9718", "takeaway": "yes", "website": "https://cardamomny.com"}}, {"type": "node", "id": 4353850017, "lat": 40.7398816, "lon": -73.9185211}, {"type": "node", "id": 4353850018, "lat": 40.7409563, "lon": -73.9183055}, {"type": "node", "id": 4353850019, "lat": 40.7399629, "lon": -73.9192204}, {"type": "node", "id": 4353850020, "lat": 40.7410323, "lon": -73.9189998}, {"type": "node", "id": 4580602640, "lat": 40.7462052, "lon": -73.9176057}, {"type": "node", "id": 4580602641, "lat": 40.7461564, "lon": -73.9176192}, {"type": "node", "id": 4580602642, "lat": 40.7461503, "lon": -73.917595}, {"type": "node", "id": 4580602643, "lat": 40.7453809, "lon": -73.9177441}, {"type": "node", "id": 4580602644, "lat": 40.7453778, "lon": -73.9177173}, {"type": "node", "id": 4580602645, "lat": 40.744954, "lon": -73.917787}, {"type": "node", "id": 4580602646, "lat": 40.7449449, "lon": -73.9177092}, {"type": "node", "id": 4580602647, "lat": 40.7450231, "lon": -73.9176972}, {"type": "node", "id": 4580602648, "lat": 40.745016, "lon": -73.9176301}, {"type": "node", "id": 4580602649, "lat": 40.745332, "lon": -73.9175724}, {"type": "node", "id": 4580602650, "lat": 40.7453351, "lon": -73.9175926}, {"type": "node", "id": 4580602651, "lat": 40.7454516, "lon": -73.9175711}, {"type": "node", "id": 4580602652, "lat": 40.7454587, "lon": -73.9175885}, {"type": "node", "id": 4580602653, "lat": 40.7458239, "lon": -73.9175148}, {"type": "node", "id": 4580602654, "lat": 40.7458209, "lon": -73.9174947}, {"type": "node", "id": 4580602655, "lat": 40.7459855, "lon": -73.9174625}, {"type": "node", "id": 4580602656, "lat": 40.7459824, "lon": -73.9174343}, {"type": "node", "id": 4580602657, "lat": 40.7461833, "lon": -73.9173994}, {"type": "node", "id": 4580602658, "lat": 40.74629, "lon": -73.9173807}, {"type": "node", "id": 4580602659, "lat": 40.7462981, "lon": -73.9174464}, {"type": "node", "id": 4580602660, "lat": 40.7461924, "lon": -73.9174705}, {"type": "node", "id": 4580603667, "lat": 40.7454289, "lon": -73.9170038}, {"type": "node", "id": 4580603668, "lat": 40.7450123, "lon": -73.9170843}, {"type": "node", "id": 4580603669, "lat": 40.7449574, "lon": -73.9167088}, {"type": "node", "id": 4580603670, "lat": 40.7450448, "lon": -73.9166954}, {"type": "node", "id": 4580603671, "lat": 40.745057, "lon": -73.9167544}, {"type": "node", "id": 4580603672, "lat": 40.7453862, "lon": -73.91669}, {"type": "node", "id": 4580603673, "lat": 40.745374, "lon": -73.9165586}, {"type": "node", "id": 4580603674, "lat": 40.7457256, "lon": -73.9164888}, {"type": "node", "id": 4580603675, "lat": 40.7457418, "lon": -73.9166149}, {"type": "node", "id": 4580603676, "lat": 40.746053, "lon": -73.9165532}, {"type": "node", "id": 4580603677, "lat": 40.7460408, "lon": -73.9164312}, {"type": "node", "id": 4580603678, "lat": 40.7460672, "lon": -73.9164245}, {"type": "node", "id": 4580603679, "lat": 40.7460744, "lon": -73.9164794}, {"type": "node", "id": 4580603680, "lat": 40.7461475, "lon": -73.9164634}, {"type": "node", "id": 4580603681, "lat": 40.7462007, "lon": -73.9169019}, {"type": "node", "id": 4580603682, "lat": 40.7461143, "lon": -73.916918}, {"type": "node", "id": 4580603683, "lat": 40.7460971, "lon": -73.9167906}, {"type": "node", "id": 4580603684, "lat": 40.7460554, "lon": -73.9168}, {"type": "node", "id": 4580603685, "lat": 40.7460625, "lon": -73.9168684}, {"type": "node", "id": 4580603686, "lat": 40.7459948, "lon": -73.9168791}, {"type": "node", "id": 4580603687, "lat": 40.7459968, "lon": -73.9169059}, {"type": "node", "id": 4580603688, "lat": 40.7459389, "lon": -73.9169193}, {"type": "node", "id": 4580603789, "lat": 40.7459338, "lon": -73.9168804}, {"type": "node", "id": 4580603790, "lat": 40.745884, "lon": -73.9168898}, {"type": "node", "id": 4580603791, "lat": 40.745884, "lon": -73.9169233}, {"type": "node", "id": 4580603792, "lat": 40.745757, "lon": -73.9169461}, {"type": "node", "id": 4580603793, "lat": 40.7457529, "lon": -73.9169099}, {"type": "node", "id": 4580603794, "lat": 40.7454256, "lon": -73.9169676}, {"type": "node", "id": 4580605622, "lat": 40.7449049, "lon": -73.9160168}, {"type": "node", "id": 4580605623, "lat": 40.7448937, "lon": -73.9159537}, {"type": "node", "id": 4580605624, "lat": 40.744915, "lon": -73.9159497}, {"type": "node", "id": 4580605625, "lat": 40.7448907, "lon": -73.9157485}, {"type": "node", "id": 4580605626, "lat": 40.7449283, "lon": -73.9157378}, {"type": "node", "id": 4580605627, "lat": 40.7449526, "lon": -73.9159202}, {"type": "node", "id": 4580605628, "lat": 40.7458125, "lon": -73.9157415}, {"type": "node", "id": 4580605629, "lat": 40.7458125, "lon": -73.9156865}, {"type": "node", "id": 4580605630, "lat": 40.7458948, "lon": -73.9156717}, {"type": "node", "id": 4580605631, "lat": 40.7459039, "lon": -73.9157267}, {"type": "node", "id": 4580605632, "lat": 40.74597, "lon": -73.91572}, {"type": "node", "id": 4580605633, "lat": 40.7459811, "lon": -73.9158072}, {"type": "node", "id": 4580609984, "lat": 40.7435922, "lon": -73.9174267}, {"type": "node", "id": 4580609985, "lat": 40.7435698, "lon": -73.9171947}, {"type": "node", "id": 4580609986, "lat": 40.7440791, "lon": -73.9170874}, {"type": "node", "id": 4580609987, "lat": 40.7440873, "lon": -73.9171357}, {"type": "node", "id": 4580609988, "lat": 40.7442103, "lon": -73.9171106}, {"type": "node", "id": 4580611442, "lat": 40.743644, "lon": -73.918081}, {"type": "node", "id": 4580611443, "lat": 40.7435055, "lon": -73.917972}, {"type": "node", "id": 4580611444, "lat": 40.7435838, "lon": -73.9179586}, {"type": "node", "id": 4580611445, "lat": 40.7435919, "lon": -73.9179948}, {"type": "node", "id": 4580611446, "lat": 40.7436539, "lon": -73.9179801}, {"type": "node", "id": 4580611447, "lat": 40.7436457, "lon": -73.9179063}, {"type": "node", "id": 4580611448, "lat": 40.7437992, "lon": -73.9178741}, {"type": "node", "id": 4580611449, "lat": 40.7438042, "lon": -73.9179063}, {"type": "node", "id": 4580611450, "lat": 40.7443962, "lon": -73.9177856}, {"type": "node", "id": 4580611451, "lat": 40.7443942, "lon": -73.9177561}, {"type": "node", "id": 4580611452, "lat": 40.7446154, "lon": -73.9177159}, {"type": "node", "id": 4580611453, "lat": 40.7446255, "lon": -73.9178178}, {"type": "node", "id": 4580611454, "lat": 40.7446481, "lon": -73.9178164}, {"type": "node", "id": 4580611455, "lat": 40.7446532, "lon": -73.917858}, {"type": "node", "id": 4580611456, "lat": 40.7445577, "lon": -73.9178808}, {"type": "node", "id": 4580611457, "lat": 40.7445597, "lon": -73.9178956}, {"type": "node", "id": 4580611458, "lat": 40.744451, "lon": -73.9179237}, {"type": "node", "id": 4580611459, "lat": 40.744453, "lon": -73.9179492}, {"type": "node", "id": 4580612389, "lat": 40.7441849, "lon": -73.9168813}, {"type": "node", "id": 4580612390, "lat": 40.744504, "lon": -73.9168142}, {"type": "node", "id": 4580612391, "lat": 40.7445378, "lon": -73.9171964}, {"type": "node", "id": 4580612392, "lat": 40.7442248, "lon": -73.9172662}, {"type": "node", "id": 4580612393, "lat": 40.7442279, "lon": -73.9172823}, {"type": "node", "id": 4580612394, "lat": 40.7441385, "lon": -73.917301}, {"type": "node", "id": 4580612395, "lat": 40.7441375, "lon": -73.9172849}, {"type": "node", "id": 4580612396, "lat": 40.7439184, "lon": -73.9173252}, {"type": "node", "id": 4580612397, "lat": 40.7439205, "lon": -73.9173641}, {"type": "node", "id": 5092488424, "lat": 40.7434084, "lon": -73.9183013, "tags": {"addr:city": "Sunnyside", "addr:housenumber": "46-09", "addr:postcode": "11104", "addr:state": "NY", "addr:street": "Queens Boulevard", "amenity": "cafe", "branch": "46-09 Queens Boulevard", "brand": "Starbucks", "brand:wikidata": "Q37158", "cuisine": "coffee_shop", "indoor_seating": "yes", "name": "Starbucks", "name:en": "Starbucks", "official_name": "Starbucks Coffee", "opening_hours": "Mo-Fr 05:00-22:00; Sa, Su 05:30-21:30", "outdoor_seating": "no", "phone": "+1 718-472-5215", "takeaway": "yes", "website": "https://www.starbucks.com/store-locator/store/10255/46-09-queens-blvd-46-09-queens-blvd-sunnyside-ny-111041711-us"}}, {"type": "node", "id": 5380555582, "lat": 40.741278, "lon": -73.9179831, "tags": {"addr:housenumber": "45-55", "addr:street": "47th Street", "name": "Atax Accounting & Financial Services", "office": "accountant", "phone": "+1-718-937-2829"}}, {"type": "node", "id": 5400446681, "lat": 40.7413267, "lon": -73.9216544, "tags": {"addr:city": "Sunnyside", "addr:housenumber": "43-04", "addr:postcode": "11104", "addr:state": "NY", "addr:street": "47th Avenue", "amenity": "cafe", "contact:email": "curleysbagels@gmail.com", "contact:instagram": "Curley's_Bagels", "cuisine": "bagel", "name": "Curley's Bagels", "opening_hours": "Mo-Fr 06:00-15:30; Sa, Su 07:00-15:30", "takeaway": "yes", "website": "https://www.curleysbagels.com/"}}, {"type": "node", "id": 5489661622, "lat": 40.742437, "lon": -73.91548, "tags": {"addr:housenumber": "49-12", "addr:postcode": "11377", "addr:street": "Queens Boulevard", "amenity": "restaurant", "cuisine": "filipino", "level": "0", "name": "Kabayan Authentic", "phone": "+1 718-639-3113", "wheelchair": "yes"}}, {"type": "node", "id": 5721471863, "lat": 40.7436528, "lon": -73.9203646, "tags": {"addr:housenumber": "44-01", "addr:street": "Queens Boulevard", "amenity": "cafe", "contact:email": "chakranyc@gmail.com", "contact:facebook": "chakracafenyc", "contact:instagram": "chakracafenyc", "cuisine": "breakfast", "name": "Chakra Cafe", "opening_hours": "Mo-Su 06:00-20:00", "phone": "+1 929-462-0051", "website": "https://www.chakrany.com/"}}, {"type": "node", "id": 5721472458, "lat": 40.7416382, "lon": -73.9191413, "tags": {"addr:housenumber": "45-50", "addr:street": "46th Street", "amenity": "bar", "name": "El Rodeo"}}, {"type": "node", "id": 5721472467, "lat": 40.7429164, "lon": -73.9190733, "tags": {"addr:housenumber": "45-14", "addr:street": "Queens Boulevard", "name": "Allegria Brokerage", "note": "Speak English, Spanish, Romanian", "office": "insurance", "phone": "+1 718-606-6684", "toilets": "no", "wheelchair": "yes"}}, {"type": "node", "id": 5721473272, "lat": 40.7431115, "lon": -73.9207685, "tags": {"addr:city": "Sunnyside", "addr:housenumber": "43-16", "addr:postcode": "11104", "addr:state": "NY", "addr:street": "Queens Boulevard", "addr:unit": "B", "amenity": "restaurant", "branch": "Sunnyside", "cuisine": "chicken", "happy_hours": "Mo-Fr 15:00-18:00", "name": "Mad For Chicken", "opening_hours": "Mo-We, Su 11:00-01:00; Th-Sa 11:00-02:00", "phone": "+1-347-808-0178", "website": "https://madforchicken.com/locations/sunnyside/"}}, {"type": "node", "id": 5721473579, "lat": 40.7431316, "lon": -73.9209224, "tags": {"addr:housenumber": "43-16", "addr:street": "Queens Boulevard", "amenity": "restaurant", "disused:amenity": "restaurant", "disused:cuisine": "himalayan", "disused:name": "Bajeko Sekuwa", "indoor_seating": "yes", "name": "Bajeko Sekuwa The Himalayan Grill", "outdoor_seating": "no", "phone": "+1 347-808-8100"}}, {"type": "node", "id": 5721475988, "lat": 40.7436888, "lon": -73.9207172, "tags": {"addr:housenumber": "43-17", "addr:street": "Queens Boulevard", "amenity": "bar", "name": "The Goat", "opening_hours": "Mo-Fr 14:30-04:00; Sa, Su 12:00-04:00"}}, {"type": "node", "id": 5721476364, "lat": 40.7436231, "lon": -73.9201306, "tags": {"addr:housenumber": "44-07", "addr:street": "Queens Boulevard", "amenity": "restaurant", "cuisine": "italian;pizza", "level": "0", "name": "Sotto le Stelle", "opening_hours": "Mo-Th 16:00-22:00; Fr, Sa 12:00-23:00; Su 12:00-22:00", "takeaway": "yes"}}, {"type": "node", "id": 5721476514, "lat": 40.7449648, "lon": -73.9213586, "tags": {"addr:city": "Sunnyside", "addr:housenumber": "43-06", "addr:postcode": "11104", "addr:state": "NY", "addr:street": "43rd Street", "amenity": "bar", "contact:email": "info@bar43.com", "contact:facebook": "Bar43NY", "contact:instagram": "bar43ny", "cuisine": "pub", "level": "0", "name": "Bar 43", "opening_hours": "Mo-Th 15:00-02:00; Fr 12:00-04:00; Sa, Su 11:00-04:00", "phone": "+1 718-361-3090", "website": "https://bar43.com"}}, {"type": "node", "id": 6744726774, "lat": 40.7439734, "lon": -73.9148875, "tags": {"addr:housenumber": "43-12", "addr:street": "50th Street", "amenity": "cafe", "name": "New City Billiards & Cafe"}}, {"type": "node", "id": 7667163190, "lat": 40.7429701, "lon": -73.9160911}, {"type": "node", "id": 10996864805, "lat": 40.7410168, "lon": -73.9214463, "tags": {"addr:housenumber": "43-16", "addr:postcode": "11104", "addr:street": "Greenpoint Avenue", "amenity": "restaurant", "contact:email": "ilovepyrestaurant@hotmail.com", "contact:facebook": "iloveparaguayrestaurant", "contact:instagram": "iloveparaguayrestaurant", "cuisine": "paraguayan", "level": "0", "name": "I Love Paraguay", "opening_hours": "Mo-Fr, Su 11:00-22:00; Sa, Su 10:00-23:00", "phone": "+1 718-786-5534", "reservation": "yes", "website": "https://www.ilovepy.com"}}, {"type": "node", "id": 10996864807, "lat": 40.7410801, "lon": -73.9212988, "tags": {"addr:housenumber": "43-20", "addr:postcode": "11104", "addr:street": "Greenpoint Avenue", "alt_name": "Mr Burrito Loco", "amenity": "restaurant", "cuisine": "mexican", "delivery": "yes", "level": "0", "name": "Mister Burrito Loco", "opening_hours": "Mo-We 11:00-23:00; Th-Sa 11:00-24:00, Su 11:00-23:00", "phone": "+1-718-361-6513", "takeaway": "yes", "website": "https://mrburritoloco.com"}}, {"type": "node", "id": 11040274929, "lat": 40.7435807, "lon": -73.9197234, "tags": {"addr:housenumber": "44-23", "addr:street": "Queens Boulevard", "amenity": "pub", "name": "McGuinness's Saloon", "phone": "+1 718-729-9617"}}, {"type": "node", "id": 11126764053, "lat": 40.7411416, "lon": -73.9175767, "tags": {"addr:city": "Woodside", "addr:housenumber": "47-11", "addr:postcode": "11377", "addr:state": "NY", "addr:street": "47th Avenue", "amenity": "restaurant", "cuisine": "tibetan", "name": "Gakyizompe", "name:bo": "\u0f51\u0f42\u0f60\u0f0b\u0f66\u0f90\u0fb1\u0f72\u0f51\u0f0b\u0f60\u0f5b\u0f7c\u0f58\u0f66\u0f0b\u0f54\u0f60\u0f72\u0f0b\u0f5f\u0f0b\u0f41\u0f44\u0f0d", "name:en": "Gakyizompe Restaurant", "phone": "+1-917-244-1287"}}, {"type": "node", "id": 11565734561, "lat": 40.7435542, "lon": -73.9194431, "tags": {"amenity": "restaurant"}}, {"type": "node", "id": 11565738776, "lat": 40.7425407, "lon": -73.9173755, "tags": {"addr:housenumber": "47-14", "addr:street": "Greenpoint Avenue", "amenity": "restaurant", "name": "Lime\u00f1a Pisco Bar & Restaurant", "opening_hours": "Tu-Th, Su 11:30-22:00; Fr, Sa 11:30-00:00", "wheelchair": "no"}}, {"type": "node", "id": 11565738780, "lat": 40.7424855, "lon": -73.9175693, "tags": {"addr:housenumber": "47-08", "addr:street": "Greenpoint Avenue", "amenity": "restaurant", "branch": "Sunnyside", "brand": "Pelicana", "brand:wikidata": "Q17575847", "check_date": "2024-03-15", "cuisine": "korean;chicken", "delivery": "yes", "name": "Pelicana Chicken", "takeaway": "yes", "website": "https://www.pelicanausa.com/", "wheelchair": "no"}}, {"type": "node", "id": 11635411753, "lat": 40.7437228, "lon": -73.9209098, "tags": {"addr:housenumber": "43-11", "addr:street": "Queens Boulevard", "amenity": "restaurant", "cuisine": "diner", "name": "Blvd Diner", "opening_hours": "Mo-Su 07:00-23:00", "phone": "+1 718-806-1499", "website": "https://blvd-diner.business.site/"}}, {"type": "node", "id": 11635480733, "lat": 40.7437477, "lon": -73.921173, "tags": {"addr:housenumber": "43-03", "addr:street": "Queens Boulevard", "amenity": "restaurant", "contact:facebook": "Souk-El-Shater-219342458103898", "contact:instagram": "soukelshater", "cuisine": "lebanese", "delivery": "yes", "name": "Souk El-Shater", "opening_hours": "Mo-Su 08:00-19:00", "phone": "+1 718-392-7202", "takeaway": "yes", "website": "https://soukelshater.netwaiter.com/sunnyside/about/"}}, {"type": "node", "id": 11651210924, "lat": 40.7437121, "lon": -73.9208461, "tags": {"addr:housenumber": "43-13", "addr:postcode": "11104", "addr:street": "Queens Boulevard", "amenity": "bar", "contact:email": "Carrie@vortexhospitality.com", "contact:facebook": "idasnearaboutnyc", "contact:instagram": "idasnearabout", "delivery": "yes", "happy_hours": "Mo-Fr 12:00-18:00", "name": "Ida's Nearabout", "opening_hours": "Mo-Fr 12:00-04:00; Sa, Su 11:00-04:00", "outdoor_seating": "yes", "phone": "+1 718-433-1916", "takeaway": "yes", "website": "https://idasnearabout.com/"}}, {"type": "node", "id": 11651290841, "lat": 40.743706, "lon": -73.9207774, "tags": {"addr:housenumber": "43-15", "addr:street": "Queens Boulevard", "amenity": "cafe", "contact:email": "carrie@vortexhospitality.com", "contact:facebook": "brooksidemarketnyc", "contact:instagram": "brooksidemarketnyc", "name": "Brookside Market", "opening_hours": "Mo-Su 07:00-16:00 open \"Cafe\" || Mo-Su 17:00-23:00 open \"Wine Bar\"", "phone": "+1 718-806-1902", "website": "https://brooksidemarketnyc.com/"}}, {"type": "node", "id": 11658656805, "lat": 40.7408699, "lon": -73.9178593, "tags": {"addr:housenumber": "47-08", "addr:street": "47th Avenue", "amenity": "restaurant", "cuisine": "mexican", "name": "Taqueria Santa Fe"}}, {"type": "node", "id": 11660425877, "lat": 40.7422657, "lon": -73.9189992, "tags": {"addr:housenumber": "45-23", "addr:postcode": "11104", "addr:street": "Greenpoint Avenue", "amenity": "restaurant", "cuisine": "peruvian", "delivery": "yes", "drink:beer": "yes", "drink:liquor": "yes", "drink:wine": "yes", "name": "Riko Peruvian Cuisine", "phone": "+1-718-361-5721", "takeaway": "yes"}}, {"type": "node", "id": 11660428520, "lat": 40.7424541, "lon": -73.9189728, "tags": {"addr:housenumber": "45-22", "addr:street": "46th Street", "amenity": "cafe", "branch": "Sunnyside", "brand": "Paris Baguette", "brand:wikidata": "Q62605260", "delivery": "yes", "indoor_seating": "yes", "name": "Paris Baguette", "opening_hours": "Mo-Su 07:00-22:00", "outdoor_seating": "no", "phone": "+1 718-706-0404", "shop": "bakery", "website": "https://parisbaguette.com"}}, {"type": "node", "id": 11688962919, "lat": 40.7414323, "lon": -73.9189124, "tags": {"addr:housenumber": "45-53", "addr:street": "46th Street", "amenity": "restaurant", "cuisine": "thai", "name": "Thai Diva", "opening_hours": "Mo-Fr 11:00-16:00, 16:30-22:00; Sa, Su 11:30-16:00, 16:30-22:00", "phone": "+1 929-208-0282", "website": "https://www.thaidivacuisine.com/"}}, {"type": "node", "id": 11699044347, "lat": 40.7436432, "lon": -73.9202638, "tags": {"addr:housenumber": "44-03", "addr:postcode": "11104", "addr:street": "Queens Boulevard", "branch": "Sunnyside", "brand": "H&R Block", "brand:wikidata": "Q5627799", "level": "0", "name": "H&R Block", "office": "tax_advisor", "opening_hours": "Mo-Fr 09:00-19:00; Sa 09:00-17:00; Su 12:00-16:00", "phone": "+1 718-729-9091"}}, {"type": "node", "id": 11732252028, "lat": 40.7448319, "lon": -73.91882, "tags": {"addr:housenumber": "45-12", "addr:postcode": "11104", "addr:street": "43rd Avenue", "amenity": "restaurant", "contact:email": "floribellabakery@gmail.con", "cuisine": "ecuadorian;italian;breakfast", "drink:espresso": "yes", "name": "Floribella Bakery & Restaurant", "opening_hours": "Mo-Fr 08:30-21:30; Sa-Su 09:00-22:00", "phone": "+1-347-808-0070", "shop": "bakery"}}, {"type": "node", "id": 11732423462, "lat": 40.7444161, "lon": -73.915329, "tags": {"addr:housenumber": "49-06", "addr:street": "43rd Avenue", "amenity": "restaurant", "cuisine": "tacos; mexican", "name": "El Rey de los Tacos", "opening_hours": "Mo, We-Fr 09:00-23:00; Sa, Su 08:00-23:00"}}, {"type": "node", "id": 11749409223, "lat": 40.7414883, "lon": -73.9188961, "tags": {"addr:housenumber": "45-51", "addr:street": "46th Street", "amenity": "restaurant", "cuisine": "peruvian", "name": "Bistro Punta Sal"}}, {"type": "node", "id": 11826314670, "lat": 40.7399152, "lon": -73.9188151}, {"type": "node", "id": 11826314673, "lat": 40.7404639, "lon": -73.91912}, {"type": "node", "id": 11940428349, "lat": 40.7447456, "lon": -73.9158829, "tags": {"addr:housenumber": "48-11", "addr:street": "43rd Avenue", "amenity": "restaurant", "contact:instagram": "tacoselgueronyc", "cuisine": "tex-mex", "dish": "tacos", "name": "Tacos el Guero", "opening_hours": "Mo-Su 11:00-23:00", "phone": "+1 718-255-1514", "website": "https://toasttab.com/tacoselgueronyc"}}, {"type": "node", "id": 12001307594, "lat": 40.7435194, "lon": -73.9180987}, {"type": "node", "id": 12034085742, "lat": 40.7427784, "lon": -73.9151143}, {"type": "node", "id": 12034085743, "lat": 40.742858, "lon": -73.9164899}, {"type": "node", "id": 12034085746, "lat": 40.7429554, "lon": -73.9159895}, {"type": "node", "id": 12034085759, "lat": 40.742753, "lon": -73.9153634}, {"type": "node", "id": 12034085764, "lat": 40.7427458, "lon": -73.9152025}, {"type": "node", "id": 12034085766, "lat": 40.7427412, "lon": -73.9157097}, {"type": "node", "id": 12034086672, "lat": 40.7429308, "lon": -73.9157924}, {"type": "node", "id": 12034086674, "lat": 40.7428093, "lon": -73.915297}, {"type": "node", "id": 12034086675, "lat": 40.7427468, "lon": -73.9150993}, {"type": "node", "id": 12034086677, "lat": 40.7428638, "lon": -73.9155301}, {"type": "node", "id": 12034086682, "lat": 40.742771, "lon": -73.9150963}, {"type": "node", "id": 12034086690, "lat": 40.7427412, "lon": -73.9151155}, {"type": "node", "id": 12034086708, "lat": 40.7427514, "lon": -73.9152954}, {"type": "node", "id": 12034739461, "lat": 40.7444121, "lon": -73.9152522, "tags": {"addr:housenumber": "49-08", "addr:street": "43rd Avenue", "amenity": "restaurant", "cuisine": "thai", "delivery": "yes", "level": "0", "name": "Onedee Thai", "phone": "+1 718-457-7700", "takeaway": "yes", "wheelchair": "yes"}}, {"type": "way", "id": 25420828, "nodes": [277046794, 12034085743, 2089938081, 7667163190, 12034085746, 12034086672, 277046795, 12034086677, 12034086674, 12034085742, 12034086682, 277046797, 12034086675, 12034086690, 12034085764, 12034086708, 12034085759, 12034085766, 277046798, 277046794], "tags": {"ele": "28", "gnis:feature_id": "2352554", "leisure": "park", "name": "Joe Sabba Park", "website": "https://www.nycgovparks.org/parks/sabba-park/", "wikidata": "Q49507910"}}, {"type": "way", "id": 280354512, "nodes": [2844943174, 2844943181, 2844943378, 2844943382, 2844943326, 2844943193, 2844943180, 2844943174], "tags": {"amenity": "restaurant", "building": "retail", "building:levels": "1", "cuisine": "mexican", "height": "9.0", "name": "Chihuahua Cantina & Restaurant", "nycdoitt:bin": "4001512"}}, {"type": "way", "id": 437572762, "nodes": [4353850020, 4353850018, 4353850017, 11826314670, 4353850019, 11826314673, 4353850020], "tags": {"addr:housenumber": "47-02", "addr:postcode": "11377", "addr:street": "46th Street", "amenity": "school", "ele": "23", "gnis:feature_id": "954248", "name": "I.S. 125 Thomas J. McCann Woodside Intermediate School", "website": "https://www.is125q.org/"}}, {"type": "way", "id": 462694128, "nodes": [4580602640, 4580602641, 4580602642, 4580602643, 4580602644, 4580602645, 4580602646, 4580602647, 4580602648, 4580602649, 4580602650, 4580602651, 4580602652, 4580602653, 4580602654, 4580602655, 4580602656, 4580602657, 4580602658, 4580602659, 4580602660, 4580602640], "tags": {"access": "private", "leisure": "park"}}, {"type": "way", "id": 462694299, "nodes": [4580603667, 4580603668, 4580603669, 4580603670, 4580603671, 4580603672, 4580603673, 4580603674, 4580603675, 4580603676, 4580603677, 4580603678, 4580603679, 4580603680, 4580603681, 4580603682, 4580603683, 4580603684, 4580603685, 4580603686, 4580603687, 4580603688, 4580603789, 4580603790, 4580603791, 4580603792, 4580603793, 4580603794, 4580603667], "tags": {"access": "private", "leisure": "park"}}, {"type": "way", "id": 462694723, "nodes": [4580605622, 4580605623, 4580605624, 4580605625, 4580605626, 4580605627, 4580605628, 4580605629, 4580605630, 4580605631, 4580605632, 4580605633, 4580605622], "tags": {"access": "private", "leisure": "park"}}, {"type": "way", "id": 462695341, "nodes": [4580611442, 12001307594, 4580611443, 4580611444, 4580611445, 4580611446, 4580611447, 4580611448, 4580611449, 4580611450, 4580611451, 4580611452, 4580611453, 4580611454, 4580611455, 4580611456, 4580611457, 4580611458, 4580611459, 2844976475, 4580611442], "tags": {"access": "private", "leisure": "park"}}, {"type": "way", "id": 462695394, "nodes": [4580609984, 4580609985, 4580609986, 4580609987, 4580609988, 4580612389, 4580612390, 4580612391, 4580612392, 4580612393, 4580612394, 4580612395, 4580612396, 4580612397, 4580609984], "tags": {"access": "private", "leisure": "park"}}]}