{"version": 0.6, "generator": "Overpass API 0.7.62.8 e802775f", "osm3s": {"timestamp_osm_base": "2025-12-01T17:10:00Z", "copyright": "The data included in this document is from www.openstreetmap.org. The data is made available under ODbL."}, "elements": [{"type": "node", "id": 357628650, "lat": 40.7582362, "lon": -73.8315955}, {"type": "node", "id": 357651803, "lat": 40.7572222, "lon": -73.8308333, "tags": {"amenity": "school", "ele": "9", "gnis:feature_id": "2512550", "name": "Faith Bible Seminary"}}, {"type": "node", "id": 2883431999, "lat": 40.7617708, "lon": -73.832889, "tags": {"addr:housenumber": "36-19", "addr:postcode": "11354", "addr:street": "Prince Street", "amenity": "restaurant", "name": "Young and Rich", "name:zh-Hant": "\u6e58\u5f53\u6709\u6599", "website": "https://www.youngandrichnyc.com/"}}, {"type": "node", "id": 2883432819, "lat": 40.7610236, "lon": -73.8310318, "tags": {"addr:housenumber": "37-14", "addr:postcode": "11354", "addr:street": "Main Street", "amenity": "restaurant", "cuisine": "chinese", "delivery": "yes", "name": "Han Bin Yuan", "opening_hours": "Mo-Su 11:00-24:00", "phone": "+1-929-200-7078", "takeaway": "yes"}}, {"type": "node", "id": 2883433123, "lat": 40.7618046, "lon": -73.8303536}, {"type": "node", "id": 2883433124, "lat": 40.7618276, "lon": -73.8302644}, {"type": "node", "id": 2883433132, "lat": 40.7618716, "lon": -73.8302839}, {"type": "node", "id": 2883433162, "lat": 40.7620458, "lon": -73.8304608}, {"type": "node", "id": 2883433166, "lat": 40.7620688, "lon": -73.8303716}, {"type": "node", "id": 2883433174, "lat": 40.7621236, "lon": -73.8290905}, {"type": "node", "id": 2883433186, "lat": 40.7621937, "lon": -73.8288246}, {"type": "node", "id": 2883433213, "lat": 40.7623479, "lon": -73.8291927}, {"type": "node", "id": 2883433235, "lat": 40.7624179, "lon": -73.8289267}, {"type": "node", "id": 2883438270, "lat": 40.7596733, "lon": -73.8291153, "tags": {"addr:city": "Flushing", "addr:housenumber": "4021", "addr:postcode": "11354", "addr:state": "NY", "addr:street": "Main Street", "amenity": "restaurant", "cuisine": "tea;wine;small_plates;dessert", "delivery": "no", "description": "Big & boisterous destination for Chinese cuisine, including dim sum & exotic offerings.", "name": "Grand", "opening_hours": "Mo-Su 09:00-23:00", "outdoor_seating": "no", "payment:credit_cards": "yes", "payment:debit_cards": "yes", "phone": "+1-718-321-8258", "takeaway": "yes", "website": "https://www.royalqueenflushing.com/"}}, {"type": "node", "id": 2883438622, "lat": 40.7607307, "lon": -73.8268642, "tags": {"addr:housenumber": "39-12", "addr:postcode": "11354", "addr:street": "Union Street", "amenity": "restaurant", "cuisine": "korean", "delivery": "yes", "name": "Kimgane", "opening_hours": "Mo-Su 09:00-22:30", "phone": "+1-718-888-3100"}}, {"type": "node", "id": 2883466147, "lat": 40.759185, "lon": -73.8333216, "tags": {"addr:city": "Flushing", "addr:housenumber": "133-30", "addr:postcode": "11354", "addr:state": "NY", "addr:street": "39th Avenue", "amenity": "restaurant", "name": "Asian Jewels Seafood Restaurant", "phone": "+1 718 359-8600", "wheelchair": "no"}}, {"type": "node", "id": 2883466151, "lat": 40.758697, "lon": -73.8330751, "tags": {"addr:city": "Flushing", "addr:housenumber": "133-35", "addr:postcode": "11354", "addr:state": "NY", "addr:street": "Roosevelt Avenue", "amenity": "restaurant", "name": "New York Food Court", "wheelchair": "limited"}}, {"type": "node", "id": 2883466162, "lat": 40.7584826, "lon": -73.8314333, "tags": {"addr:housenumber": "40-09", "addr:postcode": "11354", "addr:street": "Prince Street", "amenity": "restaurant", "cuisine": "chinese", "name": "Prince Noodle & Cafe", "opening_hours": "Mo-We, Fr-Su 09:00-20:00", "phone": "+1 718-888-9295"}}, {"type": "node", "id": 2883466170, "lat": 40.7594256, "lon": -73.8309401, "tags": {"addr:housenumber": "135-29", "addr:postcode": "11354", "addr:street": "Roosevelt Avenue", "amenity": "restaurant", "name": "Partea NYC"}}, {"type": "node", "id": 2883466310, "lat": 40.7596293, "lon": -73.8303649, "tags": {"addr:city": "Flushing", "addr:housenumber": "39-22", "addr:postcode": "11354", "addr:state": "NY", "addr:street": "Main Street", "amenity": "cafe", "branch": "Fresh Tea & Juice", "brand": "CoCo", "brand:wikidata": "Q65084369", "check_date": "2024-07-27", "cuisine": "bubble_tea", "name": "Coco", "opening_hours": "Su-Th 09:00-12:00; Fr-Sa 09:00-13:00", "payment:cash": "yes", "payment:credit_cards": "no", "payment:debit_cards": "no", "payment:electronic_purses": "no", "phone": "+1-718-321-8566", "shop": "tea", "takeaway": "yes", "toilets:wheelchair": "no", "website": "https://cocobubbletea.com/", "wheelchair": "yes"}}, {"type": "node", "id": 2883467284, "lat": 40.7599251, "lon": -73.8327671}, {"type": "node", "id": 2883467288, "lat": 40.7599336, "lon": -73.8327711}, {"type": "node", "id": 2883467295, "lat": 40.7599623, "lon": -73.832787}, {"type": "node", "id": 2883467297, "lat": 40.7599707, "lon": -73.8326212}, {"type": "node", "id": 2883467404, "lat": 40.7600084, "lon": -73.8326419}, {"type": "node", "id": 2883480540, "lat": 40.7581016, "lon": -73.8299419, "tags": {"addr:city": "Flushing", "addr:housenumber": "40-52", "addr:postcode": "11354", "addr:state": "NY", "addr:street": "Main Street", "addr:unit": "2", "amenity": "restaurant", "brand": "Gyu-Kaku", "brand:wikidata": "Q11349387", "cuisine": "japanese;barbecue", "name": "Gyu-Kaku", "opening_hours": "Su-Th 11:30-22:45, Fr-Sa 11:30-23:45", "outdoor_seating": "no", "payment:cash": "yes", "payment:debit_cards": "yes", "phone": "+1-347-542-3653", "smoking": "no", "website": "https://www.gyu-kaku.com/flushing"}}, {"type": "node", "id": 2883480565, "lat": 40.7580314, "lon": -73.829601, "tags": {"addr:city": "Flushing", "addr:housenumber": "41-02", "addr:postcode": "11355", "addr:state": "NY", "addr:street": "Main Street", "amenity": "cafe", "branch": "Main St & 41st Avenue", "brand": "Starbucks", "brand:wikidata": "Q37158", "cuisine": "coffee_shop", "description": "Seattle-based coffeehouse chain known for its signature roasts, light bites and WiFi availability.", "internet_access:fee": "yes", "name": "Starbucks", "official_name": "Starbucks Coffee", "opening_hours": "Mo-Fr 05:00-23:00; Sa-Su 05:30-23:00", "payment:contactless": "yes", "payment:debit_cards": "yes", "phone": "+1 718-358-9355", "takeaway": "yes", "website": "https://www.starbucks.com/store-locator/store/13531/main-st-41-st-ave-41-02-main-street-flushing-ny-113553133-us"}}, {"type": "node", "id": 3910202310, "lat": 40.7580116, "lon": -73.8314538}, {"type": "node", "id": 4248992037, "lat": 40.7585315, "lon": -73.8308287}, {"type": "node", "id": 4248992043, "lat": 40.7582966, "lon": -73.8306852}, {"type": "node", "id": 4316449795, "lat": 40.7586665, "lon": -73.8315647, "tags": {"addr:housenumber": "40-09", "addr:street": "Prince Street", "amenity": "restaurant", "name": "Fu Run"}}, {"type": "node", "id": 4638687537, "lat": 40.7583259, "lon": -73.8313923}, {"type": "node", "id": 4638687542, "lat": 40.7584057, "lon": -73.8311924}, {"type": "node", "id": 4638687543, "lat": 40.7584283, "lon": -73.8311239}, {"type": "node", "id": 4850903425, "lat": 40.7587742, "lon": -73.8316456, "tags": {"addr:housenumber": "135-02", "addr:postcode": "11354", "addr:street": "Roosevelt Avenue", "amenity": "restaurant", "cuisine": "chinese", "name": "White Bear", "name:en": "White Bear", "opening_hours": "Mo-Su 10:00-19:00", "payment:cash": "only", "phone": "+1 718-961-2322", "takeaway": "only"}}, {"type": "node", "id": 4959225990, "lat": 40.7608993, "lon": -73.8270495, "tags": {"addr:city": "Flushing", "addr:housenumber": "39-02", "addr:postcode": "11354", "addr:state": "NY", "addr:street": "Union Street", "amenity": "cafe", "brand": "Tous les Jours", "brand:en": "Tous Les Jours", "brand:ko": "\ub69c\ub808\uc96c\ub974", "brand:wikidata": "Q3535609", "cuisine": "coffee_shop", "internet_access:fee": "no", "name": "Tous les Jours", "name:en": "Tous Les Jours", "name:ko": "\ub69c\ub808\uc96c\ub974", "opening_hours": "Mo-Su 07:00-22:00", "outdoor_seating": "no", "phone": "+1-718-762-6557", "shop": "bakery", "smoking": "no", "website": "https://www.tljus.com/"}}, {"type": "node", "id": 5220850413, "lat": 40.7582897, "lon": -73.8264955, "tags": {"addr:city": "Flushing", "addr:housenumber": "138-60", "addr:postcode": "11355", "addr:state": "NY", "addr:street": "Barclay Avenue", "description": "New York State Department of Labor and Social Security Administration at the next door", "name": "New York State Department of Labor", "office": "government"}}, {"type": "node", "id": 5220850414, "lat": 40.7582553, "lon": -73.8266397, "tags": {"government": "social_security", "name": "Social Security Administration", "office": "government", "operator": "Social Security Administration", "operator:short": "SSA", "operator:wikidata": "Q2824618"}}, {"type": "node", "id": 5300046125, "lat": 40.7584218, "lon": -73.8291173, "tags": {"addr:housenumber": "41-01", "addr:street": "Kissena Boulevard", "amenity": "restaurant", "cuisine": "vietnamese", "delivery": "yes", "drink:coffee": "yes", "drink:tea": "yes", "name": "Ph\u1edf Ho\u00e0ng", "phone": "+1-718-762-6151", "takeaway": "yes"}}, {"type": "node", "id": 5397494204, "lat": 40.760603, "lon": -73.8329669, "tags": {"addr:housenumber": "37-06", "addr:postcode": "11354", "addr:street": "Prince Street", "amenity": "cafe", "cuisine": "crepe;ice_cream", "name": "KULU Desserts Flushing", "opening_hours": "Su-Th 12:00-00:01; Fr-Sa 12:00-02:00", "phone": "+1-718-886-3302", "website": "https://www.kuludesserts.com/"}}, {"type": "node", "id": 5425886614, "lat": 40.7603221, "lon": -73.8266139, "tags": {"addr:housenumber": "136-98", "addr:street": "Roosevelt Avenue", "amenity": "restaurant", "name": "Dimension Poptown"}}, {"type": "node", "id": 5452547591, "lat": 40.7603426, "lon": -73.8275972, "tags": {"addr:city": "Flushing", "addr:housenumber": "136-71", "addr:postcode": "11354", "addr:state": "NY", "addr:street": "Roosevelt Avenue", "amenity": "restaurant", "cuisine": "barbecue;korean", "description": "Modern Korean BBQ place offering various meats & an all-you-can-eat option, plus Asian beer & wine.", "drink:beer": "served", "drink:wine": "served", "name": "Mapo Galmaegi", "opening_hours": "Mo-Su 09:00-03:00", "outdoor_seating": "no", "phone": "+1-718-460-6200", "smoking": "no", "takeaway": "yes", "website": "http://mapogalmaegi.com/"}}, {"type": "node", "id": 5452573967, "lat": 40.7603809, "lon": -73.8275173, "tags": {"addr:city": "Flushing", "addr:housenumber": "136-75", "addr:postcode": "11354", "addr:state": "NY", "addr:street": "Roosevelt Avenue", "amenity": "restaurant", "cuisine": "chicken;rice;fish;soup;quick_bite", "delivery": "no", "description": "Choose 4 different side dishes and 1 base from a wide variety of options. Includes either a hot or cold soup.", "diet:meat": "yes", "diet:vegetarian": "yes", "name": "4 Choice 1 Soup Lunch Box", "opening_hours": "Mo-Su 09:00-21:00", "outdoor_seating": "no", "phone": "+1 718-886-0083", "smoking": "no", "takeaway": "yes"}}, {"type": "node", "id": 5453156336, "lat": 40.75932, "lon": -73.8302071, "tags": {"addr:city": "Flushing", "addr:housenumber": "40-06", "addr:postcode": "11354", "addr:state": "NY", "addr:street": "Main Street", "amenity": "cafe", "cuisine": "quick_bite", "description": "Small bakery with sorts of pastries but few coffee selections.", "internet_access": "no", "internet_access:fee": "no", "name": "Maxin Bakery", "opening_hours": "Mo-Su 07:00-19:00", "outdoor_seating": "no", "smoking": "no", "wheelchair": "yes"}}, {"type": "node", "id": 5454117997, "lat": 40.7604123, "lon": -73.8303723, "tags": {"addr:housenumber": "38-19", "addr:street": "Main Street", "amenity": "cafe", "name": "Off-Peak Coffee", "outdoor_seating": "no"}}, {"type": "node", "id": 5457966313, "lat": 40.760054, "lon": -73.8301454, "tags": {"addr:city": "Flushing", "addr:housenumber": "39-01", "addr:postcode": "11354", "addr:state": "NY", "addr:street": "Main Street", "name": "Quan Law Office", "office": "lawyer", "opening_hours": "Mo-Sa 09:00-18:00, Su closed", "phone": "+1-718-766-7989", "website": "http://quanls.com/"}}, {"type": "node", "id": 5457976615, "lat": 40.7607508, "lon": -73.8305309, "tags": {"addr:city": "Flushing", "addr:housenumber": "38-05", "addr:postcode": "11354", "addr:state": "NY", "addr:street": "Main Street", "amenity": "cafe", "branch": "3805 Main St", "brand": "Starbucks", "brand:wikidata": "Q37158", "cuisine": "coffee_shop", "internet_access": "yes", "internet_access:fee": "no", "name": "Starbucks", "official_name": "Starbucks Coffee", "opening_hours": "Mo-Fr 05:30-23:00, Sa,Su 06:00-23:00", "outdoor_seating": "no", "phone": "+1 718-445-0354", "smoking": "no", "takeaway": "yes", "website": "https://www.starbucks.com/store-locator/store/1009150/3805-main-st-3805-main-st-flushing-ny-113545517-us"}}, {"type": "node", "id": 5457983386, "lat": 40.7611195, "lon": -73.830308, "tags": {"addr:city": "Flushing", "addr:housenumber": "136-11", "addr:postcode": "11354", "addr:state": "NY", "addr:street": "38th Avenue", "amenity": "bar", "description": "Polished sports bar with late-night hours, specialty cocktails, Japanese food & karaoke rooms.", "name": "Zebra Lounge", "opening_hours": "Mo-Su 11:00-04:00", "outdoor_seating": "no", "phone": "+1-718-886-7366", "smoking": "no", "website": "http://www.z2nyc.com/"}}, {"type": "node", "id": 5470123948, "lat": 40.7582693, "lon": -73.8297389, "tags": {"addr:housenumber": "40-46", "addr:street": "Main Street", "amenity": "restaurant", "name": "Qing Dao"}}, {"type": "node", "id": 5491657344, "lat": 40.7576764, "lon": -73.8277388, "tags": {"addr:housenumber": "41-61", "addr:street": "Kissena Boulevard", "name": "Queens Public Television", "office": "telecommunication", "phone": "+1-718-886-4880", "website": "https://www.qptv.org/"}}, {"type": "node", "id": 5526630523, "lat": 40.7588429, "lon": -73.8304623, "tags": {"addr:city": "Flushing", "addr:housenumber": "135-33", "addr:postcode": "11354", "addr:state": "NY", "addr:street": "40th Road", "amenity": "restaurant", "check_date": "2025-09-07", "cuisine": "chinese", "description": "Classy kitchen serving traditional Shanghainese food, including handmade soup dumplings & dim sum.", "internet_access": "wlan", "internet_access:fee": "customers", "name": "Shanghai You Garden Restaurant", "name:zh": "\u4e0a\u6d77\u8c6b\u5712", "opening_hours": "Mo-Su 08:00-23:00", "payment:cash": "yes", "payment:credit_cards": "no", "payment:debit_cards": "no", "payment:electronic_purses": "no", "phone": "+1-718-886-2286", "website": "https://www.yougardenny.com/", "wheelchair": "limited"}}, {"type": "node", "id": 5700672221, "lat": 40.7593921, "lon": -73.8327216, "tags": {"addr:city": "Flushing", "addr:housenumber": "39-16", "addr:postcode": "11354", "addr:state": "NY", "addr:street": "Prince Street", "addr:unit": "103", "amenity": "restaurant", "cuisine": "korean", "name": "The COOP Restaurant and Bar", "opening_hours": "Su-We 12:00-02:00; Th-Sa 12:00-02:00", "phone": "+1-718-358-9333", "website": "http://thecoopnyc.com"}}, {"type": "node", "id": 5731552309, "lat": 40.7601748, "lon": -73.8265332, "tags": {"addr:city": "Flushing", "addr:housenumber": "40-08", "addr:postcode": "11354", "addr:state": "NY", "addr:street": "Union Street", "amenity": "restaurant", "cuisine": "crepe;fruit", "name": "T-swirl Cr\u00eape", "opening_hours": "Mo-Su 10:00-23:00", "outdoor_seating": "no", "phone": "+1-917-285-2521", "smoking": "no", "website": "https://t-swirlcrepe.com/"}}, {"type": "node", "id": 5802720229, "lat": 40.7601183, "lon": -73.82649, "tags": {"addr:city": "Flushing", "addr:housenumber": "4010", "addr:postcode": "11354", "addr:state": "NY", "addr:street": "Union Street", "amenity": "restaurant", "cuisine": "tea;milk_tea", "name": "Hao Shi Lai", "opening_hours": "Mo-Su 10:00-22:00", "phone": "+1-929-335-7777", "smoking": "no", "takeaway": "yes"}}, {"type": "node", "id": 5840641428, "lat": 40.7586025, "lon": -73.8311359, "tags": {"addr:city": "Flushing", "addr:housenumber": "135-11", "addr:postcode": "11354", "addr:state": "NY", "addr:street": "40th Road", "amenity": "restaurant", "cuisine": "chinese", "name": "King Crab House"}}, {"type": "node", "id": 5990907363, "lat": 40.7582209, "lon": -73.8296914, "tags": {"addr:housenumber": "40-52", "addr:street": "Main Street", "amenity": "cafe", "check_date": "2025-09-07", "cuisine": "bubble_tea", "internet_access": "no", "name": "Xing Fu Tang", "name:zh": "\u8f9b\u798f\u5802", "opening_hours": "Mo-Th 11:00-21:00; Fr-Su 11:00-22:00", "payment:cash": "yes", "payment:credit_cards": "yes", "payment:debit_cards": "yes", "phone": "+1 929-519-6206", "website": "https://xingfutang.com/"}}, {"type": "node", "id": 6208852875, "lat": 40.7617994, "lon": -73.8314553, "tags": {"addr:housenumber": "36-50", "addr:street": "Main Street", "amenity": "restaurant", "name": "Collide BBQ Fusion"}}, {"type": "node", "id": 6535092942, "lat": 40.761021, "lon": -73.829512, "tags": {"addr:city": "Flushing", "addr:housenumber": "136-20", "addr:postcode": "11354", "addr:street": "38th Avenue", "amenity": "restaurant", "cuisine": "asian;hotpot", "drink:liquor": "yes", "drink:sake": "yes", "level": "2", "name": "Spring Shabu-Shabu", "opening_hours": "Mo-Su 11:30-22:00", "phone": "+1-718-395-8076", "toilets": "yes", "toilets:unisex": "no", "website": "https://www.springshabu.com/flushing.html"}}, {"type": "node", "id": 6587178885, "lat": 40.7607605, "lon": -73.829775, "tags": {"addr:postcode": "11354", "addr:street": "136-20 38th Ave, Flushing", "amenity": "restaurant", "cuisine": "asian", "name": "OK LAH!", "opening_hours": "Mo-Su 11:00-18:00", "phone": "+1-917-628-0180", "website": "https://www.instagram.com/oklahnyc"}}, {"type": "node", "id": 6816300741, "lat": 40.761322, "lon": -73.8271897, "tags": {"addr:city": "Flushing", "addr:housenumber": "38-08", "addr:postcode": "11355", "addr:state": "NY", "addr:street": "Union Street", "name": "Flushing Commons Offices", "office": "estate_agent"}}, {"type": "node", "id": 6893685419, "lat": 40.7611893, "lon": -73.8311758, "tags": {"addr:housenumber": "37-08", "addr:street": "Main Street", "amenity": "bar", "name": "Red Cali Lounge"}}, {"type": "node", "id": 6980049830, "lat": 40.7587471, "lon": -73.8308078, "tags": {"addr:city": "Flushing", "addr:housenumber": "135-21A", "addr:state": "NY", "addr:street": "40th Road", "name": "Big Apple Employee Agency Match Making", "office": "employment_agency"}}, {"type": "node", "id": 6980049833, "lat": 40.758667, "lon": -73.8309328, "tags": {"addr:city": "Flushing", "addr:housenumber": "135-15", "addr:postcode": "11354", "addr:state": "NY", "addr:street": "40th Road", "amenity": "cafe", "brand": "Yi Fang Tea", "brand:en": "Yi Fang Tea", "brand:wikidata": "Q66196395", "brand:zh": "\u4e00\u82b3\u6c34\u679c\u8336", "cuisine": "bubble_tea", "name": "Yi Fang Tea", "name:en": "Yi Fang Tea", "name:zh": "\u4e00\u82b3\u6c34\u679c\u8336", "shop": "tea", "takeaway": "yes"}}, {"type": "node", "id": 6980049834, "lat": 40.7587907, "lon": -73.8305768, "tags": {"addr:city": "Flushing", "addr:housenumber": "135-29", "addr:state": "NY", "addr:street": "40th Road", "amenity": "restaurant", "level": "-1", "name": "Buddy Buddy"}}, {"type": "node", "id": 6980049837, "lat": 40.7587301, "lon": -73.8307498, "tags": {"addr:city": "Flushing", "addr:housenumber": "135-23", "addr:state": "NY", "addr:street": "40th Road", "amenity": "restaurant", "cuisine": "chinese", "name": "8 Pots Mini Hot Pot", "payment:cash": "yes", "phone": "+1 718 888 9233"}}, {"type": "node", "id": 6980049847, "lat": 40.7592353, "lon": -73.8301751, "tags": {"addr:city": "Flushing", "addr:housenumber": "40-10", "addr:postcode": "11354", "addr:state": "NY", "addr:street": "Main Street", "amenity": "cafe", "brand": "Tiger Sugar", "brand:wikidata": "Q76099070", "cuisine": "bubble_tea", "name": "Tiger Sugar", "shop": "tea", "takeaway": "yes"}}, {"type": "node", "id": 6980049848, "lat": 40.7587321, "lon": -73.8316143, "tags": {"addr:city": "Flushing", "addr:housenumber": "135-02", "addr:state": "NY", "addr:street": "Roosevelt Avenue", "amenity": "restaurant", "cuisine": "chinese", "name": "Tian Jin"}}, {"type": "node", "id": 6980049849, "lat": 40.7587039, "lon": -73.8308505, "tags": {"addr:city": "Flushing", "addr:housenumber": "135-19", "addr:state": "NY", "addr:street": "40th Road", "amenity": "restaurant", "cuisine": "chinese", "name": "New Fuzhou Style"}}, {"type": "node", "id": 6980049853, "lat": 40.7587657, "lon": -73.830649, "tags": {"addr:city": "Flushing", "addr:housenumber": "135-25A", "addr:state": "NY", "addr:street": "40th Road", "amenity": "restaurant", "cuisine": "chinese", "name": "Yin Traditional Hot Pot"}}, {"type": "node", "id": 6980049859, "lat": 40.7586843, "lon": -73.8308977, "tags": {"addr:city": "Flushing", "addr:housenumber": "135-17", "addr:state": "NY", "addr:street": "40th Road", "amenity": "restaurant", "cuisine": "malaysian", "name": "Malay Restaurant Inc"}}, {"type": "node", "id": 6980049861, "lat": 40.7586645, "lon": -73.8309696, "tags": {"addr:city": "Flushing", "addr:housenumber": "135-15", "addr:state": "NY", "addr:street": "40th Road", "amenity": "restaurant", "cuisine": "taiwanese", "name": "Legend Chicken", "opening_hours": "Su-Th 12:00-20:00; Fr-Sa 12:00-21:00", "phone": "+1-516-388-6888", "website": "https://www.legendchicken88.com"}}, {"type": "node", "id": 6980049862, "lat": 40.7587838, "lon": -73.8306503, "tags": {"addr:city": "Flushing", "addr:housenumber": "135-25A", "addr:state": "NY", "addr:street": "40th Road", "brand": "Nationwide", "brand:wikidata": "Q6979886", "name": "Nationwide", "office": "insurance"}}, {"type": "node", "id": 6980049867, "lat": 40.7586896, "lon": -73.8309149, "tags": {"addr:city": "Flushing", "addr:housenumber": "135-17", "addr:state": "NY", "addr:street": "40th Road", "name": "Jasper Yang, CPA", "office": "tax_advisor"}}, {"type": "node", "id": 6980049868, "lat": 40.7588207, "lon": -73.8305077, "tags": {"addr:city": "Flushing", "addr:housenumber": "137-31", "addr:state": "NY", "addr:street": "40th Road", "amenity": "restaurant", "cuisine": "chinese", "name": "Curry Leaves Restaurant"}}, {"type": "node", "id": 6980049869, "lat": 40.7586716, "lon": -73.8309819, "tags": {"addr:city": "Flushing", "addr:housenumber": "135-15", "addr:state": "NY", "addr:street": "40th Road", "office": "architect"}}, {"type": "node", "id": 6980049873, "lat": 40.758715, "lon": -73.8307998, "tags": {"addr:city": "Flushing", "addr:housenumber": "135-21", "addr:state": "NY", "addr:street": "40th Road", "amenity": "restaurant", "name": "Oidu Restaurant"}}, {"type": "node", "id": 7093484986, "lat": 40.7605857, "lon": -73.8334454, "tags": {"amenity": "restaurant", "name": "Kyr", "name:en": "Kyuramen Ramen"}}, {"type": "node", "id": 7272960459, "lat": 40.7612797, "lon": -73.8280454, "tags": {"addr:city": "Flushing", "addr:housenumber": "138-23", "addr:postcode": "11354", "addr:state": "NY", "addr:street": "39th Avenue", "amenity": "restaurant", "cuisine": "chinese;hotpot", "name": "Haidilao", "opening_hours": "Su-We 11:30-23:30; Th 11:30-22:00; Fr,Sa 11:30-24:00", "phone": "+1-917-231-8888"}}, {"type": "node", "id": 7292366579, "lat": 40.7585823, "lon": -73.8306664, "tags": {"addr:city": "Flushing", "addr:housenumber": "135-24", "addr:postcode": "11354", "addr:state": "NY", "addr:street": "40th Road", "air_conditioning": "yes", "amenity": "restaurant", "cuisine": "asian;chinese", "name": "Corner 28", "opening_hours": "Mo-Su 06:00-22:00", "phone": "135-24", "takeaway": "yes"}}, {"type": "node", "id": 7412863961, "lat": 40.7607202, "lon": -73.8295224, "tags": {"addr:city": "Flushing", "addr:housenumber": "136-17", "addr:postcode": "11354", "addr:state": "NY", "addr:street": "39th Avenue", "amenity": "cafe", "brand": "Kung Fu Tea", "brand:wikidata": "Q66023886", "check_date": "2025-04-08", "cuisine": "bubble_tea", "name": "Kung Fu Tea", "opening_hours": "Mo-Su 11:00-20:00", "payment:cash": "yes", "shop": "tea", "takeaway": "yes"}}, {"type": "node", "id": 7417658906, "lat": 40.759462, "lon": -73.8324383, "tags": {"addr:city": "Flushing", "addr:housenumber": "39-16", "addr:postcode": "11354", "addr:state": "NY", "addr:street": "Prince Street", "addr:unit": "104", "amenity": "restaurant", "cuisine": "chinese", "level": "1", "name": "Nan Xiang Xiao Long Bao", "opening_hours": "Su-Th 09:00-23:30; Fr-Sa 09:00-00:30", "phone": "+1-718-321-3838", "website": "https://nanxiangxiaolongbao.com/"}}, {"type": "node", "id": 8572794329, "lat": 40.7583914, "lon": -73.8290679, "tags": {"addr:housenumber": "41-07", "addr:street": "Kissena Boulevard", "amenity": "restaurant", "cuisine": "vietnamese", "delivery": "yes", "drink:coffee": "yes", "drink:tea": "yes", "name": "Ph\u1edb B\u1eb1ng", "phone": "+1-718-939-5520", "takeaway": "yes"}}, {"type": "node", "id": 8572794336, "lat": 40.7584789, "lon": -73.8292026, "tags": {"office": "notary"}}, {"type": "node", "id": 8849389462, "lat": 40.7576073, "lon": -73.8275161, "tags": {"name": "Emblem Health", "office": "insurance"}}, {"type": "node", "id": 8849401791, "lat": 40.7609804, "lon": -73.8329094, "tags": {"amenity": "restaurant", "name": "Congee Village Restaurant and Bar"}}, {"type": "node", "id": 8849401792, "lat": 40.7610126, "lon": -73.8329198, "tags": {"amenity": "restaurant", "cuisine": "noodle", "name": "Hunan Noodle", "phone": "+1 929 391 4633"}}, {"type": "node", "id": 8849401793, "lat": 40.7610289, "lon": -73.832891, "tags": {"amenity": "restaurant", "name": "The Dolar Shop"}}, {"type": "node", "id": 8867039496, "lat": 40.7605553, "lon": -73.831801, "tags": {"addr:housenumber": "135-27", "addr:postcode": "11354", "addr:street": "38th Avenue", "amenity": "school", "ele": "11", "gnis:feature_id": "2516106", "height": "14.4", "name": "Kon Wah Day School", "nycdoitt:bin": "4112297"}}, {"type": "node", "id": 9023025529, "lat": 40.760239, "lon": -73.8265481, "tags": {"amenity": "cafe", "brand": "Gong Cha", "cuisine": "bubble_tea", "drink:bubble_tea": "yes", "name": "Gong Cha"}}, {"type": "node", "id": 9466924819, "lat": 40.7602316, "lon": -73.8269754, "tags": {"addr:city": "Flushing", "addr:housenumber": "136-88", "addr:postcode": "11355", "addr:state": "NY", "addr:street": "Roosevelt Avenue", "amenity": "restaurant", "name": "Roosevelt BBQ1"}}, {"type": "node", "id": 9658579984, "lat": 40.7600469, "lon": -73.8327001, "tags": {"addr:city": "Flushing", "addr:housenumber": "38-02", "addr:postcode": "11354", "addr:state": "NY", "addr:street": "Prince Street", "amenity": "cafe", "brand": "Heytea", "brand:en": "Heytea", "brand:wikidata": "Q60875376", "brand:zh": "\u559c\u8336", "cuisine": "bubble_tea", "name": "Heytea", "name:en": "Heytea", "name:zh": "\u559c\u8336", "opening_hours": "Mo-Th 10:30-22:00; Fr-Sa 10:30-23:00; Su 10:30-22:00", "phone": "+1 347-732-0666", "takeaway": "yes", "website": "https://www.heytea.com/"}}, {"type": "node", "id": 9659375180, "lat": 40.7578725, "lon": -73.8281379, "tags": {"addr:city": "Flushing", "addr:housenumber": "41-41", "addr:postcode": "11355", "addr:state": "NY", "addr:street": "Kissena Boulevard", "addr:unit": "101", "amenity": "restaurant", "cuisine": "dumpling;chinese", "name": "Tian Jin Dumpling House"}}, {"type": "node", "id": 9671008994, "lat": 40.7603503, "lon": -73.829261, "tags": {"addr:city": "Flushing", "addr:housenumber": "136-28", "addr:postcode": "11355", "addr:state": "NY", "addr:street": "39th Avenue", "amenity": "cafe", "name": "Mango Mango"}}, {"type": "node", "id": 9923265672, "lat": 40.7602523, "lon": -73.8335391, "tags": {"addr:city": "Flushing", "addr:housenumber": "133-36", "addr:postcode": "11354", "addr:state": "NY", "addr:street": "37th Avenue", "amenity": "restaurant", "brand": "SHOO LOONG KAN", "brand:en": "SHOO LOONG KAN", "brand:wikidata": "Q108212427", "brand:zh": "\u5c0f\u9f99\u574e\u706b\u9505", "cuisine": "chinese;hotpot", "drive_through": "no", "name": "SHOO LOONG KAN", "name:en": "SHOO LOONG KAN", "name:zh": "\u5c0f\u9f99\u574e\u706b\u9505", "name:zh-Hant": "\u5c0f\u9f99\u574e", "phone": "+17189579886", "website": "https://shoo-loong-kan-hot-pot.business.site"}}, {"type": "node", "id": 9968004718, "lat": 40.7612195, "lon": -73.8322897, "tags": {"amenity": "restaurant", "cuisine": "chinese;hotpot", "name": "37 Xiang"}}, {"type": "node", "id": 10695883331, "lat": 40.7613899, "lon": -73.8268273, "tags": {"addr:city": "Flushing", "addr:housenumber": "38-09", "addr:postcode": "11354", "addr:state": "NY", "addr:street": "Union Street", "amenity": "restaurant", "cuisine": "chinese;breakfast", "delivery": "yes", "level": "1", "name": "Lee & Bai Buns", "name:zh-Hant": "\u674e\u4e0e\u767d-\u5305\u5b50\u94fa", "outdoor_seating": "no", "takeaway": "yes", "website": "https://www.leenbai.com"}}, {"type": "node", "id": 10815574642, "lat": 40.7606459, "lon": -73.8330454, "tags": {"addr:city": "Flushing", "addr:housenumber": "37-04", "addr:postcode": "11354", "addr:state": "NY", "addr:street": "Prince Street", "amenity": "restaurant", "cuisine": "chinese;hot_pot", "name": "Chongqing Lao Zao", "phone": "+1-917-563-7171"}}, {"type": "node", "id": 10815575668, "lat": 40.7608667, "lon": -73.833204, "tags": {"addr:city": "Flushing", "addr:housenumber": "133-53", "addr:postcode": "11354", "addr:state": "NY", "addr:street": "37th Avenue", "addr:unit": "101", "amenity": "restaurant", "cuisine": "dessert", "name": "520 Dessert Bar"}}, {"type": "node", "id": 10957959252, "lat": 40.7604227, "lon": -73.8301393, "tags": {"addr:housenumber": "136-17", "addr:street": "39th Avenue", "amenity": "restaurant", "check_date": "2023-06-05", "cuisine": "chinese", "name": "New Mulan Restaurant", "website": "https://www.newmulan.com/", "wheelchair": "yes"}}, {"type": "node", "id": 11113817720, "lat": 40.7583211, "lon": -73.8297839, "tags": {"addr:city": "Flushing", "addr:housenumber": "40-46", "addr:postcode": "11354", "addr:state": "NY", "addr:street": "Main Street", "addr:unit": "201", "name": "Global Tuidang Center", "name:en": "Global Service Center for Quitting Chinese Communist Party", "office": "association", "website": "https://www.tuidang.org/"}}, {"type": "node", "id": 11861124963, "lat": 40.7593971, "lon": -73.8324113, "tags": {"addr:city": "Flushing", "addr:housenumber": "39-16", "addr:postcode": "11354", "addr:state": "NY", "addr:street": "Prince Street", "addr:unit": "205;206", "amenity": "restaurant", "brand": "PappaRich", "brand:wikidata": "Q95721282", "cuisine": "malaysian", "level": "2", "name": "PappaRich", "opening_hours": "10:00-22:00; Fr,Sa 10:00-23:00", "phone": "+1-718-888-9307"}}, {"type": "node", "id": 12039928929, "lat": 40.7597437, "lon": -73.8328457, "tags": {"amenity": "restaurant", "name": "New Nurlan"}}, {"type": "node", "id": 12066945008, "lat": 40.7612526, "lon": -73.8267488, "tags": {"amenity": "restaurant", "cuisine": "korean;barbecue", "name": "San Soo Kap San - Korean BBQ", "website": "https://sansookapsannyc.com/"}}, {"type": "node", "id": 12413899401, "lat": 40.7607738, "lon": -73.8301471, "tags": {"addr:housenumber": "136-20, Ste 3L", "addr:postcode": "11354", "email": "feng.chen7.mil@us.navy.mil", "office": "government", "opening_hours": "Mo-Fr 09:00-18:00", "phone": "+1-917-626-6568", "website": "https://www.navy.com/"}}, {"type": "node", "id": 12413899402, "lat": 40.7608006, "lon": -73.8301435, "tags": {"addr:housenumber": "136-20,Suite 3L", "addr:postcode": "11354", "email": "feng.chen7.mil@us.navy.mil", "name": "Navy Recruiting Station Flushing", "name:zh": "\u7f8e\u56fd\u6d77\u519b\u5f81\u5175\u529e\u516c\u5ba4", "office": "government", "opening_hours": "Mo-Fr 09:00-18:00", "phone": "+1-917-626-6568", "website": "https://www.navy.com/"}}, {"type": "node", "id": 12662686601, "lat": 40.759294, "lon": -73.8324705, "tags": {"addr:housenumber": "3916", "addr:postcode": "11354", "addr:street": "Prince Street", "amenity": "restaurant", "contact:facebook": "szechuanmountainhouse", "cuisine": "chinese", "name": "Mountain House", "phone": "+1-718-888-7893", "website": "https://www.szechuanmountainhouse.com/", "website:menu": "https://www.szechuanmountainhouse.com/menu"}}, {"type": "node", "id": 12798517016, "lat": 40.7617184, "lon": -73.8314041, "tags": {"addr:city": "Flushing", "addr:housenumber": "36-56", "addr:postcode": "11354", "addr:state": "NY", "addr:street": "Main Street", "amenity": "cafe", "brand": "Heytea", "brand:en": "Heytea", "brand:wikidata": "Q60875376", "brand:zh": "\u559c\u8336", "cuisine": "bubble_tea", "name": "Heytea", "name:en": "Heytea", "name:zh": "\u559c\u8336", "opening_hours": "Mo-Su 10:30-21:45", "outdoor_seating": "no", "phone": "+1 347-542-3587", "takeaway": "yes", "website": "https://www.heytea.com/"}}, {"type": "node", "id": 13153831804, "lat": 40.759814, "lon": -73.8326223, "tags": {"addr:housenumber": "38-14", "addr:postcode": "11354", "addr:street": "Prince Street", "amenity": "restaurant", "cuisine": "chinese", "name": "Yuan Yang Dessert \u9e33\u9e2f\u7cd6\u6c34\u94fa", "opening_hours": "Mo-Su 12:00-23:00", "website": "https://www.instagram.com/yuanyangdessert?igsh=MTUxcGlocjI4eXVxNw=="}}, {"type": "node", "id": 13300264666, "lat": 40.7585603, "lon": -73.8302173, "tags": {"amenity": "restaurant"}}, {"type": "node", "id": 13300264667, "lat": 40.7582584, "lon": -73.8315761}, {"type": "way", "id": 284620925, "nodes": [2883433124, 2883433123, 2883433162, 2883433166, 2883433132, 2883433124], "tags": {"addr:housenumber": "136-21", "addr:postcode": "11354", "addr:street": "37th Avenue", "amenity": "restaurant", "building": "yes", "cuisine": "chinese;noodle", "height": "3.5", "name": "DunHuang Lanzhou Beef Noodle", "nycdoitt:bin": "4112373"}}, {"type": "way", "id": 284620942, "nodes": [2883433174, 2883433213, 2883433235, 2883433186, 2883433174], "tags": {"addr:city": "Flushing", "addr:housenumber": "136-59", "addr:postcode": "11354", "addr:state": "NY", "addr:street": "37th Avenue", "amenity": "restaurant", "building": "yes", "contact:facebook": "https://www.facebook.com/HappyLambFlushing/", "contact:yelp": "https://www.yelp.com/biz/happy-lamb-hot-pot-flushing", "cuisine": "hotpot", "height": "8.0", "name": "Happy Lamb Hot Pot", "name:zh": "\u5c0f\u80a5\u7f8a", "nycdoitt:bin": "4112365", "phone": "+1 718 762-8881"}}, {"type": "way", "id": 284624514, "nodes": [2883467284, 2883467288, 2883467295, 2883467404, 2883467297, 2883467284], "tags": {"addr:housenumber": "38-06", "addr:postcode": "11354", "addr:street": "Prince Street", "amenity": "restaurant", "building": "yes", "cuisine": "taiwanese", "height": "4.1", "name": "44 South Village", "nycdoitt:bin": "4439964"}}, {"type": "way", "id": 425616454, "nodes": [357628650, 3910202310, 4248992043, 4248992037, 4638687543, 4638687542, 4638687537, 13300264667, 357628650], "tags": {"ele": "9", "gnis:feature_id": "2330901", "leisure": "park", "name": "Bland Playground", "website": "https://www.nycgovparks.org/parks/bland-playground", "wikidata": "Q34808867"}}]}