{"version": 0.6, "generator": "Overpass API 0.7.62.8 e802775f", "osm3s": {"timestamp_osm_base": "2025-12-01T17:24:15Z", "copyright": "The data included in this document is from www.openstreetmap.org. The data is made available under ODbL."}, "elements": [{"type": "node", "id": 276319417, "lat": 40.747668, "lon": -73.9497061}, {"type": "node", "id": 276319418, "lat": 40.747165, "lon": -73.9498724}, {"type": "node", "id": 276319419, "lat": 40.7467759, "lon": -73.9479533}, {"type": "node", "id": 276319420, "lat": 40.7473073, "lon": -73.9477749}, {"type": "node", "id": 357628973, "lat": 40.7473529, "lon": -73.9427662}, {"type": "node", "id": 2034007432, "lat": 40.7467971, "lon": -73.9480579}, {"type": "node", "id": 2034007437, "lat": 40.746884, "lon": -73.9484864}, {"type": "node", "id": 2853015999, "lat": 40.7452481, "lon": -73.9475886, "tags": {"addr:housenumber": "21-15", "addr:postcode": "11101", "addr:street": "46th Road", "amenity": "bar", "name": "The Infamous"}}, {"type": "node", "id": 2853051873, "lat": 40.7471535, "lon": -73.9446403}, {"type": "node", "id": 2853051879, "lat": 40.7471704, "lon": -73.9447284}, {"type": "node", "id": 2853052011, "lat": 40.747296, "lon": -73.9446866}, {"type": "node", "id": 2853052039, "lat": 40.7474242, "lon": -73.9445504}, {"type": "node", "id": 2853052043, "lat": 40.7474411, "lon": -73.9446384}, {"type": "node", "id": 2853052493, "lat": 40.7482926, "lon": -73.9423224}, {"type": "node", "id": 2853052608, "lat": 40.7483399, "lon": -73.942253}, {"type": "node", "id": 2853052612, "lat": 40.7483621, "lon": -73.9424557}, {"type": "node", "id": 2853052621, "lat": 40.748402, "lon": -73.9422911}, {"type": "node", "id": 2853052653, "lat": 40.7484866, "lon": -73.9423431}, {"type": "node", "id": 2992247858, "lat": 40.7474092, "lon": -73.9483206}, {"type": "node", "id": 2992247862, "lat": 40.7473273, "lon": -73.9478823}, {"type": "node", "id": 2992247950, "lat": 40.7472237, "lon": -73.947803}, {"type": "node", "id": 2992247951, "lat": 40.7468802, "lon": -73.9479183}, {"type": "node", "id": 2992247956, "lat": 40.7468909, "lon": -73.9485202}, {"type": "node", "id": 2992247957, "lat": 40.7469226, "lon": -73.9486767}, {"type": "node", "id": 2992247971, "lat": 40.747436, "lon": -73.9484642}, {"type": "node", "id": 2992247976, "lat": 40.7469987, "lon": -73.9490519}, {"type": "node", "id": 2992247977, "lat": 40.7475147, "lon": -73.9488853}, {"type": "node", "id": 2992247978, "lat": 40.7476253, "lon": -73.9494778}, {"type": "node", "id": 3116424731, "lat": 40.7460613, "lon": -73.9454555}, {"type": "node", "id": 3116424732, "lat": 40.7461913, "lon": -73.9429625}, {"type": "node", "id": 3116424734, "lat": 40.7461126, "lon": -73.9453302}, {"type": "node", "id": 3116424737, "lat": 40.7464787, "lon": -73.9443371}, {"type": "node", "id": 3116424738, "lat": 40.7460977, "lon": -73.9454539}, {"type": "node", "id": 3116424739, "lat": 40.7466372, "lon": -73.9442888}, {"type": "node", "id": 3116424741, "lat": 40.7459604, "lon": -73.9435046}, {"type": "node", "id": 3116424742, "lat": 40.7464035, "lon": -73.9437953}, {"type": "node", "id": 3116424743, "lat": 40.7465944, "lon": -73.9440588}, {"type": "node", "id": 3116424748, "lat": 40.7466169, "lon": -73.9432669}, {"type": "node", "id": 3739463916, "lat": 40.74749, "lon": -73.9435182}, {"type": "node", "id": 3739463917, "lat": 40.7476882, "lon": -73.9429749}, {"type": "node", "id": 3753152805, "lat": 40.7479279, "lon": -73.942681}, {"type": "node", "id": 3753152806, "lat": 40.7479742, "lon": -73.9428694}, {"type": "node", "id": 3753152810, "lat": 40.7477988, "lon": -73.9430354}, {"type": "node", "id": 3753152814, "lat": 40.7469094, "lon": -73.9434235}, {"type": "node", "id": 3753153126, "lat": 40.7471138, "lon": -73.942902}, {"type": "node", "id": 3753153129, "lat": 40.7471981, "lon": -73.9433816}, {"type": "node", "id": 3864972068, "lat": 40.746726, "lon": -73.947598, "tags": {"amenity": "cafe", "name": "LIC Corner Caf\u00e9", "opening_hours": "Mo-Fr 08:00-17:00; Sa, Su 09:00-17:00", "wheelchair": "no"}}, {"type": "node", "id": 3865145166, "lat": 40.748256, "lon": -73.947153, "tags": {"addr:housenumber": "44-45", "addr:street": "21st Street", "amenity": "restaurant", "cuisine": "japanese", "name": "Gyu-Kaku", "wheelchair": "yes"}}, {"type": "node", "id": 4995781962, "lat": 40.7460771, "lon": -73.945811, "tags": {"addr:housenumber": "45-30", "addr:street": "23rd Street", "amenity": "restaurant", "contact:facebook": "CourtSquareDiner", "cuisine": "diner", "delivery": "yes", "email": "courtdine@aol.com", "name": "Court Square Diner", "opening_hours": "24/7", "phone": "+1 718-392-1222", "start_date": "1946", "website": "https://courtsquarediner.com/"}}, {"type": "node", "id": 4995784462, "lat": 40.7468454, "lon": -73.9443921, "tags": {"amenity": "restaurant", "name": "L.A. Gourmet"}}, {"type": "node", "id": 4995784464, "lat": 40.7462573, "lon": -73.9441291, "tags": {"addr:housenumber": "24-28", "addr:postcode": "11101", "addr:street": "Jackson Avenue", "amenity": "restaurant", "name": "Dim Sum Palace"}}, {"type": "node", "id": 4995784468, "lat": 40.745772, "lon": -73.9452155, "tags": {"addr:city": "Long Island City", "addr:housenumber": "23-10", "addr:postcode": "11101", "addr:state": "NY", "addr:street": "Jackson Avenue", "amenity": "restaurant", "cuisine": "chinese;hotpot", "delivery": "yes", "level": "0", "name": "Joypot", "opening_hours": "Mo-Th 12:00-22:00; Fr-Su 12:00-00:00", "phone": "+1 585-851-3333", "takeaway": "yes", "toilets": "yes"}}, {"type": "node", "id": 4995784470, "lat": 40.7457517, "lon": -73.9453583, "tags": {"addr:housenumber": "23-06", "addr:street": "Jackson Avenue", "amenity": "restaurant", "cuisine": "thai", "delivery": "yes", "name": "Heng Thai", "opening_hours": "Mo-Fr 11:00-15:30, 16:30-21:30; Sa, Su 16:00-21:30", "phone": "+1 718-706-0999", "takeaway": "yes", "website": "https://hengthainyc.com/"}}, {"type": "node", "id": 4995839314, "lat": 40.7483354, "lon": -73.9494339, "tags": {"amenity": "cafe", "name": "Concept Coffee"}}, {"type": "node", "id": 4995839509, "lat": 40.750152, "lon": -73.9442051, "tags": {"name": "Yellow Cab Management Corporation", "office": "yes"}}, {"type": "node", "id": 4995844725, "lat": 40.7478123, "lon": -73.9476249, "tags": {"amenity": "cafe", "cuisine": "taiwanese", "name": "Yi Fang"}}, {"type": "node", "id": 5351454911, "lat": 40.7468834, "lon": -73.9456482, "tags": {"addr:housenumber": "42-05", "addr:street": "23rd Street", "name": "Brandworkers", "office": "ngo"}}, {"type": "node", "id": 5487128329, "lat": 40.7475726, "lon": -73.9455369, "tags": {"addr:city": "Long Island City", "addr:housenumber": "21-50", "addr:postcode": "11101", "addr:state": "NY", "addr:street": "44th Drive", "amenity": "restaurant", "cuisine": "italian", "email": "info@ilfalcolic.com", "fax": "+1-718-707-0031", "name": "Il Falco", "phone": "+1-718-707-0009", "website": "https://www.ilfalcolic.com/"}}, {"type": "node", "id": 5978873885, "lat": 40.7468469, "lon": -73.9455032, "tags": {"addr:housenumber": "45-02", "addr:street": "23rd Street", "amenity": "restaurant", "cuisine": "peruvian", "name": "The Inkan", "opening_hours": "Mo-Th 11:00-21:00; Fr 11:00-22:00; Sa 12:00-22:00; Su 12:00-20:00", "phone": "+1 718-433-4171", "website": "http://www.theinkancuisine.com/"}}, {"type": "node", "id": 6597261555, "lat": 40.7475021, "lon": -73.9488181}, {"type": "node", "id": 6597261583, "lat": 40.7469894, "lon": -73.9490061}, {"type": "node", "id": 6760776774, "lat": 40.746385, "lon": -73.9431045}, {"type": "node", "id": 8991451354, "lat": 40.7461334, "lon": -73.9444137, "tags": {"amenity": "restaurant", "name": "Market Pantry Eatery", "wheelchair": "yes"}}, {"type": "node", "id": 9456122836, "lat": 40.7501555, "lon": -73.9486815, "tags": {"addr:city": "Long Island City", "addr:housenumber": "43-63", "addr:postcode": "11101", "addr:state": "NY", "addr:street": "11th Street", "amenity": "restaurant", "name": "Iconyc Brewing Company"}}, {"type": "node", "id": 10679430704, "lat": 40.7498348, "lon": -73.9477177, "tags": {"addr:housenumber": "12-07", "addr:street": "44th Avenue", "check_date": "2023-02-19", "name": "International Masonry Institute", "office": "association"}}, {"type": "node", "id": 10693681226, "lat": 40.7496503, "lon": -73.9479257, "tags": {"amenity": "cafe", "bar": "yes", "check_date": "2023-02-25", "name": "The Local Cafe", "outdoor_seating": "no", "payment:mastercard": "yes", "payment:visa": "yes"}}, {"type": "node", "id": 10699487852, "lat": 40.7500086, "lon": -73.9486443, "tags": {"amenity": "cafe", "cuisine": "coffee_shop", "name": "Ninth Street Espresso"}}, {"type": "node", "id": 10699487853, "lat": 40.7500757, "lon": -73.9489688, "tags": {"amenity": "restaurant", "cuisine": "pizza", "delivery": "yes", "name": "Lupo Rosso Pizzeria", "opening_hours": "Mo-Su 11:00-22:00", "outdoor_seating": "no", "phone": "+1-718-685-2255", "takeaway": "yes", "website": "https://www.luporossony.com"}}, {"type": "node", "id": 10753231113, "lat": 40.7461272, "lon": -73.9453435}, {"type": "node", "id": 10753231126, "lat": 40.7461034, "lon": -73.9453914}, {"type": "node", "id": 10780585489, "lat": 40.7476396, "lon": -73.9432376, "tags": {"addr:city": "Long Island City", "addr:housenumber": "4405", "addr:postcode": "11101", "addr:state": "NY", "addr:street": "Hunter Street", "amenity": "restaurant", "cuisine": "chinese;pancake", "name": "Corgi Jianbing"}}, {"type": "node", "id": 10780587311, "lat": 40.747927, "lon": -73.9451272, "tags": {"addr:city": "Long Island City", "addr:housenumber": "44-46", "addr:postcode": "11101", "addr:state": "NY", "addr:street": "23rd Street", "amenity": "restaurant", "brand": "Meet Fresh", "brand:wikidata": "Q11172707", "cuisine": "taiwanese;dessert;shaved_ice;milk_tea", "name": "Meet Fresh", "opening_hours": "Mo-Su 12:00-22:00", "phone": "+1-914-829-8850"}}, {"type": "node", "id": 10827898346, "lat": 40.7465745, "lon": -73.945618, "tags": {"addr:city": "Long Island City", "addr:housenumber": "45-12", "addr:postcode": "11101", "addr:state": "NY", "addr:street": "23rd Street", "amenity": "restaurant", "cuisine": "ramen", "name": "Ramen Spot Made in NY (LIC)"}}, {"type": "node", "id": 11653913239, "lat": 40.7474218, "lon": -73.9446673, "tags": {"addr:city": "Long Island City", "addr:housenumber": "23-08", "addr:postcode": "11101", "addr:state": "NY", "addr:street": "44th Drive", "amenity": "cafe", "contact:email": "lately.cafe@gmail.com", "email": "lately.cafe@gmail.com", "level": "1", "name": "Lately Caf\u00e9", "opening_hours": "Mo-Su 07:00-18:00", "website": "https://www.latelycafelic.com"}}, {"type": "node", "id": 11738025441, "lat": 40.7475303, "lon": -73.9497516, "tags": {"access": "yes", "entrance": "yes"}}, {"type": "node", "id": 11746620409, "lat": 40.7479291, "lon": -73.9475944, "tags": {"addr:housenumber": "44-54", "addr:street": "21st Street", "amenity": "restaurant", "cuisine": "chicken", "name": "Mister Chicken II", "phone": "+1 347-330-6381"}}, {"type": "node", "id": 11876253500, "lat": 40.7503311, "lon": -73.9489138, "tags": {"addr:housenumber": "43-57", "addr:street": "11th Street", "amenity": "restaurant", "cuisine": "diner", "name": "Niforo's Coffee Shop", "opening_hours": "Mo-Fr 05:00-17:00", "phone": "+1 718-786-7759"}}, {"type": "node", "id": 12050149503, "lat": 40.7473807, "lon": -73.9429591}, {"type": "node", "id": 12050149506, "lat": 40.7470843, "lon": -73.9429111}, {"type": "node", "id": 12050149513, "lat": 40.7469896, "lon": -73.9434199}, {"type": "node", "id": 12050149519, "lat": 40.7475935, "lon": -73.9432345}, {"type": "node", "id": 12050149520, "lat": 40.7469013, "lon": -73.9433855}, {"type": "node", "id": 12050149522, "lat": 40.7474397, "lon": -73.9432607}, {"type": "node", "id": 12050149523, "lat": 40.7470666, "lon": -73.9433913}, {"type": "node", "id": 12050149524, "lat": 40.747373, "lon": -73.9429054}, {"type": "node", "id": 12050149525, "lat": 40.7476483, "lon": -73.9430844}, {"type": "node", "id": 12050149527, "lat": 40.7469844, "lon": -73.9433957}, {"type": "node", "id": 12050149530, "lat": 40.7470743, "lon": -73.9434275}, {"type": "node", "id": 13102135823, "lat": 40.7478327, "lon": -73.9436942, "tags": {"addr:city": "Long Island City", "addr:housenumber": "2", "addr:postcode": "11101", "addr:state": "NY", "addr:street": "Court Square", "amenity": "college", "name": "CUNY School of Law", "website": "https://www.law.cuny.edu/"}}, {"type": "way", "id": 25355909, "nodes": [276319417, 11738025441, 276319418, 2992247976, 6597261583, 2992247957, 2992247956, 2034007437, 2034007432, 276319419, 2992247951, 2992247950, 276319420, 2992247862, 2992247858, 2992247971, 6597261555, 2992247977, 2992247978, 276319417], "tags": {"alt_name": "John F. Murray Playground", "ele": "4", "gnis:feature_id": "2352570", "leisure": "park", "name": "Murray Playground", "opening_hours": "Mo-Su 06:00-22:00", "operator": "New York City Department of Parks and Recreation", "operator:short": "NYC Parks", "operator:type": "public", "operator:wikidata": "Q1894232", "website": "https://www.nycgovparks.org/parks/murray-playground"}}, {"type": "way", "id": 281342549, "nodes": [2853051873, 2853051879, 2853052011, 2853052043, 2853052039, 2853051873], "tags": {"addr:housenumber": "23-10", "addr:postcode": "11101", "addr:street": "44th Drive", "amenity": "cafe", "building": "yes", "cuisine": "bagel", "height": "4.3", "name": "Pumpernickel Bagel & Delicatessan", "nycdoitt:bin": "4000674", "phone": "+1 718-361-9422", "takeaway": "yes", "website": "http://pumpbagels.com/"}}, {"type": "way", "id": 281342887, "nodes": [2853052608, 2853052493, 2853052612, 2853052653, 2853052621, 2853052608], "tags": {"addr:city": "Long Island City", "addr:housenumber": "43-15", "addr:postcode": "11101", "addr:state": "NY", "addr:street": "Crescent Street", "amenity": "restaurant", "building": "yes", "check_date": "2024-01-30", "height": "4.2", "name": "M. Wells Steakhouse", "nycdoitt:bin": "4436807", "phone": "+1 718 786-9060", "website": "http://magasinwells.com/"}}, {"type": "way", "id": 306671092, "nodes": [3116424731, 3116424734, 10753231113, 10753231126, 3116424738, 3116424731], "tags": {"leisure": "park", "name": "Albert E Short Triangle", "wikidata": "Q34802255"}}, {"type": "way", "id": 306671093, "nodes": [3116424742, 3116424748, 6760776774, 3116424732, 3116424741, 3116424742], "tags": {"leisure": "park", "name": "Court Square Park", "operator": "New York City Department of Parks and Recreation", "operator:short": "NYC Parks", "operator:type": "government", "operator:wikidata": "Q1894232", "wikidata": "Q34820138"}}, {"type": "way", "id": 306671094, "nodes": [3116424739, 3116424743, 3116424737, 3116424739], "tags": {"leisure": "park", "name": "McKenna Triangle", "wikidata": "Q34848080"}}, {"type": "way", "id": 370224628, "nodes": [357628973, 12050149524, 12050149503, 12050149522, 3739463916, 12050149519, 12050149525, 3739463917, 357628973], "tags": {"ele": "5", "gnis:feature_id": "2352591", "leisure": "park", "name": "Rafferty Triangle", "operator": "New York City Department of Parks and Recreation", "operator:short": "NYC Parks", "operator:type": "public", "operator:wikidata": "Q1894232", "wikidata": "Q49547544"}}, {"type": "way", "id": 371765890, "nodes": [3753152810, 3753152806, 3753152805, 3753152810], "tags": {"leisure": "park"}}, {"type": "way", "id": 371765892, "nodes": [3753153129, 12050149530, 12050149523, 12050149513, 12050149527, 3753152814, 12050149520, 12050149506, 3753153126, 3753153129], "tags": {"leisure": "park"}}]}