{"version": 0.6, "generator": "Overpass API 0.7.62.8 e802775f", "osm3s": {"timestamp_osm_base": "2025-12-01T16:52:28Z", "copyright": "The data included in this document is from www.openstreetmap.org. The data is made available under ODbL."}, "elements": [{"type": "node", "id": 357619307, "lat": 40.6088889, "lon": -73.96, "tags": {"amenity": "school", "ele": "7", "gnis:feature_id": "2081889", "name": "Bet Yakov Ateret Torah High School"}}, {"type": "node", "id": 357619338, "lat": 40.6097222, "lon": -73.9583333, "tags": {"amenity": "school", "ele": "7", "gnis:feature_id": "2081898", "name": "Bnos Israel of East Flatbush"}}, {"type": "node", "id": 357619615, "lat": 40.6077778, "lon": -73.9563889, "tags": {"amenity": "school", "ele": "7", "gnis:feature_id": "2082193", "name": "Mesorah School"}}, {"type": "node", "id": 357619658, "lat": 40.6072222, "lon": -73.9555556, "tags": {"amenity": "school", "ele": "7", "gnis:feature_id": "2082224", "name": "Nefesh Academy"}}, {"type": "node", "id": 357619695, "lat": 40.6061111, "lon": -73.9566667, "tags": {"amenity": "school", "check_date": "2024-04-17", "ele": "6", "gnis:feature_id": "2082235", "name": "Prospect Park Bnos Leah High School"}}, {"type": "node", "id": 357619698, "lat": 40.6061151, "lon": -73.9563845, "tags": {"amenity": "school", "check_date": "2024-04-17", "ele": "6", "gnis:feature_id": "2082236", "name": "Prospect Park Yeshiva"}}, {"type": "node", "id": 357619926, "lat": 40.610316, "lon": -73.9560607, "tags": {"amenity": "school", "ele": "7", "gnis:feature_id": "2082385", "name": "Three Hierarchs School"}}, {"type": "node", "id": 2287666049, "lat": 40.6078211, "lon": -73.9608165}, {"type": "node", "id": 2287666051, "lat": 40.6079095, "lon": -73.9608477}, {"type": "node", "id": 2287666052, "lat": 40.6079339, "lon": -73.9605088}, {"type": "node", "id": 2547716626, "lat": 40.6089823, "lon": -73.9584444, "tags": {"addr:housenumber": "1656", "addr:postcode": "11229", "addr:street": "East 15th Street", "alt_name": "Kings Highway Car Service", "amenity": "taxi", "name": "A-Kings Highway Car Service", "office": "taxi", "opening_hours": "24/7", "phone": "+1-718-645-5555"}}, {"type": "node", "id": 2547718533, "lat": 40.6086188, "lon": -73.9588758}, {"type": "node", "id": 2547718560, "lat": 40.6086465, "lon": -73.9588066}, {"type": "node", "id": 2547718807, "lat": 40.6088962, "lon": -73.958929}, {"type": "node", "id": 2547718814, "lat": 40.6089043, "lon": -73.9588561}, {"type": "node", "id": 2553613124, "lat": 40.6079569, "lon": -73.9592031, "tags": {"addr:city": "Brooklyn", "addr:housenumber": "1698", "addr:postcode": "11229", "addr:state": "NY", "addr:street": "East 14th Street", "amenity": "cafe", "brand": "Gong Cha", "brand:wikidata": "Q5581670", "brand:zh": "\u8ca2\u8336", "cuisine": "bubble_tea", "int_name": "Gong Cha", "name": "Gong Cha", "name:zh": "\u8ca2\u8336", "opening_hours": "Mo-Su 10:30-21:30", "outdoor_seating": "no", "phone": "+1-347-587-4500", "takeaway": "yes", "website": "https://gongchausa.com/new-york-kings-highway-brooklyn/"}}, {"type": "node", "id": 2562969391, "lat": 40.6099739, "lon": -73.9576925, "tags": {"addr:city": "Brooklyn", "addr:housenumber": "1618", "addr:postcode": "11229", "addr:state": "NY", "addr:street": "East 16th Street", "air_conditioning": "yes", "amenity": "restaurant", "cuisine": "turkish", "delivery": "yes", "diet:halal": "yes", "name": "Aksaray", "opening_hours": "Mo-Su 08:00-05:00", "payment:cash": "yes", "payment:credit_cards": "yes", "payment:debit_cards": "yes", "phone": "+1-718-375-9237", "start_date": "1994", "website": "https://www.aksarayrestaurant.com/"}}, {"type": "node", "id": 2562969471, "lat": 40.6103381, "lon": -73.9548828, "tags": {"addr:city": "Brooklyn", "addr:housenumber": "1821", "addr:postcode": "11229", "addr:state": "NY", "addr:street": "Kings Highway", "amenity": "restaurant", "name": "Memo Shish Kebab", "opening_hours": "Mo-Su 11:00-02:00"}}, {"type": "node", "id": 2563144601, "lat": 40.6104958, "lon": -73.9544319, "tags": {"addr:city": "Brooklyn", "addr:housenumber": "1907", "addr:postcode": "11229", "addr:state": "NY", "addr:street": "Kings Highway", "amenity": "restaurant", "cuisine": "sushi", "name": "Nagoya Sushi", "phone": "+1 718-336-3688", "website": "http://www.nagoyasushibrooklyn.com/"}}, {"type": "node", "id": 4131550493, "lat": 40.609745, "lon": -73.957691, "tags": {"addr:housenumber": "1626", "addr:street": "East 16th Street", "amenity": "restaurant", "name": "Perizia kosher pizza", "opening_hours": "Mo-We 10:00-20:30; Th 10:00-21:00; Fr 10:00-14:00; Sa 20:00-24:00; Su 10:30-20:30", "phone": "+1-718-513-4900", "website": "https://www.periziakosher.com/"}}, {"type": "node", "id": 4995738112, "lat": 40.6087764, "lon": -73.9585757, "tags": {"addr:city": "Brooklyn", "addr:housenumber": "1417", "addr:postcode": "11229", "addr:state": "NY", "addr:street": "Kings Highway", "amenity": "cafe", "branch": "1417 Kings Highway", "brand": "Starbucks", "brand:wikidata": "Q37158", "cuisine": "coffee_shop", "name": "Starbucks", "official_name": "Starbucks Coffee", "opening_hours": "24/7", "phone": "+1 718-690-3759", "ref": "1005808", "takeaway": "yes", "website": "https://www.starbucks.com/store-locator/store/1005808/1417-kings-highway-1417-kings-highway-brooklyn-ny-112292003-us"}}, {"type": "node", "id": 4995738113, "lat": 40.6087036, "lon": -73.9588176}, {"type": "node", "id": 5427815802, "lat": 40.6079407, "lon": -73.9605129}, {"type": "node", "id": 5427815805, "lat": 40.6079452, "lon": -73.9605355}, {"type": "node", "id": 5427817435, "lat": 40.6079271, "lon": -73.9605096}, {"type": "node", "id": 6009250536, "lat": 40.6085269, "lon": -73.9584355, "tags": {"addr:city": "Brooklyn", "addr:housenumber": "1426", "addr:postcode": "11229", "addr:state": "NY", "addr:street": "Kings Hwy", "addr:unit": "2nd Floor", "facebook": "https://www.facebook.com/ISGTranslationWorld/", "name": "ISG Translation World", "office": "company", "opening_hours": "Mo-Fr 09:00-18:00", "phone": "+1 347-492-7893", "website": "https://www.isgtranslationworld.com/"}}, {"type": "node", "id": 11045515859, "lat": 40.6079449, "lon": -73.9605239}, {"type": "node", "id": 11045520477, "lat": 40.6079223, "lon": -73.9605154}, {"type": "node", "id": 11073916484, "lat": 40.6088231, "lon": -73.9584271, "tags": {"addr:city": "Brooklyn", "addr:housenumber": "1425", "addr:postcode": "11229", "addr:state": "NY", "addr:street": "Kings Highway", "amenity": "restaurant", "cuisine": "turkish", "name": "Ankara 1", "opening_hours": "24/7", "payment:credit_cards": "yes", "payment:debit_cards": "yes", "phone": "+1 718 336 0010"}}, {"type": "node", "id": 11142683879, "lat": 40.6073909, "lon": -73.9606625, "tags": {"addr:city": "Brooklyn", "addr:housenumber": "1723", "addr:postcode": "11229", "addr:state": "NY", "addr:street": "East 12th Street", "name": "Gorodetsky Law Group", "office": "lawyer", "opening_hours": "Mo-Su 09:00-21:00", "payment:american_express": "yes", "payment:cash": "yes", "payment:discover_card": "yes", "payment:mastercard": "yes", "payment:visa": "yes", "phone": "+1-718-645-4604", "website": "https://gorodetsky-law.com"}}, {"type": "node", "id": 11528502978, "lat": 40.6101536, "lon": -73.9554705, "tags": {"addr:city": "Brooklyn", "addr:housenumber": "1803", "addr:postcode": "11229", "addr:state": "NY", "addr:street": "Kings Highway", "amenity": "cafe", "check_date": "2025-02-08", "internet_access": "no", "name": "Safir Bakery & Cafe", "opening_hours": "Mo-Sa 06:00-22:00; Su 07:00-22:00", "outdoor_seating": "no", "phone": "+1 718-375-5888", "shop": "bakery", "website": "https://safirbakery.com/"}}, {"type": "way", "id": 219621588, "nodes": [2287666051, 2287666049, 11045520477, 5427817435, 2287666052, 5427815802, 11045515859, 5427815805, 2287666051], "tags": {"leisure": "park", "name": "Sgt. Joyce Kilmer Square", "name:etymology:wikidata": "Q762223", "not:operator:wikidata": "Q1894232", "operator": "NYC Parks", "website": "https://www.nycgovparks.org/parks/sgt-joyce-kilmer-triangle/", "wikidata": "Q49559767"}}, {"type": "way", "id": 247925864, "nodes": [2547718533, 2547718807, 2547718814, 4995738113, 2547718560, 2547718533], "tags": {"addr:floor": "G", "addr:housenumber": "1409", "addr:postcode": "11229", "addr:street": "Kings Highway", "air_conditioning": "yes", "amenity": "restaurant", "building": "yes", "check_date": "2024-10-26", "cuisine": "turkish;mediterranean", "delivery": "yes", "height": "4.7", "level": "0", "name": "Istanbul Kebab House", "nycdoitt:bin": "3182418", "outdoor_seating": "no", "payment:cash": "yes", "payment:credit_cards": "yes", "phone": "+1 914-400-0056", "reservation": "yes", "smoking": "no", "takeaway": "yes", "wheelchair": "yes"}}]}