{"version": 0.6, "generator": "Overpass API 0.7.62.8 e802775f", "osm3s": {"timestamp_osm_base": "2025-12-01T16:56:36Z", "copyright": "The data included in this document is from www.openstreetmap.org. The data is made available under ODbL."}, "elements": [{"type": "node", "id": 33583381, "lat": 40.7042025, "lon": -74.0171127}, {"type": "node", "id": 33583383, "lat": 40.704029, "lon": -74.0176271}, {"type": "node", "id": 33583384, "lat": 40.7039989, "lon": -74.0176371}, {"type": "node", "id": 33583385, "lat": 40.7034289, "lon": -74.0176203}, {"type": "node", "id": 33583387, "lat": 40.7016586, "lon": -74.0161415}, {"type": "node", "id": 33583388, "lat": 40.7012989, "lon": -74.0157066}, {"type": "node", "id": 33583389, "lat": 40.7014665, "lon": -74.0148029}, {"type": "node", "id": 33583390, "lat": 40.7013283, "lon": -74.0144682}, {"type": "node", "id": 33583391, "lat": 40.7012856, "lon": -74.0141876}, {"type": "node", "id": 33583392, "lat": 40.7014367, "lon": -74.0140182}, {"type": "node", "id": 33583393, "lat": 40.7023527, "lon": -74.0139082}, {"type": "node", "id": 33583394, "lat": 40.7031923, "lon": -74.0145237}, {"type": "node", "id": 42422056, "lat": 40.7074082, "lon": -74.0076881}, {"type": "node", "id": 166878927, "lat": 40.7008491, "lon": -74.015138}, {"type": "node", "id": 194615673, "lat": 40.7038939, "lon": -74.0176647}, {"type": "node", "id": 194615674, "lat": 40.7034978, "lon": -74.0176453}, {"type": "node", "id": 194615676, "lat": 40.7032631, "lon": -74.0175512}, {"type": "node", "id": 194615678, "lat": 40.7020281, "lon": -74.0165153}, {"type": "node", "id": 194615680, "lat": 40.7016281, "lon": -74.0161079}, {"type": "node", "id": 272194598, "lat": 40.7095497, "lon": -74.0116948}, {"type": "node", "id": 272194601, "lat": 40.7088871, "lon": -74.0109134, "tags": {"barrier": "kerb", "kerb": "lowered", "tactile_paving": "yes", "wheelchair": "yes"}}, {"type": "node", "id": 272194602, "lat": 40.7091543, "lon": -74.010684}, {"type": "node", "id": 410162268, "lat": 40.7040408, "lon": -74.0088569, "tags": {"barrier": "kerb", "kerb": "flush", "tactile_paving": "no", "wheelchair": "yes"}}, {"type": "node", "id": 410162269, "lat": 40.7036288, "lon": -74.0083986}, {"type": "node", "id": 410162270, "lat": 40.7037121, "lon": -74.008273}, {"type": "node", "id": 410162271, "lat": 40.7041109, "lon": -74.00875, "tags": {"barrier": "kerb", "kerb": "flush", "tactile_paving": "no", "wheelchair": "yes"}}, {"type": "node", "id": 605033094, "lat": 40.7024491, "lon": -74.0169147}, {"type": "node", "id": 607910829, "lat": 40.7013274, "lon": -74.0140845, "tags": {"barrier": "kerb", "kerb": "lowered", "tactile_paving": "yes", "wheelchair": "yes"}}, {"type": "node", "id": 781712009, "lat": 40.7048694, "lon": -74.0094378, "tags": {"addr:housenumber": "3", "addr:postcode": "10004", "addr:street": "Hanover Square", "entrance": "main"}}, {"type": "node", "id": 1078821289, "lat": 40.7037137, "lon": -74.017674}, {"type": "node", "id": 1251958153, "lat": 40.7048959, "lon": -74.0139431}, {"type": "node", "id": 1251958161, "lat": 40.705336, "lon": -74.0136237}, {"type": "node", "id": 1251958176, "lat": 40.7048408, "lon": -74.0134269}, {"type": "node", "id": 1251958243, "lat": 40.7052955, "lon": -74.0134387}, {"type": "node", "id": 1251958258, "lat": 40.7046218, "lon": -74.009496, "tags": {"barrier": "kerb", "kerb": "lowered", "tactile_paving": "yes", "wheelchair": "yes"}}, {"type": "node", "id": 1251958261, "lat": 40.7052856, "lon": -74.013703}, {"type": "node", "id": 1251958263, "lat": 40.7052245, "lon": -74.0134038}, {"type": "node", "id": 1251959556, "lat": 40.7064642, "lon": -74.0143777}, {"type": "node", "id": 1280366091, "lat": 40.7047243, "lon": -74.0137297}, {"type": "node", "id": 1280366094, "lat": 40.7048909, "lon": -74.0134041}, {"type": "node", "id": 1585033979, "lat": 40.7050656, "lon": -74.0086896, "tags": {"amenity": "pub", "indoor_seating": "yes", "name": "Killarney Rose", "outdoor_seating": "no"}}, {"type": "node", "id": 1659428446, "lat": 40.7012755, "lon": -74.0156798}, {"type": "node", "id": 1659428450, "lat": 40.702068, "lon": -74.0140269}, {"type": "node", "id": 1659428451, "lat": 40.7020497, "lon": -74.0165358}, {"type": "node", "id": 1659428480, "lat": 40.7023902, "lon": -74.0139647}, {"type": "node", "id": 1659428494, "lat": 40.7032074, "lon": -74.017523}, {"type": "node", "id": 1659428500, "lat": 40.7033174, "lon": -74.0175775}, {"type": "node", "id": 1659428503, "lat": 40.7033688, "lon": -74.0175986}, {"type": "node", "id": 1659428507, "lat": 40.7035855, "lon": -74.01449}, {"type": "node", "id": 1659428508, "lat": 40.703461, "lon": -74.0176328}, {"type": "node", "id": 1695334031, "lat": 40.7041095, "lon": -74.0143912}, {"type": "node", "id": 1695926392, "lat": 40.7088707, "lon": -74.0081885}, {"type": "node", "id": 1695926394, "lat": 40.7089315, "lon": -74.0081266}, {"type": "node", "id": 2011782281, "lat": 40.7082349, "lon": -74.0076153, "tags": {"addr:city": "New York", "addr:housenumber": "90", "addr:postcode": "10038", "addr:state": "NY", "addr:street": "William Street", "amenity": "cafe", "branch": "90 William Street", "cuisine": "coffee_shop", "delivery": "yes", "indoor_seating": "yes", "level": "0", "name": "BlueSpoon Coffee Co", "opening_hours": "Mo-Fr 07:00-16:00; Sa 08:00-15:00; Su off", "outdoor_seating": "yes", "phone": "+1 212-809-8880", "takeaway": "yes", "wheelchair": "yes"}}, {"type": "node", "id": 2033946685, "lat": 40.7072305, "lon": -74.0123877, "tags": {"amenity": "cafe", "name": "Bean And Bean", "wheelchair": "no"}}, {"type": "node", "id": 2034011016, "lat": 40.7043817, "lon": -74.0130472, "tags": {"addr:city": "New York", "addr:housenumber": "2", "addr:postcode": "10004", "addr:state": "NY", "addr:street": "Broadway", "amenity": "cafe", "branch": "2 Broadway", "brand": "Starbucks", "brand:wikidata": "Q37158", "cuisine": "coffee_shop", "diet:vegan": "yes", "drink:soy_milk": "yes", "indoor_seating": "yes", "internet_access": "wlan", "name": "Starbucks", "official_name": "Starbucks Coffee", "opening_hours": "Mo-Fr 05:30-19:30; Sa, Su 07:00-20:00", "outdoor_seating": "no", "phone": "+1 212-344-4290", "ref": "12804", "takeaway": "yes", "website": "https://www.starbucks.com/store-locator/store/12804/2-broadway-2-broadway-new-york-ny-100042207-us", "wheelchair": "yes"}}, {"type": "node", "id": 2044048263, "lat": 40.702856, "lon": -74.0172629, "tags": {"amenity": "ferry_terminal", "ferry": "yes", "name": "Battery Park", "operator": "Statue Cruises", "public_transport": "stop_position"}}, {"type": "node", "id": 2044075092, "lat": 40.7036167, "lon": -74.0176668}, {"type": "node", "id": 2044075112, "lat": 40.7035982, "lon": -74.017663}, {"type": "node", "id": 2044075126, "lat": 40.7038028, "lon": -74.0176739}, {"type": "node", "id": 2183010447, "lat": 40.7067993, "lon": -74.0089458, "tags": {"amenity": "pub", "name": "Bailey Pub & Brasserie", "wheelchair": "no"}}, {"type": "node", "id": 2183010450, "lat": 40.7061255, "lon": -74.0110467, "tags": {"amenity": "restaurant", "check_date": "2025-08-14", "name": "Bobby Van's", "wheelchair": "no"}}, {"type": "node", "id": 2183010458, "lat": 40.7059471, "lon": -74.0116452, "tags": {"addr:housenumber": "40", "addr:street": "Broad Street", "amenity": "cafe", "brand": "Joe & The Juice", "brand:wikidata": "Q26221514", "cuisine": "coffee_shop", "indoor_seating": "yes", "name": "Joe & The Juice", "outdoor_seating": "no", "takeaway": "yes", "wheelchair": "yes"}}, {"type": "node", "id": 2183010488, "lat": 40.7051728, "lon": -74.011298, "tags": {"addr:city": "New York", "addr:housenumber": "55", "addr:postcode": "10004", "addr:state": "NY", "addr:street": "Broad Street", "amenity": "cafe", "branch": "55 Broad Street", "brand": "Starbucks", "brand:wikidata": "Q37158", "cuisine": "coffee_shop", "diet:vegan": "yes", "drink:soy_milk": "yes", "indoor_seating": "yes", "internet_access": "wlan", "name": "Starbucks", "official_name": "Starbucks Coffee", "opening_hours": "Mo-Su 07:00-18:00", "outdoor_seating": "no", "phone": "+1 212-742-2490", "ref": "16214", "takeaway": "yes", "website": "https://www.starbucks.com/store-locator/store/16214/55-broad-street-55-broad-street-new-york-ny-100042501-us", "wheelchair": "yes"}}, {"type": "node", "id": 2183010570, "lat": 40.7079524, "lon": -74.0078296, "tags": {"addr:housenumber": "84", "addr:street": "William Street", "air_conditioning": "yes", "amenity": "restaurant", "check_date": "2024-06-27", "cuisine": "sushi", "indoor_seating": "yes", "name": "Blue Ribbon Sushi Bar & Grill", "outdoor_seating": "no", "payment:cash": "yes", "payment:credit_cards": "yes", "reservation": "yes", "smoking": "no"}}, {"type": "node", "id": 2183039959, "lat": 40.7089962, "lon": -74.0090796, "tags": {"addr:city": "New York", "addr:housenumber": "53", "addr:postcode": "10038", "addr:state": "NY", "addr:street": "Nassau Street", "amenity": "restaurant", "check_date:opening_hours": "2023-08-31", "cuisine": "indian", "indoor_seating": "yes", "name": "Raj's Indian Kitchen", "opening_hours:signed": "no", "outdoor_seating": "no", "phone": "+1-646-559-2322"}}, {"type": "node", "id": 2183891964, "lat": 40.7061385, "lon": -74.0093922, "tags": {"addr:housenumber": "55", "addr:street": "Wall Street", "amenity": "restaurant", "check_date": "2025-08-14", "name": "Cipriani", "wheelchair": "yes"}}, {"type": "node", "id": 2183891975, "lat": 40.7055979, "lon": -74.0077325, "tags": {"amenity": "restaurant", "cuisine": "japanese", "name": "Nikoniko Sushi Bowl"}}, {"type": "node", "id": 2183891976, "lat": 40.7051087, "lon": -74.0096903, "tags": {"addr:housenumber": "60", "addr:postcode": "10005", "addr:street": "Beaver Street", "amenity": "restaurant", "cuisine": "japanese", "name": "Taste of Tokyo", "opening_hours": "Mo-Fr 11:00-15:30,17:00-21:45; Su 17:00-21:30", "phone": "+1-212-809-4711", "website": "https://www.tasteoftokyony.com", "wheelchair": "yes"}}, {"type": "node", "id": 2183891980, "lat": 40.7052024, "lon": -74.0080678, "tags": {"addr:city": "New York", "addr:housenumber": "75", "addr:postcode": "10005", "addr:state": "NY", "addr:street": "Wall Street", "amenity": "restaurant", "capacity": "56 seats", "check_date": "2025-08-14", "indoor_seating": "yes", "name": "Centric", "note": "Restaurant and cocktail bar inside the Andaz Hotel", "outdoor_seating": "no", "phone": "+1-212-590-1234", "website": "http://www.urbanspoon.com/cities/3-new-york/restaurants/1890823-dina-rata/menu", "wheelchair": "yes"}}, {"type": "node", "id": 2186614176, "lat": 40.704892, "lon": -74.0085955, "tags": {"amenity": "restaurant", "name": "Wall Street Grill", "nursery": "yes"}}, {"type": "node", "id": 2186614177, "lat": 40.705042, "lon": -74.0102055, "tags": {"addr:housenumber": "56", "addr:postcode": "10004", "addr:street": "Beaver Street", "amenity": "restaurant", "cuisine": "steak_house", "indoor_seating": "yes", "name": "Delmonico's", "opening_hours": "Mo-Fr 11:30-22:00; Sa 17:00-22:00", "outdoor_seating": "no", "phone": "+12125091144", "website": "http://www.delmonicosny.com", "wheelchair": "no", "wikidata": "Q1184537"}}, {"type": "node", "id": 2186614180, "lat": 40.704919, "lon": -74.0093135, "tags": {"addr:housenumber": "5", "addr:postcode": "10004", "addr:street": "Hanover Square", "alt_name": "H&R Block", "brand": "Block Advisors", "brand:wikidata": "Q64166231", "name": "Block Advisors", "office": "tax_advisor", "phone": "+1-212-785-1216", "website": "https://www.blockadvisors.com"}}, {"type": "node", "id": 2186614181, "lat": 40.7051928, "lon": -74.0109499, "tags": {"amenity": "restaurant", "name": "Hale & Hearty Soup", "wheelchair": "yes"}}, {"type": "node", "id": 2186614182, "lat": 40.7046606, "lon": -74.0097725, "tags": {"amenity": "restaurant", "cuisine": "steak_house", "indoor_seating": "yes", "name": "Harry's", "opening_hours": "We-Sa 12:00-24:00; Su 12:00-23:00", "outdoor_seating": "no", "website": "https://www.harrysnyc.com", "wheelchair": "limited"}}, {"type": "node", "id": 2186614185, "lat": 40.7048541, "lon": -74.0095999, "tags": {"addr:housenumber": "3", "addr:postcode": "10004", "addr:street": "Hanover Square", "amenity": "restaurant", "bar": "yes", "cocktails": "yes", "cuisine": "italian", "drink:liquor": "yes", "drink:wine": "yes", "name": "Joseph's Ristorante", "opening_hours": "Mo-Fr 12:00-22:00", "opening_hours:kitchen": "Mo-Fr 12:00-14:45,17:00-22:00", "phone": "+1-212-747-1300", "website": "https://www.josephsnyc.com", "wheelchair": "yes"}}, {"type": "node", "id": 2186614188, "lat": 40.7047709, "lon": -74.0088362, "tags": {"addr:city": "New York", "addr:housenumber": "10", "addr:postcode": "10005", "addr:state": "NY", "addr:street": "Hanover Square", "air_conditioning": "yes", "amenity": "restaurant", "branch": "Financial District", "check_date": "2025-08-14", "cuisine": "breakfast;sandwich", "delivery": "yes", "indoor_seating": "yes", "name": "Lenwich", "opening_hours": "Mo-Fr 08:00-16:00; Sa-Su off", "outdoor_seating": "no", "payment:cash": "yes", "payment:contactless": "yes", "payment:credit_cards": "yes", "payment:debit_cards": "yes", "phone": "+1-212-385-2828", "takeaway": "yes", "website": "https://www.lenwich.com/location/financial-district-hanover/", "website:menu": "https://www.lenwichtogo.com/store114/menu.php", "wheelchair": "yes"}}, {"type": "node", "id": 2186614190, "lat": 40.7046071, "lon": -74.0091159, "tags": {"addr:city": "New York", "addr:housenumber": "110", "addr:postcode": "10005", "addr:state": "NY", "addr:street": "Pearl Street", "amenity": "cafe", "branch": "Pearl & Hanover", "brand": "Starbucks", "brand:wikidata": "Q37158", "cuisine": "coffee_shop", "diet:vegan": "yes", "drink:soy_milk": "yes", "name": "Starbucks", "official_name": "Starbucks Coffee", "phone": "+1 212-482-6530", "ref": "7912", "takeaway": "yes", "website": "https://www.starbucks.com/store-locator/store/7912/pearl-hanover-110-pearl-street-new-york-ny-100053510-us", "wheelchair": "yes"}}, {"type": "node", "id": 2186614191, "lat": 40.7046731, "lon": -74.0089587, "tags": {"amenity": "restaurant", "name": "The Original Soupman", "wheelchair": "yes"}}, {"type": "node", "id": 2186614209, "lat": 40.7046205, "lon": -74.0094594, "tags": {"barrier": "kerb", "kerb": "lowered", "tactile_paving": "yes", "wheelchair": "yes"}}, {"type": "node", "id": 2186614214, "lat": 40.7048036, "lon": -74.0097208}, {"type": "node", "id": 2186614223, "lat": 40.7049721, "lon": -74.0089843}, {"type": "node", "id": 2186614225, "lat": 40.7048141, "lon": -74.0096822}, {"type": "node", "id": 2234390144, "lat": 40.7031607, "lon": -74.0174956}, {"type": "node", "id": 2275856089, "lat": 40.7087251, "lon": -74.0103625, "tags": {"addr:housenumber": "140", "addr:street": "Broadway", "name": "Brown Brothers Harriman & Trust", "office": "company", "wheelchair": "yes"}}, {"type": "node", "id": 2275856091, "lat": 40.7046581, "lon": -74.0131273, "tags": {"name": "MTA New York City Transit HQ", "office": "government"}}, {"type": "node", "id": 2731108933, "lat": 40.7059245, "lon": -74.0103947, "tags": {"addr:city": "New York", "addr:housenumber": "40", "addr:postcode": "10005", "addr:street": "Exchange Place", "amenity": "pub", "check_date:opening_hours": "2023-09-21", "indoor_seating": "yes", "internet_access": "yes", "internet_access:fee": "no", "name": "The Irish Punt", "opening_hours:signed": "no", "outdoor_seating": "no", "phone": "+1 212-422-7868", "wheelchair": "no"}}, {"type": "node", "id": 2790377994, "lat": 40.7068622, "lon": -74.0097342, "tags": {"addr:housenumber": "40", "addr:postcode": "10005", "addr:state": "NY", "addr:street": "Wall Street", "name": "Send A Package Inc.", "office": "company", "shop": "shipping", "website": "sendapackage.com"}}, {"type": "node", "id": 2824641540, "lat": 40.7088461, "lon": -74.012467}, {"type": "node", "id": 2824641541, "lat": 40.7088562, "lon": -74.0124081}, {"type": "node", "id": 2824641543, "lat": 40.708872, "lon": -74.0124479}, {"type": "node", "id": 2824641547, "lat": 40.7089288, "lon": -74.0126577}, {"type": "node", "id": 2824641551, "lat": 40.7089987, "lon": -74.0123068}, {"type": "node", "id": 2824641552, "lat": 40.7090116, "lon": -74.0123365}, {"type": "node", "id": 2824641554, "lat": 40.7090388, "lon": -74.0123161}, {"type": "node", "id": 2824641555, "lat": 40.7090518, "lon": -74.0125562}, {"type": "node", "id": 2824641556, "lat": 40.7090549, "lon": -74.0125633}, {"type": "node", "id": 2824641561, "lat": 40.7090784, "lon": -74.0122745}, {"type": "node", "id": 2824641564, "lat": 40.7090881, "lon": -74.0125189}, {"type": "node", "id": 2824641565, "lat": 40.7090914, "lon": -74.0125265}, {"type": "node", "id": 2824641569, "lat": 40.7091173, "lon": -74.012497}, {"type": "node", "id": 2824641576, "lat": 40.7091894, "lon": -74.0125281}, {"type": "node", "id": 2824641585, "lat": 40.7093112, "lon": -74.0124361}, {"type": "node", "id": 2824641586, "lat": 40.7093236, "lon": -74.0120892}, {"type": "node", "id": 2824641590, "lat": 40.7093741, "lon": -74.0125799}, {"type": "node", "id": 2824641596, "lat": 40.7093869, "lon": -74.0125703}, {"type": "node", "id": 2824641604, "lat": 40.7094975, "lon": -74.0124867}, {"type": "node", "id": 2824697561, "lat": 40.7089682, "lon": -74.0081766}, {"type": "node", "id": 2824697572, "lat": 40.7090436, "lon": -74.0082939}, {"type": "node", "id": 2824697586, "lat": 40.7090885, "lon": -74.0083437}, {"type": "node", "id": 2824697587, "lat": 40.7090941, "lon": -74.00795}, {"type": "node", "id": 2824697588, "lat": 40.7091329, "lon": -74.0080059}, {"type": "node", "id": 2824697701, "lat": 40.7092123, "lon": -74.0081188}, {"type": "node", "id": 2824697702, "lat": 40.7092472, "lon": -74.0081831}, {"type": "node", "id": 2824827795, "lat": 40.7050976, "lon": -74.0090366, "tags": {"addr:city": "New York", "addr:housenumber": "5", "addr:postcode": "10004", "addr:state": "NY", "addr:street": "Hanover Street", "office": "yes"}}, {"type": "node", "id": 2824828249, "lat": 40.7054375, "lon": -74.0138074, "tags": {"addr:housenumber": "25", "addr:postcode": "10004", "addr:street": "Broadway", "name": "Satellite Innovations", "office": "company", "website": "https://www.satelliteinnovations.io/"}}, {"type": "node", "id": 2824828301, "lat": 40.7041158, "lon": -74.0104083}, {"type": "node", "id": 2824828323, "lat": 40.7043755, "lon": -74.0103859, "tags": {"addr:city": "New York", "addr:housenumber": "53", "addr:postcode": "10004", "addr:state": "NY", "addr:street": "Stone Street", "amenity": "restaurant", "cuisine": "scandinavian", "name": "Smorgas Chef", "website": "http://www.smorgas.com/index_wallstreet.htm"}}, {"type": "node", "id": 2824828336, "lat": 40.704458, "lon": -74.0102766, "tags": {"addr:city": "New York", "addr:housenumber": "57", "addr:postcode": "10004", "addr:state": "NY", "addr:street": "Stone Street", "amenity": "restaurant", "name": "Bodega Gran Via"}}, {"type": "node", "id": 2824828390, "lat": 40.7041146, "lon": -74.0117291, "tags": {"addr:housenumber": "88", "addr:postcode": "10004", "addr:street": "Broad Street", "amenity": "pub", "indoor_seating": "yes", "name": "Broadstone Bar & Kitchen", "outdoor_seating": "yes", "wheelchair": "yes"}}, {"type": "node", "id": 2824828419, "lat": 40.7013239, "lon": -74.0148823}, {"type": "node", "id": 2824828421, "lat": 40.7013344, "lon": -74.0149056}, {"type": "node", "id": 2824829036, "lat": 40.7039737, "lon": -74.0103728}, {"type": "node", "id": 2824829049, "lat": 40.7040287, "lon": -74.0102975}, {"type": "node", "id": 2824829063, "lat": 40.7040828, "lon": -74.0102235}, {"type": "node", "id": 2824829075, "lat": 40.7041298, "lon": -74.010159}, {"type": "node", "id": 2824829092, "lat": 40.7041726, "lon": -74.0105208}, {"type": "node", "id": 2824829093, "lat": 40.7041849, "lon": -74.0100836}, {"type": "node", "id": 2824829098, "lat": 40.7042023, "lon": -74.0104556}, {"type": "node", "id": 2824829203, "lat": 40.7042337, "lon": -74.0103887}, {"type": "node", "id": 2824829206, "lat": 40.7042378, "lon": -74.0106561}, {"type": "node", "id": 2824829209, "lat": 40.7042643, "lon": -74.0099812}, {"type": "node", "id": 2824829210, "lat": 40.7042711, "lon": -74.0103255}, {"type": "node", "id": 2824829212, "lat": 40.7042991, "lon": -74.0104836}, {"type": "node", "id": 2824829217, "lat": 40.7043193, "lon": -74.0102634}, {"type": "node", "id": 2824829223, "lat": 40.7043438, "lon": -74.0101145}, {"type": "node", "id": 2824829226, "lat": 40.7043551, "lon": -74.0100996}, {"type": "node", "id": 2824829231, "lat": 40.704389, "lon": -74.0101735}, {"type": "node", "id": 2824829234, "lat": 40.7044189, "lon": -74.0107579}, {"type": "node", "id": 2824829239, "lat": 40.7044486, "lon": -74.0106617}, {"type": "node", "id": 2824829283, "lat": 40.7047118, "lon": -74.010504}, {"type": "node", "id": 2824829296, "lat": 40.7047547, "lon": -74.0104395}, {"type": "node", "id": 2824829401, "lat": 40.7047963, "lon": -74.0105641}, {"type": "node", "id": 2824829405, "lat": 40.7048243, "lon": -74.0110154}, {"type": "node", "id": 2824829407, "lat": 40.7048365, "lon": -74.0107205}, {"type": "node", "id": 2824829408, "lat": 40.7048448, "lon": -74.0106291}, {"type": "node", "id": 2824829409, "lat": 40.7048503, "lon": -74.01063}, {"type": "node", "id": 2824829410, "lat": 40.7048509, "lon": -74.0107228}, {"type": "node", "id": 2824829411, "lat": 40.7048526, "lon": -74.0106043}, {"type": "node", "id": 2824829414, "lat": 40.7048795, "lon": -74.0105996}, {"type": "node", "id": 2824829418, "lat": 40.7048811, "lon": -74.0093861}, {"type": "node", "id": 2824829420, "lat": 40.7048971, "lon": -74.010566}, {"type": "node", "id": 2824829441, "lat": 40.7049877, "lon": -74.0110411}, {"type": "node", "id": 2824829448, "lat": 40.7050208, "lon": -74.0106775}, {"type": "node", "id": 2824988421, "lat": 40.7071182, "lon": -74.0081966}, {"type": "node", "id": 2824988442, "lat": 40.7072313, "lon": -74.0081413}, {"type": "node", "id": 2824988446, "lat": 40.7072328, "lon": -74.0081305}, {"type": "node", "id": 2824988452, "lat": 40.7072449, "lon": -74.0081625}, {"type": "node", "id": 2824988458, "lat": 40.7072559, "lon": -74.0081666}, {"type": "node", "id": 2824988459, "lat": 40.7072567, "lon": -74.0081808}, {"type": "node", "id": 2824988465, "lat": 40.7072623, "lon": -74.0081595}, {"type": "node", "id": 2824988469, "lat": 40.7072827, "lon": -74.0082213}, {"type": "node", "id": 2824988471, "lat": 40.7072876, "lon": -74.0082158}, {"type": "node", "id": 2824988474, "lat": 40.7072917, "lon": -74.0082353}, {"type": "node", "id": 2824988476, "lat": 40.7072966, "lon": -74.0082299}, {"type": "node", "id": 2824988484, "lat": 40.7073177, "lon": -74.0082759}, {"type": "node", "id": 2824988485, "lat": 40.7073187, "lon": -74.0082838}, {"type": "node", "id": 2824988494, "lat": 40.7073637, "lon": -74.0083539}, {"type": "node", "id": 2824988495, "lat": 40.7073701, "lon": -74.0083575}, {"type": "node", "id": 2824988497, "lat": 40.7073834, "lon": -74.0083783}, {"type": "node", "id": 2824988501, "lat": 40.707388, "lon": -74.0083733}, {"type": "node", "id": 2824988503, "lat": 40.7073928, "lon": -74.0083808}, {"type": "node", "id": 2824988505, "lat": 40.7074054, "lon": -74.0084076}, {"type": "node", "id": 2824988508, "lat": 40.707415, "lon": -74.0084093}, {"type": "node", "id": 2825052375, "lat": 40.7036379, "lon": -74.0083846}, {"type": "node", "id": 2825052376, "lat": 40.7037011, "lon": -74.0082888}, {"type": "node", "id": 2837384392, "lat": 40.7057886, "lon": -74.0112224, "tags": {"addr:housenumber": "41", "addr:postcode": "10004", "addr:street": "Broad Street", "amenity": "school", "check_date": "2025-08-14", "name": "Lehman Manhattan Preparatory School", "wheelchair": "yes"}}, {"type": "node", "id": 2915596861, "lat": 40.7066535, "lon": -74.0123807, "tags": {"addr:city": "New York", "addr:housenumber": "56", "addr:postcode": "10004", "addr:state": "NY", "addr:street": "Broadway", "amenity": "college", "name": "The King's College", "phone": "+1 212-659-7200", "website": "https://www.tkc.edu/", "wheelchair": "yes"}}, {"type": "node", "id": 3190230454, "lat": 40.7053184, "lon": -74.0100991, "tags": {"amenity": "restaurant", "cuisine": "american;korean;japanese;coffee_shop", "indoor_seating": "yes", "name": "Open Kitchen", "outdoor_seating": "yes", "wheelchair": "yes"}}, {"type": "node", "id": 3190230455, "lat": 40.7062033, "lon": -74.011905, "tags": {"addr:city": "New York", "addr:housenumber": "30", "addr:postcode": "10004", "addr:state": "NY", "addr:street": "Broad Street", "amenity": "cafe", "brand": "Bluestone Lane", "brand:wikidata": "Q130381059", "cuisine": "australian;coffee_shop", "name": "Bluestone Lane"}}, {"type": "node", "id": 3239326415, "lat": 40.7045322, "lon": -74.0109178, "tags": {"addr:housenumber": "26", "addr:street": "South William Street", "amenity": "restaurant", "name": "Luke's Lobster", "website": "https://lukeslobster.com/fidi", "wheelchair": "yes"}}, {"type": "node", "id": 3448908338, "lat": 40.7060236, "lon": -74.0102403, "tags": {"addr:city": "New York", "addr:housenumber": "41", "addr:postcode": "10005", "addr:state": "NY", "addr:street": "Exchange Place", "amenity": "restaurant", "cuisine": "pizza", "delivery": "yes", "name": "Cucina Bene Pizza", "website": "https://www.cucinabenepizza.com/"}}, {"type": "node", "id": 3448974183, "lat": 40.704371, "lon": -74.0098436}, {"type": "node", "id": 3448974184, "lat": 40.7045047, "lon": -74.0100241}, {"type": "node", "id": 3451440812, "lat": 40.7052914, "lon": -74.00834, "tags": {"addr:city": "New York", "addr:housenumber": "1", "addr:postcode": "10005", "addr:state": "NY", "addr:street": "Wall Street Court", "amenity": "bar", "name": "Continental Bar & Lounge", "old_name": "Haru Sushi", "opening_hours": "Mo-Th 11:00-23:00, Fr-Sa 11:00-00:00"}}, {"type": "node", "id": 3737959221, "lat": 40.7084159, "lon": -74.0142036, "tags": {"addr:city": "New York", "addr:housenumber": "103", "addr:postcode": "10006", "addr:street": "Washington Street", "amenity": "restaurant", "name": "St. George Tavern", "opening_hours": "Su-Th 06:30-18:00; Fr-Sa 06:30-02:00", "phone": "+12122409868", "wheelchair": "limited"}}, {"type": "node", "id": 3738776597, "lat": 40.7043498, "lon": -74.0104603, "tags": {"addr:city": "New York", "addr:housenumber": "47", "addr:postcode": "10004", "addr:state": "NY", "addr:street": "Stone Street", "amenity": "restaurant", "cocktails": "yes", "cuisine": "british", "drink:beer": "served", "drink:cider": "served", "happy_hours": "Th-Sa 16:00-19:00, 23:00-02:00; Mo-We, Su 16:00-19:00", "name": "The Cauldron", "opening_hours": "Mo-We 11:00-21:00; Th-Sa 11:00-23:00; Su 11:00-20:00", "outdoor_seating": "yes", "phone": "+1 212-480-8142", "reservation": "yes", "website": "https://thecauldron.io/nyc/dine"}}, {"type": "node", "id": 3738776600, "lat": 40.7043867, "lon": -74.0106192}, {"type": "node", "id": 3738928726, "lat": 40.7074061, "lon": -74.0076691}, {"type": "node", "id": 3738928727, "lat": 40.7074061, "lon": -74.0076781}, {"type": "node", "id": 3738928728, "lat": 40.7074171, "lon": -74.0076584}, {"type": "node", "id": 3738928730, "lat": 40.7074235, "lon": -74.0076606}, {"type": "node", "id": 3738928737, "lat": 40.7074852, "lon": -74.0078074}, {"type": "node", "id": 3738928739, "lat": 40.7075285, "lon": -74.0077351}, {"type": "node", "id": 3748367336, "lat": 40.7091507, "lon": -74.008281}, {"type": "node", "id": 3754090214, "lat": 40.7037751, "lon": -74.0084381}, {"type": "node", "id": 3762209179, "lat": 40.7092057, "lon": -74.0125158}, {"type": "node", "id": 3762209180, "lat": 40.7092512, "lon": -74.0124814}, {"type": "node", "id": 3762209186, "lat": 40.7094335, "lon": -74.0123404}, {"type": "node", "id": 3772831306, "lat": 40.708905, "lon": -74.0126029}, {"type": "node", "id": 3926398285, "lat": 40.7073841, "lon": -74.012574, "tags": {"addr:city": "New York", "addr:housenumber": "65", "addr:postcode": "10006", "addr:state": "NY", "addr:street": "Broadway", "amenity": "restaurant", "name": "Variety Cafe", "phone": "+1-212-430-6888", "wheelchair": "no"}}, {"type": "node", "id": 4206997147, "lat": 40.7070081, "lon": -74.0139099, "tags": {"barrier": "kerb", "kerb": "lowered", "tactile_paving": "yes", "wheelchair": "yes"}}, {"type": "node", "id": 4324282097, "lat": 40.7090297, "lon": -74.0114731, "tags": {"addr:housenumber": "115", "addr:postcode": "10006", "addr:state": "NY", "addr:street": "Broadway", "amenity": "pub", "name": "Trinity Place Bar and Restaurant", "opening_hours": "Mo-Fr 11:30-01:00"}}, {"type": "node", "id": 4402057816, "lat": 40.7065633, "lon": -74.0129228, "tags": {"addr:housenumber": "47", "addr:postcode": "10006", "addr:street": "Broadway", "amenity": "restaurant", "branch": "47 Broadway", "brand": "TGI Fridays", "brand:wikidata": "Q1524184", "cocktails": "yes", "cuisine": "american", "drink:beer": "yes", "drink:wine": "yes", "level": "0", "name": "TGI Fridays", "opening_hours": "Su-We 11:30-22:00; Th-Sa 11:30-11:00", "phone": "+1 212-483-8322", "website": "https://locations.tgifridays.com/ny/new-york/47-broadway.html", "wheelchair": "yes"}}, {"type": "node", "id": 4680481185, "lat": 40.7081387, "lon": -74.010378, "tags": {"addr:city": "New York", "addr:floor": "31", "addr:housenumber": "120", "addr:postcode": "10271", "addr:state": "NY", "addr:street": "Broadway", "addr:unit": "31st Floor", "air_conditioning": "yes", "fax": "+1-212-720-3488", "government": "yes", "name": "New York City Department of City Planning", "office": "government", "operator": "City of New York", "operator:type": "government", "operator:wikidata": "Q3112559", "operator:wikipedia": "en:City of New York", "phone": "+1-212-720-3300", "website": "https://www1.nyc.gov/site/planning/index.page", "wikidata": "Q8354830", "wikipedia": "en:New York City Department of City Planning"}}, {"type": "node", "id": 4708888898, "lat": 40.7064444, "lon": -74.0079647, "tags": {"amenity": "cafe", "indoor_seating": "yes", "name": "Black Fox coffee co.", "name:en": "Black Fox coffee co.", "outdoor_seating": "yes"}}, {"type": "node", "id": 4802844049, "lat": 40.706735, "lon": -74.0096934, "tags": {"addr:housenumber": "40", "addr:street": "Wall Street", "amenity": "restaurant", "check_date": "2023-01-26", "cuisine": "pizza", "indoor_seating": "yes", "name": "Luzzo's La Pizza Napoletana", "outdoor_seating": "yes", "payment:credit_cards": "yes", "payment:debit_cards": "yes", "takeaway": "yes", "wheelchair": "yes"}}, {"type": "node", "id": 4844071325, "lat": 40.7057985, "lon": -74.0075564, "tags": {"addr:city": "New York", "addr:postcode": "10005", "amenity": "pub", "indoor_seating": "yes", "name": "Full Shilling", "opening_hours": "Mo-Sa 11:00-00:00", "outdoor_seating": "yes", "phone": "+12124223855", "website": "http://www.thefullshilling.com", "wheelchair": "yes"}}, {"type": "node", "id": 4845789723, "lat": 40.704646, "lon": -74.0084317, "tags": {"addr:postcode": "10005", "amenity": "cafe", "brand": "Bluestone Lane", "brand:wikidata": "Q130381059", "name": "Bluestone Lane", "opening_hours": "Mo-Fr 07:00-18:00; Sa-Su 08:00-16:00", "phone": "+12127479082", "website": "http://www.bluestonelaneny.com", "wheelchair": "no"}}, {"type": "node", "id": 4846158321, "lat": 40.7056733, "lon": -74.0083741, "tags": {"addr:housenumber": "69B", "addr:postcode": "10005", "addr:street": "Wall Street", "amenity": "cafe", "brand": "La Colombe Coffee Roasters", "brand:wikidata": "Q23461663", "cuisine": "coffee_shop", "drink:coffee": "yes", "drink:espresso": "yes", "drink:tea": "yes", "indoor_seating": "yes", "name": "La Colombe Coffee Roasters", "opening_hours": "Mo-Fr 06:00-18:30; Sa-Su 07:00-18:30", "opening_hours:covid19": "Mo-Fr 07:00-18:00; Sa-Su 07:00-17:00", "outdoor_seating": "no", "phone": "+1-212-220-0415", "short_name": "La Colombe", "takeaway": "yes", "website": "https://www.lacolombe.com/", "wheelchair": "yes"}}, {"type": "node", "id": 4850230829, "lat": 40.7061594, "lon": -74.008845, "tags": {"addr:postcode": "10005", "amenity": "cafe", "brand": "Starbucks", "brand:wikidata": "Q37158", "check_date": "2019-11-02", "cuisine": "coffee_shop", "name": "Starbucks", "official_name": "Starbucks Coffee", "opening_hours": "Mo-Fr 07:00-20:00; Sa-Su 07:00-18:00", "phone": "+13474614068", "takeaway": "yes", "wheelchair": "yes"}}, {"type": "node", "id": 4860132622, "lat": 40.7080709, "lon": -74.0137437, "tags": {"addr:housenumber": "94", "addr:postcode": "10006", "addr:street": "Greenwich Street", "amenity": "cafe", "check_date": "2023-02-23", "indoor_seating": "yes", "name": "Siena Bakehouse", "outdoor_seating": "no"}}, {"type": "node", "id": 4860141023, "lat": 40.7080225, "lon": -74.0143548, "tags": {"addr:postcode": "10006", "amenity": "restaurant", "name": "Sauce & Barrel", "opening_hours": "Mo-Fr 11:30-23:00; Sa 12:00-01:00", "phone": "+12124806800", "website": "https://www.sauceandbarrel.com/"}}, {"type": "node", "id": 4860141724, "lat": 40.7046891, "lon": -74.0105964, "tags": {"addr:housenumber": "10", "addr:postcode": "10004", "amenity": "restaurant", "cuisine": "chinese", "name": "No. 1", "opening_hours": "Mo-Fr 11:00-21:30; Sa-Su 15:30-21:30", "phone": "+12129520890"}}, {"type": "node", "id": 4876525166, "lat": 40.7036386, "lon": -74.0144799}, {"type": "node", "id": 4899954121, "lat": 40.7037798, "lon": -74.0109286, "tags": {"amenity": "cafe", "brand": "Le Pain Quotidien", "brand:wikidata": "Q2046903", "cuisine": "coffee_shop", "indoor_seating": "yes", "name": "Le Pain Quotidien", "name:en": "Le Pain Quotidien", "outdoor_seating": "yes", "takeaway": "yes", "wheelchair": "yes"}}, {"type": "node", "id": 4913377823, "lat": 40.7041988, "lon": -74.0117201, "tags": {"amenity": "cafe", "brand": "Gregorys Coffee", "brand:wikidata": "Q28229714", "indoor_seating": "yes", "name": "Gregorys Coffee", "note": "lack of apostrophe in name is not a typo", "opening_hours": "Mo-Th 06:30-17:00; Fr 06:30-16:00", "outdoor_seating": "no", "wheelchair": "yes"}}, {"type": "node", "id": 4942593330, "lat": 40.7073323, "lon": -74.008539}, {"type": "node", "id": 4942593331, "lat": 40.7072142, "lon": -74.0081009}, {"type": "node", "id": 4942593338, "lat": 40.7073374, "lon": -74.0084629}, {"type": "node", "id": 4942593339, "lat": 40.7073262, "lon": -74.0084448}, {"type": "node", "id": 4942593348, "lat": 40.7073559, "lon": -74.0084173}, {"type": "node", "id": 4942593349, "lat": 40.7073659, "lon": -74.0084339}, {"type": "node", "id": 4942694536, "lat": 40.7039608, "lon": -74.0118856, "tags": {"addr:city": "New York", "addr:housenumber": "20", "addr:postcode": "10004", "addr:state": "NY", "addr:street": "Stone Street", "amenity": "cafe", "branch": "Financial District", "brand": "Caf\u00e9 Grumpy", "cuisine": "coffee_shop", "indoor_seating": "yes", "name": "Caf\u00e9 Grumpy", "opening_hours": "Mo-Fr 07:00-17:00; Sa, Su 08:00-15:00", "outdoor_seating": "yes", "phone": "+1-646-838-9306", "website": "https://cafegrumpy.com/locations/financial-district"}}, {"type": "node", "id": 4972315823, "lat": 40.7078644, "lon": -74.0134822, "tags": {"addr:housenumber": "85", "addr:street": "Greenwich Street", "amenity": "restaurant", "indoor_seating": "yes", "name": "George's New York", "name:en": "George's New York", "outdoor_seating": "yes", "wheelchair": "limited"}}, {"type": "node", "id": 4972322721, "lat": 40.7075864, "lon": -74.0134624, "tags": {"addr:city": "New York", "addr:housenumber": "44", "addr:street": "Trinity Place", "amenity": "restaurant", "branch": "Financial District", "cuisine": "sandwich", "delivery": "yes", "facebook": "wogiesbar", "indoor_seating": "yes", "instagram": "wogiesbar", "name": "Wogies", "opening_hours": "Mo-Su 11:00-02:00", "outdoor_seating": "no", "phone": "+1 212-785-2838", "takeaway": "yes", "twitter": "wogiesbar", "website": "https://wogies.com"}}, {"type": "node", "id": 5101299223, "lat": 40.7070263, "lon": -74.0132592, "tags": {"addr:housenumber": "27", "addr:street": "Trinity Place", "amenity": "restaurant", "name": "Sale & Pepe", "wheelchair": "yes"}}, {"type": "node", "id": 5101542622, "lat": 40.7081578, "lon": -74.0139728, "tags": {"addr:housenumber": "16", "addr:postcode": "10006", "addr:street": "Rector Street", "amenity": "cafe"}}, {"type": "node", "id": 5135848733, "lat": 40.7078716, "lon": -74.0102438, "tags": {"addr:city": "New York", "addr:housenumber": "120", "addr:postcode": "10271", "addr:state": "NY", "addr:street": "Broadway", "amenity": "restaurant", "bar": "yes", "indoor_seating": "yes", "name": "The Capital Grille", "opening_hours": "Mo-Fr 11:30-10:00, Sa 05:00-10:00, Su closed", "outdoor_seating": "no", "phone": "+1-212-374-1811", "reservation": "yes", "website": "https://www.thecapitalgrille.com/home", "wheelchair": "limited"}}, {"type": "node", "id": 5170067385, "lat": 40.7070592, "lon": -74.0101923, "tags": {"addr:city": "New York", "addr:housenumber": "30", "addr:postcode": "10005", "addr:state": "NY", "addr:street": "Wall Street", "name": "dearJulius.com", "office": "newspaper", "opening_hours": "24/7", "phone": "+1-646-893-7689", "website": "https://www.dearjulius.com/"}}, {"type": "node", "id": 5209054495, "lat": 40.7066849, "lon": -74.0137949}, {"type": "node", "id": 5209054497, "lat": 40.706364, "lon": -74.0142569}, {"type": "node", "id": 5209054498, "lat": 40.7065043, "lon": -74.0139931}, {"type": "node", "id": 5209054500, "lat": 40.7065489, "lon": -74.0139305}, {"type": "node", "id": 5209054504, "lat": 40.7063447, "lon": -74.0142955}, {"type": "node", "id": 5209054506, "lat": 40.7065917, "lon": -74.0138802}, {"type": "node", "id": 5209054508, "lat": 40.706652, "lon": -74.0138232}, {"type": "node", "id": 5209054509, "lat": 40.706448, "lon": -74.0140846}, {"type": "node", "id": 5332665135, "lat": 40.7061301, "lon": -74.0114781, "tags": {"addr:city": "New York", "addr:housenumber": "30", "addr:postcode": "10004", "addr:state": "NY", "addr:street": "Broad Street", "email": "alexlogerfo@ssconcretepolshing.com", "name": "Southside Concrete Polishing", "office": "company", "phone": "+1-646-760-4442", "website": "https://ssconcretepolishing.com/", "wheelchair": "yes"}}, {"type": "node", "id": 5443670322, "lat": 40.705529, "lon": -74.008115, "tags": {"addr:housenumber": "65E", "addr:postcode": "10005", "addr:street": "Wall Street", "amenity": "cafe", "brand": "Joe & The Juice", "brand:wikidata": "Q26221514", "cuisine": "coffee_shop", "drink:coffee": "yes", "drink:espresso": "yes", "drink:juice": "yes", "drink:tea": "yes", "indoor_seating": "yes", "name": "Joe & The Juice", "opening_hours": "Mo-Su 06:00-21:00", "outdoor_seating": "no", "takeaway": "yes", "wheelchair": "yes"}}, {"type": "node", "id": 5461888238, "lat": 40.7053339, "lon": -74.0139867, "tags": {"addr:city": "New York", "addr:housenumber": "11", "addr:postcode": "10004", "addr:state": "NY", "addr:street": "Broadway", "addr:unit": "Suite 1005", "email": "a.johnson@lawapj.com", "fax": "+1-212-430-6797", "name": "Andrew P. Johnson, PC", "office": "lawyer", "phone": "+1-212-693-3355", "website": "https://www.lawapj.com/"}}, {"type": "node", "id": 5520014864, "lat": 40.7037706, "lon": -74.0084478}, {"type": "node", "id": 5520014865, "lat": 40.703729, "lon": -74.0084094}, {"type": "node", "id": 5520014866, "lat": 40.7037341, "lon": -74.0084009}, {"type": "node", "id": 5520014867, "lat": 40.7037639, "lon": -74.008455}, {"type": "node", "id": 5520014868, "lat": 40.7037562, "lon": -74.0084587}, {"type": "node", "id": 5520014869, "lat": 40.703748, "lon": -74.008459}, {"type": "node", "id": 5520014870, "lat": 40.7037401, "lon": -74.0084558}, {"type": "node", "id": 5520014871, "lat": 40.7037335, "lon": -74.0084495}, {"type": "node", "id": 5520014872, "lat": 40.7037286, "lon": -74.0084408}, {"type": "node", "id": 5520014873, "lat": 40.7037262, "lon": -74.0084305}, {"type": "node", "id": 5520014874, "lat": 40.7037263, "lon": -74.0084196}, {"type": "node", "id": 5520014875, "lat": 40.7037409, "lon": -74.0083949}, {"type": "node", "id": 5520014876, "lat": 40.7037493, "lon": -74.008392}, {"type": "node", "id": 5520014877, "lat": 40.7037579, "lon": -74.008393}, {"type": "node", "id": 5520014878, "lat": 40.7037657, "lon": -74.0083977}, {"type": "node", "id": 5520014879, "lat": 40.703772, "lon": -74.0084055}, {"type": "node", "id": 5520014880, "lat": 40.7037759, "lon": -74.0084157}, {"type": "node", "id": 5520014881, "lat": 40.703777, "lon": -74.008427}, {"type": "node", "id": 5561000664, "lat": 40.7086517, "lon": -74.010158, "tags": {"addr:city": "New York", "addr:housenumber": "140", "addr:postcode": "10004", "addr:state": "NY", "addr:street": "Broadway", "addr:unit": "Suite 46", "contact:facebook": "https://www.facebook.com/LevoritzLawGroup/", "name": "The Levoritz Law Firm", "office": "lawyer", "phone": "+1-929-207-6637", "website": "https://levoritzlaw.com/"}}, {"type": "node", "id": 5801870934, "lat": 40.7078151, "lon": -74.0086882, "tags": {"addr:housenumber": "28", "addr:street": "Liberty Street", "amenity": "bar", "cocktails": "yes", "contact:instagram": "manhatta_nyc", "drink:beer": "draught; bottled", "drink:wine": "served", "email": "info@manhattarestaurant.com", "level": "59", "name": "Manhatta", "phone": "+1 212-230-5788", "reservation": "yes", "website": "https://www.manhattarestaurant.com", "wheelchair": "limited"}}, {"type": "node", "id": 5810383921, "lat": 40.7066673, "lon": -74.0135136, "tags": {"addr:city": "New York", "addr:housenumber": "17", "addr:postcode": "10006", "addr:state": "NY", "addr:street": "Trinity Place", "amenity": "restaurant", "cuisine": "pizza;sushi", "diet:dairy_free": "yes", "diet:gluten_free": "yes", "diet:kosher": "only", "diet:vegan": "yes", "drive_through": "no", "name": "Bravo Kosher Pizza", "not:brand:wikidata": "Q64055574", "opening_hours": "Mo-Th 10:00-19:00", "outdoor_seating": "yes", "phone": "+1-212-344-1111", "website": "https://www.bravokosherdowntown.com/", "wheelchair": "yes"}}, {"type": "node", "id": 5889771445, "lat": 40.7052679, "lon": -74.0145708, "tags": {"addr:housenumber": "11", "addr:postcode": "10004", "addr:street": "Greenwich Street", "admin_level": "4", "branch": "Lower Manhattan", "government": "transportation", "name": "New York State Department of Motor Vehicles", "office": "government", "opening_hours": "Mo-Fr 08:30-16:00", "operator": "New York State Department of Motor Vehicles", "operator:short": "NYSDMV", "operator:wikidata": "Q17109616", "phone": "+1 212-645-5550", "short_name": "DMV", "website": "https://dmv.ny.gov/office/lower-manhattan-greenwich-st"}}, {"type": "node", "id": 5978556699, "lat": 40.7039598, "lon": -74.0124974, "tags": {"amenity": "bar", "indoor_seating": "yes", "name": "London & Martin Co.", "outdoor_seating": "no"}}, {"type": "node", "id": 5978556702, "lat": 40.7048978, "lon": -74.0122892, "tags": {"addr:city": "New York", "addr:housenumber": "20", "addr:postcode": "10004", "addr:state": "NY", "addr:street": "Beaver Street", "amenity": "restaurant", "check_date": "2025-08-14", "cuisine": "pizza", "name": "Pizza Etalia", "wheelchair": "no"}}, {"type": "node", "id": 5978556705, "lat": 40.7061538, "lon": -74.0128132, "tags": {"addr:housenumber": "42", "addr:street": "Broadway", "amenity": "cafe", "indoor_seating": "yes", "name": "Gregory\u2019s Coffee", "opening_hours": "Mo-Fr 06:00-18:00; Sa,Su 07:00-17:00", "outdoor_seating": "yes", "wheelchair": "yes"}}, {"type": "node", "id": 5978556715, "lat": 40.7055604, "lon": -74.0124709, "tags": {"addr:housenumber": "75", "addr:street": "New Street", "amenity": "restaurant", "cuisine": "caribbean", "name": "Sophie\u2019s", "wheelchair": "yes"}}, {"type": "node", "id": 5978556716, "lat": 40.7056747, "lon": -74.0125085, "tags": {"addr:housenumber": "69", "addr:street": "New Street", "amenity": "restaurant", "cuisine": "mexican", "name": "El Toro", "phone": "+1-212-363-3900", "wheelchair": "yes"}}, {"type": "node", "id": 5978556721, "lat": 40.707216, "lon": -74.008596, "tags": {"addr:housenumber": "62", "addr:street": "William Street", "amenity": "cafe", "name": "Koyzina Kafe", "wheelchair": "no"}}, {"type": "node", "id": 5978556743, "lat": 40.7048564, "lon": -74.0123904, "tags": {"amenity": "restaurant", "check_date": "2025-08-14", "name": "Yip\u2019s", "wheelchair": "yes"}}, {"type": "node", "id": 5978556750, "lat": 40.7071162, "lon": -74.0081489, "tags": {"addr:housenumber": "25", "addr:street": "Cedar Street", "amenity": "bar", "name": "Cedar Local", "wheelchair": "limited"}}, {"type": "node", "id": 5978557992, "lat": 40.7057076, "lon": -74.0123841, "tags": {"addr:housenumber": "69", "addr:street": "New Street", "amenity": "restaurant", "cuisine": "pizza", "name": "The Grotto", "wheelchair": "no"}}, {"type": "node", "id": 5978558008, "lat": 40.7070318, "lon": -74.0080353, "tags": {"addr:housenumber": "25", "addr:street": "Cedar Street", "amenity": "cafe", "cuisine": "greek", "name": "Pita Press", "wheelchair": "no"}}, {"type": "node", "id": 5978558886, "lat": 40.7082492, "lon": -74.0101892, "tags": {"amenity": "cafe", "name": "Manon Cafe"}}, {"type": "node", "id": 5978837398, "lat": 40.7077341, "lon": -74.0135393, "tags": {"addr:housenumber": "85", "addr:street": "Greenwich Street", "amenity": "restaurant", "cuisine": "mexican", "indoor_seating": "yes", "name": "Tajin", "outdoor_seating": "yes"}}, {"type": "node", "id": 6020091159, "lat": 40.7065551, "lon": -74.0136373, "tags": {"addr:housenumber": "11", "addr:street": "Trinity Place", "amenity": "restaurant", "cuisine": "irish", "name": "Blarney Stone", "wheelchair": "yes"}}, {"type": "node", "id": 6051473585, "lat": 40.7042777, "lon": -74.010273, "tags": {"addr:city": "New York", "addr:housenumber": "52", "addr:postcode": "10004", "addr:state": "NY", "addr:street": "Stone Street", "amenity": "restaurant", "name": "Stone Street Tavern", "name:ko": "\uc2a4\ud1a4 \uc2a4\ud2b8\ub9ac\ud2b8", "outdoor_seating": "street", "phone": "+12127855658", "website": "https://stonestreettavernnyc.com/", "wheelchair": "limited"}}, {"type": "node", "id": 6179753683, "lat": 40.7078003, "lon": -74.0077463, "tags": {"addr:housenumber": "75", "addr:postcode": "10038", "addr:street": "Maiden Lane", "air_conditioning": "yes", "amenity": "restaurant", "bar": "no", "branch": "Financial District", "brand": "Ta\u00efm", "check_date": "2024-06-27", "cuisine": "mediterranean", "delivery": "yes", "diet:vegan": "yes", "diet:vegetarian": "yes", "dish": "falafel", "highchair": "yes", "indoor_seating": "yes", "level": "0", "name": "Ta\u00efm", "opening_hours": "11:00-20:30", "outdoor_seating": "no", "payment:cash": "yes", "payment:credit_cards": "yes", "phone": "+1 212-226-1248", "takeaway": "yes", "website": "https://taimfalafel.com/", "wheelchair": "yes"}}, {"type": "node", "id": 6262915538, "lat": 40.7079013, "lon": -74.0080225, "tags": {"barrier": "kerb", "kerb": "lowered", "tactile_paving": "yes", "wheelchair": "yes"}}, {"type": "node", "id": 6262915540, "lat": 40.7077381, "lon": -74.0081847}, {"type": "node", "id": 6262915542, "lat": 40.7078946, "lon": -74.0080527}, {"type": "node", "id": 6262915546, "lat": 40.7078904, "lon": -74.0079978}, {"type": "node", "id": 6262915550, "lat": 40.707762, "lon": -74.0081828, "tags": {"barrier": "kerb", "kerb": "raised", "tactile_paving": "no"}}, {"type": "node", "id": 6268489254, "lat": 40.7082737, "lon": -74.010834, "tags": {"addr:city": "New York", "addr:housenumber": "120", "addr:postcode": "10271", "addr:state": "NY", "addr:street": "Broadway", "addr:unit": "6th Fl.", "air_conditioning": "yes", "name": "Handel Architects", "office": "architect", "opening_hours": "Mo-Fr 09:00-18:00", "website": "https://handelarchitects.com"}}, {"type": "node", "id": 6297395784, "lat": 40.7041817, "lon": -74.0171767}, {"type": "node", "id": 6297395887, "lat": 40.7041482, "lon": -74.0173106}, {"type": "node", "id": 6297396392, "lat": 40.7024281, "lon": -74.0168948}, {"type": "node", "id": 6297397190, "lat": 40.7041653, "lon": -74.0175639}, {"type": "node", "id": 6297397467, "lat": 40.7042328, "lon": -74.0170536}, {"type": "node", "id": 6297397469, "lat": 40.7041932, "lon": -74.0171399}, {"type": "node", "id": 6297397470, "lat": 40.7042143, "lon": -74.0170839}, {"type": "node", "id": 6297397471, "lat": 40.7042821, "lon": -74.0169861}, {"type": "node", "id": 6297397473, "lat": 40.7043422, "lon": -74.0169233}, {"type": "node", "id": 6297397474, "lat": 40.70431, "lon": -74.0169524}, {"type": "node", "id": 6297397475, "lat": 40.7044664, "lon": -74.0168493}, {"type": "node", "id": 6297397476, "lat": 40.7044222, "lon": -74.0168724}, {"type": "node", "id": 6297397477, "lat": 40.7046098, "lon": -74.0167832}, {"type": "node", "id": 6297397478, "lat": 40.7045341, "lon": -74.0168141}, {"type": "node", "id": 6297397483, "lat": 40.7042612, "lon": -74.0170105}, {"type": "node", "id": 6297397596, "lat": 40.7041629, "lon": -74.017243}, {"type": "node", "id": 6297397603, "lat": 40.7041545, "lon": -74.0172814}, {"type": "node", "id": 6297397830, "lat": 40.7014867, "lon": -74.0147836}, {"type": "node", "id": 6297397838, "lat": 40.7013759, "lon": -74.0144976}, {"type": "node", "id": 6297397839, "lat": 40.7014641, "lon": -74.0144742}, {"type": "node", "id": 6297397840, "lat": 40.7013828, "lon": -74.0145201}, {"type": "node", "id": 6297397841, "lat": 40.7015965, "lon": -74.0147454}, {"type": "node", "id": 6297397842, "lat": 40.7015142, "lon": -74.0145157}, {"type": "node", "id": 6297410845, "lat": 40.7015139, "lon": -74.0147994}, {"type": "node", "id": 6297410858, "lat": 40.7014827, "lon": -74.0145332}, {"type": "node", "id": 6326774864, "lat": 40.7047082, "lon": -74.0150568}, {"type": "node", "id": 6326774865, "lat": 40.704726, "lon": -74.0151461}, {"type": "node", "id": 6326774866, "lat": 40.7047424, "lon": -74.0152293}, {"type": "node", "id": 6326774867, "lat": 40.7047461, "lon": -74.0152706}, {"type": "node", "id": 6326774868, "lat": 40.7047439, "lon": -74.0152822}, {"type": "node", "id": 6326774869, "lat": 40.7047385, "lon": -74.0153094}, {"type": "node", "id": 6326774870, "lat": 40.7047353, "lon": -74.0153449}, {"type": "node", "id": 6326774871, "lat": 40.7047373, "lon": -74.0153615}, {"type": "node", "id": 6326774872, "lat": 40.7047506, "lon": -74.015429}, {"type": "node", "id": 6326774873, "lat": 40.704769, "lon": -74.0155615, "tags": {"barrier": "kerb", "kerb": "lowered", "tactile_paving": "yes"}}, {"type": "node", "id": 6326774874, "lat": 40.7047783, "lon": -74.0156911}, {"type": "node", "id": 6326774876, "lat": 40.7047796, "lon": -74.0157878}, {"type": "node", "id": 6326774877, "lat": 40.7047755, "lon": -74.0159154}, {"type": "node", "id": 6326774878, "lat": 40.7047678, "lon": -74.0160111}, {"type": "node", "id": 6326774879, "lat": 40.7047414, "lon": -74.0162994}, {"type": "node", "id": 6326774880, "lat": 40.7047331, "lon": -74.0164284}, {"type": "node", "id": 6326774881, "lat": 40.7047287, "lon": -74.0165906}, {"type": "node", "id": 6326774882, "lat": 40.7047284, "lon": -74.0166673}, {"type": "node", "id": 6326774883, "lat": 40.7047291, "lon": -74.0166918}, {"type": "node", "id": 6326774884, "lat": 40.7047315, "lon": -74.0167063}, {"type": "node", "id": 6326774985, "lat": 40.7047561, "lon": -74.0167606}, {"type": "node", "id": 6326774986, "lat": 40.7047597, "lon": -74.01678}, {"type": "node", "id": 6326779634, "lat": 40.7041713, "lon": -74.0172136}, {"type": "node", "id": 6326794325, "lat": 40.7045625, "lon": -74.0144594}, {"type": "node", "id": 6326794326, "lat": 40.704592, "lon": -74.0145506}, {"type": "node", "id": 6326794327, "lat": 40.7046397, "lon": -74.0147303}, {"type": "node", "id": 6326794328, "lat": 40.7046753, "lon": -74.0148975, "tags": {"barrier": "kerb", "kerb": "lowered", "tactile_paving": "yes", "wheelchair": "yes"}}, {"type": "node", "id": 6326822634, "lat": 40.7047442, "lon": -74.0162677, "tags": {"barrier": "kerb"}}, {"type": "node", "id": 6326825586, "lat": 40.702651, "lon": -74.0142242}, {"type": "node", "id": 6326825587, "lat": 40.7027569, "lon": -74.0143213}, {"type": "node", "id": 6326825588, "lat": 40.7028372, "lon": -74.0143816}, {"type": "node", "id": 6326825589, "lat": 40.7029109, "lon": -74.0144272}, {"type": "node", "id": 6326825590, "lat": 40.7029998, "lon": -74.0144674}, {"type": "node", "id": 6326825591, "lat": 40.7031323, "lon": -74.0145119}, {"type": "node", "id": 6326825592, "lat": 40.7032388, "lon": -74.0145306, "tags": {"barrier": "kerb", "kerb": "lowered", "tactile_paving": "yes"}}, {"type": "node", "id": 6326825593, "lat": 40.7032937, "lon": -74.0145345}, {"type": "node", "id": 6326825594, "lat": 40.7033496, "lon": -74.0145305}, {"type": "node", "id": 6326825595, "lat": 40.7034502, "lon": -74.0145157}, {"type": "node", "id": 6326825596, "lat": 40.7039977, "lon": -74.0144118}, {"type": "node", "id": 6326825597, "lat": 40.7041919, "lon": -74.0143749}, {"type": "node", "id": 6326825598, "lat": 40.7043337, "lon": -74.0143501}, {"type": "node", "id": 6326825601, "lat": 40.7044115, "lon": -74.014334}, {"type": "node", "id": 6326825602, "lat": 40.7044415, "lon": -74.014334}, {"type": "node", "id": 6326825603, "lat": 40.704472, "lon": -74.0143407}, {"type": "node", "id": 6326825604, "lat": 40.7044934, "lon": -74.0143524, "tags": {"barrier": "kerb", "kerb": "lowered", "tactile_paving": "yes", "wheelchair": "yes"}}, {"type": "node", "id": 6326825605, "lat": 40.7045111, "lon": -74.0143675}, {"type": "node", "id": 6326825606, "lat": 40.7045315, "lon": -74.0143917}, {"type": "node", "id": 6326825607, "lat": 40.7045479, "lon": -74.0144235, "tags": {"barrier": "kerb", "kerb": "lowered", "tactile_paving": "yes"}}, {"type": "node", "id": 6326825608, "lat": 40.7045518, "lon": -74.0144319}, {"type": "node", "id": 6326857019, "lat": 40.7021796, "lon": -74.013876}, {"type": "node", "id": 6326857020, "lat": 40.7021644, "lon": -74.0138777}, {"type": "node", "id": 6326857021, "lat": 40.7021537, "lon": -74.0138804}, {"type": "node", "id": 6326857022, "lat": 40.7021466, "lon": -74.0138851}, {"type": "node", "id": 6326857023, "lat": 40.7021384, "lon": -74.0138938}, {"type": "node", "id": 6326857024, "lat": 40.7021326, "lon": -74.0139055}, {"type": "node", "id": 6326857025, "lat": 40.7021295, "lon": -74.0139169}, {"type": "node", "id": 6326857026, "lat": 40.7021199, "lon": -74.0139478, "tags": {"barrier": "kerb", "kerb": "lowered", "tactile_paving": "yes", "wheelchair": "yes"}}, {"type": "node", "id": 6326857027, "lat": 40.7021072, "lon": -74.0139793}, {"type": "node", "id": 6326857028, "lat": 40.7020894, "lon": -74.0140041}, {"type": "node", "id": 6326857030, "lat": 40.7020436, "lon": -74.0140416}, {"type": "node", "id": 6326857031, "lat": 40.7020106, "lon": -74.0140544}, {"type": "node", "id": 6326857032, "lat": 40.7019938, "lon": -74.0140571}, {"type": "node", "id": 6326857033, "lat": 40.7019562, "lon": -74.0140577}, {"type": "node", "id": 6326857034, "lat": 40.7014956, "lon": -74.0140222}, {"type": "node", "id": 6326857036, "lat": 40.7014143, "lon": -74.0140222}, {"type": "node", "id": 6326857037, "lat": 40.7013884, "lon": -74.0140316}, {"type": "node", "id": 6326857039, "lat": 40.7013416, "lon": -74.0140665}, {"type": "node", "id": 6326857041, "lat": 40.7013157, "lon": -74.0141007}, {"type": "node", "id": 6326857042, "lat": 40.7012999, "lon": -74.0141369}, {"type": "node", "id": 6326857043, "lat": 40.7012828, "lon": -74.014243}, {"type": "node", "id": 6326857046, "lat": 40.7012886, "lon": -74.0142948}, {"type": "node", "id": 6326857047, "lat": 40.7012983, "lon": -74.0143433}, {"type": "node", "id": 6326857051, "lat": 40.7013527, "lon": -74.0145029}, {"type": "node", "id": 6326857066, "lat": 40.7022344, "lon": -74.0138772, "tags": {"barrier": "kerb", "kerb": "lowered", "tactile_paving": "yes", "wheelchair": "yes"}}, {"type": "node", "id": 6326857067, "lat": 40.7022808, "lon": -74.0138782, "tags": {"barrier": "kerb", "kerb": "lowered", "tactile_paving": "yes", "wheelchair": "yes"}}, {"type": "node", "id": 6326857068, "lat": 40.7023151, "lon": -74.0138794}, {"type": "node", "id": 6326857069, "lat": 40.7023329, "lon": -74.0138874}, {"type": "node", "id": 6326857071, "lat": 40.7023708, "lon": -74.0139382, "tags": {"barrier": "kerb", "kerb": "lowered", "tactile_paving": "yes", "wheelchair": "yes"}}, {"type": "node", "id": 6326857073, "lat": 40.7024234, "lon": -74.0140017}, {"type": "node", "id": 6326857074, "lat": 40.7024984, "lon": -74.0140669}, {"type": "node", "id": 6326858991, "lat": 40.7012994, "lon": -74.0149013}, {"type": "node", "id": 6326858992, "lat": 40.7012862, "lon": -74.0148644}, {"type": "node", "id": 6326858993, "lat": 40.7012754, "lon": -74.0148349}, {"type": "node", "id": 6347184545, "lat": 40.7058861, "lon": -74.0129692, "tags": {"addr:city": "New York", "addr:housenumber": "32", "addr:postcode": "10004", "addr:state": "NY", "addr:street": "Broadway", "addr:unit": "Suite 811", "contact:facebook": "https://www.facebook.com/michaeljredenburg", "description": "Michael J. Redenburg is a personal injury attorney in Manhattan helping car accident victims cover their rightful compensation.", "name": "Michael J. Redenburg, Esq. P.C.", "office": "lawyer", "opening_hours": "Mo-Tu, Fr 09:00-17:00; We-Th 09:00-18:00", "phone": "+1-212-240-9465", "website": "https://mjrlaw-ny.com/"}}, {"type": "node", "id": 6356484485, "lat": 40.70412, "lon": -74.0120699, "tags": {"amenity": "restaurant", "name": "Toro Loco"}}, {"type": "node", "id": 6381998626, "lat": 40.7013614, "lon": -74.01405}, {"type": "node", "id": 6419018960, "lat": 40.7046174, "lon": -74.0146416}, {"type": "node", "id": 6475062686, "lat": 40.7059216, "lon": -74.0129774, "tags": {"addr:housenumber": "32", "addr:street": "Broadway", "amenity": "restaurant", "cuisine": "sushi", "fixme": "fix node position", "indoor_seating": "yes", "name": "Bento Nouveau", "opening_hours": "Mo-Th 09:00-20:00; Sa,Su 10:00-18:00", "outdoor_seating": "no", "wheelchair": "no"}}, {"type": "node", "id": 6566728885, "lat": 40.7042695, "lon": -74.0117256, "tags": {"amenity": "restaurant", "check_date:opening_hours": "2023-09-06", "indoor_seating": "yes", "name": "Pok\u00e9bab", "opening_hours:signed": "no", "outdoor_seating": "no", "wheelchair": "yes"}}, {"type": "node", "id": 6566940485, "lat": 40.7091007, "lon": -74.0091471, "tags": {"amenity": "restaurant", "check_date:opening_hours": "2023-08-16", "indoor_seating": "yes", "name": "Kati Roll Company", "opening_hours:signed": "no", "outdoor_seating": "yes"}}, {"type": "node", "id": 6661207828, "lat": 40.7040489, "lon": -74.0111939, "tags": {"addr:city": "New York", "addr:housenumber": "85", "addr:postcode": "10004", "addr:state": "NY", "addr:street": "Broad Street", "name": "Veryday", "office": "company", "website": "https://www.veryday.com/", "wikidata": "Q310207"}}, {"type": "node", "id": 6791086295, "lat": 40.704059, "lon": -74.011355, "tags": {"brand": "WeWork", "brand:wikidata": "Q19995004", "fee": "yes", "name": "WeWork", "office": "coworking"}}, {"type": "node", "id": 6802800188, "lat": 40.7058652, "lon": -74.0087804, "tags": {"addr:housenumber": "65A", "addr:postcode": "10005", "addr:street": "Wall Street", "amenity": "restaurant", "brand": "CAVA", "brand:wikidata": "Q85751038", "check_date": "2025-04-28", "check_date:opening_hours": "2025-04-28", "cuisine": "mediterranean", "diet:vegetarian": "yes", "indoor_seating": "yes", "name": "CAVA", "opening_hours": "Mo-Su 10:45-22:00", "outdoor_seating": "no", "phone": "+1-212-206-2524"}}, {"type": "node", "id": 6958351742, "lat": 40.7040957, "lon": -74.008828, "tags": {"barrier": "kerb", "kerb": "flush", "tactile_paving": "no", "wheelchair": "yes"}}, {"type": "node", "id": 7072589176, "lat": 40.7049872, "lon": -74.0139401}, {"type": "node", "id": 7072589177, "lat": 40.7050721, "lon": -74.0139015}, {"type": "node", "id": 7072589179, "lat": 40.7050603, "lon": -74.0133783}, {"type": "node", "id": 7072589180, "lat": 40.7050218, "lon": -74.0133785}, {"type": "node", "id": 7072589181, "lat": 40.7050847, "lon": -74.0133785}, {"type": "node", "id": 7138157354, "lat": 40.70773, "lon": -74.0081776, "tags": {"barrier": "kerb", "kerb": "lowered", "tactile_paving": "yes"}}, {"type": "node", "id": 7139624427, "lat": 40.7040841, "lon": -74.0088431}, {"type": "node", "id": 7139624470, "lat": 40.704112, "lon": -74.0087874}, {"type": "node", "id": 7596991341, "lat": 40.706227, "lon": -74.0075097, "tags": {"addr:city": "New York", "addr:housenumber": "70", "addr:postcode": "10005", "addr:state": "NY", "addr:street": "Pine Street", "amenity": "restaurant", "name": "Crown Shy", "opening_hours": "17:30-24:00", "phone": "+1-212-517-1932", "website": "https://www.crownshy.nyc"}}, {"type": "node", "id": 7682576633, "lat": 40.700997, "lon": -74.0150255}, {"type": "node", "id": 7682576645, "lat": 40.7011113, "lon": -74.0149312}, {"type": "node", "id": 7685535298, "lat": 40.7053268, "lon": -74.0136437}, {"type": "node", "id": 7685535299, "lat": 40.7053095, "lon": -74.0136702}, {"type": "node", "id": 7685535300, "lat": 40.7052601, "lon": -74.0137382}, {"type": "node", "id": 7685535302, "lat": 40.7051087, "lon": -74.0138774}, {"type": "node", "id": 7685535303, "lat": 40.7050212, "lon": -74.0139287}, {"type": "node", "id": 7685535304, "lat": 40.7049577, "lon": -74.0139461}, {"type": "node", "id": 7685535305, "lat": 40.7049287, "lon": -74.0139474}, {"type": "node", "id": 7685535306, "lat": 40.704871, "lon": -74.0139357}, {"type": "node", "id": 7685535307, "lat": 40.7048441, "lon": -74.013922}, {"type": "node", "id": 7685535308, "lat": 40.7048151, "lon": -74.0139002}, {"type": "node", "id": 7685535309, "lat": 40.7047823, "lon": -74.0138676}, {"type": "node", "id": 7685535310, "lat": 40.7047612, "lon": -74.0138371}, {"type": "node", "id": 7685535311, "lat": 40.7047277, "lon": -74.0137457}, {"type": "node", "id": 7685535312, "lat": 40.7047203, "lon": -74.0136775}, {"type": "node", "id": 7685535313, "lat": 40.7047235, "lon": -74.0136393}, {"type": "node", "id": 7685535314, "lat": 40.7047307, "lon": -74.0135932}, {"type": "node", "id": 7685535315, "lat": 40.7047404, "lon": -74.0135565}, {"type": "node", "id": 7685535316, "lat": 40.7047676, "lon": -74.0135002}, {"type": "node", "id": 7685535317, "lat": 40.7047953, "lon": -74.0134633}, {"type": "node", "id": 7685535318, "lat": 40.7049492, "lon": -74.0133877}, {"type": "node", "id": 7685535319, "lat": 40.7049172, "lon": -74.0133954}, {"type": "node", "id": 7685535320, "lat": 40.7051261, "lon": -74.0133808}, {"type": "node", "id": 7685535321, "lat": 40.7051656, "lon": -74.0133874}, {"type": "node", "id": 7685535322, "lat": 40.7052672, "lon": -74.0134212}, {"type": "node", "id": 7685535323, "lat": 40.7053242, "lon": -74.0134687}, {"type": "node", "id": 7685535324, "lat": 40.7053339, "lon": -74.0134854}, {"type": "node", "id": 7685535325, "lat": 40.7053451, "lon": -74.0135136}, {"type": "node", "id": 7685535326, "lat": 40.7053504, "lon": -74.013547}, {"type": "node", "id": 7685535327, "lat": 40.7053454, "lon": -74.0135959}, {"type": "node", "id": 7685535328, "lat": 40.7047389, "lon": -74.0137909}, {"type": "node", "id": 7685539641, "lat": 40.7053093, "lon": -74.0134506}, {"type": "node", "id": 7685539642, "lat": 40.7051999, "lon": -74.0133954}, {"type": "node", "id": 7685539643, "lat": 40.7049947, "lon": -74.0133807}, {"type": "node", "id": 7685539644, "lat": 40.7048605, "lon": -74.0134167}, {"type": "node", "id": 7685539645, "lat": 40.7048129, "lon": -74.0134468}, {"type": "node", "id": 7685539646, "lat": 40.704784, "lon": -74.013478}, {"type": "node", "id": 7685539647, "lat": 40.7047549, "lon": -74.0135213}, {"type": "node", "id": 7685539648, "lat": 40.704721, "lon": -74.0137126}, {"type": "node", "id": 7685539649, "lat": 40.7053506, "lon": -74.0135706}, {"type": "node", "id": 7706733771, "lat": 40.7063749, "lon": -74.0144154}, {"type": "node", "id": 7706739263, "lat": 40.7046699, "lon": -74.0148739}, {"type": "node", "id": 7706983307, "lat": 40.706363, "lon": -74.0143666}, {"type": "node", "id": 7717760985, "lat": 40.7046131, "lon": -74.0116878, "tags": {"addr:city": "New York", "addr:housenumber": "74", "addr:postcode": "10004", "addr:state": "NY", "addr:street": "Broad Street", "amenity": "restaurant", "branch": "Financial District", "brand": "Tacombi", "brand:wikidata": "Q123165959", "cuisine": "mexican", "indoor_seating": "yes", "name": "Tacombi", "opening_hours": "Mo-Su 11:00-23:00", "outdoor_seating": "yes", "phone": "+1 917-261-7136", "reservation": "yes", "reservation:website": "https://resy.com/cities/ny/tacombi-financial-district", "website": "https://www.tacombi.com/"}}, {"type": "node", "id": 8262936617, "lat": 40.7095801, "lon": -74.0116553, "tags": {"barrier": "kerb", "kerb": "lowered", "tactile_paving": "yes", "wheelchair": "yes"}}, {"type": "node", "id": 8262936618, "lat": 40.7093169, "lon": -74.0118366, "tags": {"barrier": "kerb", "kerb": "lowered", "tactile_paving": "yes", "wheelchair": "yes"}}, {"type": "node", "id": 8276468685, "lat": 40.7048889, "lon": -74.0089652}, {"type": "node", "id": 8276468689, "lat": 40.7048109, "lon": -74.0096941}, {"type": "node", "id": 9025308623, "lat": 40.7041266, "lon": -74.0103867}, {"type": "node", "id": 9025308625, "lat": 40.7044111, "lon": -74.0105524}, {"type": "node", "id": 9025308626, "lat": 40.7041928, "lon": -74.0104765}, {"type": "node", "id": 9025349991, "lat": 40.7048689, "lon": -74.0095345, "tags": {"addr:housenumber": "3", "addr:postcode": "10004", "addr:street": "Hanover Square", "brand": "Block Advisors", "brand:wikidata": "Q64166231", "name": "Block Advisors", "office": "tax_advisor"}}, {"type": "node", "id": 9120821898, "lat": 40.7088439, "lon": -74.0113831, "tags": {"addr:city": "New York", "addr:housenumber": "9", "addr:postcode": "10006", "addr:state": "NY", "addr:street": "Thames Street", "amenity": "restaurant", "cuisine": "pizza", "name": "Big Al's Chicago Style Pizza"}}, {"type": "node", "id": 9168415889, "lat": 40.7012617, "lon": -74.0148011}, {"type": "node", "id": 9168454046, "lat": 40.7011974, "lon": -74.0148552}, {"type": "node", "id": 9369136019, "lat": 40.7047161, "lon": -74.015097, "tags": {"barrier": "kerb", "kerb": "lowered", "tactile_paving": "no"}}, {"type": "node", "id": 9369136021, "lat": 40.7047795, "lon": -74.0157679, "tags": {"barrier": "kerb", "kerb": "lowered", "tactile_paving": "yes"}}, {"type": "node", "id": 9371193679, "lat": 40.704629, "lon": -74.0167795, "tags": {"barrier": "kerb", "kerb": "flush", "tactile_paving": "yes", "wheelchair": "yes"}}, {"type": "node", "id": 9371193684, "lat": 40.7047048, "lon": -74.0167781}, {"type": "node", "id": 9371193687, "lat": 40.7047499, "lon": -74.0167409}, {"type": "node", "id": 9371204326, "lat": 40.7047565, "lon": -74.0161341}, {"type": "node", "id": 9371204350, "lat": 40.704779, "lon": -74.0158521}, {"type": "node", "id": 9371204351, "lat": 40.7047735, "lon": -74.0156086}, {"type": "node", "id": 9371204352, "lat": 40.7047609, "lon": -74.0154966}, {"type": "node", "id": 9371204353, "lat": 40.704736, "lon": -74.0153279}, {"type": "node", "id": 9371204354, "lat": 40.7047455, "lon": -74.0152444}, {"type": "node", "id": 9371204355, "lat": 40.7047464, "lon": -74.0152591}, {"type": "node", "id": 9371204445, "lat": 40.7046506, "lon": -74.0167763}, {"type": "node", "id": 9371204588, "lat": 40.7043751, "lon": -74.0169001}, {"type": "node", "id": 9371729334, "lat": 40.7042455, "lon": -74.0170343}, {"type": "node", "id": 9371729376, "lat": 40.7041552, "lon": -74.0175158, "tags": {"barrier": "bollard"}}, {"type": "node", "id": 9371729377, "lat": 40.7041514, "lon": -74.0174871, "tags": {"barrier": "bollard"}}, {"type": "node", "id": 9371729378, "lat": 40.7041476, "lon": -74.0174569, "tags": {"barrier": "bollard"}}, {"type": "node", "id": 9371729379, "lat": 40.7041457, "lon": -74.0174273, "tags": {"barrier": "bollard"}}, {"type": "node", "id": 9371729380, "lat": 40.704143, "lon": -74.0173955, "tags": {"barrier": "bollard"}}, {"type": "node", "id": 9371812392, "lat": 40.7038883, "lon": -74.0144326}, {"type": "node", "id": 9371812394, "lat": 40.7036778, "lon": -74.0144725, "tags": {"barrier": "kerb", "kerb": "lowered", "tactile_paving": "yes", "wheelchair": "yes"}}, {"type": "node", "id": 9371812437, "lat": 40.7030884, "lon": -74.0145016, "tags": {"barrier": "kerb", "kerb": "lowered", "tactile_paving": "yes", "wheelchair": "yes"}}, {"type": "node", "id": 9652667817, "lat": 40.7052164, "lon": -74.0091284, "tags": {"addr:housenumber": "5", "addr:street": "Hanover Street", "amenity": "cafe", "name": "The Little Beet"}}, {"type": "node", "id": 9753289208, "lat": 40.707271, "lon": -74.0077613, "tags": {"addr:housenumber": "80", "addr:postcode": "10038", "addr:street": "Maiden Lane", "amenity": "restaurant", "cuisine": "american;asian;sandwich", "delivery": "yes", "email": "info@cafehestia.com", "indoor_seating": "yes", "level": "0", "name": "Caf\u00e9 Hestia", "opening_hours": "Mo-Fr 07:00-20:00; Sa 07:00-17:00; Su 09:00-17:00", "outdoor_seating": "no", "phone": "+1 917-261-7005", "takeaway": "yes", "website": "https://www.cafehestia.com", "wheelchair": "yes"}}, {"type": "node", "id": 9771083990, "lat": 40.7084333, "lon": -74.0135562, "tags": {"addr:housenumber": "104", "addr:street": "Greenwich Street", "amenity": "restaurant", "check_date": "2023-02-23", "cuisine": "diner", "delivery": "yes", "indoor_seating": "yes", "name": "ZAZA", "opening_hours": "07:00-22:00", "outdoor_seating": "no", "phone": "+1 646-864-0040", "takeaway": "yes", "toilets:wheelchair": "yes", "wheelchair": "yes"}}, {"type": "node", "id": 9898775045, "lat": 40.704909, "lon": -74.0139448, "tags": {"barrier": "kerb", "kerb": "raised", "tactile_paving": "no", "wheelchair": "no"}}, {"type": "node", "id": 9958079173, "lat": 40.7039393, "lon": -74.0112193, "tags": {"addr:city": "New York", "addr:housenumber": "85", "addr:postcode": "10004", "addr:state": "NY", "addr:street": "Broad Street", "addr:unit": "Floor 8", "air_conditioning": "yes", "brand:wikidata": "Q2918660", "description": "New York Headquarters", "level": "8", "name": "Duolingo", "office": "company", "website": "https://duolingo.com"}}, {"type": "node", "id": 10168364245, "lat": 40.7068647, "lon": -74.0136495, "tags": {"barrier": "kerb", "kerb": "lowered", "tactile_paving": "yes", "wheelchair": "yes"}}, {"type": "node", "id": 10268906107, "lat": 40.7062579, "lon": -74.0114037, "tags": {"addr:city": "New York", "addr:housenumber": "30", "addr:postcode": "10004", "addr:state": "NY", "addr:street": "Broad Street", "amenity": "restaurant", "cuisine": "italian", "name": "Serafina Vino e Cucina", "opening_hours": "Fr-Sa 12:00-22:00; Su off", "phone": "+1-347-647-9030", "website": "https://serafinavinoecucina.com/"}}, {"type": "node", "id": 10290401161, "lat": 40.7095787, "lon": -74.0116227}, {"type": "node", "id": 10290401162, "lat": 40.7095701, "lon": -74.0116785}, {"type": "node", "id": 10290401163, "lat": 40.7095774, "lon": -74.0116677}, {"type": "node", "id": 10290401164, "lat": 40.7095813, "lon": -74.0116439}, {"type": "node", "id": 10290401165, "lat": 40.7095809, "lon": -74.0116333}, {"type": "node", "id": 10290401166, "lat": 40.7090991, "lon": -74.0106835}, {"type": "node", "id": 10290401167, "lat": 40.7091134, "lon": -74.0106746, "tags": {"barrier": "kerb", "kerb": "lowered", "tactile_paving": "yes", "wheelchair": "yes"}}, {"type": "node", "id": 10290401168, "lat": 40.7091447, "lon": -74.0106724}, {"type": "node", "id": 10290401169, "lat": 40.7091335, "lon": -74.0106682}, {"type": "node", "id": 10290401170, "lat": 40.7091235, "lon": -74.0106687}, {"type": "node", "id": 10290401171, "lat": 40.7088955, "lon": -74.0108539}, {"type": "node", "id": 10290401172, "lat": 40.7088822, "lon": -74.010898}, {"type": "node", "id": 10290401173, "lat": 40.7088815, "lon": -74.0108829}, {"type": "node", "id": 10290401174, "lat": 40.708886, "lon": -74.0108684}, {"type": "node", "id": 10290401177, "lat": 40.7093397, "lon": -74.0118364}, {"type": "node", "id": 10290401178, "lat": 40.7093013, "lon": -74.011824}, {"type": "node", "id": 10290401179, "lat": 40.7093269, "lon": -74.0118396}, {"type": "node", "id": 10290401180, "lat": 40.7093085, "lon": -74.011833}, {"type": "node", "id": 10290401193, "lat": 40.7091564, "lon": -74.0106886, "tags": {"barrier": "kerb", "kerb": "lowered", "tactile_paving": "yes", "wheelchair": "yes"}}, {"type": "node", "id": 10290401197, "lat": 40.7088913, "lon": -74.0108603, "tags": {"barrier": "kerb", "kerb": "lowered", "tactile_paving": "yes", "wheelchair": "yes"}}, {"type": "node", "id": 10312413177, "lat": 40.7069566, "lon": -74.0081568, "tags": {"amenity": "restaurant", "check_date": "2023-01-06", "cuisine": "russian", "name": "Farida Downtown", "payment:credit_cards": "yes", "payment:debit_cards": "yes"}}, {"type": "node", "id": 10315959486, "lat": 40.7064028, "lon": -74.0144036, "tags": {"highway": "street_lamp"}}, {"type": "node", "id": 10315971065, "lat": 40.7067275, "lon": -74.0137584}, {"type": "node", "id": 10315971066, "lat": 40.7069271, "lon": -74.0136479, "tags": {"barrier": "kerb", "kerb": "lowered", "tactile_paving": "yes", "wheelchair": "yes"}}, {"type": "node", "id": 10315971073, "lat": 40.7068879, "lon": -74.0136312}, {"type": "node", "id": 10315971074, "lat": 40.7069189, "lon": -74.0136349}, {"type": "node", "id": 10315971075, "lat": 40.7069126, "lon": -74.013628}, {"type": "node", "id": 10315971076, "lat": 40.7069054, "lon": -74.0136261}, {"type": "node", "id": 10315971077, "lat": 40.706897, "lon": -74.0136261}, {"type": "node", "id": 10315971142, "lat": 40.7067043, "lon": -74.0141518}, {"type": "node", "id": 10315971143, "lat": 40.7066724, "lon": -74.0141972}, {"type": "node", "id": 10315971144, "lat": 40.7066485, "lon": -74.014234}, {"type": "node", "id": 10315971145, "lat": 40.7066226, "lon": -74.0142692}, {"type": "node", "id": 10315971146, "lat": 40.7066, "lon": -74.0142981}, {"type": "node", "id": 10315971147, "lat": 40.7065757, "lon": -74.0143208}, {"type": "node", "id": 10315971148, "lat": 40.7065046, "lon": -74.0143588}, {"type": "node", "id": 10315971149, "lat": 40.7065365, "lon": -74.0143445}, {"type": "node", "id": 10315971150, "lat": 40.7067392, "lon": -74.0141065}, {"type": "node", "id": 10315971151, "lat": 40.706768, "lon": -74.0140792}, {"type": "node", "id": 10315971152, "lat": 40.706806, "lon": -74.0140554}, {"type": "node", "id": 10315971153, "lat": 40.7069406, "lon": -74.0139916}, {"type": "node", "id": 10315971154, "lat": 40.706945, "lon": -74.0139777}, {"type": "node", "id": 10315971155, "lat": 40.7069686, "lon": -74.013968}, {"type": "node", "id": 10315971156, "lat": 40.7069802, "lon": -74.0139819}, {"type": "node", "id": 10315971157, "lat": 40.706973, "lon": -74.0139745}, {"type": "node", "id": 10315971158, "lat": 40.7069918, "lon": -74.0139674}, {"type": "node", "id": 10315971159, "lat": 40.7069998, "lon": -74.0139499}, {"type": "node", "id": 10315971160, "lat": 40.7070055, "lon": -74.0139321}, {"type": "node", "id": 10315971161, "lat": 40.7070077, "lon": -74.0138877}, {"type": "node", "id": 10315971162, "lat": 40.7070049, "lon": -74.0138609}, {"type": "node", "id": 10315971163, "lat": 40.7069995, "lon": -74.0138357}, {"type": "node", "id": 10315971164, "lat": 40.706935, "lon": -74.0136651}, {"type": "node", "id": 10315971170, "lat": 40.7069776, "lon": -74.0139792}, {"type": "node", "id": 10315971189, "lat": 40.7068511, "lon": -74.0136603}, {"type": "node", "id": 10315971257, "lat": 40.7063696, "lon": -74.0143941}, {"type": "node", "id": 10315971264, "lat": 40.7063557, "lon": -74.014339}, {"type": "node", "id": 10316226060, "lat": 40.7053492, "lon": -74.0135326}, {"type": "node", "id": 10316226075, "lat": 40.7051667, "lon": -74.0138334}, {"type": "node", "id": 10316226076, "lat": 40.7052184, "lon": -74.0137863}, {"type": "node", "id": 10316226185, "lat": 40.7050025, "lon": -74.0133801, "tags": {"barrier": "kerb", "kerb": "raised", "tactile_paving": "no", "wheelchair": "no"}}, {"type": "node", "id": 10344043175, "lat": 40.7047913, "lon": -74.0097097}, {"type": "node", "id": 10344043176, "lat": 40.704776, "lon": -74.0096911}, {"type": "node", "id": 10344043177, "lat": 40.7046176, "lon": -74.0094723}, {"type": "node", "id": 10344043178, "lat": 40.7046184, "lon": -74.0094875}, {"type": "node", "id": 10344043179, "lat": 40.7049764, "lon": -74.0089618}, {"type": "node", "id": 10344043180, "lat": 40.7049418, "lon": -74.0089519}, {"type": "node", "id": 10344043181, "lat": 40.7049277, "lon": -74.0089484}, {"type": "node", "id": 10344043182, "lat": 40.704902, "lon": -74.0089534}, {"type": "node", "id": 10344043183, "lat": 40.704915, "lon": -74.0089485}, {"type": "node", "id": 10344043184, "lat": 40.7048951, "lon": -74.008958}, {"type": "node", "id": 10344043190, "lat": 40.7049598, "lon": -74.0089571, "tags": {"barrier": "kerb", "kerb": "lowered", "tactile_paving": "yes", "wheelchair": "yes"}}, {"type": "node", "id": 10344354958, "lat": 40.704779, "lon": -74.0096947, "tags": {"barrier": "kerb", "kerb": "lowered", "tactile_paving": "no", "wheelchair": "yes"}}, {"type": "node", "id": 10344354960, "lat": 40.7049745, "lon": -74.008972}, {"type": "node", "id": 10435219287, "lat": 40.7041001, "lon": -74.008718}, {"type": "node", "id": 10435219288, "lat": 40.7041065, "lon": -74.0087332}, {"type": "node", "id": 10435219291, "lat": 40.7041127, "lon": -74.0087676}, {"type": "node", "id": 10435219292, "lat": 40.704106, "lon": -74.0088079}, {"type": "node", "id": 10435219293, "lat": 40.7040698, "lon": -74.0088523}, {"type": "node", "id": 10435219294, "lat": 40.7040144, "lon": -74.0088379}, {"type": "node", "id": 10435219295, "lat": 40.7040274, "lon": -74.0088504}, {"type": "node", "id": 10435219296, "lat": 40.7040556, "lon": -74.0088567}, {"type": "node", "id": 10454787942, "lat": 40.7037236, "lon": -74.0082866, "tags": {"barrier": "kerb", "kerb": "lowered", "tactile_paving": "yes", "wheelchair": "yes"}}, {"type": "node", "id": 10457330626, "lat": 40.7036446, "lon": -74.0083744}, {"type": "node", "id": 10457330633, "lat": 40.7036941, "lon": -74.0082993}, {"type": "node", "id": 10457330634, "lat": 40.7037068, "lon": -74.0082806}, {"type": "node", "id": 10457330635, "lat": 40.7036419, "lon": -74.0084135, "tags": {"barrier": "kerb", "kerb": "lowered", "tactile_paving": "yes", "wheelchair": "yes"}}, {"type": "node", "id": 10457330638, "lat": 40.7036334, "lon": -74.0083916}, {"type": "node", "id": 10457330662, "lat": 40.7037108, "lon": -74.0084921, "tags": {"barrier": "kerb", "kerb": "flush", "tactile_paving": "no", "wheelchair": "yes"}}, {"type": "node", "id": 10665137474, "lat": 40.7052408, "lon": -74.0127902, "tags": {"addr:city": "New York", "addr:floor": "5", "addr:housenumber": "26", "addr:postcode": "10004", "addr:state": "NY", "addr:street": "Broadway", "amenity": "school", "contact:facebook": "UASBYW.US", "fax": "+1-212-668-0635", "grades": "9-12", "internet_access": "no", "name": "Urban Assembly School of Business for Young Women", "phone": "+1-212-668-0169", "polling_station": "yes", "ref": "M316", "religion": "none", "school:gender": "female", "website": "https://www.uasbfyw.org/", "wheelchair": "yes"}}, {"type": "node", "id": 10665280266, "lat": 40.7052186, "lon": -74.013179, "tags": {"addr:city": "New York", "addr:housenumber": "7", "addr:postcode": "10004", "addr:state": "NY", "addr:street": "Beaver Street", "amenity": "school", "fax": "+1-646-826-8175", "grades": "9-12", "name": "Richard R. Green High School of Teaching", "phone": "+1-646-826-8174", "ref": "M580", "religion": "none", "school:gender": "mixed", "website": "https://www.rrghst.org/", "wheelchair": "yes"}}, {"type": "node", "id": 10689045274, "lat": 40.7084835, "lon": -74.0135243, "tags": {"amenity": "cafe", "cuisine": "bubble_tea", "indoor_seating": "yes", "name": "Dragon Tea", "outdoor_seating": "yes"}}, {"type": "node", "id": 10689052120, "lat": 40.7085207, "lon": -74.0135093, "tags": {"amenity": "restaurant", "indoor_seating": "yes", "name": "Bao Bao Cafe", "outdoor_seating": "no"}}, {"type": "node", "id": 10757806380, "lat": 40.7072563, "lon": -74.0123018, "tags": {"addr:city": "New York", "addr:housenumber": "65", "addr:postcode": "10006", "addr:state": "NY", "addr:street": "Broadway", "amenity": "restaurant", "cuisine": "italian;chinese;mexican", "name": "Slow Food Market"}}, {"type": "node", "id": 11013387695, "lat": 40.7013388, "lon": -74.0144894}, {"type": "node", "id": 11016695778, "lat": 40.7041433, "lon": -74.0173542}, {"type": "node", "id": 11016695779, "lat": 40.7041679, "lon": -74.0175766}, {"type": "node", "id": 11016695786, "lat": 40.7041462, "lon": -74.0174349}, {"type": "node", "id": 11016695787, "lat": 40.7041546, "lon": -74.0175114}, {"type": "node", "id": 11016695852, "lat": 40.7030346, "lon": -74.017408}, {"type": "node", "id": 11016695856, "lat": 40.7028151, "lon": -74.0172279}, {"type": "node", "id": 11016695880, "lat": 40.7041641, "lon": -74.0175584}, {"type": "node", "id": 11016695986, "lat": 40.7020413, "lon": -74.0165278, "tags": {"ferry": "yes", "public_transport": "stop_position"}}, {"type": "node", "id": 11016696162, "lat": 40.7014746, "lon": -74.0147951}, {"type": "node", "id": 11016696214, "lat": 40.7018389, "lon": -74.0140487}, {"type": "node", "id": 11016696215, "lat": 40.7019044, "lon": -74.0140537}, {"type": "node", "id": 11016696216, "lat": 40.7018717, "lon": -74.0140512}, {"type": "node", "id": 11016696222, "lat": 40.7018001, "lon": -74.0140457}, {"type": "node", "id": 11016696223, "lat": 40.7017331, "lon": -74.0140405}, {"type": "node", "id": 11016696224, "lat": 40.7017666, "lon": -74.0140431}, {"type": "node", "id": 11040350793, "lat": 40.7042511, "lon": -74.0106636}, {"type": "node", "id": 11064559007, "lat": 40.7070451, "lon": -74.0125704, "tags": {"level": "32", "name": "Framestore", "office": "it"}}, {"type": "node", "id": 11159662142, "lat": 40.7075759, "lon": -74.0111489, "tags": {"amenity": "restaurant", "check_date": "2023-08-31", "check_date:opening_hours": "2023-09-06", "cuisine": "poke;italian", "indoor_seating": "yes", "name": "Gnoccheria Wall Street", "opening_hours:signed": "no", "outdoor_seating": "no"}}, {"type": "node", "id": 11159676323, "lat": 40.7075238, "lon": -74.0110938, "tags": {"amenity": "cafe", "cuisine": "coffee_shop", "indoor_seating": "no", "name": "Tenthousand Coffee", "opening_hours": "Mo-Fr 07:00-18:00; Sa,Su 10:00-17:00", "outdoor_seating": "yes"}}, {"type": "node", "id": 11172371587, "lat": 40.7039315, "lon": -74.0123687, "tags": {"amenity": "restaurant", "cuisine": "italian", "indoor_seating": "yes", "name": "Antica", "outdoor_seating": "yes"}}, {"type": "node", "id": 11172400856, "lat": 40.7065445, "lon": -74.0112372, "tags": {"addr:housenumber": "22", "addr:street": "Broad Street", "amenity": "cafe", "brand": "Blue Bottle Coffee", "brand:en": "Blue Bottle Coffee", "brand:ja": "\u30d6\u30eb\u30fc\u30dc\u30c8\u30eb\u30b3\u30fc\u30d2\u30fc", "brand:wikidata": "Q4928917", "cuisine": "coffee_shop", "indoor_seating": "yes", "name": "Blue Bottle Coffee", "name:en": "Blue Bottle Coffee", "name:ja": "\u30d6\u30eb\u30fc\u30dc\u30c8\u30eb\u30b3\u30fc\u30d2\u30fc", "outdoor_seating": "yes", "takeaway": "yes"}}, {"type": "node", "id": 11189011965, "lat": 40.7063928, "lon": -74.0078861, "tags": {"amenity": "restaurant", "diet:vegan": "yes", "diet:vegetarian": "yes", "indoor_seating": "yes", "name": "Blue Park Kitchen", "opening_hours": "Mo-Fr 11:00-22:00", "outdoor_seating": "no"}}, {"type": "node", "id": 11189050331, "lat": 40.7058522, "lon": -74.0075084, "tags": {"amenity": "restaurant", "cuisine": "chinese", "name": "Old Xi'an Delicacy"}}, {"type": "node", "id": 11208744396, "lat": 40.7058839, "lon": -74.0102847, "tags": {"amenity": "bar", "indoor_seating": "yes", "name": "Split Eights", "outdoor_seating": "no"}}, {"type": "node", "id": 11208788096, "lat": 40.7045634, "lon": -74.0098904, "tags": {"amenity": "bar", "indoor_seating": "yes", "name": "Harry's Side Bar", "outdoor_seating": "yes", "wheelchair": "no"}}, {"type": "node", "id": 11223060596, "lat": 40.7080354, "lon": -74.0105959, "tags": {"amenity": "cafe", "indoor_seating": "yes", "name": "Ashby's", "outdoor_seating": "no"}}, {"type": "node", "id": 11223076752, "lat": 40.7081186, "lon": -74.0111656, "tags": {"brand": "Charles Schwab", "brand:wikidata": "Q1066028", "name": "Charles Schwab", "office": "financial_advisor"}}, {"type": "node", "id": 11350190890, "lat": 40.7077506, "lon": -74.0081875}, {"type": "node", "id": 11350190891, "lat": 40.7077225, "lon": -74.0081688}, {"type": "node", "id": 11350190892, "lat": 40.7074101, "lon": -74.0076615}, {"type": "node", "id": 11350190895, "lat": 40.7078994, "lon": -74.0080431}, {"type": "node", "id": 11350190896, "lat": 40.7079018, "lon": -74.0080317}, {"type": "node", "id": 11350190897, "lat": 40.707899, "lon": -74.0080102}, {"type": "node", "id": 11350190898, "lat": 40.7076832, "lon": -74.008109}, {"type": "node", "id": 11350190899, "lat": 40.7076351, "lon": -74.0078123}, {"type": "node", "id": 11350190900, "lat": 40.7077089, "lon": -74.0078978}, {"type": "node", "id": 11350190901, "lat": 40.7076735, "lon": -74.0078737}, {"type": "node", "id": 11350190902, "lat": 40.7076817, "lon": -74.0078528}, {"type": "node", "id": 11350190903, "lat": 40.7077171, "lon": -74.0078769}, {"type": "node", "id": 11365172080, "lat": 40.7092483, "lon": -74.0081689}, {"type": "node", "id": 11365172083, "lat": 40.7092333, "lon": -74.0081469, "tags": {"barrier": "gate"}}, {"type": "node", "id": 11365172084, "lat": 40.7092183, "lon": -74.0081272}, {"type": "node", "id": 11365172106, "lat": 40.7091251, "lon": -74.0079946, "tags": {"barrier": "gate"}}, {"type": "node", "id": 11365172108, "lat": 40.7091172, "lon": -74.0079833}, {"type": "node", "id": 11365172113, "lat": 40.7089031, "lon": -74.0082439}, {"type": "node", "id": 11369414048, "lat": 40.7074268, "lon": -74.008398}, {"type": "node", "id": 11369414049, "lat": 40.7074416, "lon": -74.0084255}, {"type": "node", "id": 11369414061, "lat": 40.7073167, "lon": -74.008513}, {"type": "node", "id": 11369414063, "lat": 40.7073532, "lon": -74.0085171}, {"type": "node", "id": 11369490572, "lat": 40.7073793, "lon": -74.0084899}, {"type": "node", "id": 11369490573, "lat": 40.7073955, "lon": -74.0084733}, {"type": "node", "id": 11369490575, "lat": 40.7074388, "lon": -74.00842}, {"type": "node", "id": 11369490578, "lat": 40.7072722, "lon": -74.008442}, {"type": "node", "id": 11369490583, "lat": 40.707289, "lon": -74.0084688}, {"type": "node", "id": 11369490586, "lat": 40.7072489, "lon": -74.0084049}, {"type": "node", "id": 11369490589, "lat": 40.7072299, "lon": -74.0083746}, {"type": "node", "id": 11369490591, "lat": 40.7071688, "lon": -74.0082776}, {"type": "node", "id": 11369490594, "lat": 40.7071502, "lon": -74.0082475}, {"type": "node", "id": 11369490595, "lat": 40.707124, "lon": -74.0082058}, {"type": "node", "id": 11369490596, "lat": 40.7072203, "lon": -74.0081106}, {"type": "node", "id": 11369490605, "lat": 40.7071355, "lon": -74.0082242}, {"type": "node", "id": 11369490606, "lat": 40.7071392, "lon": -74.0082299}, {"type": "node", "id": 11369490640, "lat": 40.7074215, "lon": -74.0084464}, {"type": "node", "id": 11369490656, "lat": 40.7071296, "lon": -74.0082148}, {"type": "node", "id": 11369490663, "lat": 40.7073435, "lon": -74.0084143}, {"type": "node", "id": 11369490664, "lat": 40.7073276, "lon": -74.0084316}, {"type": "node", "id": 11369490665, "lat": 40.7073496, "lon": -74.008465}, {"type": "node", "id": 11369490666, "lat": 40.7073649, "lon": -74.0084492}, {"type": "node", "id": 11486138023, "lat": 40.7062326, "lon": -74.0132146, "tags": {"addr:city": "New York", "addr:housenumber": "39", "addr:postcode": "10006", "addr:state": "NY", "addr:street": "Broadway", "addr:unit": "2430", "name": "HKM Employment Attorneys LLP", "office": "lawyer", "opening_hours": "Mo-Fr 08:00-18:00; Sa-Su 08:00-16:00", "phone": "+1-212-451-9533", "website": "https://hkm.com/new-york/"}}, {"type": "node", "id": 11725766040, "lat": 40.7040496, "lon": -74.0076741, "tags": {"addr:city": "New York", "addr:housenumber": "32", "addr:state": "NY", "addr:street": "Old Slip Plaza", "addr:unit": "Lobby", "amenity": "cafe", "cuisine": "coffee_shop", "name": "drip coffee makers", "website": "https://www.dripcoffeenyc.com/"}}, {"type": "node", "id": 11754487748, "lat": 40.7054382, "lon": -74.0091433, "tags": {"addr:city": "New York", "addr:housenumber": "6", "addr:postcode": "10005", "addr:state": "NY", "addr:street": "Hanover Street", "amenity": "cafe", "email": "concierge@conwellcoffeehall.com", "name": "Conwell Coffee Hall", "opening_hours": "Mo-Fr 07:30-21:00; Sa-Su 09:00-21:00", "outdoor_seating": "no", "website": "https://conwellcoffeehall.com", "website:menu": "https://conwellcoffeehall.com/menus/"}}, {"type": "node", "id": 11905528875, "lat": 40.7070267, "lon": -74.0082784, "tags": {"air_conditioning": "yes", "amenity": "restaurant", "cuisine": "meat;asian;noodle;chinese;dumplings", "diet:vegetarian": "yes", "drink:beer": "no", "indoor_seating": "yes", "name": "Goku Kitchen", "outdoor_seating": "no", "payment:credit_cards": "yes", "payment:debit_cards": "yes", "phone": "+6464498289", "smoking": "no", "website": "https://gokukit.com/", "wheelchair": "no"}}, {"type": "node", "id": 12050009362, "lat": 40.7086274, "lon": -74.010127, "tags": {"addr:city": "New York", "addr:housenumber": "140", "addr:postcode": "10005", "addr:state": "NY", "addr:street": "Broadway", "addr:unit": "46th Floor, PMB 300", "name": "NYC Injury Attorneys P.C.", "office": "lawyer", "opening_hours": "24/7", "phone": "+1-646-452-3663", "website": "https://nyc-injury-attorneys.com"}}, {"type": "node", "id": 12100372936, "lat": 40.7043697, "lon": -74.011809, "tags": {"addr:city": "New York", "addr:housenumber": "80", "addr:postcode": "10004", "addr:state": "NY", "addr:street": "Broad Street", "addr:unit": "Suite 703", "contact:facebook": "workingsolutionsnyc", "contact:instagram": "workingsolutionsnyc", "contact:twitter": "LawOfficeofCQD", "email": "slack@workingsolutionsnyc.com", "image": "https://local-platform.s3.us-east-2.amazonaws.com/intake_location/logo/192187/sMJIonhso1GOjQnFnJEFgDHPMbwce2tPTLn1DIzs.jpg", "language:en": "yes", "language:es": "yes", "language:ur": "yes", "name": "Working Solutions Law Firm", "office": "lawyer", "opening_hours": "24/7", "payment:cheque": "yes", "payment:credit_cards": "yes", "payment:online_payment": "yes", "phone": "+1-646-699-3083", "phone:tollfree": "+1-833-967-5692", "start_date": "2014-08-01", "website": "https://www.workingsolutionsnyc.com/"}}, {"type": "node", "id": 12339677014, "lat": 40.7044333, "lon": -74.0107111, "tags": {"entrance": "yes"}}, {"type": "node", "id": 12343164633, "lat": 40.7041087, "lon": -74.0101879}, {"type": "node", "id": 12343164635, "lat": 40.7040585, "lon": -74.0102568}, {"type": "node", "id": 12343164637, "lat": 40.7039991, "lon": -74.010338}, {"type": "node", "id": 12343164641, "lat": 40.7042071, "lon": -74.010055}, {"type": "node", "id": 12343278068, "lat": 40.7043018, "lon": -74.0099329}, {"type": "node", "id": 12355026163, "lat": 40.7050172, "lon": -74.0107175, "tags": {"entrance": "main"}}, {"type": "node", "id": 12355026164, "lat": 40.7049909, "lon": -74.011006, "tags": {"entrance": "yes"}}, {"type": "node", "id": 12358205057, "lat": 40.7049281, "lon": -74.0091784, "tags": {"entrance": "yes"}}, {"type": "node", "id": 12361291561, "lat": 40.7089279, "lon": -74.0123571, "tags": {"entrance": "yes"}}, {"type": "node", "id": 12361377540, "lat": 40.7091832, "lon": -74.0121953, "tags": {"entrance": "yes"}}, {"type": "node", "id": 12366551501, "lat": 40.7065765, "lon": -74.0080763, "tags": {"amenity": "bar", "name": "Overstory"}}, {"type": "node", "id": 12386824050, "lat": 40.7080429, "lon": -74.0141252, "tags": {"addr:city": "New York", "addr:housenumber": "19", "addr:postcode": "10006", "addr:state": "NY", "addr:street": "Rector Street", "amenity": "restaurant", "name": "REGULAR NYC", "opening_hours": "Mo-Fr 07:00-15:00; Sa-Su 07:00-16:00", "phone": "+19172612090", "website": "https://www.regular.nyc/"}}, {"type": "node", "id": 12480002393, "lat": 40.7087658, "lon": -74.0083225, "tags": {"addr:city": "New York", "addr:housenumber": "59", "addr:postcode": "10038", "addr:state": "NY", "addr:street": "Maiden Lane", "addr:unit": "6th floor", "contact:facebook": "https://www.facebook.com/ParkerWaichmanLLP/", "contact:instagram": "https://www.instagram.com/parkerwaichman/", "contact:linkedin": "https://www.linkedin.com/company/parker-waichman-llp", "contact:pinterest": "https://www.pinterest.com/parkerwaichman/", "contact:twitter": "https://x.com/parkerwaichman", "language:en": "yes", "name": "Parker Waichman LLP, Personal Injury Accident Attorneys", "office": "lawyer", "opening_hours": "24/7", "phone": "+1-212-267-6700", "website": "https://www.yourlawyer.com/new-york-city-personal-injury/", "year_of_construction": "1993"}}, {"type": "node", "id": 12643783750, "lat": 40.7046128, "lon": -74.0112906, "tags": {"amenity": "school", "mascot": "Phoenix", "name": "Millenium High School"}}, {"type": "node", "id": 12965535575, "lat": 40.7081048, "lon": -74.0104126, "tags": {"addr:city": "New York", "addr:floor": "31", "addr:housenumber": "120", "addr:postcode": "10271", "addr:state": "NY", "addr:street": "Broadway", "addr:unit": "31st Floor", "air_conditioning": "yes", "branch": "Manhattan", "fax": "+1-212-720-3488", "government": "yes", "name": "New York City Department of City Planning", "office": "government", "operator": "New York City Department of City Planning", "operator:type": "government", "operator:wikidata": "Q8354830", "phone": "+1-212-720-3480", "website": "https://www1.nyc.gov/site/planning/index.page", "wikipedia": "en:New York City Department of City Planning"}}, {"type": "node", "id": 13064363257, "lat": 40.7053265, "lon": -74.0112644, "tags": {"addr:city": "New York", "addr:housenumber": "55", "addr:postcode": "10004", "addr:state": "NY", "addr:street": "Broad Street", "consulting": "marketing", "name": "HVR Studio", "office": "consulting", "website": "https://www.hvrstudio.net"}}, {"type": "node", "id": 13071727592, "lat": 40.7051235, "lon": -74.0085966, "tags": {"amenity": "restaurant", "name": "The Cocoa Exchange"}}, {"type": "node", "id": 13071776167, "lat": 40.7068019, "lon": -74.0099313, "tags": {"amenity": "restaurant", "cuisine": "italian", "name": "NeroLab"}}, {"type": "node", "id": 13071817975, "lat": 40.7042942, "lon": -74.0094919, "tags": {"amenity": "cafe", "cuisine": "coffee_shop", "name": "Pearl"}}, {"type": "node", "id": 13165461201, "lat": 40.707305, "lon": -74.0137268, "tags": {"addr:housenumber": "77", "addr:street": "Greenwich Street", "amenity": "cafe", "name": "Ateaz Cafe"}}, {"type": "node", "id": 13254235312, "lat": 40.7051211, "lon": -74.0096508, "tags": {"addr:city": "New York", "addr:housenumber": "60", "addr:postcode": "10004", "addr:state": "NY", "addr:street": "Beaver Street", "amenity": "restaurant", "cuisine": "asian;ramen;noodle;uyghur", "name": "Caravan Uyghur Cuisine", "name:de": "Karawanen-Uigurische K\u00fcche", "name:fr": "Cuisine Ou\u00efghoure de la caravane", "name:tr": "Karavan Uygur Yemekleri", "opening_hours": "12:00-22:00 Fr 17:00-22:00", "phone": "+1 929-318-8615", "website": "https://www.caravanuyghur.com/"}}, {"type": "node", "id": 13312214083, "lat": 40.7070527, "lon": -74.0101215, "tags": {"addr:city": "New York", "addr:housenumber": "30", "addr:postcode": "10005", "addr:state": "NY", "addr:street": "Wall Street", "office": "lawyer", "opening_hours": "Mo-Th 10:00-19:00 Fr 10:00-14:00", "phone": "+1-646-825-3850", "website": "https://mcadefenseattorney.com"}}, {"type": "way", "id": 5029111, "nodes": [6297397841, 6297397842, 6297410858, 6297397839, 6297397840, 6297397838, 6326857051, 11013387695, 33583390, 6326857047, 6326857046, 6326857043, 33583391, 6326857042, 6326857041, 607910829, 6326857039, 6381998626, 6326857037, 6326857036, 33583392, 6326857034, 11016696223, 11016696224, 11016696222, 11016696214, 11016696216, 11016696215, 6326857033, 6326857032, 6326857031, 6326857030, 1659428450, 6326857028, 6326857027, 6326857026, 6326857025, 6326857024, 6326857023, 6326857022, 6326857021, 6326857020, 6326857019, 6326857066, 6326857067, 6326857068, 6326857069, 33583393, 6326857071, 1659428480, 6326857073, 6326857074, 6326825586, 6326825587, 6326825588, 6326825589, 6326825590, 9371812437, 6326825591, 33583394, 6326825592, 6326825593, 6326825594, 6326825595, 1659428507, 4876525166, 9371812394, 9371812392, 6326825596, 1695334031, 6326825597, 6326825598, 6326825601, 6326825602, 6326825603, 6326825604, 6326825605, 6326825606, 6326825607, 6326825608, 6326794325, 6326794326, 6419018960, 6326794327, 7706739263, 6326794328, 6326774864, 9369136019, 6326774865, 6326774866, 9371204354, 9371204355, 6326774867, 6326774868, 6326774869, 9371204353, 6326774870, 6326774871, 6326774872, 9371204352, 6326774873, 9371204351, 6326774874, 9369136021, 6326774876, 9371204350, 6326774877, 6326774878, 9371204326, 6326822634, 6326774879, 6326774880, 6326774881, 6326774882, 6326774883, 6326774884, 9371193687, 6326774985, 6326774986, 9371193684, 9371204445, 9371193679, 6297397477, 6297397478, 6297397475, 6297397476, 9371204588, 6297397473, 6297397474, 6297397471, 6297397483, 9371729334, 6297397467, 6297397470, 33583381, 6297397469, 6297395784, 6326779634, 6297397596, 6297397603, 6297395887, 11016695778, 9371729380, 9371729379, 11016695786, 9371729378, 9371729377, 11016695787, 9371729376, 11016695880, 6297397190, 11016695779, 33583383, 33583384, 194615673, 2044075126, 1078821289, 2044075092, 2044075112, 194615674, 1659428508, 33583385, 1659428503, 1659428500, 194615676, 1659428494, 2234390144, 11016695852, 2044048263, 11016695856, 605033094, 6297396392, 1659428451, 11016695986, 194615678, 33583387, 194615680, 33583388, 1659428446, 166878927, 7682576633, 7682576645, 9168454046, 9168415889, 6326858993, 6326858992, 6326858991, 2824828419, 2824828421, 33583389, 11016696162, 6297397830, 6297410845, 6297397841], "tags": {"addr:city": "New York", "addr:postcode": "10004", "addr:state": "NY", "ele": "3", "gnis:feature_id": "943167", "leisure": "park", "name": "Battery Park", "name:etymology:wikidata": "Q56344492", "name:sr": "\u0411\u0430\u0442\u0435\u0440\u0438 \u043f\u0430\u0440\u043a", "name:sr-Latn": "Bateri park", "operator": "New York City Department of Parks and Recreation", "operator:short": "NYC Parks", "operator:type": "government", "operator:wikidata": "Q1894232", "website": "https://www.thebattery.org/", "wikidata": "Q13689", "wikipedia": "en:The Battery (Manhattan)"}}, {"type": "way", "id": 25026338, "nodes": [272194598, 10290401177, 10290401179, 8262936618, 10290401180, 10290401178, 272194601, 10290401172, 10290401173, 10290401174, 10290401197, 10290401171, 10290401166, 10290401167, 10290401170, 10290401169, 10290401168, 272194602, 10290401193, 10290401161, 10290401165, 10290401164, 8262936617, 10290401163, 10290401162, 272194598], "tags": {"leisure": "park", "name": "Zuccotti Park", "name:etymology:wikidata": "Q9012427", "name:ko": "\uc988\uce74\ud2f0 \uacf5\uc6d0", "old_name": "Liberty Plaza Park", "wikidata": "Q227659", "wikipedia": "en:Zuccotti Park"}}, {"type": "way", "id": 34950727, "nodes": [410162268, 10435219295, 10435219294, 10457330662, 10457330635, 410162269, 10457330638, 2825052375, 10457330626, 10457330633, 2825052376, 10457330634, 410162270, 10454787942, 10435219287, 10435219288, 410162271, 10435219291, 7139624470, 10435219292, 6958351742, 7139624427, 10435219293, 10435219296, 410162268]}, {"type": "way", "id": 109447376, "nodes": [6262915542, 6262915550, 11350190890, 6262915540, 7138157354, 11350190891, 11350190898, 3738928737, 42422056, 3738928727, 3738928726, 11350190892, 3738928728, 3738928730, 3738928739, 11350190899, 6262915546, 11350190897, 6262915538, 11350190896, 11350190895, 6262915542], "tags": {"addr:city": "New York", "addr:postcode": "10038", "addr:state": "NY", "check_date": "2023-11-14", "ele": "5", "gnis:feature_id": "2058391", "leisure": "park", "name": "Louise Nevelson Plaza", "name:etymology:wikidata": "Q7531", "start_date": "1978", "wikidata": "Q49519601"}}, {"type": "way", "id": 112692313, "nodes": [1251958176, 7685539644, 1280366094, 7685535319, 7685535318, 7685539643, 10316226185, 7072589180, 7072589179, 7072589181, 7685535320, 7685535321, 7685539642, 1251958263, 7685535322, 1251958243, 7685539641, 7685535323, 7685535324, 7685535325, 10316226060, 7685535326, 7685539649, 7685535327, 1251958161, 7685535298, 7685535299, 1251958261, 7685535300, 10316226076, 10316226075, 7685535302, 7072589177, 7685535303, 7072589176, 7685535304, 7685535305, 9898775045, 1251958153, 7685535306, 7685535307, 7685535308, 7685535309, 7685535310, 7685535328, 7685535311, 1280366091, 7685539648, 7685535312, 7685535313, 7685535314, 7685535315, 7685539647, 7685535316, 7685539646, 7685535317, 7685539645, 1251958176], "tags": {"ele": "5", "gnis:feature_id": "944522", "leisure": "park", "name": "Bowling Green", "website": "https://www.nycgovparks.org/parks/bowling-green", "wikidata": "Q895455", "wikipedia": "en:Bowling Green (New York City)"}}, {"type": "way", "id": 208360494, "nodes": [2186614214, 10344043175, 10344354958, 10344043176, 1251958258, 10344043178, 10344043177, 2186614209, 8276468685, 10344043184, 10344043182, 10344043183, 10344043181, 10344043180, 10344043190, 10344043179, 10344354960, 2186614223, 12358205057, 2824829418, 781712009, 2186614225, 8276468689, 2186614214], "tags": {"addr:city": "New York", "addr:housenumber": "11", "addr:postcode": "10005", "addr:state": "NY", "addr:street": "Hanover Square", "alt_name": "British Garden at Hanover Square", "leisure": "park", "name": "The Queen Elizabeth II September 11th Garden", "old_name": "Hanover Square Park", "operator": "New York City Department of Parks and Recreation", "operator:short": "NYC Parks", "operator:type": "government", "operator:wikidata": "Q1894232", "website": "https://www.nycgovparks.org/parks/british-garden-at-hanover-square/", "wikidata": "Q4970000", "wikipedia": "en:Queen Elizabeth II September 11th Garden"}}, {"type": "way", "id": 278033590, "nodes": [2824641604, 3762209186, 2824641586, 12361377540, 2824641561, 2824641576, 3762209179, 3762209180, 2824641585, 2824641590, 2824641596, 2824641604], "tags": {"addr:city": "New York", "addr:housenumber": "100", "addr:street": "Trinity Place", "amenity": "school", "building": "school", "building:levels": "10", "ele": "5", "gnis:feature_id": "2083910", "mascot": "Panthers", "name": "High School of Economics and Finance", "nycdoitt:bin": "1001037", "wikidata": "Q5756623"}}, {"type": "way", "id": 278033603, "nodes": [2824641547, 2824641556, 2824641555, 2824641565, 2824641564, 2824641569, 2824641554, 2824641552, 2824641551, 12361291561, 2824641541, 2824641543, 2824641540, 3772831306, 2824641547], "tags": {"addr:city": "New York", "addr:housenumber": "90", "addr:postcode": "10006", "addr:state": "NY", "addr:street": "Trinity Place", "amenity": "school", "building": "school", "ele": "5", "gnis:feature_id": "2083909", "height": "62.7", "mascot": "Panthers", "name": "Leadership and Public Service High School", "nycdoitt:bin": "1001035", "polling_station": "yes", "wikidata": "Q6508641"}}, {"type": "way", "id": 278053528, "nodes": [2824829296, 2824829283, 2824829401, 2824829411, 2824829409, 2824829408, 2824829407, 2824829410, 2824829405, 2824829441, 12355026164, 12355026163, 2824829448, 2824829414, 2824829420, 2824829296], "tags": {"addr:city": "New York", "addr:housenumber": "44", "addr:postcode": "10005", "addr:state": "NY", "addr:street": "Beaver Street", "building": "yes", "government": "yes", "height": "54.4", "name": "New York City Department of Sanitation", "nycdoitt:bin": "1000850", "office": "government"}}, {"type": "way", "id": 278053575, "nodes": [2824829093, 2824829217, 2824829231, 2824829223, 2824829226, 2824829209, 12343164641, 2824829093], "tags": {"addr:city": "New York", "addr:housenumber": "54", "addr:postcode": "10004", "addr:state": "NY", "addr:street": "Stone Street", "amenity": "restaurant", "building": "yes", "cuisine": "pizza", "height": "25.1", "name": "Adrienne's Pizza Bar", "nycdoitt:bin": "1088620", "outdoor_seating": "street", "website": "https://stonestreettavernnyc.com/", "wheelchair": "yes"}}, {"type": "way", "id": 337839343, "nodes": [2824829209, 12343278068, 3448974183, 3448974184, 2824829231, 2824829223, 2824829226, 2824829209], "tags": {"addr:city": "New York", "addr:housenumber": "95", "addr:postcode": "10004", "addr:state": "NY", "addr:street": "Pearl Street", "amenity": "restaurant", "building": "yes", "height": "19.1", "name": "Ulysses'", "note": "Entrances on Stone Street and Pearl Street. Spans the ground floor of two different buildings.", "nycdoitt:bin": "1000840", "outdoor_seating": "street", "website": "https://www.ulyssesnyc.com/home", "wheelchair": "yes"}}, {"type": "way", "id": 375369088, "nodes": [2824697588, 2824697561, 11365172113, 1695926392, 1695926394, 2824697587, 11365172108, 11365172106, 2824697588], "tags": {"leisure": "park", "opening_hours": "sunrise-sunset"}}, {"type": "way", "id": 375369089, "nodes": [2824697701, 11365172084, 11365172083, 11365172080, 2824697702, 3748367336, 2824697586, 2824697572, 2824697701], "tags": {"leisure": "park", "opening_hours": "sunrise-sunset"}}, {"type": "way", "id": 504045549, "nodes": [2824988421, 11369490595, 11369490656, 11369490605, 11369490606, 11369490594, 11369490591, 11369490589, 11369490586, 11369490578, 11369490583, 11369414061, 4942593330, 11369414063, 11369490572, 11369490573, 11369490640, 11369414049, 11369490575, 11369414048, 2824988508, 2824988505, 2824988503, 2824988501, 2824988497, 2824988495, 2824988494, 2824988485, 2824988484, 2824988474, 2824988476, 2824988471, 2824988469, 2824988459, 2824988458, 2824988465, 2824988452, 2824988442, 2824988446, 11369490596, 4942593331, 2824988421], "tags": {"dog": "leashed", "leisure": "park", "outdoor_seating": "yes", "smoking": "no", "wheelchair": "yes"}}, {"type": "way", "id": 504045550, "nodes": [4942593338, 4942593339, 11369490664, 11369490663, 4942593348, 4942593349, 11369490666, 11369490665, 4942593338], "tags": {"amenity": "cafe", "building": "yes", "name": "Pi Greek Caf\u00e9 Bakerie", "shelter_type": "gazebo"}}, {"type": "way", "id": 538080002, "nodes": [7706733771, 10315959486, 1251959556, 10315971148, 10315971149, 10315971147, 10315971146, 10315971145, 10315971144, 10315971143, 10315971142, 10315971150, 10315971151, 10315971152, 10315971153, 10315971154, 10315971155, 10315971157, 10315971170, 10315971156, 10315971158, 10315971159, 10315971160, 4206997147, 10315971161, 10315971162, 10315971163, 10315971164, 10315971066, 10315971074, 10315971075, 10315971076, 10315971077, 10315971073, 10168364245, 10315971189, 10315971065, 5209054495, 5209054508, 5209054506, 5209054500, 5209054498, 5209054509, 5209054497, 5209054504, 10315971264, 7706983307, 10315971257, 7706733771], "tags": {"addr:city": "New York", "addr:housenumber": "2", "addr:postcode": "10006", "addr:state": "NY", "addr:street": "Edgar Street", "leisure": "park", "name": "Elizabeth H. Berger Plaza", "operator": "New York City Department of Parks and Recreation", "operator:short": "NYC Parks", "operator:type": "public", "operator:wikidata": "Q1894232", "website": "https://www.nycgovparks.org/planning-and-building/capital-project-tracker/project/5994", "wikidata": "Q24192795", "wikipedia": "en:Elizabeth H. Berger Plaza"}}, {"type": "way", "id": 575214393, "nodes": [5520014875, 5520014876, 5520014877, 5520014878, 5520014879, 5520014880, 5520014881, 3754090214, 5520014864, 5520014867, 5520014868, 5520014869, 5520014870, 5520014871, 5520014872, 5520014873, 5520014874, 5520014865, 5520014866, 5520014875], "tags": {"amenity": "fountain", "barrier": "kerb", "natural": "water"}}, {"type": "way", "id": 975290221, "nodes": [2824829063, 2824829203, 2824829098, 2824829049, 12343164635, 2824829063], "tags": {"addr:housenumber": "81", "addr:postcode": "10004", "addr:street": "Pearl Street", "amenity": "restaurant", "level": "0", "name": "Beckett's Bar and Grill", "outdoor_seating": "street", "website": "http://www.beckettsnyc.com/", "wheelchair": "limited"}}, {"type": "way", "id": 975290222, "nodes": [2824829036, 2824829092, 9025308626, 2824828301, 9025308623, 2824829049, 12343164637, 2824829036], "tags": {"addr:housenumber": "79", "addr:postcode": "10004", "addr:street": "Pearl Street", "amenity": "restaurant", "atm": "yes", "bar": "yes", "brewery": "yes", "check_date": "2023-04-04", "cuisine": "american;barbecue", "diet:gluten_free": "yes", "diet:vegan": "yes", "diet:vegetarian": "yes", "internet_access": "wlan", "internet_access:fee": "customers", "level": "0", "name": "Route 66 Smokehouse", "opening_hours": "Su-We 11:00-22:00; Th-Sa 11:00-23:00", "outdoor_seating": "yes", "phone": "+12129431602", "website": "https://www.route66smokehouse.com/", "wheelchair": "no"}}, {"type": "way", "id": 975290223, "nodes": [2824829203, 2824829210, 2824829075, 12343164633, 2824829063, 2824829203], "tags": {"addr:city": "New York", "addr:housenumber": "83", "addr:postcode": "10004", "addr:state": "NY", "addr:street": "Pearl Street", "amenity": "restaurant", "building": "yes", "cuisine": "mexican", "height": "16", "name": "Mad Dog and Beans", "nycdoitt:bin": "1078964", "opening_hours": "Tu-Sa 11:30-23:30; Su-Mo 11:30-01:00", "outdoor_seating": "street", "phone": "+12122691177", "website": "https://www.maddogandbeans.com/", "wheelchair": "yes"}}, {"type": "way", "id": 975290224, "nodes": [2824829234, 12339677014, 2824829239, 3738776600, 9025308625, 2824829212, 2824829206, 11040350793, 2824829234], "tags": {"addr:city": "New York", "addr:housenumber": "45", "addr:postcode": "10004", "addr:state": "NY", "addr:street": "Stone Street", "amenity": "bar", "name": "Havana Social", "theme": "irish"}}, {"type": "way", "id": 1223670554, "nodes": [11350190900, 11350190901, 11350190902, 11350190903, 11350190900], "tags": {"building": "yes", "office": "security"}}, {"type": "relation", "id": 8176996, "members": [{"type": "way", "ref": 34950727, "role": "outer"}, {"type": "way", "ref": 575214393, "role": "inner"}], "tags": {"addr:city": "New York", "addr:postcode": "10005", "addr:state": "NY", "addr:street": "Old Slip", "leisure": "park", "name": "Old Slip Park", "type": "multipolygon"}}]}