{"version": 0.6, "generator": "Overpass API 0.7.62.8 e802775f", "osm3s": {"timestamp_osm_base": "2025-12-01T16:49:30Z", "copyright": "The data included in this document is from www.openstreetmap.org. The data is made available under ODbL."}, "elements": [{"type": "node", "id": 42487342, "lat": 40.6331009, "lon": -74.015074}, {"type": "node", "id": 1955950509, "lat": 40.6325689, "lon": -74.0153163}, {"type": "node", "id": 2552708688, "lat": 40.635594, "lon": -74.0262812, "tags": {"amenity": "cafe", "name": "Felfa", "phone": "+1-718-333-5570", "smoking": "hookah"}}, {"type": "node", "id": 2552708697, "lat": 40.6348725, "lon": -74.026571, "tags": {"addr:housenumber": "7002", "addr:postcode": "11209", "addr:street": "3rd Avenue", "alt_name": "Sally Guzzone", "brand": "Allstate", "brand:wikidata": "Q2645636", "name": "Allstate", "office": "insurance", "opening_hours": "Mo-Fr 09:00-17:00||Sa \"by appointment\"", "phone": "+1-718-238-4616"}}, {"type": "node", "id": 2552708700, "lat": 40.6343422, "lon": -74.026792, "tags": {"addr:city": "Brooklyn", "addr:housenumber": "7026", "addr:postcode": "11209", "addr:street": "3rd Avenue", "alt_name": "Brooklyn Bay Seafood", "amenity": "restaurant", "cuisine": "chinese;thai;seafood", "name": "Spice Szechuan", "opening_hours": "Mo-Th 11:30-22:00; Fr-Sa 11:30-22:30; Su 12:00-22:00", "phone": "+1-718-333-5833"}}, {"type": "node", "id": 2552708702, "lat": 40.6339284, "lon": -74.026612, "tags": {"addr:city": "Brooklyn", "addr:housenumber": "7107", "addr:postcode": "11209", "addr:street": "3rd Avenue", "amenity": "restaurant", "cuisine": "thai", "name": "Glow Thai", "phone": "+1-718-748-1920"}}, {"type": "node", "id": 2552775452, "lat": 40.6358071, "lon": -74.0258393, "tags": {"addr:housenumber": "6823", "addr:postcode": "11220", "addr:street": "3rd Avenue", "amenity": "cafe", "cuisine": "coffee_shop;breakfast;sandwich;turkish", "drink:coffee": "yes", "drink:espresso": "yes", "drink:tea": "yes", "name": "Cozy Spot"}}, {"type": "node", "id": 2552775992, "lat": 40.6360489, "lon": -74.0267576}, {"type": "node", "id": 2552776023, "lat": 40.6360987, "lon": -74.0269215}, {"type": "node", "id": 2552776041, "lat": 40.6361137, "lon": -74.0267233}, {"type": "node", "id": 2552776043, "lat": 40.6361169, "lon": -74.0267341}, {"type": "node", "id": 2552776081, "lat": 40.636158, "lon": -74.0268708}, {"type": "node", "id": 2552776085, "lat": 40.6361631, "lon": -74.0268875}, {"type": "node", "id": 2552776207, "lat": 40.6362905, "lon": -74.0266424}, {"type": "node", "id": 2552776216, "lat": 40.6362995, "lon": -74.0267806}, {"type": "node", "id": 2552776222, "lat": 40.6363036, "lon": -74.026794}, {"type": "node", "id": 2552776248, "lat": 40.636328, "lon": -74.0267656}, {"type": "node", "id": 2553065364, "lat": 40.6341686, "lon": -74.0234938, "tags": {"addr:city": "Brooklyn", "addr:housenumber": "6915", "addr:postcode": "11209", "addr:state": "NY", "addr:street": "4th Avenue", "fax": "+1-718-680-0030", "name": "Idris And Sons Accounting And Business Taxation", "office": "accountant", "opening_hours": "Mo 08:30-21:00; Tu-Sa 08:00-21:00; Su 10:00-18:00", "payment:american_express": "yes", "payment:cash": "yes", "payment:cheque": "yes", "payment:discover_card": "yes", "payment:mastercard": "yes", "payment:visa": "yes", "phone": "+1-718-680-2008", "website": "https://idrisandsonsaccountingandbusinesstaxation.com"}}, {"type": "node", "id": 2553164663, "lat": 40.6344142, "lon": -74.0210174, "tags": {"addr:housenumber": "477", "addr:postcode": "11220", "addr:street": "68th Street", "fax": "+1-718-748-3087", "name": "M&A Ezzat", "office": "accountant", "phone": "+1-718-748-4760"}}, {"type": "node", "id": 2553164664, "lat": 40.6350254, "lon": -74.0207788, "tags": {"addr:housenumber": "480", "addr:postcode": "11220", "addr:street": "Senator Street", "name": "Master International", "office": "estate_agent", "phone": "+1-718-748-2700"}}, {"type": "node", "id": 2715676016, "lat": 40.6362553, "lon": -74.0230412}, {"type": "node", "id": 2715676017, "lat": 40.6364197, "lon": -74.022968}, {"type": "node", "id": 2715676018, "lat": 40.6366442, "lon": -74.0240178}, {"type": "node", "id": 2715676019, "lat": 40.6367974, "lon": -74.0228288}, {"type": "node", "id": 2715676020, "lat": 40.6371308, "lon": -74.0236752}, {"type": "node", "id": 3322286923, "lat": 40.6359505, "lon": -74.0264007, "tags": {"addr:city": "Brooklyn", "addr:housenumber": "275", "addr:postcode": "11220", "addr:state": "NY", "addr:street": "Bay Ridge Avenue", "fax": "+1-718-680-9733", "name": "Gateway City Church Office", "office": "religion", "phone": "+1-718-921-4673", "website": "https://www.gatewaycitychurch.nyc"}}, {"type": "node", "id": 4026460333, "lat": 40.6320177, "lon": -74.0133743}, {"type": "node", "id": 4026460340, "lat": 40.6316429, "lon": -74.0137589}, {"type": "node", "id": 4026478028, "lat": 40.6342638, "lon": -74.0178516}, {"type": "node", "id": 4026478029, "lat": 40.6366735, "lon": -74.0207397}, {"type": "node", "id": 4026478030, "lat": 40.635745, "lon": -74.0202488}, {"type": "node", "id": 4026478031, "lat": 40.6339154, "lon": -74.0164642}, {"type": "node", "id": 4026478032, "lat": 40.6362121, "lon": -74.0211537}, {"type": "node", "id": 4026478033, "lat": 40.6356578, "lon": -74.0199672}, {"type": "node", "id": 4026478034, "lat": 40.6340783, "lon": -74.0176042}, {"type": "node", "id": 4026478035, "lat": 40.6346095, "lon": -74.0174567}, {"type": "node", "id": 4026478036, "lat": 40.6347683, "lon": -74.0176471}, {"type": "node", "id": 4026478037, "lat": 40.6355601, "lon": -74.0200021}, {"type": "node", "id": 4026478038, "lat": 40.6360473, "lon": -74.020754}, {"type": "node", "id": 4026478039, "lat": 40.6341475, "lon": -74.0165435}, {"type": "node", "id": 4026478040, "lat": 40.635976, "lon": -74.0196436}, {"type": "node", "id": 4026478041, "lat": 40.6363865, "lon": -74.0203374}, {"type": "node", "id": 4026478042, "lat": 40.6361096, "lon": -74.0198814}, {"type": "node", "id": 4026478044, "lat": 40.6345383, "lon": -74.0175237}, {"type": "node", "id": 4026478045, "lat": 40.6335897, "lon": -74.0164508}, {"type": "node", "id": 4026478046, "lat": 40.6333462, "lon": -74.0165108}, {"type": "node", "id": 4026491440, "lat": 40.6385935, "lon": -74.02408}, {"type": "node", "id": 4026491443, "lat": 40.6374944, "lon": -74.0222292}, {"type": "node", "id": 4026491450, "lat": 40.6378063, "lon": -74.0249189}, {"type": "node", "id": 4026491470, "lat": 40.6369319, "lon": -74.0227512}, {"type": "node", "id": 5062423324, "lat": 40.6332972, "lon": -74.0268732, "tags": {"amenity": "restaurant", "cuisine": "indian", "delivery": "yes", "diet:vegetarian": "yes", "name": "Bombay Masala", "opening_hours": "Mo-Su 12:00-22:30", "outdoor_seating": "garden", "phone": "+1-718-333-5395", "takeaway": "yes"}}, {"type": "node", "id": 5515462822, "lat": 40.6375081, "lon": -74.0254697}, {"type": "node", "id": 5515462823, "lat": 40.6375058, "lon": -74.0255155}, {"type": "node", "id": 5515462824, "lat": 40.6375133, "lon": -74.0254906}, {"type": "node", "id": 5515462825, "lat": 40.6373236, "lon": -74.0256691}, {"type": "node", "id": 5515462826, "lat": 40.637345, "lon": -74.0256767}, {"type": "node", "id": 5515462827, "lat": 40.6373337, "lon": -74.0256767}, {"type": "node", "id": 5515462828, "lat": 40.6372896, "lon": -74.0255473}, {"type": "node", "id": 5515462829, "lat": 40.6372853, "lon": -74.0255671}, {"type": "node", "id": 5515462830, "lat": 40.6372879, "lon": -74.0255879}, {"type": "node", "id": 5574466301, "lat": 40.6366072, "lon": -74.0258612, "tags": {"addr:housenumber": "6802", "addr:postcode": "11220", "addr:street": "3rd Avenue", "amenity": "pub", "cocktails": "yes", "drink:beer": "draught", "drink:liquor": "yes", "drink:wine": "yes", "name": "Three Jolly Pigeons", "phone": "+1-718-745-9350", "short_name": "III J.P.\u2019s Pub"}}, {"type": "node", "id": 5617797691, "lat": 40.6355039, "lon": -74.025973, "tags": {"addr:housenumber": "6903", "addr:postcode": "11209", "addr:street": "3rd Avenue", "air_conditioning": "yes", "amenity": "cafe", "check_date": "2024-10-25", "contact:facebook": "https://www.facebook.com/coffeerx/", "cuisine": "coffee_shop", "delivery": "yes", "drink:coffee": "yes", "drink:espresso": "yes", "drink:tea": "yes", "drive_through": "no", "internet_access": "wlan", "name": "Coffee Rx", "opening_hours": "Mo-Fr 07:30-18:00; Sa-Su 08:00-18:00", "outdoor_seating": "street", "payment:cash": "yes", "payment:credit_cards": "yes", "phone": "+1 646-820-8095", "smoking": "no", "takeaway": "yes", "website": "https://coffeerxroasters.squarespace.com/", "wheelchair": "yes"}}, {"type": "node", "id": 5905798195, "lat": 40.6351311, "lon": -74.0235244, "tags": {"amenity": "cafe", "cuisine": "coffee_shop", "drink:coffee": "yes", "drink:espresso": "yes", "drink:tea": "yes", "name": "City League", "opening_hours": "Mo-Fr 07:00-17:00; Sa-Su 08:00-16:00", "website": "https://cityleaguecoffee.com"}}, {"type": "node", "id": 6324604870, "lat": 40.637324, "lon": -74.0218141}, {"type": "node", "id": 6324604871, "lat": 40.6368751, "lon": -74.0222708}, {"type": "node", "id": 7126840190, "lat": 40.635656, "lon": -74.0233237, "tags": {"amenity": "cafe", "name": "The Attic", "smoking": "hookah"}}, {"type": "node", "id": 7126840192, "lat": 40.6349682, "lon": -74.0235906, "tags": {"alt_name": "Lux Bakery II", "amenity": "cafe", "cuisine": "pastry", "name": "Lux Bakery", "phone": "+1-718-680-2988", "shop": "bakery"}}, {"type": "node", "id": 7126840193, "lat": 40.6348634, "lon": -74.0236333, "tags": {"amenity": "restaurant", "cuisine": "diner", "delivery": "yes", "drink:beer": "yes", "drink:coffee": "yes", "drink:espresso": "yes", "drink:wine": "yes", "name": "Emphasis", "opening_hours": "24/7", "phone": "+1-718-748-1319", "website": "https://emphasisbrooklyn2.bestcafes.online/"}}, {"type": "node", "id": 7126867477, "lat": 40.6333325, "lon": -74.0268586, "tags": {"amenity": "taxi", "atm": "yes", "name": "Yours Car Service", "office": "taxi", "phone": "+1-718-680-5200", "website": "http://yourscarservice.com"}}, {"type": "node", "id": 7126867478, "lat": 40.6332618, "lon": -74.0268874, "tags": {"alt_name": "Mashaal Agency", "brand": "Farmers Insurance", "brand:wikidata": "Q1396863", "fax": "+1-718-414-2469", "name": "Farmer's Insurance", "office": "insurance", "opening_hours": "Mo-Fr 09:00-18:00", "phone": "+1-718-307-1010", "website": "https://agents.farmers.com/ny/brooklyn/mahmoud-mashaal"}}, {"type": "node", "id": 8592780758, "lat": 40.636131, "lon": -74.0260735, "tags": {"amenity": "restaurant", "bar": "yes", "cocktails": "yes", "cuisine": "mexican", "drink:beer": "yes", "drink:liquor": "yes", "drink:wine": "yes", "name": "Coszcal de Allende", "outdoor_seating": "garden;street", "phone": "+1-718-921-3523", "website": "https://coszcal.com"}}, {"type": "node", "id": 9114128238, "lat": 40.6349061, "lon": -74.0231748, "tags": {"amenity": "restaurant", "cuisine": "latin_american", "delivery": "yes", "name": "El Castillo", "phone": "+1-718-745-0649", "takeaway": "yes"}}, {"type": "node", "id": 9114371998, "lat": 40.6353047, "lon": -74.0234777, "tags": {"addr:housenumber": "6802", "addr:street": "4th Avenue", "amenity": "restaurant", "name": "Bay Ridge Cafe"}}, {"type": "node", "id": 9127978824, "lat": 40.6361675, "lon": -74.0226477, "tags": {"addr:housenumber": "6717", "company": "heating_fuel", "name": "Approved Oil Company", "office": "company", "phone": "+1-718-238-1050", "website": "https://approvedoil.com"}}, {"type": "node", "id": 9130622946, "lat": 40.6344274, "lon": -74.0233872, "tags": {"alt_name": "PL$", "name": "PLS", "office": "financial", "phone": "+1-718-745-2999", "website": "https://pls247.com/tx/store-locator/store/208-6901-fourth-ave-brooklyn.html"}}, {"type": "node", "id": 9218889953, "lat": 40.634493, "lon": -74.022995, "tags": {"addr:city": "Brooklyn", "addr:housenumber": "413", "addr:postcode": "11220", "addr:state": "NY", "addr:street": "Bay Ridge Avenue", "name": "Marks Home Care", "office": "nursing_service", "phone": "+1-718-713-0005", "website": "https://www.markshhc.com/"}}, {"type": "node", "id": 9218910383, "lat": 40.6331749, "lon": -74.0269291, "tags": {"addr:housenumber": "7211", "addr:street": "3rd Avenue", "amenity": "restaurant", "name": "Happy Garden", "opening_hours": "Mo, We, Th, Su 11:00-23:00; Fr, Sa 11:00-23:30", "phone": "+1-718-748-1113"}}, {"type": "node", "id": 9779751305, "lat": 40.6367791, "lon": -74.025437, "tags": {"name": "Law Offices of John D. Famulari/Dominic J. Famulari/Michael J. Petersen", "office": "lawyer"}}, {"type": "node", "id": 9779751310, "lat": 40.6361384, "lon": -74.0257013, "tags": {"addr:housenumber": "6809", "addr:postcode": "11220", "addr:street": "3rd Avenue", "amenity": "taxi", "name": "Explorer Car Service", "office": "taxi", "opening_hours": "24/7", "phone": "+1-718-238-0404"}}, {"type": "node", "id": 9779751312, "lat": 40.6358753, "lon": -74.0258051, "tags": {"amenity": "restaurant", "cocktails": "yes", "cuisine": "brazilian;american", "drink:beer": "yes", "drink:liquor": "yes", "drink:wine": "yes", "name": "Sarav\u00e1 Bistro", "opening_hours": "Tu 16:00-22:00; We-Fr 12:00-22:00; Sa 11:00-22:00; Su 11:00-21:00", "outdoor_seating": "sidewalk", "website": "https://www.saravabistro.com"}}, {"type": "node", "id": 9779751521, "lat": 40.6364476, "lon": -74.0259492, "tags": {"amenity": "cafe", "cuisine": "middle_eastern", "name": "Bai\u2019 Dar", "opening_hours": "24/7", "smoking": "hookah"}}, {"type": "node", "id": 9779751524, "lat": 40.6365442, "lon": -74.0258905, "tags": {"disused:website": "http://okellyrealty.com", "name": "Okelly Realty", "office": "estate_agent", "phone": "+1-718-745-1100", "website": "https://okelly-international-realty.business.site"}}, {"type": "node", "id": 9779751526, "lat": 40.6363903, "lon": -74.0259638, "tags": {"alt_name": "Winzone Realty", "estate_agent": "yes", "name": "L & M Tours", "office": "travel_agent", "opening_hours": "Mo-Fr 09:30-18:00; Sa 11:00-16:00", "phone": "+1-718-238-2284", "service:notary": "yes", "website": "https://www.lmtours.net"}}, {"type": "node", "id": 9779884975, "lat": 40.6354374, "lon": -74.0263444, "tags": {"amenity": "restaurant", "cuisine": "sushi", "drink:beer": "yes", "drink:sake": "yes", "drink:wine": "yes", "name": "Bayridge Sushi", "opening_hours": "Mo-Th 11:00-23:00; Fr-Sa 11:30-23:30; Su 12:00-23:00", "outdoor_seating": "street", "phone": "+1-718-491-0662", "takeaway": "yes", "website": "https://bayridgesushibk.com"}}, {"type": "node", "id": 9779884981, "lat": 40.6347668, "lon": -74.026616, "tags": {"amenity": "cafe", "cuisine": "breakfast;sandwich;juice", "drink:coffee": "yes", "drink:espresso": "yes", "drink:tea": "yes", "name": "Take Away & Cafe", "phone": "+1-718-680-0777", "takeaway": "yes"}}, {"type": "node", "id": 9779884991, "lat": 40.635284, "lon": -74.0264101, "tags": {"alt_name": "Sancho's Coffee Shop", "amenity": "restaurant", "cuisine": "spanish;diner", "name": "The New Sancho's", "opening_hours": "Mo-Sa 07:00-22:00, Su 07:00-21:00", "phone": "+1-347-4150", "takeaway": "yes"}}, {"type": "node", "id": 9786078580, "lat": 40.6346523, "lon": -74.0263014, "tags": {"amenity": "pub", "cocktails": "yes", "cuisine": "pizza", "delivery": "yes", "diet:vegan": "yes", "diet:vegetarian": "yes", "drink:beer": "draught", "drink:liquor": "yes", "drink:wine": "yes", "live_music": "yes", "name": "The Brooklyn Firefly", "opening_hours": "Tu-Fr 17:00-22:00; Sa-Su 13:00-22:00", "opening_hours:kitchen": "Tu-Fr 17:00-21:00; Sa-Su 13:00-21:00", "outdoor_seating": "sidewalk;street", "takeaway": "yes", "website": "https://www.thebrooklynfirefly.com"}}, {"type": "node", "id": 9800400041, "lat": 40.6374931, "lon": -74.0254609}, {"type": "node", "id": 9834107253, "lat": 40.6334315, "lon": -74.0206593, "tags": {"level": "1", "name": "Maged Law Office", "office": "lawyer", "phone": "+1-718-833-4140"}}, {"type": "node", "id": 9834107254, "lat": 40.6335078, "lon": -74.0208122, "tags": {"amenity": "restaurant", "cuisine": "middle_eastern", "name": "Brooklyn Kabab", "phone": "+1-929-292-2001"}}, {"type": "node", "id": 9834107256, "lat": 40.6337643, "lon": -74.021067, "tags": {"name": "5th Avenue Travel Agency", "office": "travel_agent", "phone": "+1-718-333-5350"}}, {"type": "node", "id": 9834107259, "lat": 40.6337862, "lon": -74.0214569, "tags": {"amenity": "cafe", "name": "Coconut Hookah", "smoking": "hookah"}}, {"type": "node", "id": 9834107264, "lat": 40.6327857, "lon": -74.0211173, "tags": {"addr:housenumber": "6927", "addr:postcode": "11209", "addr:street": "5th Avenue", "alt_name": "Hemo's Cafe", "amenity": "cafe", "cuisine": "coffee_shop;yemeni", "drink:coffee": "yes", "drink:espresso": "yes", "drink:tea": "yes", "name": "Hemo Cafe", "outdoor_seating": "yes", "phone": "+1-718-333-5130"}}, {"type": "node", "id": 9834107269, "lat": 40.6327515, "lon": -74.0214952, "tags": {"addr:housenumber": "6934", "addr:postcode": "11209", "addr:street": "5th Avenue", "alt_name": "Small Business Accounting Services", "name": "SBAS", "office": "accountant", "phone": "+1-718-494-1101"}}, {"type": "node", "id": 10198368953, "lat": 40.6342742, "lon": -74.023884, "tags": {"amenity": "cafe", "name": "Albait Baitak Cafe", "smoking": "hookah"}}, {"type": "node", "id": 10245668521, "lat": 40.6351912, "lon": -74.0201287, "tags": {"amenity": "cafe", "name": "Haveli Lounge", "phone": "+1-347-497-5204", "smoking": "hookah"}}, {"type": "node", "id": 10245668523, "lat": 40.6348602, "lon": -74.0202682, "tags": {"amenity": "bar", "drink:beer": "draught", "drink:liquor": "yes", "name": "The Leif", "outdoor_seating": "yes", "phone": "+1-718-680-0016"}}, {"type": "node", "id": 10555809160, "lat": 40.6380911, "lon": -74.0246154}, {"type": "node", "id": 10677077423, "lat": 40.6347187, "lon": -74.0206846, "tags": {"name": "Target Insurance", "office": "insurance", "phone": "+1-718-238-8742"}}, {"type": "node", "id": 10677077425, "lat": 40.6348742, "lon": -74.0206246, "tags": {"alt_name": "Yemen Authentic Restaurant", "amenity": "restaurant", "cuisine": "yemeni", "name": "Yemen Unity Restaurant", "phone": "+1-718-333-5708"}}, {"type": "node", "id": 10718113259, "lat": 40.63405, "lon": -74.0235426, "tags": {"addr:housenumber": "6921", "addr:postcode": "11209", "addr:street": "4th Avenue", "name": "Crossroads Christian Church", "office": "place_of_worship", "phone": "+1-347-578-7004", "website": "https://crossroadsbrooklyn.com"}}, {"type": "node", "id": 10718159629, "lat": 40.634916, "lon": -74.0239355, "tags": {"addr:housenumber": "377", "addr:postcode": "11220", "addr:street": "Bay Ridge Avenue", "amenity": "taxi", "name": "Bay Ridge Express Car Service", "office": "taxi", "phone": "+1-718-921-5555", "website": "https://bayridgecarlimo.com"}}, {"type": "node", "id": 10771646585, "lat": 40.6344599, "lon": -74.0207847, "tags": {"estate_agent": "yes", "name": "Gerald J. Bianco", "office": "lawyer"}}, {"type": "node", "id": 10771646593, "lat": 40.6341372, "lon": -74.0203962, "tags": {"addr:housenumber": "507", "addr:postcode": "11220", "addr:street": "68th Street", "alt_name": "Amana Services", "name": "Amana Travel", "office": "travel_agent", "phone": "+1-718-491-6456"}}, {"type": "node", "id": 10771770491, "lat": 40.6329921, "lon": -74.0209468, "tags": {"name": "Mohammed Alsawaeer Attorney at Law", "office": "lawyer", "phone": "+1-718-833-2290"}}, {"type": "node", "id": 10771770496, "lat": 40.6327697, "lon": -74.0215342, "tags": {"addr:housenumber": "6934", "addr:postcode": "11209", "addr:street": "5th Avenue", "name": "Polmoro Insurance Brokers", "office": "insurance", "phone": "+1-929-999-2323"}}, {"type": "node", "id": 10771770497, "lat": 40.6335206, "lon": -74.0213674, "tags": {"addr:housenumber": "480", "addr:postcode": "11220", "addr:street": "Bay Ridge Avenue", "name": "Tasheed Building Consultants", "office": "company", "phone": "+1-718-219-6598"}}, {"type": "node", "id": 10771770500, "lat": 40.633513, "lon": -74.0215089, "tags": {"level": "1", "name": "Yadder Helal Attotney at Law", "office": "lawyer", "phone": "+1-718-238-0075"}}, {"type": "node", "id": 10771770502, "lat": 40.6335595, "lon": -74.0214744, "tags": {"amenity": "cafe", "cuisine": "egyptian", "diet:halal": "yes", "name": "Meena House Cafe", "phone": "+1-718-238-3274", "smoking": "hookah"}}, {"type": "node", "id": 10771770504, "lat": 40.6338116, "lon": -74.0215188, "tags": {"disused:website": "http://bdonwasit.com", "name": "Bdon Waseet", "office": "tax_advisor", "phone": "+1-347-722-2101", "website": "https://bdonwaseet.com"}}, {"type": "node", "id": 10771836086, "lat": 40.6323593, "lon": -74.0211265, "tags": {"addr:housenumber": "506", "addr:postcode": "11209", "addr:street": "Ovington Avenue", "name": "United 50", "office": "tax_advisor", "phone": "+1-718-833-7400"}}, {"type": "node", "id": 11480676609, "lat": 40.6345, "lon": -74.0263765, "tags": {"fax": "+1-718-535-7969", "name": "Taxes On Point", "office": "tax_advisor", "phone": "+1-718-535-7655"}}, {"type": "node", "id": 11480683218, "lat": 40.6341571, "lon": -74.0222618, "tags": {"amenity": "cafe", "name": "Eden Hookah", "phone": "+1-929-382-1856", "smoking": "hookah"}}, {"type": "node", "id": 11480683221, "lat": 40.634077, "lon": -74.0220832, "tags": {"name": "Onal Gallant Bayram & Amin", "office": "lawyer", "phone": "+1-718-814-9898", "website": "https://www.ogplawfirm.com"}}, {"type": "node", "id": 11480683222, "lat": 40.6340242, "lon": -74.0219677, "tags": {"craft": "key_cutter", "name": "BA Community Service of Bay Ridge", "office": "multiservice", "phone": "+1-646-732-7200"}}, {"type": "node", "id": 11480683224, "lat": 40.6346131, "lon": -74.020719, "tags": {"amenity": "cafe", "drink:coffee": "yes", "drink:espresso": "yes", "name": "The Ocky Way Chocolate Factory", "opening_hours": "Mo-Th 14:00-01:00, Fr-Sa 14:00-02:00, Su 14:00-01:00", "phone": "+1-347-560-6080", "shop": "chocolate"}}, {"type": "node", "id": 11483989559, "lat": 40.6342408, "lon": -74.0264847, "tags": {"amenity": "restaurant", "cuisine": "sushi", "name": "G Sushi Sashimi", "phone": "+1-718-630-1113", "website": "http://www.gsushibrooklyn.com"}}, {"type": "node", "id": 11488867503, "lat": 40.6345051, "lon": -74.0247717, "tags": {"fax": "+1-347-554-8844", "name": "Right at Home", "office": "nursing_service", "phone": "+1-347-554-8400", "website": "https://www.rightathome.net/brooklyn/about-us/areas-served/bay-ridge"}}, {"type": "node", "id": 12585246695, "lat": 40.630116, "lon": -74.0102572}, {"type": "node", "id": 12585246696, "lat": 40.6318647, "lon": -74.013163}, {"type": "node", "id": 12585253209, "lat": 40.6315144, "lon": -74.0135181}, {"type": "node", "id": 12585253213, "lat": 40.629819, "lon": -74.010699}, {"type": "way", "id": 185022007, "nodes": [4026460340, 1955950509, 42487342, 4026460333, 4026460340]}, {"type": "way", "id": 185022011, "nodes": [12585253209, 12585253213, 12585246695, 12585246696, 12585253209]}, {"type": "way", "id": 248498219, "nodes": [2552776085, 2552776081, 2552776222, 2552776216, 2552776248, 2552776207, 2552776043, 2552776041, 2552775992, 2552776023, 2552776085], "tags": {"addr:housenumber": "257", "addr:postcode": "11220", "addr:street": "Bay Ridge Avenue", "alt_name": "Gateway City Church Academy", "amenity": "school", "building": "yes", "fax": "+1-718-921-0368", "gnis:feature_id": "2081764", "height": "11.8", "name": "Gateway City Academy", "nycdoitt:bin": "3145159", "old_name": "Bay Ridge Masonic Temple", "phone": "+1-718-921-3737", "website": "http://gatewaycityacademy.net"}}, {"type": "way", "id": 265966883, "nodes": [2715676019, 2715676017, 2715676016, 2715676018, 2715676020, 2715676019], "tags": {"amenity": "school", "name": "High School of Telecommunications Arts and Technology", "wikidata": "Q28206823"}}, {"type": "way", "id": 400011767, "nodes": [4026478041, 4026478029, 6324604870, 6324604871, 4026478032, 4026478038, 4026478030]}, {"type": "way", "id": 400011768, "nodes": [4026478039, 4026478031, 4026478045, 4026478046, 4026478034, 4026478044, 4026478035, 4026478039]}, {"type": "way", "id": 400011769, "nodes": [4026478036, 4026478028, 4026478037, 4026478033, 4026478040, 4026478036]}, {"type": "way", "id": 400014470, "nodes": [4026491470, 4026491450, 10555809160, 4026491440, 4026491443, 4026491470]}, {"type": "way", "id": 574644453, "nodes": [5515462823, 5515462824, 5515462822, 9800400041, 5515462828, 5515462829, 5515462830, 5515462825, 5515462827, 5515462826, 5515462823], "tags": {"leisure": "park", "name": "Steadman Square"}}, {"type": "way", "id": 1420328522, "nodes": [4026478030, 4026478042, 4026478041]}, {"type": "relation", "id": 6006556, "members": [{"type": "way", "ref": 185022007, "role": "outer"}, {"type": "way", "ref": 185022011, "role": "outer"}, {"type": "way", "ref": 400011768, "role": "outer"}, {"type": "way", "ref": 400011769, "role": "outer"}, {"type": "way", "ref": 400011767, "role": "outer"}, {"type": "way", "ref": 1420328522, "role": "outer"}, {"type": "way", "ref": 400014470, "role": "outer"}], "tags": {"gnis:feature_id": "2356150", "leisure": "park", "name": "Leif Ericson Park", "name:etymology:wikidata": "Q42838", "type": "multipolygon", "website": "https://www.nycgovparks.org/parks/leif-ericson-park", "wikidata": "Q49515767"}}]}