{"version": 0.6, "generator": "Overpass API 0.7.62.8 e802775f", "osm3s": {"timestamp_osm_base": "2025-12-01T16:06:30Z", "copyright": "The data included in this document is from www.openstreetmap.org. The data is made available under ODbL."}, "elements": [{"type": "node", "id": 2550917719, "lat": 40.706137, "lon": -73.8089246, "tags": {"addr:city": "Jamaica", "addr:housenumber": "148-01", "addr:postcode": "11435", "addr:state": "NY", "addr:street": "Hillside Avenue", "amenity": "restaurant", "cuisine": "asian", "diet:halal": "yes", "indoor_seating": "yes", "name": "Al Aqsa Restaurant & Sweets", "outdoor_seating": "no"}}, {"type": "node", "id": 2550918207, "lat": 40.7066132, "lon": -73.807193}, {"type": "node", "id": 2550918290, "lat": 40.7067353, "lon": -73.8067636}, {"type": "node", "id": 2550918308, "lat": 40.7067709, "lon": -73.8072704}, {"type": "node", "id": 2550918364, "lat": 40.7068916, "lon": -73.8068403}, {"type": "node", "id": 2550918366, "lat": 40.706893, "lon": -73.806841}, {"type": "node", "id": 2570589531, "lat": 40.7058977, "lon": -73.8072196}, {"type": "node", "id": 2570589667, "lat": 40.7061227, "lon": -73.8071455}, {"type": "node", "id": 2570589713, "lat": 40.7062607, "lon": -73.8073998}, {"type": "node", "id": 2570589719, "lat": 40.7062737, "lon": -73.8072205}, {"type": "node", "id": 2870787371, "lat": 40.7050177, "lon": -73.8091795, "tags": {"addr:city": "Jamaica", "addr:housenumber": "87-85", "addr:postcode": "11435", "addr:state": "NY", "addr:street": "Sutphin Boulevard", "amenity": "restaurant", "check_date": "2023-05-04", "cuisine": "chinese", "delivery": "yes", "level": "0", "name": "Dai Hing", "payment:cash": "yes", "takeaway": "yes"}}, {"type": "node", "id": 2870824983, "lat": 40.7053906, "lon": -73.8103843, "tags": {"addr:housenumber": "146-02", "addr:postcode": "11435", "addr:street": "Hillside Avenue", "name": "Amona Realty Group", "office": "estate_agent"}}, {"type": "node", "id": 2870824991, "lat": 40.705453, "lon": -73.8097062, "tags": {"addr:city": "Jamaica", "addr:housenumber": "87-66", "addr:postcode": "11435", "addr:state": "NY", "addr:street": "Sutphin Boulevard", "name": "Law Firm of Stephen G. James & Associates, PLLC", "office": "lawyer", "opening_hours": "Mo-Fr 09:00-18:00"}}, {"type": "node", "id": 2870831738, "lat": 40.7030202, "lon": -73.8120811}, {"type": "node", "id": 2870831764, "lat": 40.7030699, "lon": -73.8120875}, {"type": "node", "id": 2870831765, "lat": 40.70307, "lon": -73.8118804}, {"type": "node", "id": 2870831772, "lat": 40.7030851, "lon": -73.8118823}, {"type": "node", "id": 2870832123, "lat": 40.7035264, "lon": -73.8125042}, {"type": "node", "id": 4582220370, "lat": 40.7054203, "lon": -73.8102482, "tags": {"addr:city": "Jamaica", "addr:housenumber": "146-06", "addr:postcode": "11435", "addr:state": "NY", "addr:street": "Hillside Avenue", "fax": "+1 718 848 8516", "level": "0", "name": "Affar Baksh", "office": "lawyer", "opening_hours": "Mo-Sa 09:00-19:00", "phone": "+1 718 848 8515", "website": "https://www.bakshlaw.com"}}, {"type": "node", "id": 5470130892, "lat": 40.7036304, "lon": -73.8088849, "tags": {"addr:city": "Jamaica", "addr:housenumber": "8900", "addr:postcode": "11435", "addr:state": "NY", "addr:street": "Sutphin Boulevard", "amenity": "cafe", "branch": "89th Avenue & Sutphin Boulevard", "brand": "Starbucks", "brand:wikidata": "Q37158", "cuisine": "coffee_shop", "name": "Starbucks", "official_name": "Starbucks Coffee", "phone": "+1 347-233-1463", "ref": "1014349", "takeaway": "yes", "website": "https://www.starbucks.com/store-locator/store/1014349/89th-ave-sutphin-blvd-8900-sutphin-blvd-jamaica-ny-114353700-us"}}, {"type": "node", "id": 5611435709, "lat": 40.7053768, "lon": -73.8093475, "tags": {"addr:housenumber": "87-69", "addr:street": "Sutphin boulevard", "amenity": "bar", "name": "Maloney's"}}, {"type": "node", "id": 6861962047, "lat": 40.7040788, "lon": -73.8125777}, {"type": "node", "id": 6861962048, "lat": 40.7042757, "lon": -73.8118948}, {"type": "node", "id": 6861962049, "lat": 40.7037299, "lon": -73.8118137}, {"type": "node", "id": 7297837402, "lat": 40.7040168, "lon": -73.8090289, "tags": {"addr:city": "Jamaica", "addr:housenumber": "88-38", "addr:postcode": "11435", "addr:state": "NY", "addr:street": "Sutphin Boulevard", "amenity": "restaurant", "cuisine": "noodle;chinese;dumpling;asian;soup", "name": "Beijing Dumpling House", "opening_hours": "Mo-Sa 10:00-10:00, Su 03:00-10:00", "phone": "+1-718-297-2935", "website": "beijingdumplingny.com"}}, {"type": "node", "id": 7849782225, "lat": 40.7063071, "lon": -73.8072371}, {"type": "node", "id": 7849782226, "lat": 40.7059796, "lon": -73.8070745}, {"type": "node", "id": 7849782227, "lat": 40.7059512, "lon": -73.807174}, {"type": "node", "id": 7849782228, "lat": 40.7058775, "lon": -73.8071374}, {"type": "node", "id": 7849782229, "lat": 40.70586, "lon": -73.8072009}, {"type": "node", "id": 9556257199, "lat": 40.7050966, "lon": -73.8092182, "tags": {"addr:city": "Jamaica", "addr:housenumber": "87-81", "addr:postcode": "11435", "addr:state": "NY", "addr:street": "Sutphin Boulevard", "amenity": "restaurant", "cuisine": "spanish", "level": "0", "name": "El Familiar"}}, {"type": "node", "id": 9884014250, "lat": 40.7049617, "lon": -73.8095585, "tags": {"addr:city": "Jamaica", "addr:housenumber": "87-82", "addr:postcode": "11435", "addr:state": "NY", "addr:street": "Sutphin Boulevard", "amenity": "restaurant", "cuisine": "caribbean", "name": "Caribbean Taste Budz", "nycdoitt:bin": "4207061", "phone": "+1-718-885-4403", "website": "https://caribbeantastebudz.com"}}, {"type": "node", "id": 12029710370, "lat": 40.7052283, "lon": -73.8122151, "tags": {"addr:city": "Jamaica", "addr:housenumber": "143-15", "addr:postcode": "11435", "addr:state": "NY", "addr:street": "Hillside Avenue", "level": "0", "name": "Big Apple Insurance Brokerage", "office": "insurance"}}, {"type": "node", "id": 12029722930, "lat": 40.7051691, "lon": -73.8124307, "tags": {"addr:city": "Jamaica", "addr:housenumber": "143-09", "addr:state": "NY", "addr:street": "Hillside Avenue", "amenity": "restaurant", "check_date:opening_hours": "2024-07-02", "level": "0", "name": "El Sembrador", "opening_hours:signed": "no"}}, {"type": "node", "id": 12312680315, "lat": 40.705742, "lon": -73.8089356, "tags": {"amenity": "restaurant", "indoor_seating": "yes", "name": "Punto Rojo", "opening_hours": "Mo-Su 06:00-21:00", "outdoor_seating": "no"}}, {"type": "node", "id": 12453800173, "lat": 40.7055681, "lon": -73.8097641, "tags": {"amenity": "restaurant", "contact:facebook": "adobomexicangrill", "contact:instagram": "adobomexicangrill", "cuisine": "mexican", "diet:halal": "only", "indoor_seating": "yes", "level": "0", "name": "Adonbo Mexican Grill", "opening_hours": "Mo-Su 11:00-03:00", "outdoor_seating": "no", "wheelchair": "yes"}}, {"type": "node", "id": 12688489236, "lat": 40.7060592, "lon": -73.8092008, "tags": {"amenity": "restaurant", "indoor_seating": "yes", "name": "El Rey Restaurant & Bar", "outdoor_seating": "no"}}, {"type": "node", "id": 12688510758, "lat": 40.70541, "lon": -73.810322, "tags": {"addr:housenumber": "146-04", "addr:postcode": "11435", "addr:street": "Hillside Avenue", "level": "0", "name": "Law Offices of Roy Persaud Bhairam", "office": "lawyer", "phone": "+1 718-526-6700"}}, {"type": "node", "id": 12688511535, "lat": 40.7046249, "lon": -73.8126937, "tags": {"brand": "Allstate", "brand:wikidata": "Q2645636", "office": "insurance", "opening_hours": "Mo-Fr 09:00-18:00; Sa 09:00-13:00"}}, {"type": "way", "id": 248287618, "nodes": [2550918290, 2550918207, 2550918308, 2550918366, 2550918364, 2550918290], "tags": {"addr:city": "Jamaica", "addr:housenumber": "148-55", "addr:postcode": "11435", "addr:state": "NY", "addr:street": "Hillside Avenue", "building": "office", "height": "3.8", "name": "Shaevitz & Shaevitz", "nycdoitt:bin": "4207410", "office": "lawyer", "phone": "+1-718-291-3400", "website": "https://shaevitzandshaevitz.com/"}}, {"type": "way", "id": 283175498, "nodes": [2870831738, 2870831764, 2870831772, 2870831765, 2870831738], "tags": {"addr:housenumber": "139-33", "addr:postcode": "11435", "addr:street": "89th Avenue", "amenity": "restaurant", "building": "retail", "cuisine": "mexican", "height": "3.2", "name": "El Rinconcito de los Sabores", "nycdoitt:bin": "4206878", "opening_hours": "Mo-Su 10:00-22:00"}}, {"type": "way", "id": 732803910, "nodes": [6861962047, 6861962048, 6861962049, 2870832123, 6861962047], "tags": {"amenity": "school", "name": "PS 82"}}, {"type": "way", "id": 841305339, "nodes": [2570589713, 7849782225, 2570589719, 2570589667, 7849782226, 7849782227, 7849782228, 7849782229, 2570589531, 2570589713], "tags": {"building": "yes", "office": "yes"}}]}