{"version": 0.6, "generator": "Overpass API 0.7.62.8 e802775f", "osm3s": {"timestamp_osm_base": "2025-12-01T17:39:36Z", "copyright": "The data included in this document is from www.openstreetmap.org. The data is made available under ODbL."}, "elements": [{"type": "node", "id": 1728012245, "lat": 40.7710134, "lon": -73.9172464}, {"type": "node", "id": 1728012261, "lat": 40.771554, "lon": -73.918007}, {"type": "node", "id": 1728012262, "lat": 40.7716579, "lon": -73.9164478}, {"type": "node", "id": 1728012264, "lat": 40.7721985, "lon": -73.9172084}, {"type": "node", "id": 2457084037, "lat": 40.7729491, "lon": -73.9204699}, {"type": "node", "id": 2457084038, "lat": 40.7732829, "lon": -73.9209485}, {"type": "node", "id": 2457084039, "lat": 40.7730366, "lon": -73.9212481}, {"type": "node", "id": 2457084040, "lat": 40.7727028, "lon": -73.9207696}, {"type": "node", "id": 2522802855, "lat": 40.772794, "lon": -73.9164181, "tags": {"amenity": "restaurant", "name": "The Sparrow Tavern", "website": "https://thesparrowtavern.com/"}}, {"type": "node", "id": 2802664422, "lat": 40.771145, "lon": -73.9170834}, {"type": "node", "id": 2802664424, "lat": 40.7712475, "lon": -73.9175758}, {"type": "node", "id": 2802664425, "lat": 40.7713056, "lon": -73.9176575}, {"type": "node", "id": 2802664428, "lat": 40.7716826, "lon": -73.9178477}, {"type": "node", "id": 2846817353, "lat": 40.7676435, "lon": -73.9206227, "tags": {"addr:housenumber": "31-01", "addr:postcode": "11102", "addr:street": "Newtown Avenue", "amenity": "restaurant", "cuisine": "italian", "name": "Mela Pizza", "phone": "+1 718-777-5533"}}, {"type": "node", "id": 2846908965, "lat": 40.7702819, "lon": -73.9183969, "tags": {"addr:city": "Astoria", "addr:housenumber": "30-13", "addr:postcode": "11102", "addr:state": "NY", "addr:street": "Astoria Boulevard", "name": "Realty 2000", "office": "estate_agent"}}, {"type": "node", "id": 2853146584, "lat": 40.7725015, "lon": -73.9154488, "tags": {"addr:housenumber": "29-25", "addr:postcode": "11105", "addr:street": "24th Avenue", "office": "lawyer", "phone": "+1-718-204-2060"}}, {"type": "node", "id": 2853150191, "lat": 40.7729089, "lon": -73.9153878}, {"type": "node", "id": 2853150247, "lat": 40.7729962, "lon": -73.9155179}, {"type": "node", "id": 3020369579, "lat": 40.7700953, "lon": -73.9178281}, {"type": "node", "id": 3020369580, "lat": 40.7702273, "lon": -73.9176718}, {"type": "node", "id": 3020369581, "lat": 40.7700364, "lon": -73.9174042}, {"type": "node", "id": 3020369585, "lat": 40.7700083, "lon": -73.9174247}, {"type": "node", "id": 3024934132, "lat": 40.771388, "lon": -73.9167767}, {"type": "node", "id": 3024950333, "lat": 40.7711762, "lon": -73.9170437}, {"type": "node", "id": 3024950360, "lat": 40.7715825, "lon": -73.9165397}, {"type": "node", "id": 3024950361, "lat": 40.7718362, "lon": -73.9166987}, {"type": "node", "id": 3792695289, "lat": 40.7732657, "lon": -73.9159085}, {"type": "node", "id": 3792695291, "lat": 40.7727204, "lon": -73.9151192}, {"type": "node", "id": 3792695292, "lat": 40.7732193, "lon": -73.9145177}, {"type": "node", "id": 3792695296, "lat": 40.7730769, "lon": -73.9156349}, {"type": "node", "id": 3792695301, "lat": 40.7730222, "lon": -73.9155556}, {"type": "node", "id": 3792695304, "lat": 40.7740234, "lon": -73.914986}, {"type": "node", "id": 3792695306, "lat": 40.7738001, "lon": -73.9146612}, {"type": "node", "id": 3792695307, "lat": 40.7735491, "lon": -73.9149822}, {"type": "node", "id": 5111785602, "lat": 40.770352, "lon": -73.9186683, "tags": {"addr:housenumber": "30-05", "addr:street": "Astoria Boulevard", "amenity": "restaurant", "name": "Jimbo's"}}, {"type": "node", "id": 5111788798, "lat": 40.7702499, "lon": -73.9182902, "tags": {"addr:city": "Astoria", "addr:housenumber": "30-19", "addr:postcode": "11102", "addr:state": "NY", "addr:street": "Astoria Boulevard", "amenity": "cafe", "cuisine": "mexican", "name": "Veracruzano", "opening_hours": "Mo-Su 11:00-00:00", "phone": "+1 718-440-9150"}}, {"type": "node", "id": 5156168422, "lat": 40.7685396, "lon": -73.9212065, "tags": {"addr:housenumber": "29-37", "addr:street": "Newtown Avenue", "amenity": "restaurant", "cuisine": "greek", "name": "Koroni Souvlaki & Grill"}}, {"type": "node", "id": 5170130279, "lat": 40.7693293, "lon": -73.914814, "tags": {"addr:housenumber": "35-02", "addr:street": "Astoria Boulevard", "amenity": "cafe", "delivery": "yes", "name": "Lemonia Cafe", "phone": "+1-347-396-5669"}}, {"type": "node", "id": 5487142339, "lat": 40.770745, "lon": -73.9201255, "tags": {"addr:city": "Astoria", "addr:housenumber": "28-17", "addr:postcode": "11102", "addr:state": "NY", "addr:street": "Astoria Boulevard", "amenity": "restaurant", "cuisine": "pizza;italian", "name": "Basil Brick Oven Pizza", "phone": "+1-718-204-1205", "website": "https://www.basilbrickoven.com/"}}, {"type": "node", "id": 7801840745, "lat": 40.7722798, "lon": -73.9206498, "tags": {"addr:housenumber": "26-08", "amenity": "cafe", "name": "The Barn"}}, {"type": "node", "id": 8612091311, "lat": 40.7723033, "lon": -73.9157007, "tags": {"addr:city": "Astoria", "addr:housenumber": "24-02", "addr:postcode": "11102", "addr:street": "31st Street", "amenity": "restaurant", "cuisine": "greek;fish", "name": "Elias Corner", "outdoor_seating": "yes", "phone": "+1 718 932-1510"}}, {"type": "node", "id": 11829025830, "lat": 40.7729377, "lon": -73.9143042, "tags": {"addr:housenumber": "23-61", "addr:street": "31st Street", "amenity": "cafe", "name": "Eli\u2019s Cafe & Creperie"}}, {"type": "node", "id": 11829025831, "lat": 40.7727846, "lon": -73.9144932, "tags": {"addr:housenumber": "23-71", "addr:street": "31st Street", "name": "Our House", "office": "coworking", "website": "https://ourhousequeens.com"}}, {"type": "node", "id": 12037348894, "lat": 40.7679813, "lon": -73.9207799, "tags": {"amenity": "restaurant", "name": "Agenda"}}, {"type": "node", "id": 12469609076, "lat": 40.7707562, "lon": -73.9202395, "tags": {"addr:city": "Astoria", "addr:housenumber": "28-13", "addr:postcode": "11102", "addr:state": "NY", "addr:street": "Astoria Boulevard", "amenity": "cafe", "name": "Verse Cafe", "opening_hours": "Mo-Su 07:00-18:00", "outdoor_seating": "no"}}, {"type": "node", "id": 12469609077, "lat": 40.7706454, "lon": -73.9207206, "tags": {"addr:city": "Astoria", "addr:housenumber": "28-10", "addr:postcode": "11102", "addr:state": "NY", "addr:street": "Astoria Boulevard", "amenity": "restaurant", "cuisine": "greek", "name": "Anassa Taverna Astoria", "opening_hours": "Mo-Th 17:00-21:30", "phone": "+1-718-721-5050"}}, {"type": "node", "id": 12469659699, "lat": 40.7708021, "lon": -73.9213264, "tags": {"addr:city": "Astoria", "addr:housenumber": "27-02", "addr:postcode": "11102", "addr:state": "NY", "addr:street": "Astoria Boulevard", "amenity": "restaurant", "cuisine": "greek;gyros", "name": "BZ Grill", "opening_hours": "Mo-Su 11:00-22:00", "website": "https://bzgrillnyc.com"}}, {"type": "way", "id": 160754300, "nodes": [1728012261, 2802664425, 2802664424, 1728012245, 2802664422, 3024950333, 3024934132, 3024950360, 1728012262, 3024950361, 1728012264, 2802664428, 1728012261], "tags": {"ele": "10", "gnis:feature_id": "2352109", "leisure": "park", "name": "Hoyt Playground", "operator": "New York City Department of Parks and Recreation", "operator:short": "NYC Parks", "operator:type": "public", "operator:wikidata": "Q1894232", "website": "https://www.nycgovparks.org/parks/hoyt-playground/", "wikidata": "Q34836293"}}, {"type": "way", "id": 237845868, "nodes": [2457084037, 2457084038, 2457084039, 2457084040, 2457084037], "tags": {"leisure": "park", "name": "Triborough Bridge Playground E", "website": "https://www.nycgovparks.org/parks/triborough-bridge-playground-e"}}, {"type": "way", "id": 298133598, "nodes": [3020369585, 3020369579, 3020369580, 3020369581, 3020369585], "tags": {"alt_name": "Columbus Triangle", "ele": "10", "gnis:feature_id": "2080479", "leisure": "park", "name": "Columbus Square", "operator": "New York City Department of Parks and Recreation", "operator:short": "NYC Parks", "operator:type": "public", "operator:wikidata": "Q1894232", "website": "https://www.nycgovparks.org/parks/columbus-square/", "wikidata": "Q34819400"}}, {"type": "way", "id": 375930682, "nodes": [3792695291, 2853150191, 2853150247, 3792695301, 3792695296, 3792695289, 3792695304, 3792695306, 3792695307, 3792695292, 3792695291], "tags": {"addr:city": "Astoria", "addr:housenumber": "23-70", "addr:postcode": "11102", "addr:street": "31st Street", "amenity": "school", "check_date": "2024-04-18", "ele": "13", "gnis:feature_id": "961884", "name": "P.S. 85 - Judge Charles Vallone School"}}]}