{"version": 0.6, "generator": "Overpass API 0.7.62.8 e802775f", "osm3s": {"timestamp_osm_base": "2025-12-01T15:24:15Z", "copyright": "The data included in this document is from www.openstreetmap.org. The data is made available under ODbL."}, "elements": [{"type": "node", "id": 357650837, "lat": 40.7598662, "lon": -73.9750298, "tags": {"amenity": "school", "ele": "19", "gnis:feature_id": "2501238", "name": "Laboratory Institute of Merchandising"}}, {"type": "node", "id": 1240483946, "lat": 40.7601706, "lon": -73.9730036, "tags": {"addr:city": "New York", "addr:housenumber": "57", "addr:postcode": "10022", "addr:state": "NY", "addr:street": "East 54th Street", "amenity": "restaurant", "cuisine": "american", "name": "Bill's Townhouse", "opening_hours": "Mo-Fr 11:00-23:00; Sa 17:00-22:00", "phone": "+1 212-518-2727", "smoking": "no", "website": "http://www.billstownhouse.com"}}, {"type": "node", "id": 1290043792, "lat": 40.7580948, "lon": -73.9720223, "tags": {"addr:city": "New York", "addr:housenumber": "99", "addr:postcode": "10152", "addr:street": "East 52nd Street", "amenity": "restaurant", "cuisine": "new_american", "name": "Four Seasons", "start_date": "1959", "website": "https://www.fourseasonsrestaurant.com/", "wikidata": "Q7735035", "wikipedia": "en:Four Seasons Restaurant"}}, {"type": "node", "id": 1332514674, "lat": 40.757654, "lon": -73.9755231}, {"type": "node", "id": 1428427562, "lat": 40.7614213, "lon": -73.9738724, "tags": {"amenity": "cafe", "cuisine": "coffee_shop", "name": "Black Fox Coffee", "outdoor_seating": "only", "takeaway": "yes"}}, {"type": "node", "id": 1593915822, "lat": 40.7602665, "lon": -73.9732908}, {"type": "node", "id": 1593915823, "lat": 40.7603191, "lon": -73.9734156}, {"type": "node", "id": 1593915824, "lat": 40.7603891, "lon": -73.9735768}, {"type": "node", "id": 1593915826, "lat": 40.7604968, "lon": -73.9734953}, {"type": "node", "id": 1593915827, "lat": 40.7605571, "lon": -73.9730734}, {"type": "node", "id": 1593915828, "lat": 40.76068, "lon": -73.9733596}, {"type": "node", "id": 1711306741, "lat": 40.7581618, "lon": -73.9786165}, {"type": "node", "id": 1711306746, "lat": 40.7581915, "lon": -73.9786886}, {"type": "node", "id": 1711306747, "lat": 40.7578107, "lon": -73.9789672}, {"type": "node", "id": 1711306748, "lat": 40.757781, "lon": -73.9788963}, {"type": "node", "id": 1711332894, "lat": 40.7583205, "lon": -73.9777332}, {"type": "node", "id": 1711332900, "lat": 40.7583679, "lon": -73.9776981}, {"type": "node", "id": 1745856010, "lat": 40.7608045, "lon": -73.9786747}, {"type": "node", "id": 1745856081, "lat": 40.7614232, "lon": -73.9782277}, {"type": "node", "id": 2275805031, "lat": 40.7588928, "lon": -73.9738357, "tags": {"name": "BlackRock Headquarters", "office": "company"}}, {"type": "node", "id": 2275805032, "lat": 40.7577444, "lon": -73.9725088, "tags": {"addr:city": "New York", "addr:housenumber": "345", "addr:postcode": "10154", "addr:state": "NY", "addr:street": "Park Avenue", "company": "private equity", "name": "The Blackstone Group", "office": "company"}}, {"type": "node", "id": 2294802411, "lat": 40.7602221, "lon": -73.9750354, "tags": {"amenity": "cafe", "brand": "Le Pain Quotidien", "brand:wikidata": "Q2046903", "cuisine": "coffee_shop", "name": "Le Pain Quotidien", "takeaway": "yes"}}, {"type": "node", "id": 2294803403, "lat": 40.7601912, "lon": -73.9749707, "tags": {"addr:housenumber": "9", "addr:postcode": "10022", "addr:street": "East 53rd Street", "amenity": "restaurant", "cuisine": "burger", "name": "Burger Heaven", "website": "https://www.burgerheaven.com/"}}, {"type": "node", "id": 2696814833, "lat": 40.7602547, "lon": -73.9752257}, {"type": "node", "id": 2696814834, "lat": 40.7604887, "lon": -73.9750569}, {"type": "node", "id": 2696814835, "lat": 40.7604334, "lon": -73.9749239}, {"type": "node", "id": 2696814836, "lat": 40.7601987, "lon": -73.9750918}, {"type": "node", "id": 2708095649, "lat": 40.7616016, "lon": -73.9751953, "tags": {"addr:housenumber": "700", "addr:postcode": "10019", "addr:street": "5th Avenue", "amenity": "bar", "name": "Salon de Ning"}}, {"type": "node", "id": 2708095967, "lat": 40.7623925, "lon": -73.9755255}, {"type": "node", "id": 2708095986, "lat": 40.7624583, "lon": -73.975682}, {"type": "node", "id": 2708095989, "lat": 40.7624749, "lon": -73.9754656}, {"type": "node", "id": 2708095993, "lat": 40.7625855, "lon": -73.9753843}, {"type": "node", "id": 2708096023, "lat": 40.7625999, "lon": -73.9754213}, {"type": "node", "id": 2708096032, "lat": 40.7626507, "lon": -73.9755421}, {"type": "node", "id": 2716011967, "lat": 40.7613571, "lon": -73.9744256, "tags": {"addr:housenumber": "2", "addr:postcode": "10022", "addr:street": "East 55th Street", "amenity": "bar", "name": "King Cole Bar", "wikidata": "Q6411344"}}, {"type": "node", "id": 2716012023, "lat": 40.7579822, "lon": -73.9742003, "tags": {"addr:housenumber": "38", "addr:postcode": "10022", "addr:street": "East 51st Street", "amenity": "restaurant", "cuisine": "sushi", "name": "Sushiann"}}, {"type": "node", "id": 2716012047, "lat": 40.7583219, "lon": -73.9741196, "tags": {"addr:city": "New York", "addr:housenumber": "45", "addr:postcode": "10022", "addr:state": "NY", "addr:street": "East 51st Street", "amenity": "cafe", "branch": "53rd Inside Park Avenue Plaza", "brand": "Starbucks", "brand:wikidata": "Q37158", "check_date": "2020-01-10", "cuisine": "coffee_shop", "name": "Starbucks", "official_name": "Starbucks Coffee", "phone": "+1 347-708-5805", "takeaway": "yes", "website": "https://www.starbucks.com/store-locator/store/1010008/53rd-inside-park-ave-plaza-55-east-52nd-street-new-york-ny-100550002-us"}}, {"type": "node", "id": 2716012458, "lat": 40.7579811, "lon": -73.975666}, {"type": "node", "id": 2716012466, "lat": 40.7580651, "lon": -73.9758715}, {"type": "node", "id": 2716012474, "lat": 40.7581142, "lon": -73.9755719}, {"type": "node", "id": 2716012483, "lat": 40.7581982, "lon": -73.9757774}, {"type": "node", "id": 2716012846, "lat": 40.7604651, "lon": -73.9750745}, {"type": "node", "id": 2717543271, "lat": 40.7611533, "lon": -73.9779162, "tags": {"addr:housenumber": "40", "addr:postcode": "10019", "addr:street": "West 53rd Street", "amenity": "restaurant", "brand": "Fogo de Ch\u00e3o", "brand:wikidata": "Q5464133", "contact:facebook": "fogorestaurants", "contact:instagram": "fogo", "contact:twitter": "fogorestaurants", "cuisine": "brazilian;steak_house", "name": "Fogo de Ch\u00e3o", "opening_hours": "Mo-Th 23:30-22:30, Fr 11:30-23:00, Sa 11:30-23:00, Su 11:30-22:00", "phone": "+1 212 969 9980", "website": "https://fogodechao.com/location/new-york/", "wheelchair": "yes"}}, {"type": "node", "id": 2717545537, "lat": 40.757901, "lon": -73.9788059}, {"type": "node", "id": 2717545656, "lat": 40.7580028, "lon": -73.9787319}, {"type": "node", "id": 3054623864, "lat": 40.761316, "lon": -73.977408, "tags": {"name": "Cesar Pelli Architect", "office": "architect"}}, {"type": "node", "id": 3079037402, "lat": 40.7625321, "lon": -73.9772542, "tags": {"addr:city": "New York", "addr:housenumber": "60", "addr:postcode": "10019", "addr:state": "NY", "addr:street": "West 55th Street", "amenity": "restaurant", "cuisine": "french", "name": "Benoit", "website": "https://benoitny.com/"}}, {"type": "node", "id": 3079037403, "lat": 40.7626071, "lon": -73.9775243, "tags": {"addr:city": "New York", "addr:housenumber": "1350", "addr:postcode": "10019", "addr:state": "NY", "addr:street": "6th Avenue", "amenity": "restaurant", "cuisine": "italian", "name": "Bice", "website": "https://www.bicecucina.com/"}}, {"type": "node", "id": 3079037404, "lat": 40.7628066, "lon": -73.9773732, "tags": {"addr:city": "New York", "addr:housenumber": "65", "addr:postcode": "10019", "addr:street": "West 55th Street", "amenity": "pub", "name": "Cassidy\u2019s"}}, {"type": "node", "id": 3079037405, "lat": 40.762485, "lon": -73.9771512, "tags": {"addr:city": "New York", "addr:housenumber": "54", "addr:postcode": "10019", "addr:street": "West 55th Street", "amenity": "restaurant", "cuisine": "italian", "name": "Il Corso", "website": "https://www.ilcorsorestaurant.com/"}}, {"type": "node", "id": 3079068320, "lat": 40.7620862, "lon": -73.9775771, "tags": {"addr:city": "New York", "addr:housenumber": "43", "addr:postcode": "10019", "addr:state": "NY", "addr:street": "West 54th Street", "amenity": "pub", "name": "Connolly's", "website": "https://www.connollyspubandrestaurant.com/"}}, {"type": "node", "id": 3213784371, "lat": 40.7607818, "lon": -73.9721848, "tags": {"addr:city": "New York", "addr:housenumber": "65", "addr:postcode": "10022", "addr:state": "NY", "addr:street": "East 55th Street", "amenity": "restaurant", "cuisine": "scandinavian", "email": "info@aquavit.org", "name": "Aquavit", "opening_hours": "Mo-Fr 11:45-14:30, 17:30-22:00;Sa 17:30-22:00;Su off", "phone": "+1-212-307-7311", "reservation": "only", "stars": "2", "website": "http://www.aquavit.org", "wikidata": "Q7316081", "wikipedia": "en:Restaurant Aquavit"}}, {"type": "node", "id": 3447527994, "lat": 40.7591895, "lon": -73.9781127, "tags": {"amenity": "restaurant", "name": "Brasserie Ruhlman"}}, {"type": "node", "id": 3586089705, "lat": 40.7593743, "lon": -73.9775501, "tags": {"addr:city": "New York", "addr:housenumber": "16", "addr:street": "West 51st Street", "amenity": "restaurant", "cuisine": "burger", "name": "Bill's Bar & Burger", "phone": "+1 212-331-0328", "website": "https://www.billsbarandburger.com/"}}, {"type": "node", "id": 3976005755, "lat": 40.7607445, "lon": -73.978532}, {"type": "node", "id": 3976008162, "lat": 40.7613592, "lon": -73.9780752}, {"type": "node", "id": 3995212059, "lat": 40.7575093, "lon": -73.9764528, "tags": {"addr:city": "New York", "addr:housenumber": "19", "addr:postcode": "10022", "addr:street": "East 49th Street", "alt_name": "Sushiden Madison Ave", "amenity": "restaurant", "cuisine": "japanese", "name": "Sushiden", "website": "http://sushiden.com/"}}, {"type": "node", "id": 4140591018, "lat": 40.7610807, "lon": -73.9770877, "tags": {"addr:housenumber": "9", "addr:street": "West 53rd Street", "amenity": "restaurant", "check_date": "2025-04-29", "cuisine": "french", "email": "info@themodernnyc.com", "name": "The Modern - The Bar Room", "opening_hours": "11:30-21:30", "phone": "+1 212-333-1220", "website": "https://www.themodernnyc.com/"}}, {"type": "node", "id": 4316376191, "lat": 40.7627204, "lon": -73.9759478, "tags": {"addr:city": "New York", "addr:housenumber": "24", "addr:postcode": "10019", "addr:street": "West 56th Street", "amenity": "restaurant", "name": "Red Peony", "website": "https://www.redpeonyorder.com/"}}, {"type": "node", "id": 4470028190, "lat": 40.7624058, "lon": -73.9769664, "tags": {"amenity": "restaurant", "cuisine": "french", "name": "La Bonne Soupe", "website": "https://labonnenyc.com/"}}, {"type": "node", "id": 4686173789, "lat": 40.7619597, "lon": -73.9772624, "tags": {"amenity": "restaurant", "cuisine": "italian", "name": "Mozzarella & Vino", "opening_hours": "Mo-Su 11:30-22:00", "phone": "+1-646-629-8849", "website": "http://www.mozzarellaevino.com"}}, {"type": "node", "id": 4995849478, "lat": 40.7623579, "lon": -73.9739804, "tags": {"amenity": "bar", "check_date": "2022-12-17", "name": "Trump Bar"}}, {"type": "node", "id": 4995849479, "lat": 40.7623774, "lon": -73.9739888, "tags": {"addr:city": "New York", "addr:housenumber": "725", "addr:postcode": "10022", "addr:state": "NY", "addr:street": "5th Avenue", "amenity": "restaurant", "level": "-1", "name": "Trump Grill", "phone": "+12128363249", "website": "http://www.trumpgrill.com/"}}, {"type": "node", "id": 4995849481, "lat": 40.7624366, "lon": -73.9739908, "tags": {"addr:city": "New York", "addr:housenumber": "600", "addr:postcode": "10022", "addr:state": "NY", "addr:street": "Madison Avenue", "amenity": "cafe", "branch": "58th Btwn Madison & Fifth", "brand": "Starbucks", "brand:wikidata": "Q37158", "check_date": "2017-07-27", "cuisine": "coffee_shop", "level": "2", "name": "Starbucks", "official_name": "Starbucks Coffee", "phone": "+1 212-759-1569", "ref": "90579", "takeaway": "yes", "website": "https://www.starbucks.com/store-locator/store/90579/58th-btwn-madison-fifth-600-madison-avenue-new-york-ny-100221615-us"}}, {"type": "node", "id": 5019124421, "lat": 40.7584571, "lon": -73.9782662, "tags": {"amenity": "restaurant", "cuisine": "fish", "name": "The Sea Grill", "name:en": "The Sea Grill"}}, {"type": "node", "id": 5398699799, "lat": 40.761318, "lon": -73.9744256, "tags": {"addr:city": "New York", "addr:housenumber": "2", "addr:postcode": "10022", "addr:state": "NY", "addr:street": "East 55th Street", "amenity": "restaurant", "cuisine": "international;fine_dining", "delivery": "no", "name": "Astor Court", "phone": "+1-212-339-6857", "smoking": "no", "website": "http://www.stregisnewyork.com/astor-court-nyc"}}, {"type": "node", "id": 5726345621, "lat": 40.7596136, "lon": -73.9754488, "tags": {"addr:housenumber": "10", "addr:postcode": "10022", "addr:street": "East 53rd Street", "amenity": "cafe", "branch": "Midtown East", "brand": "Blue Bottle Coffee", "brand:en": "Blue Bottle Coffee", "brand:ja": "\u30d6\u30eb\u30fc\u30dc\u30c8\u30eb\u30b3\u30fc\u30d2\u30fc", "brand:wikidata": "Q4928917", "cuisine": "coffee_shop", "name": "Blue Bottle Coffee", "name:en": "Blue Bottle Coffee", "name:ja": "\u30d6\u30eb\u30fc\u30dc\u30c8\u30eb\u30b3\u30fc\u30d2\u30fc", "opening_hours": "Mo-Fr 07:00-19:00; Sa, Su 09:00-18:00; Jan 01 off; Nov Th[4] off; Dec 25 off", "takeaway": "yes", "website": "https://bluebottlecoffee.com/cafes/midtown-east"}}, {"type": "node", "id": 5918030057, "lat": 40.7596918, "lon": -73.978275, "tags": {"addr:city": "New York", "addr:housenumber": "45", "addr:postcode": "10111", "addr:state": "NY", "addr:street": "Rockefeller Plaza", "amenity": "restaurant", "cuisine": "seafood", "delivery": "yes", "email": "melissa@limani.com", "name": "Limani", "outdoor_seating": "no", "phone": "+1-212-858-9200", "website": "https://www.limani.com/"}}, {"type": "node", "id": 6166380688, "lat": 40.7586055, "lon": -73.9758973, "tags": {"addr:housenumber": "14", "addr:postcode": "10022", "addr:street": "East 51st Street", "check_date": "2024-03-07", "fax": "+1-212-755-4128", "name": "Saint Patrick\u2019s Cathedral Parish House", "name:hr": "Katedralna \u017eupa sv. Patrika", "office": "parish", "phone": "+1-212-753-2261"}}, {"type": "node", "id": 6201492297, "lat": 40.7627635, "lon": -73.9779699, "tags": {"addr:city": "New York", "addr:housenumber": "1350", "addr:postcode": "10019", "addr:state": "NY", "addr:street": "6th Avenue", "amenity": "cafe", "brand": "Joe & The Juice", "brand:wikidata": "Q26221514", "cuisine": "coffee_shop", "name": "Joe & The Juice", "outdoor_seating": "yes", "takeaway": "yes"}}, {"type": "node", "id": 6201492492, "lat": 40.7624567, "lon": -73.9783185, "tags": {"addr:city": "New York", "addr:housenumber": "65", "addr:postcode": "10019", "addr:state": "NY", "addr:street": "West 54th Street", "amenity": "bar", "name": "Randolph's Bar & Lounge", "website": "https://www.randolphsnewyork.com/"}}, {"type": "node", "id": 6334123626, "lat": 40.7608428, "lon": -73.9773161, "tags": {"addr:city": "New York", "addr:housenumber": "28", "addr:postcode": "10019", "addr:state": "NY", "addr:street": "West 53rd Street", "addr:unit": "Floor 2", "amenity": "bar", "name": "The Bar at Baccarat Hotel", "phone": "+1 212-790-8867", "website": "https://www.baccarathotels.com/dining/bar"}}, {"type": "node", "id": 6342212317, "lat": 40.7584777, "lon": -73.9721247, "tags": {"addr:city": "New York", "addr:housenumber": "98", "addr:postcode": "10022", "addr:state": "NY", "addr:street": "East 53rd Street", "amenity": "restaurant", "cuisine": "japanese;sushi;fine_dining", "name": "The Lobster Club", "opening_hours": "Mo-Fr 11:45-14:00 open \"Lunch\", Mo-Sa 17:00-22:00 \"Dinner\"", "phone": "+1-212-375-9001", "website": "https://thelobsterclub.com/"}}, {"type": "node", "id": 6371402485, "lat": 40.7615247, "lon": -73.9743066, "tags": {"addr:housenumber": "1", "addr:street": "East 55th Street", "amenity": "bar", "name": "The Polo Bar"}}, {"type": "node", "id": 6457357185, "lat": 40.76003, "lon": -73.9764733, "tags": {"addr:housenumber": "401", "addr:street": "West 52nd Street", "amenity": "restaurant", "name": "Casellula"}}, {"type": "node", "id": 6538393285, "lat": 40.7588799, "lon": -73.9749741, "tags": {"addr:housenumber": "488", "addr:street": "Madison Avenue", "amenity": "restaurant", "cuisine": "lebanese", "name": "NAYA Express"}}, {"type": "node", "id": 6575702086, "lat": 40.7627483, "lon": -73.9738435, "tags": {"addr:housenumber": "727", "addr:street": "5th Avenue", "amenity": "cafe", "name": "Blue Box Cafe - Tiffany"}}, {"type": "node", "id": 6635017885, "lat": 40.7581131, "lon": -73.974725, "tags": {"addr:housenumber": "30", "addr:street": "East 51st Street", "amenity": "cafe", "name": "Pomme Palais Bakery and Coffee", "opening_hours": "Mo-Fr 06:30-18:00; Sa-Su 06:30-17:00"}}, {"type": "node", "id": 6661172569, "lat": 40.7588263, "lon": -73.9745247, "tags": {"addr:city": "New York", "addr:housenumber": "55", "addr:postcode": "10022", "addr:state": "NY", "addr:street": "East 52nd Street", "brand": "McKinsey & Company", "brand:wikidata": "Q310207", "name": "McKinsey & Company", "office": "consulting", "phone": "+1 212-446-7000", "website": "https://www.mckinsey.com/northeast/new-york"}}, {"type": "node", "id": 6814895869, "lat": 40.7584631, "lon": -73.9780711}, {"type": "node", "id": 6814895875, "lat": 40.7585715, "lon": -73.9781797}, {"type": "node", "id": 6814895876, "lat": 40.7585238, "lon": -73.9782148}, {"type": "node", "id": 6814895881, "lat": 40.7583907, "lon": -73.9777517}, {"type": "node", "id": 6814895882, "lat": 40.7583423, "lon": -73.9777848}, {"type": "node", "id": 6814895884, "lat": 40.7583446, "lon": -73.9777906}, {"type": "node", "id": 6814933386, "lat": 40.7583355, "lon": -73.9777221}, {"type": "node", "id": 6814933387, "lat": 40.7583251, "lon": -73.9777298}, {"type": "node", "id": 6814933389, "lat": 40.7583635, "lon": -73.9777013}, {"type": "node", "id": 6814933390, "lat": 40.7583527, "lon": -73.9777093}, {"type": "node", "id": 7056667924, "lat": 40.7623853, "lon": -73.9777742, "tags": {"addr:city": "New York", "addr:housenumber": "1350", "addr:postcode": "10019", "addr:state": "NY", "addr:street": "Avenue of the Americas", "brand": "KPMG", "brand:wikidata": "Q493751", "consulting": "accounting", "loc_name": "KPMG 1350", "name": "KPMG", "office": "consulting"}}, {"type": "node", "id": 7134303414, "lat": 40.7618661, "lon": -73.9730709, "tags": {"amenity": "cafe"}}, {"type": "node", "id": 7570844498, "lat": 40.7576317, "lon": -73.9783609, "tags": {"addr:housenumber": "600", "addr:street": "5th Avenue", "brand:wikidata": "Q3259355", "name": "Loral Space & Communications", "office": "company"}}, {"type": "node", "id": 7925848698, "lat": 40.7580409, "lon": -73.9756237, "tags": {"country": "VA", "flag:name": "Holy See", "flag:type": "religious", "flag:wikidata": "Q79198", "man_made": "flagpole", "subject": "Holy See", "subject:wikidata": "Q159583", "support": "wall_mounted"}}, {"type": "node", "id": 8039368243, "lat": 40.7605338, "lon": -73.9728435, "tags": {"addr:city": "New York", "addr:housenumber": "410", "addr:street": "Park Avenue", "name": "Armada Boost", "office": "it", "opening_hours": "24/7", "website": "https://armadaboost.com/"}}, {"type": "node", "id": 8333740819, "lat": 40.7627413, "lon": -73.9716949, "tags": {"amenity": "restaurant", "check_date": "2025-06-05", "name": "Serafina Osteria"}}, {"type": "node", "id": 8570222965, "lat": 40.7613284, "lon": -73.972868, "tags": {"addr:city": "New York", "addr:housenumber": "555", "addr:postcode": "10022", "addr:state": "NY", "addr:street": "Madison Avenue", "email": "media@itsvit.com", "name": "IT Svit", "office": "it", "phone": "+1-929-999-1965", "website": "https://itsvit.com"}}, {"type": "node", "id": 8570732686, "lat": 40.7611695, "lon": -73.9722581, "tags": {"addr:city": "New York", "addr:housenumber": "430", "addr:postcode": "10022", "addr:state": "NY", "addr:street": "Park Avenue", "email": "info@goldenwebmedia.com", "name": "Golden Web Media", "office": "advertising_agency", "opening_hours": "Mo-Su 08:00-22:00", "phone": "+1-201-800-4692", "website": "https://www.goldenwebmedia.com/"}}, {"type": "node", "id": 9234647629, "lat": 40.7585152, "lon": -73.9746069, "tags": {"addr:city": "New York", "addr:housenumber": "477", "addr:postcode": "10022", "addr:state": "NY", "addr:street": "Madison Avenue", "addr:unit": "6th Floor", "email": "info@commit.us", "fax": "+1-646-673-8665", "name": "Commit USA, INC", "office": "it", "phone": "+1-713-623-6938", "website": "https://www.commit.us/"}}, {"type": "node", "id": 9318757129, "lat": 40.757714, "lon": -73.9724399, "tags": {"addr:city": "New York", "addr:housenumber": "345", "addr:postcode": "10154", "addr:state": "NY", "addr:street": "Park Avenue", "brand": "KPMG", "brand:wikidata": "Q493751", "name": "KPMG", "office": "consulting"}}, {"type": "node", "id": 9776227090, "lat": 40.7602607, "lon": -73.9744133, "tags": {"addr:city": "New York", "addr:housenumber": "18", "addr:postcode": "10022", "addr:state": "NY", "addr:street": "East 54th Street", "amenity": "restaurant", "cuisine": "italian", "name": "San Pietro Restaurant", "opening_hours": "Mo-Fr 12:00-15:00,17:00-22:30; Sa 12:00-22:00; Su off", "outdoor_seating": "yes", "payment:cash": "yes", "payment:credit_cards": "yes", "phone": "+1-212-753-9015", "reservation": "yes", "website": "https://sanpietroristorantenyc.com"}}, {"type": "node", "id": 10173210352, "lat": 40.7608644, "lon": -73.9786314}, {"type": "node", "id": 10215147555, "lat": 40.7613084, "lon": -73.9785249, "tags": {"amenity": "restaurant", "cuisine": "steak_house", "name": "Nusr Et"}}, {"type": "node", "id": 10215152666, "lat": 40.7606653, "lon": -73.9786542, "tags": {"addr:city": "New York", "addr:housenumber": "1290", "addr:postcode": "10104", "addr:state": "NY", "addr:street": "6th Avenue", "amenity": "cafe", "branch": "52nd Btwn Fifth & Sixth", "brand": "Starbucks", "brand:wikidata": "Q37158", "cuisine": "coffee_shop", "name": "Starbucks", "official_name": "Starbucks Coffee", "opening_hours": "Mo-Fr 05:30-19:00; Sa-Su 07:00-19:00", "phone": "+1 212-977-4861", "ref": "88886", "takeaway": "yes", "website": "https://www.starbucks.com/store-locator/store/88886/52nd-btwn-fifth-sixth-1290-sixth-avenue-new-york-ny-101040101-us"}}, {"type": "node", "id": 10271506764, "lat": 40.7576327, "lon": -73.97844, "tags": {"addr:city": "New York", "addr:housenumber": "600", "addr:postcode": "10020", "addr:state": "NY", "addr:street": "5th Avenue", "addr:unit": "1", "level": "1", "name": "Luxoft", "office": "it", "phone": "+1 212 964 9900", "website": "https://www.luxoft.com"}}, {"type": "node", "id": 10963937800, "lat": 40.7602758, "lon": -73.9750518}, {"type": "node", "id": 10963937801, "lat": 40.7602435, "lon": -73.9750738}, {"type": "node", "id": 10963937802, "lat": 40.7602536, "lon": -73.9750997}, {"type": "node", "id": 10963937803, "lat": 40.7602859, "lon": -73.9750778}, {"type": "node", "id": 11091932105, "lat": 40.7596903, "lon": -73.9730149, "tags": {"addr:postcode": "10022", "amenity": "restaurant", "cuisine": "italian", "email": "Info@casalever.com", "name": "Casa Lever", "opening_hours": "Mo-Fr 10:30-13:00,14:00-24:00", "phone": "+1 212 888-2700", "website": "https://www.casalever.com"}}, {"type": "node", "id": 11112139705, "lat": 40.7602575, "lon": -73.9750532, "tags": {"addr:city": "New York", "addr:housenumber": "3", "addr:postcode": "10022", "addr:state": "NY", "addr:street": "East 53rd Street", "amenity": "restaurant", "name": "The Lunch Box", "phone": "+1-646-410-0056"}}, {"type": "node", "id": 11140969226, "lat": 40.7603277, "lon": -73.9745726, "tags": {"addr:city": "New York", "addr:housenumber": "520", "addr:postcode": "10022", "addr:state": "NY", "addr:street": "Madison Avenue", "email": "ir@leucadia-am.com", "name": "Leucadia Asset Management", "office": "property_management", "phone": "+1-212-284-2300", "website": "https://leucadia-am.com/"}}, {"type": "node", "id": 11157819678, "lat": 40.7578118, "lon": -73.9758282, "tags": {"addr:city": "New York", "addr:housenumber": "444", "addr:postcode": "10022", "addr:state": "NY", "addr:street": "Madison", "amenity": "cafe", "branch": "50th & Madison", "brand": "Starbucks", "brand:wikidata": "Q37158", "check_date": "2024-03-07", "cuisine": "coffee_shop", "name": "Starbucks", "official_name": "Starbucks Coffee", "phone": "+1 212-644-9462", "ref": "1033603", "takeaway": "yes", "website": "https://www.starbucks.com/store-locator/store/1033603/50th-madison-444-madison-new-york-ny-100226903-us"}}, {"type": "node", "id": 11296226862, "lat": 40.761374, "lon": -73.9782633}, {"type": "node", "id": 11380320190, "lat": 40.7574667, "lon": -73.9750761}, {"type": "node", "id": 11380320191, "lat": 40.7577084, "lon": -73.9754828}, {"type": "node", "id": 11380320192, "lat": 40.7575198, "lon": -73.975037}, {"type": "node", "id": 11459817506, "lat": 40.7592013, "lon": -73.9760506, "tags": {"addr:housenumber": "645", "addr:street": "5th Avenue", "level:ref": "14-20", "name": "NBA", "office": "company", "wikidata": "Q155223"}}, {"type": "node", "id": 11717251415, "lat": 40.7600534, "lon": -73.9727312, "tags": {"amenity": "restaurant", "cuisine": "italian", "name": "Cellini"}}, {"type": "node", "id": 11717251435, "lat": 40.7602001, "lon": -73.9730757, "tags": {"amenity": "restaurant", "cuisine": "greek", "name": "Nerai"}}, {"type": "node", "id": 12070476839, "lat": 40.7625761, "lon": -73.9756396, "tags": {"amenity": "restaurant", "cuisine": "italian", "name": "Il Tinello Ristorante"}}, {"type": "node", "id": 12070492977, "lat": 40.7627231, "lon": -73.9760278, "tags": {"amenity": "restaurant", "cuisine": "chinese", "name": "Dim Sum Palace"}}, {"type": "node", "id": 12548048547, "lat": 40.7588353, "lon": -73.9735624, "tags": {"amenity": "cafe", "brand": "Starbucks", "brand:wikidata": "Q37158", "cuisine": "coffee_shop", "name": "Starbucks", "official_name": "Starbucks Coffee", "takeaway": "yes"}}, {"type": "node", "id": 12812420201, "lat": 40.7624275, "lon": -73.9770156, "tags": {"addr:housenumber": "50", "addr:postcode": "10019", "addr:street": "West 55th Street", "amenity": "restaurant", "cuisine": "japanese", "name": "Kiku", "opening_hours": "Mo-Fr 11:00-22:00; Sa-Su 12:00-22:00", "phone": "+12125828357", "website:menu": "https://qmenu.us/#/kiku-new-york"}}, {"type": "node", "id": 12996543401, "lat": 40.7616056, "lon": -73.9764095, "tags": {"addr:housenumber": "15", "addr:street": "West 54th Street", "amenity": "restaurant", "cuisine": "fine_dining;italian", "name": "Il Gattopardo", "opening_hours": "Mo-Fr 12:00-15:00, 17:00-23:00; Sa 11:30-15:00, 17:00-23:00; Su 11:30-15:00, 17:00-22:00", "phone": "+1-212-246-0412", "website": "https://ilgattopardonyc.com/"}}, {"type": "node", "id": 13019781379, "lat": 40.7595812, "lon": -73.9735929, "tags": {"amenity": "cafe", "brand:wikidata": "Q37158", "cuisine": "coffee_shop", "name": "Starbucks", "official_name": "Starbucks Coffee", "opening_hours": "Mo-Tu 17:00-21:00, We-Fr 17:00-20:00, Sa-Su 07:00-17:30", "phone": "+1-212-371-3758", "takeaway": "yes"}}, {"type": "node", "id": 13019781381, "lat": 40.760725, "lon": -73.9737351, "tags": {"addr:housenumber": "538", "addr:postcode": "10022", "addr:street": "Madison Avenue", "amenity": "restaurant", "bar": "yes", "cocktails": "yes", "cuisine": "seafood", "drink:liquor": "yes", "drink:wine": "yes", "name": "Caviar Russe", "opening_hours": "Mo-Sa 12:00-21:00, Su 12:00-16:00", "phone": "+1-212-980-5908", "website": "https://caviarrusse.com/pages/new-york-about"}}, {"type": "node", "id": 13062628801, "lat": 40.761296, "lon": -73.9724022, "tags": {"addr:housenumber": "58", "addr:postcode": "10022", "addr:street": "East 56th Street", "amenity": "restaurant", "contact:instagram": "ilmulinonyc", "cuisine": "italian", "name": "Il Mulino", "opening_hours": "Mo-Sa 11:30-23:00", "phone": "+1-212-750-3270", "website": "https://www.imny.com/location/madison", "website:menu": "https://www.imny.com/location/madison/#menus"}}, {"type": "node", "id": 13294811814, "lat": 40.7608743, "lon": -73.9774286, "tags": {"addr:city": "New York", "addr:housenumber": "28", "addr:postcode": "10019", "addr:state": "NY", "addr:street": "West 53rd Street", "addr:unit": "Floor 2", "amenity": "restaurant", "cuisine": "fine_dining;breakfast;tea;seafood", "name": "Grand Salon at Baccarat Hotel", "phone": "+1 212-790-8867", "website": "https://www.baccarathotels.com/dining/grand-salon"}}, {"type": "way", "id": 146109229, "nodes": [1593915822, 1593915823, 1593915824, 1593915826, 1593915828, 1593915827, 1593915822], "tags": {"addr:city": "New York", "addr:housenumber": "535", "addr:postcode": "10022", "addr:street": "Madison Avenue", "building": "yes", "building:colour": "#828E8C", "building:part": "yes", "height": "110", "name": "Dillon, Read & Company Building", "nycdoitt:bin": "1035747", "office": "company", "roof:material": "concrete", "roof:shape": "flat", "start_date": "1982", "website": "https://www.535mad.com/"}}, {"type": "way", "id": 159028631, "nodes": [6814895875, 6814895876, 6814895869, 6814895884, 6814895882, 1711332894, 6814933387, 6814933386, 6814933390, 6814933389, 1711332900, 6814895881, 6814895875], "tags": {"ele": "21", "gnis:feature_id": "2083265", "leisure": "park", "name": "Channel Gardens", "wikidata": "Q34816322"}}, {"type": "way", "id": 264003876, "nodes": [2696814833, 2716012846, 2696814834, 2696814835, 2696814836, 2696814833], "tags": {"addr:city": "New York", "addr:country": "US", "addr:housenumber": "3", "addr:postcode": "10022", "addr:state": "NY", "addr:street": "East 53rd Street", "ele": "20", "gnis:feature_id": "2083278", "leisure": "park", "name": "Paley Park", "name:es": "Parque Paley", "name:ja": "\u30da\u30a4\u30ea\u30fc\u30d1\u30fc\u30af", "start_date": "1967", "wikidata": "Q5951152", "wikipedia": "en:Paley Park"}}, {"type": "way", "id": 265149196, "nodes": [2708095967, 2708095986, 2708096032, 2708096023, 2708095993, 2708095989, 2708095967], "tags": {"addr:housenumber": "12", "addr:postcode": "10019", "addr:street": "West 56th Street", "building": "yes", "consulate": "consulate_general", "country": "AR", "diplomatic": "consulate", "height": "22.7", "name": "Consulate General Argentina", "name:en": "Consulate General Argentina", "name:es": "Consulado General de la Rep\u00fablica Argentina", "name:fr": "Consulat g\u00e9n\u00e9ral d'Argentine", "nycdoitt:bin": "1034835", "office": "diplomatic", "opening_hours": "Mo-Fr 09:00-13:00,14:00-17:00", "wikidata": "Q107053861", "wikipedia": "en:12 West 56th Street"}}, {"type": "way", "id": 266010321, "nodes": [2716012458, 2716012466, 2716012483, 2716012474, 7925848698, 2716012458], "tags": {"addr:housenumber": "452", "addr:postcode": "10022", "addr:street": "Madison Avenue", "building": "shed", "check_date": "2024-03-07", "height": "20.3", "name": "Saint Patrick\u2019s Rectory", "name:hr": "Rektorat sv. Patrika", "nycdoitt:bin": "1082595", "office": "rectory"}}, {"type": "way", "id": 267018744, "nodes": [1711306746, 1711306747, 1711306748, 2717545537, 2717545656, 1711306741, 1711306746], "tags": {"addr:city": "New York", "addr:housenumber": "600", "addr:postcode": "10020", "addr:state": "NY", "addr:street": "5th Avenue", "addr:unit": "1201", "building": "yes", "building:colour": "#CAC3A9", "building:levels": "31", "height": "138", "name": "CS DISCO Inc.", "office": "company", "roof:colour": "#956C66", "roof:material": "concrete", "roof:shape": "flat", "website": "https://csdisco.com/"}}, {"type": "way", "id": 468472672, "nodes": [1745856081, 3976008162, 3976005755, 1745856010, 10173210352, 11296226862, 1745856081], "tags": {"leisure": "park"}}, {"type": "way", "id": 1180497242, "nodes": [10963937800, 10963937801, 10963937802, 10963937803, 10963937800], "tags": {"amenity": "cafe", "building": "yes"}}, {"type": "way", "id": 1227227869, "nodes": [11380320191, 11380320192, 11380320190, 1332514674, 11380320191], "tags": {"access": "permissive", "leisure": "park", "name": "437 Madison Avenue - POPS", "opening_hours": "24/7"}}]}