{"version": 0.6, "generator": "Overpass API 0.7.62.8 e802775f", "osm3s": {"timestamp_osm_base": "2025-12-01T17:37:27Z", "copyright": "The data included in this document is from www.openstreetmap.org. The data is made available under ODbL."}, "elements": [{"type": "node", "id": 357625374, "lat": 40.6467695, "lon": -74.0119449, "tags": {"fax": "+1-718-492-4143", "name": "Gavidia Brothers", "office": "tax_advisor", "phone": "+1-718-492-9600", "service:notary": "yes"}}, {"type": "node", "id": 1625675743, "lat": 40.6459454, "lon": -74.0024644}, {"type": "node", "id": 1625675744, "lat": 40.6484664, "lon": -74.0066374}, {"type": "node", "id": 2561747026, "lat": 40.6511108, "lon": -74.011462, "tags": {"addr:housenumber": "4402", "addr:postcode": "11220", "addr:street": "3rd Avenue", "amenity": "bar", "name": "El Tahur"}}, {"type": "node", "id": 2561756579, "lat": 40.6490576, "lon": -74.0110053}, {"type": "node", "id": 2561757614, "lat": 40.6485603, "lon": -74.0111772}, {"type": "node", "id": 2561757663, "lat": 40.6486311, "lon": -74.0114473}, {"type": "node", "id": 2561757709, "lat": 40.6486878, "lon": -74.0113882}, {"type": "node", "id": 2561757739, "lat": 40.6487163, "lon": -74.0110148}, {"type": "node", "id": 2561757747, "lat": 40.6487356, "lon": -74.0110467}, {"type": "node", "id": 2561757773, "lat": 40.6488006, "lon": -74.0113502}, {"type": "node", "id": 2561757789, "lat": 40.6488476, "lon": -74.0118054}, {"type": "node", "id": 2561757802, "lat": 40.6489254, "lon": -74.0115536}, {"type": "node", "id": 2561757804, "lat": 40.6489269, "lon": -74.0112165}, {"type": "node", "id": 2561757806, "lat": 40.6489485, "lon": -74.0108248}, {"type": "node", "id": 2561757814, "lat": 40.6490446, "lon": -74.0110188}, {"type": "node", "id": 2561757818, "lat": 40.6490518, "lon": -74.0114199}, {"type": "node", "id": 2561757835, "lat": 40.6492602, "lon": -74.0113756}, {"type": "node", "id": 2561767489, "lat": 40.6471771, "lon": -74.0079515, "tags": {"addr:housenumber": "4601", "addr:postcode": "11220", "addr:street": "5th Avenue", "amenity": "restaurant", "cuisine": "colombian", "drink:coffee": "yes", "name": "Sabor de Columbia", "opening_hours": "Mo-Su 07:00-21:00", "phone": "+1-718-576-3401", "website": "https://www.colombianrestaurantbrooklyn.com"}}, {"type": "node", "id": 2561767493, "lat": 40.6467971, "lon": -74.0083465, "tags": {"addr:housenumber": "4623", "addr:postcode": "11220", "addr:street": "5th Avenue", "name": "PL$", "office": "financial", "opening_hours": "24/7"}}, {"type": "node", "id": 2561792451, "lat": 40.6490646, "lon": -74.0095749, "tags": {"addr:housenumber": "4501", "addr:postcode": "11220", "addr:street": "4th Avenue", "amenity": "cafe", "drink:coffee": "yes", "drink:tea": "yes", "name": "Hua Hui Bakery", "opening_hours": "Mo-Sa 06:30-18:00; Su 07:00-17:00", "phone": "+1-718-853-5165", "shop": "pastry"}}, {"type": "node", "id": 2561792657, "lat": 40.6470062, "lon": -74.0085197}, {"type": "node", "id": 2561792670, "lat": 40.6470396, "lon": -74.0084851}, {"type": "node", "id": 2561792728, "lat": 40.6473588, "lon": -74.0077667, "tags": {"addr:housenumber": "4523", "addr:postcode": "11220", "addr:street": "5th Avenue", "amenity": "restaurant", "cuisine": "latin_american", "delivery": "yes", "name": "Rico Pollo III", "phone": "+1-718-686-0078", "takeaway": "yes", "website": "https://ricopollo3.business.site"}}, {"type": "node", "id": 2561792731, "lat": 40.6471788, "lon": -74.0088074}, {"type": "node", "id": 2561792739, "lat": 40.6472002, "lon": -74.0087538}, {"type": "node", "id": 2561792742, "lat": 40.6472047, "lon": -74.0087807}, {"type": "node", "id": 2561792745, "lat": 40.6472121, "lon": -74.008773}, {"type": "node", "id": 2561793475, "lat": 40.6485142, "lon": -74.009718}, {"type": "node", "id": 2561793478, "lat": 40.6485293, "lon": -74.0097581}, {"type": "node", "id": 2561793479, "lat": 40.6485292, "lon": -74.0097438}, {"type": "node", "id": 2561793480, "lat": 40.6485376, "lon": -74.0097722}, {"type": "node", "id": 2561793488, "lat": 40.6485513, "lon": -74.0097817}, {"type": "node", "id": 2561793496, "lat": 40.6485901, "lon": -74.0097424}, {"type": "node", "id": 2561793506, "lat": 40.6486221, "lon": -74.0096087}, {"type": "node", "id": 2561793518, "lat": 40.6486592, "lon": -74.0096724}, {"type": "node", "id": 2561887725, "lat": 40.6500425, "lon": -74.0091831, "tags": {"addr:housenumber": "4324", "addr:postcode": "11232", "addr:street": "4th Avenue", "amenity": "restaurant", "cuisine": "mexican", "delivery": "yes", "name": "Tacos El Bronco", "outdoor_seating": "sidewalk;street", "phone": "+1-718-788-2229", "takeaway": "yes"}}, {"type": "node", "id": 2700280649, "lat": 40.6474879, "lon": -74.0008616}, {"type": "node", "id": 2700280650, "lat": 40.650006, "lon": -74.0050361}, {"type": "node", "id": 3781635973, "lat": 40.6485039, "lon": -74.011235}, {"type": "node", "id": 5345659608, "lat": 40.6493295, "lon": -74.0092808, "tags": {"government": "legislator", "name": "NYC Councilmember Alexa Avil\u00e9s", "office": "government", "operator": "Alexa Avil\u00e9s", "operator:wikidata": "Q109352000", "phone": "+1-718-439-9012"}}, {"type": "node", "id": 5574466297, "lat": 40.6502062, "lon": -74.0090038, "tags": {"amenity": "restaurant", "bar": "yes", "cocktails": "yes", "cuisine": "mexican;international", "delivery": "yes", "drink:beer": "draught", "drink:coffee": "yes", "drink:espresso": "yes", "drink:liquor": "yes", "drink:tea": "yes", "drink:wine": "yes", "name": "Zona Sur", "opening_hours": "Mo-Th 12:00-22:00; Fr 12:00-23:00; Sa 11:00-23:00; Su 11:00-22:00", "phone": "+1-718-788-1606", "takeaway": "yes", "toilets": "yes", "toilets:unisex": "yes", "website": "https://www.cafezonasur.com"}}, {"type": "node", "id": 5574466300, "lat": 40.651416, "lon": -74.0077637, "tags": {"amenity": "cafe", "cuisine": "breakfast;sandwich;coffee_shop", "drink:coffee": "yes", "drink:espresso": "yes", "drink:tea": "yes", "name": "Slim\u0101k", "opening_hours": "Mo-Fr 07:00-16:00; Sa-Su 08:00-16:00", "phone": "+1-718-689-3332", "website": "https://slimakbrooklyn.com"}}, {"type": "node", "id": 5942824485, "lat": 40.6479159, "lon": -74.010668, "tags": {"addr:city": "Brooklyn", "addr:housenumber": "4701", "addr:postcode": "11220", "addr:state": "NY", "addr:street": "4th Avenue", "addr:unit": "#B", "name": "Leeder & Leeder Inc.", "office": "insurance", "phone": "+1-347-318-0470", "website": "https://www.varelatravel.com/leeder-and-leeder.php"}}, {"type": "node", "id": 5943185021, "lat": 40.6479451, "lon": -74.0107158, "tags": {"addr:housenumber": "4701", "addr:postcode": "11220", "addr:street": "4th Avenue", "fax": "+1-718-439-5687", "name": "Varela Travel", "office": "travel_agent", "phone": "+1-718-439-9191", "website": "https://www.varelatravel.com/"}}, {"type": "node", "id": 5970881925, "lat": 40.6477924, "lon": -74.0077427, "tags": {"addr:housenumber": "4508", "addr:street": "5th Avenue", "amenity": "restaurant", "cuisine": "mexican", "name": "Tacos Matamoras", "phone": "+1-718-871-7627"}}, {"type": "node", "id": 7127154010, "lat": 40.6496912, "lon": -74.0095524, "tags": {"amenity": "restaurant", "cuisine": "mexican;breakfast", "delivery": "yes", "diet:vegetarian": "yes", "drink:beer": "yes", "drink:coffee": "yes", "drink:tea": "yes", "name": "Isabela's", "opening_hours": "Mo-Su 06:00-01:00", "phone": "+1-718-832-6715", "takeaway": "yes"}}, {"type": "node", "id": 8592787178, "lat": 40.6482459, "lon": -74.0072688, "tags": {"amenity": "money_transfer", "mobile_phone:sales": "yes", "name": "World Wide Multi Services Furniture", "office": "multiservice", "phone": "+1-718-809-5783", "shop": "furniture"}}, {"type": "node", "id": 9501848861, "lat": 40.6475, "lon": -74.0076194, "tags": {"amenity": "restaurant", "bar": "yes", "cocktails": "yes", "cuisine": "seafood;mexican", "delivery": "yes", "drink:beer": "yes", "drink:coffee": "yes", "drink:liquor": "yes", "name": "El Rey de Pescado", "name:en": "The King of Fish", "name:es": "El Rey de Pescado", "opening_hours": "Mo-We 17:00-01:00, Th 17:00-02:00, Fr 17:00-04:00, Sa 12:00-04:00, Su 12:00-24:00", "outdoor_seating": "garden", "phone": "+1-347-227-8015", "takeaway": "yes", "website": "https://www.thekingoffish.net"}}, {"type": "node", "id": 9537798312, "lat": 40.6483278, "lon": -74.0071928, "tags": {"name": "Delgado Travel", "office": "travel_agent", "phone": "+1-718-972-6700"}}, {"type": "node", "id": 9554517682, "lat": 40.6476374, "lon": -74.0080725, "tags": {"name": "Ross & Asmar Attorneys At Law", "office": "lawyer", "phone": "+1-718-349-1555", "website": "https://www.rossasmar.com"}}, {"type": "node", "id": 9554517683, "lat": 40.6476692, "lon": -74.0081249, "tags": {"name": "Ortiz Law Firm", "office": "lawyer", "phone": "+1-516-214-6610"}}, {"type": "node", "id": 9554517684, "lat": 40.6476057, "lon": -74.00802, "tags": {"disused:website": "http://www.nytaxtime.com", "name": "NY Tax Time", "office": "accountant", "operator": "Pablo Baez", "phone": "+1-718-853-4444", "service:notary": "yes"}}, {"type": "node", "id": 9752798364, "lat": 40.6479904, "lon": -74.0071125, "tags": {"addr:city": "Brooklyn", "addr:housenumber": "4421", "addr:postcode": "11220", "addr:state": "NY", "addr:street": "5th Avenue", "alt_name": "All City Insurance Services", "brand": "Nationwide", "brand:wikidata": "Q6979886", "name": "Nationwide", "office": "insurance", "service:notary": "yes"}}, {"type": "node", "id": 9752798369, "lat": 40.6481733, "lon": -74.0069185, "tags": {"alt_name": "Mega Sunset Park Car Service", "amenity": "taxi", "name": "Mega Sunset Car Service", "office": "taxi", "old_name": "Sunset Park Car Service", "phone": "+1-718-438-6262"}}, {"type": "node", "id": 9752798370, "lat": 40.6476387, "lon": -74.0071666, "tags": {"addr:housenumber": "512", "addr:postcode": "11220", "addr:street": "45th Street", "amenity": "restaurant"}}, {"type": "node", "id": 9773740472, "lat": 40.6504344, "lon": -74.0128426, "tags": {"name": "Secure Door and Hardware", "office": "company", "short_name": "SDH"}}, {"type": "node", "id": 9773740473, "lat": 40.6505074, "lon": -74.0129687, "tags": {"name": "Frontline Safety NY", "office": "company", "phone": "+1-917-909-1777", "short_name": "FSNY", "website": "https://www.fsny.nyc"}}, {"type": "node", "id": 9787132471, "lat": 40.6508486, "lon": -74.0117396, "tags": {"amenity": "cafe", "cuisine": "breakfast;sandwich;mexican", "drink:coffee": "yes", "name": "C-Xique Cafe", "opening_hours": "Mo-Fr 6:00-18:00; Sa 7:00-16:00; Su 08:00-14:00"}}, {"type": "node", "id": 9917646829, "lat": 40.6470695, "lon": -74.0084814, "tags": {"amenity": "restaurant", "cuisine": "mexican", "delivery": "yes", "name": "El Rancho Grande", "phone": "+1-718-439-1661", "takeaway": "yes"}}, {"type": "node", "id": 10163808180, "lat": 40.6468403, "lon": -74.0124973, "tags": {"name": "Guzman Business Services", "office": "tax_advisor", "phone": "+1-718-788-0608", "website": "https://www.guzmanbs.com"}}, {"type": "node", "id": 10198298532, "lat": 40.6493711, "lon": -74.0092386, "tags": {"addr:city": "Brooklyn", "addr:housenumber": "4415", "addr:postcode": "11220", "addr:state": "NY", "addr:street": "4th Avenue", "air_conditioning": "yes", "amenity": "cafe", "bar": "no", "cuisine": "coffee_shop;yemeni", "delivery": "yes", "drink:coffee": "yes", "drink:espresso": "yes", "drink:tea": "yes", "drive_through": "no", "email": "hello@yafabrooklyn.com", "internet_access": "wlan", "name": "Yafa Cafe", "opening_hours": "Mo-Fr 07:00-21:00; Sa-Su 08:00-17:00", "outdoor_seating": "no", "payment:cash": "yes", "payment:contactless": "yes", "payment:credit_cards": "yes", "payment:debit_cards": "yes", "phone": "+1-347-464-3999", "takeaway": "yes", "toilets": "yes", "toilets:unisex": "yes", "website": "https://www.yafabrooklyn.com", "website:menu": "https://www.toasttab.com/local/order/yafacafe/r-75311f06-927f-45e8-ba60-43f16f0516ed"}}, {"type": "node", "id": 10198298536, "lat": 40.6496493, "lon": -74.0095954, "tags": {"name": "Income Tax Center", "office": "tax_advisor", "service:notary": "yes"}}, {"type": "node", "id": 10239215825, "lat": 40.6507048, "lon": -74.0084756, "tags": {"addr:city": "Brooklyn", "addr:housenumber": "4222", "addr:postcode": "11232", "addr:state": "NY", "addr:street": "4th Avenue", "alt_name": "Public School 516", "amenity": "school", "fax": "+1-718-965-7685", "grades": "PK,0K,1-5,SE", "name": "Sunset Park Avenues Elementary", "operator": "New York City Department of Education", "operator:short": "NYC Public Schools", "operator:type": "public", "operator:wikidata": "Q408230", "phone": "+1-718-369-8330", "short_name": "P.S. 516", "website": "https://www.sunsetparkavenues.org"}}, {"type": "node", "id": 10245411698, "lat": 40.6470144, "lon": -74.0081106, "tags": {"amenity": "taxi", "name": "Mexiana Express II", "office": "taxi", "opening_hours": "24/7", "phone": "+1-718-437-5555", "website": "https://lamexicanaexpress.com"}}, {"type": "node", "id": 10245411699, "lat": 40.6472769, "lon": -74.0082754, "tags": {"amenity": "restaurant", "delivery": "yes", "name": "Castillo de Yaque", "phone": "+1-718-439-5847", "takeaway": "yes"}}, {"type": "node", "id": 10245411700, "lat": 40.6476994, "lon": -74.0074112, "tags": {"amenity": "restaurant", "cuisine": "mexican", "drink:beer": "yes", "name": "La Caba\u00f1a", "opening_hours": "Mo-Th 11:00-23:00; Fr-Sa 11:00-24:00; Su 11:00-23:00", "outdoor_seating": "street", "phone": "+1-718-972-2380"}}, {"type": "node", "id": 10245411701, "lat": 40.6475701, "lon": -74.0075462, "tags": {"addr:city": "Brooklyn", "addr:postcode": "11220", "addr:state": "NY", "addr:street": "5th Avenue", "amenity": "cafe", "cuisine": "guatemalan;coffee_shop", "name": "Totopan"}}, {"type": "node", "id": 10245411702, "lat": 40.6475833, "lon": -74.0073335, "tags": {"name": "Clarimar Realty", "office": "estate_agent", "phone": "+1-718-435-0387"}}, {"type": "node", "id": 10245411706, "lat": 40.6475761, "lon": -74.0074406, "tags": {"name": "ChambApp", "office": "employment_agency", "opening_hours": "Mo-Fr 10:00-18:00; Sa 11:00-16:00"}}, {"type": "node", "id": 10245469619, "lat": 40.6476199, "lon": -74.0073955, "tags": {"name": "Law Offices of Delvis Valdes", "office": "lawyer", "phone": "+1-718-435-1309"}}, {"type": "node", "id": 10245469620, "lat": 40.646886, "lon": -74.008245, "tags": {"amenity": "restaurant", "cuisine": "guatemalan", "delivery": "yes", "name": "El Quetzalito", "phone": "+1-347-384-2827", "takeaway": "yes"}}, {"type": "node", "id": 10299071048, "lat": 40.6492777, "lon": -74.0125103}, {"type": "node", "id": 10299071049, "lat": 40.6497108, "lon": -74.0120603}, {"type": "node", "id": 10299071050, "lat": 40.6493032, "lon": -74.0114007}, {"type": "node", "id": 10299071051, "lat": 40.6488716, "lon": -74.0118394}, {"type": "node", "id": 10712803766, "lat": 40.6483668, "lon": -74.0071506, "tags": {"amenity": "restaurant", "cocktails": "yes", "cuisine": "steak_house;mexican;burger", "drink:beer": "draught", "drink:liquor": "yes", "drink:wine": "yes", "name": "The King of Meat", "opening_hours": "Mo-We 17:00-01:00, Th 17:00-02:00, Fr 17:00-04:00, Sa 12:00-04:00, Su 12:00-01:00", "phone": "+1-718-489-9084", "website": "https://thekingofmeat.net"}}, {"type": "node", "id": 11479622122, "lat": 40.6472645, "lon": -74.0083744, "tags": {"name": "Accountable IQ", "office": "accountant", "phone": "+1-866-533-970"}}, {"type": "node", "id": 12616031543, "lat": 40.6503268, "lon": -74.0080943, "tags": {"email": "bk07@cb.nyc.gov", "fax": "+1 718-436-1142", "name": "Brooklyn Community Board 7", "office": "government", "opening_hours": "Mo-Fr 09:00-17:00; PH off", "phone": "+1 718-854-0003", "website": "https://www.nyc.gov/site/brooklyncb7/index.page"}}, {"type": "way", "id": 149616466, "nodes": [1625675744, 1625675743, 2700280649, 2700280650, 1625675744], "tags": {"ele": "50", "gnis:feature_id": "966845", "leisure": "park", "name": "Sunset Park", "opening_hours": "Mo-Su 06:00-01:00", "operator": "New York City Department of Parks and Recreation", "operator:short": "NYC Parks", "operator:type": "government", "operator:wikidata": "Q1894232", "website": "https://www.nycgovparks.org/parks/sunset-park/", "wikidata": "Q49567970", "wikipedia": "en:Sunset Park (Brooklyn park)"}}, {"type": "way", "id": 249593621, "nodes": [2561757814, 2561756579, 2561757806, 2561757747, 2561757739, 2561757614, 2561757709, 2561757663, 2561757789, 2561757835, 2561757814]}, {"type": "way", "id": 249593622, "nodes": [2561757773, 2561757804, 2561757818, 2561757802, 2561757773]}, {"type": "way", "id": 249595709, "nodes": [2561793518, 2561793506, 2561793475, 2561793479, 2561793478, 2561793480, 2561793488, 2561793496, 2561793518], "tags": {"addr:housenumber": "411", "addr:postcode": "11220", "addr:street": "46th Street", "building": "yes", "denomination": "lutheran", "height": "8.4", "name": "Trinity Lutheran Church Office", "nycdoitt:bin": "3011532", "office": "religion", "phone": "+1-718-854-6040", "religion": "christian", "website": "https://www.trinitybrooklyn.org"}}, {"type": "way", "id": 249595824, "nodes": [2561792670, 2561792657, 2561792731, 2561792742, 2561792745, 2561792739, 2561792670], "tags": {"addr:housenumber": "4618", "addr:postcode": "11220", "addr:street": "5th Avenue", "amenity": "restaurant", "building": "yes", "cuisine": "peruvian", "height": "6.4", "name": "La Brasa Peruana", "nycdoitt:bin": "3011887", "opening_hours": "Mo-Th 11:30-21:00; Fr-Sa 11:30-21:30; Su 11:30-21:00", "phone": "+1-718-765-4088", "website": "https://www.brasaperuana-nyc.com"}}, {"type": "way", "id": 374789757, "nodes": [10299071050, 2561757806, 2561757747, 2561757739, 2561757614, 3781635973, 10299071051, 10299071050], "tags": {"amenity": "school", "name": "Public School 1"}}, {"type": "way", "id": 1126345067, "nodes": [10299071049, 10299071048, 10299071051, 10299071050, 10299071049], "tags": {"leisure": "park", "name": "Pe\u00f1a Herrera Playground", "operator": "New York City Department of Parks and Recreation", "operator:short": "NYC Parks", "operator:type": "government", "operator:wikidata": "Q1894232"}}, {"type": "relation", "id": 3356525, "members": [{"type": "way", "ref": 249593621, "role": "outer"}, {"type": "way", "ref": 249593622, "role": "inner"}], "tags": {"addr:city": "Brooklyn", "addr:housenumber": "364", "addr:postcode": "11220", "addr:state": "NY", "addr:street": "46th Street", "amenity": "school", "building": "school", "ele": "18", "gnis:feature_id": "961211", "height": "11.5", "nycdoitt:bin": "3332079", "type": "multipolygon"}}]}