{"version": 0.6, "generator": "Overpass API 0.7.62.8 e802775f", "osm3s": {"timestamp_osm_base": "2025-12-01T17:09:00Z", "copyright": "The data included in this document is from www.openstreetmap.org. The data is made available under ODbL."}, "elements": [{"type": "node", "id": 1241260186, "lat": 40.7223632, "lon": -74.0057752}, {"type": "node", "id": 1241260208, "lat": 40.722119, "lon": -74.0055232}, {"type": "node", "id": 1241260209, "lat": 40.7229625, "lon": -74.0052678}, {"type": "node", "id": 1883462420, "lat": 40.7232955, "lon": -74.0037222, "tags": {"addr:housenumber": "15", "addr:postcode": "10013", "addr:street": "Watts Street", "amenity": "restaurant", "indoor_seating": "yes", "name": "Maison Close", "outdoor_seating": "yes"}}, {"type": "node", "id": 2287566536, "lat": 40.7183392, "lon": -74.0070204}, {"type": "node", "id": 2287566540, "lat": 40.7188507, "lon": -74.0067064}, {"type": "node", "id": 2287566541, "lat": 40.7189321, "lon": -74.0068511}, {"type": "node", "id": 2351282630, "lat": 40.7231111, "lon": -74.0029527, "tags": {"addr:housenumber": "363", "addr:postcode": "10013", "addr:street": "West Broadway", "alt_name": "Kenn\u2019s Broome Street Bar", "amenity": "bar", "cocktails": "yes", "contact:facebook": "Kenns-Broome-Street-Bar-189607137742744", "contact:instagram": "broomestreetbar", "contact:phone": "+1 212-925-2806", "drink:beer": "draught", "indoor_seating": "yes", "level": "0", "name": "Broome Street Bar", "opening_hours": "Mo-Th, Su 11:00-01:30; Fr, Sa 11:00-14:30", "outdoor_seating": "yes", "toilets": "yes", "wheelchair": "yes"}}, {"type": "node", "id": 2477507989, "lat": 40.7229469, "lon": -74.0053861}, {"type": "node", "id": 2477507993, "lat": 40.723016, "lon": -74.006067}, {"type": "node", "id": 2477507994, "lat": 40.7224132, "lon": -74.0058372}, {"type": "node", "id": 2477507996, "lat": 40.7226208, "lon": -74.0061366}, {"type": "node", "id": 2562442598, "lat": 40.7213965, "lon": -74.0043967, "tags": {"addr:city": "New York", "addr:housenumber": "375", "addr:postcode": "10013", "addr:street": "Canal Street", "amenity": "restaurant", "cuisine": "italian_pizza", "name": "Lucia Pizza", "opening_hours": "Mo-Su 11:00-22:00", "phone": "+1 917 965-2900"}}, {"type": "node", "id": 2562444073, "lat": 40.7223738, "lon": -74.0048547}, {"type": "node", "id": 2562444074, "lat": 40.7224756, "lon": -74.0050791}, {"type": "node", "id": 2563930242, "lat": 40.7185032, "lon": -74.0048891, "tags": {"addr:housenumber": "275", "addr:postcode": "10013", "addr:street": "Church Street", "amenity": "restaurant", "contact:website": "http://www.damikele.com/", "cuisine": "italian", "height": "16.3", "name": "Da Mikele", "nycdoitt:bin": "1001926", "opening_hours": "Mo-Th 12:00-23:00; Fr, Sa 12:00-00:00; Su 12:00-22:30", "payment:cash": "yes", "payment:credit_cards": "yes", "phone": "+1-212-925-8800", "reservation": "yes", "takeaway": "yes", "website": "http://luzzosgroup.com/about-us-damikele", "wheelchair": "yes"}}, {"type": "node", "id": 2563930327, "lat": 40.7184787, "lon": -74.0024786, "tags": {"addr:city": "New York", "addr:housenumber": "396", "addr:postcode": "10013", "addr:state": "NY", "addr:street": "Broadway", "amenity": "cafe", "brand": "Blue Bottle Coffee", "brand:en": "Blue Bottle Coffee", "brand:ja": "\u30d6\u30eb\u30fc\u30dc\u30c8\u30eb\u30b3\u30fc\u30d2\u30fc", "brand:wikidata": "Q4928917", "cuisine": "coffee_shop", "name": "Blue Bottle Coffee", "name:en": "Blue Bottle Coffee", "name:ja": "\u30d6\u30eb\u30fc\u30dc\u30c8\u30eb\u30b3\u30fc\u30d2\u30fc", "opening_hours": "Mo-Th 08:00-16:00; Fr 07:00-17:00; Sa,Su 08:00-17:00", "opening_hours:covid19": "closed", "phone": "+1-510-653-3394", "takeaway": "yes", "website": "https://bluebottlecoffee.com/cafes/the-walker"}}, {"type": "node", "id": 2565708091, "lat": 40.7210007, "lon": -74.0044453, "tags": {"addr:city": "New York", "addr:housenumber": "378", "addr:street": "Canal Street", "amenity": "cafe", "indoor_seating": "yes", "name": "Caff\u00e9 Bene", "outdoor_seating": "no"}}, {"type": "node", "id": 2565708098, "lat": 40.719282, "lon": -74.0059677, "tags": {"addr:city": "New York", "addr:housenumber": "1", "addr:postcode": "10013", "addr:state": "NY", "addr:street": "White Street", "amenity": "restaurant", "name": "One White Street", "website": "https://www.onewhitestreetnyc.com/"}}, {"type": "node", "id": 2565708108, "lat": 40.7198226, "lon": -74.0084234, "tags": {"addr:housenumber": "120", "addr:postcode": "10013", "addr:street": "Hudson Street", "amenity": "restaurant", "indoor_seating": "yes", "internet_access": "wlan", "name": "Bubby's", "opening_hours": "Su-Th 08:00-23:00; Fr-Sa 08:00-22:00", "outdoor_seating": "yes", "phone": "+1 212 219 0666", "website": "http://bubbys.com/tribeca/"}}, {"type": "node", "id": 2565708226, "lat": 40.72064, "lon": -74.00497, "tags": {"addr:housenumber": "1", "addr:postcode": "10013", "addr:street": "Lispenard Street", "amenity": "pub", "building:levels": "3", "contact:phone": "+1 212 2269943", "contact:website": "http://nancywhiskeypub.com/", "name": "Nancy's Whiskey Pub"}}, {"type": "node", "id": 2565708227, "lat": 40.7207599, "lon": -74.0048947, "tags": {"addr:housenumber": "281", "addr:postcode": "10013", "addr:street": "West Broadway", "amenity": "restaurant", "building:levels": "2", "contact:facebook": "https://www.facebook.com/pages/Pepolino-Restaurant/121762131167356", "contact:instagram": "https://www.instagram.com/pepolinorestaurant", "cuisine": "italian", "name": "Pepolino", "opening_hours": "Su-Th 12:00-23:00; Fr, Sa 12:00-24:00", "phone": "+1 212-966-9983", "reservation": "yes", "website": "https://www.pepolino.com"}}, {"type": "node", "id": 2892641901, "lat": 40.719376, "lon": -74.006475, "tags": {"amenity": "restaurant", "cuisine": "american", "delivery": "yes", "internet_access": "wlan", "name": "Butterfly", "outdoor_seating": "no", "smoking": "no", "takeaway": "yes"}}, {"type": "node", "id": 2897876739, "lat": 40.7184521, "lon": -74.0049427, "tags": {"addr:housenumber": "273", "addr:street": "Church Street", "amenity": "pub", "name": "Souths", "official_name": "Souths Bar and Restaurant"}}, {"type": "node", "id": 2897876740, "lat": 40.7182651, "lon": -74.007295, "tags": {"addr:city": "New York", "addr:housenumber": "180", "addr:postcode": "10013", "addr:state": "NY", "addr:street": "West Broadway", "amenity": "cafe", "brand": "Starbucks", "brand:wikidata": "Q37158", "cuisine": "coffee_shop", "indoor_seating": "yes", "internet_access": "wlan", "internet_access:fee": "no", "name": "Starbucks", "official_name": "Starbucks Coffee", "opening_hours": "Mo-Fr 05:30-19:00; Sa,Su 06:00-19:30", "outdoor_seating": "no", "ref": "1045015", "takeaway": "yes"}}, {"type": "node", "id": 2897876741, "lat": 40.718446, "lon": -74.007236, "tags": {"addr:housenumber": "33", "addr:street": "Leonard Street", "amenity": "restaurant", "brewery": "various", "cuisine": "american", "delivery": "yes", "indoor_seating": "yes", "internet_access": "wlan", "internet_access:fee": "no", "name": "Square Diner", "opening_hours": "Mo-Fr 06:00-21:00; Sa, Su 07:30-16:00", "outdoor_seating": "yes", "payment:cash": "only", "phone": "+1-212-925-7188", "takeaway": "yes", "toilets": "yes", "website": "https://squaredinernewyorkcity.com/", "wheelchair": "no"}}, {"type": "node", "id": 4015736091, "lat": 40.719225, "lon": -74.0066966, "tags": {"amenity": "cafe", "cuisine": "sandwich", "indoor_seating": "yes", "name": "Gotan", "outdoor_seating": "yes", "website": "https://www.gotannyc.com/"}}, {"type": "node", "id": 4184497397, "lat": 40.7199472, "lon": -74.007213, "tags": {"addr:housenumber": "25", "addr:street": "North Moore Street", "amenity": "bar", "indoor_seating": "yes", "name": "Brandy Library", "outdoor_seating": "yes", "phone": "+1 212 2265545", "website": "https://www.brandylibrary.com/"}}, {"type": "node", "id": 4184564889, "lat": 40.7197094, "lon": -74.0070516, "tags": {"addr:housenumber": "16", "addr:street": "North Moore Street", "amenity": "restaurant", "cuisine": "burger", "indoor_seating": "yes", "name": "Walker's", "outdoor_seating": "yes", "phone": "+1 212 9410142"}}, {"type": "node", "id": 4461051681, "lat": 40.7234132, "lon": -74.0032224}, {"type": "node", "id": 4461051682, "lat": 40.7234279, "lon": -74.0032139}, {"type": "node", "id": 4461051683, "lat": 40.7236346, "lon": -74.0036078}, {"type": "node", "id": 4461051684, "lat": 40.7234996, "lon": -74.0037218}, {"type": "node", "id": 4561126589, "lat": 40.7227812, "lon": -74.0048748, "tags": {"amenity": "restaurant", "internet_access": "wlan", "name": "David Burke Kitchen", "name:en": "David Burke Kitchen", "phone": "+1-212-201-9119"}}, {"type": "node", "id": 4739221813, "lat": 40.7204523, "lon": -74.0087431, "tags": {"addr:city": "Tribeca", "addr:street": "Beach Street", "amenity": "restaurant", "cuisine": "pizza", "name": "Locande"}}, {"type": "node", "id": 4848257932, "lat": 40.7188968, "lon": -74.0063291, "tags": {"addr:housenumber": "211", "addr:street": "West Broadway", "amenity": "restaurant", "brewery": "yes", "craft": "caterer", "cuisine": "american;coffee", "email": "info@DistilledNY.com", "name": "Distilled", "name:en": "Distilled", "opening_hours": "Mo-We 16:00-00:00; Th, Fr 16:00-02:00; Sa 11:00-02:00; Su 11:00-23:00", "outdoor_seating": "yes", "payment:cash": "yes", "payment:credit_cards": "yes", "payment:debit_cards": "yes", "phone": "+1-646-809-9490", "reservation": "yes", "takeaway": "yes", "toilets": "yes", "website": "https://www.distilledny.com/"}}, {"type": "node", "id": 4848258525, "lat": 40.719227, "lon": -74.0065567, "tags": {"amenity": "restaurant", "name": "Terra", "name:en": "Terra"}}, {"type": "node", "id": 4890418801, "lat": 40.7222331, "lon": -74.0062452}, {"type": "node", "id": 4890418810, "lat": 40.7217847, "lon": -74.0055001}, {"type": "node", "id": 4890419523, "lat": 40.7223591, "lon": -74.0061831}, {"type": "node", "id": 4890419524, "lat": 40.7218601, "lon": -74.0062895}, {"type": "node", "id": 5087629622, "lat": 40.7230548, "lon": -74.0078313, "tags": {"addr:city": "New York", "addr:housenumber": "200", "addr:street": "Hudson Street", "amenity": "school", "name": "Arrojo Cosmetology School"}}, {"type": "node", "id": 5163989224, "lat": 40.7192673, "lon": -74.0060718, "tags": {"addr:housenumber": "227", "addr:street": "West Broadway", "amenity": "cafe", "delivery": "yes", "email": "cafeclementinenyc@gmail.com", "fax": "+1-212-965-9844", "name": "Cafe Clementine", "opening_hours": "Mo-Fr 08:00-18:00", "payment:american_express": "yes", "payment:cash": "yes", "payment:mastercard": "yes", "payment:visa": "yes", "phone": "+1-212-965-0909", "takeaway": "yes", "website": "https://cafeclementine.com/"}}, {"type": "node", "id": 5164012821, "lat": 40.7206703, "lon": -74.0048609, "tags": {"amenity": "restaurant", "cuisine": "japanese", "name": "Tataki"}}, {"type": "node", "id": 5227511227, "lat": 40.7189298, "lon": -74.0045309, "tags": {"addr:city": "New York", "addr:housenumber": "34", "addr:postcode": "10013", "addr:state": "NY", "addr:street": "White Street", "amenity": "restaurant", "cuisine": "italian", "name": "Petrarca Cucina e Vino"}}, {"type": "node", "id": 5227527424, "lat": 40.7198938, "lon": -74.0038297, "tags": {"addr:city": "New York", "addr:housenumber": "319", "addr:postcode": "10013", "addr:state": "NY", "addr:street": "Church Street", "air_conditioning": "yes", "amenity": "cafe", "bar": "no", "brand": "La Colombe Coffee Roasters", "brand:wikidata": "Q23461663", "check_date": "2023-02-23", "cuisine": "coffee_shop", "internet_access": "no", "name": "La Colombe Coffee Roasters", "opening_hours": "07:30-18:30", "outdoor_seating": "no", "payment:american_express": "yes", "payment:credit_cards": "yes", "payment:discover_card": "yes", "payment:mastercard": "yes", "payment:visa": "yes", "short_name": "La Colombe", "takeaway": "yes", "wheelchair": "no"}}, {"type": "node", "id": 5415649562, "lat": 40.719848, "lon": -74.0049417, "tags": {"amenity": "cafe", "brand": "Starbucks", "brand:wikidata": "Q37158", "contact:website": "https://www.starbucks.com/store-locator/store/1007714/6th-ave-at-walker-street-32-avenue-of-the-americas-new-york-ny-100132473-us", "cuisine": "coffee_shop", "name": "Starbucks", "official_name": "Starbucks Coffee", "takeaway": "yes"}}, {"type": "node", "id": 5592631079, "lat": 40.7191151, "lon": -74.0032838, "tags": {"addr:housenumber": "52", "addr:street": "Walker Street", "amenity": "pub", "brewery": "various", "level": "0", "name": "M1-5 Bar and Lounge", "opening_hours": "Mo, Tu 16:00-00:00; We-Fr 04:00-04:00; Sa 19:00-04:00", "payment:cash": "yes", "payment:cheque": "yes", "payment:contactless": "yes", "payment:credit_cards": "yes", "phone": "+1-212-965-1701", "reservation": "yes", "sport": "yes", "toilets": "yes", "website": "https://m1-5.com/", "wheelchair": "yes"}}, {"type": "node", "id": 5593000021, "lat": 40.7198176, "lon": -74.0055821, "tags": {"addr:housenumber": "249", "addr:street": "West Broadway", "amenity": "bar", "brewery": "various", "name": "Anotheroom", "opening_hours": "Mo, We, Th 17:00-02:00; Tu, Su 16:00-02:00; Fr, Sa 17:00-04:00", "payment:cash": "yes", "payment:credit_cards": "yes", "phone": "+1-212-226-1418", "toilets": "yes", "website": "https://anotheroom.business.site/", "wheelchair": "yes"}}, {"type": "node", "id": 5593004899, "lat": 40.7197629, "lon": -74.005662, "tags": {"addr:housenumber": "247", "addr:street": "West Broadway", "amenity": "bar", "brewery": "various", "name": "Tribeca Tavern", "opening_hours": "Su 12:00-04:00; Mo-Sa 11:00-04:00", "payment:cash": "yes", "payment:credit_cards": "yes", "phone": "+1-212-941-7671", "sport": "yes", "toilets": "yes", "wheelchair": "yes"}}, {"type": "node", "id": 5593016867, "lat": 40.7195759, "lon": -74.0058025, "tags": {"addr:housenumber": "239", "addr:street": "West Broadway", "amenity": "restaurant", "brewery": "various", "cuisine": "french", "email": "info@batardtribeca.com", "name": "B\u00e2tard", "opening_hours": "Mo-We 17:30-22:00; Th-Sa 17:30-22:30", "organic": "yes", "payment:cash": "yes", "payment:credit_cards": "yes", "payment:debit_cards": "yes", "phone": "+1-212-219-2777", "reservation": "recommended", "toilets": "yes", "toilets:wheelchair": "yes", "website": "http://www.batardtribeca.com/", "wheelchair": "yes", "wikidata": "Q5173371"}}, {"type": "node", "id": 5593041648, "lat": 40.7187167, "lon": -74.0060375, "tags": {"addr:housenumber": "114", "addr:street": "Franklin Street", "amenity": "restaurant", "phone": "+1-212-274-8100", "website": "https://www.tuttoilgiorno.com/"}}, {"type": "node", "id": 5804847954, "lat": 40.7202866, "lon": -74.0055156}, {"type": "node", "id": 5804847955, "lat": 40.7199779, "lon": -74.0053446}, {"type": "node", "id": 5804847957, "lat": 40.7203181, "lon": -74.0061171}, {"type": "node", "id": 5804847960, "lat": 40.7203332, "lon": -74.0054065}, {"type": "node", "id": 5804847961, "lat": 40.7199957, "lon": -74.0052855}, {"type": "node", "id": 5901578387, "lat": 40.7226051, "lon": -74.0028245, "tags": {"addr:postcode": "10013", "name": "Loadsmart Inc", "office": "company", "opening_hours": "Mo-Fr 09:00-18:00", "phone": "+1 646-887-6278", "website": "https://www.loadsmart.com"}}, {"type": "node", "id": 5903115786, "lat": 40.7222091, "lon": -74.0036238, "tags": {"addr:city": "New York", "addr:housenumber": "55", "addr:postcode": "10013", "addr:street": "Grand Street", "amenity": "restaurant", "contact:email": "info@papatzul.com", "contact:website": "https://papatzul.com/#", "cuisine": "mexican", "name": "Papatzu Mexican Restaurant", "opening_hours": "Mo-Su 12:00-23:00", "wheelchair": "no"}}, {"type": "node", "id": 6042067487, "lat": 40.7183373, "lon": -74.0070241}, {"type": "node", "id": 6042067488, "lat": 40.7183463, "lon": -74.0070374}, {"type": "node", "id": 6174373286, "lat": 40.7224336, "lon": -74.0034695, "tags": {"amenity": "cafe", "name": "Sanctuary T", "wheelchair": "no"}}, {"type": "node", "id": 6252179316, "lat": 40.7201178, "lon": -74.0036225, "tags": {"addr:housenumber": "325", "addr:postcode": "10003", "addr:street": "Church Street", "amenity": "restaurant", "branch": "Tribeca", "cocktails": "yes", "cuisine": "italian", "delivery": "yes", "dish": "pizza", "drink:beer": "yes", "drink:coffee": "yes", "drink:wine": "yes", "fax": "+1 212-226-2447", "name": "Saluggi's", "opening_hours": "Mo-Th 11:00-22:00; Fr, Sa 11:00-23:00; Su 12:00-22:00", "phone": "+1 212-226-7900", "takeaway": "yes", "website": "http://www.saluggis.com/saluggis-tribeca-the-original"}}, {"type": "node", "id": 6258099099, "lat": 40.7193126, "lon": -74.0042535, "tags": {"addr:housenumber": "31", "addr:street": "Walker Street", "alt_name": "Anejo Tribeca", "amenity": "restaurant", "indoor_seating": "yes", "name": "A\u00f1ejo Tribeca", "outdoor_seating": "yes", "short_name": "A\u00f1ejo"}}, {"type": "node", "id": 6261902981, "lat": 40.7189373, "lon": -74.0020369, "tags": {"addr:housenumber": "408", "addr:street": "Broadway", "brand": "WeWork", "brand:wikidata": "Q19995004", "fee": "yes", "level": "1", "name": "WeWork", "office": "coworking"}}, {"type": "node", "id": 6342778286, "lat": 40.7224501, "lon": -74.0048185, "tags": {"addr:housenumber": "15", "addr:street": "Thompson Street", "amenity": "bar", "name": "Jimmy at The James", "wheelchair": "yes"}}, {"type": "node", "id": 6597691422, "lat": 40.7187899, "lon": -74.0026198, "tags": {"addr:city": "New York", "addr:housenumber": "381", "addr:postcode": "10013", "addr:state": "NY", "addr:street": "Broadway", "amenity": "restaurant", "cuisine": "pizza", "name": "Joey Pepperoni\u2019s Pizza", "not:brand:wikidata": "Q24191943", "website": "https://signsfm.com"}}, {"type": "node", "id": 7975003159, "lat": 40.7202081, "lon": -74.0021478, "tags": {"addr:city": "New York", "addr:housenumber": "53", "addr:postcode": "10013", "addr:state": "NY", "addr:street": "Howard Street", "air_conditioning": "yes", "amenity": "cafe", "contact:instagram": "lamerceriecafe", "cuisine": "french", "delivery": "yes", "email": "LAMERCERIE.INFO@STARR-RESTAURANT.COM", "name": "La Mercerie", "opening_hours": "Mo-Fr 12:00-15:30, 16:30-22:00; Sa 11:00-15:30, 16:30-22:00; Su 11:00-15:30, 16:30-21:00", "outdoor_seating": "yes", "payment:american_express": "yes", "payment:cash": "yes", "payment:discover_card": "yes", "payment:mastercard": "yes", "payment:visa": "yes", "phone": "+1-212-852-9097", "reservation": "required", "smoking": "no", "takeaway": "yes", "toilets": "yes", "toilets:disposal": "flush", "toilets:handwashing": "yes", "toilets:wheelchair": "yes", "website": "https://www.lamerceriecafe.com/", "wheelchair": "yes"}}, {"type": "node", "id": 8304498276, "lat": 40.7202445, "lon": -74.0052647}, {"type": "node", "id": 8304498355, "lat": 40.7219871, "lon": -74.0062887}, {"type": "node", "id": 8312361633, "lat": 40.7189434, "lon": -74.0068112}, {"type": "node", "id": 8312361634, "lat": 40.7189468, "lon": -74.0068351}, {"type": "node", "id": 8312361635, "lat": 40.7189416, "lon": -74.0068461}, {"type": "node", "id": 8312361636, "lat": 40.7188897, "lon": -74.0067099}, {"type": "node", "id": 8312361637, "lat": 40.7188806, "lon": -74.0067022}, {"type": "node", "id": 8312361638, "lat": 40.7188639, "lon": -74.0067014, "tags": {"barrier": "kerb", "kerb": "lowered", "tactile_paving": "yes", "wheelchair": "yes"}}, {"type": "node", "id": 8333740840, "lat": 40.7200227, "lon": -74.0034996, "tags": {"amenity": "restaurant", "name": "HUMBLE FISH"}}, {"type": "node", "id": 8333740841, "lat": 40.7197223, "lon": -74.0039458, "tags": {"amenity": "restaurant", "indoor_seating": "yes", "name": "Antique Garage", "outdoor_seating": "yes"}}, {"type": "node", "id": 8333740842, "lat": 40.719643, "lon": -74.0040209, "tags": {"amenity": "restaurant", "name": "Macao"}}, {"type": "node", "id": 8644312717, "lat": 40.719358, "lon": -74.0049418, "tags": {"amenity": "restaurant", "name": "Jack\u2019s Stir Brew Coffee", "not:brand:wikidata": "Q6110826"}}, {"type": "node", "id": 8648214218, "lat": 40.7211682, "lon": -74.0085684, "tags": {"amenity": "cafe", "name": "Interlude"}}, {"type": "node", "id": 8851156980, "lat": 40.719582, "lon": -74.0084712, "tags": {"addr:city": "New York", "addr:housenumber": "112", "addr:postcode": "10013", "addr:state": "NY", "addr:street": "Hudson Street", "amenity": "cafe", "cuisine": "coffee_shop", "indoor_seating": "yes", "name": "Cafe Atelier", "opening_hours": "Mo-Fr 07:00-18:00; Sa 08:00-18:00; Su 08:00-16:00", "outdoor_seating": "yes", "phone": "+1-646-895-0133", "website": "https://www.cafeateliershop.com", "wheelchair": "yes"}}, {"type": "node", "id": 9174977864, "lat": 40.7216296, "lon": -74.0047353, "tags": {"addr:city": "New York", "addr:housenumber": "383", "addr:postcode": "10013", "addr:state": "NY", "addr:street": "Canal Street", "amenity": "restaurant", "cuisine": "pizza", "delivery": "yes", "name": "$1.50 Fresh Pizza", "opening_hours": "Mo-Su 10:00-04:30", "payment:cash": "only", "phone": "+1 212-966-1110", "website": "https://www.150freshpizza.com/"}}, {"type": "node", "id": 9411604725, "lat": 40.7219313, "lon": -74.0039657, "tags": {"addr:city": "New York", "addr:country": "US", "addr:housenumber": "323", "addr:postcode": "10013", "addr:state": "NY", "addr:street": "West Broadway", "amenity": "restaurant", "cocktails": "yes", "contact:instagram": "https://www.instagram.com/mamo_nyc", "cuisine": "italian", "drink:wine": "served", "email": "info@mamonyc.com", "name": "MAMO", "opening_hours": "Mo 12:00-15:30, 17:30-22:00; Tu 12:00-15:30, 17:30-22:30; We, Th 12:00-15:30, 17:30-23:00; Fr 12:00-15:30, 17:30-23:30; Sa 11:30-16:00, 17:30-23:30; Su 11:30-16:00, 17:30-22:00", "outdoor_seating": "yes", "phone": "+1 646-964-4641", "reservation": "yes", "website": "https://www.mamonyc.com"}}, {"type": "node", "id": 10077663950, "lat": 40.7192738, "lon": -74.0048357, "tags": {"addr:city": "New York", "addr:housenumber": "2", "addr:postcode": "10013", "addr:state": "NY", "addr:street": "6th Avenue", "addr:unit": "Cellar Level", "amenity": "bar", "description": "The subterranean jazz club, with its vaulted ceilings and exposed brick walls, was modeled after the bo\u00eetes of Paris. The venue consists of two cocktail bars, open dining space & a stage for live performances.", "email": "info@thedjangonyc.com", "min_age": "18", "name": "The Django", "opening_hours": "Mo-Su 19:00-2:00", "phone": "+1-212-519-6649", "website": "https://www.thedjangonyc.com/"}}, {"type": "node", "id": 10090538380, "lat": 40.7221836, "lon": -74.0035553, "tags": {"amenity": "bar", "contact:facebook": "https://www.facebook.com/toadhallgrand/", "name": "Toad Hall", "sport": "billiards"}}, {"type": "node", "id": 10090538383, "lat": 40.7211027, "lon": -74.0039693, "tags": {"amenity": "cafe", "contact:facebook": "matchaful", "name": "Matchaful", "website": "https://www.bematchaful.com/"}}, {"type": "node", "id": 10101193964, "lat": 40.7223568, "lon": -74.0062251, "tags": {"barrier": "kerb", "kerb": "lowered", "tactile_paving": "yes", "wheelchair": "yes"}}, {"type": "node", "id": 10101193965, "lat": 40.7223441, "lon": -74.0057912, "tags": {"barrier": "kerb", "kerb": "lowered", "tactile_paving": "no", "wheelchair": "yes"}}, {"type": "node", "id": 10101193966, "lat": 40.7218487, "lon": -74.0055077, "tags": {"barrier": "kerb", "kerb": "lowered", "tactile_paving": "yes", "wheelchair": "yes"}}, {"type": "node", "id": 10101193967, "lat": 40.722133, "lon": -74.0054934, "tags": {"barrier": "kerb", "kerb": "lowered", "tactile_paving": "yes", "wheelchair": "yes"}}, {"type": "node", "id": 10101193968, "lat": 40.7217841, "lon": -74.0054809, "tags": {"barrier": "kerb", "kerb": "lowered", "tactile_paving": "yes", "wheelchair": "yes"}}, {"type": "node", "id": 11308790021, "lat": 40.7189463, "lon": -74.0068216, "tags": {"barrier": "kerb", "kerb": "lowered", "tactile_paving": "yes", "wheelchair": "yes"}}, {"type": "node", "id": 11308790027, "lat": 40.7188937, "lon": -74.006716, "tags": {"barrier": "kerb", "kerb": "lowered", "tactile_paving": "yes", "wheelchair": "yes"}}, {"type": "node", "id": 11308790029, "lat": 40.7189373, "lon": -74.0068483, "tags": {"barrier": "kerb", "kerb": "lowered", "tactile_paving": "yes", "wheelchair": "yes"}}, {"type": "node", "id": 11308790043, "lat": 40.7188716, "lon": -74.0067001}, {"type": "node", "id": 11308790064, "lat": 40.718343, "lon": -74.0070371}, {"type": "node", "id": 11308790065, "lat": 40.7183403, "lon": -74.007031, "tags": {"barrier": "kerb", "kerb": "raised", "tactile_paving": "no", "wheelchair": "no"}}, {"type": "node", "id": 11310917664, "lat": 40.7225716, "lon": -74.0060655}, {"type": "node", "id": 11310917667, "lat": 40.7225282, "lon": -74.006003}, {"type": "node", "id": 11310917668, "lat": 40.7224995, "lon": -74.0059616}, {"type": "node", "id": 11310960973, "lat": 40.7223079, "lon": -74.0057844}, {"type": "node", "id": 11310960974, "lat": 40.722349, "lon": -74.0057878}, {"type": "node", "id": 11310960975, "lat": 40.7223149, "lon": -74.0057931}, {"type": "node", "id": 11310960976, "lat": 40.7223277, "lon": -74.0057976}, {"type": "node", "id": 11310960977, "lat": 40.7223395, "lon": -74.0057944}, {"type": "node", "id": 11310960978, "lat": 40.7221271, "lon": -74.0054956}, {"type": "node", "id": 11310960979, "lat": 40.7221189, "lon": -74.0055026}, {"type": "node", "id": 11310960980, "lat": 40.7221168, "lon": -74.0055146}, {"type": "node", "id": 11310960981, "lat": 40.7222037, "lon": -74.0054664}, {"type": "node", "id": 11310960982, "lat": 40.7222379, "lon": -74.0054799}, {"type": "node", "id": 11310960983, "lat": 40.722231, "lon": -74.0054728}, {"type": "node", "id": 11310960984, "lat": 40.722223, "lon": -74.0054683}, {"type": "node", "id": 11310960985, "lat": 40.722214, "lon": -74.0054656}, {"type": "node", "id": 11310960986, "lat": 40.7229468, "lon": -74.0051935}, {"type": "node", "id": 11310960987, "lat": 40.7229678, "lon": -74.0052461}, {"type": "node", "id": 11310960988, "lat": 40.7229661, "lon": -74.0052626}, {"type": "node", "id": 11310960989, "lat": 40.7229684, "lon": -74.005255}, {"type": "node", "id": 11310960990, "lat": 40.722959, "lon": -74.0051995}, {"type": "node", "id": 11310960991, "lat": 40.7229564, "lon": -74.0051944}, {"type": "node", "id": 11310960992, "lat": 40.7229519, "lon": -74.0051924}, {"type": "node", "id": 11310961020, "lat": 40.7229635, "lon": -74.0052232, "tags": {"barrier": "kerb", "kerb": "lowered", "tactile_paving": "yes", "wheelchair": "yes"}}, {"type": "node", "id": 11310961021, "lat": 40.7229354, "lon": -74.0051981, "tags": {"barrier": "kerb", "kerb": "lowered", "tactile_paving": "yes", "wheelchair": "yes"}}, {"type": "node", "id": 11310961022, "lat": 40.7229517, "lon": -74.005277, "tags": {"barrier": "kerb", "kerb": "lowered", "tactile_paving": "yes", "wheelchair": "yes"}}, {"type": "node", "id": 11310961145, "lat": 40.7226583, "lon": -74.0055254}, {"type": "node", "id": 11310961159, "lat": 40.7228044, "lon": -74.0054016}, {"type": "node", "id": 11310961190, "lat": 40.7228927, "lon": -74.0053269}, {"type": "node", "id": 11310961198, "lat": 40.7221276, "lon": -74.005535, "tags": {"barrier": "kerb", "kerb": "lowered", "tactile_paving": "yes", "wheelchair": "yes"}}, {"type": "node", "id": 11310961206, "lat": 40.7221221, "lon": -74.0055275}, {"type": "node", "id": 11310961224, "lat": 40.7226018, "lon": -74.0061091}, {"type": "node", "id": 11311088097, "lat": 40.7222859, "lon": -74.0061193}, {"type": "node", "id": 11311088098, "lat": 40.7223331, "lon": -74.0061307}, {"type": "node", "id": 11311088099, "lat": 40.7223178, "lon": -74.0061213}, {"type": "node", "id": 11311088100, "lat": 40.7223288, "lon": -74.0061247}, {"type": "node", "id": 11311088101, "lat": 40.7223239, "lon": -74.0061217}, {"type": "node", "id": 11311088102, "lat": 40.7223599, "lon": -74.0062157}, {"type": "node", "id": 11311088103, "lat": 40.7223614, "lon": -74.0062046}, {"type": "node", "id": 11311088104, "lat": 40.7223614, "lon": -74.0061941}, {"type": "node", "id": 11311088105, "lat": 40.7223533, "lon": -74.0062334}, {"type": "node", "id": 11311088106, "lat": 40.7223189, "lon": -74.0062595}, {"type": "node", "id": 11311088107, "lat": 40.7223314, "lon": -74.0062552}, {"type": "node", "id": 11311088108, "lat": 40.7223424, "lon": -74.0062487}, {"type": "node", "id": 11311088109, "lat": 40.7223499, "lon": -74.0062412}, {"type": "node", "id": 11311088110, "lat": 40.7222662, "lon": -74.0062687}, {"type": "node", "id": 11311088111, "lat": 40.7222535, "lon": -74.0062632}, {"type": "node", "id": 11311088112, "lat": 40.7222611, "lon": -74.0062684}, {"type": "node", "id": 11311088113, "lat": 40.722257, "lon": -74.0062662}, {"type": "node", "id": 11311088116, "lat": 40.721974, "lon": -74.0063145}, {"type": "node", "id": 11311088117, "lat": 40.7219685, "lon": -74.0063201}, {"type": "node", "id": 11311088118, "lat": 40.721893, "lon": -74.0063325}, {"type": "node", "id": 11311088120, "lat": 40.7218633, "lon": -74.0063043}, {"type": "node", "id": 11311088121, "lat": 40.7218829, "lon": -74.0063322}, {"type": "node", "id": 11311088122, "lat": 40.7218743, "lon": -74.0063266}, {"type": "node", "id": 11311088123, "lat": 40.7218681, "lon": -74.0063162}, {"type": "node", "id": 11311088124, "lat": 40.7218122, "lon": -74.0054584}, {"type": "node", "id": 11311088125, "lat": 40.721785, "lon": -74.0054659}, {"type": "node", "id": 11311088126, "lat": 40.7217874, "lon": -74.0054555}, {"type": "node", "id": 11311088127, "lat": 40.7218042, "lon": -74.0054511}, {"type": "node", "id": 11311088128, "lat": 40.7217965, "lon": -74.0054493}, {"type": "node", "id": 11311088129, "lat": 40.7217911, "lon": -74.0054509}, {"type": "node", "id": 11311088130, "lat": 40.721912, "lon": -74.0063294, "tags": {"barrier": "kerb", "kerb": "lowered", "tactile_paving": "yes", "wheelchair": "yes"}}, {"type": "node", "id": 11311088132, "lat": 40.7218619, "lon": -74.0062975, "tags": {"barrier": "kerb", "kerb": "lowered", "tactile_paving": "yes", "wheelchair": "yes"}}, {"type": "node", "id": 11317570687, "lat": 40.7225028, "lon": -74.0051432}, {"type": "node", "id": 11317570688, "lat": 40.7222433, "lon": -74.0052506}, {"type": "node", "id": 11317570689, "lat": 40.7222265, "lon": -74.0052524}, {"type": "node", "id": 11317570690, "lat": 40.7222161, "lon": -74.0052481}, {"type": "node", "id": 11317570691, "lat": 40.7222045, "lon": -74.0052346}, {"type": "node", "id": 11317570692, "lat": 40.7221018, "lon": -74.005088}, {"type": "node", "id": 11317570693, "lat": 40.7220964, "lon": -74.0050723}, {"type": "node", "id": 11317570694, "lat": 40.7220957, "lon": -74.0050552}, {"type": "node", "id": 11317570695, "lat": 40.7221011, "lon": -74.0050402}, {"type": "node", "id": 11317570696, "lat": 40.722108, "lon": -74.0050268}, {"type": "node", "id": 11317570697, "lat": 40.7221208, "lon": -74.0050152}, {"type": "node", "id": 11317570698, "lat": 40.7223557, "lon": -74.0048152}, {"type": "node", "id": 11317570699, "lat": 40.7223659, "lon": -74.0048374}, {"type": "node", "id": 11317570709, "lat": 40.7222011, "lon": -74.0052298, "tags": {"barrier": "kerb", "kerb": "lowered", "tactile_paving": "yes", "wheelchair": "yes"}}, {"type": "node", "id": 11317570710, "lat": 40.7224895, "lon": -74.0051119}, {"type": "node", "id": 11329779866, "lat": 40.7200957, "lon": -74.0087665, "tags": {"amenity": "restaurant", "indoor_seating": "yes", "name": "Mr. Chow", "outdoor_seating": "yes"}}, {"type": "node", "id": 11329790146, "lat": 40.7199616, "lon": -74.0074412, "tags": {"name": "TriBeCa Community School", "office": "educational_institution"}}, {"type": "node", "id": 11329800632, "lat": 40.7195801, "lon": -74.0070314, "tags": {"amenity": "restaurant", "indoor_seating": "yes", "name": "Osteria Carlina", "outdoor_seating": "yes"}}, {"type": "node", "id": 11329824069, "lat": 40.7192537, "lon": -74.0071168, "tags": {"addr:housenumber": "140", "addr:postcode": "10013", "addr:street": "Franklin Street", "name": "Douglas Elliman Real Estate", "office": "estate_agent"}}, {"type": "node", "id": 11332230969, "lat": 40.7196471, "lon": -74.0057569, "tags": {"amenity": "restaurant", "cuisine": "french", "name": "Frenchette"}}, {"type": "node", "id": 11492801286, "lat": 40.720455, "lon": -74.0053104, "tags": {"barrier": "kerb", "kerb": "lowered", "tactile_paving": "yes", "wheelchair": "yes"}}, {"type": "node", "id": 11492801294, "lat": 40.7204484, "lon": -74.0052757, "tags": {"barrier": "kerb", "kerb": "lowered", "tactile_paving": "yes", "wheelchair": "yes"}}, {"type": "node", "id": 11493357418, "lat": 40.7202896, "lon": -74.0054845}, {"type": "node", "id": 11493357419, "lat": 40.7202999, "lon": -74.005453}, {"type": "node", "id": 11493357420, "lat": 40.7203144, "lon": -74.0054284}, {"type": "node", "id": 11493357421, "lat": 40.7203456, "lon": -74.0061075}, {"type": "node", "id": 11493357422, "lat": 40.7203457, "lon": -74.0061202}, {"type": "node", "id": 11493357423, "lat": 40.720325, "lon": -74.0061302}, {"type": "node", "id": 11493357424, "lat": 40.7203318, "lon": -74.006136}, {"type": "node", "id": 11493357425, "lat": 40.7203385, "lon": -74.0061364}, {"type": "node", "id": 11493357426, "lat": 40.7203434, "lon": -74.0061308}, {"type": "node", "id": 11493357427, "lat": 40.7202795, "lon": -74.0052641}, {"type": "node", "id": 11493357428, "lat": 40.7203534, "lon": -74.0052688}, {"type": "node", "id": 11493357429, "lat": 40.7204772, "lon": -74.0052862}, {"type": "node", "id": 11493357430, "lat": 40.7204668, "lon": -74.0053023}, {"type": "node", "id": 11493357431, "lat": 40.7204731, "lon": -74.0052968}, {"type": "node", "id": 11493357432, "lat": 40.7204761, "lon": -74.0052921}, {"type": "node", "id": 11493357433, "lat": 40.7204748, "lon": -74.0052803}, {"type": "node", "id": 11493357434, "lat": 40.7204677, "lon": -74.0052767}, {"type": "node", "id": 11493357441, "lat": 40.7202968, "lon": -74.0056167, "tags": {"barrier": "kerb", "kerb": "lowered", "tactile_paving": "yes", "wheelchair": "yes"}}, {"type": "node", "id": 11493357451, "lat": 40.7201466, "lon": -74.0057278, "tags": {"barrier": "kerb", "kerb": "lowered", "tactile_paving": "yes", "wheelchair": "yes"}}, {"type": "node", "id": 11493357457, "lat": 40.7200574, "lon": -74.0055251, "tags": {"barrier": "kerb", "kerb": "lowered", "tactile_paving": "yes", "wheelchair": "yes"}}, {"type": "node", "id": 11493357459, "lat": 40.7199711, "lon": -74.0053252, "tags": {"barrier": "kerb", "kerb": "lowered", "tactile_paving": "yes", "wheelchair": "yes"}}, {"type": "node", "id": 11493357460, "lat": 40.7199689, "lon": -74.0053108}, {"type": "node", "id": 11493357461, "lat": 40.7199856, "lon": -74.0052874}, {"type": "node", "id": 11493357462, "lat": 40.7199751, "lon": -74.0052939, "tags": {"barrier": "kerb", "kerb": "lowered", "tactile_paving": "yes", "wheelchair": "yes"}}, {"type": "node", "id": 11493357463, "lat": 40.7199712, "lon": -74.0052996}, {"type": "node", "id": 11493357464, "lat": 40.7199796, "lon": -74.0052902}, {"type": "node", "id": 11493402621, "lat": 40.7202889, "lon": -74.0055381}, {"type": "node", "id": 11725744791, "lat": 40.7233442, "lon": -74.0065729, "tags": {"addr:city": "New York", "addr:housenumber": "75", "addr:postcode": "10013", "addr:state": "NY", "addr:street": "Varick Street", "amenity": "cafe", "cuisine": "coffee_shop", "name": "drip coffee makers", "outdoor_seating": "no", "phone": "+1-917-704-6742", "website": "https://www.dripcoffeenyc.com/"}}, {"type": "node", "id": 11897338093, "lat": 40.7225399, "lon": -74.0038369, "tags": {"amenity": "restaurant", "name": "Restaurante F\u00e9lix"}}, {"type": "node", "id": 11897345667, "lat": 40.7229261, "lon": -74.0046413, "tags": {"amenity": "restaurant", "cuisine": "sushi", "indoor_seating": "yes", "name": "Kintsugi", "outdoor_seating": "no"}}, {"type": "node", "id": 11897354380, "lat": 40.7228856, "lon": -74.0045762, "tags": {"amenity": "cafe", "indoor_seating": "yes", "name": "Now or Never", "outdoor_seating": "yes"}}, {"type": "node", "id": 12097569302, "lat": 40.7216106, "lon": -74.004245, "tags": {"addr:city": "New York", "addr:housenumber": "301", "addr:postcode": "10013", "addr:street": "West Broadway", "amenity": "restaurant", "cuisine": "coffee_shop", "name": "Lucia Alimentari", "opening_hours": "Mo-Su 07:00-22:00"}}, {"type": "node", "id": 12259319359, "lat": 40.7220958, "lon": -74.0042287, "tags": {"addr:city": "New York", "addr:housenumber": "320", "addr:postcode": "10013", "addr:state": "NY", "addr:street": "West Broadway", "amenity": "restaurant", "name": "Soho Diner", "opening_hours": "Mo-Su 07:00+", "phone": "+1 212-965-3011", "website": "https://www.sohodinernyc.com/"}}, {"type": "node", "id": 12397456372, "lat": 40.7234191, "lon": -74.0054559, "tags": {"name": "DigitalOcean LLC", "office": "company", "website": "https://www.digitalocean.com/"}}, {"type": "node", "id": 13078664901, "lat": 40.7185633, "lon": -74.004808, "tags": {"addr:housenumber": "277", "addr:postcode": "10013", "addr:street": "Church Street", "amenity": "bar", "cuisine": "japanese", "name": "Sake Bar Shigure", "opening_hours": "Mo-Sa 12:00-01:00", "phone": "+1 212-965-0200"}}, {"type": "way", "id": 108153676, "nodes": [1241260209, 11310960988, 11310960989, 11310960987, 11310961020, 11310960990, 11310960991, 11310960992, 11310960986, 11310961021, 11310960982, 11310960983, 11310960984, 11310960985, 11310960981, 10101193967, 11310960978, 11310960979, 11310960980, 1241260208, 11310961206, 11310961198, 11310960973, 11310960975, 11310960976, 11310960977, 10101193965, 11310960974, 1241260186, 11310961145, 11310961159, 11310961190, 11310961022, 1241260209], "tags": {"addr:city": "New York", "addr:postcode": "10012", "addr:state": "NY", "check_date": "2023-11-03", "dog": "leashed", "gnis:feature_id": "2082960", "leisure": "park", "name": "Duarte Square", "official_name": "Juan Pablo Duarte Square", "opening_hours": "Mo-Su 06:00-01:00", "operator": "New York City Department of Parks and Recreation", "operator:short": "NYC Parks", "operator:type": "government", "operator:wikidata": "Q1894232", "smoking": "no", "start_date": "1945", "website": "https://www.nycgovparks.org/parks/duarte-square", "wheelchair": "yes", "wikidata": "Q14706247", "wikipedia": "en:Duarte Square"}}, {"type": "way", "id": 219612698, "nodes": [2287566541, 11308790029, 8312361635, 8312361634, 11308790021, 8312361633, 11308790027, 8312361636, 8312361637, 11308790043, 8312361638, 2287566540, 2287566536, 6042067487, 11308790065, 11308790064, 6042067488, 2287566541], "tags": {"addr:city": "New York", "addr:postcode": "10013", "addr:state": "NY", "leisure": "park", "name": "Finn Square", "operator": "New York City Department of Parks and Recreation", "operator:short": "NYC Parks", "operator:type": "government", "operator:wikidata": "Q1894232", "website": "https://www.nycgovparks.org/parks/greenstreet-mz30/history", "wikidata": "Q49489072"}}, {"type": "way", "id": 239982768, "nodes": [2477507993, 2477507989, 2477507994, 11310917668, 11310917667, 11310917664, 11310961224, 2477507996, 2477507993], "tags": {"addr:city": "New York", "addr:postcode": "10012", "addr:state": "NY", "check_date": "2023-11-03", "leisure": "park", "name": "LentSpace", "operator": "Lower Manhattan Cultural Council", "operator:type": "private_non_profit", "wikidata": "Q6523273", "wikipedia": "en:LentSpace"}}, {"type": "way", "id": 449139914, "nodes": [4461051681, 4461051682, 4461051683, 4461051684, 4461051681], "tags": {"leisure": "park", "name": "Urban Park"}}, {"type": "way", "id": 497484756, "nodes": [4890419524, 11311088132, 11311088120, 11311088123, 11311088122, 11311088121, 11311088118, 11311088130, 11311088117, 11311088116, 8304498355, 4890418801, 11311088111, 11311088113, 11311088112, 11311088110, 11311088106, 11311088107, 11311088108, 11311088109, 11311088105, 10101193964, 11311088102, 11311088103, 11311088104, 4890419523, 11311088098, 11311088100, 11311088101, 11311088099, 11311088097, 10101193966, 11311088124, 11311088127, 11311088128, 11311088129, 11311088126, 11311088125, 10101193968, 4890418810, 4890419524], "tags": {"addr:city": "New York", "addr:postcode": "10012", "addr:state": "NY", "check_date": "2023-11-03", "leisure": "park", "name": "Albert Capsouto Park", "operator": "New York City Department of Parks and Recreation", "operator:short": "NYC Parks", "operator:type": "government", "operator:wikidata": "Q1894232", "start_date": "2009-11-01", "website": "https://www.nycgovparks.org/parks/capsouto-park", "wikidata": "Q2582732", "wikipedia": "en:Albert Capsouto Park"}}, {"type": "way", "id": 613509792, "nodes": [11493357462, 11493357464, 11493357461, 5804847961, 8304498276, 11493357427, 11493357428, 11492801294, 11493357434, 11493357433, 11493357429, 11493357432, 11493357431, 11493357430, 11492801286, 5804847960, 11493357420, 11493357419, 11493357418, 5804847954, 11493402621, 11493357441, 11493357421, 11493357422, 11493357426, 11493357425, 11493357424, 11493357423, 5804847957, 11493357451, 11493357457, 5804847955, 11493357459, 11493357460, 11493357463, 11493357462], "tags": {"addr:city": "New York", "addr:state": "NY", "dog": "leashed", "ele": "3", "gnis:feature_id": "2500760", "leisure": "park", "name": "Tribeca Park", "opening_hours": "Mo-Su 06:00-01:00", "operator": "New York City Department of Parks and Recreation", "operator:short": "NYC Parks", "operator:type": "government", "operator:wikidata": "Q1894232", "smoking": "no", "source": "bing", "start_date": "1810", "website": "https://www.nycgovparks.org/parks/tribeca-park", "wikidata": "Q49572010"}}, {"type": "way", "id": 1221100069, "nodes": [2562444074, 11317570710, 11317570687, 11317570688, 11317570689, 11317570690, 11317570691, 11317570709, 11317570692, 11317570693, 11317570694, 11317570695, 11317570696, 11317570697, 11317570698, 11317570699, 2562444073, 2562444074], "tags": {"addr:city": "New York", "addr:postcode": "10013", "addr:state": "NY", "addr:street": "Thompson Street", "leisure": "park", "name": "Grand Canal Court", "opening_hours": "closed", "operator": "New York City Department of Parks and Recreation", "operator:short": "NYC Parks", "operator:type": "government", "operator:wikidata": "Q1894232"}}]}