{"version": 0.6, "generator": "Overpass API 0.7.62.8 e802775f", "osm3s": {"timestamp_osm_base": "2025-12-01T16:19:44Z", "copyright": "The data included in this document is from www.openstreetmap.org. The data is made available under ODbL."}, "elements": [{"type": "node", "id": 357619612, "lat": 40.6238889, "lon": -73.9611111, "tags": {"amenity": "school", "ele": "10", "gnis:feature_id": "2082192", "name": "Mesivta Zichron Eliezer"}}, {"type": "node", "id": 2327224341, "lat": 40.6267856, "lon": -73.9634393}, {"type": "node", "id": 2327224342, "lat": 40.6268149, "lon": -73.9631197}, {"type": "node", "id": 2327224347, "lat": 40.626949, "lon": -73.9631457}, {"type": "node", "id": 2327224351, "lat": 40.6269951, "lon": -73.9627729}, {"type": "node", "id": 2327224358, "lat": 40.6272717, "lon": -73.9635428}, {"type": "node", "id": 2327224360, "lat": 40.6273599, "lon": -73.9628402}, {"type": "node", "id": 2473718326, "lat": 40.625047, "lon": -73.9614948, "tags": {"addr:city": "Brooklyn", "addr:housenumber": "1424", "addr:postcode": "11230", "addr:state": "NY", "addr:street": "Avenue J", "amenity": "restaurant", "contact:facebook": "difarapizza", "contact:instagram": "difarapizzanyc", "contact:twitter": "difara", "cuisine": "pizza", "delivery": "yes", "name": "Di Fara Pizza", "opening_hours": "Tu-Su 12:00-20:00", "outdoor_seating": "no", "phone": "+1-718 258-1367", "smoking": "no", "takeaway": "yes", "website": "https://www.difarapizzany.com/locations/di-fara-midwood", "wheelchair": "no", "wikidata": "Q5270027", "wikipedia": "en:Di Fara Pizza"}}, {"type": "node", "id": 2547688765, "lat": 40.625146, "lon": -73.9605679, "tags": {"addr:city": "Brooklyn", "addr:housenumber": "1520", "addr:postcode": "11230", "addr:state": "NY", "addr:street": "Avenue J", "air_conditioning": "yes", "amenity": "cafe", "branch": "1520 Avenue J", "brand": "Starbucks", "brand:wikidata": "Q37158", "check_date": "2024-10-26", "cuisine": "coffee_shop", "delivery": "yes", "drive_through": "no", "highchair": "no", "internet_access": "wlan", "internet_access:fee": "no", "internet_access:ssid": "Starbucks WiFi", "name": "Starbucks", "official_name": "Starbucks Coffee", "opening_hours": "Mo-Su 06:00-19:00", "outdoor_seating": "no", "payment:cash": "yes", "payment:contactless": "yes", "payment:credit_cards": "yes", "payment:debit_cards": "yes", "smoking": "no", "takeaway": "yes", "toilets": "no", "website": "https://www.starbucks.com/store-locator/store/1045134/1520-avenue-j-1520-avenue-j-brooklyn-ny-112303708-us", "wheelchair": "yes"}}, {"type": "node", "id": 11657374225, "lat": 40.6250685, "lon": -73.9635876, "tags": {"addr:city": "Brooklyn", "addr:housenumber": "1217", "addr:postcode": "11230", "addr:state": "NY", "addr:street": "Avenue J", "amenity": "restaurant", "cuisine": "sushi", "name": "Estihana"}}, {"type": "node", "id": 12604760200, "lat": 40.6256292, "lon": -73.9598935, "tags": {"amenity": "school", "ele": "11", "gnis:feature_id": "944659", "mascot": "Falcons", "mascot:name": "Freddy the Falcon", "name": "Yeshivah of Flatbush Joel Braverman High School"}}, {"type": "node", "id": 12660808462, "lat": 40.6249864, "lon": -73.9619295, "tags": {"addr:housenumber": "1410", "addr:street": "Avenue J", "amenity": "cafe", "check_date": "2025-03-13", "name": "Dunkin' Donuts Baskin BR Robbins", "wheelchair": "yes"}}, {"type": "node", "id": 12660808463, "lat": 40.6250049, "lon": -73.9617935, "tags": {"addr:housenumber": "1416", "addr:street": "Avenue J", "amenity": "restaurant", "check_date": "2025-03-13", "cuisine": "turkish", "diet:halal": "yes", "name": "Istanblue Kebab House", "phone": "+1 347-462-4655", "wheelchair": "yes"}}, {"type": "node", "id": 12852036956, "lat": 40.6253832, "lon": -73.9625007, "tags": {"check_date": "2025-05-20", "name": "Reavis", "office": "estate_agent", "payment:cash": "yes", "payment:credit_cards": "yes", "wheelchair": "yes"}}, {"type": "node", "id": 12853069140, "lat": 40.6252719, "lon": -73.9616946, "tags": {"addr:housenumber": "1417", "addr:street": "Avenue J", "air_conditioning": "yes", "amenity": "cafe", "check_date": "2025-05-20", "cuisine": "coffee_shop", "delivery": "yes", "diet:kosher": "yes", "drive_through": "no", "highchair": "yes", "name": "Cafe Chocolate", "outdoor_seating": "no", "payment:cash": "yes", "payment:credit_cards": "yes", "phone": "+1 718-400-1417", "smoking": "no", "takeaway": "yes", "website": "https://cafechocolatny.com/", "wheelchair": "yes"}}, {"type": "way", "id": 223868486, "nodes": [2327224341, 2327224358, 2327224360, 2327224351, 2327224347, 2327224342, 2327224341], "tags": {"addr:housenumber": "1310", "addr:postcode": "11230", "addr:state": "NY", "addr:street": "Avenue I", "amenity": "school", "ele": "11", "gnis:feature_id": "2082414", "name": "Yeshiva Rabbi Chaim Berlin", "phone": "+1 718-377-5800", "source": "https://opengovny.com/school/332100226958", "wikidata": "Q18785312"}}]}