{"version": 0.6, "generator": "Overpass API 0.7.62.8 e802775f", "osm3s": {"timestamp_osm_base": "2025-12-01T16:01:21Z", "copyright": "The data included in this document is from www.openstreetmap.org. The data is made available under ODbL."}, "elements": [{"type": "node", "id": 357616317, "lat": 40.8238576, "lon": -73.9359461, "tags": {"amenity": "school", "ele": "2", "gnis:feature_id": "2079011", "mascot": "Lions", "name": "Frederick Douglass Academy", "wikidata": "Q15032107"}}, {"type": "node", "id": 357616350, "lat": 40.8260271, "lon": -73.9380544, "tags": {"amenity": "school", "ele": "6", "gnis:feature_id": "2079022", "name": "Thurgood Marshall Academy Lower School", "website": "http://www.tmals.org"}}, {"type": "node", "id": 1332843440, "lat": 40.8248352, "lon": -73.9364435}, {"type": "node", "id": 1332843482, "lat": 40.822916, "lon": -73.9402773}, {"type": "node", "id": 1332843495, "lat": 40.8246716, "lon": -73.9346148}, {"type": "node", "id": 1332843643, "lat": 40.826431, "lon": -73.9349777}, {"type": "node", "id": 1332843672, "lat": 40.824894, "lon": -73.9348761}, {"type": "node", "id": 1332843715, "lat": 40.8262722, "lon": -73.9347323}, {"type": "node", "id": 1332843740, "lat": 40.8226702, "lon": -73.9404534}, {"type": "node", "id": 1332843804, "lat": 40.8249083, "lon": -73.9346035}, {"type": "node", "id": 1332843829, "lat": 40.8226889, "lon": -73.9397235}, {"type": "node", "id": 1332843883, "lat": 40.8253739, "lon": -73.9360457}, {"type": "node", "id": 1332843911, "lat": 40.8240599, "lon": -73.9346625}, {"type": "node", "id": 1332843937, "lat": 40.822443, "lon": -73.9398995}, {"type": "node", "id": 2340027008, "lat": 40.8266991, "lon": -73.9351726}, {"type": "node", "id": 2340027009, "lat": 40.8265455, "lon": -73.935293}, {"type": "node", "id": 2340027010, "lat": 40.8270359, "lon": -73.9350389}, {"type": "node", "id": 2340027011, "lat": 40.8268935, "lon": -73.9349769}, {"type": "node", "id": 2340027012, "lat": 40.8266702, "lon": -73.9351061}, {"type": "node", "id": 2340027014, "lat": 40.8273265, "lon": -73.9348798}, {"type": "node", "id": 2767864654, "lat": 40.8216995, "lon": -73.9386991, "tags": {"addr:city": "New York", "addr:housenumber": "2503", "addr:postcode": "10039", "addr:state": "NY", "addr:street": "Adam Clayton Powell Jr. Boulevard", "brand": "H&R Block", "brand:wikidata": "Q5627799", "name": "H&R Block", "office": "tax_advisor", "opening_hours": "Mo-Fr 09:00-19:00; Sa 09:00-17:00; Su 12:00-16:00"}}, {"type": "node", "id": 3954501528, "lat": 40.8242494, "lon": -73.9365389, "tags": {"amenity": "school", "name": "Public School 200"}}, {"type": "node", "id": 4614933484, "lat": 40.8251224, "lon": -73.9372731}, {"type": "node", "id": 4739161721, "lat": 40.8245521, "lon": -73.9390062}, {"type": "node", "id": 4739161722, "lat": 40.8242961, "lon": -73.9391932}, {"type": "node", "id": 4739161723, "lat": 40.8242057, "lon": -73.9389768}, {"type": "node", "id": 4739161726, "lat": 40.8244617, "lon": -73.9387899}, {"type": "node", "id": 6216388188, "lat": 40.8254596, "lon": -73.9373252}, {"type": "node", "id": 6216388190, "lat": 40.8252117, "lon": -73.937489}, {"type": "node", "id": 6772770277, "lat": 40.8252759, "lon": -73.9374426}, {"type": "node", "id": 8695926173, "lat": 40.8265258, "lon": -73.9347673}, {"type": "node", "id": 11748913964, "lat": 40.8227041, "lon": -73.9386287, "tags": {"addr:housenumber": "2528", "addr:street": "Adam Clayton Powell Boulevard", "amenity": "restaurant", "cuisine": "thai", "delivery": "yes", "name": "Kensi Thai", "phone": "+1 646-850-0083", "takeaway": "yes", "wheelchair": "yes"}}, {"type": "node", "id": 11748941382, "lat": 40.8219514, "lon": -73.9385123, "tags": {"addr:housenumber": "2515", "addr:street": "Adam Clayton Powell Boulevard", "amenity": "restaurant", "name": "King Barka & Prince Soul Food"}}, {"type": "node", "id": 11982189827, "lat": 40.8225077, "lon": -73.938104, "tags": {"addr:housenumber": "2529", "addr:street": "Adam Clayton Powell Boulevard", "amenity": "restaurant", "cuisine": "chinese", "name": "Red Star", "phone": "+1 212-281-9281"}}, {"type": "node", "id": 12180649989, "lat": 40.8273106, "lon": -73.9348179}, {"type": "node", "id": 13316010552, "lat": 40.8251538, "lon": -73.937349}, {"type": "node", "id": 13316010554, "lat": 40.8252338, "lon": -73.9371926}, {"type": "node", "id": 13339653420, "lat": 40.8253654, "lon": -73.9370975}, {"type": "node", "id": 13339653421, "lat": 40.8252808, "lon": -73.9374545}, {"type": "way", "id": 118524667, "nodes": [1332843643, 2340027009, 2340027008, 2340027012, 2340027011, 2340027010, 2340027014, 12180649989, 8695926173, 1332843715, 1332843804, 1332843495, 1332843672, 1332843643], "tags": {"ele": "1", "gnis:feature_id": "2500783", "leisure": "park", "name": "Percy E. Sutton Playground", "source": "Bing"}}, {"type": "way", "id": 118524677, "nodes": [1332843440, 1332843911, 1332843495, 1332843672, 1332843883, 1332843440], "tags": {"ele": "3", "gnis:feature_id": "2500785", "leisure": "park", "name": "Frederick Johnson Park", "ref": "M159", "source": "Bing", "website": "https://www.nycgovparks.org/parks/M159/", "wikidata": "Q49491757"}}, {"type": "way", "id": 118524701, "nodes": [1332843482, 1332843740, 1332843937, 1332843829, 1332843482], "tags": {"ele": "7", "gnis:feature_id": "2500787", "leisure": "park", "name": "Robert L. Clinkscales Playground and Community Garden", "website": "https://www.nycgovparks.org/parks/robert-l-clinkscales-playground-and-community-garden", "wikidata": "Q34810316"}}, {"type": "way", "id": 480966277, "nodes": [4739161721, 4739161722, 4739161723, 4739161726, 4739161721], "tags": {"description": "Park for neighborhood residents of 148th Street and their guests.", "leisure": "park", "name": "148th Street Block Association Park"}}, {"type": "way", "id": 664153164, "nodes": [6216388188, 13339653420, 13316010554, 4614933484, 13316010552, 6216388190, 6772770277, 13339653421, 6216388188], "tags": {"addr:city": "New York", "addr:postcode": "10039", "addr:state": "NY", "addr:street": "West 150th Street", "leisure": "park", "name": "Bill \"Bojangles\" Robinson Playground", "operator": "New York City Department of Parks and Recreation", "operator:short": "NYC Parks", "operator:type": "government", "operator:wikidata": "Q1894232", "ref": "M138", "website": "https://www.nycgovparks.org/parks/bill-bojangles-robinson-playground", "wikidata": "Q34807894"}}]}