{"version": 0.6, "generator": "Overpass API 0.7.62.8 e802775f", "osm3s": {"timestamp_osm_base": "2025-12-01T17:27:16Z", "copyright": "The data included in this document is from www.openstreetmap.org. The data is made available under ODbL."}, "elements": [{"type": "node", "id": 357561540, "lat": 40.6814693, "lon": -73.9495832, "tags": {"amenity": "school", "ele": "16", "gnis:feature_id": "951147", "name": "Brooklyn Adult Learning Center", "old_name": "Brooklyn Adult Training Center", "phone": "+1-718-638-2635", "website": "https://www.balc.school"}}, {"type": "node", "id": 2550140503, "lat": 40.6815162, "lon": -73.953374, "tags": {"addr:housenumber": "1223", "addr:postcode": "11216", "addr:street": "Bedford Avenue", "amenity": "pub", "cuisine": "american;caribbean", "drink:beer": "yes", "drink:wine": "yes", "name": "Tilly's", "outdoor_seating": "street", "website": "https://tillysbklyn.com"}}, {"type": "node", "id": 2550140535, "lat": 40.6811681, "lon": -73.9499172, "tags": {"addr:housenumber": "518", "addr:postcode": "11216", "addr:street": "Nostrand Avenue", "amenity": "cafe", "cuisine": "french;senegalese;crepe;pastry", "drink:coffee": "yes", "drink:espresso": "yes", "drink:tea": "yes", "name": "Le Paris Dekar", "outdoor_seating": "sidewalk", "website": "https://www.leparisdakar.com"}}, {"type": "node", "id": 2550140538, "lat": 40.6808601, "lon": -73.9498314, "tags": {"addr:housenumber": "524", "addr:postcode": "11216", "addr:street": "Nostrand Avenue", "amenity": "cafe", "branch": "Brooklyn", "brand": "Brooklyn Tea", "check_date": "2022-11-12", "contact:facebook": "https://facebook.com/brooklyntea", "contact:instagram": "brooklyntea", "contact:twitter": "@brooklynteanyc", "cuisine": "tea;breakfast;pastry;soup", "drink:espresso": "yes", "drink:tea": "yes", "internet_access": "wlan", "internet_access:fee": "no", "name": "Brooklyn Tea", "opening_hours": "Mo-Th 07:00-19:00; Fr-Sa 07:00-19:30; Su 08:00-19:00", "phone": "+1-347-240-4281", "website": "https://brooklyntea.com/pages/brooklyn-tearoom"}}, {"type": "node", "id": 2550147586, "lat": 40.6786637, "lon": -73.949825, "tags": {"addr:housenumber": "584", "addr:postcode": "11216", "addr:street": "Nostrand Avenue", "amenity": "restaurant", "cuisine": "jamaican", "name": "Footprints", "opening_hours": "Mo-Su 11:00-23:00", "phone": "+1-917-477-4857"}}, {"type": "node", "id": 2550149664, "lat": 40.6802988, "lon": -73.9535374, "tags": {"addr:housenumber": "1272", "addr:postcode": "11216", "addr:street": "Bedford Avenue", "fax": "+1-718-398-2150", "name": "Adio Accounting", "office": "accountant", "phone": "+1-718-483-8499"}}, {"type": "node", "id": 2565131160, "lat": 40.6827469, "lon": -73.9536232, "tags": {"addr:housenumber": "1185", "addr:postcode": "11216", "addr:street": "Bedford Avenue", "amenity": "restaurant", "cuisine": "thai", "drink:beer": "yes", "indoor_seating": "yes", "name": "Beds Thai", "opening_hours": "Mo-Su 11:00-22:15", "outdoor_seating": "yes", "phone": "+1-347-985-1199", "website": "https://orderbedsthai.com"}}, {"type": "node", "id": 2918770595, "lat": 40.6778518, "lon": -73.9499062, "tags": {"addr:city": "Brooklyn", "addr:housenumber": "608", "addr:postcode": "11216", "addr:state": "NY", "addr:street": "Nostrand Avenue", "amenity": "bar", "cocktails": "yes", "drink:liquor": "yes", "name": "Sweet Brooklyn"}}, {"type": "node", "id": 4077041307, "lat": 40.6787455, "lon": -73.9498159, "tags": {"addr:city": "Brooklyn", "addr:housenumber": "586", "addr:postcode": "11216", "addr:street": "Nostrand Avenue", "amenity": "restaurant", "cuisine": "indian", "delivery": "yes", "name": "India House", "phone": "+1-718-857-7011", "takeaway": "yes", "website": "http://indiahouserestaurantbk.com/"}}, {"type": "node", "id": 4316479293, "lat": 40.6791211, "lon": -73.9494906, "tags": {"addr:housenumber": "533", "addr:postcode": "11216", "addr:street": "Nostrand Avenue", "amenity": "restaurant", "cuisine": "sandwich", "diet:halal": "yes", "name": "David's Brisket House", "opening_hours": "Mo-Th 09:00-21:00; Fr-Sa 09:00-22:00; Su 10:00-20:00", "phone": "+1-718-789-1155"}}, {"type": "node", "id": 6682030674, "lat": 40.6812781, "lon": -73.953327, "tags": {"fax": "+1-718-398-2614", "name": "Franklin Income Tax", "office": "tax_advisor", "phone": "+1-718-398-2613"}}, {"type": "node", "id": 6757143486, "lat": 40.6829912, "lon": -73.953657, "tags": {"amenity": "cafe", "cuisine": "coffee_shop;diner", "drink:coffee": "yes", "drink:espresso": "yes", "name": "Martha's Pastries & Cafe", "opening_hours": "Mo-Fr 07:00-18:00; Sa-Su 07:00-20:00"}}, {"type": "node", "id": 8220719808, "lat": 40.6806855, "lon": -73.9526184, "tags": {"amenity": "restaurant", "cuisine": "indian", "indoor_seating": "yes", "name": "Diwali Indian Cuisine", "outdoor_seating": "no"}}, {"type": "node", "id": 8706963619, "lat": 40.68063, "lon": -73.9539592, "tags": {"addr:housenumber": "1178", "addr:postcode": "11216", "addr:street": "Fulton Street", "amenity": "restaurant", "cuisine": "middle_eastern;american", "diet:halal": "yes", "name": "Fulton Food Court", "phone": "+1-718-789-0546"}}, {"type": "node", "id": 9140312166, "lat": 40.6821216, "lon": -73.9497801, "tags": {"addr:housenumber": "449", "addr:postcode": "11216", "addr:street": "Nostrand Avenue", "amenity": "cafe", "cocktails": "yes", "cuisine": "mediterranean", "drink:beer": "yes", "drink:coffee": "yes", "drink:espresso": "yes", "drink:liquor": "yes", "drink:tea": "yes", "drink:wine": "yes", "name": "Bunny", "opening_hours": "Th-Sa 17:00-22:00; Su 11:00-16:00", "opening_hours:kitchen": "Th-Sa 17:00-21:00; Su 11:00-15:00", "outdoor_seating": "sidewalk", "website": "https://www.bunnybedstuy.com"}}, {"type": "node", "id": 9403176561, "lat": 40.6807305, "lon": -73.9513739, "tags": {"addr:housenumber": "1251", "addr:postcode": "11216", "addr:street": "Fulton Street", "amenity": "cafe", "name": "Star Cafe & Bakery", "phone": "+1-718-496-5098"}}, {"type": "node", "id": 9403176562, "lat": 40.6806641, "lon": -73.952118, "tags": {"amenity": "restaurant", "cuisine": "senegalese", "indoor_seating": "yes", "name": "The Baobab Gouygui", "outdoor_seating": "no", "phone": "+1-718-484-4866", "takeaway": "yes"}}, {"type": "node", "id": 9403176563, "lat": 40.6806602, "lon": -73.9520472, "tags": {"amenity": "cafe", "cuisine": "bagel;breakfast;sandwich", "diet:halal": "yes", "name": "Bagel Nest", "phone": "+1-718-872-7545"}}, {"type": "node", "id": 9446003826, "lat": 40.6816496, "lon": -73.950016, "tags": {"addr:housenumber": "500", "addr:postcode": "11216", "addr:street": "Nostrand Avenue", "brand": "H&R Block", "brand:wikidata": "Q5627799", "check_date": "2022-11-12", "name": "H&R Block", "office": "tax_advisor", "phone": "+1-718-622-3133", "website": "https://www.hrblock.com/local-tax-offices/new-york/brooklyn/500-504-nostrand-ave/30248"}}, {"type": "node", "id": 9534888713, "lat": 40.6804315, "lon": -73.9526063, "tags": {"addr:housenumber": "1198", "addr:postcode": "11238", "addr:street": "Fulton Street", "amenity": "bar", "cocktails": "yes", "cuisine": "mexican;eclectic", "drink:beer": "yes", "drink:liquor": "yes", "drink:wine": "yes", "name": "Basquiat's Bottle", "opening_hours": "Tu-Su 17:00-24:00+"}}, {"type": "node", "id": 10627151275, "lat": 40.6780329, "lon": -73.9495775, "tags": {"amenity": "restaurant", "cuisine": "pizza;italian", "delivery": "yes", "name": "Nostrand Ave Pizza", "opening_hours": "Mo-Th 12:00-22:00; Fr-Sa 12:00-23:00; Su 12:00-22:00", "phone": "+1-718-484-1992", "takeaway": "yes", "website": "https://nostrandavepizza.com"}}, {"type": "node", "id": 10642744091, "lat": 40.6815777, "lon": -73.9533915, "tags": {"alt_name": "Seed Brklyn Greenhouse Caf\u00e9", "amenity": "cafe", "drink:espresso": "yes", "florist": "yes", "name": "Seed Brklyn Green House", "opening_hours": "Mo-Su 07:00-19:00", "shop": "gift", "website": "https://seedbrklyn.com"}}, {"type": "node", "id": 10926318742, "lat": 40.6820169, "lon": -73.9500597, "tags": {"amenity": "bar", "check_date": "2023-05-25", "indoor_seating": "yes", "name": "Bad Luck Bar", "outdoor_seating": "yes", "payment:mastercard": "yes", "payment:visa": "yes"}}, {"type": "node", "id": 10998186054, "lat": 40.6800545, "lon": -73.9496918, "tags": {"alt_name": "Fidelis Care", "name": "WellCare", "office": "insurance", "phone": "+1-718-230-6181"}}, {"type": "node", "id": 10998370405, "lat": 40.67822, "lon": -73.9498706, "tags": {"amenity": "restaurant", "cuisine": "thai", "name": "Holic Thai Bistro", "phone": "+1-929-415-8384", "website": "https://holic592.com"}}, {"type": "node", "id": 11002042945, "lat": 40.6790567, "lon": -73.9494966, "tags": {"amenity": "restaurant", "bar": "yes", "cocktails": "yes", "cuisine": "caribbean", "drink:liquor": "yes", "drink:wine": "yes", "name": "Hendrix House", "opening_hours": "Tu-We 16:00-24:00, Th-Sa 16:00-02:00, Su 12:00-24:00", "phone": "+1-718-676-5085", "website": "https://www.hendrix.house/location/Hendrix-HouseBedstuy/"}}, {"type": "node", "id": 11575199916, "lat": 40.6806048, "lon": -73.9510212, "tags": {"amenity": "restaurant", "indoor_seating": "yes", "name": "Nawabi Bhoj", "outdoor_seating": "no"}}, {"type": "node", "id": 12272040575, "lat": 40.6787836, "lon": -73.9495223, "tags": {"amenity": "cafe", "cuisine": "coffee_shop;breakfast", "drink:coffee": "yes", "drink:espresso": "yes", "drink:tea": "yes", "name": "Furman's Coffee"}}, {"type": "node", "id": 12643728897, "lat": 40.6815005, "lon": -73.9533859, "tags": {"addr:housenumber": "1223", "addr:street": "Bedford Avenue", "amenity": "cafe", "check_date": "2025-03-07", "cuisine": "coffee_shop", "internet_access": "wlan", "internet_access:fee": "customers", "name": "Padmore\u2019s"}}]}