{"version": 0.6, "generator": "Overpass API 0.7.62.8 e802775f", "osm3s": {"timestamp_osm_base": "2025-12-01T04:02:06Z", "copyright": "The data included in this document is from www.openstreetmap.org. The data is made available under ODbL."}, "elements": [{"type": "node", "id": 277046794, "lat": 40.7428275, "lon": -73.9164917}, {"type": "node", "id": 277046795, "lat": 40.7429065, "lon": -73.9156669}, {"type": "node", "id": 277046797, "lat": 40.7427592, "lon": -73.9150898, "tags": {"barrier": "kerb", "kerb": "lowered"}}, {"type": "node", "id": 277046798, "lat": 40.7427481, "lon": -73.9158355}, {"type": "node", "id": 1568056839, "lat": 40.7451742, "lon": -73.9088476}, {"type": "node", "id": 1568056840, "lat": 40.7453283, "lon": -73.9094238}, {"type": "node", "id": 1568056842, "lat": 40.7450613, "lon": -73.9094866}, {"type": "node", "id": 1574922964, "lat": 40.7441358, "lon": -73.9129337}, {"type": "node", "id": 1574922974, "lat": 40.7444941, "lon": -73.9139102}, {"type": "node", "id": 1574922977, "lat": 40.7446192, "lon": -73.9137581}, {"type": "node", "id": 1574922979, "lat": 40.7439321, "lon": -73.9136609}, {"type": "node", "id": 1574922980, "lat": 40.7441882, "lon": -73.9129516}, {"type": "node", "id": 1574922982, "lat": 40.74448, "lon": -73.9137903}, {"type": "node", "id": 1574922983, "lat": 40.744241, "lon": -73.9136022}, {"type": "node", "id": 1927891349, "lat": 40.7457436, "lon": -73.9084103}, {"type": "node", "id": 1927891357, "lat": 40.7458186, "lon": -73.9086282}, {"type": "node", "id": 1927891358, "lat": 40.7459581, "lon": -73.9085597}, {"type": "node", "id": 1927891359, "lat": 40.7461448, "lon": -73.9082627}, {"type": "node", "id": 1927891360, "lat": 40.7461965, "lon": -73.908909}, {"type": "node", "id": 1927891361, "lat": 40.7463383, "lon": -73.9096532}, {"type": "node", "id": 1927891362, "lat": 40.7468641, "lon": -73.9095287}, {"type": "node", "id": 1927891363, "lat": 40.7469413, "lon": -73.9096252}, {"type": "node", "id": 1927891364, "lat": 40.7473378, "lon": -73.9095581}, {"type": "node", "id": 2089938081, "lat": 40.7429062, "lon": -73.9163405}, {"type": "node", "id": 2698768779, "lat": 40.746016, "lon": -73.9144787, "tags": {"addr:city": "Woodside", "addr:housenumber": "49-22", "addr:postcode": "11377", "addr:street": "Skillman Avenue", "amenity": "cafe", "cuisine": "coffee_shop", "indoor_seating": "yes", "name": "Aubergine Cafe", "opening_hours": "Mo-Th 07:30-16:00; Fr 07:30-18:00; Sa, Su 08:00-18:00", "outdoor_seating": "yes"}}, {"type": "node", "id": 2844759163, "lat": 40.7434176, "lon": -73.9153755, "tags": {"addr:housenumber": "49-11", "addr:postcode": "11377", "addr:street": "Roosevelt Avenue", "amenity": "restaurant", "cuisine": "korean", "delivery": "yes", "name": "Sik Gaek", "opening_hours": "Mo, We, Th, Su 14:00-23:00; Fr, Sa 14:00-00:00", "phone": "+1 718-205-4555", "takeaway": "yes", "website": "http://www.sikgaekwoodside.com/"}}, {"type": "node", "id": 2844759181, "lat": 40.7447709, "lon": -73.909924, "tags": {"addr:housenumber": "54-18", "addr:postcode": "11377", "addr:street": "Roosevelt Avenue", "amenity": "restaurant", "cuisine": "pizza;peruvian", "name": "Los Cuencantinos", "phone": "+1 718-426-4487"}}, {"type": "node", "id": 2844759182, "lat": 40.7447817, "lon": -73.9098649, "tags": {"addr:housenumber": "54-20", "addr:postcode": "11377", "addr:street": "Roosevelt Avenue", "amenity": "bar", "name": "The Wild Goose"}}, {"type": "node", "id": 2844848806, "lat": 40.7425119, "lon": -73.9155746, "tags": {"addr:housenumber": "49-10", "addr:postcode": "11377", "addr:street": "Queens Boulevard", "amenity": "restaurant", "contact:email": "TitoRads@yahoo.com", "contact:facebook": "titorads", "cuisine": "filipino", "fax": "+1 71-205-4178", "name": "Tito Rad's Grill", "opening_hours": "Mo-Fr 11:00-20:00; Sa, Su 10:30-20:00", "phone": "+1 718-205-7299", "takeaway": "yes", "website": "http://www.titorads.com/"}}, {"type": "node", "id": 2844978387, "lat": 40.7459273, "lon": -73.9135566, "tags": {"addr:city": "Woodside", "addr:housenumber": "50-24", "addr:postcode": "11377", "addr:street": "Skillman Avenue", "amenity": "restaurant", "cuisine": "pub", "name": "The Copper Kettle"}}, {"type": "node", "id": 2844992953, "lat": 40.7461491, "lon": -73.9154379, "tags": {"addr:housenumber": "48-20", "addr:postcode": "11104", "addr:street": "Skillman Avenue", "amenity": "bar", "name": "Sanger Hall"}}, {"type": "node", "id": 2845023105, "lat": 40.7458511, "lon": -73.914835}, {"type": "node", "id": 2845023109, "lat": 40.745859, "lon": -73.914908}, {"type": "node", "id": 2845023116, "lat": 40.7459014, "lon": -73.9148256}, {"type": "node", "id": 2845023127, "lat": 40.745973, "lon": -73.9148121}, {"type": "node", "id": 2845023130, "lat": 40.7460836, "lon": -73.9147914}, {"type": "node", "id": 2845023131, "lat": 40.7460915, "lon": -73.9148644}, {"type": "node", "id": 2845049543, "lat": 40.7461768, "lon": -73.9135455, "tags": {"addr:housenumber": "50-19", "addr:postcode": "11377", "addr:street": "Skillman Avenue", "amenity": "restaurant", "cuisine": "asian", "name": "TJ Asian Bistro", "opening_hours": "Mo-Th, Su 11:30-22:30; Fr, Sa 11:30-23:00", "phone": "+1 718 205 2088", "website": "https://www.ezordernow.com/tjasianbistrony"}}, {"type": "node", "id": 3774880789, "lat": 40.7453329, "lon": -73.9086297}, {"type": "node", "id": 3774880796, "lat": 40.7456422, "lon": -73.9098199}, {"type": "node", "id": 4580605622, "lat": 40.7449049, "lon": -73.9160168}, {"type": "node", "id": 4580605623, "lat": 40.7448937, "lon": -73.9159537}, {"type": "node", "id": 4580605624, "lat": 40.744915, "lon": -73.9159497}, {"type": "node", "id": 4580605625, "lat": 40.7448907, "lon": -73.9157485}, {"type": "node", "id": 4580605626, "lat": 40.7449283, "lon": -73.9157378}, {"type": "node", "id": 4580605627, "lat": 40.7449526, "lon": -73.9159202}, {"type": "node", "id": 4580605628, "lat": 40.7458125, "lon": -73.9157415}, {"type": "node", "id": 4580605629, "lat": 40.7458125, "lon": -73.9156865}, {"type": "node", "id": 4580605630, "lat": 40.7458948, "lon": -73.9156717}, {"type": "node", "id": 4580605631, "lat": 40.7459039, "lon": -73.9157267}, {"type": "node", "id": 4580605632, "lat": 40.74597, "lon": -73.91572}, {"type": "node", "id": 4580605633, "lat": 40.7459811, "lon": -73.9158072}, {"type": "node", "id": 5082833848, "lat": 40.7444297, "lon": -73.9131596, "tags": {"addr:housenumber": "51-15", "addr:street": "43rd Avenue", "name": "Rosendo Travel", "office": "travel_agent"}}, {"type": "node", "id": 5082834123, "lat": 40.7443929, "lon": -73.9128314, "tags": {"addr:housenumber": "51-21", "addr:street": "43rd Avenue", "amenity": "restaurant", "contact:instagram": "dos.broncos", "cuisine": "mexican; Italian", "drink:beer": "served", "drink:wine": "served", "name": "Dos Broncos", "phone": "+1 347-531-0060"}}, {"type": "node", "id": 5301474422, "lat": 40.7448428, "lon": -73.9108153, "tags": {"addr:housenumber": "53-21", "addr:postcode": "11377", "addr:street": "Roosevelt Avenue", "amenity": "restaurant", "contact:email": "laadelitany@gmail.con", "cuisine": "mexican", "name": "La Adelita de Woodside", "opening_hours": "Mo-Su 12:00-22:00", "phone": "+1 917-451-7362", "website": "https://laadelitadewoodsideny.com/", "wheelchair": "yes"}}, {"type": "node", "id": 5301593821, "lat": 40.7444269, "lon": -73.9108778, "tags": {"addr:postcode": "11377", "amenity": "bar", "name": "Solid State", "opening_hours": "Su-Fr 15:00-04:00; Sa 12:00-04:00", "website": "https://solidstatenyc.com/"}}, {"type": "node", "id": 5489661622, "lat": 40.742437, "lon": -73.91548, "tags": {"addr:housenumber": "49-12", "addr:postcode": "11377", "addr:street": "Queens Boulevard", "amenity": "restaurant", "cuisine": "filipino", "level": "0", "name": "Kabayan Authentic", "phone": "+1 718-639-3113", "wheelchair": "yes"}}, {"type": "node", "id": 5978792890, "lat": 40.7448033, "lon": -73.9107459, "tags": {"amenity": "bar", "name": "Tres Coronas"}}, {"type": "node", "id": 5978795488, "lat": 40.7443569, "lon": -73.9125569, "tags": {"addr:housenumber": "51-29", "addr:street": "43rd Avenue", "amenity": "cafe", "contact:instagram": "cafe52restaurant", "delivery": "yes", "name": "Caf\u00e9 52", "opening_hours": "Su 00:00-02:00; Mo-We 07:00-02:00; Th 07:00-00:00; Fr, Sa 00:00-00:00", "phone": "+1 718-424-0250", "takeaway": "yes", "website": "https://www.cafe52newyork.com/"}}, {"type": "node", "id": 5978795489, "lat": 40.7445824, "lon": -73.9116352, "tags": {"addr:housenumber": "52-21", "addr:street": "Roosevelt Avenue", "amenity": "restaurant", "name": "52nd Sushi"}}, {"type": "node", "id": 5978832686, "lat": 40.7444812, "lon": -73.9125355, "tags": {"addr:housenumber": "41-54", "addr:street": "52nd Street", "amenity": "cafe", "name": "Ju-Go Juice Bar", "opening_hours": "Mo-Su 08:00-21:00", "phone": "+1 718-440-9135", "website": "https://www.jugojuicebar.com/"}}, {"type": "node", "id": 6744726774, "lat": 40.7439734, "lon": -73.9148875, "tags": {"addr:housenumber": "43-12", "addr:street": "50th Street", "amenity": "cafe", "name": "New City Billiards & Cafe"}}, {"type": "node", "id": 7667163190, "lat": 40.7429701, "lon": -73.9160911}, {"type": "node", "id": 7667245261, "lat": 40.7446204, "lon": -73.9137821}, {"type": "node", "id": 7667245262, "lat": 40.7445075, "lon": -73.913926}, {"type": "node", "id": 10956028576, "lat": 40.745818, "lon": -73.9126795, "tags": {"addr:housenumber": "51-18", "addr:street": "Skillman Avenue", "amenity": "restaurant", "name": "Laura's", "outdoor_seating": "yes"}}, {"type": "node", "id": 10956028588, "lat": 40.7458071, "lon": -73.9125998, "tags": {"addr:housenumber": "51-20", "addr:street": "Skillman Avenue", "amenity": "restaurant", "contact:fax": "+1 718-424-3586", "cuisine": "thai", "delivery": "yee", "indoor_seating": "yes", "level": "0", "name": "Chin Thai", "opening_hours": "Mo-Su 11:00-21:45", "phone": "+1 718-426-8162", "takeaway": "yes"}}, {"type": "node", "id": 11701153875, "lat": 40.7443986, "lon": -73.9107588, "tags": {"addr:housenumber": "41-46", "addr:postcode": "11377", "addr:street": "54th Street", "amenity": "restaurant", "contact:email": "theweekendernyc1@gmail.com", "contact:instagram": "theweekender_nyc", "cuisine": "bhutanese", "name": "The Weekender", "opening_hours": "Mo, Tu, Th, Su 12:00-23:00; Fr, Sa 12:00-02:00", "phone": "+1 917-832-6903", "reservation": "yes", "takeaway": "yes", "website": "https://www.theweekender.store/"}}, {"type": "node", "id": 11732423462, "lat": 40.7444161, "lon": -73.915329, "tags": {"addr:housenumber": "49-06", "addr:street": "43rd Avenue", "amenity": "restaurant", "cuisine": "tacos; mexican", "name": "El Rey de los Tacos", "opening_hours": "Mo, We-Fr 09:00-23:00; Sa, Su 08:00-23:00"}}, {"type": "node", "id": 11732795498, "lat": 40.74455, "lon": -73.9107994, "tags": {"addr:housenumber": "53-24", "addr:postcode": "11377", "addr:street": "Roosevelt Avenue", "amenity": "restaurant", "delivery": "yes", "indoor_seating": "yes", "name": "El Don Taqueria", "opening_hours": "Mo-Su 11:30-22:00", "phone": "+1 917-745-0288", "takeaway": "yes", "website": "https://eldontaqueria.com/", "wheelchair": "no"}}, {"type": "node", "id": 11776558555, "lat": 40.7446999, "lon": -73.9102707, "tags": {"addr:housenumber": "54-08", "addr:street": "Roosevelt Avenue", "amenity": "restaurant", "cocktails": "yes", "cuisine": "colombian", "name": "Mis Tierras Colombianas", "phone": "+1 718-672-7272"}}, {"type": "node", "id": 11776575251, "lat": 40.7443649, "lon": -73.9114136, "tags": {"amenity": "restaurant", "name": "La Flor", "phone": "+1 718-426-8023"}}, {"type": "node", "id": 11795947535, "lat": 40.7439149, "lon": -73.9136492}, {"type": "node", "id": 11795947537, "lat": 40.7442382, "lon": -73.9136267}, {"type": "node", "id": 11795947538, "lat": 40.7439346, "lon": -73.9136901}, {"type": "node", "id": 11795947540, "lat": 40.7442618, "lon": -73.9135765}, {"type": "node", "id": 11880558862, "lat": 40.7458886, "lon": -73.9151766, "tags": {"addr:housenumber": "41-11", "addr:street": "49th Street", "amenity": "restaurant", "contact:facebook": "TheAlcoveNY", "cuisine": "tapas", "name": "The Alcove"}}, {"type": "node", "id": 11940428349, "lat": 40.7447456, "lon": -73.9158829, "tags": {"addr:housenumber": "48-11", "addr:street": "43rd Avenue", "amenity": "restaurant", "contact:instagram": "tacoselgueronyc", "cuisine": "tex-mex", "dish": "tacos", "name": "Tacos el Guero", "opening_hours": "Mo-Su 11:00-23:00", "phone": "+1 718-255-1514", "website": "https://toasttab.com/tacoselgueronyc"}}, {"type": "node", "id": 12034085742, "lat": 40.7427784, "lon": -73.9151143}, {"type": "node", "id": 12034085743, "lat": 40.742858, "lon": -73.9164899}, {"type": "node", "id": 12034085746, "lat": 40.7429554, "lon": -73.9159895}, {"type": "node", "id": 12034085759, "lat": 40.742753, "lon": -73.9153634}, {"type": "node", "id": 12034085764, "lat": 40.7427458, "lon": -73.9152025}, {"type": "node", "id": 12034085766, "lat": 40.7427412, "lon": -73.9157097}, {"type": "node", "id": 12034086672, "lat": 40.7429308, "lon": -73.9157924}, {"type": "node", "id": 12034086674, "lat": 40.7428093, "lon": -73.915297}, {"type": "node", "id": 12034086675, "lat": 40.7427468, "lon": -73.9150993}, {"type": "node", "id": 12034086677, "lat": 40.7428638, "lon": -73.9155301}, {"type": "node", "id": 12034086682, "lat": 40.742771, "lon": -73.9150963}, {"type": "node", "id": 12034086690, "lat": 40.7427412, "lon": -73.9151155}, {"type": "node", "id": 12034086708, "lat": 40.7427514, "lon": -73.9152954}, {"type": "node", "id": 12034739461, "lat": 40.7444121, "lon": -73.9152522, "tags": {"addr:housenumber": "49-08", "addr:street": "43rd Avenue", "amenity": "restaurant", "cuisine": "thai", "delivery": "yes", "level": "0", "name": "Onedee Thai", "phone": "+1 718-457-7700", "takeaway": "yes", "wheelchair": "yes"}}, {"type": "node", "id": 12202478856, "lat": 40.7443879, "lon": -73.9113528, "tags": {"addr:housenumber": "53-04", "addr:street": "Roosevelt Avenue", "amenity": "cafe", "name": "My Coffee Shop", "phone": "+1 347-970-1815"}}, {"type": "node", "id": 12408563088, "lat": 40.7460882, "lon": -73.9151414, "tags": {"amenity": "pub", "name": "Cousin Lsrry's"}}, {"type": "way", "id": 25420828, "nodes": [277046794, 12034085743, 2089938081, 7667163190, 12034085746, 12034086672, 277046795, 12034086677, 12034086674, 12034085742, 12034086682, 277046797, 12034086675, 12034086690, 12034085764, 12034086708, 12034085759, 12034085766, 277046798, 277046794], "tags": {"ele": "28", "gnis:feature_id": "2352554", "leisure": "park", "name": "Joe Sabba Park", "website": "https://www.nycgovparks.org/parks/sabba-park/", "wikidata": "Q49507910"}}, {"type": "way", "id": 143292941, "nodes": [1568056840, 1568056842, 1568056839, 1568056840], "tags": {"ele": "29", "gnis:feature_id": "2352550", "leisure": "park", "name": "Steinman Triangle", "name:etymology:wikidata": "Q116213863", "operator": "New York City Department of Parks and Recreation", "operator:short": "NYC Parks", "operator:type": "public", "operator:wikidata": "Q1894232", "wikidata": "Q34816513"}}, {"type": "way", "id": 143928484, "nodes": [1574922983, 11795947537, 11795947538, 1574922979, 11795947535, 1574922964, 1574922980, 11795947540, 1574922983], "tags": {"ele": "30", "gnis:feature_id": "2352553", "leisure": "park", "name": "Vincent Daniels Square", "operator": "New York City Department of Parks and Recreation", "operator:short": "NYC Parks", "operator:type": "public", "operator:wikidata": "Q1894232", "wikidata": "Q49575551"}}, {"type": "way", "id": 143928486, "nodes": [1574922977, 7667245261, 7667245262, 1574922974, 1574922982, 1574922977], "tags": {"leisure": "park", "name": "John Downing Park"}}, {"type": "way", "id": 182440063, "nodes": [1927891363, 1927891362, 1927891361, 1927891360, 1927891358, 1927891357, 1927891349, 1927891359, 1927891364, 1927891363], "tags": {"ele": "31", "gnis:feature_id": "2352551", "leisure": "park", "name": "Doughboy Plaza", "wikidata": "Q34825869"}}, {"type": "way", "id": 280371318, "nodes": [2845023105, 2845023109, 2845023131, 2845023130, 2845023127, 2845023116, 2845023105], "tags": {"addr:city": "Woodside", "addr:housenumber": "49-10", "addr:postcode": "11377", "addr:street": "Skillman Avenue", "amenity": "bar", "building": "yes", "height": "6.9", "name": "The Globe Tavern", "nycdoitt:bin": "4001162"}}, {"type": "way", "id": 374079677, "nodes": [3774880796, 1927891361, 1927891360, 1927891358, 1927891357, 1927891349, 3774880789, 3774880796], "tags": {"amenity": "school", "ele": "31", "gnis:feature_id": "961249", "name": "Kathryn M. Phelan  School - P.S. 11"}}, {"type": "way", "id": 462694723, "nodes": [4580605622, 4580605623, 4580605624, 4580605625, 4580605626, 4580605627, 4580605628, 4580605629, 4580605630, 4580605631, 4580605632, 4580605633, 4580605622], "tags": {"access": "private", "leisure": "park"}}]}