{"version": 0.6, "generator": "Overpass API 0.7.62.8 e802775f", "osm3s": {"timestamp_osm_base": "2025-12-01T17:19:07Z", "copyright": "The data included in this document is from www.openstreetmap.org. The data is made available under ODbL."}, "elements": [{"type": "node", "id": 42524972, "lat": 40.6976622, "lon": -73.9165316}, {"type": "node", "id": 357581046, "lat": 40.7006584, "lon": -73.9181926, "tags": {"amenity": "school", "ele": "11", "gnis:feature_id": "961886", "name": "Public School 86"}}, {"type": "node", "id": 2568634868, "lat": 40.6985239, "lon": -73.9221811, "tags": {"name": "Country-Wide Insurance Company", "office": "insurance", "opening_hours": "Mo-Th 09:00-18:00; Fr 09:00-14:00", "phone": "+1-718-443-5100"}}, {"type": "node", "id": 2568634891, "lat": 40.7000021, "lon": -73.9197963, "tags": {"addr:housenumber": "242", "addr:postcode": "11237", "addr:street": "Himrod Street", "amenity": "pub", "atm": "yes", "cocktails": "yes", "contact:facebook": "https://www.facebook.com/darlingsbk/", "cuisine": "pub", "drink:beer": "draught", "drink:liquor": "yes", "drink:wine": "draught", "name": "Darlings", "opening_hours": "Mo-Su 12:00-04:00", "phone": "+1-347-425-7300", "toilets": "yes", "toilets:unisex": "yes", "toilets:wheelchair": "yes", "wheelchair": "yes"}}, {"type": "node", "id": 3146594316, "lat": 40.6971837, "lon": -73.9170018}, {"type": "node", "id": 4491464941, "lat": 40.6999113, "lon": -73.9162149, "tags": {"addr:housenumber": "254", "addr:street": "Irving Avenue", "amenity": "restaurant", "atm": "yes", "contact:facebook": "https://www.facebook.com/partyonbushwick/", "cuisine": "pizza;beer", "delivery": "yes", "description": "Formerly Pizza Party, 80\u2019s and 90\u2019s themed dive bar with delightful bites!", "diet:vegan": "yes", "diet:vegetarian": "yes", "drink:beer": "yes", "email": "pizzapartybushwick@gmail.com", "internet_access": "wlan", "name": "Party On", "opening_hours": "Mo-Su 12:00-04:00", "outdoor_seating": "yes", "payment:cash": "yes", "payment:credit_cards": "yes", "phone": "+1-718-484-1034", "takeaway": "yes", "toilets": "yes", "toilets:unisex": "yes", "wheelchair": "limited"}}, {"type": "node", "id": 5420299324, "lat": 40.6991138, "lon": -73.9166538, "tags": {"addr:housenumber": "1477", "addr:street": "Myrtle Avenue", "amenity": "restaurant", "cuisine": "chinese;spanish", "delivery": "yes", "name": "New Apollo", "opening_hours": "Mo-Th, Su 12:00-23:00; Fr, Sa 13:00-25:00", "payment:credit_cards": "yes", "phone": "+1-718-483-8288", "takeaway": "yes"}}, {"type": "node", "id": 5435873464, "lat": 40.6970079, "lon": -73.9171824}, {"type": "node", "id": 5435873488, "lat": 40.6981227, "lon": -73.9168794}, {"type": "node", "id": 5435873490, "lat": 40.697836, "lon": -73.9163711}, {"type": "node", "id": 5435873492, "lat": 40.697332, "lon": -73.9177578}, {"type": "node", "id": 5435873494, "lat": 40.6981614, "lon": -73.916941}, {"type": "node", "id": 5435873495, "lat": 40.6980972, "lon": -73.9169048}, {"type": "node", "id": 5435873496, "lat": 40.6979897, "lon": -73.9171104}, {"type": "node", "id": 5435873500, "lat": 40.6978441, "lon": -73.9164569}, {"type": "node", "id": 5435873501, "lat": 40.6983555, "lon": -73.9167452}, {"type": "node", "id": 5435873502, "lat": 40.6980373, "lon": -73.9161686}, {"type": "node", "id": 5455609330, "lat": 40.6980672, "lon": -73.9214323, "tags": {"addr:housenumber": "226", "addr:street": "Wilson Avenue", "amenity": "restaurant", "craft": "caterer", "cuisine": "indian", "delivery": "yes", "delivery:fee": "no", "diet:vegetarian": "yes", "name": "Agra Heights", "opening_hours": "Mo-Su 14:00-02:00", "payment:credit_cards": "yes", "payment:debit_cards": "yes", "phone": "+1-718-443-5700", "reservation": "yes", "takeaway": "yes", "website": "https://agraheightsbrooklynnyc.com/"}}, {"type": "node", "id": 6127475460, "lat": 40.6994105, "lon": -73.9231815, "tags": {"addr:housenumber": "191", "addr:street": "Wilson Avenue", "amenity": "restaurant", "cuisine": "mexican;tacos;burrito;quesadilla", "name": "Itzel's Taqueria Deli", "opening_hours": "Mo-Su 10:00-04:00", "phone": "+1-718-417-1015", "website": "http://orderitzelstaqueriadeli.com/"}}, {"type": "node", "id": 6127475861, "lat": 40.6994511, "lon": -73.9232481, "tags": {"addr:housenumber": "189", "addr:street": "Wilson Avenue", "amenity": "restaurant", "cuisine": "mexican", "delivery": "yes", "drink:coffee": "yes", "name": "El Castillo", "opening_hours": "Mo-Su 08:00-01:00", "phone": "+1-917-460-0271", "takeaway": "yes", "wheelchair": "yes"}}, {"type": "node", "id": 6128707691, "lat": 40.6991029, "lon": -73.9224999, "tags": {"addr:housenumber": "203", "addr:street": "Wilson Avenue", "email": "mssavingsolutions1@gmail.com", "name": "M S Saving Solutions Insurance & Tax Services", "office": "tax_advisor", "phone": "+1-718-443-3933", "website": "https://mssavingsolutions.com/"}}, {"type": "node", "id": 6128709937, "lat": 40.6990736, "lon": -73.9225562, "tags": {"addr:city": "Brooklyn", "addr:country": "US", "addr:housenumber": "203", "addr:postcode": "11237", "addr:state": "NY", "addr:street": "Wilson Avenue", "amenity": "restaurant", "craft": "caterer", "cuisine": "sandwich", "delivery": "yes", "diet:vegan": "yes", "diet:vegetarian": "yes", "drink:coffee": "yes", "name": "Sol Sips", "opening_hours": "Mo 10:00-20:00; Tu 12:00-19:00; We-Sa 10:00-20:00; Su 10:00-18:00", "organic": "yes", "outdoor_seating": "yes", "payment:debit_cards": "yes", "phone": "+1-718-683-0482", "takeaway": "yes", "website": "https://sol-sips.business.site/"}}, {"type": "node", "id": 6128746928, "lat": 40.6982047, "lon": -73.9210779, "tags": {"addr:housenumber": "249", "addr:street": "Wilson Avenue", "name": "District Office Assembly Member Maritza Davila", "office": "government", "opening_hours": "Mo-Fr 09:30-17:00", "phone": "+1-718-443-1205", "website": "https://nyassembly.gov/mem/Maritza-Davila/"}}, {"type": "node", "id": 6128749010, "lat": 40.6980777, "lon": -73.9208502, "tags": {"addr:housenumber": "255", "addr:street": "Wilson Avenue", "amenity": "restaurant", "cuisine": "dominican", "drink:coffee": "yes", "name": "Pastelitos Elvys", "opening_hours": "Mo-We 09:00-20:00; Th-Sa 09:00-22:00; Su 10:00-17:00", "phone": "+1-347-985-2399"}}, {"type": "node", "id": 6128749086, "lat": 40.6981662, "lon": -73.9210076, "tags": {"addr:housenumber": "251", "addr:street": "Wilson Avenue", "amenity": "cafe", "cuisine": "sandwich", "diet:vegetarian": "yes", "drink:coffee": "yes", "drink:tea": "yes", "internet_access": "yes", "internet_access:fee": "no", "name": "IC Brooklyn Cafe", "opening_hours": "Mo-Fr 06:00-20:00; Sa 07:00-19:00; Su 08:00-18:00", "outdoor_seating": "yes", "payment:contactless": "yes", "payment:debit_cards": "yes", "phone": "+1-718-450-3346", "takeaway": "yes", "website": "http://icbrooklyncafe.com/"}}, {"type": "node", "id": 6392106685, "lat": 40.7003851, "lon": -73.9226935, "tags": {"addr:housenumber": "1434", "addr:postcode": "11237", "amenity": "cafe", "internet_access": "wlan", "name": "Dweebs", "opening_hours": "Mo-Fr 07:00-19:00; Sa-Su 07:30-19:00"}}, {"type": "node", "id": 9357071347, "lat": 40.6988394, "lon": -73.9167982, "tags": {"addr:housenumber": "1450", "addr:street": "Myrtle Avenue", "amenity": "restaurant", "cuisine": "italian;american", "delivery": "yes", "name": "Omar's Place BK", "opening_hours": "Mo-Su 11:00-23:00", "phone": "+1-347-406-9517", "takeaway": "yes", "website": "https://www.omarsplacebk.com/"}}, {"type": "node", "id": 9799250885, "lat": 40.6987769, "lon": -73.9177899}, {"type": "node", "id": 9799250886, "lat": 40.6986716, "lon": -73.9178992}, {"type": "node", "id": 9799250887, "lat": 40.6987474, "lon": -73.9180615}, {"type": "node", "id": 9953138161, "lat": 40.6988455, "lon": -73.9167258, "tags": {"addr:housenumber": "1452", "addr:postcode": "11237", "addr:street": "Myrtle Avenue", "amenity": "restaurant", "cuisine": "sushi", "delivery": "Tu-Su 17:00-22:00", "name": "Yugen Sushi", "opening_hours": "Tu-Th 14:00-22:00; Fr-Su 14:00-23:00", "phone": "+1-718-758-5399", "website": "https://yugensushinyc.com/"}}, {"type": "node", "id": 10738353371, "lat": 40.6988008, "lon": -73.9172377, "tags": {"addr:housenumber": "1438", "addr:street": "Myrtle Avenue", "amenity": "bar", "cocktails": "yes", "drink:wine": "yes", "happy_hours": "yes", "name": "Bootleg Bar", "opening_hours": "Mo-Fr 17:00-04:00; Sa, Su 14:00-04:00", "outdoor_seating": "yes", "phone": "+1-347-715-6307", "sport": "billiards", "website": "http://bootlegbarnyc.com/", "wheelchair": "no"}}, {"type": "node", "id": 11240481215, "lat": 40.6987921, "lon": -73.91743, "tags": {"addr:city": "Brooklyn", "addr:housenumber": "1432", "addr:postcode": "11237", "addr:state": "NY", "addr:street": "Myrtle Avenue", "amenity": "cafe", "brand": "Matto Espresso", "brand:wikidata": "Q122209496", "name": "Matto Espresso"}}, {"type": "node", "id": 12329893247, "lat": 40.6995926, "lon": -73.920372, "tags": {"amenity": "bar", "name": "Lou's Athletic Club", "sport": "billiards"}}, {"type": "way", "id": 309324698, "nodes": [5435873492, 5435873464, 3146594316, 42524972, 5435873496, 5435873492], "tags": {"leisure": "park", "name": "Hope Ballfield", "operator": "New York City Department of Parks and Recreation", "operator:short": "NYC Parks", "operator:type": "government", "operator:wikidata": "Q1894232", "website": "https://www.nycgovparks.org/parks/hope-ballfields", "wikidata": "Q116204858"}}, {"type": "way", "id": 564118090, "nodes": [5435873494, 5435873488, 5435873495, 5435873500, 5435873490, 5435873502, 5435873501, 5435873494], "tags": {"amenity": "school", "name": "P.S. 116"}}, {"type": "way", "id": 1067240167, "nodes": [9799250887, 9799250886, 9799250885, 9799250887], "tags": {"ele": "10", "gnis:feature_id": "2377112", "leisure": "park", "name": "Heisser Triangle", "operator": "New York City Department of Parks and Recreation", "operator:short": "NYC Parks", "operator:type": "government", "operator:wikidata": "Q1894232", "website": "https://www.nycgovparks.org/parks/heisser-triangle/", "wikidata": "Q49499624"}}]}