{"version": 0.6, "generator": "Overpass API 0.7.62.8 e802775f", "osm3s": {"timestamp_osm_base": "2025-12-01T15:26:13Z", "copyright": "The data included in this document is from www.openstreetmap.org. The data is made available under ODbL."}, "elements": [{"type": "node", "id": 357619895, "lat": 40.6630068, "lon": -73.9920505, "tags": {"addr:city": "Brooklyn", "addr:housenumber": "224", "addr:street": "18th Street", "amenity": "school", "contact:facebook": "https://www.facebook.com/pages/Soterios-Ellenas-Parochial-School/", "ele": "24", "gnis:feature_id": "2082292", "name": "Soterios Ellenas Parochial School", "phone": "+1-718-499-5900"}}, {"type": "node", "id": 357625410, "lat": 40.662851, "lon": -73.9922222, "tags": {"addr:housenumber": "646", "addr:postcode": "11215", "addr:street": "5th Avenue", "amenity": "school", "fax": "+1-718-499-0959", "name": "Hellenic Classical Charter School", "phone": "+1-718-499-0957", "website": "https://www.hccs-nys.org/", "wikidata": "Q5707172"}}, {"type": "node", "id": 2547733501, "lat": 40.6630815, "lon": -73.9950173}, {"type": "node", "id": 2547734957, "lat": 40.6621205, "lon": -73.9945204}, {"type": "node", "id": 2547735060, "lat": 40.6622072, "lon": -73.9944332}, {"type": "node", "id": 2547735530, "lat": 40.6627367, "lon": -73.9943872}, {"type": "node", "id": 2547735611, "lat": 40.6628051, "lon": -73.9945008}, {"type": "node", "id": 2550604090, "lat": 40.664506, "lon": -73.9943143, "tags": {"addr:housenumber": "160", "addr:postcode": "11215", "addr:street": "18th Street", "name": "South Slope Realty", "office": "estate_agent", "phone": "+1-718-840-0100"}}, {"type": "node", "id": 2550604114, "lat": 40.6644271, "lon": -73.9942054, "tags": {"addr:housenumber": "634", "addr:postcode": "11215", "addr:street": "4th Avenue", "amenity": "pub", "cocktails": "yes", "cuisine": "mexican", "drink:beer": "draught", "drink:liquor": "yes", "drink:wine": "yes", "name": "Mezquila"}}, {"type": "node", "id": 2550604964, "lat": 40.6632493, "lon": -73.9954396, "tags": {"name": "SRMC Management", "office": "estate_agent"}}, {"type": "node", "id": 2562123970, "lat": 40.6646079, "lon": -73.9902786}, {"type": "node", "id": 2562123985, "lat": 40.6646643, "lon": -73.9902312}, {"type": "node", "id": 2562123998, "lat": 40.6647105, "lon": -73.9904889}, {"type": "node", "id": 2562124017, "lat": 40.6647665, "lon": -73.9904418}, {"type": "node", "id": 2562125777, "lat": 40.6650987, "lon": -73.9898893}, {"type": "node", "id": 2562125779, "lat": 40.6651465, "lon": -73.989849}, {"type": "node", "id": 2562125782, "lat": 40.6652289, "lon": -73.9901563}, {"type": "node", "id": 2562125784, "lat": 40.6652575, "lon": -73.9900766}, {"type": "node", "id": 2562125786, "lat": 40.6652767, "lon": -73.990116}, {"type": "node", "id": 2562125794, "lat": 40.6653268, "lon": -73.9896979}, {"type": "node", "id": 2562125799, "lat": 40.6653733, "lon": -73.9896585}, {"type": "node", "id": 2562125807, "lat": 40.6654383, "lon": -73.9899268}, {"type": "node", "id": 2562125824, "lat": 40.6654849, "lon": -73.9898874}, {"type": "node", "id": 2562126671, "lat": 40.6663224, "lon": -73.9923591, "tags": {"addr:housenumber": "568", "addr:postcode": "11215", "addr:street": "4th Avenue", "amenity": "restaurant", "bar": "yes", "cuisine": "american;latin_american;chinese", "drink:beer": "yes", "drink:coffee": "yes", "drink:liquor": "yes", "drink:wine": "yes", "name": "Luo's Burgers", "opening_hours": "Mo-Th 11:00-22:00, Fr-Sa 11:00-01:00, Su 11:00-21:00", "website": "https://luosburgers.com"}}, {"type": "node", "id": 2562126794, "lat": 40.6649293, "lon": -73.9936487}, {"type": "node", "id": 2562126814, "lat": 40.664988, "lon": -73.9935876}, {"type": "node", "id": 2562126816, "lat": 40.664988, "lon": -73.993746}, {"type": "node", "id": 2562126834, "lat": 40.6650306, "lon": -73.9938164}, {"type": "node", "id": 2562126849, "lat": 40.665067, "lon": -73.9937785}, {"type": "node", "id": 2562126855, "lat": 40.6650892, "lon": -73.9937554}, {"type": "node", "id": 2562133451, "lat": 40.6679391, "lon": -73.9950922}, {"type": "node", "id": 2562133472, "lat": 40.6680414, "lon": -73.9953083}, {"type": "node", "id": 2562133475, "lat": 40.6680627, "lon": -73.9949905}, {"type": "node", "id": 2562133489, "lat": 40.6681623, "lon": -73.9949086}, {"type": "node", "id": 2562133491, "lat": 40.6681694, "lon": -73.9949028}, {"type": "node", "id": 2562133500, "lat": 40.6682716, "lon": -73.9951189}, {"type": "node", "id": 2715767141, "lat": 40.6626742, "lon": -73.9954414}, {"type": "node", "id": 2715767142, "lat": 40.6625483, "lon": -73.9940791}, {"type": "node", "id": 2715767143, "lat": 40.6630221, "lon": -73.9948559}, {"type": "node", "id": 3671145143, "lat": 40.667787, "lon": -73.9906083}, {"type": "node", "id": 3671145144, "lat": 40.6676121, "lon": -73.9902411}, {"type": "node", "id": 3671145145, "lat": 40.6671556, "lon": -73.9906191}, {"type": "node", "id": 3671145146, "lat": 40.6673306, "lon": -73.9909863}, {"type": "node", "id": 5236507097, "lat": 40.6669271, "lon": -73.9918474, "tags": {"addr:housenumber": "548", "addr:postcode": "11215", "addr:street": "4th Avenue", "amenity": "cafe", "cuisine": "eclectic;brunch", "drink:beer": "yes", "drink:coffee": "yes", "drink:wine": "yes", "name": "The Common", "phone": "+1-718-971-9580", "website": "https://www.thecommonbrooklyn.com"}}, {"type": "node", "id": 5455223694, "lat": 40.663297, "lon": -73.9911777, "tags": {"amenity": "pub", "atm": "yes", "cocktails": "yes", "cuisine": "pub", "drink:beer": "draught", "drink:liquor": "yes", "drink:wine": "yes", "happy_hours": "Mo-Fr 12:00-19:00", "internet_access": "wlan", "internet_access:fee": "no", "live_music": "yes", "min_age": "21", "name": "Freddy's", "not:brand:wikidata": "Q5496837", "opening_hours": "Mo-Su 12:00-04:00", "opening_hours:kitchen": "Mo-Su 12:00-02:00", "outdoor_seating": "garden;street", "toilets": "yes", "website": "https://freddysbar.com"}}, {"type": "node", "id": 5777945555, "lat": 40.6647972, "lon": -73.9897511, "tags": {"addr:housenumber": "577", "addr:street": "5th Avenue", "amenity": "bar", "drink:beer": "draught", "drink:liquor": "yes", "drink:wine": "yes", "happy_hours": "Mo-Su 17:00-19:00", "name": "Buttermilk Bar", "opening_hours": "Mo-Su 17:00-04:00", "outdoor_seating": "sidewalk;street", "phone": "+1-718-788-6297", "pinball": "yes", "sport": "billiards", "toilets": "yes", "toilets:access": "customers", "website": "https://www.facebook.com/buttermilkbrooklyn/", "wheelchair": "limited"}}, {"type": "node", "id": 5821317603, "lat": 40.6634448, "lon": -73.991455, "tags": {"addr:city": "Brooklyn", "addr:housenumber": "620", "addr:postcode": "11215", "addr:state": "NY", "addr:street": "5th Avenue", "amenity": "cafe", "cuisine": "coffee_shop;sandwich", "drink:coffee": "yes", "drink:espresso": "yes", "drink:tea": "yes", "name": "Yardsale Cafe", "opening_hours": "Mo-Fr 07:00-17:00; Sa-Su 08:00-17:00", "outdoor_seating": "garden", "phone": "+1-929-477-0167", "shop": "antiques", "website": "https://www.yardsalebk.com"}}, {"type": "node", "id": 5842396230, "lat": 40.6648083, "lon": -73.9938148, "tags": {"addr:housenumber": "620", "addr:postcode": "11215", "addr:street": "4th Avenue", "amenity": "restaurant", "delivery": "yes", "name": "El Nuevo Sabor Latino", "name:es": "El Nuevo Sabor Latino", "phone": "+1-718-788-9063", "takeaway": "yes"}}, {"type": "node", "id": 5842396231, "lat": 40.6648362, "lon": -73.9937781, "tags": {"addr:housenumber": "618", "addr:postcode": "11215", "addr:street": "4th Avenue", "amenity": "cafe", "cuisine": "pastry", "drink:coffee": "yes", "drink:espresso": "yes", "drink:tea": "yes", "internet_access": "wlan", "internet_access:fee": "no", "name": "Bread & Joe", "opening_hours": "Mo-Fr 06:30-17:00; Sa 08:00-16:00"}}, {"type": "node", "id": 5941129550, "lat": 40.6640428, "lon": -73.9946084, "tags": {"fax": "+1-718-238-3091", "name": "Grimaldi Yeung Law Group", "office": "lawyer", "phone": "+1-718-238-6960", "website": "https://gylawny.com"}}, {"type": "node", "id": 5976968633, "lat": 40.6654607, "lon": -73.9898379}, {"type": "node", "id": 5984018676, "lat": 40.6652938, "lon": -73.989342, "tags": {"amenity": "bar", "drink:beer": "draught", "name": "Good Judy", "outdoor_seating": "garden;sidewalk;street", "website": "https://www.goodjudybk.com/"}}, {"type": "node", "id": 5984151031, "lat": 40.6645563, "lon": -73.9903601, "tags": {"amenity": "restaurant", "cuisine": "peruvian", "name": "Mikhuy"}}, {"type": "node", "id": 6071606246, "lat": 40.6628451, "lon": -73.991657, "tags": {"addr:housenumber": "639", "addr:postcode": "11215", "addr:street": "5th Avenue", "amenity": "cafe", "cuisine": "coffee_shop;breakfast;american", "diet:vegan": "yes", "drink:coffee": "yes", "drink:espresso": "yes", "drink:tea": "yes", "name": "Roots Cafe", "opening_hours": "Mo-Fr 07:30-16:00; Sa-Su 08:00-16:00", "outdoor_seating": "only", "phone": "+1-929-301-5535", "takeaway": "yes", "website": "https://www.rootsbrooklyn.com"}}, {"type": "node", "id": 6071618557, "lat": 40.6631961, "lon": -73.9912836, "tags": {"amenity": "bar", "cocktails": "yes", "cuisine": "sandwich;snack", "drink:beer": "draught", "drink:liquor": "yes", "drink:wine": "yes", "internet_access": "wlan", "internet_access:fee": "no", "name": "South", "opening_hours": "Mo-Fr 14:00-04:00; Sa-Su 12:00-04:00", "outdoor_seating": "garden", "toilets": "yes", "toilets:unisex": "yes"}}, {"type": "node", "id": 6090813612, "lat": 40.6647385, "lon": -73.9898041, "tags": {"amenity": "cafe", "cuisine": "coffee_shop;french", "name": "Le French Tart", "opening_hours": "Mo-Su 06:30-18:30", "shop": "deli", "takeaway": "only"}}, {"type": "node", "id": 6090825189, "lat": 40.6641072, "lon": -73.9901275, "tags": {"addr:housenumber": "247", "addr:postcode": "11215", "addr:street": "Prospect Avenue", "name": "Ben Herzog Artitect PC", "office": "architect"}}, {"type": "node", "id": 6171982286, "lat": 40.6631577, "lon": -73.9913238, "tags": {"amenity": "restaurant", "cuisine": "mexican", "delivery": "yes", "diet:vegetarian": "yes", "drink:beer": "draught", "drink:liquor": "yes", "name": "El Nopal", "opening_hours": "Mo-Th 12:00-22:00; Fr-Sa 12:00-23:00; Su 12:00-22:00", "phone": "+1-718-541-2732", "takeaway": "yes"}}, {"type": "node", "id": 6334491282, "lat": 40.6630883, "lon": -73.9913245, "tags": {"name": "Daniel Lahage, CPA", "office": "accountant", "phone": "+1-718-833-4304"}}, {"type": "node", "id": 6334493688, "lat": 40.6628044, "lon": -73.9916992, "tags": {"description": "travel agent, tax advisor, money wires, cell phone plans & accessories", "money_transfer": "Sigue", "name": "Park Slope Travel & Multiservice", "office": "travel_agent", "phone": "+1-718-965-9100"}}, {"type": "node", "id": 6874269654, "lat": 40.6638873, "lon": -73.9941562, "tags": {"addr:housenumber": "635", "addr:postcode": "11215", "addr:street": "4th Avenue", "amenity": "cafe", "drink:coffee": "yes", "drink:espresso": "yes", "name": "L'Insolent", "opening_hours": "Mo-Fr 07:00-17:00, Sa-Su 08:00-17:00", "outdoor_seating": "sidewalk", "website": "https://linsolentcoffee.com"}}, {"type": "node", "id": 6990351870, "lat": 40.6622807, "lon": -73.9947868, "tags": {"access": "private", "barrier": "gate"}}, {"type": "node", "id": 6990351878, "lat": 40.6623757, "lon": -73.9942583}, {"type": "node", "id": 6990351879, "lat": 40.6623769, "lon": -73.9949467}, {"type": "node", "id": 6990365099, "lat": 40.6629989, "lon": -73.9948804}, {"type": "node", "id": 8192128834, "lat": 40.6644593, "lon": -73.995904, "tags": {"addr:housenumber": "142", "addr:postcode": "11232", "addr:street": "19th Street", "name": "Sunstar Vending", "office": "company", "phone": "+1-800-435-4263"}}, {"type": "node", "id": 8192128835, "lat": 40.6642834, "lon": -73.9955957, "tags": {"addr:housenumber": "148", "addr:postcode": "11232", "addr:street": "19th Street", "name": "RCP Design", "office": "company", "phone": "+1-718-643-6132", "website": "https://www.rcp-design.com"}}, {"type": "node", "id": 10157828508, "lat": 40.6654841, "lon": -73.9924714, "tags": {"name": "Getir", "office": "logistics"}}, {"type": "node", "id": 10702397247, "lat": 40.6641459, "lon": -73.9900865, "tags": {"alt_name": "Sunrise Cleaning Serviced", "company": "property_management", "name": "Sunrise Real Estate Corp", "office": "company", "phone": "+1-718-355-9117", "website": "https://sunriserealtyny.com"}}, {"type": "node", "id": 11238749213, "lat": 40.6635198, "lon": -73.9957563, "tags": {"addr:housenumber": "164", "addr:postcode": "11232", "addr:street": "20th Street", "addr:unit": "Suite 2E", "fax": "+1-718-247-5765", "name": "OG Tax Advisors & Accountants", "office": "accountant", "phone": "+1-718-788-1327", "website": "https://ogcpafirm.com"}}, {"type": "node", "id": 11753856991, "lat": 40.6670305, "lon": -73.9911812, "tags": {"name": "Gopuff", "office": "logistics"}}, {"type": "node", "id": 12251325099, "lat": 40.6659024, "lon": -73.9930413, "tags": {"addr:housenumber": "175", "addr:postcode": "11215", "addr:street": "Prospect Avenue", "amenity": "cafe", "name": "No Filter Coffee", "opening_hours": "Mo-Su 07:00-15:00"}}, {"type": "way", "id": 249632733, "nodes": [2562123970, 2562123998, 2562124017, 2562123985, 2562123970], "tags": {"addr:housenumber": "582", "addr:postcode": "11215", "addr:street": "5th Avenue", "amenity": "money_transfer", "atm": "yes", "building": "yes", "description": "check cashing, bill pay, Western Union money wires", "height": "4", "money_transfer": "western_union", "money_transfer:website": "https://location.westernunion.com/us/ny/brooklyn/97a3cb905254323860b01fbaaf192429", "name": "Pay-o-Matic", "nycdoitt:bin": "3345848;3330595", "office": "financial", "opening_hours": "Mo,Tu 07:00-23:00; We 07:00-24:00; Th,Fr 00:00-24:00; Sa 00:00-23:00; Su 07:00-23:00"}}, {"type": "way", "id": 249632922, "nodes": [2562125779, 2562125777, 2562125782, 2562125786, 2562125784, 2562125779], "tags": {"addr:housenumber": "568", "addr:postcode": "11215", "addr:street": "5th Avenue", "amenity": "pub", "atm": "yes", "building": "yes", "check_date": "2023-10-05", "cocktails": "yes", "cuisine": "american;mexican", "drink:beer": "draught", "drink:liquor": "yes", "drink:wine": "yes", "height": "6.6", "name": "Black Horse Pub", "nycdoitt:bin": "3023925", "opening_hours": "Mo-Th 12:00-24:00; Fr 12:00-02:00; Sa 11:00-02:00; Su 11:00-24:00||\"Earlier on Saturday & Sunday depending on football start time\"", "outdoor_seating": "sidewalk", "toilets": "yes", "toilets:unisex": "no", "wheelchair": "yes"}}, {"type": "way", "id": 249632988, "nodes": [2562125794, 2562125807, 2562125824, 5976968633, 2562125799, 2562125794], "tags": {"addr:housenumber": "560", "addr:postcode": "11215", "addr:street": "5th Avenue", "amenity": "bar", "building": "yes", "cocktails": "yes", "drink:beer": "draught", "drink:liquor": "yes", "drink:wine": "yes", "height": "6.6", "name": "Rullo's", "nycdoitt:bin": "3023921", "opening_hours": "Mo-Th 17:00-02:00; Fr 15:00-04:00; Sa 17:00-04:00; Su 17:00-02:00", "outdoor_seating": "sidewalk;street", "wheelchair": "yes"}}, {"type": "way", "id": 249633294, "nodes": [2562126834, 2562126849, 2562126855, 2562126814, 2562126794, 2562126816, 2562126834], "tags": {"addr:housenumber": "610", "addr:postcode": "11215", "addr:street": "4th Avenue", "building": "yes", "height": "5.1", "name": "Supreme Memorials", "nycdoitt:bin": "3008950", "office": "company", "phone": "+1-718-788-7986", "website": "https://www.supremememorials.com"}}, {"type": "way", "id": 249634186, "nodes": [2562133451, 2562133472, 2562133500, 2562133491, 2562133489, 2562133475, 2562133451], "tags": {"addr:housenumber": "52", "addr:postcode": "11215", "addr:street": "15th Street", "building": "warehouse", "height": "8.8", "name": "S.E.A. Asian Produce and Grocery Supply", "nycdoitt:bin": "3023818", "office": "company", "phone": "+1-718-965-6500"}}, {"type": "way", "id": 265976884, "nodes": [2715767141, 2547733501, 6990365099, 2715767143, 2547735611, 2547735530, 2715767142, 6990351878, 2547735060, 2547734957, 6990351870, 6990351879, 2715767141], "tags": {"addr:housenumber": "675", "addr:postcode": "11232", "addr:street": "4th Avenue", "amenity": "school", "fax": "+1-718-768-7088", "name": "Al-Noor School", "phone": "+1-718-768-7181", "religion": "muslim", "website": "https://www.alnoornyc.org", "wikidata": "Q4703030", "wikipedia": "en:Al-Noor School"}}, {"type": "way", "id": 362870893, "nodes": [3671145143, 3671145144, 3671145145, 3671145146, 3671145143], "tags": {"amenity": "school", "ele": "16", "gnis:feature_id": "961300", "name": "PS 124 Silas B. Dutcher", "website": "https://ps124brooklyn.com/"}}]}