{"version": 0.6, "generator": "Overpass API 0.7.62.8 e802775f", "osm3s": {"timestamp_osm_base": "2025-12-01T17:31:30Z", "copyright": "The data included in this document is from www.openstreetmap.org. The data is made available under ODbL."}, "elements": [{"type": "node", "id": 2568634932, "lat": 40.7015154, "lon": -73.9194729, "tags": {"amenity": "restaurant", "cuisine": "peruvian", "name": "Mulata", "old_name": "Chimu Express"}}, {"type": "node", "id": 2568681567, "lat": 40.702775, "lon": -73.9170325, "tags": {"addr:city": "Brooklyn", "addr:housenumber": "146", "addr:postcode": "11237", "addr:state": "NY", "addr:street": "Wyckoff Avenue", "amenity": "cafe", "check_date": "2025-05-12", "cuisine": "coffee_shop", "drink:coffee": "yes", "email": "info@varietycoffeeroasters.com", "internet_access": "wlan", "internet_access:fee": "no", "name": "Variety Coffee Roasters", "opening_hours": "Mo-Su 07:00-21:00", "payment:cash": "yes", "payment:visa": "yes", "phone": "+1-718-497-2326", "takeaway": "yes", "toilets": "yes", "toilets:access": "permissive", "toilets:unisex": "yes", "website": "https://varietycoffeeroasters.com/", "wheelchair": "yes"}}, {"type": "node", "id": 4112572561, "lat": 40.7022745, "lon": -73.9199018, "tags": {"amenity": "restaurant", "cuisine": "tacos;al_pastor", "name": "One-eyed Taco Man"}}, {"type": "node", "id": 4305837196, "lat": 40.7050765, "lon": -73.9201938, "tags": {"addr:housenumber": "91", "addr:street": "Wyckoff Avenue", "amenity": "restaurant", "cuisine": "mexican", "diet:vegan": "yes", "diet:vegetarian": "yes", "name": "Mesa Azteca", "opening_hours": "Mo-Su 11:00-22:30", "phone": "+1-347-378-2838", "takeaway": "yes", "website": "https://www.mesaaztecany.com/"}}, {"type": "node", "id": 4491464942, "lat": 40.7020502, "lon": -73.915897, "tags": {"addr:housenumber": "178", "addr:street": "Wyckoff Avenue", "amenity": "restaurant", "cuisine": "ecuadorian", "name": "La Gualacena"}}, {"type": "node", "id": 5365021891, "lat": 40.7056597, "lon": -73.9153112, "tags": {"addr:city": "Ridgewood", "addr:housenumber": "17-02", "addr:postcode": "11385", "addr:state": "NY", "addr:street": "Cypress Avenue", "amenity": "cafe", "contact:facebook": "https://www.facebook.com/cypressinncafe", "cuisine": "italian;sandwich;bagel;pastry", "diet:vegetarian": "yes", "drink:coffee": "yes", "drink:tea": "yes", "internet_access": "wlan", "internet_access:fee": "no", "name": "Cypress Inn Cafe", "opening_hours": "Sa 09:00-17:00; Mo-Fr 07:00-18:00", "opening_hours:signed": "no", "outdoor_seating": "yes", "phone": "+1-347-889-5676", "takeaway": "yes", "toilets": "yes", "toilets:unisex": "yes", "toilets:wheelchair": "no", "wheelchair": "no"}}, {"type": "node", "id": 5423479098, "lat": 40.7067757, "lon": -73.9201704}, {"type": "node", "id": 5423479099, "lat": 40.7068632, "lon": -73.9191324}, {"type": "node", "id": 5423479101, "lat": 40.7072159, "lon": -73.9197265}, {"type": "node", "id": 5423479105, "lat": 40.7064179, "lon": -73.9195776}, {"type": "node", "id": 5430590323, "lat": 40.7027281, "lon": -73.9163976, "tags": {"addr:city": "Brooklyn", "addr:housenumber": "195", "addr:state": "NY", "addr:street": "Wyckoff", "amenity": "restaurant", "cuisine": "caribbean;barbecue", "diet:vegetarian": "yes", "name": "Sally Roots", "opening_hours": "Th-Sa 12:00-28:00, 09:00-18:00; Mo-We, Su 12:00-26:00", "outdoor_seating": "yes", "payment:credit_cards": "yes", "payment:debit_cards": "yes", "phone": "+1-347-425-0888", "reservation": "recommended", "takeaway": "yes", "website": "https://www.sallyroots.com/", "wheelchair": "limited"}}, {"type": "node", "id": 5465480118, "lat": 40.7033817, "lon": -73.9179925, "tags": {"addr:housenumber": "128", "addr:street": "Wyckoff Avenue", "amenity": "restaurant", "cuisine": "mexican", "delivery": "yes", "name": "Los Marineros", "opening_hours": "Fr, Sa 12:30-26:30; Su 14:00-24:30; Mo, We, Th 12:30-24:30", "payment:credit_cards": "yes", "phone": "+1-718-456-7696", "takeaway": "yes", "website": "http://www.losmarinerosbrooklyn.com/"}}, {"type": "node", "id": 5472929440, "lat": 40.7022568, "lon": -73.9197812, "tags": {"addr:housenumber": "173", "addr:street": "Irving Avenue", "amenity": "restaurant", "cuisine": "mexican;burrito", "delivery": "yes", "diet:vegetarian": "yes", "name": "Lucha Lucha", "opening_hours": "Mo-Th, Su 12:00-22:00; Fr, Sa 12:00-24:00", "payment:credit_cards": "yes", "phone": "+1-718-366-6069", "takeaway": "yes", "website": "http://luchalucha.nyc/"}}, {"type": "node", "id": 5472952097, "lat": 40.7020994, "lon": -73.9194804, "tags": {"amenity": "restaurant", "cuisine": "coffee_shop;donut;sandwich", "delivery": "yes", "email": "milkandpull@gmail.com", "internet_access": "wlan", "name": "Milk & Pull", "opening_hours": "Mo-Fr 07:00-18:00;Sa 08:00-18:00;Su 08:00-17:00", "payment:cash": "yes", "phone": "+1-347-627-8511", "takeaway": "yes", "toilets": "yes", "website": "https://www.milkandpull.com/"}}, {"type": "node", "id": 5554842593, "lat": 40.7049338, "lon": -73.9175904, "tags": {"addr:housenumber": "140", "addr:street": "Saint Nicholas Avenue", "amenity": "cafe", "cuisine": "bagel;sandwich;burger;coffee", "delivery": "yes", "diet:vegetarian": "yes", "internet_access": "wlan", "name": "Gordo\u2019s Cantina", "opening_hours": "Mo-Su 08:00-19:00", "organic": "yes", "payment:cash": "yes", "payment:credit_cards": "yes", "phone": "+1-718-484-8183", "takeaway": "yes", "website": "https://www.barceys.com/", "wheelchair": "yes"}}, {"type": "node", "id": 5580549290, "lat": 40.7025314, "lon": -73.9161329, "tags": {"addr:housenumber": "201", "addr:street": "Wyckoff Avenue", "amenity": "restaurant", "check_date": "2025-05-12", "cuisine": "sushi;tea", "delivery": "yes", "name": "Akaru Sushi", "opening_hours": "Mo-Sa 11:30-22:30; Su 12:30-22:30", "payment:cash": "yes", "payment:credit_cards": "yes", "phone": "+1-718-928-7688", "reservation": "yes", "takeaway": "yes", "wheelchair": "yes"}}, {"type": "node", "id": 5580549887, "lat": 40.7023535, "lon": -73.9158319, "tags": {"addr:housenumber": "211", "addr:street": "Wyckoff Avenue", "amenity": "restaurant", "cuisine": "mexican", "delivery": "yes", "name": "Taqueria Cocoyoc", "opening_hours": "Mo-Th 11:00-23:15; Fr, Sa 11:00-27:00; Su 11:00-25:15", "payment:cash": "yes", "payment:credit_cards": "yes", "phone": "+1-718-497-4489", "takeaway": "yes", "website": "http://www.taqueria-cocoyoc.com/", "wheelchair": "no"}}, {"type": "node", "id": 5597395539, "lat": 40.703584, "lon": -73.9174318, "tags": {"addr:housenumber": "340", "addr:street": "Stanhope Street", "amenity": "cafe", "cuisine": "sandwich;coffee;salad", "delivery": "yes", "internet_access": "wlan", "name": "C M Coffee Shop", "opening_hours": "Mo-Fr 06:00-17:00; Sa 06:00-15:00; Su 07:00-15:00", "payment:cash": "only", "phone": "+1-718-381-0262", "takeaway": "yes"}}, {"type": "node", "id": 5625533849, "lat": 40.7057323, "lon": -73.9217649, "tags": {"addr:housenumber": "46", "addr:postcode": "11237", "addr:street": "Wyckoff Avenue", "amenity": "restaurant", "check_date": "2025-04-10", "cuisine": "indian", "delivery": "yes", "diet:vegetarian": "yes", "name": "Desi Grill", "opening_hours": "Mo-Su 11:00-23:00", "payment:cash": "yes", "payment:credit_cards": "yes", "phone": "+1-718-381-9777", "takeaway": "yes", "website": "http://desigrillindiancuisinebk.com/"}}, {"type": "node", "id": 5625538922, "lat": 40.7056487, "lon": -73.9216186, "tags": {"addr:housenumber": "50", "addr:postcode": "11237", "addr:street": "Wyckoff Avenue", "amenity": "pub", "cocktails": "yes", "cuisine": "cajun", "drink:beer": "draught", "drink:liquor": "yes", "drink:wine": "yes", "email": "heavywoodsbar@gmail.com", "happy_hours": "Mo-Fr 14:00-19:00", "name": "Heavy Woods", "opening_hours": "Mo-Su 11:00-04:00", "opening_hours:kitchen": "Su-Th 11:00-23:00; Fr-Sa 11:00-24:00", "outdoor_seating": "sidewalk", "payment:cash": "yes", "payment:credit_cards": "yes", "phone": "+1-929-234-3500", "sport": "billiards", "takeaway": "yes", "toilets": "yes", "toilets:unisex": "yes", "website": "https://www.heavywoodsbar.com/", "wheelchair": "yes"}}, {"type": "node", "id": 5626983263, "lat": 40.7051123, "lon": -73.9202649, "tags": {"addr:housenumber": "89", "addr:street": "Wyckoff Avenue", "amenity": "bar", "brewery": "various", "email": "lefthandpathbk@gmail.com", "internet_access": "wlan", "internet_access:fee": "no", "name": "Left Hand Path", "opening_hours": "Mo-Th 17:00-28:00; Fr 16:00-28:00; Sa, Su 14:00-28:00", "opening_hours:kitchen": "We-Su 17:00-26:00", "outdoor_seating": "yes", "payment:cash": "yes", "payment:credit_cards": "yes", "toilets": "yes", "toilets:access": "permissive", "toilets:unisex": "yes", "toilets:wheelchair": "yes", "website": "https://lefthandpathbk.com/"}}, {"type": "node", "id": 5627234875, "lat": 40.7046057, "lon": -73.9194468, "tags": {"addr:housenumber": "113", "addr:street": "Wyckoff Avenue", "name": "Koko Cargo Express", "office": "company", "phone": "+1-718-416-3267"}}, {"type": "node", "id": 5627237353, "lat": 40.7044944, "lon": -73.9192531, "tags": {"addr:housenumber": "119", "addr:street": "Wyckoff Avenue", "amenity": "restaurant", "cuisine": "pizza", "delivery": "yes", "name": "Sal's Pizzeria", "opening_hours": "Mo-Su 10:00-22:00", "payment:cash": "yes", "payment:credit_cards": "yes", "phone": "+1-718-386-5299", "takeaway": "yes", "wheelchair": "no"}}, {"type": "node", "id": 5627868448, "lat": 40.7042127, "lon": -73.9188024, "tags": {"addr:city": "Brooklyn", "addr:housenumber": "127", "addr:state": "NY", "addr:street": "Wyckoff Avenue", "amenity": "restaurant", "cuisine": "fried_food;fried_chicken", "diet:halal": "yes", "name": "Crown Chicken & Grill", "payment:cash": "yes", "payment:credit_cards": "yes", "phone": "+1-718-341-8400", "takeaway": "yes", "website": "https://www.crownfriedchicken.com/restaurants/new-york"}}, {"type": "node", "id": 5627868643, "lat": 40.7039682, "lon": -73.9190111, "tags": {"addr:housenumber": "104", "addr:street": "Wyckoff Avenue", "amenity": "cafe", "name": "VEX El Cafe", "opening_hours": "Mo-Fr 08:00-17:00; Sa, Su 09:00-17:00", "phone": "+1-646-683-8951", "website": "https://www.instagram.com/vexelcafe/"}}, {"type": "node", "id": 5627874267, "lat": 40.7038877, "lon": -73.9188896, "tags": {"addr:housenumber": "108", "addr:street": "Wyckoff Avenue", "amenity": "pub", "check_date": "2023-05-29", "happy_hours": "Mo-Su 17:00-19:00", "internet_access": "wlan", "name": "Abe's Pagoda Bar", "opening_hours": "Mo-Su 12:00-04:00", "payment:cash": "yes", "payment:credit_cards": "yes", "payment:debit_cards": "yes", "phone": "+1-718-366-6913", "sport": "billiards", "toilets": "yes", "website": "https://www.abespagodabar.com/", "wheelchair": "yes"}}, {"type": "node", "id": 5627875406, "lat": 40.7037765, "lon": -73.9179885, "tags": {"addr:housenumber": "151", "addr:street": "Wyckoff Avenue", "amenity": "restaurant", "cuisine": "greek", "name": "Gyro", "payment:cash": "yes", "payment:credit_cards": "yes"}}, {"type": "node", "id": 5627878428, "lat": 40.7034525, "lon": -73.9181546, "tags": {"addr:city": "Brooklyn", "addr:housenumber": "124", "addr:postcode": "11237", "addr:state": "NY", "addr:street": "Wyckoff Avenue", "alt_name": "Liberty Tax Service", "brand": "Liberty Tax", "brand:wikidata": "Q6541978", "name": "Liberty Tax", "office": "tax_advisor", "opening_hours": "Mo-Fr 10:00-18:00", "phone": "+1-718-366-1234", "toilets": "yes", "website": "https://www.libertytax.com/income-tax-preparation-locations/16660.html"}}, {"type": "node", "id": 5627882539, "lat": 40.7034857, "lon": -73.9182324, "tags": {"addr:housenumber": "122", "addr:street": "Wyckoff Avenue", "amenity": "restaurant", "cuisine": "chicken", "delivery": "yes", "name": "Inca Chicken", "opening_hours": "Mo-Su 11:30-21:00", "phone": "+1-718-366-3763", "takeaway": "yes"}}, {"type": "node", "id": 5635174819, "lat": 40.7031166, "lon": -73.9170639, "tags": {"addr:housenumber": "181", "addr:street": "Wyckoff Avenue", "amenity": "restaurant", "check_date": "2025-05-12", "cuisine": "thai", "delivery": "yes", "diet:vegan": "yes", "diet:vegetarian": "yes", "name": "Klom Klorm", "opening_hours": "Mo-Su 11:00-22:30", "phone": "+1-718-489-9188", "reservation": "yes", "website": "https://www.klomklormnyc.com/"}}, {"type": "node", "id": 5635284299, "lat": 40.7026827, "lon": -73.9171262, "tags": {"addr:city": "Brooklyn", "addr:housenumber": "346", "addr:postcode": "11237", "addr:state": "NY", "addr:street": "Himrod Street", "amenity": "restaurant", "brewery": "various", "cocktails": "yes", "craft": "caterer", "cuisine": "pizza", "delivery": "yes", "diet:vegetarian": "yes", "drink:beer": "yes", "drink:liquor": "yes", "drink:wine": "yes", "fireplace": "yes", "name": "Ops", "opening_hours": "Tu-Th,Su 17:00-22:00; Fr,Sa 17:00-23:00", "organic": "yes", "outdoor_seating": "yes", "payment:cash": "yes", "payment:debit_cards": "yes", "phone": "+1-718-386-4009", "takeaway": "yes", "toilets": "yes", "website": "https://opsbk.com", "wheelchair": "yes"}}, {"type": "node", "id": 5635879020, "lat": 40.7030885, "lon": -73.9175644, "tags": {"addr:housenumber": "136", "addr:street": "Wyckoff Avenue", "brand": "State Farm", "brand:wikidata": "Q2007336", "name": "David Gonzalez - State Farm Insurance Agent", "office": "insurance", "opening_hours": "Mo-Fr 09:00-17:00; Sa 10:00-14:00", "operator": "David Gonzalez", "phone": "+1-718-386-6800", "website": "https://www.myagentisdavid.com/"}}, {"type": "node", "id": 5635893524, "lat": 40.7025063, "lon": -73.9166275, "tags": {"addr:housenumber": "158", "addr:street": "Wyckoff Avenue", "name": "America's Travel Express", "office": "travel_agent", "phone": "+1-718-381-4570"}}, {"type": "node", "id": 5642913664, "lat": 40.703075, "lon": -73.9218056, "tags": {"addr:housenumber": "887", "addr:street": "Hart Street", "amenity": "restaurant", "cocktails": "yes", "cuisine": "mexican", "delivery": "yes", "delivery:fee": "no", "diet:vegetarian": "yes", "drink:coffee": "served", "drink:sangria": "yes", "email": "amarantobklyn@gmail.com", "name": "Amaranto", "opening_hours": "Mo-Th, Su 12:00-23:00; Fr, Sa 12:00-24:00", "payment:cash": "yes", "phone": "+1-718-576-6001", "reservation": "yes", "takeaway": "yes", "website": "https://amarantobklyn.com/"}}, {"type": "node", "id": 5697641883, "lat": 40.7042927, "lon": -73.9194903, "tags": {"addr:city": "Brooklyn", "addr:housenumber": "96", "addr:postcode": "11237", "addr:state": "NY", "addr:street": "Wyckoff Avenue", "amenity": "restaurant", "cuisine": "dominican", "delivery": "yes", "drink:coffee": "served", "name": "Sazon Nu\u00f1ez", "opening_hours": "Mo-Su 10:30-21:30", "phone": "+1-347-750-7894", "takeaway": "yes"}}, {"type": "node", "id": 6872279129, "lat": 40.7058096, "lon": -73.9219002, "tags": {"amenity": "cafe", "check_date": "2025-04-10", "cuisine": "breakfast;sandwich", "drink:coffee": "yes", "drink:espresso": "yes", "name": "Hala Coffee & Kitchen", "phone": "+1-718-821-1850", "toilets": "yes", "toilets:access": "customers"}}, {"type": "node", "id": 7228213185, "lat": 40.7033983, "lon": -73.9180101, "tags": {"addr:housenumber": "128", "addr:street": "Wyckoff Avenue", "amenity": "restaurant", "cuisine": "mexican", "name": "Taqueria al Pastor", "opening_hours": "Mo-Su 11:00-22:00", "phone": "+1-718-269-7538"}}, {"type": "node", "id": 7536644762, "lat": 40.7059819, "lon": -73.9214907, "tags": {"addr:city": "Brooklyn", "addr:housenumber": "49", "addr:postcode": "11237", "addr:state": "NY", "addr:street": "Wyckoff Avenue", "addr:unit": "Brooklyn Desks coworking", "description": "Cetera Labs offers eCommerce development and support services worldwide", "name": "Cetera Labs", "office": "company", "opening_hours": "24/7", "phone": "+1-347-620-0902", "website": "https://ceteralabs.com/"}}, {"type": "node", "id": 9380402850, "lat": 40.7040227, "lon": -73.9170004}, {"type": "node", "id": 9380402851, "lat": 40.7040119, "lon": -73.9169818}, {"type": "node", "id": 9380402852, "lat": 40.7040033, "lon": -73.9169922}, {"type": "node", "id": 9380402853, "lat": 40.7040132, "lon": -73.9170103}, {"type": "node", "id": 9380402854, "lat": 40.7040181, "lon": -73.9170056}, {"type": "node", "id": 9875579417, "lat": 40.7027469, "lon": -73.9206221, "tags": {"addr:housenumber": "1544", "addr:postcode": "11237", "addr:street": "DeKalb Avenue", "amenity": "bar", "opening_hours": "Mo-Su 17:00-04:00"}}, {"type": "node", "id": 10698434810, "lat": 40.7027786, "lon": -73.9205174, "tags": {"addr:housenumber": "1544", "addr:street": "DeKalb Avenue", "amenity": "bar", "brewery": "various", "cocktails": "yes", "drink:wine": "yes", "name": "Carmelo's", "opening_hours": "Mo-Su 17:00-04:00", "sport": "billiards", "toilets": "yes", "toilets:unisex": "yes", "toilets:wheelchair": "yes"}}, {"type": "node", "id": 12269398149, "lat": 40.7062229, "lon": -73.9212463, "tags": {"addr:city": "Brooklyn", "addr:housenumber": "1329", "addr:postcode": "11237", "addr:state": "NY", "addr:street": "Willoughby Avenue", "amenity": "bar", "contact:instagram": "selva_nyc", "name": "Selva"}}, {"type": "node", "id": 12269406401, "lat": 40.7061778, "lon": -73.9211621, "tags": {"addr:city": "Brooklyn", "addr:housenumber": "1329", "addr:postcode": "11237", "addr:state": "NY", "addr:street": "Willoughby Avenue", "amenity": "cafe", "contact:instagram": "thebunker_bk", "cuisine": "coffee_shop", "name": "Bunker Bk Cafe", "opening_hours": "08:00-17:00"}}, {"type": "node", "id": 12533953501, "lat": 40.7061629, "lon": -73.9210971, "tags": {"amenity": "restaurant", "name": "The Monkey King"}}, {"type": "node", "id": 12623522121, "lat": 40.7063118, "lon": -73.9210831, "tags": {"addr:city": "Brooklyn", "addr:housenumber": "1329", "addr:postcode": "11237", "addr:state": "NY", "addr:street": "Willoughby Avenue", "addr:unit": "211", "amenity": "bar", "name": "Ra-Ra Rhino"}}, {"type": "way", "id": 562591854, "nodes": [5423479101, 5423479099, 5423479105, 5423479098, 5423479101], "tags": {"amenity": "school", "name": "J.H.S. 162 The Willoughby"}}, {"type": "way", "id": 1016995555, "nodes": [9380402850, 9380402851, 9380402852, 9380402853, 9380402854, 9380402850], "tags": {"air_conditioning": "yes", "building": "yes", "office": "security"}}]}