{"version": 0.6, "generator": "Overpass API 0.7.62.8 e802775f", "osm3s": {"timestamp_osm_base": "2025-12-01T17:37:27Z", "copyright": "The data included in this document is from www.openstreetmap.org. The data is made available under ODbL."}, "elements": [{"type": "node", "id": 357635431, "lat": 40.6818561, "lon": -73.9437374}, {"type": "node", "id": 1337590452, "lat": 40.6781886, "lon": -73.9414952}, {"type": "node", "id": 1337590530, "lat": 40.6782795, "lon": -73.9430956}, {"type": "node", "id": 1337590533, "lat": 40.6792099, "lon": -73.9430037}, {"type": "node", "id": 1337590541, "lat": 40.6791191, "lon": -73.9414034}, {"type": "node", "id": 2547630771, "lat": 40.6797037, "lon": -73.9392445, "tags": {"addr:city": "Brooklyn", "addr:housenumber": "1540", "addr:postcode": "11213", "addr:state": "NY", "addr:street": "Fulton Street", "name": "Bedford Heights Brooklyn Social Security Office", "office": "government"}}, {"type": "node", "id": 2568036779, "lat": 40.6773619, "lon": -73.9421022, "tags": {"addr:housenumber": "1485", "addr:postcode": "11216", "addr:street": "Pacific Street", "amenity": "school", "name": "Uncommon Charter High School"}}, {"type": "node", "id": 2568353082, "lat": 40.6799255, "lon": -73.9387255, "tags": {"addr:city": "Brooklyn", "addr:housenumber": "1563", "addr:postcode": "11216", "addr:state": "NY", "addr:street": "Fulton Street", "amenity": "restaurant", "cuisine": "regional;dominican;american", "name": "Blue Cafe Restaurant"}}, {"type": "node", "id": 2568353703, "lat": 40.6802739, "lon": -73.9402653}, {"type": "node", "id": 2568353708, "lat": 40.6802918, "lon": -73.9401085}, {"type": "node", "id": 2568353730, "lat": 40.6803219, "lon": -73.9402747}, {"type": "node", "id": 2568353734, "lat": 40.6803272, "lon": -73.9402279}, {"type": "node", "id": 2568353753, "lat": 40.6803397, "lon": -73.9401179}, {"type": "node", "id": 3804418999, "lat": 40.6822812, "lon": -73.9448619}, {"type": "node", "id": 3804419000, "lat": 40.6823983, "lon": -73.9438461}, {"type": "node", "id": 3804419002, "lat": 40.681739, "lon": -73.9447532}, {"type": "node", "id": 3807244711, "lat": 40.6806646, "lon": -73.9374162, "tags": {"addr:city": "Brooklyn", "addr:housenumber": "144", "addr:postcode": "11233", "addr:state": "NY", "addr:street": "Decatur Street", "amenity": "restaurant", "internet_access": "wlan", "name": "Sumner Cafe", "smoking": "no"}}, {"type": "node", "id": 5220904072, "lat": 40.6796859, "lon": -73.938832, "tags": {"amenity": "restaurant", "cuisine": "pizza", "name": "Daddy Greens"}}, {"type": "node", "id": 5221020075, "lat": 40.6799138, "lon": -73.9429674, "tags": {"addr:city": "Brooklyn", "addr:housenumber": "1446", "addr:postcode": "11216", "addr:state": "NY", "addr:street": "Fulton Street", "amenity": "bar", "name": "Fulton Ale House"}}, {"type": "node", "id": 5221020076, "lat": 40.6799265, "lon": -73.9430377, "tags": {"addr:city": "Brooklyn", "addr:housenumber": "1444", "addr:postcode": "11216", "addr:state": "NY", "addr:street": "Fulton Street", "amenity": "restaurant", "cuisine": "jamaican", "name": "Soldier Restaurant"}}, {"type": "node", "id": 5221020078, "lat": 40.6799036, "lon": -73.9428226, "tags": {"addr:city": "Brooklyn", "addr:housenumber": "1450", "addr:postcode": "11216", "addr:state": "NY", "addr:street": "Fulton Street", "amenity": "restaurant", "cuisine": "thai", "name": "Agosto Thai"}}, {"type": "node", "id": 8707100927, "lat": 40.6801101, "lon": -73.9419075, "tags": {"name": "Think Wealth", "office": "tax_advisor"}}, {"type": "node", "id": 8707100928, "lat": 40.680094, "lon": -73.9417657, "tags": {"amenity": "bar", "cuisine": "american", "drink:beer": "yes", "drink:liquor": "yes", "happy_hours": "Mo 17:00-18:00; Tu-Fr 13:00-18:00", "name": "IV Purpose", "opening_hours": "Mo 17:00-23:00; Tu-Su 13:00-23:00", "outdoor_seating": "sidewalk;street", "website": "https://ivpurposebk.com"}}, {"type": "node", "id": 9140312164, "lat": 40.682442, "lon": -73.9432856, "tags": {"amenity": "cafe", "building": "yes", "cocktails": "yes", "cuisine": "coffee_shop;sandwich", "drink:liquor": "yes", "drink:wine": "yes", "indoor_seating": "yes", "name": "Corto", "outdoor_seating": "yes", "toilets": "yes", "toilets:unisex": "yes"}}, {"type": "node", "id": 9142828439, "lat": 40.6822958, "lon": -73.944735}, {"type": "node", "id": 9142828440, "lat": 40.6823805, "lon": -73.944}, {"type": "node", "id": 9403340355, "lat": 40.6802412, "lon": -73.9443465, "tags": {"name": "Corcoran", "office": "estate_agent", "phone": "+1-929-299-5150", "website": "https://www.corcoran.com/real-estate-offices/bedford-stuyvesant/554"}}, {"type": "node", "id": 9530982105, "lat": 40.6800689, "lon": -73.9413344, "tags": {"alt_name": "Libre InkWell II", "amenity": "pub", "cuisine": "seafood", "name": "Lebre Garden"}}, {"type": "node", "id": 9532890829, "lat": 40.6797613, "lon": -73.9403433, "tags": {"addr:housenumber": "1514", "addr:postcode": "11213", "addr:street": "Fulton Street", "estate_agent": "yes", "name": "Crossboro Business Services", "office": "estate_agent", "phone": "+1-718-467-1800", "tax_advisor": "yes", "travel_agent": "yes", "website": "https://www.crossboro.net"}}, {"type": "node", "id": 9532890830, "lat": 40.6797547, "lon": -73.9402608, "tags": {"addr:city": "Brooklyn", "addr:housenumber": "1516", "addr:postcode": "11213", "addr:state": "NY", "addr:street": "Fulton Street", "amenity": "restaurant", "bar": "yes", "cocktails": "yes", "cuisine": "american;nigerian", "drink:beer": "yes", "drink:liquor": "yes", "drink:wine": "yes", "name": "Cafe Plus", "website": "https://thecafeplus.com"}}, {"type": "node", "id": 9677771643, "lat": 40.6782108, "lon": -73.9418859}, {"type": "node", "id": 9677771644, "lat": 40.6782305, "lon": -73.9422333}, {"type": "node", "id": 11136769495, "lat": 40.6821714, "lon": -73.9380393, "tags": {"amenity": "restaurant", "indoor_seating": "yes", "name": "Zaca Cafe", "outdoor_seating": "yes"}}, {"type": "way", "id": 118987685, "nodes": [1337590533, 1337590530, 9677771644, 9677771643, 1337590452, 1337590541, 1337590533], "tags": {"ele": "18", "gnis:feature_id": "2374995", "leisure": "park", "name": "Saint Andrews Playground", "source": "Bing", "wikidata": "Q34859715"}}, {"type": "way", "id": 250372535, "nodes": [2568353703, 2568353730, 2568353734, 2568353753, 2568353708, 2568353703], "tags": {"addr:housenumber": "629", "addr:postcode": "11216", "addr:street": "Throop Avenue", "amenity": "cafe", "building": "yes", "height": "12.6", "name": "T-Cup Cafe", "nycdoitt:bin": "3053661", "opening_hours": "closed"}}, {"type": "way", "id": 377078403, "nodes": [3804418999, 9142828439, 9142828440, 3804419000, 357635431, 3804419002, 3804418999], "tags": {"alt_name": "David Ruggles Playground", "ele": "15", "gnis:feature_id": "2374997", "leisure": "park", "name": "Potomac Playground", "opening_hours": "Mo-Su 06:00-21:00", "operator": "New York City Department of Parks and Recreation", "operator:short": "NYC Parks", "operator:type": "public", "operator:wikidata": "Q1894232", "website": "https://www.nycgovparks.org/parks/potomac-playground/", "wikidata": "Q116205362"}}]}