{"version": 0.6, "generator": "Overpass API 0.7.62.8 e802775f", "osm3s": {"timestamp_osm_base": "2025-12-01T04:01:05Z", "copyright": "The data included in this document is from www.openstreetmap.org. The data is made available under ODbL."}, "elements": [{"type": "node", "id": 357567504, "lat": 40.6717359, "lon": -73.984382}, {"type": "node", "id": 2494291188, "lat": 40.6725181, "lon": -73.9910083}, {"type": "node", "id": 2494291744, "lat": 40.671195, "lon": -73.9884777, "tags": {"addr:housenumber": "205", "addr:postcode": "11215", "addr:street": "8th Street", "amenity": "cafe", "contact:instagram": "@roomno205", "cuisine": "coffee_shop;sandwich", "drink:coffee": "yes", "drink:espresso": "yes", "name": "Room No. 205", "opening_hours": "Mo-Fr 07:00-16:00; Sa 08:00-16:00", "outdoor_seating": "sidewalk"}}, {"type": "node", "id": 2494291838, "lat": 40.6724544, "lon": -73.989301, "tags": {"addr:housenumber": "213", "addr:postcode": "11215", "addr:street": "7th Street", "name": "International Furniture", "office": "company"}}, {"type": "node", "id": 2494291885, "lat": 40.6729307, "lon": -73.9890714, "tags": {"addr:housenumber": "232", "addr:postcode": "11215", "addr:street": "6th Street", "name": "Brooklyn Solarworks", "office": "company", "phone": "+1-347-474-7144", "website": "https://www.brooklynsolarworks.com"}}, {"type": "node", "id": 2494292245, "lat": 40.6723816, "lon": -73.9878823}, {"type": "node", "id": 2494292682, "lat": 40.6722271, "lon": -73.9905723, "tags": {"addr:housenumber": "444A", "addr:postcode": "11215", "addr:street": "3rd Avenue", "description": "home & commercial heating oil", "name": "Admiral Energy", "office": "company", "phone": "+1-718-858-7622", "website": "https://admiralenergy.com/"}}, {"type": "node", "id": 2494294537, "lat": 40.6721639, "lon": -73.9879037}, {"type": "node", "id": 2494294591, "lat": 40.6721944, "lon": -73.9878782}, {"type": "node", "id": 2494294609, "lat": 40.6725212, "lon": -73.9910057}, {"type": "node", "id": 2494294615, "lat": 40.6722195, "lon": -73.9880182}, {"type": "node", "id": 2494294690, "lat": 40.672326, "lon": -73.9877678}, {"type": "node", "id": 2494294778, "lat": 40.6724256, "lon": -73.9908163}, {"type": "node", "id": 2494294807, "lat": 40.6724976, "lon": -73.9907559}, {"type": "node", "id": 2494294845, "lat": 40.6725955, "lon": -73.9906739}, {"type": "node", "id": 2494294849, "lat": 40.6726005, "lon": -73.9909393}, {"type": "node", "id": 2494294878, "lat": 40.6726215, "lon": -73.9909829}, {"type": "node", "id": 2494294896, "lat": 40.6726638, "lon": -73.9909475}, {"type": "node", "id": 2494294913, "lat": 40.6726869, "lon": -73.9909281}, {"type": "node", "id": 2494294976, "lat": 40.6728048, "lon": -73.9904986}, {"type": "node", "id": 2494295036, "lat": 40.6728973, "lon": -73.9906906}, {"type": "node", "id": 2494295044, "lat": 40.6729183, "lon": -73.9907343}, {"type": "node", "id": 2494295109, "lat": 40.6730234, "lon": -73.9905491}, {"type": "node", "id": 2494295146, "lat": 40.6730754, "lon": -73.9898457}, {"type": "node", "id": 2494295156, "lat": 40.6731979, "lon": -73.9905975}, {"type": "node", "id": 2494295195, "lat": 40.6731673, "lon": -73.9897691}, {"type": "node", "id": 2494295220, "lat": 40.6732214, "lon": -73.9901503}, {"type": "node", "id": 2494295227, "lat": 40.6732558, "lon": -73.9903555}, {"type": "node", "id": 2494295247, "lat": 40.6733133, "lon": -73.9900738}, {"type": "node", "id": 2494295255, "lat": 40.6733222, "lon": -73.9904939}, {"type": "node", "id": 2494295362, "lat": 40.6734193, "lon": -73.9912955, "tags": {"addr:housenumber": "167", "addr:postcode": "11215", "addr:street": "7th Street", "craft": "signmaker", "name": "We Are Signs & Awnings", "office": "company", "phone": "+1-718-246-0499", "website": "https://www.wearesignsny.com"}}, {"type": "node", "id": 2550101792, "lat": 40.6714776, "lon": -73.9919261}, {"type": "node", "id": 2550101802, "lat": 40.6715262, "lon": -73.9920274}, {"type": "node", "id": 2550101811, "lat": 40.6717099, "lon": -73.9917336}, {"type": "node", "id": 2550101814, "lat": 40.6717586, "lon": -73.9918349}, {"type": "node", "id": 2550565312, "lat": 40.6711481, "lon": -73.9848633, "tags": {"addr:housenumber": "384", "addr:postcode": "11215", "addr:street": "5th Avenue", "alt_name": "Tofu on 5th Avenue", "amenity": "restaurant", "cuisine": "chinese;japanese", "delivery": "yes", "drink:beer": "bottled", "drink:sake": "yes", "drink:wine": "yes", "fax": "+1-718-768-5749", "name": "Authentic Szechuan", "opening_hours": "Mo-Th 11:30-22:30; Fr-Sa 11:30-23:00; Su 12:00-22:30", "phone": "+1-718-788-2226", "takeaway": "yes"}}, {"type": "node", "id": 2550571783, "lat": 40.6695584, "lon": -73.9855576, "tags": {"addr:housenumber": "288", "addr:postcode": "11215", "addr:street": "8th Street", "name": "Law Office of Michael Schaum", "office": "lawyer", "phone": "+1-718-499-4942"}}, {"type": "node", "id": 2550571786, "lat": 40.66954, "lon": -73.9855202, "tags": {"addr:housenumber": "288", "addr:postcode": "11215", "addr:street": "8th Street", "name": "Royal Slope Realty", "office": "estate_agent", "phone": "+1-718-768-7489"}}, {"type": "node", "id": 2550572643, "lat": 40.6707899, "lon": -73.9876852}, {"type": "node", "id": 2550572645, "lat": 40.670803, "lon": -73.9877126}, {"type": "node", "id": 2550572693, "lat": 40.6709278, "lon": -73.9879723}, {"type": "node", "id": 2550572745, "lat": 40.6710835, "lon": -73.9873394}, {"type": "node", "id": 2550572751, "lat": 40.6711669, "lon": -73.9872698}, {"type": "node", "id": 2550572755, "lat": 40.6712128, "lon": -73.9872315}, {"type": "node", "id": 2550581361, "lat": 40.6691315, "lon": -73.9894619, "tags": {"addr:housenumber": "463", "addr:postcode": "11215", "addr:street": "4th Avenue", "amenity": "restaurant", "cuisine": "mexican", "drink:beer": "yes", "drink:liquor": "yes", "name": "Macario", "opening_hours": "Tu-Su 11:00-21:00"}}, {"type": "node", "id": 2562129132, "lat": 40.6686266, "lon": -73.9906654, "tags": {"addr:housenumber": "500", "addr:postcode": "11215", "addr:street": "4th Avenue", "addr:unit": "3", "name": "Q Realty", "office": "estate_agent", "phone": "+1-718-768-3000", "website": "https://qrealtyny.com"}}, {"type": "node", "id": 2562129791, "lat": 40.6684757, "lon": -73.9916315}, {"type": "node", "id": 2562129825, "lat": 40.6685115, "lon": -73.9917067}, {"type": "node", "id": 2562129831, "lat": 40.6685271, "lon": -73.9916938}, {"type": "node", "id": 2562129886, "lat": 40.6685979, "lon": -73.9916358}, {"type": "node", "id": 2562129902, "lat": 40.6686194, "lon": -73.9915135}, {"type": "node", "id": 2562129963, "lat": 40.6687061, "lon": -73.9914424}, {"type": "node", "id": 2562129998, "lat": 40.6687419, "lon": -73.9915175}, {"type": "node", "id": 2562131733, "lat": 40.6706983, "lon": -73.9914759, "tags": {"addr:housenumber": "473", "addr:postcode": "11215", "addr:street": "3rd Avenue", "amenity": "restaurant", "bar": "yes", "cocktails": "yes", "cuisine": "pizza;italian", "drink:beer": "draught", "drink:liquor": "yes", "drink:wine": "yes", "happy_hours": "Mo-Su 10:00-18:00", "name": "Table 87 Coal Oven Pizza", "opening_hours": "Mo-Th 11:00-22:00; Fr-Sa 11:00-23:00; Su 11:00-22:00", "outdoor_seating": "sidewalk", "phone": "+1-718-965-8400", "website": "https://www.table87.com/pages/menu"}}, {"type": "node", "id": 2700406477, "lat": 40.672204, "lon": -73.9839913}, {"type": "node", "id": 2700406478, "lat": 40.6727208, "lon": -73.9846287}, {"type": "node", "id": 2700406479, "lat": 40.673357, "lon": -73.9859543}, {"type": "node", "id": 2700406480, "lat": 40.6737405, "lon": -73.9854888}, {"type": "node", "id": 2715851754, "lat": 40.670936, "lon": -73.9879894}, {"type": "node", "id": 2715851756, "lat": 40.6712331, "lon": -73.9872146}, {"type": "node", "id": 2715851758, "lat": 40.6714136, "lon": -73.9875905}, {"type": "node", "id": 3671145141, "lat": 40.6688126, "lon": -73.9897325, "tags": {"addr:city": "Brooklyn", "addr:housenumber": "469", "addr:postcode": "11215", "addr:state": "NY", "addr:street": "4th Avenue", "amenity": "restaurant", "cocktails": "yes", "contact:facebook": "https://www.facebook.com/Olivier-bistro-564649660256647/", "cuisine": "french;breakfast;brunch", "drink:coffee": "yes", "drink:liquor": "yes", "drink:wine": "yes", "name": "Olivier Bistro", "opening_hours": "Mo-Th 17:00-22:30, Fr 11:00-23:00; Sa 10:00-23:00; Su 10:00-22:00", "outdoor_seating": "sidewalk", "phone": "+1-718-768-6600", "takeaway": "yes", "website": "http://olivierbistro.com"}}, {"type": "node", "id": 3671177056, "lat": 40.6725967, "lon": -73.986173}, {"type": "node", "id": 3671177057, "lat": 40.6730914, "lon": -73.9857614}, {"type": "node", "id": 3671177058, "lat": 40.6728255, "lon": -73.9852462}, {"type": "node", "id": 3671177059, "lat": 40.6726578, "lon": -73.9849541}, {"type": "node", "id": 3671177063, "lat": 40.6727846, "lon": -73.9860168}, {"type": "node", "id": 3671177065, "lat": 40.6723033, "lon": -73.9855593}, {"type": "node", "id": 3674170469, "lat": 40.6710647, "lon": -73.9851813, "tags": {"addr:city": "Brooklyn", "addr:housenumber": "326", "addr:postcode": "11215", "addr:state": "NY", "addr:street": "6th Street", "amenity": "cafe", "cuisine": "coffee_shop", "drink:coffee": "yes", "drink:espresso": "yes", "internet_access": "wlan", "name": "Postmark Cafe", "opening_hours": "Mo-Fr 07:00-18:00; Sa 08:00-18:00", "outdoor_seating": "yes", "phone": "+1-718-768-2613", "wheelchair": "yes"}}, {"type": "node", "id": 3887158066, "lat": 40.670865, "lon": -73.9878416, "tags": {"entrance": "main"}}, {"type": "node", "id": 4057585668, "lat": 40.6712414, "lon": -73.9910207, "tags": {"addr:housenumber": "457", "addr:postcode": "11215", "addr:street": "3rd Avenue", "amenity": "restaurant", "cocktails": "yes", "cuisine": "italian", "disused:website": "http://sweettalkbrooklyn.com", "drink:beer": "draught", "drink:liquor": "yes", "drink:wine": "yes", "name": "Sweet Talk", "old_name": "Bar Tano", "opening_hours": "Su-Th 17:00-22:30; Fr,Sa 17:00-23:30", "outdoor_seating": "patio", "phone": "+1-718-499-3400"}}, {"type": "node", "id": 4060041033, "lat": 40.6720952, "lon": -73.990306, "tags": {"addr:housenumber": "439", "addr:postcode": "11215", "addr:street": "3rd Avenue", "amenity": "cafe", "bakery": "yes", "cuisine": "pie;coffee_shop", "description": "cafe/bakery/pie shop selling whole pies", "drink:coffee": "yes", "drink:espresso": "yes", "name": "Four & Twenty Blackbirds", "opening_hours": "Mo-Fr 08:00-18:00; Sa 09:00-19:00; Su 10:00-19:00", "outdoor_seating": "sidewalk", "phone": "+1-718-499-2917", "shop": "pastry", "takeaway": "yes", "website": "https://birdsblack.com"}}, {"type": "node", "id": 5043485437, "lat": 40.6731605, "lon": -73.9842851, "tags": {"barrier": "gate"}}, {"type": "node", "id": 5043485439, "lat": 40.6731525, "lon": -73.9842684}, {"type": "node", "id": 5104099243, "lat": 40.6693658, "lon": -73.9898225, "tags": {"addr:city": "Brooklyn", "addr:housenumber": "476", "addr:postcode": "11215", "addr:state": "NY", "addr:street": "4th Avenue", "amenity": "cafe", "branch": "4th Avenue & 11th St.-Park Slope", "brand": "Starbucks", "brand:wikidata": "Q37158", "cuisine": "coffee_shop", "name": "Starbucks", "official_name": "Starbucks Coffee", "opening_hours": "Mo-Fr 05:30-21:00; Sa-Su 06:00-21:00", "phone": "+1 929-214-9558", "takeaway": "yes", "toilets": "yes", "toilets:access": "customers", "website": "https://www.starbucks.com/store-locator/store/1016616/4th-ave-11-th-st-park-slope-476-4th-ave-brooklyn-ny-112153928-us"}}, {"type": "node", "id": 5476093789, "lat": 40.6691202, "lon": -73.985797, "tags": {"addr:housenumber": "317", "addr:street": "9th Street", "amenity": "restaurant", "cuisine": "latin_american", "name": "El Viejo Yayo 2", "opening_hours": "Mo-Su 07:00-23:00", "outdoor_seating": "sidewalk;street", "phone": "+1-718-965-7299", "website": "https://www.yayo2.com"}}, {"type": "node", "id": 5500008571, "lat": 40.6712714, "lon": -73.9847604, "tags": {"addr:housenumber": "376", "addr:postcode": "11215", "addr:street": "5th Avenue", "amenity": "restaurant", "cocktails": "yes", "cuisine": "colombian", "diet:vegetarian": "yes", "drink:beer": "draught", "drink:liquor": "yes", "drink:wine": "yes", "happy_hours": "Mo-Fr 14:00-18:00", "name": "Columbia in Park Slope", "outdoor_seating": "garden", "phone": "+1-718-369-2020", "toilets": "yes", "toilets:unisex": "no", "toilets:wheelchair": "yes", "website": "https://www.colombiany.com/"}}, {"type": "node", "id": 5506774608, "lat": 40.6702776, "lon": -73.9855774, "tags": {"amenity": "restaurant", "bar": "yes", "check_date": "2024-01-09", "cocktails": "yes", "cuisine": "mexican", "drink:beer": "draught", "drink:liquor": "yes", "drink:wine": "yes", "name": "Chela", "opening_hours": "Mo-Th 11:00-23:00; Fr-Sa 11:00-24:00; Su 11:00-23:00", "phone": "+1-718-701-1891", "website": "https://chelaparkslope.com"}}, {"type": "node", "id": 5642678619, "lat": 40.6718143, "lon": -73.9909188, "tags": {"amenity": "restaurant", "cuisine": "indian", "delivery": "yes", "diet:vegan": "yes", "diet:vegetarian": "yes", "fax": "+1-718-832-3777", "name": "Kanan Indian Restaurant", "opening_hours": "Mo-Su 11:30-15:00, 17:00-22:30", "phone": "+1-718-369-3777", "takeaway": "yes", "website": "http://kananindianrestaurant.com"}}, {"type": "node", "id": 5642678922, "lat": 40.6711411, "lon": -73.9910976, "tags": {"name": "Design & Craft", "office": "yes"}}, {"type": "node", "id": 5648649304, "lat": 40.6706968, "lon": -73.9887022, "tags": {"addr:housenumber": "440", "addr:postcode": "11215", "addr:street": "4th Avenue", "amenity": "cafe", "cuisine": "coffee_shop;juice", "name": "Drip & Blend"}}, {"type": "node", "id": 5656772685, "lat": 40.6708091, "lon": -73.9886086, "tags": {"estate_agent": "yes", "name": "Fairweather", "office": "accountant", "opening_hours": "Mo-Fr 09:00-20:00; Sa 10:00-18:00; Su 12:00-17:00", "phone": "+1-718-768-8370", "service:notary": "yes", "website": "https://frftaxrelief.com"}}, {"type": "node", "id": 5656772689, "lat": 40.6709654, "lon": -73.9850217, "tags": {"amenity": "restaurant", "cuisine": "thai", "delivery": "yes", "drink:byob": "yes", "name": "Luck Thai", "opening_hours": "Mo-Th 11:30-22:00; Fr-Sa 11:30-22:30; Su 12:00-22:00", "phone": "+1-718-499-1888", "takeaway": "yes"}}, {"type": "node", "id": 5706864741, "lat": 40.6687941, "lon": -73.9851157, "tags": {"amenity": "pub", "cocktails": "yes", "cuisine": "burger;pub;mexican", "delivery": "yes", "drink:beer": "draught", "drink:liquor": "yes", "drink:wine": "yes", "name": "Dram Shop", "opening_hours": "Mo-Th 17:00-24:00; Fr 15:00-02:00; Sa 12:00-02:00; Su 12:00-24:00", "opening_hours:kitchen": "Mo-Th 17:00-24:00; Fr 15:00-24:00; Sa-Su 12:00-24:00", "outdoor_seating": "street", "phone": "+1-929-276-3452", "pinball": "yes", "sport": "billiards;darts", "toilets": "yes", "website": "https://www.dramshopbrooklyn.com", "wheelchair": "yes"}}, {"type": "node", "id": 5771336673, "lat": 40.6708059, "lon": -73.9851362, "tags": {"amenity": "restaurant", "cuisine": "chinese", "drink:wine": "yes", "name": "Fleur", "phone": "+1-718-534-0110"}}, {"type": "node", "id": 5774139397, "lat": 40.6732561, "lon": -73.9897416, "tags": {"addr:housenumber": "406", "addr:postcode": "11215", "addr:street": "3rd Avenue", "amenity": "pub", "cocktails": "yes", "cuisine": "pizza;snack", "drink:beer": "draught", "drink:liquor": "yes", "drink:wine": "yes", "name": "Halyards", "opening_hours": "We-Su 14:00-22:00", "outdoor_seating": "sidewalk;street", "sport": "billiards", "toilets": "yes", "toilets:unisex": "yes", "website": "https://www.barhalyards.com/"}}, {"type": "node", "id": 5802534224, "lat": 40.6687844, "lon": -73.9859321, "tags": {"brand": "H&R Block", "brand:wikidata": "Q5627799", "name": "H&R Block", "office": "tax_advisor", "phone": "+1-718-768-4933"}}, {"type": "node", "id": 5802534237, "lat": 40.6686091, "lon": -73.9855588, "tags": {"brand": "Allstate", "brand:wikidata": "Q2645636", "check_date": "2024-01-09", "name": "Allstate", "office": "insurance", "opening_hours": "Mo-Th 09:00-20:00; Fr 09:00-17:00; Sa 10:00-16:00", "phone": "+1-718-686-1200"}}, {"type": "node", "id": 5805217636, "lat": 40.6689647, "lon": -73.9866766, "tags": {"amenity": "restaurant", "cuisine": "diner", "drink:coffee": "yes", "name": "Daisy's Diner", "opening_hours": "24/7", "toilets": "yes", "toilets:access": "customers"}}, {"type": "node", "id": 5805217641, "lat": 40.6694826, "lon": -73.9862602, "tags": {"amenity": "pub", "check_date": "2025-06-15", "cocktails": "yes", "drink:beer": "draught", "drink:liquor": "yes", "name": "Smith's Tavern"}}, {"type": "node", "id": 5805217646, "lat": 40.6691904, "lon": -73.9859437, "tags": {"addr:city": "Brooklyn", "addr:housenumber": "313", "addr:postcode": "11215", "addr:state": "NY", "addr:street": "9th Street", "amenity": "cafe", "brand": "Gong Cha", "brand:wikidata": "Q5581670", "brand:zh": "\u8ca2\u8336", "cuisine": "bubble_tea", "drink:bubble_tea": "yes", "drink:coffee": "no", "drink:tea": "yes", "int_name": "Gong Cha", "name": "Gong Cha", "name:zh": "\u8ca2\u8336", "opening_hours": "Mo-Su 11:00-20:00", "phone": "+1-347-294-0496", "takeaway": "yes", "website": "https://www.gongchausa.com"}}, {"type": "node", "id": 5805217649, "lat": 40.6696337, "lon": -73.986123, "tags": {"amenity": "restaurant", "cocktails": "yes", "cuisine": "diner", "delivery": "yes", "drink:beer": "yes", "drink:liquor": "yes", "drink:wine": "yes", "name": "Fifth Avenue Diner", "opening_hours": "Mo-Su 07:00-21:00", "phone": "+1-718-832-8131", "takeaway": "yes"}}, {"type": "node", "id": 5827853292, "lat": 40.6681833, "lon": -73.9869266, "tags": {"amenity": "restaurant", "cuisine": "pizza;italian", "delivery": "yes", "name": "Peppino's", "opening_hours": "We-Th 11:00-21:00; Fr 11:00-22:00; Sa 12:00-22:00; Su 12:00-21:00", "outdoor_seating": "street", "phone": "+1-718-768-7244", "takeaway": "yes"}}, {"type": "node", "id": 5874058720, "lat": 40.6684485, "lon": -73.9898192, "tags": {"addr:housenumber": "227", "addr:postcode": "11215", "addr:street": "12th Street", "name": "Farouk Elsebaie", "office": "accountant", "opening_hours": "Mo-Sa 11:00-17:00", "phone": "+1-718-768-0848"}}, {"type": "node", "id": 5888695219, "lat": 40.6712616, "lon": -73.9882388, "tags": {"amenity": "studio", "name": "Brooklyn Beacon", "office": "graphic_design", "opening_hours": "Mo-We 10:00-22:00; Th-Sa 09:00-23:00; Su 11:00-19:00", "phone": "+1-929-549-7866", "studio": "video", "website": "https://www.brooklynbeacon.com"}}, {"type": "node", "id": 5908861470, "lat": 40.6706191, "lon": -73.9848406, "tags": {"description": "writing lab for children", "name": "Writopia Lab", "office": "tutoring", "phone": "+1-718-285-9638", "website": "https://www.writopialab.org"}}, {"type": "node", "id": 5932291051, "lat": 40.6732332, "lon": -73.9915116, "tags": {"addr:housenumber": "160", "addr:postcode": "11215", "addr:street": "7th Street", "name": "Signature Construction Group", "office": "company", "phone": "+1-718-788-1669"}}, {"type": "node", "id": 5932291058, "lat": 40.6731555, "lon": -73.9907503, "tags": {"addr:housenumber": "185", "addr:postcode": "11215", "addr:street": "7th Street", "name": "EVS Management", "office": "company"}}, {"type": "node", "id": 5937436932, "lat": 40.6707067, "lon": -73.9862615, "tags": {"alt_name": "BBFL Cafe", "amenity": "cafe", "capacity": "8", "cuisine": "coffee_shop;japanese", "drink:coffee": "yes", "drink:smoothie": "yes", "internet_access": "wlan", "internet_access:fee": "no", "name": "Cafe Nanahoshi", "opening_hours": "Mo-Fr 08:00-19:00; Sa-Su 09:30-19:00", "outdoor_seating": "sidewalk"}}, {"type": "node", "id": 5941117973, "lat": 40.6703075, "lon": -73.9890528, "tags": {"atm": "yes", "description": "check cashing, money orders, bill pay, MoneyGram money wires", "money_transfer": "MoneyGram", "name": "Checks & More", "office": "financial", "opening_hours": "Mo-We 08:00-20:00; Th-Fr 08:00-22:00; Sa 08:00-20:00; Su 09:00-17:00", "phone": "+1-718-768-1144"}}, {"type": "node", "id": 5952327093, "lat": 40.6725068, "lon": -73.9909848, "tags": {"addr:housenumber": "145", "addr:postcode": "11215", "addr:street": "8th Street", "entrance": "main"}}, {"type": "node", "id": 5952327094, "lat": 40.672886, "lon": -73.9906672, "tags": {"addr:housenumber": "186", "addr:postcode": "11215", "addr:street": "7th Street", "entrance": "yes"}}, {"type": "node", "id": 5952447307, "lat": 40.6731315, "lon": -73.990459}, {"type": "node", "id": 5952447308, "lat": 40.6730897, "lon": -73.9906875}, {"type": "node", "id": 5981998923, "lat": 40.669662, "lon": -73.9868921, "tags": {"addr:housenumber": "287", "addr:postcode": "11215", "addr:street": "9th Street", "amenity": "cafe", "cuisine": "bagel;coffee_shop;breakfast;sandwich", "drink:coffee": "yes", "drink:espresso": "yes", "internet_access": "wlan", "name": "Bagel Pub", "outdoor_seating": "sidewalk;street", "wheelchair": "yes"}}, {"type": "node", "id": 5981998924, "lat": 40.6690376, "lon": -73.9856243, "tags": {"alt_name": "Donia Travel Agency", "amenity": "driving_school", "description": "real estate, insurance, driving school, travel agent", "name": "Gheith Brokerage", "office": "estate_agent", "phone": "+1-718-768-8064"}}, {"type": "node", "id": 6127070110, "lat": 40.6689163, "lon": -73.9868798, "tags": {"government": "legislator", "name": "City Council Member District 39 Shahana Hanif", "office": "government", "phone": "+1-718-499-1090"}}, {"type": "node", "id": 6238366159, "lat": 40.6721962, "lon": -73.9902225, "tags": {"amenity": "restaurant", "branch": "Gowanus", "cuisine": "barbecue", "drink:beer": "draught", "name": "Mighty Quinn's", "opening_hours": "Mo-Su 11:30-21:30", "outdoor_seating": "sidewalk", "phone": "+1-718-885-4367", "takeaway": "yes", "website": "https://www.mightyquinnsbbq.com/location/gowanus/"}}, {"type": "node", "id": 6296605532, "lat": 40.6695398, "lon": -73.9866612, "tags": {"amenity": "pub", "atm": "yes", "check_date": "2025-06-15", "cocktails": "yes", "drink:beer": "draught", "drink:liquor": "yes", "drink:wine": "yes", "internet_access": "wlan", "internet_access:fee": "no", "name": "The Owl Farm", "opening_hours": "Mo 14:00-04:00; Sa-Su 12:30-04:00", "phone": "+1-718-499-4988", "pinball": "yes", "toilets": "yes", "toilets:unisex": "yes", "toilets:wheelchair": "no", "website": "https://www.theowlfarm.com", "wheelchair": "no"}}, {"type": "node", "id": 6309045843, "lat": 40.6732324, "lon": -73.9860562}, {"type": "node", "id": 6309045844, "lat": 40.6737295, "lon": -73.9855794, "tags": {"barrier": "gate"}}, {"type": "node", "id": 6309045845, "lat": 40.6737508, "lon": -73.985625}, {"type": "node", "id": 6309045846, "lat": 40.6721972, "lon": -73.9853408}, {"type": "node", "id": 6309045847, "lat": 40.6725994, "lon": -73.9850037}, {"type": "node", "id": 6309045876, "lat": 40.6727036, "lon": -73.9852215}, {"type": "node", "id": 6309105459, "lat": 40.6732106, "lon": -73.9860116}, {"type": "node", "id": 6309105461, "lat": 40.6729149, "lon": -73.9851748}, {"type": "node", "id": 6309105462, "lat": 40.6727594, "lon": -73.9852324, "tags": {"barrier": "gate"}}, {"type": "node", "id": 6309106131, "lat": 40.6733437, "lon": -73.9846653}, {"type": "node", "id": 6309106132, "lat": 40.6729095, "lon": -73.9850219}, {"type": "node", "id": 6309106133, "lat": 40.6732716, "lon": -73.9845158, "tags": {"barrier": "gate"}}, {"type": "node", "id": 6309106134, "lat": 40.6728405, "lon": -73.9848783, "tags": {"barrier": "gate"}}, {"type": "node", "id": 6309106135, "lat": 40.6727281, "lon": -73.9846439, "tags": {"barrier": "gate"}}, {"type": "node", "id": 6309179556, "lat": 40.6737362, "lon": -73.9855938}, {"type": "node", "id": 6309179559, "lat": 40.6733318, "lon": -73.985975}, {"type": "node", "id": 6309179561, "lat": 40.672939, "lon": -73.9851553}, {"type": "node", "id": 6309179562, "lat": 40.6726873, "lon": -73.9851874, "tags": {"barrier": "gate"}}, {"type": "node", "id": 6316993490, "lat": 40.6729015, "lon": -73.9850054}, {"type": "node", "id": 6316993491, "lat": 40.6733335, "lon": -73.9846441}, {"type": "node", "id": 6316993501, "lat": 40.672799, "lon": -73.9860048}, {"type": "node", "id": 6387990300, "lat": 40.6707039, "lon": -73.985222, "tags": {"amenity": "restaurant", "name": "Tikka Indian Grill"}}, {"type": "node", "id": 6397146394, "lat": 40.6704067, "lon": -73.9917023, "tags": {"name": "Brokerage Group", "office": "estate_agent", "phone": "+1-347-916-0517", "website": "https://brokeragegroup.net"}}, {"type": "node", "id": 6404495137, "lat": 40.6704646, "lon": -73.9858162, "tags": {"addr:housenumber": "314", "addr:street": "7th Street", "description": "Common Notions is a publishing house and programming platform that advances new formulations of liberation and living autonomy.", "email": "info@commonnotions.org", "name": "Common Notions", "office": "publisher", "website": "https://www.commonnotions.org"}}, {"type": "node", "id": 6428558001, "lat": 40.6727366, "lon": -73.984662}, {"type": "node", "id": 6428558003, "lat": 40.6728302, "lon": -73.9848563}, {"type": "node", "id": 6677928152, "lat": 40.6688526, "lon": -73.9852378, "tags": {"addr:city": "Brooklyn", "addr:housenumber": "337", "addr:postcode": "11215", "addr:state": "NY", "addr:street": "9th Street", "amenity": "cafe", "cuisine": "coffee_shop;breakfast;sandwich;chinese", "drink:coffee": "yes", "drink:espresso": "yes", "name": "Golden Shovel", "opening_hours": "Mo-Fr 08:00-19:00; Sa 09:30-19:00; Su 09:30-19:30", "phone": "+1 347-557-9818"}}, {"type": "node", "id": 6874296343, "lat": 40.6712079, "lon": -73.9882868, "tags": {"alt_name": "Revived Commercial", "name": "Revived Residential", "office": "estate_agent", "phone": "+1-718-576-3386", "website": "https://www.revivedresidential.com"}}, {"type": "node", "id": 7165158294, "lat": 40.6708551, "lon": -73.9850972, "tags": {"alt_name": "Coconana", "amenity": "cafe", "bar": "yes", "cocktails": "yes", "cuisine": "coffee_shop;vietnamese;sandwich;charcuterie;eclectic", "drink:beer": "yes", "drink:coffee": "yes", "drink:espresso": "yes", "drink:liquor": "yes", "drink:wine": "yes", "happy_hours": "Mo-Su 17:00-19:00", "name": "390 Social", "opening_hours": "Mo-Fr 11:00-16:00 \"cafe\"||Mo-Tu 17:00-23:00; We-Th 17:00-24:00; Fr-Sa 17:00-02:00; Su 16:00-22:00 \"bar\"", "phone": "+1-718-734-2902", "website": "https://www.390social.com"}}, {"type": "node", "id": 7824284757, "lat": 40.6713726, "lon": -73.9912976, "tags": {"alt_name": "Swipesmart", "name": "Zimo", "office": "yes"}}, {"type": "node", "id": 8085986419, "lat": 40.6718488, "lon": -73.9904911, "tags": {"name": "ViFi Tax Services", "office": "tax_advisor", "phone": "+1-718-499-3072", "service:notary": "yes"}}, {"type": "node", "id": 8394734469, "lat": 40.6705028, "lon": -73.9849985, "tags": {"amenity": "restaurant", "bar": "yes", "cocktails": "yes", "cuisine": "steak_house", "drink:beer": "draught", "drink:liquor": "yes", "drink:wine": "yes", "name": "Flatiron Restaurant", "phone": "+1-718-965-4000", "website": "https://flatironrestaurant.com"}}, {"type": "node", "id": 8766000399, "lat": 40.6687345, "lon": -73.9903602, "tags": {"amenity": "restaurant", "bar": "yes", "cocktails": "yes", "cuisine": "mexican", "drink:liquor": "yes", "name": "Alma Negra", "opening_hours": "Tu-Sa 17:00-23:00; Su 17:00-22:00", "outdoor_seating": "yes", "website": "https://almanegranyc.com"}}, {"type": "node", "id": 9216553746, "lat": 40.6728674, "lon": -73.9910249, "tags": {"addr:housenumber": "168", "addr:postcode": "11215", "addr:street": "7th Street", "addr:unit": "3A", "alt_name": "Older Adults Technology Service", "name": "OATS", "office": "association", "phone": "+1-718-360-1707", "website": "https://oats.org"}}, {"type": "node", "id": 10635155033, "lat": 40.6690652, "lon": -73.9856821, "tags": {"amenity": "restaurant", "cuisine": "caribbean", "name": "Stella's", "opening_hours": "We-Th 15:00-22:00; Fr-Sa 14:00-22:00; Su 12:00-21:00", "phone": "+1-347-987-4164", "takeaway": "yes", "website": "https://www.stellascaribbean.com"}}, {"type": "node", "id": 10776709865, "lat": 40.6728382, "lon": -73.99007, "tags": {"addr:housenumber": "424A", "addr:postcode": "11215", "addr:street": "3rd Avenue", "name": "Bannerboy Gowanus", "office": "company"}}, {"type": "node", "id": 10776709867, "lat": 40.6728867, "lon": -73.990215, "tags": {"addr:housenumber": "201", "addr:postcode": "11215", "addr:street": "7th Street", "name": "Socotec", "office": "company"}}, {"type": "node", "id": 12150166370, "lat": 40.6710738, "lon": -73.9873476}, {"type": "node", "id": 12150166388, "lat": 40.6710399, "lon": -73.9873759}, {"type": "node", "id": 12150166389, "lat": 40.6710744, "lon": -73.9874477}, {"type": "node", "id": 12307168436, "lat": 40.6696214, "lon": -73.9895996, "tags": {"amenity": "cafe", "cuisine": "coffee_shop;breakfast", "drink:coffee": "yes", "drink:espresso": "yes", "drink:tea": "yes", "name": "Luna La Mer", "opening_hours": "We-Su 08:00-16:00", "website": "https://www.lunalamerbk.com"}}, {"type": "way", "id": 241850414, "nodes": [2494295146, 2494295220, 2494295247, 2494295195, 2494295146], "tags": {"addr:housenumber": "410", "addr:postcode": "11215", "addr:street": "3rd Avenue", "building": "yes", "description": "natural sausage casing", "height": "9.1", "name": "Domestic Casing Co.", "nycdoitt:bin": "3021544", "office": "company", "phone": "+1-718-522-1902"}}, {"type": "way", "id": 241850435, "nodes": [5952447307, 2494295109, 5952447308, 2494295156, 2494295255, 2494295227, 5952447307], "tags": {"addr:housenumber": "191", "addr:postcode": "11215", "addr:street": "7th Street", "amenity": "restaurant", "building": "yes", "cuisine": "steak_house", "description": "kosher steakhouse and event space", "diet:kosher": "only", "height": "5.3", "name": "Bison & Bourbon", "nycdoitt:bin": "3330540", "phone": "+1-718-422-0801", "website": "https://www.bisonandbourbon.com"}}, {"type": "way", "id": 241850463, "nodes": [2494294849, 2494294878, 2494294896, 2494294913, 2494295044, 2494295036, 5952327094, 2494294976, 2494294845, 2494294807, 2494294778, 5952327093, 2494291188, 2494294609, 2494294849], "tags": {"addr:housenumber": "145", "addr:postcode": "11215", "addr:street": "8th Street", "building": "yes", "height": "9.4", "name": "Socotec", "nycdoitt:bin": "3330545;3337629", "office": "company", "phone": "+1-212-233-2737", "website": "https://www.socotec.us"}}, {"type": "way", "id": 241850563, "nodes": [2494294537, 2494294615, 2494292245, 2494294690, 2494294591, 2494294537], "tags": {"addr:housenumber": "250", "addr:postcode": "11215", "addr:street": "6th Street", "building": "yes", "height": "10.1", "name": "Perfetto Contracting", "nycdoitt:bin": "3250828", "office": "construction", "phone": "+1-718-858-8600", "short_name": "PCC", "website": "https://www.perfettocontracting.com"}}, {"type": "way", "id": 248171283, "nodes": [2550101792, 2550101802, 2550101814, 2550101811, 2550101792], "tags": {"addr:housenumber": "174", "addr:postcode": "11215", "addr:street": "9th Street", "building": "yes", "fax": "+1-718-788-1991", "height": "6.2", "name": "Olympus Moving", "nycdoitt:bin": "3347761", "office": "company", "phone": "+1-718-788-1990", "website": "https://olympusmoving.com/"}}, {"type": "way", "id": 249633593, "nodes": [2562129791, 2562129825, 2562129831, 2562129886, 2562129998, 2562129963, 2562129902, 2562129791], "tags": {"addr:housenumber": "183A", "addr:postcode": "11215", "addr:street": "13th Street", "building": "yes", "contact:facebook": "https://www.facebook.com/freshairflicks/", "description": "services and equipment for outdoor cinema and image projection", "height": "6.2", "name": "Fresh Air Flicks", "nycdoitt:bin": "3023120", "office": "company", "phone": "+1-877-215-5500", "website": "https://www.freshairflicks.com"}}, {"type": "way", "id": 265987934, "nodes": [2715851754, 2550572693, 3887158066, 2550572645, 2550572643, 12150166389, 12150166388, 12150166370, 2550572745, 2550572751, 2550572755, 2715851756, 2715851758, 2715851754], "tags": {"addr:housenumber": "211", "addr:postcode": "11215", "addr:street": "8th Street", "amenity": "school", "fax": "+1-718-840-5666", "name": "P.S. 118 The Maurice Sendak Community School", "phone": "+1-718-840-5660", "ref:nycdoe": "K118", "short_name": "PS 118K", "website": "https://www.mauricesendakcommunityschool.org"}}, {"type": "way", "id": 362875272, "nodes": [6309045846, 6309045847, 3671177059, 2700406477, 357567504, 6309045846], "tags": {"alt_name": "William Alexander School", "amenity": "school", "ele": "10", "gnis:feature_id": "954326", "name": "Middle School 51", "website": "https://ms51.org", "website_archive": "http://www.webcitation.org/5mTIN9hqG"}}, {"type": "way", "id": 673696769, "nodes": [6309106132, 6316993490, 6309106134, 6428558003, 6428558001, 6309106135, 2700406478, 5043485439, 5043485437, 6309106133, 6316993491, 6309106131, 2700406480, 6309045844, 6309179556, 6309045845, 2700406479, 6309106132]}, {"type": "way", "id": 673712753, "nodes": [6309045843, 6309105459, 3671177057, 6316993501, 3671177063, 3671177056, 3671177065, 6309045846, 6309045847, 6309179562, 6309045876, 6309105462, 3671177058, 6309105461, 6309179561, 6309179559, 6309045843], "tags": {"surface": "asphalt"}}, {"type": "relation", "id": 9363336, "members": [{"type": "way", "ref": 673696769, "role": "outer"}, {"type": "way", "ref": 673712753, "role": "outer"}], "tags": {"leisure": "park", "name": "Washington Park", "opening_hours": "Mo-Su 06:00-22:00", "operator": "New York City Department of Parks and Recreation", "operator:short": "NYC Parks", "operator:type": "public", "operator:wikidata": "Q1894232", "type": "multipolygon", "website": "https://www.nycgovparks.org/parks/washington-park_brooklyn", "wikidata": "Q49577200"}}]}