{"version": 0.6, "generator": "Overpass API 0.7.62.8 e802775f", "osm3s": {"timestamp_osm_base": "2025-12-01T17:40:41Z", "copyright": "The data included in this document is from www.openstreetmap.org. The data is made available under ODbL."}, "elements": [{"type": "node", "id": 42450411, "lat": 40.7121671, "lon": -74.0166299}, {"type": "node", "id": 194616631, "lat": 40.713108, "lon": -74.0164049}, {"type": "node", "id": 194616632, "lat": 40.7130015, "lon": -74.0165188}, {"type": "node", "id": 194616633, "lat": 40.7128907, "lon": -74.0165868}, {"type": "node", "id": 194616635, "lat": 40.7125565, "lon": -74.0165967}, {"type": "node", "id": 194616636, "lat": 40.7124721, "lon": -74.0165521}, {"type": "node", "id": 246859499, "lat": 40.710469, "lon": -74.014348}, {"type": "node", "id": 246868454, "lat": 40.7151053, "lon": -74.0170943}, {"type": "node", "id": 246868455, "lat": 40.7151255, "lon": -74.0173557}, {"type": "node", "id": 246871896, "lat": 40.7134607, "lon": -74.0155356}, {"type": "node", "id": 246871897, "lat": 40.7122348, "lon": -74.016062}, {"type": "node", "id": 246871898, "lat": 40.7121737, "lon": -74.0157858}, {"type": "node", "id": 246871899, "lat": 40.7115675, "lon": -74.0160428}, {"type": "node", "id": 246871902, "lat": 40.7118315, "lon": -74.01743}, {"type": "node", "id": 246871903, "lat": 40.7118032, "lon": -74.0177185}, {"type": "node", "id": 246871904, "lat": 40.7114103, "lon": -74.0177979}, {"type": "node", "id": 246871905, "lat": 40.7081514, "lon": -74.0185741}, {"type": "node", "id": 246871908, "lat": 40.7123626, "lon": -74.0178629}, {"type": "node", "id": 246872869, "lat": 40.7079888, "lon": -74.0188184}, {"type": "node", "id": 246872871, "lat": 40.7122537, "lon": -74.017177}, {"type": "node", "id": 246872872, "lat": 40.7134127, "lon": -74.0163325}, {"type": "node", "id": 272194598, "lat": 40.7095497, "lon": -74.0116948}, {"type": "node", "id": 272194601, "lat": 40.7088871, "lon": -74.0109134, "tags": {"barrier": "kerb", "kerb": "lowered", "tactile_paving": "yes", "wheelchair": "yes"}}, {"type": "node", "id": 272194602, "lat": 40.7091543, "lon": -74.010684}, {"type": "node", "id": 480910122, "lat": 40.7099994, "lon": -74.0136144}, {"type": "node", "id": 480910126, "lat": 40.7096737, "lon": -74.0129631}, {"type": "node", "id": 793879917, "lat": 40.7100842, "lon": -74.0128136}, {"type": "node", "id": 888527171, "lat": 40.709558, "lon": -74.012778, "tags": {"amenity": "pub", "name": "O'Hara's Pub"}}, {"type": "node", "id": 889298348, "lat": 40.7130489, "lon": -74.016475}, {"type": "node", "id": 889298512, "lat": 40.7139817, "lon": -74.0167957}, {"type": "node", "id": 889298560, "lat": 40.7127993, "lon": -74.0166175}, {"type": "node", "id": 889298605, "lat": 40.7126229, "lon": -74.0166161}, {"type": "node", "id": 889435992, "lat": 40.7143268, "lon": -74.0097038, "tags": {"addr:housenumber": "57", "addr:postcode": "10007", "addr:street": "Murray Street", "amenity": "pub", "contact:facebook": "monkmcginns", "contact:instagram": "monkmcginnsnyc", "name": "Monk McGinns", "phone": "+1 212 791-9676"}}, {"type": "node", "id": 889584926, "lat": 40.7114242, "lon": -74.0178567}, {"type": "node", "id": 889585027, "lat": 40.7116764, "lon": -74.0166476}, {"type": "node", "id": 889585068, "lat": 40.7110802, "lon": -74.0178975}, {"type": "node", "id": 889585123, "lat": 40.7109018, "lon": -74.0178904}, {"type": "node", "id": 889585169, "lat": 40.7112395, "lon": -74.0179236}, {"type": "node", "id": 1242148200, "lat": 40.7136149, "lon": -74.0176336}, {"type": "node", "id": 1242148209, "lat": 40.7123547, "lon": -74.0178063}, {"type": "node", "id": 1242148263, "lat": 40.7089989, "lon": -74.0158628}, {"type": "node", "id": 1431806493, "lat": 40.710786, "lon": -74.0142507}, {"type": "node", "id": 1694299730, "lat": 40.7112276, "lon": -74.0178695}, {"type": "node", "id": 1694299743, "lat": 40.7113009, "lon": -74.0179049}, {"type": "node", "id": 1694299762, "lat": 40.7113626, "lon": -74.0178808}, {"type": "node", "id": 1695926486, "lat": 40.712506, "lon": -74.0159518}, {"type": "node", "id": 1695926490, "lat": 40.7125994, "lon": -74.0161738}, {"type": "node", "id": 2044075093, "lat": 40.7079992, "lon": -74.018842}, {"type": "node", "id": 2044075095, "lat": 40.7098588, "lon": -74.0184065}, {"type": "node", "id": 2044075098, "lat": 40.7080536, "lon": -74.0188582}, {"type": "node", "id": 2044075109, "lat": 40.7110746, "lon": -74.0181032}, {"type": "node", "id": 2044075115, "lat": 40.7080327, "lon": -74.0188604}, {"type": "node", "id": 2044075122, "lat": 40.7125018, "lon": -74.016569}, {"type": "node", "id": 2044075136, "lat": 40.70827, "lon": -74.0187994}, {"type": "node", "id": 2044075138, "lat": 40.711676, "lon": -74.0179891}, {"type": "node", "id": 2044075146, "lat": 40.7104748, "lon": -74.0182525}, {"type": "node", "id": 2044075158, "lat": 40.7080143, "lon": -74.0188561}, {"type": "node", "id": 2044118344, "lat": 40.7127425, "lon": -74.0166259}, {"type": "node", "id": 2706005871, "lat": 40.7096869, "lon": -74.0139312, "tags": {"addr:city": "New York", "addr:housenumber": "136", "addr:postcode": "10006", "addr:state": "NY", "addr:street": "Washington Street", "amenity": "restaurant", "branch": "Steakhouse", "brand": "Morton's The Steakhouse", "brand:wikidata": "Q17022759", "check_date": "2023-02-23", "cuisine": "steak_house", "indoor_seating": "yes", "name": "Morton's The Steakhouse", "opening_hours": "Mo-Th 12:00-21:00; Fr-Sa 17:00-22:00; Su 16:00-21:00", "outdoor_seating": "no", "phone": "+1-212-608-0171", "website": "https://www.mortons.com/location/mortons-the-steakhouse-new-york-ny-world-trade-center/"}}, {"type": "node", "id": 2706005872, "lat": 40.7094546, "lon": -74.014076, "tags": {"addr:city": "New York", "addr:housenumber": "85", "addr:postcode": "10006", "addr:state": "NY", "addr:street": "West Street", "amenity": "restaurant", "check_date": "2023-02-23", "cuisine": "burger", "internet_access": "wlan", "internet_access:fee": "no", "name": "Bill's Bar and Burger", "opening_hours": "12:00-20:00", "phone": "+1-212-894-3800", "website": "https://www.billsbarandburger.com/location/bills-bar-and-burger-downtown-nyc/"}}, {"type": "node", "id": 2706009357, "lat": 40.709192, "lon": -74.0138424, "tags": {"addr:city": "New York", "addr:housenumber": "123", "addr:street": "Washington Street", "amenity": "restaurant", "check_date": "2023-02-23", "name": "Skinos"}}, {"type": "node", "id": 2823452295, "lat": 40.7117623, "lon": -74.0091837}, {"type": "node", "id": 2823452297, "lat": 40.7118727, "lon": -74.0094127}, {"type": "node", "id": 2823452401, "lat": 40.7119937, "lon": -74.0089911}, {"type": "node", "id": 2823452403, "lat": 40.7120003, "lon": -74.0090057}, {"type": "node", "id": 2823452409, "lat": 40.7120645, "lon": -74.0092531}, {"type": "node", "id": 2823452411, "lat": 40.7121042, "lon": -74.0092201}, {"type": "node", "id": 2823589936, "lat": 40.7132486, "lon": -74.0156939}, {"type": "node", "id": 2823591061, "lat": 40.7089565, "lon": -74.0183331}, {"type": "node", "id": 2823591084, "lat": 40.7092126, "lon": -74.0157933}, {"type": "node", "id": 2823591085, "lat": 40.7092373, "lon": -74.0182628}, {"type": "node", "id": 2823591086, "lat": 40.7093159, "lon": -74.0180829}, {"type": "node", "id": 2823591088, "lat": 40.7093741, "lon": -74.0157304}, {"type": "node", "id": 2823609702, "lat": 40.7097017, "lon": -74.0179823}, {"type": "node", "id": 2823609708, "lat": 40.709767, "lon": -74.0155773}, {"type": "node", "id": 2823609739, "lat": 40.7103394, "lon": -74.0179834}, {"type": "node", "id": 2824641561, "lat": 40.7090784, "lon": -74.0122745}, {"type": "node", "id": 2824641576, "lat": 40.7091894, "lon": -74.0125281}, {"type": "node", "id": 2824641585, "lat": 40.7093112, "lon": -74.0124361}, {"type": "node", "id": 2824641586, "lat": 40.7093236, "lon": -74.0120892}, {"type": "node", "id": 2824641590, "lat": 40.7093741, "lon": -74.0125799}, {"type": "node", "id": 2824641596, "lat": 40.7093869, "lon": -74.0125703}, {"type": "node", "id": 2824641604, "lat": 40.7094975, "lon": -74.0124867}, {"type": "node", "id": 2824696370, "lat": 40.7112884, "lon": -74.0102748, "tags": {"addr:housenumber": "41", "addr:postcode": "10007", "addr:street": "Church Street", "amenity": "cafe", "name": "\u00c9picerie Boulud", "name:en": "\u00c9picerie Boulud"}}, {"type": "node", "id": 2824988649, "lat": 40.708478, "lon": -74.0161563}, {"type": "node", "id": 2824988652, "lat": 40.7085009, "lon": -74.0162112}, {"type": "node", "id": 2824988656, "lat": 40.7086876, "lon": -74.016075}, {"type": "node", "id": 2897270433, "lat": 40.7102382, "lon": -74.0106426, "tags": {"addr:housenumber": "22", "addr:street": "Cortlandt Street", "amenity": "cafe", "brand": "The Coffee Bean & Tea Leaf", "brand:wikidata": "Q1141384", "cuisine": "coffee_shop", "name": "The Coffee Bean & Tea Leaf", "takeaway": "yes"}}, {"type": "node", "id": 2897876736, "lat": 40.70932, "lon": -74.008734, "tags": {"addr:city": "New York", "addr:housenumber": "59", "addr:postcode": "10038", "addr:state": "NY", "addr:street": "Nassau Street", "amenity": "restaurant", "cuisine": "sushi;ramen", "name": "Otani", "name:en": "Otani", "name:ja": "\u5927\u8c37", "opening_hours": "Mo-Th 11:00-22:00;Fr-Sa 11:00-10:30;Su 12:00-22:00", "phone": "+1-212-732-9250", "wheelchair": "no"}}, {"type": "node", "id": 2897876738, "lat": 40.7099489, "lon": -74.0100671, "tags": {"addr:housenumber": "173", "addr:street": "Broadway", "air_conditioning": "yes", "amenity": "restaurant", "check_date": "2024-06-27", "cuisine": "japanese", "delivery": "yes", "name": "Bento Sushi", "opening_hours": "Mo-Fr 10:30-19:00; Sa 11:00-18:00; Su off", "outdoor_seating": "no", "payment:cash": "yes", "payment:credit_cards": "yes", "smoking": "no", "takeaway": "yes", "wheelchair": "yes"}}, {"type": "node", "id": 3277678372, "lat": 40.7135811, "lon": -74.0148981, "tags": {"name": "American Express", "office": "company", "wheelchair": "yes"}}, {"type": "node", "id": 3637093539, "lat": 40.7120307, "lon": -74.0097553, "tags": {"addr:city": "New York", "addr:housenumber": "26", "addr:street": "Vesey Street", "amenity": "restaurant", "atm": "yes", "cuisine": "pizza", "indoor_seating": "yes", "internet_access": "wlan", "name": "Stage Door Deli", "outdoor_seating": "no", "phone": "+1-212-791-5252", "wheelchair": "yes"}}, {"type": "node", "id": 3762209179, "lat": 40.7092057, "lon": -74.0125158}, {"type": "node", "id": 3762209180, "lat": 40.7092512, "lon": -74.0124814}, {"type": "node", "id": 3762209186, "lat": 40.7094335, "lon": -74.0123404}, {"type": "node", "id": 3809526483, "lat": 40.711811, "lon": -74.0091432}, {"type": "node", "id": 3809526488, "lat": 40.711924, "lon": -74.0090492}, {"type": "node", "id": 4026488426, "lat": 40.7101758, "lon": -74.0183273}, {"type": "node", "id": 4032952252, "lat": 40.7078904, "lon": -74.015861}, {"type": "node", "id": 4032952253, "lat": 40.7097207, "lon": -74.0152059}, {"type": "node", "id": 4032952254, "lat": 40.7090289, "lon": -74.0153735}, {"type": "node", "id": 4032952256, "lat": 40.7146282, "lon": -74.0172025}, {"type": "node", "id": 4032952262, "lat": 40.7147941, "lon": -74.0171514}, {"type": "node", "id": 4032952263, "lat": 40.7149956, "lon": -74.0170138}, {"type": "node", "id": 4032952264, "lat": 40.7081177, "lon": -74.016193}, {"type": "node", "id": 4032952268, "lat": 40.7141858, "lon": -74.0172849}, {"type": "node", "id": 4032952269, "lat": 40.7093489, "lon": -74.0152599}, {"type": "node", "id": 4032952276, "lat": 40.7097982, "lon": -74.0155642}, {"type": "node", "id": 4032952277, "lat": 40.708016, "lon": -74.0161506}, {"type": "node", "id": 4032952278, "lat": 40.7079324, "lon": -74.0159631}, {"type": "node", "id": 4032952280, "lat": 40.7078799, "lon": -74.0157961}, {"type": "node", "id": 4032952286, "lat": 40.7081788, "lon": -74.016337}, {"type": "node", "id": 4032961990, "lat": 40.7136051, "lon": -74.0175804}, {"type": "node", "id": 4140525190, "lat": 40.7097774, "lon": -74.0089148, "tags": {"addr:housenumber": "20", "addr:street": "John Street", "air_conditioning": "yes", "amenity": "restaurant", "bar": "no", "capacity": "16", "cuisine": "thai", "delivery": "yes", "highchair": "no", "indoor_seating": "yes", "microbrewery": "no", "name": "Aroy Dee Thai Kitchen", "opening_hours": "Mo-Su 11:00-21:15", "outdoor_seating": "no", "phone": "+1-212-528-9922", "smoking": "no", "takeaway": "yes", "toilets": "no", "website": "http://www.aroydeethaikitchen.com", "wheelchair": "no"}}, {"type": "node", "id": 4402057799, "lat": 40.7121142, "lon": -74.0098166, "tags": {"addr:city": "New York", "addr:housenumber": "30", "addr:postcode": "10007", "addr:state": "NY", "addr:street": "Vesey Street", "contact:phone": "+1 212-267-2500", "contact:website": "http://www.braschlegal.com/", "name": "Braschlegal", "office": "lawyer"}}, {"type": "node", "id": 4876650549, "lat": 40.7097448, "lon": -74.0181798}, {"type": "node", "id": 4876650551, "lat": 40.7096723, "lon": -74.0179449}, {"type": "node", "id": 4947767421, "lat": 40.7122659, "lon": -74.0153279, "tags": {"amenity": "restaurant", "name": "L'Appart", "wheelchair": "yes"}}, {"type": "node", "id": 5047505367, "lat": 40.7104854, "lon": -74.0143552}, {"type": "node", "id": 5126272537, "lat": 40.7130523, "lon": -74.0096369, "tags": {"addr:postcode": "10007", "amenity": "cafe", "brand": "Aroma Espresso Bar", "brand:wikidata": "Q2909872", "cuisine": "coffee_shop", "name": "Aroma Espresso Bar", "name:en": "Aroma Espresso Bar", "takeaway": "yes"}}, {"type": "node", "id": 5244657822, "lat": 40.7095698, "lon": -74.012718, "tags": {"amenity": "restaurant", "branch": "Financial District", "catering": "yes", "cuisine": "indian", "delivery": "yes", "diet:halal": "yes", "diet:vegetarian": "yes", "indoor_seating": "yes", "name": "Mughlai Indian Cuisine", "opening_hours": "Mo-Th 11:00-14:45, 17:00-21:45; Fr 11:00-14:45, 17:00-22:15; Sa 11:00-22:15; Su 11:00-21:45", "outdoor_seating": "no", "payment:cash": "yes", "payment:credit_cards": "yes", "phone": "+1-646-869-0300", "reservation": "yes", "smoking": "no", "takeaway": "yes", "toilets": "yes", "website": "https://mughlaicuisineny.com/"}}, {"type": "node", "id": 5383989328, "lat": 40.7091871, "lon": -74.0088819, "tags": {"addr:housenumber": "59", "addr:postcode": "10038", "addr:street": "Nassau Street", "air_conditioning": "no", "amenity": "restaurant", "bar": "no", "check_date": "2024-06-27", "cuisine": "italian", "delivery": "yes", "dish": "pizza", "highchair": "yes", "name": "Friendly Gourmet Pizza", "opening_hours": "Mo-Fr 06:30-18:00", "outdoor_seating": "yes", "payment:cash": "yes", "payment:credit_cards": "yes", "phone": "+1 212-791-1800", "takeaway": "yes", "website": "https://www.friendlypizzeria.com", "wheelchair": "yes"}}, {"type": "node", "id": 5383989329, "lat": 40.7110282, "lon": -74.0095711, "tags": {"addr:housenumber": "160", "addr:street": "Fulton Street", "amenity": "restaurant", "name": "Nobu Nobu"}}, {"type": "node", "id": 5526105869, "lat": 40.7135448, "lon": -74.017233}, {"type": "node", "id": 5526105872, "lat": 40.7134954, "lon": -74.0169165}, {"type": "node", "id": 5526105875, "lat": 40.7134606, "lon": -74.0166519}, {"type": "node", "id": 5526105877, "lat": 40.7122154, "lon": -74.016935}, {"type": "node", "id": 5526105879, "lat": 40.7123025, "lon": -74.0174803}, {"type": "node", "id": 5725918582, "lat": 40.7106548, "lon": -74.0121277, "tags": {"addr:city": "New York", "addr:housenumber": "150", "addr:postcode": "10007", "addr:state": "NY", "addr:street": "Greenwich Street", "amenity": "cafe", "branch": "World Trade Center", "brand": "Blue Bottle Coffee", "brand:en": "Blue Bottle Coffee", "brand:ja": "\u30d6\u30eb\u30fc\u30dc\u30c8\u30eb\u30b3\u30fc\u30d2\u30fc", "brand:wikidata": "Q4928917", "check_date": "2025-08-08", "cuisine": "coffee_shop", "name": "Blue Bottle Coffee", "name:en": "Blue Bottle Coffee", "name:ja": "\u30d6\u30eb\u30fc\u30dc\u30c8\u30eb\u30b3\u30fc\u30d2\u30fc", "opening_hours": "Mo-Fr 07:00-19:00; Sa, Su 08:00-19:00; Nov Th[4] off; Dec 25 off", "takeaway": "yes", "website": "https://bluebottlecoffee.com/cafes/world-trade-center", "wheelchair": "yes"}}, {"type": "node", "id": 5837162675, "lat": 40.7133225, "lon": -74.0111559, "tags": {"barrier": "kerb", "kerb": "lowered", "tactile_paving": "no", "wheelchair": "yes"}}, {"type": "node", "id": 5837162676, "lat": 40.712863, "lon": -74.0116744}, {"type": "node", "id": 5837162677, "lat": 40.7133618, "lon": -74.0111818}, {"type": "node", "id": 5837162678, "lat": 40.7135091, "lon": -74.011509}, {"type": "node", "id": 5837162679, "lat": 40.7128884, "lon": -74.0117338}, {"type": "node", "id": 5837162680, "lat": 40.7134934, "lon": -74.0115828}, {"type": "node", "id": 5978556762, "lat": 40.7141063, "lon": -74.0090225, "tags": {"addr:housenumber": "41", "addr:street": "Murray Street", "amenity": "pub", "cuisine": "mexican", "name": "Boss Tweeds", "website": "https://bosstweeds.nyc/"}}, {"type": "node", "id": 5978557997, "lat": 40.7095297, "lon": -74.0119738, "tags": {"addr:housenumber": "110", "addr:street": "Trinity Place", "amenity": "cafe", "name": "Lazzaro", "wheelchair": "yes"}}, {"type": "node", "id": 5978557998, "lat": 40.7094109, "lon": -74.0120305, "tags": {"addr:housenumber": "110", "addr:street": "Trinity Place", "amenity": "cafe", "check_date": "2025-07-15", "cuisine": "pizza", "indoor_seating": "yes", "name": "Hank\u2019s Pizza", "outdoor_seating": "yes", "payment:cash": "yes", "payment:credit_cards": "yes", "payment:debit_cards": "yes", "phone": "+12127964499", "wheelchair": "yes"}}, {"type": "node", "id": 5980089186, "lat": 40.709609, "lon": -74.0093344, "tags": {"addr:city": "New York", "addr:housenumber": "9", "addr:postcode": "10038", "addr:state": "NY", "addr:street": "Maiden Lane", "air_conditioning": "yes", "amenity": "restaurant", "check_date": "2024-06-27", "cuisine": "coffee_shop;cafe;sandwich", "description": "Has at least 1 wall outlet to charge phone", "drive_through": "no", "highchair": "no", "indoor_seating": "yes", "internet_access": "yes", "internet_access:fee": "no", "name": "La Parisienne", "opening_hours": "Mo-Fr 07:30-19:30; Sa-Su 08:00-17:00", "outdoor_seating": "yes", "payment:cash": "yes", "payment:credit_cards": "yes", "reservation": "yes", "smoking": "no", "takeaway": "yes", "wheelchair": "yes"}}, {"type": "node", "id": 6001364870, "lat": 40.7141819, "lon": -74.0154644, "tags": {"amenity": "restaurant", "cuisine": "seafood", "name": "Seamores", "outdoor_seating": "yes", "wheelchair": "yes"}}, {"type": "node", "id": 6165269623, "lat": 40.7122315, "lon": -74.0170362}, {"type": "node", "id": 6165269628, "lat": 40.7122646, "lon": -74.017244}, {"type": "node", "id": 6165269630, "lat": 40.7123149, "lon": -74.0175576}, {"type": "node", "id": 6179821278, "lat": 40.7099202, "lon": -74.0091218, "tags": {"addr:housenumber": "12", "addr:postcode": "10038", "addr:street": "John Street", "amenity": "cafe", "brand": "CoCo", "brand:wikidata": "Q65084369", "cuisine": "bubble_tea", "indoor_seating": "yes", "name": "CoCo Fresh Tea & Juice", "opening_hours": "Mo-Fr 10:00-22:00; Sa, Su 10:00-21:00", "outdoor_seating": "no", "phone": "+1-212-349-1800", "seats": "8", "short_name": "CoCo", "takeaway": "yes", "website": "http://en.coco-tea.com/store-locator/store/359", "wheelchair": "yes"}}, {"type": "node", "id": 6264476981, "lat": 40.7105042, "lon": -74.0091441, "tags": {"addr:housenumber": "200", "addr:postcode": "10038", "addr:street": "Fulton Street", "air_conditioning": "yes", "amenity": "cafe", "branch": "Fulton Center", "brand": "Gong Cha", "brand:wikidata": "Q5581670", "brand:zh": "\u8ca2\u8336", "cuisine": "bubble_tea", "int_name": "Gong Cha", "level": "0", "name": "Gong Cha", "name:zh": "\u8ca2\u8336", "opening_hours": "10:30-21:30", "takeaway": "yes", "toilets:wheelchair": "no", "website": "http://www.gongchausa.com/NY-Fulton-Center/", "wheelchair": "yes"}}, {"type": "node", "id": 6417640366, "lat": 40.7101282, "lon": -74.0136388}, {"type": "node", "id": 6419225446, "lat": 40.7101821, "lon": -74.0137046}, {"type": "node", "id": 6419487813, "lat": 40.7100613, "lon": -74.0135855}, {"type": "node", "id": 6419487814, "lat": 40.7102987, "lon": -74.0139633}, {"type": "node", "id": 6419520969, "lat": 40.7098358, "lon": -74.0132328}, {"type": "node", "id": 6566728787, "lat": 40.7098464, "lon": -74.0090195, "tags": {"amenity": "restaurant", "indoor_seating": "yes", "name": "Go! Go! Curry", "outdoor_seating": "no"}}, {"type": "node", "id": 6746710795, "lat": 40.7150866, "lon": -74.0173632, "tags": {"barrier": "gate"}}, {"type": "node", "id": 6746710799, "lat": 40.7148778, "lon": -74.0174019}, {"type": "node", "id": 6978478914, "lat": 40.7097557, "lon": -74.0153526}, {"type": "node", "id": 6978478915, "lat": 40.7097812, "lon": -74.0154826}, {"type": "node", "id": 7425916644, "lat": 40.7138062, "lon": -74.0163543}, {"type": "node", "id": 7974945475, "lat": 40.7136854, "lon": -74.0176214}, {"type": "node", "id": 8262936430, "lat": 40.7135085, "lon": -74.0115632, "tags": {"barrier": "kerb", "kerb": "lowered", "tactile_paving": "no", "wheelchair": "yes"}}, {"type": "node", "id": 8262936459, "lat": 40.7129067, "lon": -74.0117298, "tags": {"barrier": "kerb", "kerb": "lowered", "tactile_paving": "yes", "wheelchair": "yes"}}, {"type": "node", "id": 8262936477, "lat": 40.7133481, "lon": -74.0111606, "tags": {"barrier": "kerb", "kerb": "lowered", "tactile_paving": "no", "wheelchair": "yes"}}, {"type": "node", "id": 8262936482, "lat": 40.7128716, "lon": -74.0116639, "tags": {"barrier": "kerb", "kerb": "lowered", "tactile_paving": "yes", "wheelchair": "yes"}}, {"type": "node", "id": 8262936617, "lat": 40.7095801, "lon": -74.0116553, "tags": {"barrier": "kerb", "kerb": "lowered", "tactile_paving": "yes", "wheelchair": "yes"}}, {"type": "node", "id": 8262936618, "lat": 40.7093169, "lon": -74.0118366, "tags": {"barrier": "kerb", "kerb": "lowered", "tactile_paving": "yes", "wheelchair": "yes"}}, {"type": "node", "id": 8281922296, "lat": 40.7097015, "lon": -74.0151801}, {"type": "node", "id": 8281922297, "lat": 40.7085415, "lon": -74.0155511}, {"type": "node", "id": 8281922298, "lat": 40.7078747, "lon": -74.0158126}, {"type": "node", "id": 8281922320, "lat": 40.7083565, "lon": -74.0162062}, {"type": "node", "id": 8281922321, "lat": 40.7084429, "lon": -74.0161436}, {"type": "node", "id": 8281922325, "lat": 40.7082863, "lon": -74.016258}, {"type": "node", "id": 8281922328, "lat": 40.7079136, "lon": -74.0159195}, {"type": "node", "id": 8281922329, "lat": 40.7079022, "lon": -74.0158908}, {"type": "node", "id": 8281922333, "lat": 40.7097403, "lon": -74.0152742}, {"type": "node", "id": 8281922334, "lat": 40.7097462, "lon": -74.0153037}, {"type": "node", "id": 8281922424, "lat": 40.7095807, "lon": -74.0179808}, {"type": "node", "id": 8281922427, "lat": 40.7094404, "lon": -74.0180355}, {"type": "node", "id": 8281922435, "lat": 40.7088429, "lon": -74.0184027}, {"type": "node", "id": 8281922436, "lat": 40.7089723, "lon": -74.0183676}, {"type": "node", "id": 8281922442, "lat": 40.7082154, "lon": -74.0185585}, {"type": "node", "id": 8281922443, "lat": 40.7086825, "lon": -74.018444}, {"type": "node", "id": 8281922445, "lat": 40.7087958, "lon": -74.0184143}, {"type": "node", "id": 8281922484, "lat": 40.713482, "lon": -74.0168143}, {"type": "node", "id": 8282447594, "lat": 40.7138576, "lon": -74.0164759}, {"type": "node", "id": 8282447596, "lat": 40.7130364, "lon": -74.0158518}, {"type": "node", "id": 8644302518, "lat": 40.7143494, "lon": -74.0086532, "tags": {"amenity": "restaurant", "indoor_seating": "yes", "name": "Los Tacos No. 1", "outdoor_seating": "no"}}, {"type": "node", "id": 8644307517, "lat": 40.7137611, "lon": -74.009094, "tags": {"addr:city": "New York", "addr:housenumber": "120", "addr:postcode": "10007", "addr:state": "NY", "addr:street": "Church Street", "amenity": "cafe", "branch": "Church Street & Murray", "brand": "Starbucks", "brand:wikidata": "Q37158", "cuisine": "coffee_shop", "name": "Starbucks", "official_name": "Starbucks Coffee", "phone": "+1 212-513-1451", "ref": "11040", "takeaway": "yes", "website": "https://www.starbucks.com/store-locator/store/11040/church-street-murray-120-church-street-new-york-ny-100072402-us"}}, {"type": "node", "id": 8648230017, "lat": 40.7141066, "lon": -74.0092265, "tags": {"amenity": "restaurant", "cuisine": "indian", "name": "Benares", "website": "https://www.benaresnyc.com/"}}, {"type": "node", "id": 8791888441, "lat": 40.7124137, "lon": -74.0104582, "tags": {"addr:housenumber": "90", "addr:postcode": "10008", "addr:street": "Church Street", "name": "Ester Digital", "office": "it", "opening_hours": "Mo-Fr 10:00-18:00", "website": "https://ester.co"}}, {"type": "node", "id": 8806749196, "lat": 40.7098346, "lon": -74.0091022, "tags": {"addr:city": "New York", "addr:housenumber": "12", "addr:postcode": "10038", "addr:street": "John Street", "contact:website": "https://cleaningexec.com/", "email": "support@cleaningexec.com", "name": "Cleaning Exec Cleaning Services", "office": "company", "phone": "+1-212-457-8699"}}, {"type": "node", "id": 8832734925, "lat": 40.7092166, "lon": -74.0141592, "tags": {"addr:city": "New York", "addr:housenumber": "15", "addr:postcode": "10006", "addr:state": "NY", "addr:street": "Carlisle Street", "amenity": "cafe", "branch": "Carlisle and Washington", "brand": "Starbucks", "brand:wikidata": "Q37158", "check_date": "2023-02-23", "cuisine": "coffee_shop", "name": "Starbucks", "official_name": "Starbucks Coffee", "phone": "+1 646-860-8615", "ref": "1017449", "takeaway": "yes", "website": "https://www.starbucks.com/store-locator/store/1017449/carlisle-and-washington-15-carlisle-st-new-york-ny-100061516-us"}}, {"type": "node", "id": 8861668918, "lat": 40.7132893, "lon": -74.0096484, "tags": {"amenity": "cafe", "name": "Salad Box"}}, {"type": "node", "id": 9149294696, "lat": 40.7095464, "lon": -74.0092712, "tags": {"air_conditioning": "yes", "amenity": "restaurant", "bar": "yes", "check_date": "2024-06-27", "cuisine": "american", "indoor_seating": "yes", "name": "The Malt House", "outdoor_seating": "yes", "payment:cash": "yes", "payment:credit_cards": "yes", "reservation": "yes", "takeaway": "yes", "wheelchair": "yes"}}, {"type": "node", "id": 9733053717, "lat": 40.709698, "lon": -74.009548, "tags": {"addr:housenumber": "3", "addr:street": "Maiden Lane", "air_conditioning": "yes", "amenity": "restaurant", "check_date": "2024-06-27", "cuisine": "vietnamese;rice_noodle", "delivery": "yes", "highchair": "no", "indoor_seating": "yes", "name": "Pho Maiden Lane", "opening_hours": "Mo-Sa 10:00-20:00; Su 10:00-18:00", "outdoor_seating": "no", "payment:cash": "yes", "payment:credit_cards": "yes", "phone": "+1 646-449-0247", "rice_noodle": "pho", "smoking": "no", "takeaway": "yes", "toilets": "no", "wheelchair": "yes"}}, {"type": "node", "id": 10281405382, "lat": 40.7117738, "lon": -74.0116689, "tags": {"air_conditioning": "yes", "amenity": "cafe", "check_date": "2024-05-14", "indoor_seating": "yes", "level": "-2", "name": "\u00c9picerie Boulud", "opening_hours": "Mo-Fr 07:00-20:00; Sa,Su 08:00-20:00", "outdoor_seating": "no", "phone": "+2125959605", "smoking": "no", "wheelchair": "yes"}}, {"type": "node", "id": 10282960416, "lat": 40.7133013, "lon": -74.0111694}, {"type": "node", "id": 10282960417, "lat": 40.7133549, "lon": -74.0111692}, {"type": "node", "id": 10282960418, "lat": 40.7133384, "lon": -74.0111547}, {"type": "node", "id": 10282960419, "lat": 40.7133289, "lon": -74.0111547}, {"type": "node", "id": 10282960420, "lat": 40.7133109, "lon": -74.0111612}, {"type": "node", "id": 10282960434, "lat": 40.7128576, "lon": -74.0116943}, {"type": "node", "id": 10282960435, "lat": 40.7128566, "lon": -74.0116868}, {"type": "node", "id": 10282960436, "lat": 40.7128588, "lon": -74.0116802}, {"type": "node", "id": 10282960437, "lat": 40.7128729, "lon": -74.0117274}, {"type": "node", "id": 10282960438, "lat": 40.7128828, "lon": -74.0117348}, {"type": "node", "id": 10282960439, "lat": 40.7128776, "lon": -74.0117332}, {"type": "node", "id": 10282960440, "lat": 40.7134831, "lon": -74.0115882}, {"type": "node", "id": 10282960441, "lat": 40.713502, "lon": -74.0115744}, {"type": "node", "id": 10282960442, "lat": 40.7135126, "lon": -74.0115216}, {"type": "node", "id": 10282960443, "lat": 40.7135137, "lon": -74.011535, "tags": {"barrier": "kerb", "kerb": "lowered", "tactile_paving": "no", "wheelchair": "yes"}}, {"type": "node", "id": 10282960444, "lat": 40.7135123, "lon": -74.0115522}, {"type": "node", "id": 10282960492, "lat": 40.7131281, "lon": -74.0113755}, {"type": "node", "id": 10282960493, "lat": 40.713108, "lon": -74.011379}, {"type": "node", "id": 10282960494, "lat": 40.7131238, "lon": -74.0113777}, {"type": "node", "id": 10282960495, "lat": 40.7131129, "lon": -74.0113775}, {"type": "node", "id": 10290401161, "lat": 40.7095787, "lon": -74.0116227}, {"type": "node", "id": 10290401162, "lat": 40.7095701, "lon": -74.0116785}, {"type": "node", "id": 10290401163, "lat": 40.7095774, "lon": -74.0116677}, {"type": "node", "id": 10290401164, "lat": 40.7095813, "lon": -74.0116439}, {"type": "node", "id": 10290401165, "lat": 40.7095809, "lon": -74.0116333}, {"type": "node", "id": 10290401166, "lat": 40.7090991, "lon": -74.0106835}, {"type": "node", "id": 10290401167, "lat": 40.7091134, "lon": -74.0106746, "tags": {"barrier": "kerb", "kerb": "lowered", "tactile_paving": "yes", "wheelchair": "yes"}}, {"type": "node", "id": 10290401168, "lat": 40.7091447, "lon": -74.0106724}, {"type": "node", "id": 10290401169, "lat": 40.7091335, "lon": -74.0106682}, {"type": "node", "id": 10290401170, "lat": 40.7091235, "lon": -74.0106687}, {"type": "node", "id": 10290401171, "lat": 40.7088955, "lon": -74.0108539}, {"type": "node", "id": 10290401172, "lat": 40.7088822, "lon": -74.010898}, {"type": "node", "id": 10290401173, "lat": 40.7088815, "lon": -74.0108829}, {"type": "node", "id": 10290401174, "lat": 40.708886, "lon": -74.0108684}, {"type": "node", "id": 10290401177, "lat": 40.7093397, "lon": -74.0118364}, {"type": "node", "id": 10290401178, "lat": 40.7093013, "lon": -74.011824}, {"type": "node", "id": 10290401179, "lat": 40.7093269, "lon": -74.0118396}, {"type": "node", "id": 10290401180, "lat": 40.7093085, "lon": -74.011833}, {"type": "node", "id": 10290401193, "lat": 40.7091564, "lon": -74.0106886, "tags": {"barrier": "kerb", "kerb": "lowered", "tactile_paving": "yes", "wheelchair": "yes"}}, {"type": "node", "id": 10290401197, "lat": 40.7088913, "lon": -74.0108603, "tags": {"barrier": "kerb", "kerb": "lowered", "tactile_paving": "yes", "wheelchair": "yes"}}, {"type": "node", "id": 10619086494, "lat": 40.7130439, "lon": -74.01008, "tags": {"addr:city": "New York", "addr:housenumber": "75", "addr:postcode": "10007", "addr:state": "NY", "addr:street": "Barclay Street", "amenity": "restaurant", "contact:instagram": "https://instagram.com/itotribeca", "cuisine": "sushi", "email": "info@itotribeca.com", "name": "Ito", "opening_hours": "Tu-Sa 18:00-20:45", "reservation": "recommended", "website": "https://itotribeca.com/", "website:booking": "https://itotribeca.com/#reservations"}}, {"type": "node", "id": 11084144532, "lat": 40.7097477, "lon": -74.0088749, "tags": {"amenity": "restaurant", "cuisine": "ramen", "indoor_seating": "yes", "name": "Kuu Ramen", "opening_hours": "Mo-Su 11:30-21:30", "outdoor_seating": "no"}}, {"type": "node", "id": 11084164914, "lat": 40.7098633, "lon": -74.0086893, "tags": {"amenity": "bar", "name": "The Irish American", "sport": "billiards"}}, {"type": "node", "id": 11084168882, "lat": 40.7092141, "lon": -74.0088431, "tags": {"amenity": "cafe", "cuisine": "coffee_shop", "indoor_seating": "yes", "name": "Simpl Coffee Shop", "opening_hours": "Mo-Su 07:00-19:00", "outdoor_seating": "no"}}, {"type": "node", "id": 11119847161, "lat": 40.7096711, "lon": -74.0087599, "tags": {"addr:city": "New York", "addr:housenumber": "24", "addr:postcode": "10038", "addr:state": "NY", "addr:street": "John Street", "amenity": "cafe", "cuisine": "coffee_shop", "name": "Tutto Calcio Espresso Bar", "opening_hours": "Mo-Su 07:00-20:00", "outdoor_seating": "no", "phone": "+1-212-389-0254", "website": "https://www.instagram.com/tuttocalcioespressobar"}}, {"type": "node", "id": 11175680754, "lat": 40.7142671, "lon": -74.008695, "tags": {"amenity": "cafe", "diet:vegan": "no", "diet:vegetarian": "yes", "indoor_seating": "yes", "name": "Birch Coffee", "opening_hours": "Mo-Fr 07:00-16:00; Sa,Su 07:30-16:00", "outdoor_seating": "no", "wheelchair": "yes"}}, {"type": "node", "id": 11175682842, "lat": 40.7128293, "lon": -74.0093508, "tags": {"amenity": "restaurant", "indoor_seating": "yes", "name": "Cut by Wolfgang Puck", "outdoor_seating": "yes"}}, {"type": "node", "id": 11301575865, "lat": 40.7125031, "lon": -74.0123419, "tags": {"addr:city": "New York", "addr:housenumber": "251", "addr:postcode": "10007", "addr:state": "NY", "addr:street": "Fulton Street", "amenity": "restaurant", "cuisine": "american", "name": "Metropolis by Marcus Samuelsson", "phone": "+12122663018", "website": "https://www.metropolisbymarcus.com/?y_source=1_MTAxOTQ5MDcyMi03MTUtbG9jYXRpb24ud2Vic2l0ZQ%3D%3D"}}, {"type": "node", "id": 11415663148, "lat": 40.7096883, "lon": -74.0129586}, {"type": "node", "id": 11416374410, "lat": 40.7078744, "lon": -74.0158027}, {"type": "node", "id": 11416374439, "lat": 40.7097172, "lon": -74.0151873}, {"type": "node", "id": 11416374440, "lat": 40.7097113, "lon": -74.0151808}, {"type": "node", "id": 11416374459, "lat": 40.7097313, "lon": -74.0152416}, {"type": "node", "id": 11416374463, "lat": 40.7097845, "lon": -74.0154998}, {"type": "node", "id": 11416395928, "lat": 40.7097928, "lon": -74.0155402}, {"type": "node", "id": 11416395944, "lat": 40.7090589, "lon": -74.0158416}, {"type": "node", "id": 11416395954, "lat": 40.7088977, "lon": -74.0159013}, {"type": "node", "id": 11416395966, "lat": 40.7088403, "lon": -74.0159271}, {"type": "node", "id": 11416396059, "lat": 40.7080436, "lon": -74.0161551}, {"type": "node", "id": 11416396063, "lat": 40.7080342, "lon": -74.0161575}, {"type": "node", "id": 11416396064, "lat": 40.7080245, "lon": -74.016158}, {"type": "node", "id": 11416396170, "lat": 40.7097879, "lon": -74.0155161}, {"type": "node", "id": 11422119795, "lat": 40.7096969, "lon": -74.0179611}, {"type": "node", "id": 11422119796, "lat": 40.7096774, "lon": -74.0179684}, {"type": "node", "id": 11422119797, "lat": 40.7103494, "lon": -74.0180253}, {"type": "node", "id": 11422119984, "lat": 40.7103097, "lon": -74.0178555}, {"type": "node", "id": 11422119985, "lat": 40.7103712, "lon": -74.0178307}, {"type": "node", "id": 11422120016, "lat": 40.7105778, "lon": -74.0177485}, {"type": "node", "id": 11422120017, "lat": 40.7105234, "lon": -74.017769}, {"type": "node", "id": 11422120021, "lat": 40.7106254, "lon": -74.0179608}, {"type": "node", "id": 11422120022, "lat": 40.7110737, "lon": -74.0178514}, {"type": "node", "id": 11422120126, "lat": 40.7103869, "lon": -74.0178243}, {"type": "node", "id": 11422120127, "lat": 40.7105064, "lon": -74.0177759}, {"type": "node", "id": 11422226048, "lat": 40.7100769, "lon": -74.0180949}, {"type": "node", "id": 11424681325, "lat": 40.711661, "lon": -74.0159725}, {"type": "node", "id": 11424681436, "lat": 40.7118016, "lon": -74.0159296}, {"type": "node", "id": 11424681437, "lat": 40.7117102, "lon": -74.0159373}, {"type": "node", "id": 11424681445, "lat": 40.712285, "lon": -74.0160416}, {"type": "node", "id": 11424681503, "lat": 40.7115802, "lon": -74.0161039}, {"type": "node", "id": 11424681504, "lat": 40.7115908, "lon": -74.016153}, {"type": "node", "id": 11424681506, "lat": 40.7116008, "lon": -74.0160156}, {"type": "node", "id": 11424681526, "lat": 40.7122293, "lon": -74.0160373}, {"type": "node", "id": 11429300989, "lat": 40.7116562, "lon": -74.0164411}, {"type": "node", "id": 11429300990, "lat": 40.7118111, "lon": -74.0172749}, {"type": "node", "id": 11429300991, "lat": 40.7117857, "lon": -74.0172799}, {"type": "node", "id": 11429300992, "lat": 40.7117737, "lon": -74.0174426}, {"type": "node", "id": 11429300997, "lat": 40.7125909, "lon": -74.0161538}, {"type": "node", "id": 11429301002, "lat": 40.7125571, "lon": -74.0160719}, {"type": "node", "id": 11429301003, "lat": 40.7125508, "lon": -74.0160572}, {"type": "node", "id": 11429301007, "lat": 40.7124595, "lon": -74.0159707}, {"type": "node", "id": 11429301008, "lat": 40.7124473, "lon": -74.0159757}, {"type": "node", "id": 11429301015, "lat": 40.7123469, "lon": -74.0160164}, {"type": "node", "id": 11429301016, "lat": 40.7123317, "lon": -74.0160226}, {"type": "node", "id": 11429301024, "lat": 40.712243, "lon": -74.0160587}, {"type": "node", "id": 11429301055, "lat": 40.7122252, "lon": -74.0160187}, {"type": "node", "id": 11429301062, "lat": 40.7125949, "lon": -74.0161633}, {"type": "node", "id": 11429301064, "lat": 40.7125543, "lon": -74.0160653}, {"type": "node", "id": 11429301066, "lat": 40.7124533, "lon": -74.0159732}, {"type": "node", "id": 11429301068, "lat": 40.7123393, "lon": -74.0160195}, {"type": "node", "id": 11429301160, "lat": 40.7121723, "lon": -74.0166642}, {"type": "node", "id": 11454589466, "lat": 40.7148025, "lon": -74.0174157}, {"type": "node", "id": 11454589474, "lat": 40.7148424, "lon": -74.0174084, "tags": {"barrier": "gate"}}, {"type": "node", "id": 11454589642, "lat": 40.714782, "lon": -74.0174195, "tags": {"highway": "street_lamp"}}, {"type": "node", "id": 11454589643, "lat": 40.7146709, "lon": -74.0174402, "tags": {"highway": "street_lamp"}}, {"type": "node", "id": 11454589644, "lat": 40.7145492, "lon": -74.0174628, "tags": {"highway": "street_lamp"}}, {"type": "node", "id": 11454589671, "lat": 40.7144279, "lon": -74.0174854, "tags": {"highway": "street_lamp"}}, {"type": "node", "id": 11454589672, "lat": 40.7142752, "lon": -74.0175138, "tags": {"highway": "street_lamp"}}, {"type": "node", "id": 11454589673, "lat": 40.7137681, "lon": -74.0176081, "tags": {"highway": "street_lamp"}}, {"type": "node", "id": 11454589674, "lat": 40.7136625, "lon": -74.0176252, "tags": {"highway": "street_lamp"}}, {"type": "node", "id": 11457630296, "lat": 40.7123194, "lon": -74.0178707, "tags": {"highway": "street_lamp"}}, {"type": "node", "id": 11457630322, "lat": 40.7129451, "lon": -74.0165587}, {"type": "node", "id": 11457630323, "lat": 40.7128445, "lon": -74.0166064}, {"type": "node", "id": 11457630324, "lat": 40.7126834, "lon": -74.0166267}, {"type": "node", "id": 11457630698, "lat": 40.7122757, "lon": -74.0178787, "tags": {"highway": "street_lamp"}}, {"type": "node", "id": 11457630699, "lat": 40.712147, "lon": -74.0179024, "tags": {"highway": "street_lamp"}}, {"type": "node", "id": 11457630700, "lat": 40.7120188, "lon": -74.017926, "tags": {"highway": "street_lamp"}}, {"type": "node", "id": 11457630701, "lat": 40.7118925, "lon": -74.0179493, "tags": {"highway": "street_lamp"}}, {"type": "node", "id": 11659815869, "lat": 40.7109261, "lon": -74.0103462, "tags": {"addr:city": "New York", "addr:housenumber": "22", "addr:postcode": "10007", "addr:state": "NY", "addr:street": "Dey Street", "air_conditioning": "yes", "amenity": "cafe", "branch": "195 Broadway", "brand": "Starbucks", "brand:wikidata": "Q37158", "cuisine": "coffee_shop", "name": "Starbucks", "official_name": "Starbucks Coffee", "opening_hours": "Mo-Fr 05:30-19:30; Sa,Su 07:00-18:00", "outdoor_seating": "no", "phone": "+1 212-385-1104", "ref": "16209", "takeaway": "yes", "website": "https://www.starbucks.com/store-locator/store/16209/195-broadway-22-dey-street-new-york-ny-100073100-us"}}, {"type": "node", "id": 12361377540, "lat": 40.7091832, "lon": -74.0121953, "tags": {"entrance": "yes"}}, {"type": "node", "id": 12809106019, "lat": 40.7130184, "lon": -74.0131518, "tags": {"addr:city": "New York", "addr:housenumber": "One World Trade Center", "addr:postcode": "10007", "addr:state": "NY", "addr:street": "West Street", "addr:unit": "85th Floor", "check_date": "2025-05-04", "check_date:currency:XBT": "2025-05-04", "currency:XBT": "yes", "name": "Involve Digital", "office": "advertising_agency", "opening_hours": "Mo-Fr 09:00-17:00", "payment:lightning": "yes", "payment:lightning_contactless": "no", "payment:onchain": "yes", "phone": "+1 929 474 0274", "website": "https://www.involvedigital.com"}}, {"type": "node", "id": 12924977464, "lat": 40.712842, "lon": -74.0156587, "tags": {"amenity": "cafe", "check_date": "2025-06-18", "cuisine": "coffee_shop", "level": "2", "name": "Mah Ze Dahr"}}, {"type": "node", "id": 13328290500, "lat": 40.7129533, "lon": -74.0132283, "tags": {"addr:city": "New York", "addr:housenumber": "One World Trade Center", "addr:postcode": "10007", "addr:state": "NY", "addr:street": "Fulton Street", "height": "541", "internet_access": "yes", "name": "Metalicana Corporation", "office": "company", "opening_hours": "Mo-Fr 09:00-17:00", "phone": "+1-646-814-3070", "wheelchair": "yes"}}, {"type": "way", "id": 22926662, "nodes": [1431806493, 793879917, 11415663148, 480910126, 6419520969, 480910122, 6419487813, 6417640366, 6419225446, 6419487814, 246859499, 5047505367, 1431806493], "tags": {"leisure": "park", "name": "Liberty Park", "wikidata": "Q16932670", "wikipedia": "en:Liberty Park"}}, {"type": "way", "id": 25026338, "nodes": [272194598, 10290401177, 10290401179, 8262936618, 10290401180, 10290401178, 272194601, 10290401172, 10290401173, 10290401174, 10290401197, 10290401171, 10290401166, 10290401167, 10290401170, 10290401169, 10290401168, 272194602, 10290401193, 10290401161, 10290401165, 10290401164, 8262936617, 10290401163, 10290401162, 272194598], "tags": {"leisure": "park", "name": "Zuccotti Park", "name:etymology:wikidata": "Q9012427", "name:ko": "\uc988\uce74\ud2f0 \uacf5\uc6d0", "old_name": "Liberty Plaza Park", "wikidata": "Q227659", "wikipedia": "en:Zuccotti Park"}}, {"type": "way", "id": 129700430, "nodes": [246872869, 2044075093, 2044075158, 2044075115, 2044075098, 2044075136, 2044075095, 4026488426, 2044075146, 2044075109, 2044075138, 11457630701, 11457630700, 11457630699, 11457630698, 11457630296, 246871908, 1242148209, 6165269630, 5526105879, 6165269628, 246872871, 6165269623, 5526105877, 11429301160, 42450411, 194616636, 2044075122, 194616635, 889298605, 11457630324, 2044118344, 889298560, 11457630323, 194616633, 11457630322, 194616632, 889298348, 194616631, 246872872, 5526105875, 8281922484, 5526105872, 5526105869, 4032961990, 1242148200, 11454589674, 7974945475, 11454589673, 11454589672, 11454589671, 11454589644, 11454589643, 11454589642, 11454589466, 11454589474, 6746710799, 6746710795, 246868455, 246868454, 4032952263, 4032952262, 4032952256, 4032952268, 889298512, 8282447594, 7425916644, 246871896, 2823589936, 8282447596, 1695926490, 11429301062, 11429300997, 11429301002, 11429301064, 11429301003, 1695926486, 11429301007, 11429301066, 11429301008, 11429301015, 11429301068, 11429301016, 11424681445, 11429301024, 246871897, 11424681526, 11429301055, 246871898, 11424681436, 11424681437, 11424681325, 11424681506, 246871899, 11424681503, 11424681504, 11429300989, 889585027, 11429300991, 11429300990, 246871902, 11429300992, 246871903, 246871904, 889584926, 1694299762, 1694299743, 889585169, 1694299730, 889585068, 11422120022, 889585123, 11422120021, 11422120016, 11422120017, 11422120127, 11422120126, 11422119985, 11422119984, 2823609739, 11422119797, 11422226048, 4876650549, 2823609702, 11422119795, 11422119796, 4876650551, 8281922424, 8281922427, 2823591086, 2823591085, 2823591061, 8281922436, 8281922435, 8281922445, 8281922443, 8281922442, 246871905, 246872869], "tags": {"ele": "0", "gnis:feature_id": "2060104", "leisure": "park", "name": "The Esplanade", "wikidata": "Q34864693"}}, {"type": "way", "id": 166839383, "nodes": [5837162675, 10282960419, 10282960418, 8262936477, 10282960417, 5837162677, 5837162678, 10282960442, 10282960443, 10282960444, 8262936430, 10282960441, 5837162680, 10282960440, 8262936459, 5837162679, 10282960438, 10282960439, 10282960437, 10282960434, 10282960435, 10282960436, 5837162676, 8262936482, 10282960493, 10282960495, 10282960494, 10282960492, 10282960416, 10282960420, 5837162675], "tags": {"addr:city": "New York", "addr:street": "Greenwich Street", "leisure": "park", "name": "Silverstein Family Park", "wikidata": "Q118612610"}}, {"type": "way", "id": 277904719, "nodes": [2823452401, 3809526488, 3809526483, 2823452295, 2823452297, 2823452409, 2823452411, 2823452403, 2823452401], "tags": {"addr:city": "New York", "addr:housenumber": "14", "addr:postcode": "10007", "addr:state": "NY", "addr:street": "Vesey Street", "building": "yes", "height": "26.6", "historic": "yes", "name": "New York County Lawyers Association", "nycdoitt:bin": "1001233", "office": "association", "wikidata": "Q8772027", "wikipedia": "en:New York County Lawyers' Association Building"}}, {"type": "way", "id": 278033590, "nodes": [2824641604, 3762209186, 2824641586, 12361377540, 2824641561, 2824641576, 3762209179, 3762209180, 2824641585, 2824641590, 2824641596, 2824641604], "tags": {"addr:city": "New York", "addr:housenumber": "100", "addr:street": "Trinity Place", "amenity": "school", "building": "school", "building:levels": "10", "ele": "5", "gnis:feature_id": "2083910", "mascot": "Panthers", "name": "High School of Economics and Finance", "nycdoitt:bin": "1001037", "wikidata": "Q5756623"}}, {"type": "way", "id": 400782872, "nodes": [4032952253, 11416374459, 8281922333, 8281922334, 6978478914, 6978478915, 11416374463, 11416396170, 11416395928, 4032952276, 2823609708, 2823591088, 2823591084, 11416395944, 1242148263, 11416395954, 11416395966, 2824988656, 2824988652, 2824988649, 8281922321, 8281922320, 8281922325, 4032952286, 4032952264, 11416396059, 11416396063, 11416396064, 4032952277, 4032952278, 8281922328, 8281922329, 4032952252, 8281922298, 11416374410, 4032952280, 8281922297, 4032952254, 4032952269, 8281922296, 11416374440, 11416374439, 4032952253], "tags": {"leisure": "park", "name": "West Thames Park", "operator": "Battery Park City Authority", "operator:type": "public", "website": "https://bpcparks.org/whats-here/parks/west-thames-park/"}}]}