{"version": 0.6, "generator": "Overpass API 0.7.62.8 e802775f", "osm3s": {"timestamp_osm_base": "2025-12-01T17:17:01Z", "copyright": "The data included in this document is from www.openstreetmap.org. The data is made available under ODbL."}, "elements": [{"type": "node", "id": 1428185707, "lat": 40.7433913, "lon": -73.9892649, "tags": {"addr:city": "New York", "addr:housenumber": "1123", "addr:postcode": "10010", "addr:street": "Broadway", "amenity": "cafe", "name": "Broadway Cafe", "phone": "+1-212-727-9797"}}, {"type": "node", "id": 1883802649, "lat": 40.7412598, "lon": -73.9911856, "tags": {"addr:country": "US", "addr:housenumber": "20", "addr:postcode": "10010", "addr:state": "NY", "addr:street": "West 22nd Street", "addr:unit": "710", "name": "XVIO", "office": "company"}}, {"type": "node", "id": 2114001662, "lat": 40.742262, "lon": -73.991796, "tags": {"amenity": "restaurant", "brand": "Outback Steakhouse", "brand:wikidata": "Q1064893", "cuisine": "american;steak", "name": "Outback Steakhouse"}}, {"type": "node", "id": 2307164619, "lat": 40.7446263, "lon": -73.9907963}, {"type": "node", "id": 2307164621, "lat": 40.7448876, "lon": -73.9906696}, {"type": "node", "id": 2307164625, "lat": 40.7445802, "lon": -73.9906883}, {"type": "node", "id": 2307164627, "lat": 40.7448694, "lon": -73.990624}, {"type": "node", "id": 2409946228, "lat": 40.7441477, "lon": -73.9961776, "tags": {"addr:city": "New York", "addr:country": "US", "addr:housenumber": "206", "addr:state": "NY", "addr:street": "West 23rd Street", "amenity": "pub", "check_date": "2024-04-26", "name": "Jake's Saloon", "website": "www.jakessaloonnyc.com"}}, {"type": "node", "id": 2501879029, "lat": 40.7459975, "lon": -73.9996248}, {"type": "node", "id": 2549953088, "lat": 40.7445195, "lon": -73.9904827, "tags": {"addr:housenumber": "37", "addr:postcode": "10001", "addr:street": "West 26th Street", "amenity": "bar", "cuisine": "american;continental", "diet:gluten_free": "yes", "diet:vegan": "yes", "diet:vegetarian": "yes", "live_music": "yes", "name": "The Flatiron Room", "opening_hours": "Mo-Fr 16:00-02:00; Sa 17:00-02:00; Su 17:00-24:00", "operator": "Goodnight Group", "phone": "+1-212-725-3860", "website": "https://www.theflatironroom.com"}}, {"type": "node", "id": 2549953101, "lat": 40.7451365, "lon": -73.9900429, "tags": {"addr:housenumber": "45", "addr:postcode": "10001", "addr:street": "West 27th Street", "amenity": "bar", "name": "Oscar Wilde"}}, {"type": "node", "id": 2549953397, "lat": 40.7448191, "lon": -73.9904807}, {"type": "node", "id": 2549953424, "lat": 40.7448297, "lon": -73.9905042}, {"type": "node", "id": 2549953465, "lat": 40.7450531, "lon": -73.9903138}, {"type": "node", "id": 2549960848, "lat": 40.7440812, "lon": -73.9932889, "tags": {"addr:housenumber": "125", "addr:postcode": "10001", "addr:street": "West 24th Street", "name": "A-B CSO", "office": "yes"}}, {"type": "node", "id": 2549960961, "lat": 40.7453942, "lon": -73.9912033, "tags": {"addr:city": "New York", "addr:housenumber": "793", "addr:postcode": "10001", "addr:state": "NY", "addr:street": "6th Avenue", "air_conditioning": "yes", "amenity": "restaurant", "cuisine": "korean", "name": "Hee Korean BBQ Grill"}}, {"type": "node", "id": 2549961563, "lat": 40.7453231, "lon": -73.992431}, {"type": "node", "id": 2549961619, "lat": 40.7454294, "lon": -73.9923536}, {"type": "node", "id": 2549961626, "lat": 40.7454402, "lon": -73.992709}, {"type": "node", "id": 2549961631, "lat": 40.7454471, "lon": -73.9923955}, {"type": "node", "id": 2549961646, "lat": 40.7455455, "lon": -73.9923238}, {"type": "node", "id": 2549961668, "lat": 40.745645, "lon": -73.9925599}, {"type": "node", "id": 2555136032, "lat": 40.7402819, "lon": -73.98929, "tags": {"addr:city": "New York", "addr:housenumber": "936", "addr:postcode": "10010", "addr:state": "NY", "addr:street": "Broadway", "email": "eklundgomes@elliman.com", "name": "Eklund | Gomes Real Estate Team", "office": "estate_agent", "phone": "+1-212-598-3199", "website": "https://theeklundgomesteam.elliman.com/"}}, {"type": "node", "id": 2562375149, "lat": 40.7373434, "lon": -73.9866417}, {"type": "node", "id": 2562375154, "lat": 40.7373879, "lon": -73.986746}, {"type": "node", "id": 2562375200, "lat": 40.7376517, "lon": -73.9864143}, {"type": "node", "id": 2562375208, "lat": 40.7376962, "lon": -73.9865186}, {"type": "node", "id": 2621558446, "lat": 40.7442736, "lon": -73.9904326, "tags": {"addr:city": "New York", "addr:housenumber": "30", "addr:postcode": "10010", "addr:street": "West 26th Street", "amenity": "restaurant", "bar": "yes", "cuisine": "barbecue", "delivery": "Mo-Su 12:15-20:00", "internet_access": "wlan", "name": "Hill Country Barbecue Market", "opening_hours": "Mo,Tu 14:00-21:00; We-Su 12:00-21:00", "phone": "+1-212-255-4544", "smoking": "outside", "takeaway": "yes", "website": "https://www.hillcountry.com", "wheelchair": "limited"}}, {"type": "node", "id": 2621558482, "lat": 40.7443244, "lon": -73.9900461, "tags": {"addr:city": "New York", "addr:housename": "29", "addr:postcode": "10001", "addr:street": "West 26th Street", "amenity": "restaurant", "cuisine": "latin_american", "name": "Latin American Restaurant", "phone": "+1-212-689-2570", "wheelchair": "no"}}, {"type": "node", "id": 2622636229, "lat": 40.743266, "lon": -73.991263, "tags": {"addr:city": "New York", "addr:housenumber": "49", "addr:postcode": "10010", "addr:street": "24th Street", "amenity": "restaurant", "cuisine": "pizza", "name": "Tappo", "phone": "+1-212-807-9200", "website": "tappothincrust.com"}}, {"type": "node", "id": 2626236854, "lat": 40.7444122, "lon": -73.9907381, "tags": {"addr:city": "New York", "addr:housenumber": "38", "addr:postcode": "10010", "addr:state": "NY", "addr:street": "West 26th Street", "amenity": "pub", "name": "Flatiron Hall Restaurant and Beer Cellar", "opening_hours": "Mo-Tu 12:00-24:00; We,Th 12:00-1:00; Fr,Sa 12:00-2:00; Su 11:00-22:00", "phone": "+1-646-790-3200", "website": "https://www.flatironhall.com/"}}, {"type": "node", "id": 2626236856, "lat": 40.7445509, "lon": -73.9905594, "tags": {"addr:city": "New York", "addr:housenumber": "43", "addr:postcode": "10010", "addr:street": "West 26th Street", "amenity": "bar", "name": "Grey Bar & Restaurant", "opening_hours": "12:00 - 2:00", "phone": "+1-212-532-2643", "website": "https://www.greybarnyc.com/"}}, {"type": "node", "id": 2630078319, "lat": 40.7427924, "lon": -73.9920482, "tags": {"addr:city": "New York", "addr:housenumber": "67", "addr:postcode": "10010", "addr:street": "West 23rd Street", "amenity": "restaurant", "cuisine": "korean;deli", "delivery": "yes", "name": "Kofoo", "phone": "+1 212 675 5277", "smoking": "no", "takeaway": "yes", "website": "http://www.kofoony.com/"}}, {"type": "node", "id": 2634318928, "lat": 40.7450623, "lon": -73.9903368}, {"type": "node", "id": 2634398946, "lat": 40.7452192, "lon": -73.9908474, "tags": {"addr:city": "New York", "addr:housenumber": "776", "addr:postcode": "10001", "addr:state": "NY", "addr:street": "Avenue of the Americas", "amenity": "cafe", "branch": "27th & 6th", "brand": "Starbucks", "brand:wikidata": "Q37158", "cuisine": "coffee_shop", "name": "Starbucks", "official_name": "Starbucks Coffee", "phone": "+1 212-481-1856", "takeaway": "yes", "website": "https://www.starbucks.com/store-locator/store/11291/27th-6th-776-avenue-of-the-americas-new-york-ny-100016354-u"}}, {"type": "node", "id": 2676076063, "lat": 40.7423105, "lon": -73.9898043, "tags": {"addr:city": "New York", "addr:housenumber": "200", "addr:state": "NY", "addr:street": "5th Avenue", "amenity": "restaurant", "level": "14", "location": "roof", "name": "Serra Alpina", "opening_hours": "Mo-Th 11:30-22:00; Fr 11:30-23:00; Sa,Su 11:00-23:00", "operator": "Eataly", "outdoor_seating": "yes", "website": "https://www.eataly.com/us_en/stores/nyc-flatiron/serra-by-birreria/"}}, {"type": "node", "id": 2679311665, "lat": 40.7444118, "lon": -73.991938, "tags": {"addr:city": "New York", "addr:housenumber": "757", "addr:postcode": "10001", "addr:state": "NY", "addr:street": "6th Avenue", "amenity": "bar", "cocktails": "yes", "drink:beer": "draught", "drink:liquor": "yes", "drink:wine": "yes", "happy_hours": "Mo-Fr 15:00-19:00", "name": "Storehouse", "toilets": "yes", "toilets:access": "customers", "website": "https://www.thestorehousenyc.com/"}}, {"type": "node", "id": 2688438317, "lat": 40.7442104, "lon": -73.9903727, "tags": {"addr:city": "New York", "addr:housenumber": "30", "addr:postcode": "10010", "addr:state": "NY", "addr:street": "West 26th Street", "level": "7", "name": "Samsung Accelerator", "office": "company", "smoking": "no", "website": "http://samsungaccelerator.com"}}, {"type": "node", "id": 2702838486, "lat": 40.7417521, "lon": -74.0029233}, {"type": "node", "id": 2702838547, "lat": 40.7418831, "lon": -74.0032364}, {"type": "node", "id": 2702838559, "lat": 40.741901, "lon": -74.0028157}, {"type": "node", "id": 2702838564, "lat": 40.7419091, "lon": -74.0028351}, {"type": "node", "id": 2702838604, "lat": 40.7419677, "lon": -74.0027926}, {"type": "node", "id": 2702838629, "lat": 40.7419991, "lon": -74.0031143}, {"type": "node", "id": 2702838635, "lat": 40.7420114, "lon": -74.0031436}, {"type": "node", "id": 2702838687, "lat": 40.7420783, "lon": -74.003057}, {"type": "node", "id": 2703033271, "lat": 40.7414099, "lon": -73.9959709}, {"type": "node", "id": 2703033304, "lat": 40.7415476, "lon": -73.9962978}, {"type": "node", "id": 2703033306, "lat": 40.7415639, "lon": -73.9963095}, {"type": "node", "id": 2703033308, "lat": 40.7415719, "lon": -73.9958529}, {"type": "node", "id": 2703033316, "lat": 40.7416283, "lon": -73.9958118}, {"type": "node", "id": 2703033339, "lat": 40.7417766, "lon": -73.9961641}, {"type": "node", "id": 2703044063, "lat": 40.7416972, "lon": -73.9934425, "tags": {"addr:city": "New York", "addr:housenumber": "678", "addr:postcode": "10010", "addr:state": "NY", "addr:street": "Avenue Of The Americas", "amenity": "restaurant", "brand": "CAVA", "brand:wikidata": "Q85751038", "cuisine": "mediterranean", "level": "0", "name": "CAVA"}}, {"type": "node", "id": 2703059127, "lat": 40.7419847, "lon": -73.9954658}, {"type": "node", "id": 2703059157, "lat": 40.742076, "lon": -73.9956825}, {"type": "node", "id": 2703059246, "lat": 40.7421843, "lon": -73.9953205}, {"type": "node", "id": 2703059300, "lat": 40.7422385, "lon": -73.9949898}, {"type": "node", "id": 2703059345, "lat": 40.7422756, "lon": -73.9955372}, {"type": "node", "id": 2703059407, "lat": 40.7423716, "lon": -73.995304}, {"type": "node", "id": 2703059430, "lat": 40.7424435, "lon": -73.9948396}, {"type": "node", "id": 2703059448, "lat": 40.7424974, "lon": -73.9948002}, {"type": "node", "id": 2703059463, "lat": 40.7425407, "lon": -73.9949026}, {"type": "node", "id": 2703059470, "lat": 40.7425986, "lon": -73.9950393}, {"type": "node", "id": 2703059473, "lat": 40.7426035, "lon": -73.9951342}, {"type": "node", "id": 2703059477, "lat": 40.7426305, "lon": -73.9951144}, {"type": "node", "id": 2703083220, "lat": 40.7438586, "lon": -73.9946656, "tags": {"addr:housenumber": "163", "addr:postcode": "10011", "addr:street": "West 23rd Street", "amenity": "restaurant", "atm": "yes", "check_date": "2024-04-26", "cuisine": "diner", "delivery": "yes", "drink:beer": "yes", "drink:wine": "yes", "email": "malibudinernyc163@gmail.com", "name": "Malibu Diner", "phone": "+1 212-691-1369", "website": "https://malibudinernyc.nyc/"}}, {"type": "node", "id": 2703115801, "lat": 40.7459146, "lon": -73.9997026}, {"type": "node", "id": 2703115811, "lat": 40.7459501, "lon": -73.9997857}, {"type": "node", "id": 2703115823, "lat": 40.7459964, "lon": -73.9997635}, {"type": "node", "id": 2703115826, "lat": 40.7460043, "lon": -73.9996407}, {"type": "node", "id": 2703115828, "lat": 40.7460081, "lon": -73.999629}, {"type": "node", "id": 2703115829, "lat": 40.746011, "lon": -73.9996357}, {"type": "node", "id": 2703115831, "lat": 40.7460141, "lon": -73.9998048}, {"type": "node", "id": 2703115835, "lat": 40.7460185, "lon": -73.9996213}, {"type": "node", "id": 2703115837, "lat": 40.7460197, "lon": -73.9998006}, {"type": "node", "id": 2703115839, "lat": 40.7460232, "lon": -73.9996322}, {"type": "node", "id": 2703115858, "lat": 40.7461109, "lon": -73.9995675}, {"type": "node", "id": 2703115867, "lat": 40.7461689, "lon": -74.00015}, {"type": "node", "id": 2703115873, "lat": 40.7463138, "lon": -74.0000431}, {"type": "node", "id": 2704040472, "lat": 40.7368544, "lon": -73.9833585}, {"type": "node", "id": 2704040473, "lat": 40.7368611, "lon": -73.9832954}, {"type": "node", "id": 2704040476, "lat": 40.7368747, "lon": -73.9832855}, {"type": "node", "id": 2704040477, "lat": 40.7368798, "lon": -73.9833399}, {"type": "node", "id": 2704040479, "lat": 40.7369213, "lon": -73.9832513}, {"type": "node", "id": 2704040482, "lat": 40.7369311, "lon": -73.9835406}, {"type": "node", "id": 2704040483, "lat": 40.7369569, "lon": -73.9835217}, {"type": "node", "id": 2704040486, "lat": 40.736977, "lon": -73.9835696}, {"type": "node", "id": 2704040487, "lat": 40.7369844, "lon": -73.9835642}, {"type": "node", "id": 2704040489, "lat": 40.7370102, "lon": -73.9831861}, {"type": "node", "id": 2704040493, "lat": 40.7370592, "lon": -73.9831502}, {"type": "node", "id": 2704040516, "lat": 40.7371747, "lon": -73.9834247}, {"type": "node", "id": 2704093189, "lat": 40.7374469, "lon": -73.9787527}, {"type": "node", "id": 2704093192, "lat": 40.7374139, "lon": -73.9783931}, {"type": "node", "id": 2704093195, "lat": 40.7375362, "lon": -73.9786879}, {"type": "node", "id": 2704093203, "lat": 40.737449, "lon": -73.9783677}, {"type": "node", "id": 2704093205, "lat": 40.737704, "lon": -73.9786949}, {"type": "node", "id": 2704093207, "lat": 40.7377224, "lon": -73.9786816}, {"type": "node", "id": 2704093210, "lat": 40.7377916, "lon": -73.9789492}, {"type": "node", "id": 2704093211, "lat": 40.7375487, "lon": -73.978263}, {"type": "node", "id": 2704093212, "lat": 40.7376099, "lon": -73.9791456}, {"type": "node", "id": 2704093229, "lat": 40.7378123, "lon": -73.9789992}, {"type": "node", "id": 2704096873, "lat": 40.7385267, "lon": -73.982055}, {"type": "node", "id": 2704096891, "lat": 40.7385798, "lon": -73.982016}, {"type": "node", "id": 2704096893, "lat": 40.7385914, "lon": -73.9822069}, {"type": "node", "id": 2704096932, "lat": 40.7386893, "lon": -73.9824368}, {"type": "node", "id": 2704096933, "lat": 40.7386901, "lon": -73.9819352}, {"type": "node", "id": 2704096939, "lat": 40.7387385, "lon": -73.9819002}, {"type": "node", "id": 2704096946, "lat": 40.7387559, "lon": -73.9825933}, {"type": "node", "id": 2704096958, "lat": 40.7388745, "lon": -73.982507}, {"type": "node", "id": 2704096965, "lat": 40.738914, "lon": -73.9822732}, {"type": "node", "id": 2704096969, "lat": 40.7389334, "lon": -73.982464}, {"type": "node", "id": 2704096972, "lat": 40.7389801, "lon": -73.98243}, {"type": "node", "id": 2826470599, "lat": 40.7422365, "lon": -73.9949484, "tags": {"addr:city": "New York", "addr:housenumber": "131", "addr:postcode": "10011", "addr:street": "West 21st Street", "amenity": "cafe", "cuisine": "coffee_shop", "name": "Joe Pro Shop & Headquarters", "opening_hours": "Mo-Sa 08:00-17:00", "phone": "+1 212-924-7400", "website": "http://www.joenewyork.com"}}, {"type": "node", "id": 2885325707, "lat": 40.7415589, "lon": -73.9902574, "tags": {"addr:city": "New York", "addr:housenumber": "12", "addr:postcode": "10010", "addr:street": "West 23rd Street", "name": "Online Marketing Group", "office": "advertising_agency", "phone": "+1-212-532-0600", "short_name": "OMG", "website": "https://omg.re/"}}, {"type": "node", "id": 3145937665, "lat": 40.7440806, "lon": -73.9894469, "tags": {"addr:city": "New York", "addr:housenumber": "13", "addr:postcode": "10010", "addr:state": "NY", "addr:street": "West 26th Street", "amenity": "restaurant", "cuisine": "japanese", "name": "Izakaya NoMad", "opening_hours": "Mo-We 12:00-14:30, 17:30-00:00; Th-Fr 12:00-14:30, 17:30-01:00; Sa 17:30-01:00", "phone": "+1 212-213-6258", "smoking": "no", "website": "https://www.izakayanomad.com/"}}, {"type": "node", "id": 3179745212, "lat": 40.7421269, "lon": -73.9905046, "tags": {"addr:city": "New York", "addr:country": "US", "addr:housenumber": "25", "addr:postcode": "10010", "addr:state": "NY", "addr:street": "West 23rd Street", "amenity": "restaurant", "cuisine": "sushi", "name": "Tenjou"}}, {"type": "node", "id": 3220584269, "lat": 40.7429616, "lon": -73.9922855, "tags": {"addr:city": "New York", "addr:housenumber": "71", "addr:postcode": "10010", "addr:state": "NY", "addr:street": "West 23rd Street", "addr:unit": "515", "amenity": "college", "name": "Project Management Academy New York", "phone": "+1-877-637-0450", "website": "https://projectmanagementacademy.net/pmp-certification/new-york"}}, {"type": "node", "id": 3588566110, "lat": 40.741183, "lon": -73.9937782, "tags": {"amenity": "restaurant", "cuisine": "pizza", "name": "Grimaldi's Pizza", "phone": "+1-646-484-5665", "source": "survey", "website": "https://www.grimaldis-pizza.com/"}}, {"type": "node", "id": 3608674568, "lat": 40.7412384, "lon": -73.9932261, "tags": {"addr:city": "New York", "addr:housenumber": "54", "addr:street": "West 21st Street", "amenity": "bar", "name": "Slate"}}, {"type": "node", "id": 3958232658, "lat": 40.7435815, "lon": -73.9920821, "tags": {"addr:city": "New York", "addr:housenumber": "750", "addr:postcode": "10010", "addr:state": "NY", "addr:street": "6th Avenue", "amenity": "cafe", "branch": "24th & 6th", "brand": "Starbucks", "brand:wikidata": "Q37158", "cuisine": "coffee_shop", "drink:coffee": "yes", "internet_access": "yes", "name": "Starbucks", "official_name": "Starbucks Coffee", "opening_hours": "Mo-Th, Su 06:00-21:00; Fr 06:00-21:30; Sa 05:30-22:00", "phone": "+1 646-230-7208", "ref": "11203", "takeaway": "yes", "toilets": "yes", "toilets:access": "public", "website": "https://www.starbucks.com/store-locator/store/11203/24th-6th-750-6th-avenue-new-york-ny-100102716-us"}}, {"type": "node", "id": 3958232662, "lat": 40.7435359, "lon": -73.9925708, "tags": {"addr:housenumber": "729", "addr:postcode": "10010", "addr:street": "6th Avenue", "amenity": "cafe", "cuisine": "bagel;sandwich;breakfast;salad", "drink:coffee": "yes", "name": "The Corner Cafe"}}, {"type": "node", "id": 3958246944, "lat": 40.7442363, "lon": -73.9903515, "tags": {"addr:city": "New York", "addr:housenumber": "30", "addr:postcode": "10010", "addr:state": "NY", "addr:street": "West 26th Street", "amenity": "disused", "level": "6", "name": "Mapzen", "office": "company", "smoking": "no", "website": "https://mapzen.com"}}, {"type": "node", "id": 3959756841, "lat": 40.7441556, "lon": -73.9895824, "tags": {"addr:city": "New York", "addr:housenumber": "17", "addr:postcode": "10010", "addr:state": "NY", "addr:street": "West 26th Street", "amenity": "restaurant", "cuisine": "american", "name": "Maysville", "phone": "+1 646-490-8240"}}, {"type": "node", "id": 4076729410, "lat": 40.7385511, "lon": -73.9820371}, {"type": "node", "id": 4076729416, "lat": 40.7386653, "lon": -73.9819534}, {"type": "node", "id": 4088071261, "lat": 40.7443263, "lon": -73.9944542, "tags": {"addr:city": "New York", "addr:housenumber": "148", "addr:postcode": "10011", "addr:state": "NY", "addr:street": "West 24th Street", "amenity": "bar", "branch": "New York", "drink:beer": "yes", "happy_hours": "Mo-Fr 12:00-19:00", "name": "Barcade", "opening_hours": "Mo-Th, Su 12:00-02:00; Fr, Sa 12:00-04:00", "opening_hours:kitchen": "Mo-Th, Su 12:00-24:00; Fr, Sa 12:00-02:00", "phone": "+1 212-390-8455", "website": "https://barcadenewyork.com"}}, {"type": "node", "id": 4236711150, "lat": 40.7450974, "lon": -73.9947013, "tags": {"addr:city": "New York", "addr:housenumber": "257", "addr:postcode": "10001", "addr:state": "NY", "addr:street": "7th Avenue", "amenity": "restaurant", "cuisine": "italian", "delivery": "yes", "level": "1", "name": "Bella Napoli", "phone": "+1 212-675-4050", "takeaway": "yes", "website": "http://bellanapoli.com/7ave/7-avenue.html"}}, {"type": "node", "id": 4244823109, "lat": 40.7410206, "lon": -73.9907082, "tags": {"addr:city": "New York", "addr:housenumber": "4", "addr:postcode": "10010", "addr:state": "NY", "addr:street": "West 22nd Street", "amenity": "restaurant", "cuisine": "seafood", "description": "Seafood eatery with beachfront feel that has both a lobster & raw bar, plus wine & cocktails.", "level": "1", "name": "Sagaponack Bar & Grill", "phone": "+1-212-229-2226", "takeaway": "yes", "wheelchair": "limited"}}, {"type": "node", "id": 4442836595, "lat": 40.7455323, "lon": -73.9943777, "tags": {"addr:city": "New York", "addr:housenumber": "275", "addr:postcode": "10001", "addr:state": "NY", "addr:street": "7th Avenue", "amenity": "cafe", "branch": "Chelsea", "contact:facebook": "https://www.facebook.com/sevengramscaffe", "cuisine": "coffee_shop", "drink:coffee": "yes", "drink:espresso": "yes", "email": "info@sevengramscaffe.com", "internet_access": "yes", "name": "Seven Grams Caffe", "opening_hours": "Mo-Fr 07:00-19:00; Sa-Su 08:00-19:00", "phone": "+1 212-727-1777", "smoking": "no", "website": "https://www.sevengramscaffe.com"}}, {"type": "node", "id": 4480292845, "lat": 40.7444333, "lon": -73.9902995, "tags": {"addr:city": "New York", "addr:housenumber": "35", "addr:postcode": "10010", "addr:state": "NY", "addr:street": "West 26th Street", "amenity": "restaurant", "cuisine": "japanese", "name": "Maui Onion", "phone": "+1 201 548 4388", "website": "http://www.mauionion.org/"}}, {"type": "node", "id": 4492683386, "lat": 40.7428233, "lon": -73.9921754, "tags": {"addr:city": "New York", "addr:housenumber": "69", "addr:postcode": "10010", "addr:state": "NY", "addr:street": "West 23rd Street", "amenity": "bar", "ele": "2", "name": "The Storehouse", "opening_hours": "Mo-Su 11:00-04:00", "phone": "+1 212 243 8898", "smoking": "no", "website": "https://www.thestorehousenyc.com/"}}, {"type": "node", "id": 4509430011, "lat": 40.7438616, "lon": -73.9894745, "tags": {"addr:city": "New York", "addr:housenumber": "1133", "addr:postcode": "10010", "addr:state": "NY", "addr:street": "Broadway", "amenity": "restaurant", "cuisine": "indian", "delivery": "no", "name": "INDAY", "opening_hours": "Mo-Su 11:00-21:00", "phone": "+1 917 521 5012", "smoking": "no", "takeaway": "yes", "website": "http://indaynyc.com/"}}, {"type": "node", "id": 4539942054, "lat": 40.7419681, "lon": -73.9929316, "tags": {"addr:city": "New York", "addr:housenumber": "60", "addr:postcode": "10010", "addr:state": "NY", "addr:street": "West 22nd Street", "amenity": "restaurant", "delivery": "yes", "diet:gluten_free": "yes", "diet:vegan": "only", "name": "Beatnic", "opening_hours": "Mo-Su 10:00-22:00", "organic": "yes", "phone": "+1-212-290-8000", "smoking": "no", "takeaway": "yes", "website": "https://www.eatbeatnic.com/locations/flatiron"}}, {"type": "node", "id": 4591231254, "lat": 40.7452909, "lon": -73.9903934, "tags": {"addr:city": "New York", "addr:housenumber": "55", "addr:postcode": "10001", "addr:state": "NY", "addr:street": "West 27th Street", "amenity": "restaurant", "cuisine": "new_american", "name": "Mulberry & Vine", "opening_hours": "Mo-Th 11:00-21:00; Fr-Sa 11:00-20:00", "outdoor_seating": "no", "phone": "+1 212 252 8468", "smoking": "no", "takeaway": "yes", "website": "https://www.mulberryandvine.com/"}}, {"type": "node", "id": 4593242838, "lat": 40.7419337, "lon": -73.9898018, "tags": {"addr:city": "New York", "addr:housenumber": "200", "addr:postcode": "10010", "addr:state": "NY", "addr:street": "5th Avenue", "amenity": "restaurant", "cuisine": "italian", "delivery": "no", "level": "14", "name": "Baita by Birreria", "outdoor_seating": "yes", "phone": "+1-212-937-8910", "smoking": "no", "takeaway": "no", "website": "https://www.eataly.com/"}}, {"type": "node", "id": 4638395922, "lat": 40.7431207, "lon": -73.9909146, "tags": {"addr:city": "New York", "addr:housenumber": "27", "addr:postcode": "10010", "addr:state": "NY", "addr:street": "West 24th Street", "amenity": "restaurant", "cuisine": "indian", "delivery": "no", "internet_access": "wlan", "name": "Junoon", "opening_hours": "Su-Th 12:00-22:30; Fr 12:00-23:30; Sa 13:00-23:30", "outdoor_seating": "no", "phone": "+1-212-490-2100", "smoking": "no", "takeaway": "no", "website": "http://newyork.junoonrestaurants.com/", "wheelchair": "yes"}}, {"type": "node", "id": 4680472389, "lat": 40.7447503, "lon": -73.993589, "tags": {"amenity": "bar", "internet_access": "wlan", "name": "Smithfield Hall", "name:en": "Smithfield Hall"}}, {"type": "node", "id": 4746777521, "lat": 40.742213, "lon": -73.9895802, "tags": {"addr:city": "New York", "addr:housenumber": "200", "addr:postcode": "10010", "addr:state": "NY", "addr:street": "5th Avenue", "amenity": "cafe", "branch": "Flatiron", "brand": "Eataly", "brand:wikidata": "Q3046645", "check_date": "2023-03-19", "cocktails": "yes", "craft": "caterer", "cuisine": "italian", "diet:vegetarian": "yes", "drink:beer": "yes", "drink:coffee": "yes", "drink:tea": "yes", "internet_access": "wlan", "internet_access:fee": "no", "name": "Eataly", "opening_hours": "Mo-Su 09:00-23:00", "organic": "yes", "outdoor_seating": "yes", "payment:debit_cards": "yes", "phone": "+1-212-229-2560", "reservation": "yes", "shop": "supermarket", "takeaway": "yes", "toilets": "yes", "toilets:access": "public", "toilets:wheelchair": "yes", "website": "https://www.eataly.com/us_en/stores/nyc-flatiron//", "wheelchair": "yes"}}, {"type": "node", "id": 4815675028, "lat": 40.7445513, "lon": -73.9929939, "tags": {"addr:housenumber": "124", "addr:postcode": "10001", "addr:street": "West 25th Street", "amenity": "restaurant", "contact:facebook": "http://www.facebook.com/johnysluncheonettenyc", "contact:twitter": "http://twitter.com/sloppyjohny", "cuisine": "diner", "delivery": "yes", "drink:coffee": "yes", "drink:tea": "yes", "name": "Johny's Luncheonette", "opening_hours": "Mo-Fr 07:30-17:00; Sa, Su 08:30-16:00", "payment:american_express": "yes", "payment:discover_card": "yes", "payment:mastercard": "yes", "payment:visa": "yes", "phone": "+1 212-243-6230", "website": "https://johnysluncheonette.com/"}}, {"type": "node", "id": 4880872875, "lat": 40.7430465, "lon": -73.9961727, "tags": {"addr:city": "New York", "addr:housenumber": "197", "addr:postcode": "10011", "addr:state": "NY", "addr:street": "7th Avenue", "amenity": "restaurant", "cuisine": "mexican", "delivery": "yes", "email": "chelsea@limonjunglenyc.com", "name": "Lim\u00f3n Jungle", "opening_hours": "11:00-23:00; Fr,Sa 11:00-00:00", "payment:american_express": "yes", "payment:discover_card": "yes", "payment:mastercard": "yes", "payment:visa": "yes", "phone": "+1-212-243-1212", "reservation": "yes", "takeaway": "yes", "website": "http://limonjunglenyc.com"}}, {"type": "node", "id": 4931686522, "lat": 40.7407674, "lon": -73.9918982, "tags": {"amenity": "cafe"}}, {"type": "node", "id": 5057454028, "lat": 40.7452574, "lon": -73.9903235, "tags": {"addr:housenumber": "49", "addr:street": "West 27th Street", "name": "Code Academy HQ", "office": "it"}}, {"type": "node", "id": 5265747927, "lat": 40.7408103, "lon": -73.9933813, "tags": {"addr:housenumber": "47", "addr:street": "West 20th Street", "amenity": "restaurant", "cuisine": "chinese", "name": "Jue Lan", "website": "https://www.juelanclub.com/"}}, {"type": "node", "id": 5265748969, "lat": 40.7404721, "lon": -73.9931976, "tags": {"addr:housenumber": "40", "addr:street": "West 20th Street", "name": "National Resource Defense Council", "office": "consulting"}}, {"type": "node", "id": 5265748974, "lat": 40.7417874, "lon": -73.9925761, "tags": {"addr:housenumber": "50", "addr:street": "West 22nd Street", "amenity": "bar", "name": "BXL Zoute", "phone": "+1-646-692-9282"}}, {"type": "node", "id": 5388487797, "lat": 40.7413895, "lon": -73.9929254, "tags": {"addr:city": "New York", "addr:housenumber": "55", "addr:postcode": "10010", "addr:state": "NY", "addr:street": "West 21st Street", "amenity": "bar", "name": "Bounce Sporting Club", "opening_hours": "Mo-Th 12:00-03:00; Fr-Su 12:00-04:00", "outdoor_seating": "no", "phone": "+1-201-596-4666", "website": "https://www.bouncesportingclub.com"}}, {"type": "node", "id": 5537914954, "lat": 40.7411298, "lon": -73.992128, "tags": {"addr:city": "New York", "addr:housenumber": "31", "addr:postcode": "10010", "addr:state": "NY", "addr:street": "West 21st Street", "amenity": "restaurant", "cuisine": "fine_dining", "name": "Bouley at Home", "phone": "+1-212-255-5828", "tourism": "yes", "website": "https://davidbouley.com"}}, {"type": "node", "id": 5607967821, "lat": 40.7407461, "lon": -73.9931415, "tags": {"amenity": "bar", "lgbtq": "primary", "name": "Boxers", "sport": "billiards"}}, {"type": "node", "id": 5699062157, "lat": 40.7433829, "lon": -73.9914604, "tags": {"addr:city": "New York", "addr:housenumber": "49", "addr:postcode": "10010", "addr:state": "NY", "addr:street": "West 24th Street", "addr:unit": "8th Floor", "contact:facebook": "https://www.facebook.com/nycsportfishingcharters/", "name": "NYC Sportfishing Charters", "office": "company", "phone": "+1-201-388-1963", "website": "https://www.nycsportfishingcharters.com/"}}, {"type": "node", "id": 5734944621, "lat": 40.7452186, "lon": -73.9902413, "tags": {"addr:housenumber": "49", "addr:street": "West 27th Street", "amenity": "cafe", "cuisine": "coffee_shop", "indoor_seating": "yes", "name": "Patent Coffee", "outdoor_seating": "no"}}, {"type": "node", "id": 5806583255, "lat": 40.7452323, "lon": -73.9902152, "tags": {"amenity": "bar", "indoor_seating": "yes", "name": "Patent Pending", "outdoor_seating": "no"}}, {"type": "node", "id": 5844606724, "lat": 40.7444948, "lon": -73.9941795, "tags": {"addr:city": "New York", "addr:housenumber": "147", "addr:state": "NY", "addr:street": "West 24th Street", "addr:unit": "6/7", "amenity": "bar", "brewery": "yes", "check_date": "2024-06-17", "description": "Quirky bar whose name has intentional quotes.", "email": "theshakes@onestarnyc.com", "name": "\"one star\"", "opening_hours": "Mo-Sa 16:00-02:00; Su \"by appointment\"", "phone": "+1 212-777-0100"}}, {"type": "node", "id": 6006276988, "lat": 40.7433245, "lon": -73.9901642, "tags": {"amenity": "cafe", "name": "Maman"}}, {"type": "node", "id": 6053537386, "lat": 40.7402954, "lon": -73.9937183, "tags": {"amenity": "restaurant", "cuisine": "tapas", "name": "Boqueria Spanish Tapas", "opening_hours": "Mo-Su 11:00-22:30", "phone": "+1-212-255-4160", "website": "http://boquerianyc.com"}}, {"type": "node", "id": 6066607072, "lat": 40.7412985, "lon": -73.990665, "tags": {"addr:housenumber": "5", "addr:street": "West 22nd Street", "amenity": "school", "name": "Montessori Flatiron", "phone": "+1-212-633-0600", "website": "https://themontessorischools.org"}}, {"type": "node", "id": 6250176401, "lat": 40.745206, "lon": -73.9946116, "tags": {"addr:housenumber": "261", "addr:postcode": "10001", "addr:street": "7th Avenue", "amenity": "cafe", "branch": "Chelsea", "contact:facebook": "https://www.facebook.com/Variety-Coffee-Roasters-2000912436802356/", "cuisine": "coffee_shop", "drink:coffee": "yes", "drink:espresso": "yes", "drink:tea": "yes", "name": "Variety Coffee Roasters", "opening_hours": "Mo-Su 07:00-21:00", "phone": "+1 917-409-0106", "website": "https://varietycoffeeroasters.com", "wheelchair": "no"}}, {"type": "node", "id": 6259730842, "lat": 40.7438479, "lon": -73.9954656, "tags": {"addr:housenumber": "170", "addr:postcode": "10011", "addr:street": "West 23rd Street", "amenity": "cafe", "branch": "Chelsea", "check_date": "2024-04-26", "name": "ViVi Bubble Tea", "opening_hours": "Mo-Th, Su 10:00-22:00; Fr 10:00-23:00; Sa 10:00-22:30", "payment:credit_cards": "yes", "phone": "+1 212-366-0688", "website": "https://www.vivibubbletea.com/location_content.php?l=2", "wheelchair": "yes"}}, {"type": "node", "id": 6342202604, "lat": 40.7429808, "lon": -73.9893406, "tags": {"addr:housenumber": "1115", "addr:postcode": "10010", "addr:street": "Broadway", "addr:unit": "12th Floor", "description": "life and carreer coaching", "email": "nyc@thenyclifecoach.com", "name": "The NYC Life Coach", "office": "company", "opening_hours": "Mo-Fr 10:00-20:00", "phone": "+1-646-943-9160", "website": "https://www.thenyclifecoach.com"}}, {"type": "node", "id": 6371628985, "lat": 40.7410352, "lon": -73.9914328, "tags": {"addr:city": "New York", "addr:housenumber": "16", "addr:postcode": "10010", "addr:state": "NY", "addr:street": "West 22nd Street", "amenity": "restaurant", "cuisine": "korean;steak_house", "name": "\uaf43", "name:en": "COTE", "phone": "+12124017986", "website": "https://www.cotenyc.com"}}, {"type": "node", "id": 6462387667, "lat": 40.7402571, "lon": -73.989675, "tags": {"addr:housenumber": "929", "addr:postcode": "10010", "addr:street": "Broadway", "amenity": "cafe", "brand": "Joe & The Juice", "brand:wikidata": "Q26221514", "check_date": "2025-06-15", "cuisine": "coffee_shop", "level": "0", "name": "Joe & The Juice", "takeaway": "yes", "wheelchair": "yes"}}, {"type": "node", "id": 6752564942, "lat": 40.7412999, "lon": -73.993727, "tags": {"addr:housenumber": "666", "addr:postcode": "10010", "addr:street": "6th Avenue", "amenity": "restaurant", "cuisine": "japanese", "dish": "noodles", "name": "mazete"}}, {"type": "node", "id": 6752564944, "lat": 40.7418737, "lon": -73.9933052, "tags": {"addr:city": "New York", "addr:housenumber": "684", "addr:postcode": "10010", "addr:state": "NY", "addr:street": "6th Avenue", "amenity": "cafe", "branch": "22nd & 6th", "brand": "Starbucks", "brand:wikidata": "Q37158", "cuisine": "coffee_shop", "name": "Starbucks", "official_name": "Starbucks Coffee", "opening_hours": "Mo-Th 06:00-19:00; Fr 06:00-20:00; Sa 06:30-20:00; Su 06:30-19:00", "phone": "+1 212-691-1948", "takeaway": "yes", "website": "https://www.starbucks.com/store-locator/store/16731/22nd-6th-684-avenue-of-the-americas-new-york-ny-100105110-u"}}, {"type": "node", "id": 6752564945, "lat": 40.7425047, "lon": -73.9933612, "tags": {"addr:housenumber": "699", "addr:postcode": "10011", "addr:street": "6th Avenue", "amenity": "restaurant", "name": "Essen Chelsea", "website": "https://www.essenfoodtogo.com/store699/restaurant.php"}}, {"type": "node", "id": 6955034545, "lat": 40.7417763, "lon": -73.9906298, "tags": {"addr:city": "New York", "addr:housenumber": "22", "addr:postcode": "10010", "addr:state": "NY", "addr:street": "West 23rd Street", "amenity": "restaurant", "cuisine": "italian", "delivery": "yes", "name": "Mangia", "opening_hours": "Mo-Fr 07:00-17:00", "phone": "+1-212-647-0200", "website": "https://mangia.nyc/"}}, {"type": "node", "id": 6955034549, "lat": 40.7416427, "lon": -73.9903239, "tags": {"addr:city": "New York", "addr:housenumber": "14", "addr:postcode": "10010", "addr:state": "NY", "addr:street": "West 23rd Street", "amenity": "cafe", "branch": "23rd btwn 5th & 6th", "brand": "Starbucks", "brand:wikidata": "Q37158", "check_date": "2023-03-19", "cuisine": "coffee_shop", "internet_access": "wlan", "name": "Starbucks", "official_name": "Starbucks Coffee", "opening_hours": "Mo-Th 06:00-21:00; Fr 06:00-20:30; Sa 06:30-20:00; Su 06:30-19:30", "payment:cash": "yes", "payment:credit_cards": "yes", "payment:debit_cards": "yes", "payment:mastercard": "yes", "payment:visa": "yes", "phone": "+1 212-367-2050", "takeaway": "yes", "website": "https://www.starbucks.com/store-locator/store/6756/23rd-btwn-5th-6th-14-w-23rd-st-new-york-ny-100105203-us"}}, {"type": "node", "id": 7105939411, "lat": 40.7461686, "lon": -74.0001493, "tags": {"camera:type": "dome", "man_made": "surveillance", "surveillance:type": "camera"}}, {"type": "node", "id": 9054229226, "lat": 40.7378054, "lon": -73.9789393}, {"type": "node", "id": 9140832070, "lat": 40.7420578, "lon": -73.9894927, "tags": {"amenity": "cafe", "check_date": "2023-03-19", "name": "Eataly", "payment:credit_cards": "yes", "payment:debit_cards": "yes", "payment:mastercard": "yes", "payment:visa": "yes"}}, {"type": "node", "id": 9264093153, "lat": 40.7412149, "lon": -73.9913162, "tags": {"addr:city": "New York", "addr:housenumber": "16", "addr:postcode": "10010", "addr:state": "NY", "addr:street": "West 22nd Street", "consulting": "ESG", "name": "Malk Partners", "office": "consulting", "website": "https://malk.com/"}}, {"type": "node", "id": 9569739936, "lat": 40.745998, "lon": -73.9996259}, {"type": "node", "id": 9569739940, "lat": 40.7459591, "lon": -73.9996608}, {"type": "node", "id": 9922905117, "lat": 40.7440139, "lon": -73.9950453, "tags": {"addr:city": "New York", "addr:housenumber": "165", "addr:postcode": "10011", "addr:state": "NY", "addr:street": "West 23rd Street", "amenity": "restaurant", "check_date": "2024-04-26", "cuisine": "chinese", "name": "Excellent Dumpling House", "name:zh": "\u4e09\u516d\u4e5d", "opening_hours": "11:00-21:45", "phone": "+1-212-989-8885", "website": "https://excellentdumpling.nyc/"}}, {"type": "node", "id": 10170994751, "lat": 40.7451293, "lon": -73.9904976}, {"type": "node", "id": 10271227981, "lat": 40.745547, "lon": -73.994143, "tags": {"addr:city": "New York", "addr:housenumber": "275", "addr:postcode": "10001", "addr:state": "NY", "addr:street": "7th Avenue", "addr:unit": "2002", "fixme": "Clarify where 275 Seventh Ave is.", "level": "19", "name": "Epam", "office": "it", "phone": "+1 267 759 9000", "website": "https://www.epam.com/"}}, {"type": "node", "id": 10589487715, "lat": 40.7374386, "lon": -73.9783426}, {"type": "node", "id": 10589538446, "lat": 40.7387525, "lon": -73.98189}, {"type": "node", "id": 10818832466, "lat": 40.7420115, "lon": -73.9930358, "tags": {"addr:city": "New York", "addr:housenumber": "64", "addr:postcode": "10010", "addr:state": "NY", "addr:street": "West 22nd Street", "amenity": "restaurant", "branch": "Flatiron", "cuisine": "mediterranean;kebab", "name": "ta\u00efm", "opening_hours": "Mo-Su 11:00-22:00", "phone": "+1-212-966-7364", "website": "https://order.thanx.com/taim?location=8821"}}, {"type": "node", "id": 10873983898, "lat": 40.7434197, "lon": -73.9963738, "tags": {"addr:city": "New York", "addr:housenumber": "206", "addr:postcode": "10011", "addr:state": "NY", "addr:street": "West 22nd Street", "amenity": "pub", "name": "The Cooper Still", "website": "https://www.thecopperstillnyc.com/"}}, {"type": "node", "id": 11063640164, "lat": 40.7449953, "lon": -73.9934531, "tags": {"name": "Gloss VFX", "office": "it"}}, {"type": "node", "id": 11229897237, "lat": 40.7452552, "lon": -73.9902833, "tags": {"addr:housenumber": "49", "addr:postcode": "10001", "addr:street": "West 27th Street", "amenity": "bar", "contact:instagram": "seeyamanana", "name": "Seeyama\u00f1ana", "opening_hours": "Su-We 11:00-00:00; Th-Sa 11:00-02:00", "phone": "+1 917-374-1682", "website": "https://www.seeyamanananyc.com/"}}, {"type": "node", "id": 11687868832, "lat": 40.7432446, "lon": -73.9912163, "tags": {"amenity": "restaurant", "cuisine": "korean", "name": "Mista Oh", "phone": "+1-646-559-8858", "website": "https://www.mrmistaohnyc.com/"}}, {"type": "node", "id": 11734409650, "lat": 40.7412524, "lon": -73.9937682, "tags": {"amenity": "restaurant", "name": "Sophie's Cuban"}}, {"type": "node", "id": 11734474015, "lat": 40.7428769, "lon": -73.9931922, "tags": {"addr:housenumber": "100", "addr:street": "West 23rd Street", "amenity": "restaurant", "cuisine": "mexican", "name": "Great Burrito", "opening_hours": "Mo-Su 09:00-21:00", "phone": "+1 212-243-0022", "website": "http://greatburrito23rdnyc.com/"}}, {"type": "node", "id": 11734648510, "lat": 40.7406439, "lon": -73.9929501, "tags": {"amenity": "restaurant", "name": "Periyali"}}, {"type": "node", "id": 11754487749, "lat": 40.7419249, "lon": -73.9928293, "tags": {"addr:city": "New York", "addr:housenumber": "56", "addr:postcode": "10010", "addr:state": "NY", "addr:street": "West 22nd Street", "amenity": "restaurant", "cuisine": "chinese", "name": "Grandma\u2019s Home", "opening_hours": "Tu-Sa 17:00-21:30", "reservation": "yes", "website": "https://www.grandmashome.us", "website:menu": "https://www.grandmashome.us/menus", "website:reservation": "https://resy.com/cities/ny/grandmas-home"}}, {"type": "node", "id": 11765725968, "lat": 40.7449385, "lon": -73.9932512, "tags": {"addr:city": "New York", "addr:floor": "7", "addr:housenumber": "133", "addr:postcode": "10001", "addr:state": "NY", "addr:street": "West 25th Street", "name": "DeSantis Breindel", "office": "advertising_agency", "opening_hours": "Mo-Fr 09:00-18:00", "phone": "+1 212-994-7680", "website": "https://www.desantisbreindel.com/"}}, {"type": "node", "id": 11873180748, "lat": 40.7439868, "lon": -73.9949708, "tags": {"amenity": "restaurant", "name": "Malibu Diner"}}, {"type": "node", "id": 12528016586, "lat": 40.7443354, "lon": -73.9905424, "tags": {"amenity": "restaurant", "cuisine": "japanese", "name": "Towa", "opening_hours": "Mo-Th 18:00-22:00, Fr-Sa 17:15-22:00, Su 17:15-21:30", "phone": "+1-646-351-6258", "website": "https://www.towanyc.com"}}, {"type": "node", "id": 12618270838, "lat": 40.741977, "lon": -73.9921913, "tags": {"amenity": "school", "mascot": "Silver Hawks", "name": "Manhattan Village Academy"}}, {"type": "node", "id": 12679936180, "lat": 40.7454773, "lon": -73.9916409, "tags": {"addr:city": "New York", "addr:postcode": "10001", "addr:state": "NY", "addr:street": "1178 Broadway, 3rd Floor, #112", "description": "D'Andrea Law PLLC provides dedicated employment law services to individuals and small business owners throughout New York City. Attorney Theresa D'Andrea has over a decade of experience and has successfully litigated and resolved thousands of cases in New", "name": "D'Andrea Law PLLC", "office": "lawyer", "opening_hours": "Monday to Friday: 10:00 AM - 6:00 PM", "phone": "+1 201-255-7905", "website": "https://www.lawdandrea.com/"}}, {"type": "node", "id": 12739807569, "lat": 40.7401843, "lon": -73.9953946, "tags": {"addr:city": "New York", "addr:housenumber": "107", "addr:postcode": "10011", "addr:state": "NY", "addr:street": "West 18th Street", "amenity": "cafe", "name": "Telegraphe Caf\u00e9", "phone": "+1-212-488-5810"}}, {"type": "node", "id": 13064262826, "lat": 40.7440402, "lon": -73.9930299, "tags": {"amenity": "restaurant", "name": "Lulla", "website": "https://www.lullanyc.com/"}}, {"type": "node", "id": 13107965005, "lat": 40.7449435, "lon": -73.9942824, "tags": {"addr:city": "New York", "addr:housenumber": "160", "addr:postcode": "10001", "addr:state": "NY", "addr:street": "West 25th Street", "amenity": "bar", "name": "The Rose", "website": "https://www.thechelseannewyork.com/cocktail-bars-chelsea-nyc"}}, {"type": "way", "id": 221674463, "nodes": [10170994751, 2307164621, 2307164627, 2307164619, 2307164625, 2549953424, 2634318928, 10170994751], "tags": {"access": "yes", "area": "yes", "leisure": "park", "opening_hours": "07:00-20:30", "wheelchair": "yes"}}, {"type": "way", "id": 248143749, "nodes": [2549953397, 2549953424, 2634318928, 2549953465, 2549953397], "tags": {"addr:city": "New York", "addr:housenumber": "48", "addr:postcode": "10001", "addr:street": "West 27th Street", "amenity": "cafe", "building": "yes", "cuisine": "thai;dessert;tea", "height": "46.7", "name": "nuar", "nycdoitt:bin": "1015665", "opening_hours": "Mo-Su 10:30-21:00", "outdoor_seating": "yes"}}, {"type": "way", "id": 248144059, "nodes": [2549961668, 2549961646, 2549961631, 2549961619, 2549961563, 2549961626, 2549961668], "tags": {"addr:city": "New York", "addr:housenumber": "127", "addr:postcode": "10001", "addr:state": "NY", "addr:street": "West 26th Street", "amenity": "restaurant", "building": "yes", "cuisine": "bar", "height": "46.4", "name": "Black Door", "nycdoitt:bin": "1015037", "opening_hours": "Mo-Fr 16:00-04:00; Sa 08:00-04:00", "website": "https://blackdoornyc.com/"}}, {"type": "way", "id": 249657372, "nodes": [2562375149, 2562375154, 2562375208, 2562375200, 2562375149], "tags": {"addr:housenumber": "17", "addr:postcode": "10003", "addr:street": "Gramercy Park South", "building": "yes", "height": "22.8", "nycdoitt:bin": "1017937"}}, {"type": "way", "id": 264625629, "nodes": [2702838486, 2702838547, 2702838635, 2702838629, 2702838687, 2702838604, 2702838564, 2702838559, 2702838486], "tags": {"addr:housenumber": "335", "addr:postcode": "10011", "addr:street": "West 16th Street", "building": "yes", "building:colour": "#DFCAAF", "building:levels": "5", "building:material": "brick", "building:part": "yes", "height": "22.6", "nycdoitt:bin": "1013048", "roof:material": "concrete", "roof:shape": "flat"}}, {"type": "way", "id": 264646541, "nodes": [2703059448, 2703059430, 2703059300, 2703059407, 2703059473, 2703059477, 2703059470, 2703059463, 2703059448], "tags": {"building": "yes", "height": "46.6", "nycdoitt:bin": "1014771"}}, {"type": "way", "id": 264646543, "nodes": [2703059127, 2703059157, 2703059345, 2703059246, 2703059127], "tags": {"addr:housenumber": "136", "addr:postcode": "10011", "addr:street": "West 21st Street", "building": "yes", "height": "45.5", "nycdoitt:bin": "1014758"}}, {"type": "way", "id": 264651626, "nodes": [2703115828, 2703115829, 2703115826, 9569739936, 2501879029, 9569739940, 2703115801, 2703115811, 2703115823, 2703115831, 2703115837, 7105939411, 2703115867, 2703115873, 2703115858, 2703115839, 2703115835, 2703115828], "tags": {"addr:city": "New York", "addr:housenumber": "333", "addr:postcode": "10011", "addr:state": "NY", "addr:street": "West 23rd Street", "amenity": "cinema", "building": "college", "check_date": "2024-04-26", "height": "10.8", "name": "SVA Theater", "nycdoitt:bin": "1078542", "screen": "2", "source": "Local Knowledge;local_knowledge", "website": "https://www.svatheatre.com/", "wikidata": "Q45101554"}}, {"type": "way", "id": 264754109, "nodes": [2704040473, 2704040477, 2704040472, 2704040482, 2704040483, 2704040486, 2704040487, 2704040516, 2704040493, 2704040489, 2704040479, 2704040476, 2704040473], "tags": {"addr:housenumber": "214", "addr:postcode": "10010", "addr:street": "East 21st Street", "building": "yes", "height": "37.0", "nycdoitt:bin": "1019626"}}, {"type": "way", "id": 264760109, "nodes": [2704093229, 2704093210, 9054229226, 2704093205, 2704093207, 2704093211, 10589487715, 2704093203, 2704093192, 2704093195, 2704093189, 2704093212, 2704093229], "tags": {"addr:housenumber": "340", "addr:postcode": "10010", "addr:street": "East 24th Street", "building": "dormitory", "height": "42.2", "nycdoitt:bin": "1020597", "operator": "School of Visual Arts"}}, {"type": "way", "id": 371120098, "nodes": [2703033339, 2703033306, 2703033304, 2703033271, 2703033308, 2703033316, 2703033339], "tags": {"leisure": "park", "name": "Chelsea Green", "operator": "New York City Department of Parks and Recreation", "operator:short": "NYC Parks", "operator:type": "government", "operator:wikidata": "Q1894232", "website": "https://www.nycgovparks.org/parks/chelsea-green-park"}}, {"type": "way", "id": 753146654, "nodes": [2704096972, 2704096965, 10589538446, 2704096939, 2704096933, 4076729416, 2704096891, 4076729410, 2704096873, 2704096893, 2704096932, 2704096946, 2704096958, 2704096969, 2704096972]}, {"type": "relation", "id": 15402496, "members": [{"type": "way", "ref": 753146654, "role": "outer"}, {"type": "way", "ref": 264760109, "role": "outer"}, {"type": "way", "ref": 264754109, "role": "outer"}, {"type": "way", "ref": 249657372, "role": "outer"}, {"type": "way", "ref": 264646543, "role": "outer"}, {"type": "way", "ref": 264646541, "role": "outer"}, {"type": "way", "ref": 264625629, "role": "outer"}, {"type": "way", "ref": 264651626, "role": "outer"}], "tags": {"addr:housenumber": "209", "addr:postcode": "10010", "addr:street": "East 23rd Street", "alt_name": "SVA", "amenity": "university", "fax": "+1-212-725-3587", "name": "School of Visual Arts", "phone": "+1-212-592-2000", "short_name": "SVA", "type": "multipolygon", "website": "https://sva.edu", "wikidata": "Q1279835", "wikipedia": "en:School of Visual Arts"}}]}