{"version": 0.6, "generator": "Overpass API 0.7.62.8 e802775f", "osm3s": {"timestamp_osm_base": "2025-12-01T17:24:15Z", "copyright": "The data included in this document is from www.openstreetmap.org. The data is made available under ODbL."}, "elements": [{"type": "node", "id": 419362699, "lat": 40.7239188, "lon": -73.9937813, "tags": {"alt_name": "265 Musket Room", "amenity": "restaurant", "bar": "yes", "cocktails": "yes", "cuisine": "continental;eclectic", "diet:vegan": "yes", "drink:beer": "yes", "drink:liquor": "yes", "drink:wine": "yes", "happy_hours": "Tu-Sa 17:00-19:00", "name": "The Musket Room", "opening_hours": "Tu-Sa 17:00-23:00", "phone": "+1-212-219-0764", "website": "https://www.musketroom.com"}}, {"type": "node", "id": 561949916, "lat": 40.7219733, "lon": -73.9973535}, {"type": "node", "id": 561949919, "lat": 40.7215845, "lon": -73.9974439}, {"type": "node", "id": 561949922, "lat": 40.7216467, "lon": -73.9976189}, {"type": "node", "id": 1002880708, "lat": 40.7215933, "lon": -73.9956147, "tags": {"addr:city": "New York", "addr:housenumber": "32", "addr:state": "NY", "addr:street": "Spring Street", "amenity": "restaurant", "cuisine": "pizza", "delivery": "yes", "name": "Lombardi's Pizza", "opening_hours": "Mo-Th 12:00-22:00; Fr-Sa 12:00-24:00; Su 12:00-22:00", "outdoor_seating": "yes", "phone": "+1-212-941-7994", "takeaway": "yes", "website": "https://www.firstpizza.com/", "wikidata": "Q564293", "wikipedia": "en:Lombardi's Pizza"}}, {"type": "node", "id": 1487407044, "lat": 40.7208901, "lon": -74.0003925, "tags": {"addr:city": "New York", "addr:housenumber": "462", "addr:street": "Broadway", "amenity": "restaurant", "cuisine": "french", "name": "L'Ecole Restaurant"}}, {"type": "node", "id": 1899033658, "lat": 40.7210814, "lon": -73.9967486, "tags": {"amenity": "restaurant", "cuisine": "italian", "name": "Pasquale Jones", "opening_hours": "Mo-Fr 17:00-22:00; Sa,Su 12:00-15:30,17:00-22:00", "website": "https://www.pasqualejones.com/"}}, {"type": "node", "id": 2065455029, "lat": 40.722517, "lon": -73.997904, "tags": {"addr:city": "New York", "addr:housenumber": "72", "addr:postcode": "10002", "addr:street": "Spring Street", "amenity": "cafe", "brand": "Starbucks", "brand:wikidata": "Q37158", "contact:website": "https://www.starbucks.com/store-locator/store/9347/spring-street-at-crosby-st-72-spring-street-new-york-ny-100124019-us", "cuisine": "coffee_shop", "diet:vegan": "yes", "drink:soy_milk": "yes", "drive_through": "no", "name": "Starbucks", "official_name": "Starbucks Coffee", "operator": "Starbucks", "outdoor_seating": "no", "phone": "+1-212-219-2961", "smoking": "no", "takeaway": "yes", "toilets:wheelchair": "no", "wheelchair": "limited"}}, {"type": "node", "id": 2146135062, "lat": 40.7219606, "lon": -73.9973196}, {"type": "node", "id": 2146135063, "lat": 40.7219759, "lon": -73.9973414}, {"type": "node", "id": 2154628288, "lat": 40.7216118, "lon": -73.997521}, {"type": "node", "id": 2154628290, "lat": 40.7216254, "lon": -73.9975591}, {"type": "node", "id": 2154628305, "lat": 40.7217218, "lon": -73.9975579}, {"type": "node", "id": 2154628308, "lat": 40.7217651, "lon": -73.9975227}, {"type": "node", "id": 2154628313, "lat": 40.7217905, "lon": -73.997502}, {"type": "node", "id": 2154628317, "lat": 40.721821, "lon": -73.9974772}, {"type": "node", "id": 2154628324, "lat": 40.7219675, "lon": -73.9973218}, {"type": "node", "id": 2154628325, "lat": 40.721973, "lon": -73.9973299}, {"type": "node", "id": 2547041115, "lat": 40.7246643, "lon": -73.9958567, "tags": {"addr:city": "New York", "addr:housenumber": "300", "addr:postcode": "10012", "addr:state": "NY", "addr:street": "Lafayette Street", "name": "Microsoft SOHO Office", "office": "company"}}, {"type": "node", "id": 2547067899, "lat": 40.7245967, "lon": -73.9945106, "tags": {"addr:housenumber": "55", "addr:postcode": "10012", "addr:street": "East Houston Street", "alt_name": "Emilio's Ballato", "amenity": "restaurant", "contact:facebook": "https://www.facebook.com/emiliosballato/", "cuisine": "italian", "name": "Ballato", "phone": "+1-212-274-8881"}}, {"type": "node", "id": 2547241551, "lat": 40.723501, "lon": -73.9963078, "tags": {"addr:housenumber": "54", "addr:postcode": "10012", "addr:street": "Prince Street", "amenity": "restaurant", "contact:phone": "+1-212-380-8202", "cuisine": "italian", "name": "La Pecora Bianca", "outdoor_seating": "sidewalk;street", "website": "https://www.lapecorabianca.com"}}, {"type": "node", "id": 2547241563, "lat": 40.7213614, "lon": -73.997634, "tags": {"addr:housenumber": "114", "addr:postcode": "10012", "addr:street": "Kenmare Street", "alt_name": "The Corner Deli", "amenity": "restaurant", "cuisine": "mexican", "name": "Santo Taco", "opening_hours": "Mo-Su 11:30-21:30", "outdoor_seating": "yes", "website": "https://eatsantotaco.com/"}}, {"type": "node", "id": 2547241579, "lat": 40.7213537, "lon": -73.9977481, "tags": {"addr:housenumber": "201", "addr:postcode": "10012", "addr:street": "Lafayette Street", "amenity": "cafe", "drink:coffee": "yes", "drink:espresso": "yes", "drink:tea": "yes", "name": "Citizens", "website": "https://citizens.coffee/citizens-of-soho"}}, {"type": "node", "id": 2547241584, "lat": 40.7223038, "lon": -73.9962281, "tags": {"addr:housenumber": "219", "addr:postcode": "10012", "addr:street": "Mulberry Street", "amenity": "restaurant", "cuisine": "american;breakfast", "name": "Ruby's", "opening_hours": "Mo-Su 09:00-23:00", "website": "https://www.rubyscafe.com/location/soho/"}}, {"type": "node", "id": 2547241611, "lat": 40.7239788, "lon": -73.9964591, "tags": {"addr:housenumber": "270", "addr:postcode": "10012", "addr:street": "Lafayette Street", "amenity": "cafe", "brand": "La Colombe Coffee Roasters", "brand:wikidata": "Q23461663", "cuisine": "coffee_shop", "name": "La Colombe Coffee Roasters", "name:en": "La Colombe Coffee Roasters", "short_name": "La Colombe", "takeaway": "yes"}}, {"type": "node", "id": 2547241630, "lat": 40.7214887, "lon": -73.9988518, "tags": {"addr:city": "New York", "addr:housenumber": "39 1/2", "addr:postcode": "10012", "addr:street": "Crosby Street", "amenity": "restaurant", "bar": "yes", "cuisine": "french;breakfast", "drink:beer": "yes", "drink:wine": "yes", "name": "Champers Social Club", "opening_hours": "Mo-Th 10:00-22:00, Fr-Sa 10:00-24:00, Su 10:00-22:00", "outdoor_seating": "yes", "website": "https://champerssocialclub.com"}}, {"type": "node", "id": 2547241666, "lat": 40.7221019, "lon": -73.9964217, "tags": {"addr:city": "New York", "addr:housenumber": "51", "addr:postcode": "10012", "addr:state": "NY", "addr:street": "Spring Street", "amenity": "restaurant", "check_date": "2024-11-22", "cuisine": "pizza", "name": "Upside Pizza", "phone": "+19174092989", "website": "https://www.upsidepizza.com/"}}, {"type": "node", "id": 2547242036, "lat": 40.7222872, "lon": -73.9973743, "tags": {"addr:city": "New York", "addr:housenumber": "226", "addr:postcode": "10012", "addr:state": "NY", "addr:street": "Lafayette Street", "amenity": "restaurant", "branch": "Soho", "brand:wikidata": "Q6110826", "cuisine": "mediterranean;american;brunch", "drink:beer": "draught", "drink:liquor": "yes", "drink:wine": "yes", "name": "Jack\u2019s Wife Freda", "opening_hours": "Mo-We 8:30-22:00, Th-Sa 8:30-23:00, Su 8:30-21:00", "phone": "+1-212-510-8550", "takeaway": "yes", "website": "https://jackswifefreda.com"}}, {"type": "node", "id": 2547243350, "lat": 40.7208307, "lon": -73.9959563, "tags": {"addr:housenumber": "60", "addr:postcode": "10012", "addr:street": "Kenmare Street", "amenity": "cafe", "branch": "Nolita", "cuisine": "indian", "name": "Kolkata Chai Co", "opening_hours": "Mo-Fr 09:00-18:00; Sa 10:00-19:00; Su 10:00-17:00", "website": "https://kolkatachai.co"}}, {"type": "node", "id": 2547243582, "lat": 40.7214275, "lon": -73.9960058}, {"type": "node", "id": 2547243601, "lat": 40.7214672, "lon": -73.9961798}, {"type": "node", "id": 2547243617, "lat": 40.7215218, "lon": -73.9961583}, {"type": "node", "id": 2547243630, "lat": 40.7215606, "lon": -73.9963288}, {"type": "node", "id": 2547243673, "lat": 40.7222613, "lon": -73.9947577}, {"type": "node", "id": 2547243690, "lat": 40.7217205, "lon": -73.9958906}, {"type": "node", "id": 2547243815, "lat": 40.7219779, "lon": -73.9945333}, {"type": "node", "id": 2547243829, "lat": 40.7220155, "lon": -73.9947}, {"type": "node", "id": 2547243866, "lat": 40.7220871, "lon": -73.9950104}, {"type": "node", "id": 2547243880, "lat": 40.722112, "lon": -73.9951211}, {"type": "node", "id": 2547243887, "lat": 40.7221217, "lon": -73.9951642}, {"type": "node", "id": 2547243889, "lat": 40.722124, "lon": -73.995174}, {"type": "node", "id": 2547244038, "lat": 40.7222858, "lon": -73.9948725}, {"type": "node", "id": 2547244055, "lat": 40.7223001, "lon": -73.9949388}, {"type": "node", "id": 2547244073, "lat": 40.7223305, "lon": -73.9950801}, {"type": "node", "id": 2547244077, "lat": 40.7223325, "lon": -73.9950896}, {"type": "node", "id": 2547244084, "lat": 40.7223337, "lon": -73.994392}, {"type": "node", "id": 2547244131, "lat": 40.7223849, "lon": -73.9946315}, {"type": "node", "id": 2547244138, "lat": 40.7223467, "lon": -73.9944528}, {"type": "node", "id": 2547245925, "lat": 40.7198788, "lon": -73.9990016, "tags": {"addr:housenumber": "155", "addr:postcode": "10013", "addr:street": "Grand Street", "amenity": "restaurant", "cocktails": "yes", "cuisine": "seafood", "drink:beer": "yes", "drink:liquor": "yes", "drink:wine": "yes", "name": "Ed's Lobster Bar", "opening_hours": "Mo-Th 11:00-22:30; Fr 11:00-23:30; Sa 10:30-23:00; Su 10:30-21:30", "phone": "+1-212-343-3236", "website": "https://www.lobsterbarnyc.com/location/new-york-city/"}}, {"type": "node", "id": 2547246929, "lat": 40.7199136, "lon": -73.9950614, "tags": {"addr:housenumber": "354", "addr:postcode": "10012", "addr:street": "Broome Street", "name": "Joulvert", "note": "retail ebike shop is across the street at 345 Broom", "office": "company", "phone": "+1-646-685-4489", "website": "https://www.joulvert.com"}}, {"type": "node", "id": 2547246942, "lat": 40.7212696, "lon": -73.9948289, "tags": {"addr:housenumber": "14", "addr:postcode": "10012", "addr:street": "Spring Street", "amenity": "restaurant", "bar": "yes", "cocktails": "yes", "cuisine": "mediterranean", "drink:beer": "draught", "drink:coffee": "yes", "drink:espresso": "yes", "drink:liquor": "yes", "drink:tea": "yes", "drink:wine": "yes", "name": "Rintintin", "outdoor_seating": "sidewalk", "website": "https://www.rintintinnyc.com"}}, {"type": "node", "id": 2547246978, "lat": 40.7207443, "lon": -73.9957016, "tags": {"addr:housenumber": "186", "addr:postcode": "10012", "addr:street": "Mott Street", "amenity": "restaurant", "bar": "yes", "cocktails": "yes", "cuisine": "thai", "drink:beer": "yes", "drink:coffee": "yes", "drink:espresso": "yes", "drink:liquor": "yes", "drink:tea": "yes", "drink:wine": "yes", "name": "Thai Diner", "opening_hours": "Mo-We 08:30-22:30, Th-Fr 08:30-23:30, Sa 10:00-23:30, Su 10:00-22:00", "phone": "+1-646-559-4140", "website": "https://www.thaidiner.com"}}, {"type": "node", "id": 2547247040, "lat": 40.7196837, "lon": -73.9951032, "tags": {"addr:housenumber": "351", "addr:postcode": "10013", "addr:street": "Broome Street", "amenity": "restaurant", "cuisine": "italian", "name": "Piacere", "phone": "+1-212-219-4080", "website": "https://www.piacerenyc.com"}}, {"type": "node", "id": 2547247074, "lat": 40.7205649, "lon": -73.9951708, "tags": {"addr:housenumber": "40", "addr:postcode": "10012", "addr:street": "Kenmare Street", "alt_name": "Kimika", "amenity": "restaurant", "bar": "yes", "cocktails": "yes", "cuisine": "asian;italian;eclectic", "drink:beer": "yes", "drink:liquor": "yes", "drink:wine": "yes", "name": "Ki Mi Ka", "opening_hours": "Mo-Th 17:00-22:30, Fr-Sa 17:00-23:30, Su 17:00-22:30", "phone": "+1-212-256-9280", "website": "https://www.kimikanyc.com"}}, {"type": "node", "id": 2547466260, "lat": 40.719827, "lon": -73.9994807, "tags": {"addr:housenumber": "158", "addr:postcode": "10013", "addr:street": "Lafayette Street", "amenity": "bar", "name": "The Ship", "opening_hours": "Mo-We 18:00-01:00; Th-Sa 18:00-03:00"}}, {"type": "node", "id": 2547466432, "lat": 40.720326, "lon": -73.9994183}, {"type": "node", "id": 2547466453, "lat": 40.7204742, "lon": -73.9988613}, {"type": "node", "id": 2547466479, "lat": 40.7205876, "lon": -73.9990943}, {"type": "node", "id": 2547466482, "lat": 40.7205891, "lon": -73.9991953}, {"type": "node", "id": 2555099021, "lat": 40.7201124, "lon": -73.9961673, "tags": {"addr:housenumber": "371", "addr:postcode": "10013", "addr:street": "Broome Street", "amenity": "restaurant", "bar": "yes", "cocktails": "yes", "cuisine": "mediterranean", "drink:beer": "yes", "drink:coffee": "yes", "drink:espresso": "yes", "drink:liquor": "yes", "drink:wine": "yes", "name": "Shoo Shoo Nolita", "opening_hours": "Tu-We 11:30-16:00,17:30-23:00; Th-Sa 11:00-16:00,17:30-24:00; Su 11:00-16:00,17:00-22:00", "outdoor_seating": "sidewalk;street", "phone": "+1-646-590-6800", "website": "https://shooshoonolita.com"}}, {"type": "node", "id": 3214535330, "lat": 40.7214189, "lon": -73.9969231, "tags": {"addr:housenumber": "85A", "addr:postcode": "10012", "addr:street": "Kenmare Street", "amenity": "restaurant", "check_date": "2025-06-07", "cuisine": "japanese;sushi", "name": "Mikaku", "opening_hours": "Mo-Th 11:30-22:30; Fr-Sa 11:30-23:00; Su 12:00-22:30", "phone": "+1-212-431-4820", "website": "https://www.mikakusushiny.com"}}, {"type": "node", "id": 3214617212, "lat": 40.7216382, "lon": -73.9972123, "tags": {"addr:city": "New York", "addr:housenumber": "19", "addr:postcode": "10012", "addr:state": "NY", "addr:street": "Cleveland Place", "amenity": "restaurant", "cuisine": "israeli;mediterranean", "name": "19 Cleveland", "opening_hours": "Mo-Su 11:00-23:00", "outdoor_seating": "sidewalk;street", "phone": "+1-646-823-9227", "reservation": "yes", "website": "https://19cleveland.com/"}}, {"type": "node", "id": 3215162128, "lat": 40.7217594, "lon": -73.9978239, "tags": {"amenity": "restaurant", "name": "Caf\u00e9 Select", "website": "http://www.cafeselectnyc.com/"}}, {"type": "node", "id": 3215162129, "lat": 40.7219323, "lon": -73.9976726, "tags": {"addr:housenumber": "218", "addr:street": "Lafayette Street", "amenity": "restaurant", "cocktails": "yes", "cuisine": "italian", "drink:beer": "yes", "drink:coffee": "yes", "drink:liquor": "yes", "drink:wine": "yes", "email": "info@osteriamorini.com", "happy_hours": "Mo-Th 15:00-18:00", "internet_access": "no", "lunch": "Mo-Fr 12:00-15:00", "name": "Osteria Morini", "opening_hours": "Mo 12:00-23:00; Tu-Th 12:00-22:30; Fr 12:00-23:30; Sa 11:30-23:30; Su 11:30-22:00", "payment:cash": "yes", "payment:credit_cards": "yes", "payment:debit_cards": "yes", "phone": "+1-212-965-8777", "reservation": "recommended", "takeaway": "yes", "toilets": "yes", "toilets:access": "customers", "toilets:unisex": "yes", "toilets:wheelchair": "yes", "website": "https://osteriamorini.com/soho-nyc/"}}, {"type": "node", "id": 3451050931, "lat": 40.7213363, "lon": -73.9950075, "tags": {"addr:city": "New York", "addr:housenumber": "18", "addr:street": "Spring Street", "amenity": "bar", "check_date": "2024-11-22", "name": "Mother's Ruin"}}, {"type": "node", "id": 3573482099, "lat": 40.7246074, "lon": -73.9987503, "tags": {"alt_name": "Fanelli's", "amenity": "restaurant", "bar": "yes", "check_date": "2024-02-22", "cocktails": "yes", "cuisine": "italian;pub", "drink:beer": "draught", "drink:liquor": "yes", "drink:wine": "yes", "name": "Fanelli Cafe", "phone": "+1-212-226-9412", "toilets": "yes", "toilets:unisex": "no", "toilets:wheelchair": "no", "walkup_window": "yes", "wheelchair": "limited", "wikidata": "Q19868052", "wikipedia": "en:Fanelli Cafe"}}, {"type": "node", "id": 3608032646, "lat": 40.7226578, "lon": -73.9981644, "tags": {"addr:housenumber": "80", "addr:street": "Spring Street", "amenity": "restaurant", "cuisine": "french", "name": "Balthazar", "wikidata": "Q4852657"}}, {"type": "node", "id": 3608616551, "lat": 40.7229657, "lon": -73.99576, "tags": {"addr:housenumber": "244", "addr:street": "Mulberry Street", "amenity": "restaurant", "branch": "Nolita", "cocktails": "yes", "cuisine": "sandwich;salad;brunch", "drink:beer": "yes", "drink:coffee": "yes", "drink:tea": "yes", "drink:wine": "yes", "happy_hours": "Su-Mo 16:00-18:00", "internet_access": "wlan", "internet_access:fee": "no", "name": "The Grey Dog", "opening_hours": "Mo-Su 08:00-21:00", "outdoor_seating": "yes", "payment:cash": "yes", "payment:credit_cards": "yes", "phone": "+1-212-966-1060", "takeaway": "yes", "toilets": "yes", "toilets:access": "permissive", "toilets:unisex": "yes", "toilets:wheelchair": "yes", "website": "https://www.thegreydog.com/location/the-grey-dog-nolita/", "wheelchair": "yes"}}, {"type": "node", "id": 3611236718, "lat": 40.7217467, "lon": -73.9964556, "tags": {"addr:city": "New York", "addr:housenumber": "209", "addr:postcode": "10012", "addr:street": "Mulberry Street", "amenity": "restaurant", "cuisine": "thai", "name": "Wan Wan", "opening_hours": "Mo-We 11:30-15:00,17:00-22:00; Th-Fr 11:30-15:00,17:00-23:00; Sa 12:00-15:00,17:00-23:00; Su 12:00-15:00,17:00-22:00", "phone": "+1-212-888-6278", "website": "https://www.wanwannyc.com/"}}, {"type": "node", "id": 3612291899, "lat": 40.7228449, "lon": -73.9942284, "tags": {"addr:city": "New York", "addr:housenumber": "17", "addr:postcode": "10012", "addr:street": "Prince Street", "amenity": "restaurant", "bar": "yes", "cocktails": "yes", "cuisine": "cuban", "drink:beer": "yes", "drink:coffee": "yes", "drink:espresso": "yes", "drink:liquor": "yes", "name": "Caf\u00e9 Habana", "opening_hours": "Mo-Su 10:00-23:00", "phone": "+1-212-625-2001", "toilets": "yes", "website": "https://www.cafehabana.com/menu/cafe-habana-nyc/"}}, {"type": "node", "id": 3822494060, "lat": 40.7196519, "lon": -73.9950239, "tags": {"addr:housenumber": "349", "addr:postcode": "10013", "addr:street": "Broome Street", "amenity": "bar", "cocktails": "yes", "cuisine": "mexican", "drink:liquor": "yes", "name": "The Garret Cocteler\u00eda", "outdoor_seating": "yes"}}, {"type": "node", "id": 4146329589, "lat": 40.7218093, "lon": -73.9979174, "tags": {"addr:housenumber": "212", "addr:street": "Lafayette Street", "amenity": "bar", "name": "Apr\u00e8s-Ski Fondue Chalet at Caf\u00e9 Select"}}, {"type": "node", "id": 4149654210, "lat": 40.7239825, "lon": -73.9937554, "tags": {"addr:housenumber": "267", "addr:postcode": "10012", "addr:street": "Elizabeth Street", "alt_name": "Fonda Nolita", "amenity": "restaurant", "bar": "yes", "brand": "Tacombi", "brand:wikidata": "Q123165959", "cuisine": "mexican", "name": "Tacombi", "opening_hours": "Mo-Su 11:00-23:00", "phone": "+1-917-727-0179", "website": "https://www.tacombi.com"}}, {"type": "node", "id": 4151643713, "lat": 40.7207158, "lon": -73.9947851, "tags": {"addr:city": "New York", "addr:housenumber": "19", "addr:postcode": "10012", "addr:state": "NY", "addr:street": "Kenmare Street", "amenity": "cafe", "branch": "Nolita", "check_date": "2025-06-07", "diet:gluten_free": "yes", "diet:vegan": "yes", "diet:vegetarian": "only", "email": "bd.nolita@thebutchersdaughter.com", "name": "The Butcher's Daughter", "opening_hours": "08:00-21:00", "phone": "+1 212-219-3434", "website": "https://www.thebutchersdaughter.com/location/the-butchers-daughter-nolita/"}}, {"type": "node", "id": 4221481089, "lat": 40.7199982, "lon": -73.9969021, "tags": {"addr:postcode": "10013", "amenity": "restaurant", "name": "Benito One", "name:en": "Benito One"}}, {"type": "node", "id": 4243416297, "lat": 40.7248056, "lon": -73.998682, "tags": {"addr:housenumber": "99", "addr:postcode": "10012", "addr:street": "Prince Street", "amenity": "restaurant", "cuisine": "italian", "name": "Sartiano\u2019s", "phone": "+1 212-658-1155", "website": "https://sartianos.com"}}, {"type": "node", "id": 4305816205, "lat": 40.7227225, "lon": -73.9961142, "tags": {"air_conditioning": "yes", "amenity": "restaurant", "bar": "yes", "brewery": "yes", "cuisine": "pizza", "name": "Rubirosa"}}, {"type": "node", "id": 4501924442, "lat": 40.7220839, "lon": -73.9944914, "tags": {"barrier": "gate"}}, {"type": "node", "id": 4501924444, "lat": 40.7222723, "lon": -73.9951139, "tags": {"barrier": "gate"}}, {"type": "node", "id": 4506648692, "lat": 40.721733, "lon": -73.9944139, "tags": {"addr:city": "New York", "addr:housenumber": "194", "addr:postcode": "10012", "addr:state": "NY", "addr:street": "Elizabeth Street", "air_conditioning": "yes", "amenity": "restaurant", "bar": "yes", "cuisine": "italian", "delivery": "yes", "diet:vegetarian": "yes", "level": "-1;0", "microbrewery": "no", "name": "Peasant", "opening_hours": "Tu-Th 17:00-21:30; Fr-Sa 17:00-22:30", "outdoor_seating": "yes", "phone": "+1 212 965 9511", "reservation": "yes", "smoking": "no", "takeaway": "yes", "website": "https://www.peasantnyc.com", "wheelchair": "yes"}}, {"type": "node", "id": 4557948221, "lat": 40.7209123, "lon": -73.9961959, "tags": {"addr:city": "New York", "addr:housenumber": "68", "addr:postcode": "10012", "addr:state": "NY", "addr:street": "Kenmare Street", "amenity": "restaurant", "cuisine": "pizza", "name": "Nolita Pizza", "phone": "+16468959131", "website": "https://nolitapizzanyc.com/"}}, {"type": "node", "id": 4589608994, "lat": 40.7214382, "lon": -73.995646, "tags": {"addr:housenumber": "203", "addr:postcode": "10012", "addr:street": "Mott Street", "amenity": "restaurant", "cuisine": "italian", "drink:beer": "yes", "drink:coffee": "yes", "drink:espresso": "yes", "drink:wine": "yes", "name": "Fiat Caf\u00e9", "opening_hours": "Mo-Su 08:00-23:00", "phone": "+1-212-969-1809", "website": "https://fiatcafenyc.com"}}, {"type": "node", "id": 4676469045, "lat": 40.7201773, "lon": -73.9991128, "tags": {"barrier": "gate"}}, {"type": "node", "id": 4676469046, "lat": 40.7206229, "lon": -73.9991667}, {"type": "node", "id": 4714002691, "lat": 40.7204398, "lon": -73.9951556, "tags": {"addr:housenumber": "151", "addr:street": "Elizabeth Street", "amenity": "restaurant", "cuisine": "breakfast;sandwich", "name": "Egg Shop", "opening_hours": "Mo-Fr 08:30-15:00; Sa-Su 08:30-16:00", "phone": "+1-646-666-0810", "website": "https://www.eggshopnyc.com/location/nolita/"}}, {"type": "node", "id": 4714009789, "lat": 40.7202282, "lon": -73.9965346, "tags": {"addr:housenumber": "379", "addr:street": "Broome Street", "amenity": "cafe", "name": "Stone Street", "name:en": "Greecologies", "opening_hours": "Mo-Fr 08:00-18:00; Sa, Su 09:00-18:00", "phone": "+1-917-8470663", "website": "https://stonestreetcoffee.com/pages/coffee-shop"}}, {"type": "node", "id": 4755831441, "lat": 40.7212663, "lon": -74.0005133, "tags": {"addr:city": "New York", "addr:country": "US", "addr:housenumber": "471", "addr:postcode": "10013", "addr:state": "NY", "addr:street": "Broadway", "addr:suburb": "Manhattan", "amenity": "cafe", "brand": "Think Coffee", "brand:wikidata": "Q122209740", "cuisine": "coffee_shop", "name": "Think Coffee", "opening_hours": "Mo-Fr 07:30-19:00; Sa, Su 08:00-19:00", "takeaway": "yes"}}, {"type": "node", "id": 4784576322, "lat": 40.7202995, "lon": -73.9952147, "tags": {"amenity": "cafe", "cuisine": "coffee_shop", "drink:coffee": "yes", "drink:espresso": "yes", "drink:tea": "yes", "name": "Cafe Integral", "opening_hours": "Mo-Su 08:00-16:00", "outdoor_seating": "street"}}, {"type": "node", "id": 4848257929, "lat": 40.7219422, "lon": -73.9936778, "tags": {"amenity": "restaurant", "name": "Rebelle", "name:en": "Rebelle"}}, {"type": "node", "id": 4848257931, "lat": 40.7204602, "lon": -73.9937507, "tags": {"addr:housenumber": "183", "addr:postcode": "10002", "addr:street": "Bowery", "amenity": "bar", "name": "The Ripple Room", "opening_hours": "Mo-We 16:00-02:00, Th-Sa 16:00-03:00, Su 16:00-02:00"}}, {"type": "node", "id": 4849663224, "lat": 40.7234888, "lon": -73.9957917, "tags": {"addr:city": "New York", "addr:housenumber": "47", "addr:postcode": "10012", "addr:street": "Prince Street", "amenity": "restaurant", "cuisine": "japanese", "name": "Momoya", "phone": "+1 646-429-9315", "website": "https://momoyanyc.com"}}, {"type": "node", "id": 4937329121, "lat": 40.7229906, "lon": -73.9945851, "tags": {"addr:city": "New York", "addr:housenumber": "27", "addr:postcode": "10012", "addr:state": "NY", "addr:street": "Prince Street", "amenity": "restaurant", "cuisine": "pizza", "delivery": "yes", "name": "Prince Street Pizza", "opening_hours": "Su-Th 11:30-23:00; Fr-Sa 11:30-04:00", "phone": "+1 212-966-1960", "takeaway": "yes", "website": "https://www.princestreetpizzamenu.com/"}}, {"type": "node", "id": 4947130221, "lat": 40.7219052, "lon": -73.9958088, "tags": {"amenity": "restaurant", "name": "Rice to Riches", "name:en": "Rice to Riches"}}, {"type": "node", "id": 4978024823, "lat": 40.7200616, "lon": -73.9972674, "tags": {"amenity": "restaurant", "check_date": "2023-11-24", "name": "L' Amore", "name:en": "La Mela Italiano"}}, {"type": "node", "id": 5120608722, "lat": 40.7209019, "lon": -73.9946997, "tags": {"addr:housenumber": "170", "addr:postcode": "10012", "addr:street": "Elizabeth Street", "amenity": "cafe", "branch": "Nolita", "cuisine": "bagel", "name": "Black Seed Bagels", "opening_hours": "Mo-Su 07:00-17:00", "phone": "+1 212-730-1950", "website": "https://www.blackseedbagels.com"}}, {"type": "node", "id": 5152316163, "lat": 40.7230602, "lon": -73.9973087, "tags": {"amenity": "restaurant"}}, {"type": "node", "id": 5159433790, "lat": 40.7218537, "lon": -73.9962127}, {"type": "node", "id": 5159433791, "lat": 40.7217375, "lon": -73.9959316, "tags": {"barrier": "gate"}}, {"type": "node", "id": 5193508103, "lat": 40.7246694, "lon": -73.9983531, "tags": {"addr:city": "New York", "addr:housenumber": "142", "addr:state": "NY", "addr:street": "Mercer Street", "amenity": "restaurant", "cuisine": "seafood", "name": "Lure Fishbar", "outdoor_seating": "yes", "phone": "+1-212-431-7676", "website": "https://www.lurefishbar.com"}}, {"type": "node", "id": 5222613656, "lat": 40.7207973, "lon": -73.9972546, "tags": {"addr:city": "New York", "addr:housenumber": "398", "addr:postcode": "10013", "addr:state": "NY", "addr:street": "Broome Street", "amenity": "cafe", "drink:coffee": "yes", "drink:espresso": "yes", "name": "The Lost Draft", "opening_hours": "Mo-Su 07:00-21:00", "outdoor_seating": "sidewalk", "phone": "+1-646-524-6021", "website": "https://www.thelostdraft.com", "wheelchair": "yes"}}, {"type": "node", "id": 5243561820, "lat": 40.719947, "lon": -73.9985925, "tags": {"addr:housenumber": "158", "addr:street": "Grand Street", "amenity": "restaurant", "cuisine": "diner;breakfast;american;greek;burger", "name": "Landmark Coffee Shop & Pancake House", "phone": "+1 212-334-0040"}}, {"type": "node", "id": 5265714493, "lat": 40.720329, "lon": -73.9967563, "tags": {"addr:housenumber": "385", "addr:street": "Broome Street", "amenity": "cafe", "name": "Cafe Roma"}}, {"type": "node", "id": 5273490726, "lat": 40.7221177, "lon": -73.9975189, "tags": {"addr:housenumber": "224", "addr:street": "Lafayette Street", "amenity": "restaurant", "branch": "SoHo", "cocktails": "yes", "cuisine": "mediterranean", "diet:vegetarian": "yes", "drink:beer": "yes", "drink:coffee": "yes", "drink:tea": "yes", "email": "info@jackswifefreda.com", "name": "Lucky's", "not:brand:wikidata": "Q6110826", "opening_hours": "We-Sa 08:30-00:00; Su 08:30-22:00; Mo, Tu 08:30-23:00", "organic": "yes", "outdoor_seating": "yes", "phone": "+1-212-510-8550", "reservation": "recommended", "takeaway": "yes", "website": "https://jackswifefreda.com/", "wheelchair": "no"}}, {"type": "node", "id": 5618806821, "lat": 40.7243026, "lon": -73.9973808, "tags": {"addr:city": "New York", "addr:housenumber": "568", "addr:postcode": "10012", "addr:state": "NY", "addr:street": "Broadway", "check_date": "2025-05-03", "name": "Zocdoc", "office": "company", "website": "https://www.zocdoc.com"}}, {"type": "node", "id": 5847402986, "lat": 40.7213037, "lon": -73.9954744, "tags": {"addr:housenumber": "202", "addr:street": "Mott Street", "amenity": "bar", "name": "Balzem"}}, {"type": "node", "id": 5934969278, "lat": 40.7201601, "lon": -73.9995971, "tags": {"amenity": "restaurant", "cuisine": "thai", "drink:beer": "yes", "drink:liquor": "yes", "drink:wine": "yes", "indoor_seating": "yes", "name": "Soho Thai", "outdoor_seating": "yes", "phone": "+1-212-966-8916"}}, {"type": "node", "id": 6006276987, "lat": 40.7202527, "lon": -73.9983375, "tags": {"addr:housenumber": "239", "addr:street": "Centre Street", "amenity": "cafe", "branch": "Soho", "cuisine": "pastry", "delivery": "yes", "level": "0", "name": "Maman", "opening_hours": "Mo-Fr 07:30-18:00; Sa-Su 08:00-18:00", "outdoor_seating": "yes", "phone": "+1 212-226-0700", "takeaway": "yes", "website": "https://www.mamannyc.com/maman-soho/"}}, {"type": "node", "id": 6206834487, "lat": 40.7196752, "lon": -73.9970458, "tags": {"addr:housenumber": "164", "addr:postcode": "10013", "addr:street": "Mulberry Street", "amenity": "restaurant", "cuisine": "italian", "name": "Da Nico", "opening_hours": "Mo-Th 12:00-22:00, Fr-Sa 12:00-23:00, Su 12:00-22:00", "outdoor_seating": "sidewalk", "phone": "+1-212-343-1212", "website": "https://danicoristorante.com/"}}, {"type": "node", "id": 6371442486, "lat": 40.7246217, "lon": -73.9947736, "tags": {"amenity": "restaurant", "cuisine": "american", "drink:liquor": "yes", "drink:wine": "yes", "level": "1", "name": "Estela", "opening_hours": "Mo-Th 17:00-20:30; Fr-Su 11:30-14:30,17:00-20:30", "website": "https://estelanyc.com"}}, {"type": "node", "id": 6419733289, "lat": 40.7231443, "lon": -73.9947458, "tags": {"addr:housenumber": "242", "addr:postcode": "10012", "addr:street": "Mott Street", "amenity": "cafe", "branch": "New York City", "check_date": "2025-04-29", "contact:instagram": "cafegitaneny", "cuisine": "moroccan", "name": "Caf\u00e9 Gitane", "opening_hours": "Mo-Fr 12:00-20:00; Sa 10:00-22:00; Su 10:00-20:00", "phone": "+1 212-334-9552", "website": "https://www.cafegitanenyc.com/"}}, {"type": "node", "id": 6458055785, "lat": 40.7210061, "lon": -73.9947024, "tags": {"amenity": "restaurant", "name": "Pietro Nolita"}}, {"type": "node", "id": 6568736486, "lat": 40.7230403, "lon": -73.9957307, "tags": {"amenity": "restaurant", "branch": "Mulberry Street", "cocktails": "yes", "cuisine": "italian", "drink:beer": "yes", "drink:liquor": "yes", "drink:wine": "yes", "happy_hours": "Mo-Fr 15:00-19:00", "name": "Parm", "opening_hours": "Mo-Su 11:00-22:00", "outdoor_seating": "street", "website": "https://www.parmitalian.com/locations/mulberry-street/"}}, {"type": "node", "id": 6568743285, "lat": 40.7219556, "lon": -73.996497, "tags": {"amenity": "restaurant", "brand": "CAVA", "brand:wikidata": "Q85751038", "cuisine": "mediterranean", "name": "CAVA", "opening_hours": "Tu-Sa 10:45-22:00", "phone": "+1-718-502-9262", "takeaway": "yes", "website": "https://cava.com/locations/nolita-ny"}}, {"type": "node", "id": 6568795185, "lat": 40.7219227, "lon": -73.9964156, "tags": {"addr:city": "New York", "addr:housenumber": "48", "addr:postcode": "10012", "addr:state": "NY", "addr:street": "Spring Street", "air_conditioning": "yes", "alt_name": "Shark Bar", "amenity": "bar", "cocktails": "yes", "drink:beer": "draught", "drink:liquor": "yes", "drink:wine": "yes", "level": "0", "name": "Spring Lounge", "opening_hours": "Mo-Sa 08:00-04:00, Su 10:00-04:00", "outdoor_seating": "yes", "payment:cash": "yes", "payment:credit_cards": "yes", "phone": "+1-212-965-1774", "smoking": "no", "website": "https://thespringlounge.com"}}, {"type": "node", "id": 6980177370, "lat": 40.7204043, "lon": -73.9969996, "tags": {"addr:housenumber": "177", "addr:postcode": "10013", "addr:street": "Mulberry Street", "alt_name": "Blue Grotta", "amenity": "restaurant", "cuisine": "italian", "delivery": "yes", "drink:beer": "draught", "drink:liquor": "yes", "drink:wine": "yes", "email": "contact@bluegrotta.com", "facebook": "https://www.facebook.com/GrottaAzzurra", "instagram": "https://www.instagram.com/grottaazzurrany/", "name": "Grotta Azzurra", "opening_hours": "Mo-Th, Su 08:30-23:00; Fr, Sa 08:30-23:30", "phone": "+1-212-925-8775", "reservation": "yes", "twitter": "https://twitter.com/grottaazzurrany", "website": "http://www.bluegrotta.com", "wikidata": "Q18151145", "wikipedia": "en:Grotta Azzurra (restaurant)"}}, {"type": "node", "id": 7047104991, "lat": 40.7210501, "lon": -73.997846, "tags": {"addr:housenumber": "408", "addr:postcode": "10013", "addr:street": "Broome Street", "amenity": "cafe", "cuisine": "spanish;tapas", "name": "Despa\u00f1a", "opening_hours": "Tu-Su 11:00-18:00", "phone": "+1-212-219-5050", "shop": "deli", "website": "https://despananyc.com/pages/despana-soho"}}, {"type": "node", "id": 7075366387, "lat": 40.7204999, "lon": -73.9980785, "tags": {"addr:housenumber": "249", "addr:street": "Centre Street", "amenity": "bar", "cuisine": "charcuterie;snack;international", "drink:beer": "yes", "drink:sake": "yes", "drink:wine": "yes", "happy_hours": "Mo-Fr 17:00-18:00; Sa-Su 15:00-16:00", "name": "Compagnie des Vins Surnaturels", "opening_hours": "Mo-We 17:00-01:00; Th-Fr 17:00-02:00; Sa 15:00-02:00; Su 15:00-01:00", "opening_hours:kitchen": "Mo-We 17:00-00:30; Th-Fr 17:00-01:40; Sa 15:00-01:40; Su 15:00-23:40", "phone": "+1-212-343-3660", "website": "https://www.compagnienyc.com/"}}, {"type": "node", "id": 7075387185, "lat": 40.7213704, "lon": -73.9950789, "tags": {"addr:housenumber": "20", "addr:street": "Spring Street", "amenity": "restaurant", "check_date": "2024-11-22", "name": "Wayan", "website": "https://www.wayan-nyc.com/"}}, {"type": "node", "id": 7077542685, "lat": 40.7196632, "lon": -73.9978597, "tags": {"addr:housenumber": "174", "addr:street": "Grand Street", "amenity": "restaurant", "branch": "Soho", "cocktails": "yes", "cuisine": "american", "drink:wine": "served", "name": "Onieal\u2019s", "opening_hours": "Mo-Th 12:00-02:00; Fr, Sa 11:00-04:00; Su 11:00-02:00", "opening_hours:kitchen": "Mo-Sa 11:30-00:00; Su 11:30-23:00", "phone": "+1 212-941-9119", "reservation": "yes", "start_date": "1995", "website": "https://onieals.com/soho"}}, {"type": "node", "id": 7077578988, "lat": 40.7241895, "lon": -73.9945177, "tags": {"amenity": "restaurant", "name": "Cafeta Social Club Italian Restaurant"}}, {"type": "node", "id": 7150082985, "lat": 40.7238897, "lon": -73.9967151, "tags": {"amenity": "cafe", "name": "T2 tea"}}, {"type": "node", "id": 7162418888, "lat": 40.7205314, "lon": -74.0003765, "tags": {"amenity": "restaurant", "diet:vegan": "yes", "name": "Le Botaniste", "wheelchair": "yes"}}, {"type": "node", "id": 7906873339, "lat": 40.7244928, "lon": -73.9950083, "tags": {"amenity": "restaurant", "bar": "yes", "cuisine": "spanish", "name": "Socarrat Paella Bar"}}, {"type": "node", "id": 8000650772, "lat": 40.724629, "lon": -73.9946134, "tags": {"addr:housenumber": "51", "addr:street": "East Houston Street", "amenity": "bar", "dog": "no", "happy_hours": "17:00-20:00", "name": "Milano's Bar", "toilets": "customers"}}, {"type": "node", "id": 8486713328, "lat": 40.7217995, "lon": -73.9943861, "tags": {"amenity": "restaurant", "bar": "yes", "cocktails": "yes", "cuisine": "japanese;breakfast;eclectic", "drink:beer": "draught", "drink:liquor": "yes", "drink:sake": "yes", "drink:wine": "yes", "name": "Lovely Day", "phone": "+1-212-925-3310", "website": "https://www.lovelydaynyc.com"}}, {"type": "node", "id": 8622510722, "lat": 40.7199835, "lon": -73.9985488, "tags": {"addr:housenumber": "227", "addr:street": "Centre Street", "amenity": "restaurant", "cuisine": "thai", "indoor_seating": "yes", "name": "Lan Larb Chiang Mai", "outdoor_seating": "yes", "phone": "+1 646-895-9264"}}, {"type": "node", "id": 8622598771, "lat": 40.7197342, "lon": -73.9991471, "tags": {"addr:city": "New York", "addr:housenumber": "157", "addr:postcode": "10013", "addr:state": "NY", "addr:street": "Lafayette", "amenity": "cafe", "branch": "157 Lafayette", "brand": "Starbucks", "brand:wikidata": "Q37158", "cuisine": "coffee_shop", "drink:coffee": "yes", "name": "Starbucks", "official_name": "Starbucks Coffee", "opening_hours": "Mo-Su 07:00-18:00", "phone": "+1 646-838-4269", "takeaway": "yes", "website": "https://www.starbucks.com/store-locator/store/1021634/157-lafayette-157-lafayette-street-new-york-ny-10013-us"}}, {"type": "node", "id": 9063322817, "lat": 40.722565, "lon": -73.996178, "tags": {"amenity": "restaurant", "name": "5ive Spice"}}, {"type": "node", "id": 9332464948, "lat": 40.723302, "lon": -73.9965416, "tags": {"addr:housenumber": "265", "addr:postcode": "10012", "addr:street": "Lafayette Street", "amenity": "restaurant", "cuisine": "italian", "name": "Sant Ambroeus", "outdoor_seating": "sidewalk;street", "phone": "+1-212-966-2770", "website": "https://www.santambroeus.com"}}, {"type": "node", "id": 9736034061, "lat": 40.7212474, "lon": -73.9942934, "tags": {"amenity": "bar", "name": "Sweet & Vicious"}}, {"type": "node", "id": 9910666323, "lat": 40.7202958, "lon": -73.9993563, "tags": {"barrier": "gate"}}, {"type": "node", "id": 9910666325, "lat": 40.7203136, "lon": -73.9989973, "tags": {"barrier": "gate"}}, {"type": "node", "id": 9910684158, "lat": 40.7202413, "lon": -73.9992442, "tags": {"barrier": "gate"}}, {"type": "node", "id": 9910684789, "lat": 40.7202052, "lon": -73.9991701}, {"type": "node", "id": 9910692579, "lat": 40.7202819, "lon": -73.9993277}, {"type": "node", "id": 9910692580, "lat": 40.7202548, "lon": -73.999272}, {"type": "node", "id": 9910692581, "lat": 40.7202445, "lon": -73.9992508}, {"type": "node", "id": 9910692582, "lat": 40.7202267, "lon": -73.9992144}, {"type": "node", "id": 9910692583, "lat": 40.7201921, "lon": -73.9991431}, {"type": "node", "id": 9910692584, "lat": 40.7201966, "lon": -73.9990965}, {"type": "node", "id": 9910692585, "lat": 40.7202964, "lon": -73.999012}, {"type": "node", "id": 9910692586, "lat": 40.7203315, "lon": -73.9989821}, {"type": "node", "id": 9910692619, "lat": 40.7203133, "lon": -73.9993923}, {"type": "node", "id": 10064144417, "lat": 40.7225249, "lon": -73.9974462, "tags": {"addr:city": "New York", "addr:housenumber": "67", "addr:postcode": "10012", "addr:state": "NY", "addr:street": "Spring Street", "amenity": "cafe", "brand": "Joe & The Juice", "brand:wikidata": "Q26221514", "cuisine": "coffee_shop", "name": "Joe & The Juice", "opening_hours": "Mo-Su 07:00-21:00", "takeaway": "yes", "website": "https://orders.joejuice.com/store/eb4e5146-3683-4480-b8ca-4aff4b48cf84"}}, {"type": "node", "id": 10067923318, "lat": 40.7205723, "lon": -73.9966868, "tags": {"amenity": "restaurant", "name": "Marcellino"}}, {"type": "node", "id": 10089881641, "lat": 40.7211455, "lon": -73.996916, "tags": {"amenity": "bar", "name": "Bar Pasquale", "website": "https://www.barpasquale.com"}}, {"type": "node", "id": 10261382324, "lat": 40.7208393, "lon": -73.9950056, "tags": {"addr:housenumber": "163", "addr:postcode": "10012", "addr:street": "Elizabeth Street", "amenity": "restaurant", "bar": "yes", "cocktails": "yes", "cuisine": "turkish", "drink:beer": "draught", "drink:liquor": "yes", "drink:wine": "yes", "name": "Little Rascal", "outdoor_seating": "street", "phone": "+1-212-966-0446", "website": "https://www.littlerascalrestaurant.com/nolita"}}, {"type": "node", "id": 10691764421, "lat": 40.720678, "lon": -73.9968746, "tags": {"addr:housenumber": "390", "addr:postcode": "10013", "addr:street": "Broome Street", "amenity": "restaurant", "bar": "yes", "cocktails": "yes", "cuisine": "eclectic", "name": "The Wooly", "outdoor_seating": "sidewalk", "phone": "+1-212-571-2930", "website": "https://www.thewooly.com"}}, {"type": "node", "id": 10827603587, "lat": 40.7249264, "lon": -73.9963375, "tags": {"addr:housenumber": "136", "addr:postcode": "10012", "addr:street": "Crosby Street", "level": "7", "name": "Konrad", "office": "company", "website": "https://www.konrad.com"}}, {"type": "node", "id": 10979262390, "lat": 40.7197286, "lon": -73.9960952, "tags": {"amenity": "cafe", "check_date": "2023-07-16", "cuisine": "breakfast;coffee_shop", "drink:coffee": "yes", "drink:espresso": "yes", "drink:tea": "yes", "name": "Two Hands", "opening_hours": "We-Fr 08:00-15:00; Sa-Su 08:00-17:00", "outdoor_seating": "sidewalk;street"}}, {"type": "node", "id": 10992263589, "lat": 40.7214319, "lon": -73.9981576, "tags": {"addr:city": "New York", "addr:housenumber": "200", "addr:postcode": "10012", "addr:street": "Lafayette Street", "amenity": "restaurant", "cuisine": "italian", "delivery": "yes", "name": "Eataly - SoHo", "opening_hours": "11:00-22:00", "phone": "+1-332-238-3106", "website": "https://www.eataly.com/us_en/stores/nyc-soho"}}, {"type": "node", "id": 11374517232, "lat": 40.7197362, "lon": -73.9972911, "tags": {"amenity": "restaurant", "check_date": "2023-11-24", "cuisine": "italian", "name": "La Bella Vita"}}, {"type": "node", "id": 11374517233, "lat": 40.7207982, "lon": -73.9965628, "tags": {"addr:housenumber": "180", "addr:postcode": "10012", "addr:street": "Mulberry Street", "amenity": "cafe", "check_date": "2023-12-05", "contact:instagram": "https://www.instagram.com/empanadassoho", "cuisine": "empanada;argentinian", "delivery": "yes", "drive_through": "no", "email": "empanadassoho@gmail.com", "name": "Empanadas Soho", "payment:cash": "yes", "payment:credit_cards": "yes", "phone": "+1 914-602-0527", "smoking": "no", "takeaway": "yes", "website": "https://www.empanadascafesoho.com/"}}, {"type": "node", "id": 11441007599, "lat": 40.7248407, "lon": -73.9970753, "tags": {"addr:housenumber": "588", "addr:postcode": "10012", "addr:street": "Broadway", "amenity": "cafe", "cuisine": "coffee_shop;pastry;italian", "drink:coffee": "yes", "drink:espresso": "yes", "drink:tea": "yes", "name": "Mangia", "opening_hours": "Mo-Fr 08:00-18:00; Sa 10:00-18:00", "outdoor_seating": "sidewalk", "phone": "+1-212-644-0422"}}, {"type": "node", "id": 11447971796, "lat": 40.7198136, "lon": -73.9990736, "tags": {"addr:housenumber": "161", "addr:postcode": "10013", "addr:street": "Lafayette Street", "amenity": "bar", "disused:website": "http://www.161lafayette.com", "karaoke": "yes", "name": "161 Lafayette", "opening_hours": "Mo 17:00-24:00, Tu-We 17:00-02:00, Th 17:00-02:00, Fr-Sa 14:00-04:00, Su 14:00-24:00", "website": "https://www.161lafayettebar.com"}}, {"type": "node", "id": 11610991069, "lat": 40.7242387, "lon": -73.9961964, "tags": {"addr:city": "New York", "addr:housenumber": "284", "addr:postcode": "10012", "addr:state": "NY", "addr:street": "Lafayette Street", "amenity": "cafe", "branch": "SoHo", "name": "La Cabra", "opening_hours": "Mo-Fr 07:00-18:00; Sa-Su 08:00-18:00", "website": "https://www.lacabra.dk/pages/soho"}}, {"type": "node", "id": 11654745957, "lat": 40.7245453, "lon": -73.9943619, "tags": {"addr:housenumber": "55", "amenity": "cafe", "name": "Pop\u2019s Bagels", "opening_hours": "Mo-Su 06:00-16:00", "phone": "+1 646-370-1520", "takeaway": "only"}}, {"type": "node", "id": 11674345070, "lat": 40.7202273, "lon": -73.998709, "tags": {"addr:housenumber": "177", "addr:postcode": "10013", "addr:street": "Lafayette Street", "amenity": "restaurant", "cocktails": "yes", "cuisine": "sushi", "drink:sake": "yes", "drink:wine": "yes", "name": "SushiDelic", "theme": "kawaii", "website": "https://www.sushidelic.net"}}, {"type": "node", "id": 11674345072, "lat": 40.7201134, "lon": -73.9988044, "tags": {"addr:city": "New York", "addr:housenumber": "177", "addr:postcode": "10013", "addr:state": "NY", "addr:street": "Lafayette Street", "amenity": "cafe", "cuisine": "breakfast;sandwich", "drink:coffee": "yes", "drink:espresso": "yes", "drink:tea": "yes", "name": "Butler", "opening_hours": "Mo-Fr 07:00-17:30; Sa-Su 08:00-17:30", "phone": "+1-646-912-9264", "website": "https://www.butler-nyc.com"}}, {"type": "node", "id": 11679760934, "lat": 40.7227424, "lon": -73.9971339, "tags": {"addr:housenumber": "240", "addr:street": "Lafayette Street", "amenity": "restaurant", "check_date": "2024-02-29", "cuisine": "burger", "diet:vegan": "yes", "level": "0", "name": "Beatnic", "opening_hours": "Mo-Fr 11:00-21:00; Sa-Su 12:00-21:00", "wheelchair": "yes"}}, {"type": "node", "id": 11943260737, "lat": 40.724217, "lon": -73.9954001, "tags": {"addr:housenumber": "275", "addr:postcode": "10012", "addr:street": "Mulberry Street", "amenity": "restaurant", "cocktails": "yes", "cuisine": "italian", "drink:beer": "yes", "drink:liquor": "yes", "drink:wine": "yes", "name": "Torrisi", "opening_hours": "Mo 17:00-23:30; Tu-Sa 11:30-14:00,17:00-23:30", "website": "https://www.torrisinyc.com", "wheelchair": "yes"}}, {"type": "node", "id": 11943260739, "lat": 40.7246846, "lon": -73.994744, "tags": {"amenity": "bar", "drink:beer": "draught", "drink:liquor": "yes", "drink:wine": "yes", "happy_hours": "Mo-Fr 17:00-19:00, Sa 16:00-19:00, Su 17:00-19:00", "name": "Botantica Bar", "opening_hours": "Mo-We 17:00-01:00, Th-Fr 17:00-02:00, Sa 16:00-02:00, Su 17:00-01:00", "outdoor_seating": "street", "phone": "+1-212-343-7251", "website": "https://botanicabarnyc.com"}}, {"type": "node", "id": 11961064414, "lat": 40.7205273, "lon": -73.9965666, "tags": {"addr:housenumber": "384", "addr:street": "Broome Street", "amenity": "cafe", "name": "Coffee For Sasquatch", "opening_hours": "Mo-Su 08:00-17:00", "phone": "+1-646-861-3829", "website": "https://www.coffeeforsasquatch.com/"}}, {"type": "node", "id": 12288150210, "lat": 40.721856, "lon": -73.9974488}, {"type": "node", "id": 12288150211, "lat": 40.7216203, "lon": -73.9975449}, {"type": "node", "id": 12288150212, "lat": 40.7217387, "lon": -73.9975441}, {"type": "node", "id": 12365507726, "lat": 40.7211169, "lon": -73.9944719, "tags": {"addr:housenumber": "8", "addr:street": "Spring Street", "amenity": "cafe", "check_date": "2024-11-22", "cuisine": "coffee_shop", "name": "Yours Truly Coffee"}}, {"type": "node", "id": 12365512172, "lat": 40.7211586, "lon": -73.9946239, "tags": {"addr:city": "New York", "addr:housenumber": "12", "addr:street": "Spring Street", "amenity": "bar", "check_date": "2024-11-22", "name": "Vig Bar"}}, {"type": "node", "id": 12365528289, "lat": 40.7214053, "lon": -73.9951726, "tags": {"addr:housenumber": "22", "addr:street": "Spring Street", "amenity": "restaurant", "check_date": "2024-11-22", "cuisine": "asian", "name": "Mad\u00e9"}}, {"type": "node", "id": 12365547753, "lat": 40.7218228, "lon": -73.9957101, "tags": {"addr:city": "New York", "addr:housenumber": "35", "addr:street": "Spring Street", "amenity": "cafe", "brand": "Boba Guys", "brand:wikidata": "Q125537779", "check_date": "2024-11-22", "cuisine": "bubble_tea", "name": "Boba Guys", "takeaway": "yes"}}, {"type": "node", "id": 12365555328, "lat": 40.7220431, "lon": -73.9967564, "tags": {"addr:city": "New York", "addr:housenumber": "56", "addr:street": "Spring Street", "amenity": "cafe", "check_date": "2024-11-22", "cuisine": "coffee_shop;breakfast;sandwich;juice", "name": "Spring Lemon Tree"}}, {"type": "node", "id": 12365588901, "lat": 40.7221898, "lon": -73.9965894, "tags": {"addr:housenumber": "53", "addr:street": "Spring Street", "amenity": "bar", "check_date": "2024-11-22", "name": "Beyond The Pale"}}, {"type": "node", "id": 12365598708, "lat": 40.7224732, "lon": -73.9972411, "tags": {"addr:housenumber": "63", "addr:street": "Spring Street", "amenity": "cafe", "check_date": "2024-11-22", "cuisine": "coffee_shop", "name": "The Green Room by Blank Street Coffee"}}, {"type": "node", "id": 12486715026, "lat": 40.7212469, "lon": -73.9964063, "tags": {"addr:housenumber": "75", "addr:postcode": "10012", "addr:street": "Kenmare Street", "amenity": "restaurant", "cuisine": "sushi", "name": "Bondi Sushi", "opening_hours": "Mo-Su 11:00-22:00", "website": "https://bondisushi.com"}}, {"type": "node", "id": 12486715049, "lat": 40.7216263, "lon": -73.9959276}, {"type": "node", "id": 12486715050, "lat": 40.7214391, "lon": -73.9960012}, {"type": "node", "id": 12486733601, "lat": 40.721553, "lon": -73.9962952}, {"type": "node", "id": 12488365381, "lat": 40.7239709, "lon": -73.9946087, "tags": {"alt_name": "Axel Springer Haus", "name": "Axel Springer", "office": "company", "official_name": "Axel Springer SE"}}, {"type": "node", "id": 12496714267, "lat": 40.7223209, "lon": -73.9950357}, {"type": "node", "id": 12496714268, "lat": 40.7223065, "lon": -73.9949684}, {"type": "node", "id": 12496714269, "lat": 40.7222958, "lon": -73.9949189}, {"type": "node", "id": 12496714273, "lat": 40.722401, "lon": -73.9947065}, {"type": "node", "id": 12496752009, "lat": 40.7223663, "lon": -73.9950617, "tags": {"amenity": "cafe", "drink:coffee": "yes", "drink:espresso": "yes", "name": "The Elk", "opening_hours": "Mo-Su 08:00-18:00", "phone": "+1-929-618-2557", "website": "https://www.theelknyc.com"}}, {"type": "node", "id": 12496752010, "lat": 40.7226448, "lon": -73.9949556, "tags": {"addr:housenumber": "238", "addr:postcode": "10012", "addr:street": "Mott Street", "amenity": "restaurant", "cuisine": "mediterranean", "drink:wine": "yes", "name": "Boni & Mott", "website": "https://boniandmott.com"}}, {"type": "node", "id": 12762556567, "lat": 40.71976, "lon": -73.9999039, "tags": {"addr:city": "New York", "addr:housenumber": "9", "addr:postcode": "10013", "addr:state": "NY", "addr:street": "Crosby Street", "air_conditioning": "yes", "amenity": "restaurant", "bar": "yes", "cuisine": "american", "email": "nomofb@nomosoho.com", "name": "NoMo Kitchen", "opening_hours": "Mo-Th 06:30-22:00, Fr 06:30-23:00, Sa 09:00-23:00, Su 09:00-16:00", "outdoor_seating": "yes", "payment:american_express": "yes", "payment:credit_cards": "yes", "payment:debit_cards": "yes", "payment:mastercard": "yes", "payment:visa": "yes", "phone": "+1 646 218 6449", "reservation": "yes", "smoking": "no", "takeaway": "yes", "website": "https://www.nomosoho.com/nomo-soho-kitchen", "website:menu": "https://www.nomosoho.com/menu", "wheelchair": "yes"}}, {"type": "node", "id": 12815668433, "lat": 40.720665, "lon": -73.9959711, "tags": {"addr:city": "New York", "addr:housenumber": "181", "addr:postcode": "10012", "addr:state": "NY", "addr:street": "Mott Street", "amenity": "cafe", "internet_access": "no", "name": "Gem", "opening_hours": "We-Sa 09:00-21:00; Su 09:00-18:00", "website": "https://www.gemhomenyc.com/"}}, {"type": "node", "id": 12815687871, "lat": 40.7209887, "lon": -73.9955775, "tags": {"addr:city": "New York", "addr:housenumber": "192", "addr:postcode": "10012", "addr:state": "NY", "addr:street": "Mott Street", "amenity": "restaurant", "branch": "Nolita", "cuisine": "asian", "name": "noodlelove", "opening_hours": "Mo-Su 11:30-21:00", "phone": "+1-646-870-0571", "website": "https://www.noodlelove.com"}}, {"type": "node", "id": 13307159546, "lat": 40.7223894, "lon": -73.9946525}, {"type": "node", "id": 13307159552, "lat": 40.7221119, "lon": -73.9944803}, {"type": "node", "id": 13307159554, "lat": 40.7222969, "lon": -73.9949239}, {"type": "node", "id": 13307159557, "lat": 40.7220729, "lon": -73.9944957}, {"type": "node", "id": 13307159558, "lat": 40.7220906, "lon": -73.9950258}, {"type": "node", "id": 13307159559, "lat": 40.7222641, "lon": -73.9951172}, {"type": "node", "id": 13307159563, "lat": 40.7222183, "lon": -73.9951358}, {"type": "node", "id": 13322193023, "lat": 40.723877, "lon": -73.9946519, "tags": {"amenity": "restaurant", "cuisine": "sushi;thai", "delivery": "yes", "drink:beer": "yes", "name": "Sakura", "opening_hours": "Mo-Sa 10:45-22:30, Su 15:00-22:00", "outdoor_seating": "sidewalk", "phone": "+1-212-941-9888", "takeaway": "yes", "website": "https://www.sakurasushithai.com/"}}, {"type": "way", "id": 36865288, "nodes": [5159433790, 2547243630, 12486733601, 2547243617, 2547243601, 2547243582, 12486715050, 12486715049, 2547243690, 5159433791, 5159433790], "tags": {"leisure": "park", "name": "Desalvio Playground", "operator": "New York City Department of Parks and Recreation", "ref:nycparks": "M218", "website": "https://www.nycgovparks.org/parks/desalvio-playground", "wikidata": "Q5244081", "wikipedia": "en:DeSalvio Playground"}}, {"type": "way", "id": 44225581, "nodes": [561949916, 2146135063, 2154628325, 2154628324, 2146135062, 561949919, 2154628288, 12288150211, 2154628290, 561949922, 2154628305, 12288150212, 2154628308, 2154628313, 2154628317, 12288150210, 561949916], "tags": {"addr:city": "New York", "addr:state": "NY", "ele": "10", "gnis:feature_id": "2095891", "leisure": "park", "name": "Petrosino Square", "old_name": "Kenmare Square", "opening_hours": "Mo-Su 06:00-01:00", "operator": "New York City Department of Parks and Recreation", "operator:short": "NYC Parks", "operator:type": "government", "operator:wikidata": "Q1894232", "source": "Yahoo", "website": "https://www.nycgovparks.org/parks/petrosino-square/", "wikidata": "Q16983511"}}, {"type": "way", "id": 453461400, "nodes": [2547244077, 4501924444, 13307159559, 13307159563, 2547243889, 2547243887, 2547243880, 13307159558, 2547243866, 2547243829, 2547243815, 13307159557, 4501924442, 13307159552, 2547244084, 2547244138, 2547244131, 13307159546, 12496714273, 2547243673, 2547244038, 12496714269, 13307159554, 2547244055, 12496714268, 12496714267, 2547244073, 2547244077], "tags": {"leisure": "park", "name": "Elizabeth Street Garden", "website": "https://elizabethstreetgarden.org/", "wikidata": "Q28401894", "wikipedia": "en:Elizabeth Street Garden"}}, {"type": "way", "id": 473565702, "nodes": [2547466432, 9910692619, 9910666323, 9910692579, 9910692580, 9910692581, 9910684158, 9910692582, 9910684789, 9910692583, 4676469045, 9910692584, 9910692585, 9910666325, 9910692586, 2547466453, 2547466479, 4676469046, 2547466482, 2547466432], "tags": {"addr:city": "New York", "addr:postcode": "10013", "addr:state": "NY", "leisure": "park", "name": "Rapkin-Gayle Plaza", "opening_hours": "Mo-Su 06:00-22:00", "operator": "New York City Department of Parks and Recreation", "operator:short": "NYC Parks", "operator:type": "government", "operator:wikidata": "Q1894232", "website": "https://www.nycgovparks.org/parks/M413"}}]}