{"version": 0.6, "generator": "Overpass API 0.7.62.8 e802775f", "osm3s": {"timestamp_osm_base": "2025-12-01T16:46:19Z", "copyright": "The data included in this document is from www.openstreetmap.org. The data is made available under ODbL."}, "elements": [{"type": "node", "id": 357563214, "lat": 40.6838398, "lon": -73.9805745, "tags": {"alt_name": "The Math and Science Exploratory School", "amenity": "school", "fax": "+1-718-330-0944", "name": "MS 447", "phone": "+1-718-330-9328", "website": "https://ms447.org/"}}, {"type": "node", "id": 419362624, "lat": 40.6856537, "lon": -73.9819873, "tags": {"name": "Shapeless Studio", "office": "architect", "phone": "+1-347-799-1199", "website": "https://www.shapelessstudio.com"}}, {"type": "node", "id": 1379559786, "lat": 40.6825167, "lon": -73.9793167, "tags": {"addr:housenumber": "57", "addr:street": "4th Avenue", "amenity": "cafe", "cuisine": "breakfast;sandwich;burger", "delivery": "yes", "drink:coffee": "yes", "drink:espresso": "yes", "drink:juice": "yes", "drink:smoothie": "yes", "drink:tea": "yes", "fax": "+1 718 789 2006", "name": "Canteen Delicatessen & Cafe", "opening_hours": "Mo-Su 06:00-22:30", "phone": "+1 718 789 2133", "takeaway": "yes", "website": "https://www.canteendelicatessencafe.com/"}}, {"type": "node", "id": 2491417520, "lat": 40.6822839, "lon": -73.980015, "tags": {"amenity": "pub", "cuisine": "popcorn", "drink:beer": "draught", "drink:liquor": "yes", "drink:wine": "yes", "name": "4th Ave Pub", "outdoor_seating": "garden", "phone": "+1 718 643 2273"}}, {"type": "node", "id": 2491417530, "lat": 40.6832996, "lon": -73.9793255, "tags": {"addr:city": "Brooklyn", "addr:housenumber": "50", "addr:postcode": "11217", "addr:street": "4th Avenue", "amenity": "restaurant", "cuisine": "chinese", "name": "No Pork Halal Kitchen", "opening_hours": "Mo-Th 11:00-23:00; Fr 11:00-23:30; Sa 11:30-23:30; Su 12:00-23:00", "phone": "+1-718-875-9888"}}, {"type": "node", "id": 2550054002, "lat": 40.6812527, "lon": -73.9756418, "tags": {"addr:housenumber": "210", "addr:postcode": "11217", "addr:street": "Flatbush Avenue", "amenity": "cafe", "cuisine": "coffee_shop;spanish", "drink:beer": "yes", "drink:coffee": "yes", "drink:espresso": "yes", "drink:tea": "yes", "drink:wine": "yes", "name": "Thermostat", "opening_hours": "Mo-Fr 07:00-21:00; Sa-Su 08:00-22:00", "phone": "+1-347-677-3418", "website": "https://www.thermostatcoffeebar.com"}}, {"type": "node", "id": 2550054017, "lat": 40.6812255, "lon": -73.9760948, "tags": {"amenity": "restaurant", "bar": "yes", "cuisine": "peruvian", "drink:beer": "yes", "drink:liquor": "yes", "drink:wine": "yes", "name": "Inkaico", "opening_hours": "Mo-Su 16:00-23:00", "phone": "+1-718-576-3985", "website": "https://www.inkaicobrooklyn.com"}}, {"type": "node", "id": 2550054020, "lat": 40.6818801, "lon": -73.9762538, "tags": {"amenity": "restaurant", "bar": "yes", "cocktails": "yes", "cuisine": "american;caribbean", "drink:beer": "draught", "drink:liquor": "yes", "drink:wine": "yes", "name": "Charm", "opening_hours": "Mo-Su 12:00-22:00", "phone": "+1-347-799-2345", "website": "https://www.charmbarrestaurant.com/"}}, {"type": "node", "id": 2550054808, "lat": 40.681089, "lon": -73.9757761}, {"type": "node", "id": 2550054817, "lat": 40.6811257, "lon": -73.9756806}, {"type": "node", "id": 2550054825, "lat": 40.6811692, "lon": -73.9757224}, {"type": "node", "id": 2550054826, "lat": 40.6811726, "lon": -73.9755671}, {"type": "node", "id": 2550054837, "lat": 40.6812196, "lon": -73.9756007}, {"type": "node", "id": 2550054892, "lat": 40.6815696, "lon": -73.9764333}, {"type": "node", "id": 2550054901, "lat": 40.6816219, "lon": -73.9765681}, {"type": "node", "id": 2550054902, "lat": 40.6816229, "lon": -73.9765674}, {"type": "node", "id": 2550054906, "lat": 40.6816407, "lon": -73.9763853}, {"type": "node", "id": 2550054910, "lat": 40.6816866, "lon": -73.9765036}, {"type": "node", "id": 2550054911, "lat": 40.6816938, "lon": -73.97675}, {"type": "node", "id": 2550054921, "lat": 40.6817639, "lon": -73.9767027}, {"type": "node", "id": 2550059696, "lat": 40.6829385, "lon": -73.9790128, "tags": {"addr:housenumber": "45", "addr:postcode": "11217", "addr:street": "4th Avenue", "check_date": "2024-01-11", "fax": "+1-718-679-9124", "name": "Law Office of Elwaleed Ahmed PLLC", "office": "lawyer", "phone": "+1-718-422-0202", "service:notary": "yes", "website": "http://www.elwaleedandassociates.com"}}, {"type": "node", "id": 2550059698, "lat": 40.681618, "lon": -73.9770909, "tags": {"addr:housenumber": "50", "addr:postcode": "11217", "addr:street": "5th Avenue", "amenity": "restaurant", "bar": "yes", "cocktails": "yes", "cuisine": "mexican", "drink:beer": "draught", "drink:liquor": "yes", "drink:wine": "yes", "name": "Bandito", "opening_hours": "Mo-Th 11:00-22:00, Fr-Sa 11:00-23:00, Su 11:00-22:00", "phone": "+1-718-230-1703", "takeaway": "yes", "toilets": "yes", "toilets:access": "customers", "website": "https://bandidobk.com", "wheelchair": "yes"}}, {"type": "node", "id": 2550059710, "lat": 40.6809947, "lon": -73.9775234, "tags": {"addr:housenumber": "70", "addr:postcode": "11217", "addr:street": "5th Avenue", "amenity": "restaurant", "contact:sms": "+1-929-969-0902", "cuisine": "sushi", "drink:beer": "yes", "drink:sake": "yes", "name": "Ishi", "opening_hours": "Tu-Su 16:00-22:00", "phone": "+1-917-909-1935"}}, {"type": "node", "id": 2550059887, "lat": 40.6812584, "lon": -73.9795375}, {"type": "node", "id": 2550059905, "lat": 40.681308, "lon": -73.9796652}, {"type": "node", "id": 2550059946, "lat": 40.6815034, "lon": -73.9793719}, {"type": "node", "id": 2550059961, "lat": 40.681553, "lon": -73.9794996}, {"type": "node", "id": 2550061070, "lat": 40.6856062, "lon": -73.98028}, {"type": "node", "id": 2550061077, "lat": 40.6856169, "lon": -73.9803616, "tags": {"entrance": "main", "wheelchair": "no"}}, {"type": "node", "id": 2550061080, "lat": 40.6856336, "lon": -73.9803503}, {"type": "node", "id": 2550061093, "lat": 40.6859178, "lon": -73.9799423, "tags": {"addr:housenumber": "475", "addr:postcode": "11217", "addr:street": "State Street", "entrance": "yes"}}, {"type": "node", "id": 2550061105, "lat": 40.6853993, "lon": -73.9804982, "tags": {"entrance": "yes", "wheelchair": "yes"}}, {"type": "node", "id": 2550061129, "lat": 40.68394, "lon": -73.9818301, "tags": {"addr:housenumber": "88", "addr:postcode": "11217", "addr:street": "3rd Avenue", "government": "city", "name": "NYC Human Resources Administration", "office": "government"}}, {"type": "node", "id": 2550061916, "lat": 40.6845363, "lon": -73.9817784}, {"type": "node", "id": 2550061942, "lat": 40.684649, "lon": -73.9816777}, {"type": "node", "id": 2550061967, "lat": 40.684768, "lon": -73.9815988}, {"type": "node", "id": 2550062004, "lat": 40.6849725, "lon": -73.9832988}, {"type": "node", "id": 2550062095, "lat": 40.6852537, "lon": -73.9831107}, {"type": "node", "id": 2550062173, "lat": 40.6854732, "lon": -73.9803701}, {"type": "node", "id": 2550062212, "lat": 40.6855666, "lon": -73.9803068}, {"type": "node", "id": 2550062280, "lat": 40.6858512, "lon": -73.979773}, {"type": "node", "id": 2550062282, "lat": 40.6859809, "lon": -73.9796851}, {"type": "node", "id": 2550062283, "lat": 40.6859843, "lon": -73.9801116}, {"type": "node", "id": 2550062289, "lat": 40.6860814, "lon": -73.9799407}, {"type": "node", "id": 2550062295, "lat": 40.6861906, "lon": -73.9798476}, {"type": "node", "id": 2550062296, "lat": 40.6861965, "lon": -73.9798626}, {"type": "node", "id": 2550062297, "lat": 40.6862341, "lon": -73.9797388}, {"type": "node", "id": 2550062298, "lat": 40.6862587, "lon": -73.9798014}, {"type": "node", "id": 2550062301, "lat": 40.6864107, "lon": -73.979619}, {"type": "node", "id": 2550062302, "lat": 40.6864738, "lon": -73.9797795}, {"type": "node", "id": 2573047889, "lat": 40.6818206, "lon": -73.9746795}, {"type": "node", "id": 2573047892, "lat": 40.6819538, "lon": -73.9749817}, {"type": "node", "id": 2573047894, "lat": 40.6821359, "lon": -73.9758469}, {"type": "node", "id": 2573047896, "lat": 40.6822099, "lon": -73.9745429}, {"type": "node", "id": 2573047898, "lat": 40.6822169, "lon": -73.974272}, {"type": "node", "id": 2573047899, "lat": 40.6824584, "lon": -73.9744013}, {"type": "node", "id": 2573047901, "lat": 40.6826589, "lon": -73.9743659}, {"type": "node", "id": 2573047908, "lat": 40.682818, "lon": -73.974384}, {"type": "node", "id": 2573047913, "lat": 40.6830279, "lon": -73.9764872}, {"type": "node", "id": 2573047927, "lat": 40.683074, "lon": -73.9764936}, {"type": "node", "id": 2573047929, "lat": 40.6829513, "lon": -73.9744293}, {"type": "node", "id": 2573047930, "lat": 40.6830207, "lon": -73.974483}, {"type": "node", "id": 2573047932, "lat": 40.6830527, "lon": -73.9744712}, {"type": "node", "id": 2573047934, "lat": 40.6831866, "lon": -73.976396}, {"type": "node", "id": 2573047936, "lat": 40.6833523, "lon": -73.9761404}, {"type": "node", "id": 2573047937, "lat": 40.6833327, "lon": -73.9757948}, {"type": "node", "id": 2573047939, "lat": 40.6833691, "lon": -73.9760094}, {"type": "node", "id": 2716388231, "lat": 40.6831195, "lon": -73.9764689}, {"type": "node", "id": 2716388232, "lat": 40.6832502, "lon": -73.9763101}, {"type": "node", "id": 2716388233, "lat": 40.6833685, "lon": -73.976088}, {"type": "node", "id": 3722376424, "lat": 40.6817867, "lon": -73.9750431}, {"type": "node", "id": 3727110252, "lat": 40.6845282, "lon": -73.9817577}, {"type": "node", "id": 3727110253, "lat": 40.6846024, "lon": -73.9819478}, {"type": "node", "id": 3727110254, "lat": 40.6848523, "lon": -73.9833789}, {"type": "node", "id": 3727110255, "lat": 40.6850208, "lon": -73.982241}, {"type": "node", "id": 3727110256, "lat": 40.6853404, "lon": -73.9830531}, {"type": "node", "id": 3727110257, "lat": 40.684359, "lon": -73.9821129}, {"type": "node", "id": 3727110258, "lat": 40.6845358, "lon": -73.9825666}, {"type": "node", "id": 5474081137, "lat": 40.6828823, "lon": -73.9821946, "tags": {"amenity": "cafe", "atm": "yes", "cuisine": "latin_american", "delivery": "yes", "name": "Lano's Coffee Shop & Restaurant", "phone": "+1 718 643 3617"}}, {"type": "node", "id": 5521624443, "lat": 40.6862358, "lon": -73.978777}, {"type": "node", "id": 5521624444, "lat": 40.686451, "lon": -73.9785938}, {"type": "node", "id": 5521624445, "lat": 40.6865868, "lon": -73.9790467}, {"type": "node", "id": 5521674371, "lat": 40.6866264, "lon": -73.9786371}, {"type": "node", "id": 5530949899, "lat": 40.6851628, "lon": -73.9798275, "tags": {"amenity": "bar", "name": "Hops Hill"}}, {"type": "node", "id": 5542993926, "lat": 40.6856296, "lon": -73.9819251, "tags": {"amenity": "pub", "cocktails": "yes", "cuisine": "american;pub", "drink:beer": "draught", "drink:liquor": "yes", "drink:wine": "yes", "name": "Hollow Nickel", "opening_hours": "Mo-Th 16:00-02:00, Sa-Su 14:00-02:00", "outdoor_seating": "garden", "phone": "+1-347-236-3417", "website": "https://www.hollownickel.com"}}, {"type": "node", "id": 5549150573, "lat": 40.6812487, "lon": -73.9767036, "tags": {"addr:housenumber": "440", "addr:postcode": "11217", "addr:street": "Bergen Street", "amenity": "restaurant", "cocktails": "no", "cuisine": "japanese", "drink:beer": "draught", "drink:liquor": "yes", "drink:sake": "yes", "drink:wine": "yes", "name": "Wasan", "opening_hours": "Mo-Su 11:30-22:30", "website": "https://www.wasan-ny.com/"}}, {"type": "node", "id": 5562952071, "lat": 40.6813003, "lon": -73.9773182, "tags": {"amenity": "bar", "name": "Uncle Barry's", "opening_hours": "Mo-Th 15:00-02:00; Fr-Sa 15:00-04:00; Su 12:00-02:00", "outdoor_seating": "garden;street", "phone": "+1-718-622-4980", "website": "https://www.unclebarrys.com", "wheelchair": "yes"}}, {"type": "node", "id": 5562952077, "lat": 40.6811967, "lon": -73.9773859, "tags": {"amenity": "restaurant", "bar": "yes", "cocktails": "yes", "cuisine": "caribbean", "drink:beer": "draught", "drink:liquor": "yes", "drink:wine": "yes", "happy_hours": "Mo-Fr 15:00-19:00", "name": "BK9", "opening_hours": "Mo-Th 12:00-02:00; Fr 11:30-04:00; Sa 10:30-04:00; Su 10:30-02:00", "phone": "+1-718-789-2176", "website": "https://www.bk9.nyc"}}, {"type": "node", "id": 5562952078, "lat": 40.6813471, "lon": -73.9772854, "tags": {"amenity": "pub", "cocktails": "yes", "cuisine": "american;pub;brunch", "drink:beer": "draught", "drink:liquor": "yes", "drink:wine": "yes", "happy_hours": "Mo-Fr 16:00-18:30", "name": "Alchemy", "opening_hours": "Mo-Th 09:00-23:00; Fr 09:00-24:00; Sa 10:00-24:00; Su 10:00-23:00", "outdoor_seating": "garden;sidewalk;street", "phone": "+1-718-636-4385", "website": "http://alchemybrooklyn.com"}}, {"type": "node", "id": 5562952079, "lat": 40.6815124, "lon": -73.9774074, "tags": {"addr:housenumber": "428", "addr:postcode": "11217", "addr:street": "Bergen Street", "amenity": "bar", "drink:beer": "draught", "drink:liquor": "yes", "drink:wine": "yes", "name": "North Pole", "outdoor_seating": "sidewalk;street"}}, {"type": "node", "id": 5562952083, "lat": 40.6810436, "lon": -73.9774878, "tags": {"amenity": "restaurant", "cuisine": "italian;spanish;seafood;steak", "drink:wine": "yes", "name": "Convivium Osteria", "opening_hours": "Mo-Th 17:00-22:30; Fr-Sa 17:00-23:00; Su 17:00-21:30", "phone": "+1-718-857-1833", "website": "https://convivium-osteria.com", "wheelchair": "yes"}}, {"type": "node", "id": 5562952084, "lat": 40.681021, "lon": -73.9771719, "tags": {"name": "Amesly Real Estate Management", "office": "company", "phone": "+1-718-857-0635"}}, {"type": "node", "id": 5657099772, "lat": 40.6819364, "lon": -73.9763773, "tags": {"addr:housenumber": "446B", "addr:postcode": "11217", "addr:street": "Dean Street", "amenity": "restaurant", "cuisine": "sushi;japanese", "delivery": "yes", "diet:vegetarian": "yes", "drink:beer": "yes", "drink:sake": "yes", "drink:wine": "yes", "name": "Hiroto Sushi", "opening_hours": "Tu-Su 12:00-22:30", "phone": "+1-718-638-0888", "takeaway": "yes", "website": "https://www.hirotosushi.com"}}, {"type": "node", "id": 5676615641, "lat": 40.6811036, "lon": -73.9756954}, {"type": "node", "id": 5676615659, "lat": 40.6818471, "lon": -73.9761826, "tags": {"amenity": "restaurant", "bar": "yes", "cocktails": "yes", "cuisine": "pizza;italian", "drink:beer": "draught", "drink:liquor": "yes", "drink:wine": "yes", "name": "Patsy's Pizzeria", "opening_hours": "Mo-Th 12:00-22:00; Fr,Sa 12:00-23:00; Su 12:00-22:00", "outdoor_seating": "garden", "phone": "+1 718 622 2268", "website": "https://patsyspizza.nyc"}}, {"type": "node", "id": 5680230788, "lat": 40.6817726, "lon": -73.9749757, "tags": {"entrance": "yes", "name": "Dean Entrance"}}, {"type": "node", "id": 5680230789, "lat": 40.6818569, "lon": -73.9748539}, {"type": "node", "id": 5680230790, "lat": 40.6817547, "lon": -73.9748901}, {"type": "node", "id": 5680230791, "lat": 40.6825627, "lon": -73.9743745}, {"type": "node", "id": 5680230792, "lat": 40.6824156, "lon": -73.974199}, {"type": "node", "id": 5680230793, "lat": 40.6822653, "lon": -73.9745006}, {"type": "node", "id": 5680230801, "lat": 40.6822618, "lon": -73.9744843}, {"type": "node", "id": 5712402437, "lat": 40.6819661, "lon": -73.9768617, "tags": {"addr:housenumber": "36", "addr:postcode": "11217", "addr:street": "5th Avenue", "amenity": "restaurant", "atm": "yes", "bar": "yes", "cocktails": "yes", "cuisine": "latin_american", "delivery": "yes", "drink:beer": "draught", "drink:coffee": "yes", "drink:espresso": "yes", "drink:liquor": "yes", "drink:wine": "yes", "happy_hours": "Mo-Fr 15:00-19:00", "name": "Yayo's", "old_name": "El Viejo Yayo", "opening_hours": "Tu-Su 11:00-22:00", "phone": "+1-718-622-8922", "smoking": "no", "takeaway": "yes", "website": "https://yayosrestaurant.business.site"}}, {"type": "node", "id": 5766152072, "lat": 40.6859095, "lon": -73.9817809, "tags": {"alt_name": "Alan E Wheeler Agency", "brand": "State Farm", "brand:wikidata": "Q2007336", "name": "State Farm", "office": "insurance", "opening_hours": "Mo-Fr 09:00-18:00; Sa 09:00-13:00", "payment:cash": "no", "phone": "+1-718-488-7300", "website": "https://alanwheeler.biz"}}, {"type": "node", "id": 5782842278, "lat": 40.6850302, "lon": -73.9795055, "tags": {"check_date": "2024-01-10", "name": "Islamic Guidance Center", "office": "religion", "religion": "muslim"}}, {"type": "node", "id": 5782951777, "lat": 40.6844405, "lon": -73.9788828, "tags": {"addr:city": "Brooklyn", "addr:housenumber": "572", "addr:postcode": "11217", "addr:state": "NY", "addr:street": "Atlantic Avenue", "amenity": "cafe", "cafe": "board_game", "club": "board_games", "contact:instagram": "squarrelcafe", "diet:vegetarian": "no", "drink:coffee": "yes", "drink:espresso": "yes", "drink:tea": "yes", "name": "Squarrel Cafe", "opening_hours": "07:00-22:00", "phone": "+1-718-237-4286", "website": "https://squarrelcafe.com/"}}, {"type": "node", "id": 5784323953, "lat": 40.6861106, "lon": -73.9800259, "tags": {"entrance": "yes"}}, {"type": "node", "id": 5784323954, "lat": 40.6864422, "lon": -73.9796992, "tags": {"addr:housenumber": "362", "addr:postcode": "11217", "addr:street": "Schermerhorn Street", "entrance": "main", "wheelchair": "no"}}, {"type": "node", "id": 5784327854, "lat": 40.6835535, "lon": -73.9791651, "tags": {"name": "Pulson Security", "office": "company", "phone": "+1-646-363-0630"}}, {"type": "node", "id": 5807539961, "lat": 40.6846641, "lon": -73.9794584, "tags": {"addr:housenumber": "554", "addr:postcode": "11217", "addr:street": "Atlantic Avenue", "name": "Mubarez Travel", "office": "travel_agent", "phone": "+1-718-923-0200"}}, {"type": "node", "id": 5807539962, "lat": 40.6846127, "lon": -73.9795389, "tags": {"addr:housenumber": "554-552", "addr:postcode": "11217", "addr:street": "Atlantic Avenue", "amenity": "school", "name": "Masjid Al-Farooq Al-Aqusa Islamic School", "religion": "muslim"}}, {"type": "node", "id": 5864322719, "lat": 40.6830487, "lon": -73.9761528}, {"type": "node", "id": 5864322720, "lat": 40.6830334, "lon": -73.9762225}, {"type": "node", "id": 5864322721, "lat": 40.6831768, "lon": -73.9763064}, {"type": "node", "id": 5864322722, "lat": 40.6832206, "lon": -73.9762561}, {"type": "node", "id": 5864322723, "lat": 40.6830365, "lon": -73.9762748}, {"type": "node", "id": 5864322724, "lat": 40.6830507, "lon": -73.9763151}, {"type": "node", "id": 5864322725, "lat": 40.6830705, "lon": -73.9763379}, {"type": "node", "id": 5864322726, "lat": 40.6832795, "lon": -73.9761722}, {"type": "node", "id": 5864322727, "lat": 40.6831387, "lon": -73.9763379}, {"type": "node", "id": 5864322728, "lat": 40.6832348, "lon": -73.9760053}, {"type": "node", "id": 5864322729, "lat": 40.6831021, "lon": -73.9763486}, {"type": "node", "id": 5864322730, "lat": 40.6832714, "lon": -73.9759986}, {"type": "node", "id": 5864322731, "lat": 40.683307, "lon": -73.9760153}, {"type": "node", "id": 5864322732, "lat": 40.6831585, "lon": -73.9760442}, {"type": "node", "id": 5864322733, "lat": 40.6833223, "lon": -73.9760515}, {"type": "node", "id": 5864322734, "lat": 40.6833167, "lon": -73.9760971}, {"type": "node", "id": 5864322735, "lat": 40.6830894, "lon": -73.9760992}, {"type": "node", "id": 5905417707, "lat": 40.6857249, "lon": -73.9813052, "tags": {"amenity": "bar", "cocktails": "yes", "cuisine": "italian", "drink:beer": "draught", "drink:liquor": "yes", "drink:wine": "yes", "name": "The Little Pig", "opening_hours": "Tu-Th 16:30-24:00, Fr-Sa 16:30-02:00, Su 16:30-24:00", "phone": "+1-718-954-9901", "website": "https://www.thelittlepigbk.com"}}, {"type": "node", "id": 5905417712, "lat": 40.6856589, "lon": -73.981135, "tags": {"addr:housenumber": "501B", "addr:postcode": "11217", "addr:street": "Atlantic Avenue", "amenity": "restaurant", "cuisine": "indian", "delivery": "yes", "diet:halal": "only", "diet:vegetarian": "yes", "drink:beer": "byob", "drink:coffee": "yes", "drink:lassi": "yes", "drink:tea": "yes", "drink:wine": "byob", "fax": "+1-718-875-9201", "internet_access": "wlan", "internet_access:fee": "no", "name": "Masala Grill", "opening_hours": "Mo-Th 11:30-22:30; Fr-Sa 11:30-23:00; Su 11:30-22:30", "phone": "+1-718-875-9200", "takeaway": "yes", "website": "https://masalagrillbk.com"}}, {"type": "node", "id": 6069448083, "lat": 40.6837209, "lon": -73.9802603, "tags": {"amenity": "school", "ele": "11", "gnis:feature_id": "2493093", "name": "Brooklyn High School of the Arts", "phone": "+1-718-855-2412", "ref": "K656", "wikidata": "Q4974846", "wikipedia": "en:Brooklyn High School of the Arts"}}, {"type": "node", "id": 6343827104, "lat": 40.6853753, "lon": -73.9804365}, {"type": "node", "id": 6343827105, "lat": 40.6854026, "lon": -73.9805068}, {"type": "node", "id": 6443409302, "lat": 40.6855721, "lon": -73.9817776, "tags": {"name": "Law Office", "office": "lawyer", "phone": "+1-718-852-8300"}}, {"type": "node", "id": 6501194994, "lat": 40.6814403, "lon": -73.9772244, "tags": {"addr:housenumber": "52", "addr:postcode": "11217", "addr:street": "5th Avenue", "alt_name": "Five Spice", "amenity": "restaurant", "cuisine": "vietnamese", "drink:coffee": "yes", "drink:tea": "yes", "name": "5ive Spice", "opening_hours": "Mo-Su 12:00-22:00", "phone": "+1-718-857-3483", "website": "https://5ivespicebk.com"}}, {"type": "node", "id": 6644584701, "lat": 40.6810767, "lon": -73.9771418, "tags": {"amenity": "restaurant", "bar": "yes", "cuisine": "sushi", "drink:sake": "yes", "name": "Koi Omakase", "opening_hours": "Mo-Th 13:00-15:00, 17:00-22:30; Fr-Sa 13:00-15:00, 17:00-23:30; Su 13:00-15:00, 17:00-22:30", "phone": "+1-917-728-7563", "website": "https://koiomakase.square.site"}}, {"type": "node", "id": 7274355985, "lat": 40.6811098, "lon": -73.9757114}, {"type": "node", "id": 8395365609, "lat": 40.6811961, "lon": -73.9755839, "tags": {"entrance": "main"}}, {"type": "node", "id": 8395365610, "lat": 40.6810814, "lon": -73.9757569, "tags": {"entrance": "yes"}}, {"type": "node", "id": 8395365611, "lat": 40.6810741, "lon": -73.9757375}, {"type": "node", "id": 8569907883, "lat": 40.6857341, "lon": -73.9812157, "tags": {"name": "Mr. Does All", "office": "company", "phone": "+1-833-363-7255", "website": "https://mrdoesall.com"}}, {"type": "node", "id": 9330316508, "lat": 40.6858036, "lon": -73.9815079, "tags": {"amenity": "restaurant", "bar": "yes", "cocktails": "yes", "contact:sms": "+1-718-683-2217", "cuisine": "mexican", "diet:vegetarian": "yes", "drink:beer": "yes", "drink:wine": "yes", "name": "El Zason", "opening_hours": "Mo-Th 11:00-22:00, Fr-Sa 11:00-23:00+, Su 11:00-23:00", "phone": "+1-347-689-2820", "takeaway": "yes", "website": "https://www.elzasonbrooklyn.com"}}, {"type": "node", "id": 10710987381, "lat": 40.6856143, "lon": -73.9818859, "tags": {"fax": "+1-718-559-5729", "name": "Atlantic Avenue Local Development Corp", "office": "association", "phone": "+1-718-875-8993", "website": "https://www.atlanticave.org"}}, {"type": "node", "id": 10902723713, "lat": 40.6862532, "lon": -73.9785232}, {"type": "node", "id": 10902723715, "lat": 40.6865695, "lon": -73.9786111}, {"type": "node", "id": 10902723716, "lat": 40.6865676, "lon": -73.9786279}, {"type": "node", "id": 10902723717, "lat": 40.6864542, "lon": -73.9785509}, {"type": "node", "id": 10902723742, "lat": 40.6865239, "lon": -73.9789984}, {"type": "node", "id": 10902723744, "lat": 40.6864529, "lon": -73.9785687}, {"type": "node", "id": 10902723748, "lat": 40.6865333, "lon": -73.9790056}, {"type": "node", "id": 10902723750, "lat": 40.686609, "lon": -73.9788173}, {"type": "node", "id": 11073244128, "lat": 40.6849219, "lon": -73.9814597, "tags": {"alt_name": "IXV Coffee", "amenity": "cafe", "cuisine": "coffee_shop", "drink:coffee": "yes", "drink:espresso": "yes", "drink:tea": "yes", "name": "IXV", "opening_hours": "Tu-Fr 07:30-16:00; Sa-Su 09:00-17:00", "outdoor_seating": "sidewalk;street", "website": "https://www.ixvcoffee.com"}}, {"type": "node", "id": 11152084762, "lat": 40.6847907, "lon": -73.9775039, "tags": {"addr:city": "Brooklyn", "addr:housenumber": "139", "addr:postcode": "11217", "addr:state": "NY", "addr:street": "Flatbush Avenue", "amenity": "cafe", "branch": "Flatbush Avenue Atlantic Terminal", "brand": "Starbucks", "brand:wikidata": "Q37158", "cuisine": "coffee_shop", "level": "0", "name": "Starbucks", "official_name": "Starbucks Coffee", "opening_hours": "Mo-Su 05:30-20:00; Sa, Su 06:00-19:00", "phone": "+1 718-789-3418", "takeaway": "yes", "website": "https://www.starbucks.com/store-locator/store/12539/flatbush-ave-atlantic-terminal-139-flatbush-ave-brooklyn-ny-112171450-us"}}, {"type": "node", "id": 11152104482, "lat": 40.6849664, "lon": -73.9767341, "tags": {"amenity": "restaurant", "name": "Appelbee's"}}, {"type": "node", "id": 11201416134, "lat": 40.6850858, "lon": -73.9755305, "tags": {"addr:housenumber": "625", "addr:street": "Atlantic Avenue", "government": "transportation", "level": "2", "office": "government", "operator": "New York State Department of Motor Vehicles", "operator:short": "New York DMV", "operator:wikidata": "Q17109616"}}, {"type": "node", "id": 12456130217, "lat": 40.6811024, "lon": -73.9755327, "tags": {"addr:housenumber": "216", "addr:postcode": "11217", "addr:street": "Flatbush Avenue", "amenity": "cafe", "cuisine": "persian", "name": "Sofreh Cafe", "opening_hours": "Mo-Fr 09:00-17:00, Sa-Su 09:00-16:00", "phone": "+1-929-294-9240", "website": "https://www.sofrehnyc.com/sofrehcafe"}}, {"type": "node", "id": 13246607072, "lat": 40.6850874, "lon": -73.9796285, "tags": {"amenity": "restaurant", "cuisine": "ramen", "name": "Ramen Thupka", "opening_hours": "Mo-Th 11:30-22:00; Fr-Su 12:00-22:30"}}, {"type": "way", "id": 248163723, "nodes": [2550054906, 2550054892, 2550054901, 2550054902, 2550054911, 2550054921, 2550054910, 2550054906], "tags": {"addr:housenumber": "39", "addr:postcode": "11217", "addr:street": "5th Avenue", "amenity": "pub", "building": "yes", "cuisine": "pub", "height": "4.3", "name": "McMahon's", "nycdoitt:bin": "3018478", "outdoor_seating": "roof", "phone": "+1 718 230 4549"}}, {"type": "way", "id": 248165000, "nodes": [2550059887, 2550059905, 2550059961, 2550059946, 2550059887], "tags": {"addr:housenumber": "84", "addr:postcode": "11217", "addr:street": "Saint Marks Place", "building": "yes", "name": "Saint Marks Place Sales Gallery", "office": "yes", "phone": "+1-718-640-2262", "website": "https://www.saintmarksplacebk.com"}}, {"type": "way", "id": 248165263, "nodes": [2550062297, 2550062298, 2550062295, 2550062296, 2550062289, 2550062282, 2550062280, 2550061093, 2550062283, 5784323953, 2550062302, 5784323954, 2550062301, 2550062297], "tags": {"amenity": "school", "building": "yes", "ele": "12", "fax": "+1-718-488-1724", "height": "19.1", "name": "Khalil Gibran International Academy", "nycdoitt:bin": "3331754", "old_name": "Brooklyn Boys Boarding School", "phone": "+1-718-237-2502", "website": "http://www.khalilgibranhs.org", "wikidata": "Q14706734"}}, {"type": "way", "id": 250992428, "nodes": [2573047927, 2716388231, 2573047934, 2716388232, 2573047936, 2716388233, 2573047939, 2573047937, 2573047932, 2573047930, 2573047929, 2573047908, 2573047901, 5680230791, 2573047899, 5680230792, 2573047898, 5680230801, 5680230793, 2573047896, 2573047889, 5680230789, 5680230790, 5680230788, 3722376424, 2573047892, 2573047894, 2573047913, 2573047927]}, {"type": "way", "id": 368870411, "nodes": [2550061967, 2550061942, 3727110252, 2550061916, 3727110253, 3727110257, 3727110258, 3727110254, 2550062004, 2550062095, 3727110256, 3727110255, 2550061967], "tags": {"amenity": "school", "name": "Public School 38"}}, {"type": "way", "id": 575425396, "nodes": [5521624443, 10902723742, 10902723748, 5521624445, 10902723750, 5521674371, 10902723716, 10902723715, 5521624444, 10902723744, 10902723717, 10902723713, 5521624443], "tags": {"access": "permissive", "leisure": "park", "name": "The Plaza At 300 Ashland", "operator": "300 Ashland Avenue"}}, {"type": "way", "id": 620716943, "nodes": [5864322734, 5864322726, 5864322722, 5864322721, 5864322727, 5864322729, 5864322725, 5864322724, 5864322723, 5864322720, 5864322719, 5864322735, 5864322732, 5864322728, 5864322730, 5864322731, 5864322733, 5864322734]}, {"type": "way", "id": 677518065, "nodes": [6343827105, 2550061105, 6343827104, 2550062173, 2550062212, 2550061070, 2550061080, 2550061077, 6343827105], "tags": {"addr:housenumber": "31", "addr:postcode": "11217", "addr:street": "3rd Avenue", "amenity": "restaurant", "bar": "yes", "cuisine": "seafood;cajun;creole", "drink:beer": "draught", "drink:soju": "yes", "drink:wine": "yes", "level": "0", "name": "Claw Daddy's Brooklyn", "opening_hours": "We-Th 17:00-22:00; Fr-Sa 17:00-23:00; Su 17:00-22:00", "phone": "+1-347-318-8893", "website": "https://www.clawdaddysnyc.com", "wheelchair": "limited"}}, {"type": "way", "id": 903964406, "nodes": [2550054837, 8395365609, 2550054826, 2550054817, 5676615641, 7274355985, 8395365611, 8395365610, 2550054808, 2550054825, 2550054837], "tags": {"addr:housenumber": "212", "addr:postcode": "11217", "addr:street": "Flatbush Avenue", "alt_name": "Gahm by Mokbar", "amenity": "restaurant", "bar": "yes", "cocktails": "yes", "cuisine": "korean;ramen", "drink:beer": "yes", "drink:liquor": "yes", "drink:wine": "yes", "level": "0", "name": "Gahm", "opening_hours": "Tu-Su 17:00-22:00", "phone": "+1-347-987-3042", "website": "https://www.mokbar.com/new-page-2"}}, {"type": "relation", "id": 8610205, "members": [{"type": "way", "ref": 250992428, "role": "outer"}, {"type": "way", "ref": 620716943, "role": "inner"}], "tags": {"addr:city": "Brooklyn", "addr:housename": "Barclays Center", "addr:housenumber": "620", "addr:postcode": "11217", "addr:state": "NY", "addr:street": "Atlantic Avenue", "building": "civic", "height": "35", "layer": "1", "leisure": "stadium", "name": "Barclays Center", "nycdoitt:bin": "3398156", "operator": "Anschutz Entertainment Group", "phone": "+19176186100", "sport": "basketball;hockey", "team": "Brooklyn Nets;New York Islanders", "type": "multipolygon", "website": "https://www.barclayscenter.com/", "wheelchair": "yes", "wikidata": "Q807966", "wikipedia": "en:Barclays Center"}}]}