{"version": 0.6, "generator": "Overpass API 0.7.62.8 e802775f", "osm3s": {"timestamp_osm_base": "2025-12-01T17:32:30Z", "copyright": "The data included in this document is from www.openstreetmap.org. The data is made available under ODbL."}, "elements": [{"type": "node", "id": 484072995, "lat": 40.6723895, "lon": -73.9578497}, {"type": "node", "id": 720075075, "lat": 40.6722068, "lon": -73.9575439, "tags": {"addr:housenumber": "766", "addr:postcode": "11238", "addr:street": "Franklin Avenue", "entrance": "yes"}}, {"type": "node", "id": 1640872661, "lat": 40.6750236, "lon": -73.9612771}, {"type": "node", "id": 1640872664, "lat": 40.6743315, "lon": -73.9615198}, {"type": "node", "id": 1640883887, "lat": 40.6741179, "lon": -73.960461}, {"type": "node", "id": 1640883891, "lat": 40.67481, "lon": -73.9602182}, {"type": "node", "id": 1827182547, "lat": 40.6764339, "lon": -73.959241, "tags": {"addr:city": "Brooklyn", "addr:housenumber": "699", "addr:postcode": "11238", "addr:state": "NY", "addr:street": "Classon Avenue", "amenity": "restaurant", "cuisine": "diner", "delivery": "yes", "name": "Neptune Diner II", "opening_hours": "24/7", "outdoor_seating": "yes", "phone": "+1-718-623-1111", "takeaway": "yes", "wheelchair": "yes"}}, {"type": "node", "id": 1932725314, "lat": 40.6720806, "lon": -73.9572943, "tags": {"amenity": "restaurant", "cuisine": "pizza", "name": "Barboncino"}}, {"type": "node", "id": 2494220893, "lat": 40.6737635, "lon": -73.9541289, "tags": {"addr:housenumber": "1448", "addr:postcode": "11216", "addr:street": "Bedford Avenue", "name": "Perl Group", "office": "estate_agent", "phone": "+1-718-258-2900"}}, {"type": "node", "id": 2494221616, "lat": 40.6767302, "lon": -73.9559227, "tags": {"addr:housenumber": "942", "addr:postcode": "11238", "addr:street": "Bergen Street", "amenity": "cafe", "bar": "yes", "cuisine": "breakfast;sandwich;charcuterie;snack", "drink:beer": "yes", "drink:coffee": "yes", "drink:espresso": "yes", "drink:tea": "yes", "drink:wine": "yes", "name": "Word of Mouth", "opening_hours": "Mo-Th 08:00-22:00, Fr-Sa 08:00-23:00, Su 08:00-22:00", "outdoor_seating": "sidewalk", "website": "https://www.wordofmouthbk.com"}}, {"type": "node", "id": 2568885145, "lat": 40.6721673, "lon": -73.9580088}, {"type": "node", "id": 2568885161, "lat": 40.6721809, "lon": -73.9578073}, {"type": "node", "id": 2568885163, "lat": 40.6721826, "lon": -73.9579256}, {"type": "node", "id": 2568885167, "lat": 40.6721866, "lon": -73.9575513}, {"type": "node", "id": 2568885175, "lat": 40.6721978, "lon": -73.9579977}, {"type": "node", "id": 2568885182, "lat": 40.6722042, "lon": -73.9579176}, {"type": "node", "id": 2568885192, "lat": 40.6722205, "lon": -73.9577118}, {"type": "node", "id": 2568885204, "lat": 40.6722363, "lon": -73.957787}, {"type": "node", "id": 2568885233, "lat": 40.6722764, "lon": -73.9577033}, {"type": "node", "id": 2568885239, "lat": 40.6722849, "lon": -73.9579657}, {"type": "node", "id": 2568885256, "lat": 40.6723041, "lon": -73.957835}, {"type": "node", "id": 2568885261, "lat": 40.6723131, "lon": -73.9578777}, {"type": "node", "id": 2568885326, "lat": 40.6723579, "lon": -73.9578613}, {"type": "node", "id": 2568885375, "lat": 40.6724047, "lon": -73.9579218}, {"type": "node", "id": 2568899230, "lat": 40.6734323, "lon": -73.9571327, "tags": {"addr:housenumber": "736", "addr:postcode": "11238", "addr:street": "Franklin Avenue", "amenity": "restaurant", "cocktails": "yes", "cuisine": "mexican", "drink:beer": "yes", "drink:liquor": "yes", "drink:wine": "yes", "name": "Chavela's", "outdoor_seating": "sidewalk"}}, {"type": "node", "id": 2568918176, "lat": 40.6756968, "lon": -73.9600205, "tags": {"amenity": "restaurant", "cuisine": "thai", "delivery": "yes", "diet:gluten_free": "yes", "diet:vegetarian": "yes", "name": "Prospect Thai", "opening_hours": "Mo, We, Th 12:00-21:00; Fr-Sa 12:00-21:30; Su 12:00-21:00", "phone": "+1-347-365-9711", "takeaway": "yes", "website": "https://www.prospectthai.com"}}, {"type": "node", "id": 2568936469, "lat": 40.6772887, "lon": -73.9588439}, {"type": "node", "id": 2568936480, "lat": 40.6773591, "lon": -73.958822}, {"type": "node", "id": 2705030227, "lat": 40.6749105, "lon": -73.9565957, "tags": {"addr:housenumber": "688", "addr:postcode": "11238", "addr:street": "Franklin Avenue", "amenity": "restaurant", "bar": "yes", "cocktails": "yes", "cuisine": "american;brunch", "diet:vegetarian": "yes", "drink:beer": "draught", "drink:liquor": "yes", "drink:wine": "yes", "name": "Mayfield", "opening_hours": "Mo-Th 17:00-22:00; Fr 17:00-23:30; Sa 11:00-15:00,17:00-23:30; Su 11:00-15:00,17:00-22:00", "phone": "+1-347-318-3643", "website": "https://www.mayfieldbk.com"}}, {"type": "node", "id": 2705030238, "lat": 40.6738854, "lon": -73.9569638, "tags": {"addr:housenumber": "724", "addr:postcode": "11238", "addr:street": "Franklin Avenue", "amenity": "bar", "cocktails": "yes", "drink:beer": "draught", "drink:liquor": "yes", "drink:wine": "yes", "name": "Crown Inn", "opening_hours": "Mo-We 16:00-24:00; Th 14:00-02:00; Fr 14:00-02:30; Sa 13:00-02:30; Su 14:00-24:00", "outdoor_seating": "garden;street", "phone": "+1-334-463-0756", "smoking": "outside", "website": "https://crowninnbk.com"}}, {"type": "node", "id": 2705030255, "lat": 40.6737697, "lon": -73.9570069, "tags": {"addr:city": "Brooklyn", "addr:housenumber": "730", "addr:postcode": "11238", "addr:street": "Franklin Avenue", "amenity": "cafe", "contact:facebook": "https://www.facebook.com/littlezelda", "contact:instagram": "@littlezeldacoffee", "cuisine": "coffee_shop", "diet:vegetarian": "yes", "drink:coffee": "yes", "drink:espresso": "yes", "drink:tea": "yes", "indoor_seating": "yes", "internet_access": "yes", "name": "Little Zelda", "opening_hours": "Mo-Su 07:00-19:00", "outdoor_seating": "yes"}}, {"type": "node", "id": 2705995455, "lat": 40.6738283, "lon": -73.9566698, "tags": {"amenity": "cafe", "cuisine": "coffee_shop", "drink:coffee": "yes", "name": "Bien Cuit", "opening_hours": "Mo-Su 08:00-18:00", "phone": "+1-347-365-1656", "shop": "bakery", "website": "https://www.biencuit.com/franklin-ave-menu"}}, {"type": "node", "id": 2706023203, "lat": 40.6734828, "lon": -73.9567974, "tags": {"addr:city": "Brooklyn", "addr:housenumber": "737", "addr:postcode": "11216", "addr:street": "Franklin Avenue", "check_date": "2022-08-10", "name": "HAD Associates", "office": "accountant"}}, {"type": "node", "id": 2706023205, "lat": 40.6733786, "lon": -73.9568359, "tags": {"addr:housenumber": "743", "addr:postcode": "11216", "addr:street": "Franklin Avenue", "alt_name": "Island CZ Cafe", "amenity": "restaurant", "bar": "yes", "cocktails": "yes", "cuisine": "caribbean", "disused:website": "https://www.islandczcafe.com", "drink:beer": "draught", "drink:liquor": "yes", "drink:wine": "yes", "name": "Island Seas Cafe", "opening_hours": "Mo-We 11:00-23:00; Th 11:00-24:00; Fr-Sa 11:00-02:00; Su 11:00-23:00", "phone": "+1-718-576-6700"}}, {"type": "node", "id": 2713495837, "lat": 40.6769735, "lon": -73.9601888, "tags": {"alt_name": "P.S. 705", "amenity": "school", "fax": "+1-718-230-0531", "name": "Brooklyn Arts & Science Elementary School", "phone": "+1-718-230-0851", "website": "https://www.brooklynartselementary.org"}}, {"type": "node", "id": 3867409162, "lat": 40.6752213, "lon": -73.9600993, "tags": {"addr:city": "Brooklyn", "addr:housenumber": "730", "addr:street": "Classon Avenue", "amenity": "pub", "drink:beer": "yes", "name": "Covenhoven", "opening_hours": "Mo-Fr 14:00-23:00; Sa-Su 12:00-23:00", "outdoor_seating": "garden;sidewalk", "phone": "+1-718-483-9950", "website": "https://www.covenhovennyc.com"}}, {"type": "node", "id": 4092433427, "lat": 40.6772879, "lon": -73.9554258, "tags": {"addr:city": "Brooklyn", "addr:housenumber": "613", "addr:postcode": "11238", "addr:state": "NY", "addr:street": "Franklin Avenue", "amenity": "restaurant", "black_owned": "yes", "cuisine": "seafood", "diet:non-vegetarian": "yes", "diet:seafood": "yes", "drink:beer": "yes", "name": "The Crabby Shack", "opening_hours": "Mo,We,Th 15:00-22:00; Fr 15:00-23:00; Sa 13:00-23:00; Su 15:00-21:00", "outdoor_seating": "sidewalk", "phone": "+1-718-484-1507", "website": "https://thecrabbyshack.com", "women_owned": "yes"}}, {"type": "node", "id": 4092436389, "lat": 40.67321, "lon": -73.9572049, "tags": {"amenity": "restaurant", "cuisine": "indian", "delivery": "yes", "drink:beer": "byob", "drink:wine": "byob", "fax": "+1-718-622-9507", "name": "Pearl Indian Restaurant", "opening_hours": "Mo-Th 11:30-15:30,17:00-22:30; Fr 11:30-15:30,17:00-23:30; Sa 12:00-23:00; Su 12:00-22:30", "phone": "+1-718-622-9500", "takeaway": "yes"}}, {"type": "node", "id": 4149649611, "lat": 40.6756179, "lon": -73.9563406, "tags": {"addr:housenumber": "666", "addr:postcode": "11238", "addr:street": "Franklin Avenue", "amenity": "cafe", "cuisine": "crepe", "drink:coffee": "yes", "drink:espresso": "yes", "drink:tea": "yes", "name": "Black Milk", "opening_hours": "Mo-Fr 07:30-16:00; Sa-Su 09:00-16:00"}}, {"type": "node", "id": 4149654208, "lat": 40.674047, "lon": -73.9569035, "tags": {"addr:housenumber": "718", "addr:postcode": "11238", "addr:street": "Franklin Avenue", "amenity": "cafe", "cuisine": "bagel;breakfast;sandwich", "drink:coffee": "yes", "drink:espresso": "yes", "drink:tea": "yes", "name": "Coffee Land", "outdoor_seating": "patio"}}, {"type": "node", "id": 4176542595, "lat": 40.6730876, "lon": -73.9572479, "tags": {"amenity": "restaurant", "bar": "yes", "cocktails": "yes", "cuisine": "italian;brunch", "drink:beer": "draught", "drink:coffee": "yes", "drink:espresso": "yes", "drink:liquor": "yes", "drink:wine": "yes", "happy_hours": "Mo-Fr 16:00-19:00", "name": "Cent'Anni", "opening_hours": "Mo-Th 11:00-23:00; Fr-Sa 11:00-24:00; Su 11:00-23:00", "phone": "+1-718-942-5201", "website": "https://www.centannibrooklyn.com", "wheelchair": "limited"}}, {"type": "node", "id": 4773410630, "lat": 40.6773367, "lon": -73.9587141}, {"type": "node", "id": 4773410631, "lat": 40.6772676, "lon": -73.9587369}, {"type": "node", "id": 4921358325, "lat": 40.6721625, "lon": -73.9575803, "tags": {"addr:housenumber": "768", "addr:postcode": "11238", "addr:street": "Franklin Avenue", "amenity": "bar", "black_owned": "yes", "cocktails": "yes", "drink:beer": "yes", "drink:liquor": "yes", "drink:wine": "yes", "name": "Drink Lounge", "opening_hours": "Tu-Th 17:30-24:00; Fr-Sa 17:30-02:00"}}, {"type": "node", "id": 4921358326, "lat": 40.6734842, "lon": -73.9573814, "tags": {"addr:housenumber": "645", "addr:postcode": "11238", "addr:street": "Sterling Place", "amenity": "bar", "cocktails": "yes", "cuisine": "charcuterie;snack", "drink:beer": "yes", "drink:liquor": "yes", "drink:wine": "yes", "name": "Altar", "opening_hours": "Tu-Su 17:00-02:00", "website": "http://altarnyc.com"}}, {"type": "node", "id": 6313220809, "lat": 40.6721521, "lon": -73.9579367}, {"type": "node", "id": 6833303858, "lat": 40.6756702, "lon": -73.9559972, "tags": {"alt_name": "Best Friends", "amenity": "bar", "cocktails": "yes", "drink:beer": "draught", "drink:liquor": "yes", "drink:wine": "yes", "name": "St Ends", "opening_hours": "Mo-Fr 15:00-04:00; Sa-Su 12:00-04:00", "outdoor_seating": "garden", "phone": "+1-347-413-7558", "toilets": "yes", "toilets:unisex": "yes"}}, {"type": "node", "id": 6833338806, "lat": 40.6753865, "lon": -73.9564235, "tags": {"amenity": "restaurant", "branch": "Crown Heights", "cuisine": "asian", "diet:vegan": "yes", "drink:beer": "draught", "drink:sake": "yes", "drink:wine": "yes", "name": "Luanne's Wild Ginger", "outdoor_seating": "garden", "phone": "+1-718-928-7668", "website": "http://www.luanneswildgingernyc.com/"}}, {"type": "node", "id": 6833338807, "lat": 40.6753408, "lon": -73.9564409, "tags": {"amenity": "restaurant", "cuisine": "indian", "delivery": "yes", "diet:vegan": "yes", "diet:vegetarian": "yes", "drink:beer": "yes", "drink:wine": "yes", "fax": "+1-718-230-7853", "name": "Diwan Grill", "opening_hours": "Mo-Su 11:30-15:00,17:00-22:30", "phone": "+1-718-230-7852", "takeaway": "yes", "website": "https://www.diwangrillnyc.com"}}, {"type": "node", "id": 6833338809, "lat": 40.6726786, "lon": -73.9574029, "tags": {"amenity": "restaurant", "cocktails": "yes", "cuisine": "asian", "drink:beer": "yes", "drink:liquor": "yes", "drink:wine": "yes", "name": "Misc", "opening_hours": "Mo-Th 12:30-15:10,16:00-22:00; Fr-Su 12:30-22:30", "outdoor_seating": "sidewalk;street", "phone": "+1-347-663-4021", "website": "https://www.miscbklyn.com"}}, {"type": "node", "id": 7198217881, "lat": 40.6726158, "lon": -73.9571177, "tags": {"addr:housenumber": "765", "addr:postcode": "11216", "addr:street": "Franklin Avenue", "name": "Nooklyn", "office": "estate_agent", "phone": "+1-347-787-8580", "website": "https://nooklyn.com"}}, {"type": "node", "id": 7198482554, "lat": 40.6761727, "lon": -73.9561282, "tags": {"amenity": "events_venue", "name": "Work Heights", "office": "coworking", "website": "https://workheights.com"}}, {"type": "node", "id": 7198571527, "lat": 40.6757176, "lon": -73.9559804, "tags": {"alt_name": "Latino Sports Club", "amenity": "bar", "name": "LSC"}}, {"type": "node", "id": 7198571528, "lat": 40.6755249, "lon": -73.9563765, "tags": {"amenity": "restaurant", "cuisine": "thai", "name": "Sweet Basil", "opening_hours": "Tu-Sa 12:00-22:00, Su 13:00-22:00", "phone": "+1-718-399-3388", "website": "https://www.sweetbasilbrooklyn.com"}}, {"type": "node", "id": 9140429121, "lat": 40.6770202, "lon": -73.9591329, "tags": {"amenity": "cafe", "drink:coffee": "yes", "drink:espresso": "yes", "drink:tea": "yes", "name": "Pour Quality", "opening_hours": "Mo-Fr 07:00-15:30; Sa-Su 08:00-15:00"}}, {"type": "node", "id": 9443614192, "lat": 40.6769251, "lon": -73.9599598, "tags": {"alt_name": "Exceed Charter School", "amenity": "school", "fax": "+1-718-701-8328", "name": "Exceed Lower School", "official_name": "Explore Exceed Lower School", "phone": "+1-718-989-6702", "website": "https://exploreschools.org/exceed-lower"}}, {"type": "node", "id": 9518146176, "lat": 40.6734302, "lon": -73.9568169, "tags": {"amenity": "restaurant", "cocktails": "yes", "cuisine": "ethiopian", "diet:kosher": "yes", "diet:vegan": "yes", "diet:vegetarian": "yes", "drink:beer": "yes", "drink:liquor": "yes", "drink:wine": "yes", "name": "Ras", "opening_hours": "Mo-We 14:00-22:00; Th-Fr 14:00-23:00; Sa 12:00-23:00; Su 12:00-22:00", "outdoor_seating": "street", "phone": "+1-718-622-6220", "website": "https://www.rasplantbased.com"}}, {"type": "node", "id": 9519930272, "lat": 40.676329, "lon": -73.9560712, "tags": {"amenity": "bar", "cocktails": "yes", "drink:beer": "draught", "drink:liquor": "yes", "drink:wine": "yes", "name": "Rialto Grande", "opening_hours": "Tu-Th 17:00-24:00; Fr 17:00-01:00; Sa 16:00-01:00; Su 16:00-24:00", "website": "https://www.rialtogrande.com"}}, {"type": "node", "id": 9535989740, "lat": 40.6752285, "lon": -73.9567001, "tags": {"addr:housenumber": "605", "addr:postcode": "11238", "addr:street": "Prospect Place", "amenity": "restaurant", "cocktails": "yes", "cuisine": "mexican", "drink:beer": "bottled", "name": "Gueros", "opening_hours": "Mo-We 16:00-22:00; Th-Fr 16:00-23:00; Sa 11:00-23:00; Su 11:00-22:00", "outdoor_seating": "street", "phone": "+1-718-230-4941", "takeaway": "yes", "website": "https://www.guerosbrooklyn.com"}}, {"type": "node", "id": 10148136558, "lat": 40.6736727, "lon": -73.9606526, "tags": {"amenity": "cafe", "cuisine": "coffee_shop;sandwich", "drink:coffee": "yes", "drink:espresso": "yes", "drink:tea": "yes", "name": "Polly's", "opening_hours": "Mo-Fr 07:00-17:00; Sa-Su 08:00-17:00", "outdoor_seating": "garden"}}, {"type": "node", "id": 10148136561, "lat": 40.6722631, "lon": -73.957708}, {"type": "node", "id": 10148679027, "lat": 40.6722899, "lon": -73.9577674}, {"type": "node", "id": 10148679035, "lat": 40.6723971, "lon": -73.9578858, "tags": {"addr:housenumber": "618", "addr:postcode": "11238", "addr:street": "Saint Johns Place", "barrier": "gate", "entrance": "yes"}}, {"type": "node", "id": 10148679036, "lat": 40.6722269, "lon": -73.9575366}, {"type": "node", "id": 13023340777, "lat": 40.6727061, "lon": -73.9548016, "tags": {"addr:housenumber": "724", "addr:postcode": "11216", "addr:street": "Sterling Place", "amenity": "restaurant", "cuisine": "cambodian", "name": "Bong", "opening_hours": "Mo-Sa 09:00-19:00; Su 09:09-17:00", "phone": "+1-718-783-2198", "website": "https://bongnyc.com"}}, {"type": "way", "id": 151268812, "nodes": [1640883891, 1640883887, 1640872664, 1640872661, 1640883891], "tags": {"amenity": "school", "name": "M.S. 353 Elijah Stroud"}}, {"type": "way", "id": 484590714, "nodes": [4773410630, 2568936480, 2568936469, 4773410631, 4773410630], "tags": {"addr:housenumber": "667", "addr:postcode": "11238", "addr:street": "Classon Avenue", "amenity": "restaurant", "bar": "yes", "building": "yes", "check_date": "2022-11-12", "cuisine": "italian", "drink:wine": "yes", "name": "D'Antan", "outdoor_seating": "sidewalk"}}, {"type": "way", "id": 674136717, "nodes": [6313220809, 2568885163, 2568885182, 2568885161, 2568885204, 2568885192, 2568885167, 720075075, 10148679036, 10148136561, 2568885233, 10148679027, 2568885256, 2568885261, 2568885326, 484072995, 10148679035, 2568885375, 2568885239, 2568885175, 2568885145, 6313220809], "tags": {"addr:housenumber": "618", "addr:postcode": "11238", "addr:street": "Saint Johns Place", "amenity": "pub", "atm": "yes", "cocktails": "yes", "cuisine": "burger;american;brunch", "diet:vegan": "limited", "diet:vegetarian": "yes", "drink:beer": "draught", "drink:liquor": "yes", "drink:wine": "yes", "happy_hours": "Mo-Tu 12:00-19:00,24:00-02:00; We-Fr 12:00-19:00; Sa-Su 11:00-16:00", "internet_access": "wlan", "level": "0", "name": "Franklin Park", "opening_hours": "Mo-Th 12:00-01:00; Fr-Sa 12:00-02:00; Su 12:00-24:00", "opening_hours:kitchen": "Mo-Su 12:00-24:00", "outdoor_seating": "yes", "phone": "+1-718-230-0293", "toilets": "yes", "toilets:unisex": "yes", "toilets:wheelchair": "no", "website": "https://franklinparkbrooklyn.com", "wheelchair": "limited"}}]}