{"version": 0.6, "generator": "Overpass API 0.7.62.8 e802775f", "osm3s": {"timestamp_osm_base": "2025-12-01T17:17:01Z", "copyright": "The data included in this document is from www.openstreetmap.org. The data is made available under ODbL."}, "elements": [{"type": "node", "id": 530697968, "lat": 40.7594616, "lon": -73.9830426}, {"type": "node", "id": 530697969, "lat": 40.7599304, "lon": -73.9826972}, {"type": "node", "id": 1487472478, "lat": 40.7607113, "lon": -73.9807687, "tags": {"addr:city": "New York", "addr:country": "US", "addr:housenumber": "120", "addr:postcode": "10020", "addr:state": "NY", "addr:street": "West 51st Street", "amenity": "restaurant", "name": "Capital Grille at Time-Life", "website": "https://www.thecapitalgrille.com/", "wheelchair": "yes"}}, {"type": "node", "id": 1593328953, "lat": 40.7602407, "lon": -73.9822244}, {"type": "node", "id": 1593328960, "lat": 40.7604677, "lon": -73.9820585}, {"type": "node", "id": 1758217485, "lat": 40.7604723, "lon": -73.9840506, "tags": {"addr:city": "New York", "addr:country": "US", "addr:housenumber": "202", "addr:postcode": "10019", "addr:state": "NY", "addr:street": "West 49th Street", "amenity": "restaurant", "email": "playact1@aol.com", "fax": "+1-212-664-0563", "name": "The Playwright", "phone": "+1 212-262-9263", "smoking": "no", "website": "https://www.playwrighttavern.com/"}}, {"type": "node", "id": 1899033650, "lat": 40.7616486, "lon": -73.9868145, "tags": {"amenity": "pub", "name": "West End Bar & Grill"}}, {"type": "node", "id": 1900975316, "lat": 40.7644259, "lon": -73.9810737, "tags": {"amenity": "cafe", "brand": "Starbucks", "brand:wikidata": "Q37158", "contact:website": "https://www.starbucks.com/store-locator/store/9675/55th-seventh-870-7th-avenue-new-york-ny-100194369-us", "cuisine": "coffee_shop", "entrance": "yes", "name": "Starbucks", "official_name": "Starbucks Coffee", "operator": "Starbucks", "takeaway": "yes"}}, {"type": "node", "id": 2134025590, "lat": 40.7593243, "lon": -73.9816604, "tags": {"addr:housenumber": "1221", "addr:postcode": "10020", "addr:street": "6th Avenue", "amenity": "restaurant", "brand": "Del Frisco's Double Eagle Steakhouse", "brand:wikidata": "Q23461481", "cuisine": "steak_house", "delivery": "yes", "drink:wine": "yes", "email": "dfny@ldry.com", "name": "Del Frisco's Double Eagle Steakhouse", "opening_hours": "Mo-Th 11:00-22:00; Fr 11:00-23:00; Sa 16:00-23:00; Su 16:00-22:00", "operator": "Landry's", "payment:american_express": "yes", "payment:cash": "yes", "payment:diners_club": "yes", "payment:discover_card": "yes", "payment:mastercard": "yes", "payment:visa": "yes", "phone": "+1 212-575-5129", "reservation": "yes", "takeaway": "yes", "website": "https://delfriscos.com/steakhouse/new-york/"}}, {"type": "node", "id": 2610440239, "lat": 40.7634192, "lon": -73.981318, "tags": {"amenity": "cafe", "name": "Caf\u00e9 Metro"}}, {"type": "node", "id": 2610440246, "lat": 40.7604501, "lon": -73.9839884, "tags": {"addr:city": "New York", "addr:housenumber": "740", "addr:state": "NY", "addr:street": "7th Avenue", "amenity": "restaurant", "name": "Burger Man"}}, {"type": "node", "id": 2610440247, "lat": 40.7625486, "lon": -73.9824969, "tags": {"addr:city": "New York", "addr:country": "US", "addr:housenumber": "800", "addr:postcode": "10019", "addr:state": "NY", "addr:street": "7th Avenue", "amenity": "pub", "name": "Rosie O'Grady's Saloon", "website": "https://www.rosieogradys.com/", "wheelchair": "yes"}}, {"type": "node", "id": 2610440250, "lat": 40.7608044, "lon": -73.9837222, "tags": {"addr:city": "New York", "addr:housenumber": "750", "addr:postcode": "10019", "addr:state": "NY", "addr:street": "7th Avenue", "amenity": "cafe", "branch": "49th & Seventh", "brand": "Starbucks", "brand:wikidata": "Q37158", "cuisine": "coffee_shop", "name": "Starbucks", "official_name": "Starbucks Coffee", "phone": "+1 212-974-0032", "takeaway": "yes", "website": "https://www.starbucks.com/store-locator/store/11631/49th-seventh-750-seventh-avenue-new-york-ny-100196834-us"}}, {"type": "node", "id": 2610440254, "lat": 40.7633512, "lon": -73.9813706, "tags": {"addr:city": "New York", "addr:country": "US", "addr:housenumber": "837", "addr:postcode": "10019", "addr:state": "NY", "addr:street": "7th Avenue", "amenity": "pub", "name": "The Irish Pub", "theme": "irish", "website": "http://www.theirishpubnyc.com/"}}, {"type": "node", "id": 2625469223, "lat": 40.7612883, "lon": -73.9871051, "tags": {"addr:housenumber": "795", "addr:street": "8th Avenue", "amenity": "bar", "name": "Q NYC"}}, {"type": "node", "id": 2676979135, "lat": 40.7592344, "lon": -73.9863162, "tags": {"addr:housenumber": "221", "addr:postcode": "10036", "addr:street": "West 46th Street", "alt_name": "Stand-Up NY", "amenity": "restaurant", "cuisine": "italian", "name": "Bond 45", "website": "https://www.bond45ny.com"}}, {"type": "node", "id": 2678581856, "lat": 40.7601307, "lon": -73.9871355, "tags": {"addr:city": "New York", "addr:housenumber": "266", "addr:street": "West 47th Street", "amenity": "pub", "check_date": "2025-10-29", "name": "The Mean Fiddler", "website": "https://www.themeanfiddlernyc.com/"}}, {"type": "node", "id": 2678783476, "lat": 40.7614452, "lon": -73.9837559, "tags": {"addr:city": "New York", "addr:country": "US", "addr:housenumber": "205", "addr:postcode": "10019", "addr:state": "NY", "addr:street": "West 50th Street", "amenity": "restaurant", "brand": "Applebee's Neighborhood Grill & Bar", "brand:wikidata": "Q621532", "check_date": "2024-03-07", "cuisine": "american", "name": "Applebee's", "official_name": "Applebee's Neighborhood Grill & Bar", "opening_hours": "Su-Th 07:00-24:00; Fr-Sa 07:00-01:00", "phone": "+1 212-262-2400", "website": "https://restaurants.applebees.com/en-us/ny/new-york/205-w-50th-street-98001", "website:menu": "https://www.applebees.com/en/menu?StoreNumber=98001&action=viewmenu"}}, {"type": "node", "id": 2678783479, "lat": 40.7618484, "lon": -73.9835031, "tags": {"addr:city": "New York", "addr:country": "US", "addr:housenumber": "1650", "addr:postcode": "10019", "addr:state": "NY", "addr:street": "Broadway", "amenity": "restaurant", "cuisine": "american", "name": "Ellen's Stardust Diner", "name_alt": "Ellen's Stardust Dinner", "website": "https://www.ellensstardustdiner.com/", "wikidata": "Q5364708", "wikipedia": "en:Ellen's Stardust Diner"}}, {"type": "node", "id": 2678783481, "lat": 40.7620837, "lon": -73.9833543, "tags": {"addr:city": "New York", "addr:housenumber": "156", "addr:postcode": "10019", "addr:state": "NY", "addr:street": "West 52nd Street", "amenity": "cafe", "branch": "Pickup - 52nd & 7th", "brand": "Starbucks", "brand:wikidata": "Q37158", "check_date": "2014-10-06", "cuisine": "coffee_shop", "name": "Starbucks", "official_name": "Starbucks Coffee", "phone": "+1 212-245-6479", "ref": "11393", "takeaway": "yes", "website": "https://www.starbucks.com/store-locator/store/11393/pickup-52nd-7th-156-w-52nd-st-new-york-ny-100196004-us"}}, {"type": "node", "id": 2689589690, "lat": 40.7592453, "lon": -73.9853339, "tags": {"addr:city": "New York", "addr:housenumber": "1567", "addr:postcode": "10036", "addr:street": "Broadway", "amenity": "restaurant", "cuisine": "seafood", "name": "Blue Fin", "website": "https://www.bluefinnyc.com/"}}, {"type": "node", "id": 2708133540, "lat": 40.7635051, "lon": -73.9809828, "tags": {"addr:city": "New York", "addr:housenumber": "159", "addr:postcode": "10019", "addr:state": "NY", "addr:street": "West 54th Street", "amenity": "bar", "brewery": "Lagunitas;Goose_Island;Bell's;Brooklyn_Lager", "cocktails": "yes", "cuisine": "salad;sandwich", "drink:beer": "yes", "drink:liquor": "yes", "drink:wine": "yes", "happy_hours": "yes", "name": "Faces and Names", "opening_hours": "Mo-Sa 11:00-04:00, Sa 12:00-04:00", "operator": "Faces and Names", "phone": "+1-212-586-9311", "reservation": "yes", "toilets": "yes", "wheelchair": "no"}}, {"type": "node", "id": 2708164827, "lat": 40.764288, "lon": -73.981397, "tags": {"addr:housenumber": "200", "addr:postcode": "10019", "addr:street": "West 55th Street", "alt_name": "The Corner", "amenity": "restaurant", "cocktails": "yes", "cuisine": "mexican", "drink:beer": "yes", "drink:coffee": "yes", "drink:wine": "yes", "name": "La Esquina", "opening_hours": "Mo-Su 11:00-22:00", "outdoor_seating": "sidewalk", "phone": "+1-646-613-7100", "website": "https://www.esquinanyc.com/location/la-esquina-nyc-midtown/", "wheelchair": "yes"}}, {"type": "node", "id": 2708164893, "lat": 40.7641932, "lon": -73.9812315, "tags": {"addr:housenumber": "856", "addr:postcode": "10019", "addr:street": "7th Avenue", "amenity": "cafe", "name": "Premier Deli Caf\u00e9"}}, {"type": "node", "id": 2709967883, "lat": 40.7638814, "lon": -73.985773}, {"type": "node", "id": 2709967911, "lat": 40.763958, "lon": -73.9857167}, {"type": "node", "id": 2709967930, "lat": 40.7640193, "lon": -73.9856717}, {"type": "node", "id": 2709967942, "lat": 40.76408, "lon": -73.9862411}, {"type": "node", "id": 2709967945, "lat": 40.7640831, "lon": -73.9856249}, {"type": "node", "id": 2709967963, "lat": 40.7641248, "lon": -73.9862082}, {"type": "node", "id": 2709967981, "lat": 40.7641567, "lon": -73.9861848}, {"type": "node", "id": 2709967999, "lat": 40.7641765, "lon": -73.9855564}, {"type": "node", "id": 2709968000, "lat": 40.7641773, "lon": -73.9861697}, {"type": "node", "id": 2709968018, "lat": 40.7641963, "lon": -73.9856031}, {"type": "node", "id": 2709968071, "lat": 40.7642427, "lon": -73.9861216}, {"type": "node", "id": 2709968120, "lat": 40.7642867, "lon": -73.9858161}, {"type": "node", "id": 2709968122, "lat": 40.7642898, "lon": -73.9860871}, {"type": "node", "id": 2709968141, "lat": 40.7643188, "lon": -73.9860658}, {"type": "node", "id": 2709968170, "lat": 40.7643415, "lon": -73.9859452}, {"type": "node", "id": 2709968183, "lat": 40.7643534, "lon": -73.9861473}, {"type": "node", "id": 2709968210, "lat": 40.7643815, "lon": -73.9859159}, {"type": "node", "id": 2709968212, "lat": 40.7643886, "lon": -73.9861214}, {"type": "node", "id": 2709968228, "lat": 40.7644355, "lon": -73.9858763}, {"type": "node", "id": 2709968230, "lat": 40.7644397, "lon": -73.9860839}, {"type": "node", "id": 2709968251, "lat": 40.7644879, "lon": -73.9860486}, {"type": "node", "id": 2709968258, "lat": 40.7645037, "lon": -73.986037}, {"type": "node", "id": 2710031799, "lat": 40.7615479, "lon": -73.9868708, "tags": {"addr:housenumber": "807", "addr:postcode": "10019", "addr:street": "8th Avenue", "amenity": "restaurant", "cocktails": "yes", "cuisine": "diner", "delivery": "yes", "drink:beer": "yes", "drink:wine": "yes", "name": "Times Square Diner & Grill", "opening_hours": "Mo-Su 07:00-23:00", "phone": "+1 212-315-2400", "takeaway": "yes", "website": "https://ordertimessquarediner.com/"}}, {"type": "node", "id": 2717293852, "lat": 40.7597407, "lon": -73.9861863, "tags": {"addr:city": "New York", "addr:housenumber": "228", "addr:postcode": "10036", "addr:street": "West 47th Street", "amenity": "bar", "check_date": "2025-10-28", "name": "Rum House"}}, {"type": "node", "id": 2717293878, "lat": 40.7605323, "lon": -73.9870469, "tags": {"addr:city": "New York", "addr:housenumber": "776", "addr:postcode": "10036", "addr:state": "NY", "addr:street": "8th Avenue", "amenity": "restaurant", "bar": "yes", "cuisine": "korean;american", "email": "info@guinyc.com", "name": "Gui Steakhouse", "phone": "+16463295929", "website": "https://guinyc.com/"}}, {"type": "node", "id": 2717323719, "lat": 40.7602955, "lon": -73.9845027, "tags": {"addr:housenumber": "1600", "addr:postcode": "10019", "addr:street": "Broadway", "amenity": "cafe", "brand": "Gong Cha", "brand:wikidata": "Q5581670", "brand:zh": "\u8ca2\u8336", "cuisine": "bubble_tea", "int_name": "Gong Cha", "name": "Gong Cha", "name:zh": "\u8ca2\u8336", "opening_hours": "Su-We 11:00-22:30; Th-Sa 11:00-23:00", "takeaway": "yes"}}, {"type": "node", "id": 2717323748, "lat": 40.7615479, "lon": -73.9837434, "tags": {"addr:city": "New York", "addr:housenumber": "1634", "addr:postcode": "10019", "addr:street": "Broadway", "amenity": "restaurant", "cuisine": "chinese", "name": "Nanking", "website": "https://www.nankingrestaurantgroup.com/"}}, {"type": "node", "id": 2717323791, "lat": 40.7608991, "lon": -73.986314, "tags": {"addr:housenumber": "235", "addr:postcode": "10036", "addr:street": "West 48th Street", "amenity": "restaurant", "contact:email": "info@lamasserianyc.com", "contact:fax": "+1 212-582-2420", "contact:instagram": "lamasserianyc", "contact:phone": "+1-212-582-2111", "contact:website": "https://lamasserianyc.com/", "cuisine": "italian", "delivery": "yes", "drink:wine": "served", "name": "La Masseria", "opening_hours": "Mo 12:00-15:00, 16:30-23:00; Tu-Sa 12:00-15:00, 16:30-24:00; Su 12:00-22:30", "reservation": "yes", "takeaway": "yes"}}, {"type": "node", "id": 2717355367, "lat": 40.7634867, "lon": -73.9847984, "tags": {"addr:housenumber": "265", "addr:postcode": "10019", "addr:street": "West 52nd Street", "amenity": "bar", "name": "Russian Vodka Room"}}, {"type": "node", "id": 2717546150, "lat": 40.7594997, "lon": -73.9831421}, {"type": "node", "id": 2717546205, "lat": 40.7597028, "lon": -73.9829935}, {"type": "node", "id": 2717546209, "lat": 40.7597089, "lon": -73.983004}, {"type": "node", "id": 2717546319, "lat": 40.7599823, "lon": -73.9828041}, {"type": "node", "id": 2717546353, "lat": 40.7600926, "lon": -73.9825761}, {"type": "node", "id": 2717546365, "lat": 40.7601674, "lon": -73.9827477}, {"type": "node", "id": 2717546378, "lat": 40.760203, "lon": -73.9827113}, {"type": "node", "id": 2717546381, "lat": 40.7602064, "lon": -73.9827194}, {"type": "node", "id": 2717546387, "lat": 40.7603189, "lon": -73.9824107}, {"type": "node", "id": 2717546406, "lat": 40.7603852, "lon": -73.9825551}, {"type": "node", "id": 2717546409, "lat": 40.7603929, "lon": -73.9825734}, {"type": "node", "id": 2717546457, "lat": 40.7605821, "lon": -73.9824121}, {"type": "node", "id": 2717546460, "lat": 40.7605937, "lon": -73.9824399}, {"type": "node", "id": 2717546466, "lat": 40.7606339, "lon": -73.9824107}, {"type": "node", "id": 2721574108, "lat": 40.7605232, "lon": -73.9861219, "tags": {"addr:city": "New York", "addr:housenumber": "232", "addr:postcode": "10036", "addr:street": "West 48th Street", "amenity": "pub", "cuisine": "american", "name": "Hurley's", "website": "https://www.hurleysnyc.com/"}}, {"type": "node", "id": 2721574113, "lat": 40.7606849, "lon": -73.9865304, "tags": {"addr:city": "New York", "addr:housenumber": "244", "addr:postcode": "10036", "addr:street": "West 48th Street", "amenity": "restaurant", "cuisine": "thai", "name": "Pongsri", "website": "http://www.pongsri.net/", "wheelchair": "no"}}, {"type": "node", "id": 2721574118, "lat": 40.7606569, "lon": -73.9864408, "tags": {"addr:city": "New York", "addr:housenumber": "234", "addr:postcode": "10036", "addr:street": "West 48th Street", "amenity": "restaurant", "cuisine": "vietnamese;japanese", "delivery": "yes", "name": "An'nam", "opening_hours": "Mo-Su 11:30-21:00", "phone": "+1-212-247-6042", "takeaway": "yes", "website": "https://www.annamnyc.com/", "wheelchair": "yes"}}, {"type": "node", "id": 2721574123, "lat": 40.7604406, "lon": -73.987191, "tags": {"addr:city": "New York", "addr:housenumber": "770", "addr:postcode": "10036", "addr:state": "NY", "addr:street": "8th Avenue", "amenity": "cafe", "branch": "47th & 8th", "brand": "Starbucks", "brand:wikidata": "Q37158", "check_date": "2025-04-29", "cuisine": "coffee_shop", "name": "Starbucks", "official_name": "Starbucks Coffee", "phone": "+1 212-830-9001", "takeaway": "yes", "website": "https://www.starbucks.com/store-locator/store/14350/47th-8th-770-eighth-ave-new-york-ny-100367017-us"}}, {"type": "node", "id": 2722857800, "lat": 40.75965, "lon": -73.985965, "tags": {"addr:city": "New York", "addr:housenumber": "228", "addr:postcode": "10036", "addr:street": "West 47th Street", "amenity": "restaurant", "name": "Friedman's"}}, {"type": "node", "id": 2722857817, "lat": 40.7599261, "lon": -73.9866455, "tags": {"addr:city": "New York", "addr:housenumber": "252", "addr:postcode": "10036", "addr:street": "West 47th Street", "amenity": "restaurant", "check_date": "2025-10-28", "name": "Glass House Tavern", "website": "https://glasshousetavern.com/"}}, {"type": "node", "id": 2722857832, "lat": 40.7598975, "lon": -73.9865625, "tags": {"addr:city": "New York", "addr:housenumber": "250", "addr:postcode": "10036", "addr:street": "West 47th Street", "amenity": "restaurant", "cuisine": "indian", "name": "Dilli Dilli"}}, {"type": "node", "id": 2722857837, "lat": 40.7599596, "lon": -73.9867307, "tags": {"addr:city": "New York", "addr:housenumber": "254", "addr:postcode": "10036", "addr:street": "West 47th Street", "amenity": "restaurant", "check_date": "2025-11-04", "cuisine": "italian", "name": "Trattoria Trecolori", "website": "https://www.trattoriatrecolori.com/"}}, {"type": "node", "id": 2727176211, "lat": 40.7642327, "lon": -73.9807509, "tags": {"addr:housenumber": "461", "addr:postcode": "10019", "addr:street": "7th Avenue", "amenity": "restaurant", "cuisine": "american", "drink:beer": "served", "drink:wine": "served", "email": "parkcafe@wellingtonhotel.com", "name": "Park Caf\u00e9", "opening_hours": "Mo-Fr, Su 06:00-02:00", "phone": "+1 212-315-4567", "website": "https://www.wellingtonhotel.com/dining/", "wheelchair": "limited"}}, {"type": "node", "id": 2958284620, "lat": 40.7632835, "lon": -73.9810028, "tags": {"addr:city": "New York", "addr:housenumber": "160", "addr:postcode": "10019", "addr:street": "West 54th Street", "amenity": "pub", "name": "Old Castle", "website": "http://www.oldcastlepub.com/"}}, {"type": "node", "id": 3067940109, "lat": 40.7627917, "lon": -73.9850724, "tags": {"addr:city": "New York", "addr:housenumber": "251", "addr:postcode": "10019", "addr:street": "West 51st Street", "amenity": "pub", "name": "McHale's Pub", "official_name": "McHale's Bar & Grill", "website": "http://mchalespub.com/"}}, {"type": "node", "id": 3067940118, "lat": 40.7623757, "lon": -73.9858109, "tags": {"addr:city": "New York", "addr:housenumber": "832", "addr:postcode": "10019", "addr:street": "8th Avenue", "amenity": "restaurant", "name": "Sosa Borella", "website": "http://www.sosaborella.com/", "wheelchair": "yes"}}, {"type": "node", "id": 3246839599, "lat": 40.7640857, "lon": -73.9867718, "tags": {"addr:housenumber": "346", "addr:postcode": "10019", "addr:street": "West 52nd Street", "amenity": "restaurant", "check_date": "2023-01-13", "cuisine": "korean", "name": "Danji", "payment:credit_cards": "yes"}}, {"type": "node", "id": 3577940193, "lat": 40.7631875, "lon": -73.9847037, "tags": {"addr:housenumber": "256", "addr:street": "West 52nd Street", "amenity": "restaurant", "bar": "yes", "cocktails": "yes", "cuisine": "russian", "drink:beer": "bottled", "drink:liquor": "yes", "drink:wine": "yes", "live_music": "yes", "name": "Russian Samovar Restaurant and Piano Bar", "opening_hours": "Mo 17:00-02:00; Tu-Th 12:00-02:00; Fr-Su 12:00-04:00", "opening_hours:kitchen": "Mo 17:00-00:00; Tu-Th 12:00-00:00; Fr-Sa 12:00-01:00; Su 12:00-04:00", "payment:credit_cards": "yes", "payment:debit_cards": "yes", "phone": "+1-212-757-0168", "reservation": "yes", "toilets": "yes", "toilets:access": "customers", "toilets:unisex": "no", "toilets:wheelchair": "no", "website": "https://www.russiansamovar.com/", "wheelchair": "yes"}}, {"type": "node", "id": 3932353663, "lat": 40.7613945, "lon": -73.981691, "tags": {"addr:city": "New York", "addr:country": "US", "addr:housenumber": "155", "addr:postcode": "10019", "addr:state": "NY", "addr:street": "West 51st Street", "amenity": "restaurant", "cuisine": "french;seafood", "name": "Le Bernardin", "opening_hours": "Mo-Th 12:00-14:30, 17:15-22:30; Fr 12:00-14:30, 17:15-23:00; Sa 17:15-23:00", "phone": "+1-212-554-1515", "stars": "3", "website": "https://www.le-bernardin.com/", "wheelchair": "yes", "wikidata": "Q6506539", "wikipedia": "en:Le Bernardin"}}, {"type": "node", "id": 3995212060, "lat": 40.7600927, "lon": -73.9825066, "tags": {"addr:city": "New York", "addr:housenumber": "123", "addr:postcode": "10020", "addr:street": "West 49th Street", "alt_name": "Sushiden 6th Ave", "amenity": "restaurant", "cuisine": "japanese", "name": "Sushiden", "website": "http://sushiden.com/"}}, {"type": "node", "id": 4151778391, "lat": 40.763547, "lon": -73.9865301, "tags": {"addr:housenumber": "321", "addr:street": "West 51st Street", "amenity": "restaurant", "brand": "Ippudo", "brand:en": "Ippudo", "brand:ja": "\u4e00\u98a8\u5802", "brand:wikidata": "Q6065417", "cuisine": "ramen", "name": "Ippudo", "name:en": "Ippudo", "name:ja": "\u4e00\u98a8\u5802"}}, {"type": "node", "id": 4188132390, "lat": 40.7616147, "lon": -73.9868436, "tags": {"addr:housenumber": "811", "addr:street": "8th Avenue", "amenity": "restaurant", "name": "Kung Fu Little Steamed Buns"}}, {"type": "node", "id": 4278330892, "lat": 40.7628531, "lon": -73.9838317, "tags": {"addr:housenumber": "228", "addr:postcode": "10019", "addr:street": "West 52nd Street", "amenity": "restaurant", "cocktails": "yes", "contact:facebook": "https://www.facebook.com/GallaghersNYC", "contact:instagram": "https://www.instagram.com/gallaghersnyc", "contact:twitter": "https://twitter.com/GallaghersNYC", "cuisine": "american;steak_house", "drink:beer": "yes", "drink:wine": "yes", "name": "Gallaghers Steakhouse", "opening_hours": "Mo-Sa 11:45-23:30; Su 11:45-22:30", "phone": "+1 212-586-5000", "reservation": "yes", "start_date": "1927", "website": "https://gallaghersnysteakhouse.com/", "wikidata": "Q5518818", "wikipedia": "en:Gallagher's Steakhouse"}}, {"type": "node", "id": 4317887892, "lat": 40.7636131, "lon": -73.9849057, "tags": {"addr:postcode": "10019", "amenity": "restaurant", "cuisine": "american;breakfast;diner", "name": "Cosmic Diner", "opening_hours": "24/7", "phone": "+12123335888", "wheelchair": "yes"}}, {"type": "node", "id": 4402180605, "lat": 40.7636783, "lon": -73.9823708, "tags": {"addr:city": "New York", "addr:housenumber": "1700", "addr:postcode": "10019", "addr:state": "NY", "addr:street": "Broadway", "amenity": "cafe", "branch": "54th and Broadway", "brand": "Starbucks", "brand:wikidata": "Q37158", "check_date": "2024-06-07", "cuisine": "coffee_shop", "internet_access": "wlan", "internet_access:fee": "no", "name": "Starbucks", "official_name": "Starbucks Coffee", "phone": "+1 212-245-0761", "ref": "1010184", "takeaway": "yes", "website": "https://www.starbucks.com/store-locator/store/1010184/54th-and-broadway-1700-broadway-new-york-ny-100195905-us", "wheelchair": "yes"}}, {"type": "node", "id": 4435477389, "lat": 40.7643224, "lon": -73.9873646, "tags": {"addr:housenumber": "355", "addr:street": "West 52nd Street", "amenity": "bar", "internet_access": "wlan", "lgbtq": "primary", "name": "Industry", "name:en": "Industry", "sport": "billiards", "wheelchair": "no"}}, {"type": "node", "id": 4443479889, "lat": 40.7607731, "lon": -73.9808203, "tags": {"addr:housenumber": "110", "addr:street": "West 51st Street", "amenity": "restaurant", "brand": "Ted's Montana Grill", "brand:wikidata": "Q16953170", "cuisine": "american", "name": "Ted's Montana Grill", "name:en": "Ted's Montana Grill", "opening_hours": "Su-Th 11:00-21:00; Fr,Sa 11:00-22:00"}}, {"type": "node", "id": 4479721389, "lat": 40.7643286, "lon": -73.984836, "tags": {"addr:housenumber": "891", "addr:postcode": "10019", "addr:street": "8th Avenue", "amenity": "cafe", "cuisine": "bagel", "delivery": "yes", "name": "Pick a Bagel", "opening_hours": "Mo-Su 07:00-19:00", "phone": "+1 212-582-8333", "website": "https://www.pickabagel.net/", "wheelchair": "yes"}}, {"type": "node", "id": 4545006872, "lat": 40.7601231, "lon": -73.9826461}, {"type": "node", "id": 4545006873, "lat": 40.7604822, "lon": -73.9820496}, {"type": "node", "id": 4545006874, "lat": 40.7605918, "lon": -73.9823106}, {"type": "node", "id": 4687113395, "lat": 40.7602363, "lon": -73.9873789, "tags": {"amenity": "restaurant", "check_date": "2025-10-28", "name": "Carve: Unique Sandwich", "name:en": "Carve: Unique Sandwich"}}, {"type": "node", "id": 4708892894, "lat": 40.7617708, "lon": -73.9850779, "tags": {"addr:housenumber": "226", "addr:street": "West 50th Street", "amenity": "restaurant", "contact:email": "info@natsuminyc.com", "contact:facebook": "natsuminyc", "contact:instagram": "natsuminyc", "contact:phone": "+1-212-258-2988", "contact:twitter": "natsumi_nyc", "contact:website": "http://natsuminyc.com/", "cuisine": "sushi;japanese", "delivery": "yes", "name": "Natsumi", "opening_hours": "Mo-Th 16:00-18:30; Fr, Sa 15:30-23:00", "reservation": "yes", "seats": "97", "takeaway": "yes", "wheelchair": "limited"}}, {"type": "node", "id": 4755575516, "lat": 40.7633892, "lon": -73.9818081, "tags": {"addr:city": "New York", "addr:housenumber": "834", "addr:postcode": "10019", "addr:state": "NY", "addr:street": "7th Avenue", "amenity": "restaurant", "cuisine": "burger;sandwich", "email": "contact@roxydelicatessen.com", "name": "Roxy Diner & Delicatessen", "opening_hours": "Mo-Su 09:00-21:00", "phone": "+1-646-688- 3055", "website": "https://www.roxydelicatessen.com"}}, {"type": "node", "id": 4794092321, "lat": 40.7613487, "lon": -73.9822791, "tags": {"addr:housenumber": "148", "addr:postcode": "10019", "addr:street": "West 51st Street", "amenity": "restaurant", "brand": "Ruth's Chris Steak House", "brand:wikidata": "Q7382829", "cuisine": "american;steak_house", "name": "Ruth's Chris Steak House", "name:de": "Ruth's Chris Steak House", "phone": "+1 212 265 9600", "website": "https://www.ruthschris.com/"}}, {"type": "node", "id": 4799733303, "lat": 40.7592111, "lon": -73.9804982, "tags": {"addr:city": "New York", "addr:housenumber": "67", "addr:postcode": "10112", "addr:state": "NY", "addr:street": "West 49th Street", "amenity": "restaurant", "cuisine": "seafood", "description": "Oyster Bar focusing on cocktails, seafood, and classic bar snacks", "image": "https://images.squarespace-cdn.com/content/v1/61845d79f159c9288123a385/de8edb92-e011-42a3-b7fc-dbf9bc845c36/Pebble-Bar_3rd-FL_005.jpg", "name": "Pebble Bar", "opening_hours": "Mo-We 16:00-24:00; Th-Sa 16:00-02:00; Su 16:00-24:00", "website": "https://www.pebblebarnyc.com/", "wheelchair": "yes"}}, {"type": "node", "id": 4909127627, "lat": 40.761217, "lon": -73.987191, "tags": {"amenity": "restaurant", "cuisine": "mexican", "name": "Sombrero"}}, {"type": "node", "id": 5061206121, "lat": 40.7609089, "lon": -73.985336, "tags": {"addr:postcode": "10019", "amenity": "restaurant", "cuisine": "italian", "name": "Da Marino", "name:en": "Da Marino", "opening_hours": "Mo-Th 11:00-01:00; Fr-Sa 11:00-02:00", "phone": "+1-212-541-6601", "website": "http://www.damarino.com", "wheelchair": "no", "wikidata": "Q16974386"}}, {"type": "node", "id": 5425647820, "lat": 40.7619612, "lon": -73.9843717, "tags": {"addr:city": "New York", "addr:floor": "37-38", "addr:housenumber": "1633", "addr:postcode": "10019", "addr:street": "Broadway", "name": "MongoDB", "office": "it", "phone": "+1 866 237 8815", "website": "https://www.mongodb.com/"}}, {"type": "node", "id": 5599496976, "lat": 40.7628613, "lon": -73.985265, "tags": {"addr:city": "New York", "addr:housenumber": "253", "addr:postcode": "10019", "addr:state": "NY", "addr:street": "West 51st Street", "amenity": "cafe", "cuisine": "coffee;coffee_shop;tea;dessert;bakery", "name": "Bibble & Sip", "opening_hours": "Mo-Fr 07:30-20:00, Sa-Su 10:00-20:00", "outdoor_seating": "yes", "phone": "+1-646-649-5116", "wheelchair": "yes"}}, {"type": "node", "id": 5762582555, "lat": 40.7622424, "lon": -73.9832858, "tags": {"addr:housenumber": "1650", "addr:postcode": "10019", "addr:street": "Broadway", "amenity": "pub", "name": "Iridium Jazz Club", "opening_hours": "Mo-Su 18:00-00:00", "phone": "+12125822121", "wikidata": "Q1331383"}}, {"type": "node", "id": 5840679445, "lat": 40.7608042, "lon": -73.9842008, "tags": {"addr:housenumber": "1626", "addr:postcode": "10019", "addr:street": "Broadway", "air_conditioning": "yes", "amenity": "restaurant", "branch": "49th Street", "check_date": "2025-05-03", "cocktails": "yes", "name": "Junior's", "opening_hours": "Mo-Th,Su 07:00-24:00; Fr-Sa 07:00-01:00", "outdoor_seating": "no", "phone": "+1 212-365-5900", "smoking": "no", "takeaway": "yes", "toilets": "yes", "website": "https://www.juniorscheesecake.com/blog/restaurants/49thstreet/", "wheelchair": "limited"}}, {"type": "node", "id": 5922862086, "lat": 40.7611297, "lon": -73.9839743, "tags": {"addr:housenumber": "1626", "addr:street": "Broadway", "amenity": "restaurant", "name": "Junior's Deli"}}, {"type": "node", "id": 5978510504, "lat": 40.7630158, "lon": -73.9853514, "tags": {"addr:city": "New York", "addr:housenumber": "852", "addr:postcode": "10019", "addr:state": "NY", "addr:street": "8th Avenue", "amenity": "restaurant", "contact:website": "https://www.romapizzaon8thave.com/", "cuisine": "pizza", "name": "Roma Pizza", "wheelchair": "yes"}}, {"type": "node", "id": 5985838985, "lat": 40.7596521, "lon": -73.9852254, "tags": {"addr:city": "New York", "addr:housenumber": "1585", "addr:postcode": "10036", "addr:state": "NY", "addr:street": "Broadway", "amenity": "cafe", "branch": "47th & Broadway", "brand": "Starbucks", "brand:wikidata": "Q37158", "cuisine": "coffee_shop", "name": "Starbucks", "official_name": "Starbucks Coffee", "opening_hours": "Mo-Th 05:30-00:00; Fr-Sa 05:30-02:00; Su 05:30-01:00", "phone": "+1 212-541-7515", "takeaway": "yes", "website": "https://www.starbucks.com/store-locator/store/1005509/47th-broadway-1585-broadway-new-york-ny-100368200-us"}}, {"type": "node", "id": 6008970685, "lat": 40.7606732, "lon": -73.985793, "tags": {"amenity": "cafe", "name": "Masseria Caffe & Bakery", "opening_hours": "Tu-Fr 07:00-20:00; Sa 08:00-20:00; Su 08:00-16:00; Mo 07:00-19:00", "wheelchair": "yes"}}, {"type": "node", "id": 6053407685, "lat": 40.7599574, "lon": -73.9831315, "tags": {"amenity": "restaurant", "cuisine": "deli", "name": "Toasties", "opening_hours": "Mo-Th 06:00-17:00, Fr-Su 06:00-20:00", "phone": "+1-212-398-4900", "website": "http://toastiesnyc.com"}}, {"type": "node", "id": 6223911885, "lat": 40.7629409, "lon": -73.984028, "tags": {"addr:postcode": "10019", "amenity": "restaurant", "name": "Victor\u2019s Caf\u00e9", "phone": "+1-212-586-7714"}}, {"type": "node", "id": 6345862104, "lat": 40.7620218, "lon": -73.9803454, "tags": {"amenity": "cafe", "check_date": "2024-05-14", "name": "Cafe 53", "opening_hours": "24/7"}}, {"type": "node", "id": 6418252593, "lat": 40.7594748, "lon": -73.9847715, "tags": {"amenity": "restaurant", "brand": "Olive Garden", "brand:wikidata": "Q3045312", "cuisine": "italian", "name": "Olive Garden"}}, {"type": "node", "id": 6426977889, "lat": 40.7601612, "lon": -73.9864034, "tags": {"amenity": "restaurant", "brand": "Buffalo Wild Wings", "brand:wikidata": "Q509255", "cuisine": "wings", "internet_access": "wlan", "name": "Buffalo Wild Wings", "opening_hours": "Mo-Su 11:00-00:00", "phone": "+1-212-265-9453", "short_name": "BW3"}}, {"type": "node", "id": 6466486185, "lat": 40.7641961, "lon": -73.9832028, "tags": {"addr:postcode": "10019", "amenity": "restaurant", "check_date": "2023-01-14", "name": "Iguana New York", "wheelchair": "no"}}, {"type": "node", "id": 6475002986, "lat": 40.7612776, "lon": -73.9828873, "tags": {"addr:housenumber": "761", "addr:street": "7th Avenue", "amenity": "restaurant", "cuisine": "steak_house", "name": "Tad\u2019s Steakhouse"}}, {"type": "node", "id": 6648520617, "lat": 40.7638111, "lon": -73.982806, "tags": {"addr:city": "New York", "addr:housenumber": "1697", "addr:postcode": "10019", "addr:state": "NY", "addr:street": "Broadway", "amenity": "restaurant", "cuisine": "pizza", "delivery": "yes", "name": "Angelo's Pizza", "opening_hours": "Mo-Su 11:00-03:00", "origin": "italian", "phone": "+1-347-875-6198", "takeaway": "yes", "website": "https://www.angelosbroadway.com/"}}, {"type": "node", "id": 6898115690, "lat": 40.7639513, "lon": -73.9819712, "tags": {"addr:housenumber": "205", "addr:postcode": "10019", "addr:street": "West 54th Street", "amenity": "bar", "cocktails": "yes", "contact:facebook": "https://www.facebook.com/flutemidtown", "contact:instagram": "https://www.instagram.com/FluteBar/", "contact:twitter": "https://twitter.com/Champagnebar", "drink:wine": "yes", "happy_hours": "Tu 16:00-20:00", "level": "-1", "name": "Fl\u00fbte", "opening_hours": "Mo, Su 16:00-01:00; Tu, We 16:00-02:00; Th 16:00-03:00; Fr, Sa 16:00-04:00", "phone": "+1 212-265-5169", "reservation": "yes", "website": "http://www.flutebar.com/"}}, {"type": "node", "id": 6898129085, "lat": 40.7615503, "lon": -73.9859763, "tags": {"addr:postcode": "10019", "amenity": "bar", "name": "Lillie\u2018s", "phone": "+1-212-957-4530", "website": "https://www.lilliesnyc.com/", "wheelchair": "yes"}}, {"type": "node", "id": 7055777987, "lat": 40.762939, "lon": -73.9821435, "tags": {"amenity": "restaurant", "name": "Lindys"}}, {"type": "node", "id": 8757557471, "lat": 40.7613876, "lon": -73.980456, "tags": {"amenity": "restaurant", "check_date:opening_hours": "2023-09-15", "name": "Mastro's", "opening_hours:signed": "no", "payment:bitcoincash": "yes", "website": "https://www.mastrosrestaurants.com/location/mastros-steakhouse-new-york"}}, {"type": "node", "id": 8791561183, "lat": 40.7630679, "lon": -73.9834068, "tags": {"addr:housenumber": "1675", "addr:street": "Broadway", "level": "23", "name": "Saatchi & Saatchi Wellness", "office": "company", "website": "https://www.saatchiwellness.com"}}, {"type": "node", "id": 8939922344, "lat": 40.7643561, "lon": -73.9854472, "tags": {"addr:housenumber": "310", "amenity": "restaurant", "indoor_seating": "yes", "name": "Turkuaz", "outdoor_seating": "yes"}}, {"type": "node", "id": 9049424120, "lat": 40.7623492, "lon": -73.9867012, "tags": {"amenity": "restaurant", "level": "0", "name": "The Blue Dog Cookhouse & Bar"}}, {"type": "node", "id": 9094620024, "lat": 40.7629436, "lon": -73.986239, "tags": {"amenity": "bar", "name": "Dolly Varden"}}, {"type": "node", "id": 9313457709, "lat": 40.7607466, "lon": -73.9847512, "tags": {"amenity": "restaurant", "name": "The Harrison Restaurant & Bar"}}, {"type": "node", "id": 9611990778, "lat": 40.7627414, "lon": -73.9849799, "tags": {"addr:city": "New York", "addr:housenumber": "245A", "addr:postcode": "10019", "addr:state": "NY", "addr:street": "West 51st Street", "amenity": "restaurant", "cuisine": "japanese;ramen;sushi;yakitori;sake;shochu;cocktails", "name": "Sake Bar Hagi", "opening_hours": "Mo-We 17:00-23:00; Th 17:00-00:00; Fr 17:00-01:00; Sa 12:00-15:00,16:00-01:00; Su 12:00-15:00,16:00-23:00", "phone": "+1-212-956-2429", "website": "https://sakebar-hagi.com/"}}, {"type": "node", "id": 9784340519, "lat": 40.7624715, "lon": -73.9811369, "tags": {"addr:housenumber": "152", "addr:street": "West 52nd Street", "amenity": "cafe", "name": "Partners Coffee"}}, {"type": "node", "id": 9784352417, "lat": 40.759942, "lon": -73.9816372, "tags": {"amenity": "cafe", "name": "Le Caffe Coffee"}}, {"type": "node", "id": 9815615205, "lat": 40.7604274, "lon": -73.9840645, "tags": {"addr:city": "New York", "addr:housenumber": "736", "addr:state": "NY", "addr:street": "7th Avenue", "amenity": "restaurant", "cuisine": "pizza", "name": "Famous Original Ray's Pizza"}}, {"type": "node", "id": 9853378374, "lat": 40.762535, "lon": -73.9857038, "tags": {"addr:city": "New York", "addr:housenumber": "840", "addr:state": "NY", "addr:street": "8th Avenue", "amenity": "restaurant", "cuisine": "pizza", "name": "Famous Amadeus"}}, {"type": "node", "id": 10108219017, "lat": 40.7636094, "lon": -73.9867217, "tags": {"amenity": "restaurant", "cuisine": "italian", "name": "ViceVersa", "opening_hours": "Tu-Fr 16:30-22:30; Sa 17:30-22:30; Su 11:30-15:00, 16:30-22:30", "phone": "+1-212-399-9291", "website": "https://www.viceversanyc.com/"}}, {"type": "node", "id": 10261258830, "lat": 40.7596078, "lon": -73.9830636}, {"type": "node", "id": 10547810049, "lat": 40.7601354, "lon": -73.9832283, "tags": {"addr:city": "New York", "addr:housenumber": "152", "addr:postcode": "10019", "addr:state": "NY", "addr:street": "West 49th Street", "amenity": "restaurant", "branch": "Times Square", "cuisine": "japanese;ramen", "delivery": "yes", "name": "Ichiran", "opening_hours": "Mo-Th 12:00-21:00; Fr-Su 12:00-22:00", "outdoor_seating": "no", "payment:cash": "yes", "payment:credit_cards": "yes", "phone": "+1-646-964-4294", "takeaway": "yes", "website": "https://www.ichiranusa.com/location/times-square/"}}, {"type": "node", "id": 10559992345, "lat": 40.7597577, "lon": -73.9837192, "tags": {"addr:city": "New York", "addr:housenumber": "167", "addr:postcode": "10036", "addr:state": "NY", "addr:street": "West 48th Street", "amenity": "restaurant", "cuisine": "pizza", "delivery": "yes", "name": "Little Italy Pizza", "outdoor_seating": "sidewalk", "phone": "+1-646-360-2346", "takeaway": "yes"}}, {"type": "node", "id": 10794176923, "lat": 40.7600479, "lon": -73.9837966, "tags": {"alt_name": "Lagos Times Square", "amenity": "restaurant", "bar": "yes", "cocktails": "yes", "cuisine": "west_african", "drink:beer": "yes", "drink:liquor": "yes", "drink:wine": "yes", "name": "Lagos TSQ", "phone": "+1-212-281-0500", "website": "https://lagosnyc.com"}}, {"type": "node", "id": 11044225344, "lat": 40.7620418, "lon": -73.9860181, "tags": {"amenity": "restaurant", "check_date": "2024-03-07", "name": "Carnegie Diner & Cafe"}}, {"type": "node", "id": 11076895105, "lat": 40.7615722, "lon": -73.983214, "tags": {"addr:housenumber": "762", "addr:street": "7th Avenue", "amenity": "cafe", "name": "Gregory\u2019s coffee", "opening_hours": "Mo-Fr 06:00-20:30; Su,Sa 07:00-19:00"}}, {"type": "node", "id": 11335080026, "lat": 40.7603719, "lon": -73.9807662, "tags": {"amenity": "restaurant", "name": "Avra Rockefeller Center"}}, {"type": "node", "id": 11352644136, "lat": 40.7641497, "lon": -73.9850061, "tags": {"amenity": "restaurant", "branch": "To Go", "brand": "P.F. Chang's", "brand:wikidata": "Q5360181", "cuisine": "asian", "name": "P.F. Chang's", "official_name": "P.F. Chang's China Bistro"}}, {"type": "node", "id": 11384449991, "lat": 40.7643596, "lon": -73.9815651, "tags": {"addr:housenumber": "204", "addr:postcode": "10019", "addr:street": "West 55th Street", "amenity": "restaurant", "bar": "yes", "cuisine": "american;pub;brunch", "name": "Tanner Smith's", "outdoor_seating": "street", "website": "https://tannersmiths.com"}}, {"type": "node", "id": 11384449994, "lat": 40.7644186, "lon": -73.9817038, "tags": {"addr:housenumber": "210", "addr:postcode": "10019", "addr:street": "West 55th Street", "amenity": "bar", "cocktails": "yes", "drink:liquor": "yes", "drink:wine": "yes", "indoor_seating": "yes", "name": "The Ricky", "opening_hours": "Mo-Th 16:00-24:00; Fr-Sa 16:00-02:00", "outdoor_seating": "no", "phone": "+1-646-756-2054", "website": "https://taogroup.com/venues/the-rickey-cocktail-lounge-new-york/"}}, {"type": "node", "id": 11465739196, "lat": 40.7626575, "lon": -73.980662, "tags": {"addr:city": "New York", "addr:housenumber": "145", "addr:postcode": "10019", "addr:state": "NY", "addr:street": "West 53rd Street", "amenity": "restaurant", "cuisine": "french", "email": "lagrande@boucherie.nyc", "name": "La Grande Boucherie", "opening_hours": "Mo-Fr 08:00-24:00; Sa-Su 09:00-24:00", "phone": "+1-212-510-7714", "reservation": "yes", "website": "https://www.boucherieus.com/location/boucherie-la-grande-boucherie/"}}, {"type": "node", "id": 11773867097, "lat": 40.7606821, "lon": -73.986622, "tags": {"amenity": "restaurant", "name": "PS Kitchen", "opening_hours": "Su-Tu 11:00-22:00; We-Sa 11:00-23:00"}}, {"type": "node", "id": 11969588269, "lat": 40.7641352, "lon": -73.9830578, "tags": {"addr:housenumber": "236", "addr:street": "West 54 Street", "amenity": "bar", "name": "The Three Monkeys", "opening_hours": "Mo-Su 11:00-04:00", "phone": "+1-212-586-2080", "website": "https://www.thethreemonkeysbar.com/"}}, {"type": "node", "id": 12207819344, "lat": 40.7609179, "lon": -73.9823212, "tags": {"addr:city": "New York", "addr:housenumber": "80", "addr:postcode": "10011", "addr:state": "NY", "addr:street": "Fifth Avenue", "amenity": "cafe", "cuisine": "singaporean;coffee;bubble_tea", "name": "Kopifellas", "opening_hours": "Mo-Fr 09:00-21:00;Sa-Su 10:30-20:30", "phone": "+1-917-485-9846", "website": "https://www.kopifellas.com.sg/usa/"}}, {"type": "node", "id": 12286080701, "lat": 40.7620971, "lon": -73.984681, "tags": {"addr:postcode": "10019", "name": "Assured Guaranty", "office": "company", "website": "https://www.assuredguaranty.com"}}, {"type": "node", "id": 12646645001, "lat": 40.7601203, "lon": -73.9872499, "tags": {"addr:housenumber": "266", "addr:postcode": "10036", "addr:street": "West 47th Street", "amenity": "bar", "name": "The Woo Woo", "opening_hours": "Tu-Su 17:00-02:00", "website": "https://thewoowoonyc.com/"}}, {"type": "node", "id": 12818145480, "lat": 40.7596608, "lon": -73.9832831, "tags": {"addr:city": "New York", "addr:housenumber": "159", "addr:postcode": "10019", "addr:state": "NY", "addr:street": "West 48th Street", "amenity": "bar", "level": "34", "name": "RT60 Rooftop Bar & Lounge", "opening_hours": "Mo-Tu off; Th-Sa 17:00-02:00; Su,We 17:00-24:00", "outdoor_seating": "yes", "phone": "+1-212-970-1270", "website": "https://hotel.hardrock.com/new-york/rt60-rooftop-bar.aspx"}}, {"type": "node", "id": 13056469502, "lat": 40.7637149, "lon": -73.9852986, "tags": {"amenity": "cafe", "brand": "Starbucks", "brand:wikidata": "Q37158", "contact:phone": "+1 212 246 7699", "cuisine": "coffee_shop", "name": "Starbucks", "official_name": "Starbucks Coffee", "outdoor_seating": "no", "takeaway": "yes"}}, {"type": "node", "id": 13057970730, "lat": 40.7637429, "lon": -73.9848071, "tags": {"addr:postcode": "10019", "amenity": "restaurant", "cuisine": "coffee_shop", "name": "Ground Central Coffee Company", "opening_hours": "Mo-Su 07:00-19:00", "outdoor_seating": "yes", "self_service": "yes", "takeaway": "yes", "wheelchair": "yes"}}, {"type": "node", "id": 13067936661, "lat": 40.7624706, "lon": -73.983143, "tags": {"addr:housenumber": "1668", "addr:postcode": "10019", "addr:state": "NY", "addr:street": "West 52nd Street", "amenity": "cafe", "cuisine": "coffee_shop", "indoor_seating": "yes", "level": "0", "name": "inerro", "opening_hours": "Mo-Su 07:30-19:00", "takeaway": "yes", "website": "https://inerro.co/", "wheelchair": "limited"}}, {"type": "node", "id": 13270526606, "lat": 40.7593685, "lon": -73.9853155, "tags": {"amenity": "restaurant", "cuisine": "mexican", "name": "Dos Caminos"}}, {"type": "node", "id": 13304565268, "lat": 40.7599618, "lon": -73.9827619}, {"type": "node", "id": 13304565269, "lat": 40.7594857, "lon": -73.9831055}, {"type": "way", "id": 265329549, "nodes": [2709968170, 2709968120, 2709968018, 2709967999, 2709967945, 2709967930, 2709967911, 2709967883, 2709967942, 2709967963, 2709967981, 2709968000, 2709968071, 2709968122, 2709968141, 2709968183, 2709968212, 2709968230, 2709968251, 2709968258, 2709968228, 2709968210, 2709968170], "tags": {"addr:housenumber": "317", "addr:street": "West 52nd Street", "amenity": "school", "building": "school", "ele": "19", "gnis:feature_id": "961765", "height": "14.8", "name": "Public School 58", "nycdoitt:bin": "1025241", "wheelchair": "yes"}}, {"type": "way", "id": 458511171, "nodes": [2717546466, 2717546460, 2717546457, 2717546406, 2717546409, 2717546378, 2717546381, 2717546365, 4545006872, 2717546353, 2717546387, 1593328953, 1593328960, 4545006873, 4545006874, 2717546466], "tags": {"access": "yes", "highway": "pedestrian", "leisure": "park", "name": "745 Plaza"}}, {"type": "way", "id": 1317270172, "nodes": [2717546319, 13304565268, 530697969, 530697968, 13304565269, 2717546150, 10261258830, 2717546205, 2717546209, 2717546319], "tags": {"area": "yes", "highway": "pedestrian", "leisure": "park", "name": "McGraw-Hill Park", "surface": "concrete"}}]}