{"version": 0.6, "generator": "Overpass API 0.7.62.8 e802775f", "osm3s": {"timestamp_osm_base": "2025-12-01T17:09:00Z", "copyright": "The data included in this document is from www.openstreetmap.org. The data is made available under ODbL."}, "elements": [{"type": "node", "id": 970804002, "lat": 40.6762064, "lon": -73.9835898, "tags": {"amenity": "bar", "cocktails": "yes", "cuisine": "snack", "drink:beer": "draught", "drink:liquor": "yes", "drink:wine": "yes", "name": "Seven Bridges", "opening_hours": "Mo-Tu 17:00-01:00+; We-Su 14:00-02:00+", "outdoor_seating": "yes", "toilets": "yes", "toilets:unisex": "yes"}}, {"type": "node", "id": 1272678892, "lat": 40.6760626, "lon": -73.9812117}, {"type": "node", "id": 1272678893, "lat": 40.6759493, "lon": -73.9811057, "tags": {"barrier": "gate"}}, {"type": "node", "id": 1272678894, "lat": 40.6758313, "lon": -73.9807001, "tags": {"addr:housenumber": "223", "addr:postcode": "11215", "addr:street": "5th Avenue", "amenity": "restaurant", "atm": "yes", "bar": "yes", "cocktails": "yes", "cuisine": "mexican", "drink:beer": "yes", "drink:liquor": "yes", "drink:sangria": "yes", "drink:wine": "yes", "happy_hours": "Mo-Fr 12:00-19:00; Sa-Su 12:00-15:00", "name": "Mezcal's", "opening_hours": "Mo-Th 12:00-22:00; Fr-Sa 12:00-24:00; Su 12:00-22:00", "outdoor_seating": "sidewalk", "phone": "+1-718-783-3276"}}, {"type": "node", "id": 1272678895, "lat": 40.6759209, "lon": -73.9809367, "tags": {"barrier": "gate"}}, {"type": "node", "id": 1272678896, "lat": 40.6757312, "lon": -73.9810959, "tags": {"addr:housenumber": "230", "addr:postcode": "11215", "addr:street": "5th Avenue", "amenity": "restaurant", "cocktails": "yes", "cuisine": "seafood", "drink:beer": "draught", "drink:liquor": "yes", "drink:wine": "yes", "happy_hours": "Mo-Fr 17:00-19:00; Sa-Sa 12:00-19:00", "name": "Shaking Crab", "opening_hours": "Mo-Th 17:00-23:00; Fr 17:00-24:00; Sa 12:00-24:00; Su 12:00-22:00", "outdoor_seating": "yes", "phone": "+1 929 337 6140", "website": "https://www.shakingcrab.com", "wheelchair": "limited"}}, {"type": "node", "id": 1272678897, "lat": 40.6759472, "lon": -73.9809186}, {"type": "node", "id": 1272678898, "lat": 40.6758909, "lon": -73.9809572}, {"type": "node", "id": 1272678899, "lat": 40.6760062, "lon": -73.9812503}, {"type": "node", "id": 1337590407, "lat": 40.6808991, "lon": -73.986081}, {"type": "node", "id": 1337590438, "lat": 40.6804323, "lon": -73.9863978}, {"type": "node", "id": 1337590455, "lat": 40.6797694, "lon": -73.9846103}, {"type": "node", "id": 1337590479, "lat": 40.6802171, "lon": -73.9843328}, {"type": "node", "id": 2266394471, "lat": 40.6793311, "lon": -73.9814768, "tags": {"addr:housenumber": "149", "addr:postcode": "11217", "addr:street": "4th Avenue", "amenity": "bar", "cocktails": "yes", "cuisine": "charcuterie;snack", "drink:liquor": "yes", "drink:wine": "yes", "name": "The Armory", "opening_hours": "Tu-Th 17:00-24:00; Fr-Sa 17:00-02:00", "phone": "+1-929-337-8476", "website": "https://www.thearmorybk.com"}}, {"type": "node", "id": 2494253274, "lat": 40.6798042, "lon": -73.9816917, "tags": {"addr:city": "Brooklyn", "addr:housenumber": "152", "addr:postcode": "11217", "addr:state": "NY", "addr:street": "4th Avenue", "brand": "Allstate", "brand:wikidata": "Q2645636", "name": "Allstate Sequoia Agency", "office": "insurance", "opening_hours": "Mo-Fr 09:00-18:00", "phone": "+1 718 951 7600"}}, {"type": "node", "id": 2494253287, "lat": 40.6796457, "lon": -73.9817996, "tags": {"name": "Eye Level", "office": "tutoring", "phone": "+1 718 494 1232", "website": "http://www.eyelevelny.com"}}, {"type": "node", "id": 2494253451, "lat": 40.680117, "lon": -73.9819955}, {"type": "node", "id": 2494253552, "lat": 40.6783968, "lon": -73.9852432}, {"type": "node", "id": 2494253567, "lat": 40.679087, "lon": -73.9835476, "tags": {"addr:housenumber": "622", "addr:postcode": "11217", "addr:street": "Degraw Street", "amenity": "bar", "cuisine": "pizza", "drink:beer": "bottled", "drink:liquor": "no", "drink:wine": "yes", "name": "Kick Axe", "opening_hours": "Mo-Th 16:00-23:00; Fr 12:30-01:00; Sa 11:30-01:00; Su 11:30-22:00", "phone": "+1-833-542-5293", "sport": "axe_throwing", "website": "https://www.kickaxe.com/brooklyn"}}, {"type": "node", "id": 2494253581, "lat": 40.6783216, "lon": -73.9835539}, {"type": "node", "id": 2494253612, "lat": 40.6780821, "lon": -73.9836427}, {"type": "node", "id": 2494253615, "lat": 40.6781046, "lon": -73.9837006}, {"type": "node", "id": 2494253645, "lat": 40.6782603, "lon": -73.9848922}, {"type": "node", "id": 2494253656, "lat": 40.6782991, "lon": -73.9834959}, {"type": "node", "id": 2494253722, "lat": 40.6787209, "lon": -73.9845807}, {"type": "node", "id": 2494253744, "lat": 40.6788574, "lon": -73.9849318}, {"type": "node", "id": 2494253751, "lat": 40.6788857, "lon": -73.9845193}, {"type": "node", "id": 2494253775, "lat": 40.6789976, "lon": -73.984807}, {"type": "node", "id": 2494253788, "lat": 40.6790753, "lon": -73.9829449}, {"type": "node", "id": 2494253803, "lat": 40.6791048, "lon": -73.9843723}, {"type": "node", "id": 2494253808, "lat": 40.6791163, "lon": -73.9844019}, {"type": "node", "id": 2494253819, "lat": 40.6791434, "lon": -73.983121}, {"type": "node", "id": 2494253844, "lat": 40.6792167, "lon": -73.98466}, {"type": "node", "id": 2494253859, "lat": 40.6792433, "lon": -73.982832}, {"type": "node", "id": 2494253863, "lat": 40.6792654, "lon": -73.9834365}, {"type": "node", "id": 2494253866, "lat": 40.6792813, "lon": -73.9826914}, {"type": "node", "id": 2494253871, "lat": 40.6793033, "lon": -73.9830134}, {"type": "node", "id": 2494253872, "lat": 40.6793166, "lon": -73.9827827}, {"type": "node", "id": 2494253879, "lat": 40.6793303, "lon": -73.9836044}, {"type": "node", "id": 2494253883, "lat": 40.6793379, "lon": -73.9828378}, {"type": "node", "id": 2494253894, "lat": 40.6793847, "lon": -73.9829587}, {"type": "node", "id": 2494253919, "lat": 40.6795067, "lon": -73.9832743}, {"type": "node", "id": 2494253926, "lat": 40.6795225, "lon": -73.9825292}, {"type": "node", "id": 2494253933, "lat": 40.6795716, "lon": -73.9834422}, {"type": "node", "id": 2494253937, "lat": 40.6795792, "lon": -73.9826757}, {"type": "node", "id": 2494253977, "lat": 40.679873, "lon": -73.982159}, {"type": "node", "id": 2494253992, "lat": 40.6799057, "lon": -73.982137}, {"type": "node", "id": 2494253994, "lat": 40.679948, "lon": -73.9823516}, {"type": "node", "id": 2494253996, "lat": 40.6799719, "lon": -73.9824135}, {"type": "node", "id": 2494254055, "lat": 40.6802159, "lon": -73.9822496}, {"type": "node", "id": 2494311456, "lat": 40.676491, "lon": -73.9853464}, {"type": "node", "id": 2494311470, "lat": 40.6765609, "lon": -73.985301}, {"type": "node", "id": 2494372721, "lat": 40.6778567, "lon": -73.9859235, "tags": {"addr:housenumber": "272", "addr:postcode": "11215", "addr:street": "3rd Avenue", "amenity": "restaurant", "cocktails": "yes", "cuisine": "italian", "drink:liquor": "yes", "drink:wine": "yes", "name": "Caf\u00e9 Mars", "opening_hours": "We-Sa 17:30-21:00; Su 17:30-20:00", "phone": "+1-347-987-4225", "toilets": "yes", "toilets:unisex": "yes", "website": "https://cafemarsbk.com"}}, {"type": "node", "id": 2494373134, "lat": 40.6764794, "lon": -73.9845264}, {"type": "node", "id": 2494373164, "lat": 40.6765632, "lon": -73.9844698}, {"type": "node", "id": 2494373167, "lat": 40.6765722, "lon": -73.984765}, {"type": "node", "id": 2494373203, "lat": 40.6766548, "lon": -73.9844078}, {"type": "node", "id": 2494373227, "lat": 40.6766946, "lon": -73.9846822}, {"type": "node", "id": 2494373246, "lat": 40.6767266, "lon": -73.9843592}, {"type": "node", "id": 2494373289, "lat": 40.6767892, "lon": -73.9845202}, {"type": "node", "id": 2494373318, "lat": 40.6768194, "lon": -73.9845978}, {"type": "node", "id": 2494373324, "lat": 40.6769628, "lon": -73.9857236, "tags": {"addr:housenumber": "491", "addr:postcode": "11215", "addr:street": "Carroll Street", "alt_name": "Donavan Thomas", "brand": "Allstate", "brand:wikidata": "Q2645636", "name": "Allstate", "office": "insurance", "opening_hours": "Mo-We,Fr 09:00-17:00; Sa 10:00-13:00", "phone": "+1-718-499-7000", "website": "https://agents.allstate.com/donavan-thomas-brooklyn-ny.html"}}, {"type": "node", "id": 2494373989, "lat": 40.677367, "lon": -73.9847433}, {"type": "node", "id": 2494374022, "lat": 40.6773866, "lon": -73.9840381}, {"type": "node", "id": 2494374064, "lat": 40.6774321, "lon": -73.9849101}, {"type": "node", "id": 2494374141, "lat": 40.6775044, "lon": -73.9843353}, {"type": "node", "id": 2494374189, "lat": 40.6775997, "lon": -73.9845854}, {"type": "node", "id": 2494374202, "lat": 40.6776129, "lon": -73.9838846}, {"type": "node", "id": 2494374226, "lat": 40.6776648, "lon": -73.9847522}, {"type": "node", "id": 2511001856, "lat": 40.6777292, "lon": -73.9841829}, {"type": "node", "id": 2550029153, "lat": 40.6752897, "lon": -73.9813928, "tags": {"addr:housenumber": "248", "addr:postcode": "11215", "addr:street": "5th Avenue", "alt_name": "al di la Trattoria", "amenity": "restaurant", "cocktails": "yes", "cuisine": "italian", "drink:beer": "draught", "drink:espresso": "yes", "drink:liquor": "yes", "drink:wine": "yes", "name": "al di la Trattoria", "opening_hours": "Mo-Th 17:00-21:30; Fr-Sa 11:00-15:00, 17:00-22:00; Su 11:00-15:00", "phone": "+1-718-783-4565", "toilets": "yes", "toilets:unisex": "yes", "website": "https://www.aldilatrattoria.com/"}}, {"type": "node", "id": 2550029183, "lat": 40.6757782, "lon": -73.9839201, "tags": {"addr:housenumber": "261", "addr:postcode": "11215", "addr:street": "4th Avenue", "brand": "RE/MAX", "brand:wikidata": "Q965845", "name": "RE/MAX", "office": "estate_agent", "phone": "+1-718-532-2000", "website": "https://www.brooklyntopagents.com"}}, {"type": "node", "id": 2550030165, "lat": 40.6760296, "lon": -73.9811279}, {"type": "node", "id": 2550044413, "lat": 40.6758719, "lon": -73.9801432}, {"type": "node", "id": 2550044425, "lat": 40.6759226, "lon": -73.9802747}, {"type": "node", "id": 2550044429, "lat": 40.6759339, "lon": -73.9802671}, {"type": "node", "id": 2550044431, "lat": 40.6759373, "lon": -73.9800997}, {"type": "node", "id": 2550044440, "lat": 40.6759678, "lon": -73.9802025}, {"type": "node", "id": 2550044446, "lat": 40.6759807, "lon": -73.980236}, {"type": "node", "id": 2550044474, "lat": 40.6761034, "lon": -73.9799893}, {"type": "node", "id": 2550044476, "lat": 40.6761411, "lon": -73.9800873}, {"type": "node", "id": 2550057128, "lat": 40.6770114, "lon": -73.9802235, "tags": {"addr:housenumber": "190", "addr:postcode": "11217", "addr:street": "5th Avenue", "name": "Douglas Elliman Real Estate", "office": "estate_agent", "phone": "+1 718 230 3201", "website": "https://www.elliman.com"}}, {"type": "node", "id": 2550057157, "lat": 40.676696, "lon": -73.9804045}, {"type": "node", "id": 2550057165, "lat": 40.6767697, "lon": -73.9803549}, {"type": "node", "id": 2550057167, "lat": 40.6767842, "lon": -73.9806325}, {"type": "node", "id": 2550057174, "lat": 40.6768444, "lon": -73.9805919}, {"type": "node", "id": 2550057176, "lat": 40.6768579, "lon": -73.9805829}, {"type": "node", "id": 2550058400, "lat": 40.6798141, "lon": -73.9807453}, {"type": "node", "id": 2550058420, "lat": 40.6798786, "lon": -73.9809111}, {"type": "node", "id": 2550058437, "lat": 40.680302, "lon": -73.9808398}, {"type": "node", "id": 3737556178, "lat": 40.674634, "lon": -73.9815568, "tags": {"addr:housenumber": "251", "addr:postcode": "11215", "addr:street": "5th Avenue", "amenity": "cafe", "cuisine": "coffee_shop;salad", "drink:coffee": "yes", "drink:espresso": "yes", "internet_access": "wlan", "laptop": "no @ Mo-Fr 12:00-15:00, Sa-Su 10:00-16:00", "name": "Kos Kaffe", "opening_hours": "Mo-Su 08:00-17:00", "outdoor_seating": "sidewalk", "phone": "+1-718-768-6868", "website": "https://www.koskaffe.com", "wheelchair": "no"}}, {"type": "node", "id": 3737560400, "lat": 40.6749501, "lon": -73.9812915, "tags": {"amenity": "bar", "cuisine": "popcorn", "drink:beer": "draught", "drink:liquor": "yes", "drink:wine": "yes", "happy_hours": "Mo-Fr 15:00-20:00", "name": "High Dive", "opening_hours": "Mo-Fr 15:00-04:00; Sa-Su 13:00-04:00", "outdoor_seating": "garden;street", "phone": "+1-718-788-0401", "pinball": "yes", "website": "https://www.highdive-brooklyn.com", "wheelchair": "yes"}}, {"type": "node", "id": 3892100318, "lat": 40.6763053, "lon": -73.9857933}, {"type": "node", "id": 3892100319, "lat": 40.6761405, "lon": -73.9859294}, {"type": "node", "id": 3892100320, "lat": 40.6760212, "lon": -73.985682}, {"type": "node", "id": 3892100322, "lat": 40.6766629, "lon": -73.9854938}, {"type": "node", "id": 3892100323, "lat": 40.6766108, "lon": -73.9853318}, {"type": "node", "id": 3892100324, "lat": 40.6760138, "lon": -73.9856669}, {"type": "node", "id": 3892100325, "lat": 40.6758144, "lon": -73.9858327}, {"type": "node", "id": 3892100326, "lat": 40.6756801, "lon": -73.9855518}, {"type": "node", "id": 3892100327, "lat": 40.6760852, "lon": -73.985215}, {"type": "node", "id": 3892100328, "lat": 40.6762251, "lon": -73.9855215}, {"type": "node", "id": 3892100329, "lat": 40.6766716, "lon": -73.9854865}, {"type": "node", "id": 3892792976, "lat": 40.6766417, "lon": -73.9854105, "tags": {"addr:housenumber": "512", "addr:postcode": "11215", "addr:street": "Carroll Street", "barrier": "gate", "entrance": "main"}}, {"type": "node", "id": 3953943320, "lat": 40.6772443, "lon": -73.986012, "tags": {"amenity": "cafe", "bar": "yes", "cuisine": "american;italian", "drink:beer": "bottled", "drink:coffee": "yes", "drink:espresso": "yes", "drink:liquor": "yes", "drink:wine": "yes", "happy_hours": "Tu-Th 17:00-19:00", "name": "Runner & Stone", "opening_hours": "Mo 07:30-18:00; Tu-Th 07:30-21:00; Fr 07:30-22:00; Sa 08:00-22:00; Su 08:00-18:00", "opening_hours:kitchen": "Mo 11:00-18:00; Tu-Th 11:00-15:00,17:00-21:00; Fr-Sa 11:00-15:00,17:00-22:00; Su 11:00-18:00", "phone": "+1-718-577-3360", "shop": "bakery", "website": "https://www.runnerandstone.com"}}, {"type": "node", "id": 3953943884, "lat": 40.67686, "lon": -73.9863149, "tags": {"amenity": "cafe", "cuisine": "eastern_european", "delivery": "yes", "diet:vegan": "yes", "drink:beer": "draught", "drink:coffee": "yes", "drink:tea": "yes", "drink:wine": "yes", "name": "Baba's Pierogies", "opening_hours": "Tu-Sa 11:30-22:00; Su 11:30-21:00", "outdoor_seating": "no", "phone": "+1 718 222 0777", "smoking": "no", "takeaway": "yes", "website": "https://www.babasbk.com"}}, {"type": "node", "id": 3953943885, "lat": 40.6773051, "lon": -73.9862959, "tags": {"amenity": "restaurant", "bar": "yes", "cocktails": "yes", "cuisine": "argentinian", "drink:beer": "yes", "drink:liquor": "yes", "drink:wine": "yes", "name": "Estancia Piola 288", "phone": "+1-347-294-4986", "short_name": "Estancia", "website": "https://www.estanciapiola288.com"}}, {"type": "node", "id": 4111933909, "lat": 40.6774049, "lon": -73.9826549, "tags": {"addr:housenumber": "669", "addr:postcode": "11215", "addr:street": "Union Street", "amenity": "restaurant", "cocktails": "yes", "cuisine": "pizza;italian;breakfast", "delivery": "yes", "drink:beer": "draught", "drink:liquor": "yes", "drink:wine": "yes", "happy_hours": "Su-Th 12:00-18:00", "name": "Public Display of Affection", "opening_hours": "Mo-Su 07:00-22:00", "outdoor_seating": "sidewalk", "phone": "+1-718-635-1678", "toilets": "yes", "toilets:access": "customers", "toilets:unisex": "yes", "website": "https://www.pdapizza.com"}}, {"type": "node", "id": 4111933911, "lat": 40.6768229, "lon": -73.9819324, "tags": {"amenity": "restaurant", "cuisine": "latin_american", "drink:beer": "draught", "drink:wine": "yes", "name": "Palo Santo", "opening_hours": "Mo-Th 18:00-22:00; Fr 18:00-23:00; Sa 10:00-15:00,17:00-23:00; Su 10:00-15:00,17:00-15:00,17:00-22:00", "outdoor_seating": "sidewalk", "phone": "+1-718-636-6311", "website": "https://www.palosantorestaurant.com"}}, {"type": "node", "id": 4317279573, "lat": 40.6800572, "lon": -73.9810052}, {"type": "node", "id": 4317279577, "lat": 40.6804319, "lon": -73.9807519}, {"type": "node", "id": 4317279578, "lat": 40.6801355, "lon": -73.9800455}, {"type": "node", "id": 4317279579, "lat": 40.6799073, "lon": -73.9801997}, {"type": "node", "id": 4317279580, "lat": 40.6798898, "lon": -73.9801547}, {"type": "node", "id": 4317279581, "lat": 40.679648, "lon": -73.9803182}, {"type": "node", "id": 4317279582, "lat": 40.6799447, "lon": -73.9810813}, {"type": "node", "id": 4317279585, "lat": 40.6796902, "lon": -73.9804265}, {"type": "node", "id": 4317279588, "lat": 40.6801527, "lon": -73.9800338}, {"type": "node", "id": 4939086765, "lat": 40.6748633, "lon": -73.9813709, "tags": {"amenity": "pub", "cocktails": "yes", "contact:facebook": "https://www.facebook.com/thecommissionerbk/", "cuisine": "pub", "drink:beer": "draught", "drink:liquor": "yes", "drink:wine": "yes", "happy_hours": "Mo-Fr 16:00-19:00; Sa-Su 12:00-16:00", "name": "The Commissioner", "opening_hours": "Mo-Fr 16:00-04:00; Sa 12:00-04:00; Su 12:00-02:00", "phone": "+1-347-689-3968", "smoking": "no", "sport": "darts", "website": "https://www.thecommissionerbk.com/"}}, {"type": "node", "id": 5182790887, "lat": 40.6768648, "lon": -73.980329, "tags": {"amenity": "bar", "cocktails": "yes", "cuisine": "continental", "drink:beer": "bottled", "drink:espresso": "yes", "drink:liquor": "yes", "drink:wine": "yes", "name": "Blueprint", "opening_hours": "Mo-Th 16:00-02:00; Fr 16:00-04:00; Sa 15:00-04:00; Su 15:00-01:00", "opening_hours:covid19": "Mo-Sa 15:00-23:00; Su 15:00-22:00", "outdoor_seating": "sidewalk;street;garden", "phone": "+1-718-622-6644", "toilets": "yes", "toilets:unisex": "yes", "website": "https://www.blueprintbrooklyn.com/"}}, {"type": "node", "id": 5210977570, "lat": 40.6752646, "lon": -73.9810796, "tags": {"amenity": "restaurant", "contact:instagram": "@brooklyndop", "cuisine": "pizza", "drink:beer": "draught", "drink:wine": "yes", "name": "Brooklyn D.O.P. Pizza", "opening_hours": "Mo-Th 11:00-22:00; Fr-Sa 11:00-23:00; Su 12:00-22:00", "outdoor_seating": "garden", "phone": "+1-347-599-1913", "takeaway": "yes", "toilets": "yes", "toilets:unisex": "yes", "website": "https://www.brooklyndop.com"}}, {"type": "node", "id": 5317288666, "lat": 40.6779074, "lon": -73.9858925, "tags": {"amenity": "bar", "cocktails": "yes", "contact:instagram": "canalbarbklyn", "contact:twitter": "@canalbarbklyn", "dog": "outside", "drink:beer": "draught", "drink:liquor": "yes", "drink:wine": "yes", "name": "Canal Bar", "opening_hours": "Mo-Th 15:00-02:00; Fr 15:00-04:00; Sa 13:00-04:00; Su 13:00-02:00", "outdoor_seating": "garden", "phone": "+1-718-246-0011", "toilets": "yes", "toilets:access": "customers", "toilets:unisex": "yes", "toilets:wheelchair": "yes", "website": "http://canalbar.com", "wheelchair": "limited"}}, {"type": "node", "id": 5317288668, "lat": 40.6780873, "lon": -73.9854316, "tags": {"amenity": "restaurant", "cocktails": "yes", "cuisine": "mexican", "drink:beer": "yes", "drink:liquor": "yes", "drink:wine": "yes", "name": "Siempre", "phone": "+1-716-932-1119"}}, {"type": "node", "id": 5320691263, "lat": 40.6765722, "lon": -73.9801832, "tags": {"alt_name": "Aji Fusion Sushi", "amenity": "restaurant", "cuisine": "japanese;sushi;thai", "delivery": "yes", "fax": "+1-718-622-2077", "name": "Aji Sushi", "opening_hours": "Mo-Th 12:00-23:00; Fr-Sa 12:00-23:30; Su 12:30-23:00", "phone": "+1-718-622-2889", "takeaway": "yes", "toilets": "yes", "toilets:access": "customers", "toilets:unisex": "yes", "website": "https://ajisushi-thai.com"}}, {"type": "node", "id": 5320691264, "lat": 40.6766184, "lon": -73.9801521, "tags": {"amenity": "cafe", "cuisine": "pastry;coffee_shop", "drink:coffee": "yes", "drink:espresso": "yes", "name": "Volare", "opening_hours": "Mo-Su 07:00-18:00", "phone": "+1-347-227-8123"}}, {"type": "node", "id": 5320691267, "lat": 40.6767383, "lon": -73.9800713, "tags": {"addr:street": "5th Avenue", "amenity": "restaurant", "cuisine": "indian", "delivery": "yes", "diet:halal": "yes", "diet:vegan": "yes", "diet:vegetarian": "yes", "fax": "+1-718-857-1953", "name": "Namaste", "opening_hours": "Mo-Su 11:00-23:00", "outdoor_seating": "garden", "phone": "+1-718-857-1951", "takeaway": "yes", "website": "http://namastebk.com"}}, {"type": "node", "id": 5320706863, "lat": 40.6768978, "lon": -73.9799639, "tags": {"addr:housenumber": "187", "addr:postcode": "11217", "addr:street": "5th Avenue", "amenity": "cafe", "cuisine": "coffee_shop;bagel;breakfast", "drink:coffee": "yes", "drink:espresso": "yes", "drink:tea": "yes", "internet_access": "wlan", "internet_access:fee": "no", "name": "Konditori", "phone": "+1-347-384-2028", "takeaway": "yes", "toilets": "no", "website": "https://konditori.com/our-locations/park-slope-5th/"}}, {"type": "node", "id": 5323157162, "lat": 40.6769023, "lon": -73.9840898, "tags": {"addr:housenumber": "574A", "addr:postcode": "11215", "addr:street": "President Street", "amenity": "bar", "craft": "brewery", "drink:beer": "draught", "internet_access": "wlan", "internet_access:fee": "no", "name": "Strong Rope Brewery", "opening_hours": "Mo-Th 14:00-20:00; Fr-Su 12:00-20:00", "outdoor_seating": "sidewalk;street", "phone": "+1-929-337-8699", "toilets": "yes", "toilets:unisex": "yes", "website": "https://www.strongropebrewery.com/", "wheelchair": "yes"}}, {"type": "node", "id": 5336031827, "lat": 40.6768987, "lon": -73.9861171, "tags": {"amenity": "restaurant", "cuisine": "puerto_rican", "name": "Kiosko 787", "opening_hours": "Mo-Sa 12:00-20:00; Su 12:00-19:00", "phone": "+1-347-599-2122", "takeaway": "yes", "website": "https://www.kiosko787ny.com"}}, {"type": "node", "id": 5368647549, "lat": 40.6788171, "lon": -73.986241, "tags": {"alt_name": "Mirror in the Woods", "amenity": "cafe", "cuisine": "tea;coffee_shop;japanese", "drink:beer": "bottled", "drink:coffee": "yes", "drink:sake": "yes", "drink:tea": "yes", "drink:wine": "yes", "events_venue": "yes", "internet_access": "wlan", "name": "Mirror Tea and Sake House", "opening_hours": "Fr 15:00-20:30, Sa 13:00-21:00, Su 13:00-20:30", "outdoor_seating": "yes", "phone": "+1-917-909-0557", "toilets": "yes", "toilets:unisex": "yes", "website": "https://www.mirrorinthewoods.com"}}, {"type": "node", "id": 5373756804, "lat": 40.6775093, "lon": -73.9826979, "tags": {"amenity": "restaurant", "cuisine": "turkish", "name": "Rana Fifteen", "phone": "+1-347-599-1525", "website": "https://www.ranafifteen.com"}}, {"type": "node", "id": 5487146971, "lat": 40.6796283, "lon": -73.9822309, "tags": {"addr:housenumber": "333", "addr:postcode": "11217", "addr:street": "Douglass Street", "amenity": "cafe", "drink:coffee": "yes", "drink:espresso": "yes", "live_music": "yes", "name": "Ninth Street Espresso", "opening_hours": "Mo-Fr 07:00-18:00; Sa-Su 08:00-18:00", "website": "https://www.ninthstreetespresso.com/gowanus"}}, {"type": "node", "id": 5487146973, "lat": 40.6797279, "lon": -73.9822068, "tags": {"addr:housenumber": "333", "addr:postcode": "11217", "addr:street": "Douglass Street", "amenity": "restaurant", "cocktails": "yes", "cuisine": "burger;american;brunch", "drink:beer": "draught", "drink:liquor": "yes", "drink:wine": "yes", "name": "The Meat Hook", "opening_hours": "Mo-Th 17:00-23:00; Fr-Sa 12:00-00:00; Su 12:00-21:00", "outdoor_seating": "yes", "phone": "+1 718 522 2110", "website": "https://www.meathookatthrees.com"}}, {"type": "node", "id": 5487146978, "lat": 40.6798144, "lon": -73.9821529, "tags": {"addr:housenumber": "333", "addr:postcode": "11217", "addr:street": "Douglass Street", "amenity": "pub", "bar": "yes", "cocktails": "yes", "craft": "brewery", "cuisine": "burger;american;brunch", "drink:beer": "draught", "drink:liquor": "yes", "drink:wine": "yes", "name": "Threes Brewing", "opening_hours": "Mo-We 17:00-00:00; Th 17:00-02:00; Fr 15:00-02:00; Sa 12:00-02:00; Su 12:00-00:00", "outdoor_seating": "yes", "phone": "+1 718 522 2110", "website": "https://www.threesbrewing.com"}}, {"type": "node", "id": 5494867632, "lat": 40.6759383, "lon": -73.9806212, "tags": {"amenity": "restaurant", "cuisine": "sushi", "drink:beer": "yes", "drink:sake": "yes", "drink:wine": "yes", "name": "Luya", "opening_hours": "Mo-Fr 17:00-21:30; Sa-Su 12:00-15:00, 17:00-21:30", "phone": "+1-718-685-8830", "takeaway": "yes", "website": "https://www.luya-bk.com"}}, {"type": "node", "id": 5506774612, "lat": 40.6755538, "lon": -73.9808847, "tags": {"amenity": "arts_centre", "branch": "Brooklyn", "name": "The Puffin Foundation", "office": "foundation", "website": "https://www.puffinfoundation.org/puffin-brooklyn"}}, {"type": "node", "id": 5534565420, "lat": 40.6773449, "lon": -73.9796702, "tags": {"amenity": "taxi", "name": "Arecibo", "office": "yes", "phone": "+1 718 783 6465"}}, {"type": "node", "id": 5549150574, "lat": 40.6778577, "lon": -73.9796531, "tags": {"alt_name": "Damn Fine Coffee", "amenity": "cafe", "cuisine": "coffee_shop", "drink:coffee": "yes", "drink:espresso": "yes", "drink:tea": "yes", "name": "Everyman Espresso", "opening_hours": "Mo-Fr 07:00-17:00; Sa-Su 08:00-17:00", "outdoor_seating": "sidewalk", "website": "https://www.everymanespresso.com/park-slope/"}}, {"type": "node", "id": 5549150577, "lat": 40.67738, "lon": -73.9799667, "tags": {"addr:city": "Brooklyn", "addr:housenumber": "180", "addr:postcode": "11217", "addr:state": "NY", "addr:street": "5th Avenue", "air_conditioning": "yes", "amenity": "restaurant", "bar": "yes", "check_date": "2025-4-16", "craft": "caterer", "cuisine": "thai", "delivery": "yes", "diet:vegan": "yes", "diet:vegetarian": "yes", "name": "Tong Dee", "opening_hours": "Mo-Su 11:30-21:45", "payment:cash": "yes", "payment:credit_cards": "yes", "payment:debit_cards": "yes", "phone": "+1-718-230-8280", "reservation": "yes", "smoking": "no", "takeaway": "yes", "toilets": "yes", "toilets:access": "customers", "website": "https://tongdeethai.com", "wheelchair": "yes"}}, {"type": "node", "id": 5549150589, "lat": 40.6778967, "lon": -73.9796265, "tags": {"amenity": "restaurant", "cocktails": "yes", "cuisine": "vietnamese", "drink:beer": "draught", "drink:liquor": "yes", "drink:wine": "yes", "name": "Bricolage", "opening_hours": "Mo-Th 12:00-15:30,17:30-21:45; Fr 12:00-15:30,17:30-22:30; Sa 11:00-15:30,17:00-22:30; Su 11:00-15:30,17:00-21:30", "phone": "+1-718-230-1835", "website": "https://www.bricolage.nyc"}}, {"type": "node", "id": 5555271895, "lat": 40.6774606, "lon": -73.9835377, "tags": {"addr:housenumber": "620", "addr:postcode": "11215", "addr:street": "Union Street", "amenity": "cafe", "cuisine": "coffee_shop;breakfast;sandwich", "drink:coffee": "yes", "drink:espresso": "yes", "name": "Beanmonger Coffee", "opening_hours": "Mo-Fr 07:00-17:00; Sa-Su 08:00-17:00", "outdoor_seating": "sidewalk", "website": "https://www.beanmongercoffee.com"}}, {"type": "node", "id": 5557724695, "lat": 40.6781724, "lon": -73.9853637, "tags": {"addr:housenumber": "568", "addr:postcode": "11215", "addr:street": "Union Street", "amenity": "restaurant", "cuisine": "diner", "delivery": "yes", "drink:coffee": "yes", "drink:tea": "yes", "name": "Union Cafe & Restaurant", "opening_hours": "Mo-Fr 06:00-17:00; Sa 07:00-14:30", "phone": "+1-718-797-1117", "takeaway": "yes", "toilets": "yes", "toilets:access": "customers"}}, {"type": "node", "id": 5565464516, "lat": 40.6773571, "lon": -73.986265, "tags": {"amenity": "bar", "drink:beer": "draught", "drink:liquor": "yes", "drink:wine": "yes", "name": "The Bar", "wheelchair": "yes"}}, {"type": "node", "id": 5565464517, "lat": 40.6774174, "lon": -73.9862272, "tags": {"amenity": "restaurant", "cocktails": "yes", "cuisine": "mexican", "diet:gluten_free": "only", "drink:beer": "yes", "drink:liquor": "yes", "drink:wine": "yes", "name": "Claro", "opening_hours": "Mo-Th 12:00-15:30,17:30-22:30; Fr 12:00-15:30,17:30-23:30; Sa 11:30-15:00,17:30-23:30; Su 11:30-15:00,17:30-22:30", "phone": "+1-347-721-3126", "website": "https://www.clarobk.com"}}, {"type": "node", "id": 5600963727, "lat": 40.6754626, "lon": -73.9812765, "tags": {"amenity": "restaurant", "cocktails": "yes", "cuisine": "greek", "drink:beer": "yes", "drink:coffee": "yes", "drink:espresso": "yes", "drink:liquor": "yes", "drink:tea": "yes", "drink:wine": "yes", "name": "Simply Greek", "opening_hours": "Mo-Fr 11:00-21:00, Sa 11:00-23:00", "outdoor_seating": "garden", "phone": "+1-718-304-8155", "website": "https://simplygreekparkslope.com"}}, {"type": "node", "id": 5620571662, "lat": 40.6763251, "lon": -73.9840522, "tags": {"amenity": "cafe", "cuisine": "coffee_shop;breakfast;sandwich", "drink:coffee": "yes", "drink:espresso": "yes", "drink:tea": "yes", "name": "Root Hill Cafe", "old_name": "Trash Pony Bar", "opening_hours": "Mo-Fr 07:30-16:00; Sa-Su 08:00-16:00", "outdoor_seating": "yes", "website": "http://roothillcafe.com", "wheelchair": "yes"}}, {"type": "node", "id": 5633395352, "lat": 40.6755687, "lon": -73.9808105, "tags": {"name": "Leonard Colchamiro", "office": "architect", "phone": "+1 718 638 5442", "website": "https://www.lcpcarchitects.com"}}, {"type": "node", "id": 5633395354, "lat": 40.6755441, "lon": -73.9807429, "tags": {"name": "Dan Ross", "office": "lawyer", "phone": "+1 718 788 2911", "website": "https://www.danrosslaw.com"}}, {"type": "node", "id": 5676615657, "lat": 40.6796909, "lon": -73.9821047, "tags": {"addr:housenumber": "339", "addr:postcode": "11217", "addr:street": "Douglass Street", "addr:unit": "Suite 1", "name": "Grain Collective", "office": "architect", "phone": "+1 212 920 5345", "website": "https://graincollective.com/"}}, {"type": "node", "id": 5742636433, "lat": 40.6785445, "lon": -73.9835994, "tags": {"addr:housenumber": "623", "addr:postcode": "11217", "addr:street": "Sackett Street", "amenity": "bar", "changing_table": "yes", "craft": "brewery", "description": "craft brewery with taproom and canned beer to go", "dog": "yes", "drink:beer": "only", "name": "Wild East Brewing Company", "opening_hours": "Mo-Th 14:00-22:00, Fr 14:00-24:00, Sa 12:00-24:00, Su 12:00-21:00", "outdoor_seating": "sidewalk", "phone": "+1-718-797-5135", "shop": "alcohol", "toilets": "yes", "website": "https://www.wildeastbrewing.com"}}, {"type": "node", "id": 5742636434, "lat": 40.6786094, "lon": -73.9837089, "tags": {"addr:housenumber": "621", "addr:postcode": "11217", "addr:street": "Sackett Street", "name": "Kaufman Shoe Repair Supplies", "office": "company", "phone": "+1 212 777 1700"}}, {"type": "node", "id": 5742636435, "lat": 40.6786512, "lon": -73.9838157, "tags": {"addr:housenumber": "617", "addr:postcode": "11217", "addr:street": "Sackett Street", "name": "National Shoe Findings", "office": "company", "phone": "+1 718 797 3434", "website": "https://www.shoeneeds.com"}}, {"type": "node", "id": 5797454999, "lat": 40.6764717, "lon": -73.981007, "tags": {"fax": "+1-718-852-8193", "name": "Max J. Pollack & Sons", "office": "insurance", "phone": "+1-718-624-1461", "website": "https://www.maxpollackinsurance.com"}}, {"type": "node", "id": 5797455000, "lat": 40.6771044, "lon": -73.9829762, "tags": {"addr:city": "Brooklyn", "addr:housenumber": "225", "addr:postcode": "11215", "addr:state": "NY", "addr:street": "4th Avenue", "amenity": "cafe", "branch": "4th Avenue & Union St.", "brand": "Starbucks", "brand:wikidata": "Q37158", "cuisine": "coffee_shop", "internet_access": "wlan", "name": "Starbucks", "official_name": "Starbucks Coffee", "opening_hours": "Mo-Su 06:00-21:00", "phone": "+1 347-909-1507", "takeaway": "yes", "website": "https://www.starbucks.com/store-locator/store/1018135/4th-ave-union-st-225-4th-avenue-brooklyn-ny-112151005-us"}}, {"type": "node", "id": 5859542351, "lat": 40.6758276, "lon": -73.9838715, "tags": {"amenity": "cafe", "bar": "yes", "cocktails": "yes", "cuisine": "cambodian;trinidadian;pastry", "drink:beer": "draught", "drink:coffee": "yes", "drink:liquor": "yes", "drink:wine": "yes", "name": "Whisk & Whiskey", "opening_hours": "We-Th 08:00-23:00, Fr-Sa 08:00-24:00, Su 08:00-23:00", "outdoor_seating": "garden", "phone": "+1-347-799-1639", "shop": "bakery", "website": "https://www.whiskandwhiskeybklyn.com"}}, {"type": "node", "id": 5863841564, "lat": 40.6750545, "lon": -73.9829942, "tags": {"description": "teaching supplies", "disused:website": "http://www.ourchildrenenterprises.com", "fax": "+1-718-788-4445", "name": "Our Children Enterprises", "office": "company", "phone": "+1-718-788-4400"}}, {"type": "node", "id": 6003410968, "lat": 40.6761564, "lon": -73.9861565, "tags": {"description": "general contractor", "name": "Mc Mahon Construction", "office": "construction", "phone": "+1-718-643-6922"}}, {"type": "node", "id": 6104426537, "lat": 40.6773186, "lon": -73.9853286, "tags": {"name": "Brooklyn Creative League", "office": "coworking", "phone": "+1-718-576-2104", "website": "https://brooklyncreativeleague.co"}}, {"type": "node", "id": 6109975005, "lat": 40.6751767, "lon": -73.9811389, "tags": {"addr:housenumber": "239", "addr:postcode": "11215", "addr:street": "5th Avenue", "amenity": "restaurant", "bar": "yes", "cocktails": "yes", "cuisine": "korean", "drink:beer": "draught", "drink:coffee": "yes", "drink:liquor": "yes", "drink:sake": "yes", "drink:wine": "yes", "name": "Haenyeo", "opening_hours": "Mo-Th 17:30-22:00; Fr-Sa 17:30-23:00", "phone": "+1-347-294-4159", "toilets": "yes", "toilets:unisex": "yes", "toilets:wheelchair": "no", "website": "https://haenyeobk.com", "wheelchair": "limited"}}, {"type": "node", "id": 6476814366, "lat": 40.675733, "lon": -73.9805144, "tags": {"addr:housenumber": "665", "addr:postcode": "11215", "addr:street": "President Street", "amenity": "cafe", "name": "Enso", "opening_hours": "Mo-Fr 07:30-17:00; Sa-Su 08:00-16:30", "outdoor_seating": "yes"}}, {"type": "node", "id": 6854064076, "lat": 40.6764743, "lon": -73.9839513, "tags": {"amenity": "pub", "cocktails": "yes", "cuisine": "sandwich;snack", "diet:gluten_free": "yes", "diet:vegan": "limited", "diet:vegetarian": "limited", "drink:beer": "draught", "drink:liquor": "yes", "drink:wine": "yes", "happy_hours": "Mo-Fr 15:00-19:00", "name": "Gowanus Gardens", "opening_hours": "Mo-Th 15:00-02:00; Fr 15:00-04:00; Sa 12:00-04:00; Su 12:00-02:00", "opening_hours:kitchen": "Mo-Th 15:00-01:00; Fr 15:00-02:00; Sa 12:00-02:00; Su 12:00-01:00", "outdoor_seating": "garden;street", "toilets": "yes", "toilets:unisex": "yes", "website": "https://www.gowanusgardensbk.com"}}, {"type": "node", "id": 8258467315, "lat": 40.6807859, "lon": -73.985799}, {"type": "node", "id": 8258500817, "lat": 40.6806069, "lon": -73.9853376}, {"type": "node", "id": 8258500818, "lat": 40.6801368, "lon": -73.9856546}, {"type": "node", "id": 8258500819, "lat": 40.6808049, "lon": -73.985848}, {"type": "node", "id": 8258500820, "lat": 40.6803348, "lon": -73.9861651}, {"type": "node", "id": 8258500835, "lat": 40.6799313, "lon": -73.9851248}, {"type": "node", "id": 8258500836, "lat": 40.6804014, "lon": -73.9848077}, {"type": "node", "id": 8267134103, "lat": 40.6801246, "lon": -73.9843686}, {"type": "node", "id": 8267134104, "lat": 40.6797587, "lon": -73.9846799}, {"type": "node", "id": 8267150826, "lat": 40.6803413, "lon": -73.9861819, "tags": {"barrier": "gate"}}, {"type": "node", "id": 8267150827, "lat": 40.6806648, "lon": -73.9854869}, {"type": "node", "id": 8267150828, "lat": 40.6807335, "lon": -73.9856639}, {"type": "node", "id": 9356114560, "lat": 40.6768133, "lon": -73.9803621, "tags": {"amenity": "cafe", "cuisine": "coffee_shop", "drink:coffee": "yes", "drink:espresso": "yes", "drink:tea": "yes", "name": "Grounded Cafe", "opening_hours": "Mo-Fr 07:00-17:30; Sa-Su 08:00-17:30"}}, {"type": "node", "id": 9445739504, "lat": 40.6775302, "lon": -73.9846325}, {"type": "node", "id": 9445739506, "lat": 40.6774037, "lon": -73.9847183}, {"type": "node", "id": 9730332326, "lat": 40.6765844, "lon": -73.9853498}, {"type": "node", "id": 11543164006, "lat": 40.6775866, "lon": -73.9848053}, {"type": "node", "id": 12014903969, "lat": 40.677355, "lon": -73.9834569, "tags": {"amenity": "restaurant", "cuisine": "pizza", "name": "Union Street Pizza"}}, {"type": "node", "id": 12100573683, "lat": 40.6775295, "lon": -73.984844}, {"type": "node", "id": 12100573696, "lat": 40.6774785, "lon": -73.9848786}, {"type": "node", "id": 13228365849, "lat": 40.6794947, "lon": -73.9827324}, {"type": "node", "id": 13228365859, "lat": 40.6795205, "lon": -73.9834765}, {"type": "node", "id": 13228365864, "lat": 40.6794748, "lon": -73.9835073}, {"type": "node", "id": 13228365873, "lat": 40.6793451, "lon": -73.9835945}, {"type": "node", "id": 13228365875, "lat": 40.6792737, "lon": -73.9830333}, {"type": "node", "id": 13228365878, "lat": 40.6791765, "lon": -73.9830987}, {"type": "way", "id": 111781746, "nodes": [1272678897, 2550030165, 1272678892, 1272678899, 1272678893, 1272678898, 1272678895, 1272678897], "tags": {"addr:housenumber": "222", "addr:street": "5th Avenue", "garden:type": "community", "leisure": "park", "name": "Green Space @ President Street", "opening_hours": "sunrise-sunset", "website": "https://banglandtrust.org/category/greenspacepresident-street/"}}, {"type": "way", "id": 118987688, "nodes": [1337590407, 1337590438, 8267150826, 8258500820, 8258500818, 8258500835, 8267134104, 1337590455, 8267134103, 1337590479, 8258500836, 8258500817, 8267150827, 8267150828, 8258467315, 8258500819, 1337590407], "tags": {"dog": "no", "ele": "5", "gnis:feature_id": "2374981", "leisure": "park", "name": "Thomas Greene Playground", "opening_hours": "Mo-Su 06:00-21:00", "operator": "New York City Department of Parks and Recreation", "operator:short": "NYC Parks", "operator:type": "public", "operator:wikidata": "Q1894232", "operator:wikipedia": "en:New York City Department of Parks and Recreation", "website": "https://www.nycgovparks.org/parks/thomas-greene-playground/", "wikidata": "Q34865236"}}, {"type": "way", "id": 241845929, "nodes": [2494253645, 2494253552, 2494253744, 2494253722, 2494253645], "tags": {"addr:housenumber": "601", "addr:postcode": "11215", "addr:street": "Union Street", "building": "yes", "description": "commercial & residential heating oil and diesel fuel", "height": "5.7", "name": "S.J. Fuel Co.", "nycdoitt:bin": "3007206", "office": "company", "phone": "+1-718-855-6060"}}, {"type": "way", "id": 241845949, "nodes": [2494253863, 2494253879, 13228365873, 13228365864, 13228365859, 2494253933, 2494253919, 2494253863], "tags": {"addr:housenumber": "605", "addr:postcode": "11217", "addr:street": "Degraw Street", "building": "yes", "height": "4.4", "name": "Seasons Seafood", "nycdoitt:bin": "3006811", "office": "company"}}, {"type": "way", "id": 241845962, "nodes": [2494253612, 2494253615, 2494253581, 2494253656, 2494253612], "tags": {"addr:housenumber": "644", "addr:postcode": "11217", "addr:street": "Sackett Street", "amenity": "bar", "building": "yes", "cuisine": "pizza;pub", "happy_hours": "Mo-Su 14:00-20:00", "height": "4.0", "live_music": "yes", "name": "Lucky 13", "nycdoitt:bin": "3007208", "opening_hours": "Mo-Sa 14:00-04:00; Su 14:00-00:00", "website": "https://www.lucky13saloon.com/"}}, {"type": "way", "id": 241845975, "nodes": [2494253803, 2494253751, 2494253775, 2494253844, 2494253808, 2494253803], "tags": {"addr:housenumber": "225", "addr:postcode": "11217", "addr:street": "3rd Avenue", "building": "yes", "fax": "+1-718-923-1603", "height": "11.5", "name": "A. Williams Construction", "nycdoitt:bin": "3394318", "office": "construction", "phone": "+1-718-923-9600", "website": "https://awilliamsconstruction.com"}}, {"type": "way", "id": 241845979, "nodes": [2494253977, 2494253994, 2494253996, 2494254055, 2494253451, 2494253992, 2494253977], "tags": {"addr:housenumber": "330", "addr:postcode": "11217", "addr:street": "Butler Street", "building": "yes", "building:colour": "yellow", "height": "4.7", "name": "Taxi-Garage", "nycdoitt:bin": "3006620", "office": "company", "phone": "+1 718 858 0010"}}, {"type": "way", "id": 241845981, "nodes": [2494253866, 2494253872, 2494253883, 13228365849, 2494253937, 2494253926, 2494253866], "tags": {"addr:housenumber": "328", "addr:postcode": "11217", "addr:street": "Douglass Street", "amenity": "restaurant", "bar": "yes", "building": "yes", "cocktails": "yes", "cuisine": "korean", "drink:beer": "draught", "drink:liquor": "yes", "drink:wine": "yes", "height": "4.6", "karaoke": "yes", "name": "Insa", "nycdoitt:bin": "3006802", "opening_hours": "We 17:30-22:00; Th-Sa 17:30-24:00; Su 17:30-22:00", "opening_hours:kitchen": "We-Su 17:30-22:00", "outdoor_seating": "street", "phone": "+1-718-855-2620", "website": "https://www.insabrooklyn.com/"}}, {"type": "way", "id": 241845996, "nodes": [2494253872, 2494253859, 2494253788, 2494253819, 13228365878, 13228365875, 2494253871, 2494253894, 2494253883, 2494253872], "tags": {"addr:housenumber": "615", "addr:postcode": "11217", "addr:street": "Degraw Street", "amenity": "school", "building": "yes", "height": "4.8", "name": "EPIC Academy", "nycdoitt:bin": "3006807", "phone": "+1-347-457-6609", "website": "https://abetterschool.org"}}, {"type": "way", "id": 241860593, "nodes": [2494374022, 2494374141, 2511001856, 2494374202, 2494374022], "tags": {"addr:city": "Brooklyn", "addr:housenumber": "604", "addr:postcode": "11215", "addr:street": "Union Street", "amenity": "restaurant", "building": "yes", "cocktails": "yes", "cuisine": "barbecue", "delivery": "yes", "drink:beer": "draught", "drink:liquor": "yes", "drink:wine": "yes", "happy_hours": "Mo-Tu 16:00-19:00; We-Fr 15:00-19:00; Sa-Su 13:00-15:00", "height": "5.0", "internet_access": "wlan", "internet_access:fee": "no", "name": "Dinosaur Bar-B-Que", "nycdoitt:bin": "3007368", "opening_hours": "Mo-Tu 16:00-21:00; We-Th 12:00-21:00; Fr-Sa 12:00-23:00; Su 12:00-21:00", "outdoor_seating": "sidewalk", "phone": "+1-347-429-7030", "smoking": "no", "website": "https://www.dinosaurbarbque.com/location/brooklyn-ny/", "wheelchair": "limited"}}, {"type": "way", "id": 241860727, "nodes": [2494374226, 2494374189, 9445739504, 9445739506, 2494373989, 2494374064, 12100573696, 12100573683, 11543164006, 2494374226], "tags": {"addr:housenumber": "545", "addr:postcode": "11215", "addr:street": "President Street", "alt_name": "Finback Brewery", "amenity": "bar", "building": "yes", "contact:twitter": "@finbackbrooklyn", "craft": "brewery", "dog": "outside", "height": "7.1", "name": "Finback Brooklyn", "nycdoitt:bin": "3395599", "opening_hours": "Mo-Tu 14:00-22:00, We-Th 12:00-22:00, Fr-Sa 12:00-24:00, Su 12:00-20:00", "operator": "Finback Brewery", "outdoor_seating": "street", "website": "https://finbackbrewery.com"}}, {"type": "way", "id": 241860768, "nodes": [2494373134, 2494373167, 2494373227, 2494373318, 2494373289, 2494373246, 2494373203, 2494373164, 2494373134], "tags": {"addr:housenumber": "521", "addr:postcode": "11215", "addr:street": "Carroll Street", "building": "yes", "fax": "+1-718-797-5113", "height": "9.4", "name": "Neptune Machine", "nycdoitt:bin": "3007535;3341196", "office": "company", "phone": "+1-718-852-4100", "website": "https://www.neptunemachine.com/"}}, {"type": "way", "id": 248158548, "nodes": [2550044413, 2550044425, 2550044429, 2550044446, 2550044440, 2550044476, 2550044474, 2550044431, 2550044413], "tags": {"addr:housenumber": "702", "addr:postcode": "11215", "addr:street": "Union Street", "amenity": "bar", "building": "yes", "cocktails": "yes", "cuisine": "pub;pizza", "description": "bar and standup comedy venue", "drink:beer": "draught", "drink:liquor": "yes", "drink:wine": "yes", "happy_hours": "Mo-Fr 16:00-19:00", "height": "5.1", "name": "Union Hall", "nycdoitt:bin": "3020176", "opening_hours": "Mo-Th 16:00-02:00, Fr 16:00-04:00, Sa 13:00-04:00, Su 13:00-02:00", "opening_hours:kitchen": "Mo-Tu 16:00-22:00, We-Th 16:00-23:00, Fr 16:00-24:00", "outdoor_seating": "sidewalk", "theatre": "yes", "theatre:genre": "stand_up_comedy", "website": "https://www.unionhallny.com"}}, {"type": "way", "id": 248164300, "nodes": [2550057157, 2550057167, 2550057174, 2550057176, 2550057165, 2550057157], "tags": {"addr:housenumber": "200", "addr:postcode": "11217", "addr:street": "5th Avenue", "amenity": "pub", "building": "yes", "cocktails": "yes", "cuisine": "italian;pizza;brunch", "drink:beer": "draught", "drink:liquor": "yes", "drink:wine": "yes", "height": "5.2", "name": "Black Oak", "nycdoitt:bin": "3332137", "opening_hours": "Mo-Su 10:00-24:00+", "opening_hours:kitchen": "Mo-Su 10:00-23:00", "outdoor_seating": "street", "toilets": "yes", "toilets:unisex": "yes"}}, {"type": "way", "id": 385874087, "nodes": [3892100322, 3892100318, 3892100319, 3892100320, 3892100324, 3892100325, 3892100326, 3892100327, 3892100328, 2494311456, 2494311470, 9730332326, 3892100323, 3892792976, 3892100329, 3892100322], "tags": {"addr:housenumber": "512", "addr:postcode": "11215", "addr:street": "Carroll Street", "alt_name": "372K Carroll Street Campus", "amenity": "school", "fax": "+1-718-522-1879", "name": "PS 372 The Chlidren's School", "phone": "+1-718-624-5271", "website": "https://inclusions.org"}}, {"type": "way", "id": 432771872, "nodes": [4317279577, 4317279588, 4317279578, 4317279579, 4317279580, 4317279581, 4317279585, 2550058400, 2550058420, 4317279582, 4317279573, 2550058437, 4317279577], "tags": {"addr:housenumber": "610", "addr:postcode": "11217", "addr:street": "Baltic Street", "amenity": "school", "fax": "+1-718-385-5325", "name": "P.S. 133 William A. Butler", "phone": "+1-718-398-5320", "ref:nycschools": "K133", "website": "https://www.ps133brooklyn.org"}}]}