{"version": 0.6, "generator": "Overpass API 0.7.62.8 e802775f", "osm3s": {"timestamp_osm_base": "2025-12-01T03:54:01Z", "copyright": "The data included in this document is from www.openstreetmap.org. The data is made available under ODbL."}, "elements": [{"type": "node", "id": 2350429885, "lat": 40.6214368, "lon": -73.9876708}, {"type": "node", "id": 2350429894, "lat": 40.621875, "lon": -73.9872337}, {"type": "node", "id": 2557907366, "lat": 40.6203521, "lon": -73.9887223, "tags": {"amenity": "restaurant", "cuisine": "chinese", "name": "Silver Star", "opening_hours": "Tu-Sa 11:00-21:00,Su 12:00-21:00"}}, {"type": "node", "id": 6415057480, "lat": 40.6198175, "lon": -73.9933972, "tags": {"addr:housenumber": "6606", "addr:postcode": "11204", "addr:street": "17th Avenue", "name": "Sollazzo & Marangelli, LLP", "office": "accountant", "phone": "+1-718-236-4242"}}, {"type": "node", "id": 8253366550, "lat": 40.6205484, "lon": -73.9889493, "tags": {"addr:housenumber": "6218", "addr:postcode": "11204", "addr:street": "18th Avenue", "air_conditioning": "yes", "amenity": "restaurant", "check_date": "2024-02-05", "cuisine": "thai", "delivery": "yes", "name": "Pad Thai Kitchen", "opening_hours": "Mo-Su 11:30-21:00", "outdoor_seating": "yes", "payment:cash": "yes", "payment:credit_cards": "yes", "phone": "+1-718-484-0156", "takeaway": "yes", "website": "https://www.padthaibk.com/", "wheelchair": "yes"}}, {"type": "node", "id": 9393419568, "lat": 40.6191734, "lon": -73.989937, "tags": {"addr:city": "Brooklyn", "addr:housenumber": "6423", "addr:postcode": "11204", "addr:state": "NY", "addr:street": "18th Avenue", "air_conditioning": "yes", "amenity": "cafe", "branch": "65th St & 18th Avenue", "brand": "Starbucks", "brand:wikidata": "Q37158", "check_date": "2023-11-20", "cuisine": "coffee_shop", "delivery": "yes", "drive_through": "no", "highchair": "no", "internet_access": "wlan", "internet_access:fee": "no", "name": "Starbucks", "official_name": "Starbucks Coffee", "opening_hours": "Mo-We,Fr 05:30-21:00; Th 06:00-18:00; Sa-Su 06:00-21:00", "outdoor_seating": "no", "payment:cash": "yes", "payment:credit_cards": "yes", "phone": "+1 718-234-7160", "ref": "13895", "reservation": "no", "smoking": "no", "takeaway": "yes", "website": "https://www.starbucks.com/store-locator/store/13895/65th-st-18th-ave-6423-18th-avenue-brooklyn-ny-112043774-us", "wheelchair": "yes"}}, {"type": "node", "id": 9828956717, "lat": 40.6205406, "lon": -73.9921831, "tags": {"addr:city": "Brooklyn", "addr:housenumber": "1701", "addr:postcode": "11204", "addr:state": "NY", "addr:street": "65th Street", "amenity": "restaurant", "cuisine": "asian;chinese;japanese;noodle", "delivery": "yes", "name": "65 Kuho Sushi Hotpot", "phone": "+1-718-232-5668"}}, {"type": "node", "id": 9919930236, "lat": 40.6212331, "lon": -73.9873526}, {"type": "node", "id": 9919930243, "lat": 40.6216697, "lon": -73.9868928}, {"type": "node", "id": 11588630080, "lat": 40.620469, "lon": -73.9890272, "tags": {"addr:housenumber": "6224", "addr:postcode": "11204", "addr:street": "18th Avenue", "amenity": "restaurant", "check_date": "2025-02-08", "check_date:opening_hours": "2025-02-08", "cuisine": "chinese;japanese", "name": "Jin Jin Hong Kong Cafe", "opening_hours": "We-Mo 11:00-20:50; Tu off", "payment:cash": "yes", "payment:credit_cards": "yes", "wheelchair": "yes"}}, {"type": "node", "id": 11836256036, "lat": 40.6187085, "lon": -73.9904138, "tags": {"addr:city": "Brooklyn", "addr:housenumber": "6517", "addr:state": "NY", "addr:street": "18th Avenue", "addr:unit": "1B", "amenity": "cafe", "cuisine": "bubble_tea", "name": "ViVi's Bubble Tea", "opening_hours": "Mo-Su 11:30-20:00", "website": "https://vivibubbletea.com/"}}, {"type": "node", "id": 11984378530, "lat": 40.6212544, "lon": -73.9882361, "tags": {"name": "All Pro Billing Solutions", "office": "company", "phone": "+1-718-232-3707"}}, {"type": "node", "id": 12155397147, "lat": 40.6192358, "lon": -73.9898726, "tags": {"addr:housenumber": "6419", "addr:street": "18th Avenue", "air_conditioning": "yes", "amenity": "restaurant", "check_date": "2024-10-16", "cuisine": "chinese", "delivery": "yes", "name": "Chun Hong Kong Cafe", "opening_hours": "Mo-Fr 10:00-21:00, Sa-Su 09:00-21:00", "outdoor_seating": "no", "payment:cash": "yes", "payment:credit_cards": "yes", "phone": "+1-718-872-6429", "smoking": "no", "takeaway": "yes", "website": "https://www.chunhongkongcafe.com", "wheelchair": "yes"}}, {"type": "way", "id": 226188136, "nodes": [2350429885, 2350429894, 9919930243, 9919930236, 2350429885], "tags": {"addr:city": "Brooklyn", "addr:housenumber": "6015", "addr:postcode": "11204", "addr:state": "NY", "addr:street": "18th Avenue", "amenity": "school", "ele": "13", "fax": "+1 718-232-3451", "gnis:feature_id": "961722", "grades": "PK-5", "mascot": "Dragons", "name": "P.S. 48 Mapleton", "operator": "New York City Department of Education", "operator:short": "NYC Public Schools", "operator:type": "public", "operator:wikidata": "Q408230", "phone": "+1 718-232-3873", "website": "https://www.schools.nyc.gov/schools/K048"}}]}