{"version": 0.6, "generator": "Overpass API 0.7.62.8 e802775f", "osm3s": {"timestamp_osm_base": "2025-12-01T17:07:57Z", "copyright": "The data included in this document is from www.openstreetmap.org. The data is made available under ODbL."}, "elements": [{"type": "node", "id": 2522798672, "lat": 40.7749895, "lon": -73.9134767, "tags": {"amenity": "restaurant", "cuisine": "greek", "name": "Zorbas"}}, {"type": "node", "id": 2522802854, "lat": 40.7747988, "lon": -73.913727, "tags": {"amenity": "cafe", "name": "New York City Bagel and Coffee House", "outdoor_seating": "yes"}}, {"type": "node", "id": 2606329018, "lat": 40.7755528, "lon": -73.9096175, "tags": {"amenity": "restaurant", "cuisine": "seafood", "name": "Hamido Seafood"}}, {"type": "node", "id": 2853133633, "lat": 40.7748728, "lon": -73.9086889, "tags": {"addr:city": "Astoria", "addr:housenumber": "35-01", "addr:postcode": "11105", "addr:state": "NY", "addr:street": "Ditmars Boulevard", "amenity": "bar", "name": "Botte", "website": "https://www.botterestaurants.com/astoria/"}}, {"type": "node", "id": 2853146584, "lat": 40.7725015, "lon": -73.9154488, "tags": {"addr:housenumber": "29-25", "addr:postcode": "11105", "addr:street": "24th Avenue", "office": "lawyer", "phone": "+1-718-204-2060"}}, {"type": "node", "id": 2853150191, "lat": 40.7729089, "lon": -73.9153878}, {"type": "node", "id": 2853150247, "lat": 40.7729962, "lon": -73.9155179}, {"type": "node", "id": 2853157677, "lat": 40.7744016, "lon": -73.912317}, {"type": "node", "id": 2853157683, "lat": 40.7744261, "lon": -73.9122872}, {"type": "node", "id": 2853157705, "lat": 40.7744969, "lon": -73.9124525}, {"type": "node", "id": 2853157720, "lat": 40.7745466, "lon": -73.912392}, {"type": "node", "id": 2853157989, "lat": 40.7749762, "lon": -73.911573}, {"type": "node", "id": 2853158118, "lat": 40.7750413, "lon": -73.9114929}, {"type": "node", "id": 2853158134, "lat": 40.7750989, "lon": -73.911719}, {"type": "node", "id": 2853158148, "lat": 40.7751539, "lon": -73.9116514}, {"type": "node", "id": 2853174755, "lat": 40.7752594, "lon": -73.9138914, "tags": {"addr:housenumber": "28-17", "addr:postcode": "11105", "addr:street": "23rd Avenue", "office": "estate_agent"}}, {"type": "node", "id": 2853177417, "lat": 40.7755908, "lon": -73.9116083}, {"type": "node", "id": 2853177434, "lat": 40.7756299, "lon": -73.9115606}, {"type": "node", "id": 2853177496, "lat": 40.775787, "lon": -73.911886}, {"type": "node", "id": 2853177804, "lat": 40.7758118, "lon": -73.9118181}, {"type": "node", "id": 2853177814, "lat": 40.775826, "lon": -73.9118382}, {"type": "node", "id": 2853249931, "lat": 40.7773793, "lon": -73.9108542, "tags": {"addr:housenumber": "21-63", "addr:postcode": "11105", "addr:street": "29th Street", "amenity": "school", "ele": "18", "gnis:feature_id": "953600", "name": "Immaculate Conception School"}}, {"type": "node", "id": 2863510616, "lat": 40.7749016, "lon": -73.9119381, "tags": {"addr:city": "Astoria", "addr:housenumber": "22-49", "addr:postcode": "11105", "addr:state": "NY", "addr:street": "31st Street", "amenity": "restaurant", "capacity": "20", "cuisine": "middle_eastern", "name": "Shawarmania", "opening_hours": "Mo-We 11:00-23:00; Th-Su 11:00-24:00", "phone": "+1-718-545-1800", "smoking": "no", "website": "http://www.shawarmania.nyc/"}}, {"type": "node", "id": 3500173697, "lat": 40.77507, "lon": -73.9094624, "tags": {"addr:city": "Astoria", "addr:housenumber": "3308", "addr:postcode": "11105", "addr:state": "NY", "addr:street": "Ditmars Boulevard", "amenity": "restaurant", "name": "Hamido Seafood", "website": "https://www.hamidoseafood.com/"}}, {"type": "node", "id": 3500174246, "lat": 40.7748923, "lon": -73.9091985, "tags": {"addr:city": "Astoria", "addr:housenumber": "33-18", "addr:postcode": "11105", "addr:state": "NY", "addr:street": "Ditmars Boulevard", "amenity": "restaurant", "cuisine": "japanese", "name": "HinoMaru Ramen", "opening_hours": "Mo-Th 12:00-14:30,16:30-22:00; Fr-Su 12:00-15:30,16:30-22:00", "phone": "+1 718-777-0228", "website": "https://www.hinomaruramen.com/"}}, {"type": "node", "id": 3792695289, "lat": 40.7732657, "lon": -73.9159085}, {"type": "node", "id": 3792695291, "lat": 40.7727204, "lon": -73.9151192}, {"type": "node", "id": 3792695292, "lat": 40.7732193, "lon": -73.9145177}, {"type": "node", "id": 3792695296, "lat": 40.7730769, "lon": -73.9156349}, {"type": "node", "id": 3792695301, "lat": 40.7730222, "lon": -73.9155556}, {"type": "node", "id": 3792695304, "lat": 40.7740234, "lon": -73.914986}, {"type": "node", "id": 3792695306, "lat": 40.7738001, "lon": -73.9146612}, {"type": "node", "id": 3792695307, "lat": 40.7735491, "lon": -73.9149822}, {"type": "node", "id": 5346072194, "lat": 40.7749825, "lon": -73.9116821, "tags": {"addr:housenumber": "22-45", "addr:street": "31st Street", "name": "Vallone & Vallone", "office": "lawyer", "phone": "+1-718-204-2929", "website": "https://www.vallonelaw.com"}}, {"type": "node", "id": 5487117025, "lat": 40.774704, "lon": -73.9136014, "tags": {"addr:city": "Astoria", "addr:housenumber": "29-12", "addr:postcode": "11105", "addr:state": "NY", "addr:street": "23rd Avenue", "amenity": "bar", "brewery": "yes", "name": "The Bonnie", "opening_hours": "Mo-Th 15:00-02:00; Fr 12:00-04:00; Sa 10:00-04:00; Su 10:00-02:00", "outdoor_seating": "yes", "phone": "+1 718 274 2105", "toilets": "yes", "website": "https://www.thebonnie.com/"}}, {"type": "node", "id": 5487137024, "lat": 40.7741504, "lon": -73.912314, "tags": {"addr:city": "Astoria", "addr:housenumber": "31-13", "addr:postcode": "11105", "addr:state": "NY", "addr:street": "23rd Avenue", "name": "Sidakis", "office": "insurance"}}, {"type": "node", "id": 5782481566, "lat": 40.774712, "lon": -73.912713, "tags": {"addr:housenumber": "22-72", "addr:postcode": "11105", "addr:street": "31st Street", "amenity": "bar", "contact:instagram": "sweetspotastoria", "name": "Sweet Spot Sporting Lounge & Bar", "opening_hours": "Mo-Th 15:00-01:00; Fr 15:00-02:00; Sa 12:00-02:00; Su 12:00-01:00", "phone": "+1 718-777-7475", "reservation": "yes", "website": "https://sweetspotastoria.com/"}}, {"type": "node", "id": 5782485527, "lat": 40.7743831, "lon": -73.9125824, "tags": {"addr:housenumber": "22-85", "addr:street": "31st Street", "name": "Spectrum", "office": "telecommunication"}}, {"type": "node", "id": 5782486056, "lat": 40.7746679, "lon": -73.9127613, "tags": {"addr:housenumber": "22-74", "addr:postcode": "11105", "addr:street": "31st Street", "addr:unit": "1", "amenity": "driving_school", "fax": "+1 718-274-3026", "name": "Zapiti Auto School and Services", "office": "consulting", "opening_hours": "Mo-Th 08:00-19:00; Fr 08:00-18:00; Sa 09:00-17:00", "phone": "+1 718-274-5100", "website": "https://zapitiautoschool.com/index.html"}}, {"type": "node", "id": 5782486184, "lat": 40.7742036, "lon": -73.9133194, "tags": {"addr:housenumber": "23-10", "addr:street": "31st Street", "amenity": "restaurant", "cuisine": "afghan", "diet:halal": "yes", "level": "0", "name": "Balkh Shish Kabab House", "phone": "+1-718-721-5020"}}, {"type": "node", "id": 5782486382, "lat": 40.7739028, "lon": -73.9131611, "tags": {"addr:housenumber": "23-15", "addr:street": "31st Street", "amenity": "restaurant", "cuisine": "greek", "name": "Dionysos Restaurant"}}, {"type": "node", "id": 5889477161, "lat": 40.7731772, "lon": -73.9114417, "tags": {"addr:housenumber": "33-16", "addr:street": "23rd Avenue", "amenity": "bar", "check_date": "2022-09-16", "name": "Astoria Tavern"}}, {"type": "node", "id": 5891689501, "lat": 40.7760481, "lon": -73.9150267, "tags": {"addr:housenumber": "27-01", "addr:street": "23rd Avenue", "amenity": "bar", "name": "Rocky McBride's"}}, {"type": "node", "id": 5891689506, "lat": 40.7760149, "lon": -73.9149847, "tags": {"addr:housenumber": "27-03", "addr:street": "23rd Avenue", "amenity": "restaurant", "cuisine": "colombian;ecuadorian", "name": "Sandro's Latin Food"}}, {"type": "node", "id": 5891690588, "lat": 40.7748289, "lon": -73.9137828, "tags": {"addr:housenumber": "29-06", "addr:street": "23rd Avenue", "amenity": "restaurant", "cuisine": "thai", "name": "San Aroy"}}, {"type": "node", "id": 5891690591, "lat": 40.7753199, "lon": -73.9140086, "tags": {"addr:housenumber": "28-13", "addr:street": "23rd Avenue", "amenity": "restaurant", "cuisine": "greek", "name": "Telly's Tavern", "outdoor_seating": "yes", "phone": "+1-718-728-9056"}}, {"type": "node", "id": 7722312788, "lat": 40.7751791, "lon": -73.9096244, "tags": {"amenity": "restaurant", "cuisine": "greek", "name": "Lefkos Pyrgos"}}, {"type": "node", "id": 8789958334, "lat": 40.7765324, "lon": -73.9099212, "tags": {"addr:city": "Astoria", "addr:housenumber": "2161", "addr:postcode": "11105", "addr:state": "NY", "addr:street": "31st Street", "amenity": "restaurant", "brand": "IHOP", "brand:wikidata": "Q1185675", "check_date": "2024-08-23", "cuisine": "breakfast;pancake", "name": "IHOP", "opening_hours": "Mo-Th 06:30-22:00; Fr 06:30-24:00; Sa 00:00-24:00; Su 12:00-22:00", "phone": "+1 718-971-1644", "source": "official website", "website": "https://restaurants.ihop.com/en-us/ny/astoria/breakfast-2161-31st-st-3720"}}, {"type": "node", "id": 9693342310, "lat": 40.7750333, "lon": -73.909408, "tags": {"addr:city": "Astoria", "addr:housenumber": "33-10", "addr:postcode": "11105", "addr:state": "NY", "addr:street": "Ditmars Boulevard", "amenity": "restaurant", "cuisine": "sushi", "name": "Watawa Sushi", "opening_hours": "11:30-21:30", "phone": "+1 718-545-9596", "website": "https://www.watawasushi.com/"}}, {"type": "node", "id": 9693563601, "lat": 40.7765245, "lon": -73.9110067, "tags": {"addr:city": "Astoria", "addr:housenumber": "29-19", "addr:postcode": "11105", "addr:state": "NY", "addr:street": "Ditmars Boulevard", "amenity": "restaurant", "cuisine": "peruvian;barbecue;chicken", "name": "Chicken Festival", "opening_hours": "Mo-Su 11:30-21:00", "phone": "+1-718-728-9696", "website": "https://whereyoueat.com/Chicken-Festival-17316.html"}}, {"type": "node", "id": 9823263115, "lat": 40.7746732, "lon": -73.9089229, "tags": {"addr:housenumber": "35-02", "addr:street": "Ditmars Boulevard", "amenity": "restaurant", "name": "Barranco", "website": "https://barranconyc.com/"}}, {"type": "node", "id": 9901134112, "lat": 40.7757252, "lon": -73.9150322, "tags": {"addr:city": "Astoria", "addr:housenumber": "27-10", "addr:postcode": "11105", "addr:state": "NY", "addr:street": "23rd Avenue", "amenity": "restaurant", "cuisine": "noodle", "name": "Dipping Dumplings"}}, {"type": "node", "id": 9923265667, "lat": 40.7749545, "lon": -73.9134483, "tags": {"addr:city": "Astoria", "addr:housenumber": "29-11", "addr:postcode": "11105", "addr:state": "NY", "addr:street": "23rd Avenue", "amenity": "restaurant", "name": "Stamatis"}}, {"type": "node", "id": 11483330864, "lat": 40.7730722, "lon": -73.9141387, "tags": {"addr:city": "Astoria", "addr:housenumber": "23-53", "addr:postcode": "11105", "addr:state": "NY", "addr:street": "31st Street", "name": "Stylianou Accounting", "office": "accountant", "phone": "+1 718-606-0766", "website": "https://www.stylianouaccounting.com/"}}, {"type": "node", "id": 11501454972, "lat": 40.7752137, "lon": -73.9115497, "tags": {"addr:city": "Astoria", "addr:housenumber": "22-37", "addr:postcode": "11105", "addr:state": "NY", "addr:street": "31st Street", "amenity": "cafe", "check_date": "2025-10-12", "email": "coffee@qahwahhouse.com", "level": "0", "name": "Qahwah House", "website": "https://qahwahhouse.com"}}, {"type": "node", "id": 11829025830, "lat": 40.7729377, "lon": -73.9143042, "tags": {"addr:housenumber": "23-61", "addr:street": "31st Street", "amenity": "cafe", "name": "Eli\u2019s Cafe & Creperie"}}, {"type": "node", "id": 11829025831, "lat": 40.7727846, "lon": -73.9144932, "tags": {"addr:housenumber": "23-71", "addr:street": "31st Street", "name": "Our House", "office": "coworking", "website": "https://ourhousequeens.com"}}, {"type": "node", "id": 11829025832, "lat": 40.7733627, "lon": -73.9143703, "tags": {"office": "lawyer"}}, {"type": "node", "id": 11829025834, "lat": 40.7737349, "lon": -73.9141078, "tags": {"addr:street": "31st Street", "amenity": "cafe", "name": "Under Pressure Coffee"}}, {"type": "node", "id": 12037234983, "lat": 40.7757784, "lon": -73.9099719, "tags": {"addr:housenumber": "31-17", "addr:street": "Ditmars Boulevard", "amenity": "bar", "name": "Blvd"}}, {"type": "node", "id": 12037259035, "lat": 40.774834, "lon": -73.9086149, "tags": {"addr:housenumber": "35-03", "addr:street": "Ditmars Boulevard", "amenity": "bar", "name": "The Ditty", "website": "https://thedittybar.com/"}}, {"type": "node", "id": 12037270026, "lat": 40.7747536, "lon": -73.9085232, "tags": {"addr:housenumber": "35-07", "addr:street": "Ditmarss Boulevard", "amenity": "restaurant", "diet:halal": "only", "level": "0", "name": "Flaming Grill", "phone": "+1 646-822-0444", "website": "www.flaminggrillny.com", "wheelchair": "yes"}}, {"type": "node", "id": 12037275769, "lat": 40.7751061, "lon": -73.9089946, "tags": {"amenity": "bar", "name": "Rivercrest"}}, {"type": "node", "id": 12037276438, "lat": 40.7747858, "lon": -73.912079, "tags": {"addr:housenumber": "22-55", "addr:street": "31st Street", "amenity": "restaurant", "cuisine": "colombian", "name": "Delicias Cale\u00f1as", "opening_hours": "24/7", "phone": "+1 718-433-9565"}}, {"type": "node", "id": 12037313253, "lat": 40.7747971, "lon": -73.9120597, "tags": {"addr:housenumber": "22-55", "addr:street": "31st Street", "amenity": "bar", "name": "O'Hanlon's"}}, {"type": "node", "id": 12037316254, "lat": 40.7748192, "lon": -73.9120307, "tags": {"addr:housenumber": "22-55", "addr:street": "31st Street", "amenity": "restaurant", "cuisine": "indian", "name": "Yaar Indian Restaurant", "phone": "+1 718-721-0205"}}, {"type": "node", "id": 12162522174, "lat": 40.7752427, "lon": -73.909958, "tags": {"amenity": "cafe", "name": "OK Caf\u00e9", "opening_hours": "Mo-Th 07:30-19:00; Fr 07:30-20:00; Sa 08:00-20:00; Su 08:00-19:00"}}, {"type": "node", "id": 12164467268, "lat": 40.7753994, "lon": -73.9099221, "tags": {"amenity": "bar", "name": "The Last Word", "website": "https://www.tlwcocktailbar.com/"}}, {"type": "node", "id": 12164498046, "lat": 40.7751043, "lon": -73.9095237, "tags": {"amenity": "restaurant", "name": "Acento", "website": "https://www.acentolatinkitchen.com/"}}, {"type": "node", "id": 12164548426, "lat": 40.7746026, "lon": -73.9087993, "tags": {"amenity": "restaurant", "cuisine": "mexican", "name": "Moho", "opening_hours": "Mo-Su 10:45-23:00", "website": "https://mohoeats.com/"}}, {"type": "node", "id": 12166885751, "lat": 40.7766515, "lon": -73.9117101, "tags": {"amenity": "cafe", "cuisine": "coffee_shop", "name": "Seek Coffee"}}, {"type": "node", "id": 12200090024, "lat": 40.7762658, "lon": -73.9102562, "tags": {"name": "H&R Block", "office": "accountant"}}, {"type": "node", "id": 12200255312, "lat": 40.7773058, "lon": -73.912112, "tags": {"name": "F. A. Allan Insurance", "office": "insurance"}}, {"type": "node", "id": 12200287664, "lat": 40.7768808, "lon": -73.9120268, "tags": {"name": "Halvatzis Realty", "office": "estate_agent"}}, {"type": "node", "id": 12216919890, "lat": 40.7746047, "lon": -73.9134714, "tags": {"office": "lawyer"}}, {"type": "node", "id": 12216947632, "lat": 40.7763198, "lon": -73.9153793, "tags": {"name": "Across America", "office": "insurance"}}, {"type": "node", "id": 12216969188, "lat": 40.7741836, "lon": -73.912376, "tags": {"amenity": "restaurant", "name": "Koliba", "opening_hours": "We-Sa 15:00-20:30; Su 12:00-20:00", "website": "https://www.kolibarestaurant.com/"}}, {"type": "node", "id": 12216995925, "lat": 40.775769, "lon": -73.9151212, "tags": {"name": "John Constantinou", "office": "accountant"}}, {"type": "node", "id": 12216995926, "lat": 40.7755381, "lon": -73.9147688, "tags": {"amenity": "bar", "name": "The Leftove Inn"}}, {"type": "node", "id": 12216995940, "lat": 40.7744544, "lon": -73.9132403, "tags": {"amenity": "restaurant", "cuisine": "pizza", "name": "Figlia"}}, {"type": "node", "id": 12217011255, "lat": 40.774534, "lon": -73.9133501, "tags": {"name": "Modern Spaces", "office": "estate_agent"}}, {"type": "node", "id": 12217015953, "lat": 40.7746447, "lon": -73.9135344, "tags": {"amenity": "pub", "name": "Charlie's"}}, {"type": "node", "id": 12217023237, "lat": 40.7739664, "lon": -73.9120691, "tags": {"name": "Alexou Tax & Accounting", "office": "accountant"}}, {"type": "node", "id": 12217024777, "lat": 40.7742143, "lon": -73.9124202, "tags": {"amenity": "restaurant", "cuisine": "pizza", "name": "Via vai", "website": "https://www.viavai-ny.com/"}}, {"type": "node", "id": 12217029005, "lat": 40.7746571, "lon": -73.9110668, "tags": {"amenity": "school", "name": "St. Demetrios Elementary School"}}, {"type": "node", "id": 12217030326, "lat": 40.7739282, "lon": -73.912011, "tags": {"name": "Alexou Realty", "office": "estate_agent"}}, {"type": "node", "id": 12245055257, "lat": 40.774798, "lon": -73.9132548, "tags": {"amenity": "pub", "name": "Porta 23"}}, {"type": "node", "id": 12245062416, "lat": 40.7745929, "lon": -73.9129453, "tags": {"amenity": "cafe", "cuisine": "coffee_shop", "name": "To Laiko"}}, {"type": "node", "id": 12245064378, "lat": 40.7749018, "lon": -73.9133719, "tags": {"amenity": "restaurant", "cuisine": "greek", "name": "Ambrosia Garden"}}, {"type": "node", "id": 12245068122, "lat": 40.7747461, "lon": -73.9131796, "tags": {"amenity": "restaurant", "cuisine": "asian", "name": "Rice K"}}, {"type": "node", "id": 12791582997, "lat": 40.7744872, "lon": -73.9086454, "tags": {"amenity": "restaurant", "name": "Tasty's Diner"}}, {"type": "node", "id": 13173810199, "lat": 40.7751621, "lon": -73.9100506, "tags": {"amenity": "restaurant", "name": "Poke & Roll Sushi"}}, {"type": "way", "id": 281355419, "nodes": [2853157989, 2853158134, 2853158148, 2853158118, 2853157989], "tags": {"addr:city": "Astoria", "addr:housenumber": "22-41", "addr:postcode": "11105", "addr:state": "NY", "addr:street": "31st Street", "amenity": "cafe", "building": "yes", "check_date": "2025-10-12", "cuisine": "mediterranean", "delivery": "yes", "diet:halal": "yes", "drive_through": "no", "height": "5.3", "name": "Truva Cafe & Grill", "nycdoitt:bin": "4017052", "opening_hours": "10:00-21:45", "outdoor_seating": "yes", "phone": "+1 718-952-6400", "takeaway": "yes", "toilets": "yes"}}, {"type": "way", "id": 281355454, "nodes": [2853157677, 2853157705, 2853157720, 2853157683, 2853157677], "tags": {"addr:housenumber": "22-73", "addr:postcode": "11105", "addr:street": "31st Street", "amenity": "restaurant", "building": "yes", "cuisine": "mexican", "delivery": "yes", "height": "3.4", "name": "Los Amigos By Restaurant", "nycdoitt:bin": "4438831", "opening_hours": "Mo-Th 11:00-01:30, Fr-Su 11:00-02:30", "phone": "+1 718-956-8855"}}, {"type": "way", "id": 281356720, "nodes": [2853177434, 2853177417, 2853177496, 2853177814, 2853177804, 2853177434], "tags": {"addr:city": "Astoria", "addr:housenumber": "22-28", "addr:postcode": "11105", "addr:state": "NY", "addr:street": "31st Street", "amenity": "cafe", "branch": "31st St & Ditmars Boulevard- Astori", "brand": "Starbucks", "brand:wikidata": "Q37158", "building": "yes", "cuisine": "coffee_shop", "height": "7.4", "name": "Starbucks", "nycdoitt:bin": "4017618", "official_name": "Starbucks Coffee", "opening_hours": "Mo-Fr 05:00-21:00; Sa, Su 05:30-21:00", "phone": "+1 718-626-6004", "ref": "1029044", "takeaway": "yes", "website": "https://www.starbucks.com/store-locator/store/1029044/31st-st-ditmars-blvd-astori-22-28-31st-st-astoria-ny-111052714-us"}}, {"type": "way", "id": 375930682, "nodes": [3792695291, 2853150191, 2853150247, 3792695301, 3792695296, 3792695289, 3792695304, 3792695306, 3792695307, 3792695292, 3792695291], "tags": {"addr:city": "Astoria", "addr:housenumber": "23-70", "addr:postcode": "11102", "addr:street": "31st Street", "amenity": "school", "check_date": "2024-04-18", "ele": "13", "gnis:feature_id": "961884", "name": "P.S. 85 - Judge Charles Vallone School"}}]}