{"version": 0.6, "generator": "Overpass API 0.7.62.8 e802775f", "osm3s": {"timestamp_osm_base": "2025-12-01T16:09:24Z", "copyright": "The data included in this document is from www.openstreetmap.org. The data is made available under ODbL."}, "elements": [{"type": "node", "id": 357618139, "lat": 40.7590882, "lon": -73.9213947, "tags": {"addr:housenumber": "32-52", "addr:postcode": "11106", "addr:street": "37th Street", "amenity": "school", "ele": "15", "gnis:feature_id": "2080377", "name": "Most Precious Blood School"}}, {"type": "node", "id": 1028101219, "lat": 40.7579727, "lon": -73.9232898, "tags": {"amenity": "cafe", "name": "Citrico Cafe & Agaveria Bar", "phone": "+1 718-255-1705", "website": "https://www.citricocafe.com"}}, {"type": "node", "id": 1927807839, "lat": 40.7546296, "lon": -73.9219754}, {"type": "node", "id": 1927807840, "lat": 40.7547632, "lon": -73.9222645}, {"type": "node", "id": 1927807841, "lat": 40.7548597, "lon": -73.92179}, {"type": "node", "id": 1927807843, "lat": 40.7549933, "lon": -73.9220791}, {"type": "node", "id": 2275827320, "lat": 40.759015, "lon": -73.9187469, "tags": {"addr:city": "Astoria", "addr:housenumber": "31-91", "addr:street": "Steinway Street", "amenity": "restaurant", "cuisine": "diner", "name": "Gramercy Cafe", "phone": "+1 917-745-0713", "wheelchair": "yes"}}, {"type": "node", "id": 2275827363, "lat": 40.7591405, "lon": -73.9196792, "tags": {"addr:city": "Astoria", "addr:housenumber": "38-04", "addr:postcode": "11103", "addr:state": "NY", "addr:street": "Broadway", "amenity": "bar", "contact:facebook": "https://www.facebook.com/therabbithole.nyc/", "email": "info@therabbithole.nyc", "name": "The Rabbit Hole", "opening_hours": "Mo-Th 17:00-02:00; Fr 17:00-04:00; Sa 15:00-04:00; Su 13:00-02:00", "phone": "+1 718 255 1271", "website": "https://www.therabbithole.nyc/", "wheelchair": "no"}}, {"type": "node", "id": 2846607012, "lat": 40.7564758, "lon": -73.9208408, "tags": {"addr:housenumber": "34-01", "addr:postcode": "11101", "addr:street": "Steinway Street", "amenity": "restaurant", "branch": "Steinway Street", "cuisine": "greek", "name": "SVL Souvlaki Bar", "opening_hours": "Mo-Su 11:00-22:00", "phone": "+1 718-717-2440", "website": "https://www.svlbar.com"}}, {"type": "node", "id": 2846607022, "lat": 40.7561132, "lon": -73.9211347, "tags": {"addr:housenumber": "34-23", "addr:postcode": "11101", "addr:street": "Steinway Street", "amenity": "restaurant", "cuisine": "middle_eastern", "diet:halal": "only", "level": "0", "name": "Shawarma Spot", "phone": "+1 718-540-5099", "wheelchair": "yes"}}, {"type": "node", "id": 2846630172, "lat": 40.7583544, "lon": -73.9241302, "tags": {"addr:housenumber": "34-21", "addr:postcode": "11106", "addr:street": "34th Avenue", "amenity": "restaurant", "cuisine": "seafood", "name": "Mar's"}}, {"type": "node", "id": 2846642881, "lat": 40.7576335, "lon": -73.9224942, "tags": {"addr:city": "Long Island City", "addr:housenumber": "32-90", "addr:postcode": "11106", "addr:state": "NY", "addr:street": "36th Street", "amenity": "cafe", "cuisine": "mediterranean", "name": "Monika's Cafe Bar"}}, {"type": "node", "id": 2846661353, "lat": 40.7586167, "lon": -73.9179393, "tags": {"addr:housenumber": "41-01", "addr:postcode": "11103", "addr:street": "41st", "amenity": "restaurant", "cuisine": "spanish", "name": "C\u00edrculo Espa\u00f1ol", "opening_hours": "Th 17:00-21:00; Fr-Sa 13:00-22:00; Su 13:00-19:00", "phone": "+1-718-626-0872", "website": "https://centroespanoldequeens.org/en/circulo-espanol"}}, {"type": "node", "id": 2846661366, "lat": 40.7590916, "lon": -73.9187165, "tags": {"addr:housenumber": "31-89", "addr:postcode": "11103", "addr:street": "Steinway Street", "amenity": "cafe", "level": "0", "name": "Teamakers", "opening_hours": "Mo-Th, Su 11:00-22:00; Fr, Sa 11:00-23:00", "wheelchair": "yes"}}, {"type": "node", "id": 2846661386, "lat": 40.7583835, "lon": -73.9174536, "tags": {"addr:housenumber": "41-17", "addr:postcode": "11103", "addr:street": "Broadway", "amenity": "restaurant", "cuisine": "latin_american; japanese", "name": "Tacoshi", "opening_hours": "Mo-Su 16:00-02:00", "phone": "+1 929-789-6592"}}, {"type": "node", "id": 3452904870, "lat": 40.7559373, "lon": -73.9234715, "tags": {"addr:city": "Astoria", "addr:housenumber": "37-11", "addr:postcode": "11101", "addr:state": "NY", "addr:street": "35th Avenue", "amenity": "cafe", "branch": "35th Avenue and 37th St", "brand": "Starbucks", "brand:wikidata": "Q37158", "cuisine": "coffee_shop", "internet_access": "wlan", "name": "Starbucks", "official_name": "Starbucks Coffee", "phone": "+1 718-706-0464", "takeaway": "yes", "website": "https://www.starbucks.com/store-locator/store/9764/35th-ave-and-37th-st-3711-35th-avenue-astoria-ny-111011524-us", "wheelchair": "yes"}}, {"type": "node", "id": 3570193128, "lat": 40.7555706, "lon": -73.9226603, "tags": {"addr:state": "NY", "amenity": "restaurant", "brand": "Applebee's Neighborhood Grill & Bar", "brand:wikidata": "Q621532", "cuisine": "american", "name": "Applebee's", "official_name": "Applebee's Neighborhood Grill & Bar", "opening_hours": "Mo-Th, Su 09:00-00:00; Fr, Sa 09:00-01:00", "phone": "+1 718-943-7404", "toilets:wheelchair": "yes", "website": "https://restaurants.applebees.com/en-us/ny/astoria/38-01-35th-avenue-76004", "website:menu": "https://www.applebees.com/en/menu?StoreNumber=76004&action=viewmenu", "wheelchair": "yes"}}, {"type": "node", "id": 3570193131, "lat": 40.7556895, "lon": -73.92295, "tags": {"amenity": "restaurant", "brand": "Unos", "brand:wikidata": "Q7897209", "cuisine": "pizza", "name": "Unos", "toilets:wheelchair": "yes", "wheelchair": "yes"}}, {"type": "node", "id": 3577908193, "lat": 40.7594141, "lon": -73.9195925, "tags": {"addr:housenumber": "38-01", "addr:postcode": "11103", "addr:street": "Broadway", "amenity": "restaurant", "branch": "Astoria", "cuisine": "latin_american", "name": "Las Margaritas", "phone": "+1-718-777-1707", "toilets:wheelchair": "yes", "website": "http://www.lasmargaritassunset.com/astoria/", "wheelchair": "yes"}}, {"type": "node", "id": 3864498058, "lat": 40.7587851, "lon": -73.9183096, "tags": {"addr:city": "Astoria", "addr:housenumber": "40-17", "addr:postcode": "11103", "addr:street": "Broadway", "amenity": "restaurant", "name": "First Stop Bar & Grill"}}, {"type": "node", "id": 4971235210, "lat": 40.7585291, "lon": -73.9191613, "tags": {"addr:city": "Astoria", "addr:housenumber": "32-17", "addr:postcode": "11103", "addr:state": "NY", "addr:street": "Steinway Street", "amenity": "restaurant", "bar": "yes", "contact:facebook": "basureroNY", "cuisine": "latin_american", "name": "Basurero", "opening_hours": "Mo-Th, Su 10:00-00:00; Fr", "phone": "+1 718 545 7077", "wheelchair": "yes"}}, {"type": "node", "id": 4971235212, "lat": 40.7583823, "lon": -73.9192954, "tags": {"addr:city": "Astoria", "addr:housenumber": "32-25", "addr:postcode": "11103", "addr:street": "Steinway Street", "amenity": "restaurant", "cuisine": "latin_american", "happy_hours": "Mo-Fr 15:00-19:00", "name": "Lunera", "phone": "+1 718-726-9857", "wheelchair": "yes"}}, {"type": "node", "id": 4971235213, "lat": 40.7584179, "lon": -73.9192706, "tags": {"addr:city": "Astoria", "addr:housenumber": "32-23", "addr:postcode": "11103", "addr:street": "Steinway Street", "amenity": "bar", "name": "Ritmos 60", "wheelchair": "yes"}}, {"type": "node", "id": 5059116347, "lat": 40.7594064, "lon": -73.9202498, "tags": {"addr:housenumber": "37-12", "addr:street": "Broadway", "brand": "H&R Block", "brand:wikidata": "Q5627799", "name": "H&R Block", "office": "tax_advisor", "opening_hours": "Mo-Fr 09:00-20:00; Sa 09:00-19:00; Su 11:00-17:00"}}, {"type": "node", "id": 5083557375, "lat": 40.7586389, "lon": -73.9194747, "tags": {"addr:housenumber": "32-14", "addr:street": "Steinway Street", "amenity": "cafe", "contact:facebook": "quericobakery", "contact:instagram": "quericobakery", "cuisine": "colombian", "name": "Que Rico", "phone": "+1 718-255-1541"}}, {"type": "node", "id": 5114100230, "lat": 40.7549718, "lon": -73.922037}, {"type": "node", "id": 5114100231, "lat": 40.7549513, "lon": -73.9220436}, {"type": "node", "id": 5114100232, "lat": 40.7548696, "lon": -73.9218704}, {"type": "node", "id": 5114100233, "lat": 40.7548855, "lon": -73.9218456}, {"type": "node", "id": 5114100234, "lat": 40.7548211, "lon": -73.9222179, "tags": {"entrance": "yes"}}, {"type": "node", "id": 5136315012, "lat": 40.7580814, "lon": -73.9235018, "tags": {"addr:housenumber": "35-13", "addr:street": "34th Avenue", "amenity": "cafe", "contact:instagram": "https://www.instagram.com/sweetsceneastoria/", "internet_access": "yes", "internet_access:fee": "customers", "name": "Sweet Scene", "outdoor_seating": "yes", "wheelchair": "yes"}}, {"type": "node", "id": 5383974139, "lat": 40.7574142, "lon": -73.9204696, "tags": {"addr:housenumber": "32-66", "addr:street": "Steinway Street", "contact:email": "info@panadriatic.com", "level": "0", "name": "Agencija Pan Adriatic", "office": "travel_agent", "phone": "+1 718-777-0555", "website": "panadriatic.com", "wheelchair": "no"}}, {"type": "node", "id": 5403591848, "lat": 40.7585227, "lon": -73.9195571, "tags": {"addr:housenumber": "32-18", "addr:postcode": "11103", "addr:street": "Steinway Street", "amenity": "cafe", "name": "Bora Bora Smoothie Cafe", "wheelchair": "yes"}}, {"type": "node", "id": 5406250237, "lat": 40.7564484, "lon": -73.9212667, "tags": {"addr:housenumber": "34-10", "addr:street": "Steinway Street", "amenity": "cafe", "delivery": "yes", "name": "Steinway Coffee Shop", "phone": "+1-718-361-7770", "wheelchair": "yes"}}, {"type": "node", "id": 5424534802, "lat": 40.7556224, "lon": -73.9189098, "tags": {"addr:city": "Long Island City", "addr:housenumber": "42-16", "addr:postcode": "11101", "addr:state": "NY", "addr:street": "34th Avenue", "email": "info@queensscene.com", "fax": "+1-718-784-7552", "name": "Queens Scene", "office": "newspaper", "phone": "+1-718-361-6161", "website": "https://www.queensscene.com"}}, {"type": "node", "id": 5526583418, "lat": 40.7576414, "lon": -73.9198893, "tags": {"addr:housenumber": "32-47", "addr:street": "Steinway Street", "amenity": "restaurant", "cuisine": "thai", "level": "0", "name": "Thonglor", "phone": "+1 718-278-3333", "wheelchair": "yes"}}, {"type": "node", "id": 5526583419, "lat": 40.7585411, "lon": -73.9195356, "tags": {"addr:housenumber": "32-16", "addr:postcode": "11103", "addr:street": "Steinway Street", "amenity": "bar", "name": "Connect Sports Lounge", "wheelchair": "yes"}}, {"type": "node", "id": 5760191985, "lat": 40.7587516, "lon": -73.9182472, "tags": {"addr:housenumber": "40-19", "addr:street": "Broadway", "amenity": "restaurant", "cuisine": "chicken", "name": "Pollos a la Brasa Mario", "phone": "+1 718-932-2424"}}, {"type": "node", "id": 7706043318, "lat": 40.7558766, "lon": -73.9194924, "tags": {"addr:housenumber": "41-20", "addr:street": "34th Avenue", "amenity": "restaurant", "cuisine": "ecuadorian", "name": "Ecuadorian Restaurant", "phone": "+1 718-729-2889"}}, {"type": "node", "id": 8316237134, "lat": 40.7592343, "lon": -73.9192063, "tags": {"addr:housenumber": "38-11", "addr:street": "Broadway", "name": "Empire Beauty Salon", "office": "educational_institution"}}, {"type": "node", "id": 8316237164, "lat": 40.7593449, "lon": -73.9194337, "tags": {"addr:housenumber": "38-05", "addr:street": "Broadway", "name": "M & M Accounting", "office": "accountant", "phone": "+1 347 339 7674", "wheelchair": "no"}}, {"type": "node", "id": 8316237175, "lat": 40.7590267, "lon": -73.9194594, "tags": {"addr:housenumber": "38-12", "addr:street": "Broadway", "amenity": "restaurant", "contact:facebook": "sliceastoria", "contact:instagram": "sliceastoria", "cuisine": "pizza", "delivery": "yes", "name": "sLICe", "opening_hours": "Mo-Th, Su 11:00-23:00; Fr, Sa 11:00-02:00", "phone": "+1 347-201-0720", "takeaway": "yes", "website": "https://www.sliceastoria.com/"}}, {"type": "node", "id": 8392198906, "lat": 40.7589383, "lon": -73.9186347, "tags": {"amenity": "cafe", "cuisine": "bagel", "name": "New York City Bagel Coffee House", "opening_hours": "Mo-Sa 06:00-18:00; Su 07:00-18:00"}}, {"type": "node", "id": 8392198908, "lat": 40.75827, "lon": -73.9171947, "tags": {"addr:housenumber": "42-01", "amenity": "restaurant", "cuisine": "chinese", "name": "New Ho Wah", "phone": "+1 718-956-1849"}}, {"type": "node", "id": 9543930717, "lat": 40.7552942, "lon": -73.9183285, "tags": {"amenity": "restaurant", "name": "The Freakin Rican\u00ae"}}, {"type": "node", "id": 9664467134, "lat": 40.7572434, "lon": -73.9206368, "tags": {"addr:city": "Astoria", "addr:housenumber": "3272", "addr:postcode": "11103", "addr:state": "NY", "addr:street": "Steinway Street", "amenity": "restaurant", "cuisine": "asian", "name": "Luna Asian Bistro", "opening_hours": "Mo-Fr 15:30-22:00", "phone": "+1-917-832-7911", "website": "https://lunasushirooftop.com/index.html"}}, {"type": "node", "id": 9665601383, "lat": 40.7567514, "lon": -73.9221739, "tags": {"addr:city": "Long Island City", "addr:housenumber": "34-12", "addr:postcode": "11101", "addr:state": "NY", "addr:street": "38th Street", "name": "Ez Bins Moving Boxes", "office": "moving_company", "opening_hours": "Mo-Fr 09:00-21:00; Sa 09:00-15:00", "phone": "+1-808-320-2300", "website": "https://ezbins.com/"}}, {"type": "node", "id": 9668674894, "lat": 40.7553237, "lon": -73.9184041, "tags": {"addr:city": "Long Island City", "addr:housenumber": "4304", "addr:postcode": "11101", "addr:state": "NY", "addr:street": "34th Avenue", "amenity": "restaurant", "name": "Drinkology"}}, {"type": "node", "id": 9705479179, "lat": 40.7595166, "lon": -73.920585, "tags": {"addr:city": "Astoria", "addr:housenumber": "3702", "addr:state": "NY", "addr:street": "Broadway", "amenity": "cafe", "name": "La Casa Del Sabor"}}, {"type": "node", "id": 10621331227, "lat": 40.7583465, "lon": -73.9197104, "tags": {"name": "01 Insurance", "office": "insurance", "website": "https://01insurance.com/"}}, {"type": "node", "id": 11286207470, "lat": 40.7589945, "lon": -73.9193771, "tags": {"addr:housenumber": "38-14", "addr:postcode": "11103", "addr:street": "Broadway", "amenity": "pub", "indoor_seating": "yes", "name": "Cronin & Phelan's", "opening_hours": "Mo-Su 09:00-04:00", "phone": "+1 718-545-8999", "takeaway": "yes", "website": "https://www.croninandphelans.com/"}}, {"type": "node", "id": 11780624365, "lat": 40.7595228, "lon": -73.9198347, "tags": {"amenity": "restaurant", "name": "Oliver\u2019s"}}, {"type": "node", "id": 11861401366, "lat": 40.757669, "lon": -73.9202581, "tags": {"addr:housenumber": "32-56", "addr:street": "Steinway Street", "name": "Armed Forces Career Center", "office": "military"}}, {"type": "node", "id": 12162675630, "lat": 40.7575196, "lon": -73.9199801, "tags": {"addr:housenumber": "32-55", "addr:street": "Steinway Street", "amenity": "cafe", "level": "0", "name": "Uncle Drink", "opening_hours": "Mo-Fr 09:30-21:30; Sa 09:30-21:00; Su 09:30-20:30", "phone": "+1646-515-9688", "wheelchair": "yes"}}, {"type": "node", "id": 12662569101, "lat": 40.7570393, "lon": -73.9219501, "tags": {"addr:postcode": "11101", "amenity": "restaurant", "contact:facebook": "sarajevogrill", "contact:instagram": "sarajevogrill", "contact:twitter": "sarajevogrill", "email": "sarajevogrillnyc@gmail.com", "name": "Sarajevo Grill", "opening_hours": "Su-Th 10:00-21:00; Fr-Sa 10:00-22:00", "website": "https://sarajevogrill.com/", "website:menu": "https://sarajevogrill.com/menu/"}}, {"type": "node", "id": 12852100098, "lat": 40.7580713, "lon": -73.9173894, "tags": {"amenity": "bar", "name": "Doyle's Corner", "wheelchair": "limited"}}, {"type": "node", "id": 12852138171, "lat": 40.7582591, "lon": -73.9197731, "tags": {"addr:housenumber": "32-30", "addr:street": "Steinway Street", "amenity": "cafe", "name": "Bela Aurora", "opening_hours": "Mo-We 06:00-23:00; Th, Fr 06:00-00:00; Fr 07:00-00:00; Su 07:00-23:00", "phone": "+1 718-255-1265", "wheelchair": "no"}}, {"type": "node", "id": 13284869658, "lat": 40.7579762, "lon": -73.9232915, "tags": {"addr:city": "Long Island City", "addr:housenumber": "32-90", "addr:postcode": "11106", "addr:state": "NY", "addr:street": "36th Street", "amenity": "restaurant", "contact:facebook": "https://www.facebook.com/CitricoCafeLIC/", "cuisine": "mexican;cafe", "description": "Citrico Cafe is a Mexican Cafe & Agaveria located in Long Island City, NY. We offer a blend of traditional Mexican cuisine with global influences and craft cocktails using our own infused agaves.", "name": "Citrico Cafe", "opening_hours": "Mo-Sa 12:00-01:00; Su 11:00-01:00", "phone": "+1-718-255-1705", "website": "https://www.citricocafe.com/"}}, {"type": "way", "id": 182431377, "nodes": [1927807839, 1927807840, 5114100234, 1927807843, 5114100230, 5114100231, 5114100232, 5114100233, 1927807841, 1927807839], "tags": {"landuse": "recreation_ground", "leisure": "park", "name": "Playground Thirty Five XXXV", "website": "https://www.nycgovparks.org/parks/playground-thirty-five-xxxv/"}}]}