{"version": 0.6, "generator": "Overpass API 0.7.62.8 e802775f", "osm3s": {"timestamp_osm_base": "2025-12-01T17:09:00Z", "copyright": "The data included in this document is from www.openstreetmap.org. The data is made available under ODbL."}, "elements": [{"type": "node", "id": 357567312, "lat": 40.7493869, "lon": -73.8602265}, {"type": "node", "id": 357569123, "lat": 40.7488084, "lon": -73.862822}, {"type": "node", "id": 357579294, "lat": 40.749267, "lon": -73.8673418}, {"type": "node", "id": 357640852, "lat": 40.747795, "lon": -73.8633154}, {"type": "node", "id": 2448773345, "lat": 40.7494454, "lon": -73.8627981}, {"type": "node", "id": 2448773348, "lat": 40.7497827, "lon": -73.8626841}, {"type": "node", "id": 2448773351, "lat": 40.7497604, "lon": -73.8616928}, {"type": "node", "id": 2448773354, "lat": 40.7498843, "lon": -73.8617572}, {"type": "node", "id": 3316554426, "lat": 40.7476416, "lon": -73.8633299}, {"type": "node", "id": 3316554428, "lat": 40.7476513, "lon": -73.8633447}, {"type": "node", "id": 3316554429, "lat": 40.747672, "lon": -73.8632306}, {"type": "node", "id": 3316554431, "lat": 40.747687, "lon": -73.8632261}, {"type": "node", "id": 3316554432, "lat": 40.7478141, "lon": -73.8632999}, {"type": "node", "id": 3734679113, "lat": 40.7479283, "lon": -73.8623716}, {"type": "node", "id": 3734679114, "lat": 40.7491625, "lon": -73.8614426}, {"type": "node", "id": 3734679115, "lat": 40.7483298, "lon": -73.8610164}, {"type": "node", "id": 3734691020, "lat": 40.7477231, "lon": -73.866424}, {"type": "node", "id": 3734691021, "lat": 40.7493457, "lon": -73.8666176}, {"type": "node", "id": 3734691022, "lat": 40.7479206, "lon": -73.8657558}, {"type": "node", "id": 3854764692, "lat": 40.7491156, "lon": -73.8611497}, {"type": "node", "id": 3854764697, "lat": 40.7484819, "lon": -73.863311}, {"type": "node", "id": 3854764704, "lat": 40.7484532, "lon": -73.8634183}, {"type": "node", "id": 3854764713, "lat": 40.7488524, "lon": -73.8599215}, {"type": "node", "id": 3854764723, "lat": 40.748343, "lon": -73.8633608}, {"type": "node", "id": 3854764734, "lat": 40.7485934, "lon": -73.8608847}, {"type": "node", "id": 5355286315, "lat": 40.7478048, "lon": -73.8632797}, {"type": "node", "id": 5355286317, "lat": 40.7483521, "lon": -73.8633506}, {"type": "node", "id": 5355288323, "lat": 40.7483489, "lon": -73.8633714}, {"type": "node", "id": 5500033617, "lat": 40.748413, "lon": -73.8628621, "tags": {"addr:city": "Corona", "addr:housenumber": "41-10", "addr:postcode": "11368", "addr:state": "NY", "addr:street": "103rd Street", "amenity": "restaurant", "cuisine": "mexican", "name": "Tacos Mexico", "phone": "+1-718-505-0332"}}, {"type": "node", "id": 5596268678, "lat": 40.7525408, "lon": -73.8595216, "tags": {"addr:housenumber": "37-55", "addr:street": "108th Street", "amenity": "restaurant", "name": "The King of Empanadas"}}, {"type": "node", "id": 5658776031, "lat": 40.7524409, "lon": -73.8639174, "tags": {"addr:housenumber": "37-29", "addr:street": "103rd Street", "amenity": "restaurant", "name": "Encuentro"}}, {"type": "node", "id": 5758422482, "lat": 40.7505732, "lon": -73.8629293, "tags": {"addr:housenumber": "39-03", "addr:street": "103rd Street", "amenity": "restaurant", "name": "Angelo's Pizza"}}, {"type": "node", "id": 5758424633, "lat": 40.7502355, "lon": -73.8609288, "tags": {"addr:housenumber": "104-21", "addr:street": "Roosevelt Avenue", "amenity": "restaurant", "name": "Manantial"}}, {"type": "node", "id": 6446396283, "lat": 40.7488192, "lon": -73.8632788, "tags": {"amenity": "restaurant", "contact:phone": "+1 639 8880", "cuisine": "mexican", "internet_access": "no", "level": "0", "name": "Tulcingo Deli Plus", "takeaway": "yes", "toilets": "yes"}}, {"type": "node", "id": 9917513077, "lat": 40.750147, "lon": -73.8612856, "tags": {"amenity": "restaurant", "name": "Los Mismos Amigos"}}, {"type": "node", "id": 10812237416, "lat": 40.7491829, "lon": -73.8615243}, {"type": "node", "id": 12038348987, "lat": 40.7502493, "lon": -73.8596918, "tags": {"addr:housenumber": "104-56", "addr:street": "Roosevelt Avenue", "check_date": "2024-07-06", "name": "AmeriTrade Group Corp.", "office": "tax_advisor", "phone": "+1 718-606-6491", "website": "https://www.ameritradegroup.com"}}, {"type": "node", "id": 12200321332, "lat": 40.7472897, "lon": -73.8627977, "tags": {"addr:housenumber": "42-19", "addr:street": "102nd Street", "amenity": "restaurant", "check_date": "2024-09-15", "cuisine": "Dominican", "name": "Mama Lupe Restaurant", "phone": "+1 718-639-1495"}}, {"type": "node", "id": 12289600820, "lat": 40.7478022, "lon": -73.861039, "tags": {"addr:housenumber": "102-53", "addr:street": "43rd Avenue", "amenity": "restaurant", "check_date": "2024-10-26", "cuisine": "mexican", "name": "Paraiso Azteca", "phone": "+1 917-935-3206"}}, {"type": "way", "id": 236930411, "nodes": [2448773348, 2448773345, 2448773351, 2448773354, 2448773348], "tags": {"addr:city": "Corona", "addr:postcode": "11368", "addr:state": "NY", "leisure": "park", "name": "Corona Plaza", "place": "square", "website": "https://www.nycgovparks.org/parks/corona-plaza", "wikidata": "Q105612164"}}, {"type": "way", "id": 324979163, "nodes": [357640852, 3316554428, 3316554426, 3316554429, 3316554431, 5355286315, 3316554432, 357640852], "tags": {"gnis:feature_id": "2414618", "leisure": "park", "name": "Veteran's Square", "operator": "New York City Department of Parks and Recreation", "operator:short": "NYC Parks", "operator:type": "government", "operator:wikidata": "Q1894232", "wikidata": "Q49574494"}}, {"type": "way", "id": 369699550, "nodes": [357569123, 3734679113, 3734679115, 3734679114, 10812237416, 357569123], "tags": {"ele": "12", "gnis:feature_id": "955402", "leisure": "park", "name": "Park of the Americas", "operator": "New York City Department of Parks and Recreation", "operator:short": "NYC Parks", "operator:type": "government", "operator:wikidata": "Q1894232", "website": "https://www.nycgovparks.org/parks/park-of-the-americas", "wikidata": "Q49539366"}}, {"type": "way", "id": 369699855, "nodes": [357579294, 3734691021, 3734691022, 3734691020, 357579294], "tags": {"amenity": "school", "ele": "18", "gnis:feature_id": "961469", "name": "Public School 19"}}, {"type": "way", "id": 382282477, "nodes": [3854764697, 5355286317, 3854764723, 5355288323, 3854764704, 3854764697], "tags": {"leisure": "park", "name": "American Triangle", "operator": "New York City Department of Parks and Recreation", "operator:short": "NYC Parks", "operator:type": "public", "operator:wikidata": "Q1894232", "website": "https://www.nycgovparks.org/parks/american-triangle/"}}, {"type": "way", "id": 382282481, "nodes": [357567312, 3854764713, 3854764734, 3854764692, 357567312], "tags": {"amenity": "school", "check_date": "2024-04-27", "ele": "14", "gnis:feature_id": "954272", "name": "Public School 16 - Nancy Debenittis School", "website": "https://www.schools.nyc.gov/schoolportals/24/q016"}}]}