{"version": 0.6, "generator": "Overpass API 0.7.62.8 e802775f", "osm3s": {"timestamp_osm_base": "2025-12-01T17:21:15Z", "copyright": "The data included in this document is from www.openstreetmap.org. The data is made available under ODbL."}, "elements": [{"type": "node", "id": 357584495, "lat": 40.71667, "lon": -73.95833, "tags": {"amenity": "school", "ele": "8", "gnis:feature_id": "963503", "name": "Saint Francis Preparatory School"}}, {"type": "node", "id": 357619668, "lat": 40.7173889, "lon": -73.9572791, "tags": {"addr:housenumber": "180", "addr:postcode": "11211", "addr:street": "North 7th Street", "amenity": "school", "ele": "8", "gnis:feature_id": "2082227", "name": "Northside Catholic School at Saint Vincent De Paul"}}, {"type": "node", "id": 370212415, "lat": 40.7199293, "lon": -73.9531818}, {"type": "node", "id": 370212416, "lat": 40.719809, "lon": -73.9533069}, {"type": "node", "id": 370212417, "lat": 40.7196975, "lon": -73.9531297}, {"type": "node", "id": 370427020, "lat": 40.7223336, "lon": -73.9548428}, {"type": "node", "id": 370427026, "lat": 40.721661, "lon": -73.9537558}, {"type": "node", "id": 370427035, "lat": 40.7207237, "lon": -73.9547699}, {"type": "node", "id": 370427061, "lat": 40.7206102, "lon": -73.9545932}, {"type": "node", "id": 370427068, "lat": 40.7199077, "lon": -73.9534977}, {"type": "node", "id": 370427080, "lat": 40.720519, "lon": -73.9527967}, {"type": "node", "id": 370427087, "lat": 40.7215516, "lon": -73.9507079}, {"type": "node", "id": 370427093, "lat": 40.7204625, "lon": -73.9525448}, {"type": "node", "id": 370427099, "lat": 40.7188867, "lon": -73.9522881}, {"type": "node", "id": 370427106, "lat": 40.719074, "lon": -73.9503157}, {"type": "node", "id": 370427113, "lat": 40.7202402, "lon": -73.9528589}, {"type": "node", "id": 370427120, "lat": 40.7194478, "lon": -73.9526673}, {"type": "node", "id": 370427136, "lat": 40.7220518, "lon": -73.9498967}, {"type": "node", "id": 370427144, "lat": 40.7212518, "lon": -73.9489836}, {"type": "node", "id": 370427151, "lat": 40.7192364, "lon": -73.9486541}, {"type": "node", "id": 370427157, "lat": 40.7190998, "lon": -73.9500855}, {"type": "node", "id": 370427168, "lat": 40.7216844, "lon": -73.9505096}, {"type": "node", "id": 524691386, "lat": 40.7194991, "lon": -73.9557619, "tags": {"addr:city": "Brooklyn", "addr:housenumber": "125", "addr:state": "NY", "addr:street": "Bedford Avenue", "amenity": "restaurant", "name": "Mugs Ale House"}}, {"type": "node", "id": 888905617, "lat": 40.7150849, "lon": -73.9569057, "tags": {"amenity": "school", "name": "Middle School 577"}}, {"type": "node", "id": 888955052, "lat": 40.716964, "lon": -73.959114, "tags": {"amenity": "restaurant", "check_date": "2023-07-20", "name": "Juliette Restaurant", "wheelchair": "limited"}}, {"type": "node", "id": 888963055, "lat": 40.717029, "lon": -73.95921, "tags": {"addr:housenumber": "135", "addr:street": "North 5th Street", "addr:unit": "A", "amenity": "restaurant", "check_date": "2023-07-20", "name": "miDmuS"}}, {"type": "node", "id": 888968071, "lat": 40.7169209, "lon": -73.9585388, "tags": {"addr:city": "Brooklyn", "addr:housenumber": "205", "addr:postcode": "11211", "addr:state": "NY", "addr:street": "Bedford Avenue", "amenity": "restaurant", "cuisine": "japanese", "name": "Ako", "opening_hours": "Su-Th 12:00-22:00; Fr-Sa 12:00-23:00", "phone": "+1-718-302-2035", "website": "https://akosushi.com/"}}, {"type": "node", "id": 888984017, "lat": 40.7174274, "lon": -73.9583326, "tags": {"addr:city": "Brooklyn", "addr:housenumber": "198", "addr:postcode": "11249", "addr:state": "NY", "addr:street": "Bedford Avenue", "amenity": "cafe", "cuisine": "donut", "name": "Doughnut Plant", "opening_hours": "Mo,Tu off; We-Su 08:00-16:00", "website": "https://www.doughnutplant.com/location/williamsburg/"}}, {"type": "node", "id": 1709314941, "lat": 40.7220401, "lon": -73.9498833, "tags": {"barrier": "kerb", "tactile_paving": "no", "wheelchair": "no"}}, {"type": "node", "id": 1709314958, "lat": 40.720814, "lon": -73.9489154}, {"type": "node", "id": 2017643713, "lat": 40.7188705, "lon": -73.9567925, "tags": {"addr:city": "Brooklyn", "addr:country": "US", "addr:housenumber": "148", "addr:postcode": "11211", "addr:state": "NY", "addr:street": "Bedford Avenue", "amenity": "restaurant", "branch": "Williamsburg", "cuisine": "pizza", "delivery": "Su-Th 11:30-23:00; Fr-Sa 11:30-23:30", "diet:vegan": "yes", "diet:vegetarian": "yes", "name": "Vinnies Pizzeria", "opening_hours": "Su-Th 11:30-24:00; Fr-Sa 11:30-03:00", "phone": "+1-718-782-7078", "smoking": "no", "takeaway": "yes", "website": "https://www.vinniesbrooklyn.com/"}}, {"type": "node", "id": 2402041404, "lat": 40.7183326, "lon": -73.9582765, "tags": {"addr:city": "Brooklyn", "addr:housenumber": "139", "addr:postcode": "11211", "addr:street": "North 7th Street", "amenity": "restaurant", "cuisine": "ice_cream", "name": "16 Handles"}}, {"type": "node", "id": 2439082123, "lat": 40.7179682, "lon": -73.9591782, "tags": {"addr:housenumber": "125", "addr:postcode": "11249", "addr:street": "North 6th Street", "amenity": "cafe", "branch": "Williamsburg", "brand": "Partners Coffee", "cuisine": "coffee_shop", "drink:coffee": "yes", "drink:espresso": "yes", "drink:tea": "yes", "internet_access": "wlan", "name": "Partners Coffee", "opening_hours": "Mo-Su 06:30-18:00", "phone": "+1 347-586-0063", "website": "https://www.partnerscoffee.com/pages/store-locator#map-info-store-locator-1", "wheelchair": "yes"}}, {"type": "node", "id": 2548042168, "lat": 40.721549, "lon": -73.9493221}, {"type": "node", "id": 2548042173, "lat": 40.7217285, "lon": -73.9507894}, {"type": "node", "id": 2548053395, "lat": 40.7207718, "lon": -73.9489088}, {"type": "node", "id": 2705019563, "lat": 40.7175442, "lon": -73.9560416, "tags": {"amenity": "restaurant", "cuisine": "french", "name": "Fada"}}, {"type": "node", "id": 2809118386, "lat": 40.7169763, "lon": -73.9546566, "tags": {"addr:city": "Brooklyn", "addr:housenumber": "225", "addr:postcode": "11211", "addr:street": "North 8th Street", "amenity": "bar", "name": "Roebling Sporting Club", "opening_hours": "Mo, Fr 16:00-28:00, Sa , Su 7:30-28:00", "phone": "+1-718-388-3088", "smoking": "outside", "website": "http://roeblingsportingclub.com/"}}, {"type": "node", "id": 2839659071, "lat": 40.7167606, "lon": -73.9564126}, {"type": "node", "id": 2839659076, "lat": 40.7167676, "lon": -73.956391}, {"type": "node", "id": 2839659080, "lat": 40.7167729, "lon": -73.9563995}, {"type": "node", "id": 2839659093, "lat": 40.7167968, "lon": -73.9563598}, {"type": "node", "id": 2839659096, "lat": 40.7168013, "lon": -73.956367}, {"type": "node", "id": 2839659213, "lat": 40.7168274, "lon": -73.9565204}, {"type": "node", "id": 2839659241, "lat": 40.7168688, "lon": -73.9564761}, {"type": "node", "id": 2839699811, "lat": 40.7191551, "lon": -73.958603, "tags": {"addr:city": "Brooklyn", "addr:housenumber": "98", "addr:postcode": "11249", "addr:state": "NY", "addr:street": "Berry Street", "amenity": "restaurant", "cuisine": "bistro;breakfast;lunch", "name": "Little Ruby's", "website": "https://www.rubyscafe.com"}}, {"type": "node", "id": 2839699812, "lat": 40.71977, "lon": -73.9576296, "tags": {"addr:city": "Brooklyn", "addr:housenumber": "79", "addr:postcode": "11249", "addr:state": "NY", "addr:street": "Berry Street", "amenity": "restaurant", "check_date": "2023-04-22", "name": "Caf\u00e9 Colette", "opening_hours": "Mo-Th 09:00-22:00; Fr 09:00-23:00; Sa 10:00-23:00; Su 10:00-22:00", "phone": "+1 347-599-1381", "website": "https://www.cafe-colette.com"}}, {"type": "node", "id": 2839699816, "lat": 40.7190488, "lon": -73.9584127, "tags": {"addr:city": "Brooklyn", "addr:housenumber": "103", "addr:postcode": "11249", "addr:state": "NY", "addr:street": "Berry Street", "amenity": "bar", "name": "George & Jacks Tap Room", "sport": "billiards"}}, {"type": "node", "id": 2839699821, "lat": 40.7188206, "lon": -73.9586332, "tags": {"addr:city": "Brooklyn", "addr:housenumber": "115", "addr:postcode": "11249", "addr:state": "NY", "addr:street": "Berry Street", "amenity": "restaurant", "cuisine": "italian", "email": "info@anticapesa.com", "name": "Antica Pesa", "phone": "+1-347-763-2635", "website": "https://www.anticapesa.com/"}}, {"type": "node", "id": 2839699838, "lat": 40.7194662, "lon": -73.9561323, "tags": {"addr:housenumber": "126", "addr:postcode": "11249", "addr:street": "Bedford Avenue", "amenity": "restaurant", "cuisine": "burger", "name": "Moonburger"}}, {"type": "node", "id": 2839699869, "lat": 40.7183598, "lon": -73.9573228, "tags": {"addr:housenumber": "164", "addr:postcode": "11249", "addr:street": "Bedford Avenue", "amenity": "restaurant", "cuisine": "southern", "level": "0", "name": "Sweet Chick", "website": "https://www.sweetchick.com/location/sweet-chick-williamsburg/", "wheelchair": "yes"}}, {"type": "node", "id": 2839699882, "lat": 40.7197084, "lon": -73.9580192, "tags": {"addr:housenumber": "82", "addr:postcode": "11211", "addr:street": "Berry Street", "amenity": "bar", "name": "Hotel Delmano", "name:en": "Hotel Delmano", "opening_hours": "Mo-Th 17:00-02:00; Fr 17:00-03:00; Sa 14:00-03:00; Su 14:00-02:00"}}, {"type": "node", "id": 2839699897, "lat": 40.7193349, "lon": -73.9584205, "tags": {"addr:housenumber": "96", "addr:postcode": "11249", "addr:street": "Berry Street", "amenity": "restaurant", "cuisine": "american", "name": "Teddy's", "opening_hours": "Tu,Th 04:00-23:00; Sa 12:00-24:00; Su 12:00-23:00; Fr 02:00-24:00", "website": "https://www.teddys.nyc"}}, {"type": "node", "id": 2839700324, "lat": 40.7181284, "lon": -73.9575439}, {"type": "node", "id": 2839700342, "lat": 40.7181765, "lon": -73.9574923}, {"type": "node", "id": 2839700348, "lat": 40.7181957, "lon": -73.9576525}, {"type": "node", "id": 2839700358, "lat": 40.7182142, "lon": -73.9576327}, {"type": "node", "id": 2839700368, "lat": 40.7182466, "lon": -73.9576849}, {"type": "node", "id": 2839700379, "lat": 40.7182763, "lon": -73.9576532}, {"type": "node", "id": 2839700969, "lat": 40.7196485, "lon": -73.9598688}, {"type": "node", "id": 2839700981, "lat": 40.7196662, "lon": -73.9599284}, {"type": "node", "id": 2839700985, "lat": 40.719674, "lon": -73.9598411}, {"type": "node", "id": 2839700986, "lat": 40.7196779, "lon": -73.9599157}, {"type": "node", "id": 2839701001, "lat": 40.7197028, "lon": -73.9598871}, {"type": "node", "id": 2839701006, "lat": 40.719717, "lon": -73.9598717}, {"type": "node", "id": 2839701019, "lat": 40.7197445, "lon": -73.9600535}, {"type": "node", "id": 2839701034, "lat": 40.7197959, "lon": -73.9599977}, {"type": "node", "id": 2842592330, "lat": 40.7187866, "lon": -73.955001, "tags": {"addr:city": "Brooklyn", "addr:housenumber": "190", "addr:postcode": "11211", "addr:state": "NY", "addr:street": "North 10th Street", "addr:unit": "301", "name": "New York Art Therapists", "office": "therapist", "phone": "+1-917-293-4642", "website": "https://nycreativetherapists.com"}}, {"type": "node", "id": 2842592341, "lat": 40.7186488, "lon": -73.9548767, "tags": {"addr:housenumber": "482", "addr:postcode": "11211", "addr:street": "Driggs Avenue", "name": "Citi Habitats", "office": "estate_agent"}}, {"type": "node", "id": 2842857594, "lat": 40.7196459, "lon": -73.9559407, "tags": {"addr:housenumber": "124", "addr:postcode": "11211", "addr:street": "Bedford Avenue", "amenity": "bar", "name": "Allswell", "opening_hours": "Mo-Th 12:00-26:00; Fr-Sa 10:00-26:00; Su 10:00-24:00"}}, {"type": "node", "id": 3822484906, "lat": 40.7186039, "lon": -73.9549145, "tags": {"addr:city": "Brooklyn", "addr:housenumber": "488", "addr:postcode": "11211", "addr:state": "NY", "addr:street": "Driggs Avenue", "amenity": "pub", "contact:phone": "+1 347 384 2772", "contact:website": "http://thecraicbrooklyn.com/", "name": "The Craic"}}, {"type": "node", "id": 3822484907, "lat": 40.7186299, "lon": -73.9562472, "tags": {"addr:city": "Brooklyn", "addr:housenumber": "176", "addr:postcode": "11211", "addr:state": "NY", "addr:street": "North 9th Street", "amenity": "restaurant", "contact:phone": "+1 718 302 1499", "contact:website": "http://www.qirestaurant.com/williamsburg/", "cuisine": "thai", "name": "Qi Thai Grill"}}, {"type": "node", "id": 3865279483, "lat": 40.7194459, "lon": -73.9527297}, {"type": "node", "id": 3865279484, "lat": 40.7194891, "lon": -73.9526212}, {"type": "node", "id": 3865279485, "lat": 40.7196744, "lon": -73.9530931}, {"type": "node", "id": 3865279488, "lat": 40.719718, "lon": -73.9526589}, {"type": "node", "id": 3865279493, "lat": 40.7199615, "lon": -73.9531487}, {"type": "node", "id": 3865279494, "lat": 40.7199883, "lon": -73.9527032}, {"type": "node", "id": 3865279495, "lat": 40.7202233, "lon": -73.9527406}, {"type": "node", "id": 3865279496, "lat": 40.7202523, "lon": -73.9527921}, {"type": "node", "id": 3971304159, "lat": 40.7172343, "lon": -73.9564033, "tags": {"addr:postcode": "11211", "amenity": "cafe", "disused:shop": "yes", "name": "Black Star Bakery & Cafe", "website": "https://www.blackstarbakery.com/"}}, {"type": "node", "id": 4077193791, "lat": 40.717789, "lon": -73.9592305, "tags": {"addr:city": "Brooklyn", "addr:housenumber": "188", "addr:postcode": "11211", "addr:state": "NY", "addr:street": "Berry Street", "amenity": "bar", "name": "viva torro", "opening_hours": "16:00-03:00", "smoking": "no"}}, {"type": "node", "id": 4175145191, "lat": 40.7177263, "lon": -73.9587317, "tags": {"addr:housenumber": "139", "addr:postcode": "11249", "addr:street": "North 6th Street", "amenity": "restaurant", "indoor_seating": "yes", "name": "Surf Bar", "opening_hours": "Su-Th 11:30-24:00; Fr-Sa 11:30-26:00", "outdoor_seating": "yes", "phone": "+17183024441", "website": "https://www.brooklynsurfbar.com/", "wheelchair": "no"}}, {"type": "node", "id": 4181583423, "lat": 40.7188932, "lon": -73.9589758, "tags": {"addr:city": "Brooklyn", "addr:housenumber": "112", "addr:postcode": "11249", "addr:state": "NY", "addr:street": "Berry Street", "amenity": "restaurant", "cuisine": "vietnamese", "name": "Lucy\u2019s", "opening_hours": "Mo-Su 12:00-22:00", "phone": "+13479161127", "wheelchair": "yes"}}, {"type": "node", "id": 4216238690, "lat": 40.7183923, "lon": -73.9588733, "tags": {"addr:city": "Brooklyn", "addr:housenumber": "131", "addr:postcode": "11249", "addr:state": "NY", "addr:street": "Berry Street", "amenity": "restaurant", "name": "Gran Torino", "opening_hours": "Tu,Su 11:00-24:00; We,Th 11:00-13:00; Fr,Sa 11:00-14:00", "phone": "+13479874333"}}, {"type": "node", "id": 4491325489, "lat": 40.7175502, "lon": -73.9578621, "tags": {"addr:city": "Brooklyn", "addr:housenumber": "189", "addr:postcode": "11211", "addr:state": "NY", "addr:street": "Bedford Avenue", "amenity": "cafe", "cuisine": "bagel", "name": "Bagelsmith", "opening_hours": "Mo-Th 07:00-20:00; Fr,Sa 07:00-22:00; Su 07:00-20:00", "outdoor_seating": "no", "phone": "+1 718-218-7414", "smoking": "no", "website": "https://www.bagelsmithny.com/"}}, {"type": "node", "id": 4811875621, "lat": 40.714903, "lon": -73.9597145, "tags": {"addr:city": "Brooklyn", "addr:housenumber": "232", "addr:postcode": "11211", "addr:state": "NY", "addr:street": "Metropolitan Avenue", "amenity": "cafe", "cuisine": "coffee_shop", "name": "sweatshop", "opening_hours": "Mo-Su 07:00-18:00", "website": "https://sweatshop.coffee/"}}, {"type": "node", "id": 4825800433, "lat": 40.7160182, "lon": -73.959494, "tags": {"addr:city": "Brooklyn", "addr:housenumber": "231", "addr:postcode": "11211", "addr:state": "NY", "addr:street": "Bedford Avenue", "amenity": "cafe", "check_date": "2022-05-30", "cuisine": "coffee_shop", "indoor_seating": "yes", "name": "Hungry Ghost", "opening_hours": "Mo-Th 07:00-18:00; Fr-Su 07:00-20:00", "outdoor_seating": "no", "website": "https://www.hungryghostcoffee.com/location/williamsburg/", "wheelchair": "yes"}}, {"type": "node", "id": 4843833623, "lat": 40.7189463, "lon": -73.9563743, "tags": {"addr:housenumber": "145", "addr:postcode": "11226", "addr:street": "Bedford Avenue", "amenity": "bar", "name": "Trix", "opening_hours": "Su-Th 11:30-02:00; Fr-Sa 11:30-04:00", "phone": "+13475990702", "website": "http://www.trixnyc.com"}}, {"type": "node", "id": 4848257935, "lat": 40.718121, "lon": -73.95991, "tags": {"amenity": "restaurant", "cuisine": "asian", "name": "Sea Thai Restaurant", "name:en": "Sea Thai Restaurant", "website": "https://www.seausathai.com/"}}, {"type": "node", "id": 5093187023, "lat": 40.7198823, "lon": -73.9578411, "tags": {"addr:housenumber": "80", "addr:street": "Berry Street", "amenity": "bar", "check_date": "2023-04-22", "name": "Cheeseboat", "name:en": "Cheeseboat"}}, {"type": "node", "id": 5502443030, "lat": 40.7184402, "lon": -73.9584288, "tags": {"addr:city": "Brooklyn", "addr:housenumber": "133", "addr:postcode": "11249", "addr:state": "NY", "addr:street": "North 7th Street", "amenity": "cafe", "email": "hello@apollobagels.com", "name": "Apollo Bagels", "opening_hours": "07:00-17:00", "website": "https://www.apollobagels.com"}}, {"type": "node", "id": 5628829221, "lat": 40.7187792, "lon": -73.9580349, "tags": {"addr:housenumber": "138", "addr:street": "North 8th Street", "amenity": "restaurant", "name": "egg shop"}}, {"type": "node", "id": 5756089923, "lat": 40.7184595, "lon": -73.9599718, "tags": {"amenity": "restaurant", "name": "Sweet Water", "website": "https://www.sweetwaterny.com/", "wheelchair": "no"}}, {"type": "node", "id": 5773932353, "lat": 40.7169461, "lon": -73.9566296, "tags": {"addr:housenumber": "557", "addr:postcode": "11211", "addr:street": "Driggs Avenue", "amenity": "restaurant", "cuisine": "argentinian", "name": "El Almac\u00e9n, 557 Driggs Ave, Brooklyn, NY 11211, USA", "name:de": "El Almac\u00e9n", "name:en": "El Almac\u00e9n", "website": "https://www.elalmacennyc.com/"}}, {"type": "node", "id": 5962563885, "lat": 40.7156064, "lon": -73.9534877, "tags": {"amenity": "restaurant", "cuisine": "pizza", "name": "Best Pizza", "takeaway": "yes", "wheelchair": "yes"}}, {"type": "node", "id": 5963034386, "lat": 40.7162589, "lon": -73.9554176, "tags": {"addr:city": "Brooklyn", "addr:housenumber": "88", "addr:postcode": "11211", "addr:state": "NY", "addr:street": "Roebling Street", "amenity": "cafe", "contact:instagram": "7grainarmy", "diet:dairy_free": "only", "diet:gluten_free": "only", "diet:vegan": "yes", "indoor_seating": "no", "name": "7 Grain Army", "opening_hours": "Th-Fr 08:00-15:00;Sa-Su 09:00-15:00", "outdoor_seating": "sidewalk", "takeaway": "yes", "website": "https://www.7grainarmy.com/"}}, {"type": "node", "id": 5978556757, "lat": 40.7169651, "lon": -73.9567286, "tags": {"addr:city": "Brooklyn", "addr:country": "US", "addr:housenumber": "558", "addr:postcode": "11211", "addr:state": "NY", "addr:street": "Driggs Avenue", "amenity": "restaurant", "branch": "Williamsburg", "contact:facebook": "twobootswilliamsburg", "contact:instagram": "twobootswilliamsburg", "cuisine": "pizza", "name": "Two Boots Pizza", "opening_hours": "Su-We 11:30-23:00; Th 11:30-02:00; Fr-Sa 11:30-04:00", "phone": "+1-718-387-2668", "website": "https://twoboots.com/locations/williamsburg/"}}, {"type": "node", "id": 5978561187, "lat": 40.7174628, "lon": -73.95617, "tags": {"amenity": "restaurant", "name": "The Abbey"}}, {"type": "node", "id": 5978561188, "lat": 40.718719, "lon": -73.9544582, "tags": {"addr:housenumber": "475", "addr:postcode": "11211", "addr:street": "Driggs Avenue", "amenity": "restaurant", "bar": "yes", "branch": "Williamsburg", "cocktails": "yes", "cuisine": "sushi;japanese", "drink:beer": "yes", "drink:liquor": "yes", "drink:sake": "yes", "drink:wine": "yes", "name": "Fushimi", "opening_hours": "Mo-Th 11:30-22:30, Fr 10:30-23:30, Sa 12:00-23:30, Su 12:00-22:00", "phone": "+1-718-963-2555", "takeaway": "yes", "website": "https://fushimiwilliamsburg.com"}}, {"type": "node", "id": 5978792508, "lat": 40.7148899, "lon": -73.9542821, "tags": {"addr:housenumber": "263", "addr:street": "North 6th Street", "amenity": "bar", "name": "Pinkerton"}}, {"type": "node", "id": 6037257725, "lat": 40.7183082, "lon": -73.9573908, "tags": {"addr:housenumber": "166", "addr:street": "Bedford Avenue", "amenity": "cafe", "check_date": "2024-02-08", "cuisine": "coffee_shop", "level": "0", "name": "Vittoria", "phone": "+1-718-388-3118", "takeaway": "yes", "toilets": "no"}}, {"type": "node", "id": 6182605480, "lat": 40.7173677, "lon": -73.9580295, "tags": {"addr:city": "Brooklyn", "addr:housenumber": "195", "addr:postcode": "11211", "addr:state": "NY", "addr:street": "Bedford Avenue", "amenity": "restaurant", "check_date": "2025-07-27", "cuisine": "mexican", "name": "Vera Cruz", "opening_hours": "Mo-Sa 16:00-04:00; Su 15:00-04:00", "phone": "+1-718-486-3333", "website": "https://veracruzbrooklyn.com/"}}, {"type": "node", "id": 6248588890, "lat": 40.7146755, "lon": -73.9566512, "tags": {"addr:city": "Brooklyn", "addr:housenumber": "133", "addr:postcode": "11211", "addr:street": "Roebling Street", "amenity": "cafe", "name": "Oslo Coffee", "outdoor_seating": "no"}}, {"type": "node", "id": 6356460186, "lat": 40.7190444, "lon": -73.9554283, "tags": {"addr:city": "Brooklyn", "addr:housenumber": "178", "addr:postcode": "11211", "addr:state": "NY", "addr:street": "North 10th Street", "amenity": "restaurant", "name": "Fedoroff\u2019s Roast Pork"}}, {"type": "node", "id": 6804305685, "lat": 40.7184023, "lon": -73.9569449, "tags": {"addr:housenumber": "165", "addr:street": "Bedford Avenue", "amenity": "restaurant", "name": "XI\u2019AN Town"}}, {"type": "node", "id": 6978351418, "lat": 40.7199553, "lon": -73.9568996, "tags": {"addr:housenumber": "136", "addr:street": "North 10th Street", "name": "Compass", "office": "estate_agent"}}, {"type": "node", "id": 7040457482, "lat": 40.7161905, "lon": -73.9571819, "tags": {"addr:housenumber": "583", "addr:postcode": "11211", "addr:street": "Driggs Avenue", "amenity": "cafe", "name": "Gusto Latino Cafe Rest"}}, {"type": "node", "id": 7061462485, "lat": 40.7181935, "lon": -73.9571885, "tags": {"amenity": "restaurant", "name": "Pok\u00e9works", "opening_hours": "Mo-Su 11:00-22:00"}}, {"type": "node", "id": 7923125553, "lat": 40.7148029, "lon": -73.9573762}, {"type": "node", "id": 7923125555, "lat": 40.7146604, "lon": -73.9571484}, {"type": "node", "id": 7923125556, "lat": 40.7145737, "lon": -73.9576564}, {"type": "node", "id": 9353067726, "lat": 40.7148432, "lon": -73.9594218, "tags": {"amenity": "restaurant", "brand": "Tacombi", "brand:wikidata": "Q123165959", "cuisine": "mexican", "name": "Tacombi"}}, {"type": "node", "id": 9543945217, "lat": 40.7182769, "lon": -73.9574477, "tags": {"amenity": "restaurant", "diet:vegan": "yes", "diet:vegetarian": "yes", "name": "Oasis"}}, {"type": "node", "id": 9624789645, "lat": 40.7179646, "lon": -73.9566853, "tags": {"alt_name": "Santa Fe, Brooklyn", "amenity": "cafe", "cuisine": "new_mexican;breakfast", "drink:coffee": "yes", "name": "SF BK"}}, {"type": "node", "id": 9785615220, "lat": 40.7158262, "lon": -73.9576147}, {"type": "node", "id": 9785615221, "lat": 40.7151497, "lon": -73.9565391}, {"type": "node", "id": 9785615222, "lat": 40.7147884, "lon": -73.9569334}, {"type": "node", "id": 9785615223, "lat": 40.7147604, "lon": -73.9570668}, {"type": "node", "id": 9785615224, "lat": 40.7153906, "lon": -73.9580914}, {"type": "node", "id": 9785615248, "lat": 40.7147104, "lon": -73.9571919}, {"type": "node", "id": 9785615249, "lat": 40.7146543, "lon": -73.9571685}, {"type": "node", "id": 9785615252, "lat": 40.7147914, "lon": -73.9573907}, {"type": "node", "id": 9785615255, "lat": 40.7145962, "lon": -73.9575811}, {"type": "node", "id": 9785615258, "lat": 40.7145791, "lon": -73.9574354}, {"type": "node", "id": 9789343571, "lat": 40.7215052, "lon": -73.9506886}, {"type": "node", "id": 9789343572, "lat": 40.7215344, "lon": -73.9507593}, {"type": "node", "id": 9789402820, "lat": 40.7233443, "lon": -73.9516823}, {"type": "node", "id": 9949550238, "lat": 40.7146791, "lon": -73.9571403}, {"type": "node", "id": 9949550239, "lat": 40.7147218, "lon": -73.95721}, {"type": "node", "id": 9949550240, "lat": 40.7147267, "lon": -73.9572491}, {"type": "node", "id": 9949550241, "lat": 40.714644, "lon": -73.9571989}, {"type": "node", "id": 9949550242, "lat": 40.7146486, "lon": -73.9572194}, {"type": "node", "id": 9949550243, "lat": 40.7145634, "lon": -73.9576123}, {"type": "node", "id": 9949550245, "lat": 40.714596, "lon": -73.9576666}, {"type": "node", "id": 9949550246, "lat": 40.714549, "lon": -73.9575503}, {"type": "node", "id": 9949550247, "lat": 40.7146011, "lon": -73.9573565}, {"type": "node", "id": 9949550248, "lat": 40.714613, "lon": -73.9573461}, {"type": "node", "id": 9949556559, "lat": 40.7149952, "lon": -73.9544896}, {"type": "node", "id": 9949556560, "lat": 40.7154349, "lon": -73.9540105}, {"type": "node", "id": 9949556561, "lat": 40.7161347, "lon": -73.9551504}, {"type": "node", "id": 9949556562, "lat": 40.7157004, "lon": -73.9556141}, {"type": "node", "id": 9966728417, "lat": 40.7174819, "lon": -73.9584012, "tags": {"addr:city": "Brooklyn", "addr:housenumber": "149", "addr:street": "North 6th Street", "amenity": "bar", "check_date": "2025-07-27", "contact:facebook": "midnightsbk", "contact:instagram": "midnightsbrooklyn", "name": "Midnight's Bar", "opening_hours": "Su-Th 14:00-02:00; Fr-Sa 14:00-04:00", "website": "https://www.midnightsbk.com"}}, {"type": "node", "id": 10078555417, "lat": 40.7192029, "lon": -73.9597158, "tags": {"addr:city": "Brooklyn", "addr:housenumber": "103", "addr:postcode": "11249", "addr:state": "NY", "addr:street": "North 7th Street", "amenity": "cafe", "contact:instagram": "angelscafebk", "cuisine": "bagel", "name": "Angels Cafe", "opening_hours": "Mo-Th 07:00-15:00; Fr-Su 07:00-17:00", "payment:american_express": "yes", "payment:contactless": "yes", "payment:discover_card": "yes", "payment:mastercard": "yes", "payment:visa": "yes"}}, {"type": "node", "id": 10091724025, "lat": 40.7170474, "lon": -73.9587441, "tags": {"amenity": "restaurant", "cuisine": "chinese", "name": "Mr. Bao", "website": "https://mrbaogroup.com/"}}, {"type": "node", "id": 10091724027, "lat": 40.7169607, "lon": -73.9588354, "tags": {"amenity": "restaurant", "cuisine": "thai", "name": "Williamsburg Thai Cuisine", "opening_hours": "Mo-Th 12:00-22:00; Fr,Sa 12:00-22:30", "website": "http://thaicuisinebedford.com", "wheelchair": "no"}}, {"type": "node", "id": 10092297323, "lat": 40.7179522, "lon": -73.9574512, "tags": {"addr:city": "Brooklyn", "addr:housenumber": "179", "addr:state": "NY", "addr:street": "Bedford Avenue", "amenity": "restaurant", "cuisine": "pizza", "name": "Little Italy"}}, {"type": "node", "id": 10541952810, "lat": 40.7212095, "lon": -73.9512915}, {"type": "node", "id": 10568669415, "lat": 40.7204291, "lon": -73.9529422}, {"type": "node", "id": 10568669416, "lat": 40.7216633, "lon": -73.9535015}, {"type": "node", "id": 10613041697, "lat": 40.717779, "lon": -73.9543949, "tags": {"addr:city": "Brooklyn", "addr:housenumber": "221", "addr:postcode": "11211", "addr:state": "NY", "addr:street": "North 9th Street", "amenity": "cafe", "cuisine": "coffee_shop;chinese;japanese;french", "name": "pinkFROG Cafe", "opening_hours": "Su-Th 11:00-21:00, Fr-Sa 11:00-22:00", "outdoor_seating": "no", "phone": "+1-929-265-3350", "website": "https://pinkfrogcafe.com/"}}, {"type": "node", "id": 10834126657, "lat": 40.7190899, "lon": -73.958676, "tags": {"addr:city": "Brooklyn", "addr:housenumber": "102", "addr:state": "NY", "addr:street": "Berry Street", "amenity": "restaurant", "cuisine": "italian;pizza", "diet:gluten_free": "yes", "diet:vegan": "yes", "name": "Oregano Brooklyn", "phone": "+1-718-599-5988", "website": "https://www.oreganowilliamsburg.com/"}}, {"type": "node", "id": 10835856480, "lat": 40.7175808, "lon": -73.9590156, "tags": {"addr:city": "Brooklyn", "addr:housenumber": "142", "addr:postcode": "11249", "addr:state": "NY", "addr:street": "North 6th Street", "amenity": "cafe", "cuisine": "bubble_tea", "name": "I'Milky", "opening_hours": "Mo-Th 11:30-21:00; Fr-Su 11:30-21:30", "outdoor_seating": "no", "phone": "+1-585-421-7795", "website": "https://www.imilkyusa.com/"}}, {"type": "node", "id": 10836191952, "lat": 40.7164698, "lon": -73.9590218, "tags": {"addr:city": "Brooklyn", "addr:housenumber": "219", "addr:postcode": "11211", "addr:state": "NY", "addr:street": "Bedford Avenue", "amenity": "cafe", "cuisine": "coffee_shop", "name": "Lattente", "opening_hours": "Mo-Fr 07:00-19:00; Sa-Su 08:00-19:00", "website": "https://www.lattentenyc.com/"}}, {"type": "node", "id": 10836203033, "lat": 40.716997, "lon": -73.9591501, "tags": {"addr:city": "Brooklyn", "addr:housenumber": "135", "addr:postcode": "11249", "addr:state": "NY", "addr:street": "North 5th Street", "addr:unit": "B", "amenity": "restaurant", "check_date": "2023-07-20", "cuisine": "chinese", "name": "Big Wong", "phone": "+1-929-489-3539"}}, {"type": "node", "id": 10836229750, "lat": 40.7168455, "lon": -73.9586289, "tags": {"addr:city": "Brooklyn", "addr:housenumber": "209", "addr:postcode": "11211", "addr:state": "NY", "addr:street": "Bedford Avenue", "amenity": "restaurant", "cuisine": "poke", "name": "Pokebab", "opening_hours": "Mo-We 11:00-21:45; Th-Su 11:00-20:00", "phone": "+1-718-599-2425", "website": "http://www.pokebabinc.com/"}}, {"type": "node", "id": 11074193406, "lat": 40.7178623, "lon": -73.9565384, "tags": {"addr:housenumber": "182", "addr:postcode": "11211", "addr:street": "North 8th Street", "amenity": "bar", "name": "EBBS Brewing Co.", "website": "https://drinkebbs.com/"}}, {"type": "node", "id": 11164227707, "lat": 40.7164928, "lon": -73.9598142, "tags": {"addr:city": "Brooklyn", "addr:housenumber": "131", "addr:postcode": "11249", "addr:state": "NY", "addr:street": "North 4th Street", "amenity": "cafe", "email": "coppermugcoffee@gmail.com", "name": "Copper Mug Coffee", "opening_hours": "Mo-Fr 07:30-18:30; Sa-Su 09:00-18:30", "phone": "+1-631-536-5209", "website": "https://www.coppermugcoffee.com/"}}, {"type": "node", "id": 11712060130, "lat": 40.7177358, "lon": -73.958861, "tags": {"addr:housenumber": "135", "amenity": "restaurant", "name": "Adore Brooklyn", "wheelchair": "limited"}}, {"type": "node", "id": 11748669858, "lat": 40.714621, "lon": -73.9576749}, {"type": "node", "id": 11749014713, "lat": 40.7202414, "lon": -73.9488201, "tags": {"grounded": "yes", "highway": "street_lamp"}}, {"type": "node", "id": 11800318553, "lat": 40.71882, "lon": -73.95895, "tags": {"addr:city": "Brooklyn", "addr:housenumber": "112", "addr:postcode": "11249", "addr:state": "NY", "addr:street": "Berry Street", "amenity": "restaurant", "cuisine": "vietnamese", "name": "Lucy's Vietnamese", "website": "https://williamsburg.lucysvietnamese.com/"}}, {"type": "node", "id": 11956309391, "lat": 40.7148966, "lon": -73.9585346, "tags": {"addr:city": "New York", "addr:housenumber": "261", "addr:postcode": "11211", "addr:street": "Metropolitan Avenue", "amenity": "cafe", "name": "Butcher\u2018s Daughter"}}, {"type": "node", "id": 12042692466, "lat": 40.7168795, "lon": -73.9585828, "tags": {"level": "-0.5", "name": "Northside Car Service", "office": "yes"}}, {"type": "node", "id": 12089235427, "lat": 40.7219601, "lon": -73.9552963}, {"type": "node", "id": 12089235429, "lat": 40.7222946, "lon": -73.9549316}, {"type": "node", "id": 12089235430, "lat": 40.7223311, "lon": -73.9548598}, {"type": "node", "id": 12089235435, "lat": 40.7219356, "lon": -73.9553249}, {"type": "node", "id": 12089235436, "lat": 40.721873, "lon": -73.9553908}, {"type": "node", "id": 12089235437, "lat": 40.7218484, "lon": -73.9554151}, {"type": "node", "id": 12089235440, "lat": 40.72147, "lon": -73.9558215}, {"type": "node", "id": 12089235443, "lat": 40.7217227, "lon": -73.9538545}, {"type": "node", "id": 12089235444, "lat": 40.7223001, "lon": -73.9547892}, {"type": "node", "id": 12089235447, "lat": 40.7216933, "lon": -73.953807}, {"type": "node", "id": 12089235453, "lat": 40.7210128, "lon": -73.9552339}, {"type": "node", "id": 12089235458, "lat": 40.7214155, "lon": -73.9558801}, {"type": "node", "id": 12099611900, "lat": 40.7199293, "lon": -73.9526935}, {"type": "node", "id": 12099716501, "lat": 40.7197814, "lon": -73.9526693}, {"type": "node", "id": 12111226444, "lat": 40.7200588, "lon": -73.952479}, {"type": "node", "id": 12111226445, "lat": 40.7204298, "lon": -73.9525395}, {"type": "node", "id": 12111226449, "lat": 40.7197796, "lon": -73.9524336}, {"type": "node", "id": 12111226455, "lat": 40.7200145, "lon": -73.9524718}, {"type": "node", "id": 12111226456, "lat": 40.7189644, "lon": -73.9523008}, {"type": "node", "id": 12111226466, "lat": 40.7197389, "lon": -73.9524269}, {"type": "node", "id": 12111226470, "lat": 40.7188973, "lon": -73.9521769}, {"type": "node", "id": 12111226483, "lat": 40.7190716, "lon": -73.9503413}, {"type": "node", "id": 12111226489, "lat": 40.7191234, "lon": -73.9503233}, {"type": "node", "id": 12111226490, "lat": 40.7194996, "lon": -73.950381}, {"type": "node", "id": 12111226493, "lat": 40.719547, "lon": -73.9503882}, {"type": "node", "id": 12111226500, "lat": 40.7206263, "lon": -73.9505538}, {"type": "node", "id": 12111595853, "lat": 40.7206719, "lon": -73.9505608}, {"type": "node", "id": 12111595854, "lat": 40.7215287, "lon": -73.9506984}, {"type": "node", "id": 12111595884, "lat": 40.7204976, "lon": -73.9524859}, {"type": "node", "id": 12111595885, "lat": 40.7212903, "lon": -73.9511591}, {"type": "node", "id": 12115376621, "lat": 40.7216711, "lon": -73.9505074}, {"type": "node", "id": 12115376622, "lat": 40.7207089, "lon": -73.9503495}, {"type": "node", "id": 12115376623, "lat": 40.7206474, "lon": -73.9503394}, {"type": "node", "id": 12115376628, "lat": 40.7202271, "lon": -73.9502705}, {"type": "node", "id": 12115376631, "lat": 40.7195696, "lon": -73.9501626}, {"type": "node", "id": 12115376636, "lat": 40.7199871, "lon": -73.9502311}, {"type": "node", "id": 12115376640, "lat": 40.7191748, "lon": -73.9492992}, {"type": "node", "id": 12115376641, "lat": 40.7195133, "lon": -73.9501534}, {"type": "node", "id": 12115376680, "lat": 40.7191805, "lon": -73.9492394}, {"type": "node", "id": 12115376687, "lat": 40.7196713, "lon": -73.9487259}, {"type": "node", "id": 12115376688, "lat": 40.7197, "lon": -73.9487307}, {"type": "node", "id": 12115376693, "lat": 40.7199768, "lon": -73.9487764}, {"type": "node", "id": 12115473760, "lat": 40.7208366, "lon": -73.9489189}, {"type": "node", "id": 12115473768, "lat": 40.721563, "lon": -73.9493381}, {"type": "node", "id": 12115473769, "lat": 40.7217252, "lon": -73.9504415}, {"type": "node", "id": 12115473770, "lat": 40.7215933, "lon": -73.9493727}, {"type": "node", "id": 12120440898, "lat": 40.7218196, "lon": -73.9507993}, {"type": "node", "id": 12120478907, "lat": 40.7223686, "lon": -73.9511229}, {"type": "node", "id": 12120478908, "lat": 40.7224241, "lon": -73.9511499}, {"type": "node", "id": 12120478915, "lat": 40.7232285, "lon": -73.9516161}, {"type": "node", "id": 12120603799, "lat": 40.7232563, "lon": -73.9517821}, {"type": "node", "id": 12120615111, "lat": 40.7217016, "lon": -73.953457}, {"type": "node", "id": 12120615120, "lat": 40.7206551, "lon": -73.9545467}, {"type": "node", "id": 12120615121, "lat": 40.7199395, "lon": -73.9535476}, {"type": "node", "id": 12120615126, "lat": 40.7205928, "lon": -73.9545661}, {"type": "node", "id": 12120615127, "lat": 40.7199587, "lon": -73.9534447}, {"type": "node", "id": 12120615132, "lat": 40.7205422, "lon": -73.9527583}, {"type": "node", "id": 12120615133, "lat": 40.7205799, "lon": -73.9526961}, {"type": "node", "id": 12120615145, "lat": 40.7217008, "lon": -73.9508354}, {"type": "node", "id": 12475375401, "lat": 40.7164964, "lon": -73.9590083, "tags": {"amenity": "restaurant", "name": "Simply Natural Grill House"}}, {"type": "node", "id": 12605493017, "lat": 40.7155855, "lon": -73.9588148, "tags": {"addr:housenumber": "174", "addr:street": "North 4th Street", "amenity": "restaurant", "branch": "Williamsburg", "name": "Cava", "opening_hours": "Mo-Su 10:45-22:00"}}, {"type": "node", "id": 12709177387, "lat": 40.7148538, "lon": -73.9546658, "tags": {"addr:city": "Brooklyn", "addr:housenumber": "52", "addr:postcode": "11211", "addr:state": "NY", "addr:street": "Havemeyer Street", "amenity": "restaurant", "cuisine": "french", "email": "info@maisonprovencebk.com", "name": "Maison Provence", "opening_hours": "Mo-Fr 17:00-22:30;Sa-Su 11:00-22:30", "phone": "+1-347-223-4838", "website": "https://maisonprovencebk.com/"}}, {"type": "node", "id": 12952466724, "lat": 40.7180837, "lon": -73.953478, "tags": {"addr:housenumber": "217", "addr:postcode": "11211", "addr:street": "North 10th Street", "amenity": "school", "name": "BSNBCS High School", "official_name": "Bedford Stuyvesant New Beginnings Charter School High School", "phone": "+1-347-943-5940", "website": "https://bsnbcs.org/high-school/"}}, {"type": "node", "id": 13009348344, "lat": 40.7189268, "lon": -73.9533409, "tags": {"amenity": "cafe", "coffee": "yes", "cuisine": "coffee_shop", "drink:espresso": "yes", "email": "office@rhythmzero.nyc", "indoor_seating": "yes", "level": "0", "name": "Rhythm Zero - Williamsburg", "opening_hours": "Mo-Fr 07:00-16:00; Sa-Su 08:00-16:00", "outdoor_seating": "no", "website": "https://www.rhythmzeronyc.com/"}}, {"type": "node", "id": 13107967347, "lat": 40.7180759, "lon": -73.9579065, "tags": {"addr:city": "Brooklyn", "addr:housenumber": "151", "addr:postcode": "11249", "addr:state": "NY", "addr:street": "North 7th Street", "amenity": "cafe", "cuisine": "coffee_shop", "drink:coffee": "yes", "drink:tea": "yes", "internet_access": "wlan", "internet_access:fee": "no", "internet_access:ssid": "KIJITORA_guest", "name": "Kijitora"}}, {"type": "way", "id": 32888938, "nodes": [370427020, 12089235444, 12089235443, 12089235447, 370427026, 370427035, 12089235453, 12089235458, 12089235440, 12089235437, 12089235436, 12089235435, 12089235427, 12089235429, 12089235430, 370427020]}, {"type": "way", "id": 32888940, "nodes": [12120603799, 12120615111, 10568669416, 12120615120, 370427061, 12120615126, 12120615121, 370427068, 12120615127, 10568669415, 370427080, 12120615132, 12120615133, 12120615145, 2548042173, 12120440898, 12120478907, 12120478908, 12120478915, 9789402820, 12120603799]}, {"type": "way", "id": 32888942, "nodes": [370427087, 9789343572, 12111595885, 10541952810, 12111595884, 370427093, 12111226445, 12111226444, 12111226455, 12111226449, 12111226466, 12111226456, 370427099, 12111226470, 12111226483, 370427106, 12111226489, 12111226490, 12111226493, 12111226500, 12111595853, 9789343571, 12111595854, 370427087]}, {"type": "way", "id": 32888943, "nodes": [370427113, 3865279496, 3865279495, 3865279494, 12099611900, 12099716501, 3865279488, 3865279484, 370427120, 3865279483, 3865279485, 370212417, 370212416, 370212415, 3865279493, 370427113]}, {"type": "way", "id": 32888945, "nodes": [370427136, 1709314941, 12115473770, 12115473768, 2548042168, 370427144, 12115473760, 1709314958, 2548053395, 11749014713, 12115376693, 12115376688, 12115376687, 370427151, 12115376680, 12115376640, 370427157, 12115376641, 12115376631, 12115376636, 12115376628, 12115376623, 12115376622, 12115376621, 370427168, 12115473769, 370427136]}, {"type": "way", "id": 279772352, "nodes": [2839659093, 2839659076, 2839659080, 2839659071, 2839659213, 2839659241, 2839659096, 2839659093], "tags": {"addr:housenumber": "557", "addr:postcode": "11211", "addr:street": "Driggs Avenue", "amenity": "restaurant", "building": "yes", "cuisine": "argentinian", "height": "9.7", "name": "El Almacen", "nycdoitt:bin": "3062109"}}, {"type": "way", "id": 279778319, "nodes": [2839700324, 2839700348, 2839700358, 2839700368, 2839700379, 2839700342, 2839700324], "tags": {"addr:city": "Brooklyn", "addr:country": "US", "addr:housenumber": "172", "addr:postcode": "11211", "addr:state": "NY", "addr:street": "Bedford Avenue", "amenity": "restaurant", "building": "yes", "cuisine": "vietnamese", "height": "9.5", "name": "An Nhau", "nycdoitt:bin": "3061925", "website": "http://www.annhaunyc.com/"}}, {"type": "way", "id": 279778320, "nodes": [2839701001, 2839700985, 2839700969, 2839700986, 2839700981, 2839701019, 2839701034, 2839701006, 2839701001], "tags": {"addr:city": "Brooklyn", "addr:country": "US", "addr:housenumber": "133", "addr:postcode": "11249", "addr:state": "NY", "addr:street": "Wythe Avenue", "amenity": "restaurant", "building": "yes", "height": "9.3", "name": "Cafe Mogador", "nycdoitt:bin": "3061884", "toilets:wheelchair": "no", "website": "https://www.cafemogador.com/", "wheelchair": "yes"}}, {"type": "way", "id": 849220207, "nodes": [7923125556, 9949550243, 9949550246, 9785615258, 9949550247, 9949550248, 9949550242, 9949550241, 9785615249, 7923125555, 9949550238, 9785615248, 9949550239, 9949550240, 7923125553, 9785615252, 9785615255, 11748669858, 9949550245, 7923125556], "tags": {"area": "yes", "ele": "8", "gnis:feature_id": "2097566", "highway": "pedestrian", "leisure": "park", "name": "Conners Square", "wikidata": "Q34819595"}}, {"type": "way", "id": 1065540561, "nodes": [9785615224, 9785615223, 9785615222, 9785615221, 9785615220, 9785615224], "tags": {"amenity": "school", "ele": "7", "gnis:feature_id": "961419", "name": "Public School 17"}}, {"type": "way", "id": 1085842599, "nodes": [9949556562, 9949556561, 9949556560, 9949556559, 9949556562], "tags": {"amenity": "school", "name": "Harry Van Arsdale High School"}}, {"type": "relation", "id": 13902286, "members": [{"type": "way", "ref": 32888945, "role": "outer"}, {"type": "way", "ref": 32888942, "role": "outer"}, {"type": "way", "ref": 32888940, "role": "outer"}, {"type": "way", "ref": 32888938, "role": "outer"}, {"type": "way", "ref": 32888943, "role": "outer"}], "tags": {"addr:city": "Brooklyn", "addr:state": "NY", "ele": "4", "gnis:feature_id": "956729", "leisure": "park", "name": "McCarren Park", "name:etymology:wikidata": "Q7146625", "operator": "New York City Department of Parks and Recreation", "operator:short": "NYC Parks", "operator:type": "government", "operator:wikidata": "Q1894232", "type": "multipolygon", "website": "https://www.nycgovparks.org/parks/mccarren-park/", "wikidata": "Q6800173", "wikipedia": "en:McCarren Park"}}]}