{"version": 0.6, "generator": "Overpass API 0.7.62.8 e802775f", "osm3s": {"timestamp_osm_base": "2025-12-01T16:36:11Z", "copyright": "The data included in this document is from www.openstreetmap.org. The data is made available under ODbL."}, "elements": [{"type": "node", "id": 357637294, "lat": 40.7290123, "lon": -73.9582833}, {"type": "node", "id": 2015482687, "lat": 40.729763, "lon": -73.9574255, "tags": {"amenity": "bar", "name": "The Pencil Factory"}}, {"type": "node", "id": 2268953873, "lat": 40.7300079, "lon": -73.9577527, "tags": {"amenity": "restaurant", "name": "Sereneco"}}, {"type": "node", "id": 2275469171, "lat": 40.7314241, "lon": -73.9576915, "tags": {"addr:city": "Brooklyn", "addr:housenumber": "180", "addr:postcode": "11222", "addr:state": "NY", "addr:street": "Franklin Street", "amenity": "bar", "name": "Bar Americano", "opening_hours": "Mo-Tu 17:00-24:00; We 15:00-24:00; Th 15:00-01:00; Fr 15:00-02:00; Sa 13:00-02:00; Su 13:00-11:00", "website": "https://www.baramericanonyc.com"}}, {"type": "node", "id": 2275479427, "lat": 40.7300934, "lon": -73.9564221, "tags": {"amenity": "bar", "fireplace": "yes", "name": "Black Rabbit"}}, {"type": "node", "id": 2276324841, "lat": 40.7307172, "lon": -73.957596, "tags": {"addr:city": "Brooklyn", "addr:housenumber": "160", "addr:postcode": "11222", "addr:state": "NY", "addr:street": "Franklin Street", "amenity": "restaurant", "bar": "yes", "cuisine": "american", "name": "Elder Greene", "outdoor_seating": "sidewalk", "website": "https://eldergreene.com/"}}, {"type": "node", "id": 2276325688, "lat": 40.7307935, "lon": -73.9576081, "tags": {"amenity": "restaurant", "cuisine": "mexican", "name": "Vamos al Tequila", "outdoor_seating": "sidewalk"}}, {"type": "node", "id": 2592331340, "lat": 40.7310173, "lon": -73.9541919, "tags": {"addr:city": "Brooklyn", "addr:housenumber": "924", "addr:postcode": "11222", "addr:state": "NY", "addr:street": "Manhattan Avenue", "amenity": "bar", "name": "The Brew Inn", "opening_hours": "Mo-Su 16:00-23:00", "phone": "+1-718-564-7155", "website": "https://www.instagram.com/the_brew_inn"}}, {"type": "node", "id": 2793692755, "lat": 40.7335812, "lon": -73.9549785, "tags": {"addr:housenumber": "1015", "addr:postcode": "11222", "addr:street": "Manhattan Avenue", "alt_name": "Bombay Grill & Curry", "amenity": "restaurant", "cuisine": "middle_eastern;indian", "delivery": "yes", "diet:halal": "yes", "diet:vegetarian": "yes", "fax": "+1-718-389-2214", "name": "Afghan Kabab & Grill House", "opening_hours": "Mo-Su 11:00-01:00+", "phone": "+1-718-389-2212", "takeaway": "yes"}}, {"type": "node", "id": 2793692760, "lat": 40.733627, "lon": -73.9549862, "tags": {"addr:housenumber": "1017", "addr:postcode": "11222", "addr:street": "Manhattan Avenue", "amenity": "restaurant", "cuisine": "pizza", "delivery": "yes", "name": "Triangolo Pizzeria", "phone": "+1-718-389-5885", "takeaway": "yes"}}, {"type": "node", "id": 2793692900, "lat": 40.7333196, "lon": -73.9580311, "tags": {"addr:housenumber": "224", "addr:postcode": "11222", "addr:street": "Franklin Street"}}, {"type": "node", "id": 2793692975, "lat": 40.7333693, "lon": -73.9578692, "tags": {"addr:housenumber": "96", "addr:postcode": "11222", "addr:street": "Green Street"}}, {"type": "node", "id": 2793694149, "lat": 40.7331374, "lon": -73.9574546}, {"type": "node", "id": 2793694173, "lat": 40.7331795, "lon": -73.9576651}, {"type": "node", "id": 2793694243, "lat": 40.7332868, "lon": -73.9580258}, {"type": "node", "id": 2793694261, "lat": 40.7333059, "lon": -73.9578213}, {"type": "node", "id": 2793694267, "lat": 40.7333182, "lon": -73.9576887}, {"type": "node", "id": 2793694273, "lat": 40.7333217, "lon": -73.9575062}, {"type": "node", "id": 2793694281, "lat": 40.7333237, "lon": -73.9574846}, {"type": "node", "id": 2793694299, "lat": 40.7333537, "lon": -73.9580366}, {"type": "node", "id": 2793694304, "lat": 40.7333851, "lon": -73.9576994}, {"type": "node", "id": 2793694310, "lat": 40.7334025, "lon": -73.9575192}, {"type": "node", "id": 2842929227, "lat": 40.7292924, "lon": -73.95735, "tags": {"addr:housenumber": "128", "addr:postcode": "11222", "addr:street": "Franklin Street", "amenity": "cafe", "cuisine": "breakfast;sandwich;seafood", "drink:coffee": "yes", "drink:espresso": "yes", "drink:tea": "yes", "name": "Littleneck Outpost", "outdoor_seating": "sidewalk"}}, {"type": "node", "id": 2842931288, "lat": 40.7297024, "lon": -73.9555066}, {"type": "node", "id": 2842931302, "lat": 40.7297137, "lon": -73.9553928}, {"type": "node", "id": 2842931312, "lat": 40.7297258, "lon": -73.9553949}, {"type": "node", "id": 2842931347, "lat": 40.7298142, "lon": -73.9555258}, {"type": "node", "id": 2842931364, "lat": 40.7298966, "lon": -73.95554}, {"type": "node", "id": 2842931366, "lat": 40.7299079, "lon": -73.9554262}, {"type": "node", "id": 2842985885, "lat": 40.7324479, "lon": -73.9543033, "tags": {"addr:housenumber": "141", "addr:postcode": "11222", "addr:street": "India Street", "amenity": "cafe", "name": "La Paris Dakar"}}, {"type": "node", "id": 2842989041, "lat": 40.7327188, "lon": -73.9545157, "tags": {"amenity": "cafe", "cuisine": "coffee_shop", "internet_access": "yes", "name": "Odd Fox", "opening_hours": "Mo-Fr 07:00-19:00; Sa-Su 07:00-16:00", "outdoor_seating": "garden", "website": "https://oddfoxcoffee.com"}}, {"type": "node", "id": 2842999627, "lat": 40.730495, "lon": -73.9541682}, {"type": "node", "id": 2842999628, "lat": 40.7304963, "lon": -73.9541546}, {"type": "node", "id": 2842999637, "lat": 40.7305047, "lon": -73.9540643}, {"type": "node", "id": 2842999805, "lat": 40.7305642, "lon": -73.9541794}, {"type": "node", "id": 2842999812, "lat": 40.7305697, "lon": -73.9541211}, {"type": "node", "id": 2843008352, "lat": 40.7321469, "lon": -73.9578047, "tags": {"addr:housenumber": "200", "addr:postcode": "11222", "addr:street": "Franklin Street", "amenity": "bar", "cocktails": "yes", "drink:beer": "draught", "drink:liquor": "yes", "drink:wine": "yes", "name": "The Moonlight Mile", "outdoor_seating": "sidewalk"}}, {"type": "node", "id": 2843008378, "lat": 40.7310273, "lon": -73.9545589, "tags": {"addr:housenumber": "925", "addr:postcode": "11222", "addr:street": "Manhattan Avenue", "amenity": "restaurant", "name": "Thai Cafe", "opening_hours": "Mo-Su 12:00-21:00", "phone": "+1 718-383-3562"}}, {"type": "node", "id": 2843008383, "lat": 40.7302402, "lon": -73.9578047, "tags": {"addr:city": "Brooklyn", "addr:housenumber": "113", "addr:postcode": "11222", "addr:street": "Franklin Street", "amenity": "bar", "email": "info@madelinesnyc.com", "name": "Madeline's", "opening_hours": "Mo-Th 16:00-24:00; Fr 15:00-02:00; Sa 12:00-02:00; Su 12:00-22:00", "website": "https://madelinesnyc.com"}}, {"type": "node", "id": 3755856093, "lat": 40.7285426, "lon": -73.9575103}, {"type": "node", "id": 3755856094, "lat": 40.729076, "lon": -73.9576028}, {"type": "node", "id": 3755856095, "lat": 40.7284743, "lon": -73.958197}, {"type": "node", "id": 4109867475, "lat": 40.7334503, "lon": -73.9549611, "tags": {"addr:city": "Brooklyn", "addr:housenumber": "1011", "addr:postcode": "11222", "addr:state": "NY", "addr:street": "Manhattan Avenue", "amenity": "bar", "email": "troostnyc@gmail.com", "name": "Troost", "opening_hours": "Mo-Su 16:00-02:00", "website": "https://troostny.com"}}, {"type": "node", "id": 4109867476, "lat": 40.7333423, "lon": -73.9549468, "tags": {"addr:city": "Brooklyn", "addr:housenumber": "1005", "addr:postcode": "11222", "addr:state": "NY", "addr:street": "Manhattan Avenue", "amenity": "restaurant", "cuisine": "indian", "delivery": "yes", "name": "Agra Taj Mahal", "phone": "+1-718-389-2200"}}, {"type": "node", "id": 4109867478, "lat": 40.7332005, "lon": -73.9549232, "tags": {"addr:city": "Brooklyn", "addr:housenumber": "999", "addr:postcode": "11222", "addr:state": "NY", "addr:street": "Manhattan Avenue", "amenity": "restaurant", "cocktails": "yes", "cuisine": "american", "drink:beer": "yes", "drink:liquor": "yes", "drink:wine": "yes", "name": "Esme"}}, {"type": "node", "id": 4790054821, "lat": 40.7298901, "lon": -73.9551052, "tags": {"addr:postcode": "11222", "amenity": "restaurant", "cuisine": "polish", "name": "Karczma", "opening_hours": "Mo-Th 12:00-22:30; Fr-Sa 12:00-23:30; Su 12:00-22:00", "phone": "+17183491744", "website": "https://karczmabrooklyn.com/"}}, {"type": "node", "id": 4803999022, "lat": 40.7303643, "lon": -73.9537452, "tags": {"addr:postcode": "11222", "amenity": "restaurant", "cuisine": "chinese", "name": "Chinese Musician", "opening_hours": "Mo-Su 11:30-22:30", "phone": "+17183832413", "website": "http://www.chinesemusicianbrooklyn.com"}}, {"type": "node", "id": 4833572853, "lat": 40.7332522, "lon": -73.9576775}, {"type": "node", "id": 4833572854, "lat": 40.7331196, "lon": -73.9576554}, {"type": "node", "id": 4833572855, "lat": 40.7331277, "lon": -73.9575646}, {"type": "node", "id": 4833572856, "lat": 40.7331355, "lon": -73.9574761}, {"type": "node", "id": 4833572861, "lat": 40.7333302, "lon": -73.9575076}, {"type": "node", "id": 4833588676, "lat": 40.733379, "lon": -73.9575154}, {"type": "node", "id": 5052125055, "lat": 40.7305282, "lon": -73.9517696, "tags": {"addr:city": "Brooklyn", "addr:housenumber": "195", "addr:postcode": "11222", "addr:state": "NY", "addr:street": "Greenpoint Avenue", "alt_name": "Cafe de Colombia", "amenity": "cafe", "cuisine": "colombian;coffee_shop", "drink:coffee": "yes", "drink:espresso": "yes", "drink:tea": "yes", "name": "Pueblo Querido", "opening_hours": "Mo-Fr 06:30-15:00; Sa 07:30-15:00; Su 08:00-15:00", "outdoor_seating": "yes", "phone": "+1-929-346-2986", "website": "https://www.pqcoffeeroasters.com"}}, {"type": "node", "id": 5057358326, "lat": 40.7292524, "lon": -73.9537238, "tags": {"addr:city": "Brooklyn", "addr:housenumber": "860", "addr:postcode": "11222", "addr:state": "NY", "addr:street": "Manhattan Avenue", "amenity": "bar", "drink:beer": "yes", "email": "pinball@sunshinelaundromat.com", "laundry_service": "yes", "leisure": "amusement_arcade", "name": "Sunshine Laundromat & Pinball", "opening_hours": "Mo 08:00-19:00, Tu-Fr 08:00-02:00, Sa-Su 07:00-02:00", "phone": "+1-718-475-2055", "self_service": "yes", "shop": "laundry", "tourism": "gallery", "website": "https://sunshinelaundromat.com"}}, {"type": "node", "id": 5065187821, "lat": 40.729096, "lon": -73.9539689, "tags": {"amenity": "restaurant", "cuisine": "polish", "name": "Cristina's", "name:en": "Christina's"}}, {"type": "node", "id": 5082647022, "lat": 40.7314664, "lon": -73.9580086, "tags": {"amenity": "bar", "cocktails": "yes", "contact:facebook": "https://www.facebook.com/Oak-Iron-150166341749649/", "drink:beer": "draught", "drink:liquor": "yes", "drink:wine": "yes", "name": "Oak & Iron", "opening_hours": "Mo-Fr 16:00-04:00; Sa-Su 14:00-04:00", "phone": "+1-718-349-2252", "toilets": "yes"}}, {"type": "node", "id": 5238704577, "lat": 40.7321529, "lon": -73.9547389, "tags": {"addr:city": "Brooklyn", "addr:housenumber": "967", "addr:postcode": "11222", "addr:state": "NY", "addr:street": "Manhattan Avenue", "amenity": "restaurant", "cuisine": "polish", "name": "Early", "outdoor_seating": "yes"}}, {"type": "node", "id": 5867570173, "lat": 40.7287172, "lon": -73.9582363}, {"type": "node", "id": 5867570174, "lat": 40.7285408, "lon": -73.9575286, "tags": {"access": "no", "barrier": "gate", "bicycle": "yes", "foot": "yes", "locked": "no", "wheelchair": "yes"}}, {"type": "node", "id": 5867570175, "lat": 40.7290738, "lon": -73.9576268, "tags": {"access": "no", "barrier": "gate", "bicycle": "yes", "foot": "yes", "locked": "no", "wheelchair": "yes"}}, {"type": "node", "id": 5867570176, "lat": 40.7290287, "lon": -73.9581082, "tags": {"access": "no", "barrier": "gate", "bicycle": "yes", "foot": "yes", "locked": "no", "wheelchair": "yes"}}, {"type": "node", "id": 5867570178, "lat": 40.7287692, "lon": -73.9582446}, {"type": "node", "id": 5867570184, "lat": 40.7286114, "lon": -73.958222}, {"type": "node", "id": 5978556777, "lat": 40.7289765, "lon": -73.95391, "tags": {"amenity": "restaurant", "cuisine": "pizza", "name": "Fornino", "opening_hours": "Mo-Su 12:00-23:00", "phone": "+17183895300", "website": "https://www.fornino.com/"}}, {"type": "node", "id": 6373095685, "lat": 40.7302724, "lon": -73.9548518, "tags": {"amenity": "restaurant", "name": "Jungle Cafe"}}, {"type": "node", "id": 6684049775, "lat": 40.7300372, "lon": -73.9571578, "tags": {"addr:city": "Brooklyn", "addr:housenumber": "79", "addr:state": "NY", "addr:street": "Greenpoint Avenue", "office": "lawyer"}}, {"type": "node", "id": 6684049777, "lat": 40.7295259, "lon": -73.9576837, "tags": {"addr:city": "Brooklyn", "addr:housenumber": "107", "addr:postcode": "11222", "addr:state": "NY", "addr:street": "Franklin Street", "amenity": "bar", "name": "Broken Land"}}, {"type": "node", "id": 6684049782, "lat": 40.7288633, "lon": -73.9572833, "tags": {"addr:city": "Brooklyn", "addr:housenumber": "120", "addr:postcode": "11222", "addr:state": "NY", "addr:street": "Franklin Street", "amenity": "bar", "name": "Brooklyn Safehouse", "opening_hours": "Mo-Fr 16:00-04:00; Sa-Su 14:00-04:00", "phone": "+1-718-349-6895", "sport": "billiards", "website": "https://brooklynsafehouse.com"}}, {"type": "node", "id": 7424179953, "lat": 40.7303713, "lon": -73.9578334, "tags": {"addr:city": "Brooklyn", "addr:housenumber": "113", "addr:postcode": "11222", "addr:state": "NY", "addr:street": "Franklin Street", "amenity": "pub", "name": "Threes Brewing", "opening_hours": "Mo-Th 17:00-23:00; Fr 17:00-24:00; Sa 12:00-24:00; Su 12:00-22:00", "phone": "+1-731-333-3430", "smoking": "no", "website": "https://threesbrewing.com/pages/greenpoint"}}, {"type": "node", "id": 9272996385, "lat": 40.7323041, "lon": -73.95783, "tags": {"addr:housenumber": "200", "addr:postcode": "11222", "addr:street": "Franklin Street", "amenity": "cafe", "cuisine": "breakfast;sandwich;coffee_shop", "drink:coffee": "yes", "drink:espresso": "yes", "drink:tea": "yes", "name": "Sippy Cafe", "opening_hours": "Mo-Fr 08:00-16:00; Sa-Su 08:00-17:00", "phone": "+1-917-909-0662"}}, {"type": "node", "id": 10355265206, "lat": 40.7297253, "lon": -73.9579297, "tags": {"addr:city": "Brooklyn", "addr:housenumber": "78", "addr:postcode": "11222", "addr:state": "NY", "addr:street": "Greenpoint Avenue", "amenity": "pub", "email": "orders@brouwerijlanenyc.com", "name": "Brouwerij Lane", "opening_hours": "Mo-Th 14:00-22:00; Fr 14:00-23:00; Sa 12:00-23:00; Su 12:00-22:00", "phone": "+1-347-529-6133", "website": "https://www.brouwerijlanenyc.com"}}, {"type": "node", "id": 10357823726, "lat": 40.7331177, "lon": -73.9579216, "tags": {"amenity": "restaurant", "name": "Madre"}}, {"type": "node", "id": 11390738791, "lat": 40.7294221, "lon": -73.9573788, "tags": {"addr:city": "Brooklyn", "addr:housenumber": "132", "addr:postcode": "11222", "addr:state": "NY", "addr:street": "Franklin Street", "amenity": "restaurant", "cuisine": "french", "email": "laundromat@fulgurances.com", "name": "Fulgurances, Laundromat", "opening_hours": "Tu-Sa 17:30-22:00", "phone": "+1-347-223-4106", "website": "https://fulgurances.com/en/the-restaurants/fulgurances-laundromat/"}}, {"type": "node", "id": 11746463841, "lat": 40.7306052, "lon": -73.9541599, "tags": {"addr:city": "Brooklyn", "addr:housenumber": "912", "addr:postcode": "11222", "addr:state": "NY", "addr:street": "Manhattan Avenue", "amenity": "restaurant", "cuisine": "greek", "name": "Greek Kitchen", "opening_hours": "Su-Th 11:00-22:00; Fr-Sa 11:00-24:00", "phone": "+17182902629", "website": "https://greekkitchen.nyc"}}, {"type": "node", "id": 11747267935, "lat": 40.7292851, "lon": -73.953737, "tags": {"addr:housenumber": "860", "addr:postcode": "11222", "addr:street": "Manhattan Avenue", "amenity": "cafe", "cuisine": "coffee_shop", "name": "Upright Coffee", "outdoor_seating": "no", "website": "https://uprightcoffee.com"}}, {"type": "node", "id": 11747283974, "lat": 40.729358, "lon": -73.9573671, "tags": {"addr:city": "Brooklyn", "addr:housenumber": "130", "addr:postcode": "11222", "addr:state": "NY", "addr:street": "Franklin Street", "amenity": "bar", "email": "littlerascalbar@gmail.com", "name": "Little Rascal Bar", "opening_hours": "Mo 16:00-01:00; Tu-Th 16:00-02:00; Fr 16:00-04:00; Sa 11:00-04:00; Su 11:00-23:00", "phone": "+1-646-971-2400", "website": "https://www.littlerascalrestaurant.com/greenpoint"}}, {"type": "node", "id": 11870170730, "lat": 40.7332567, "lon": -73.958002, "tags": {"addr:city": "Brooklyn", "addr:housenumber": "222", "addr:postcode": "11222", "addr:state": "NY", "addr:street": "Franklin Street", "amenity": "restaurant", "cuisine": "mexican", "name": "Mystica", "phone": "+1-347-384-2422", "website": "https://mysticarestaurantnyc.com"}}, {"type": "node", "id": 11920227481, "lat": 40.7338574, "lon": -73.9547008, "tags": {"addr:housenumber": "1020", "addr:postcode": "11222", "addr:street": "Manhattan Avenue", "amenity": "restaurant", "name": "Enerugi Ramen", "phone": "+1 347-927-2636"}}, {"type": "node", "id": 12115586368, "lat": 40.7285133, "lon": -73.957805}, {"type": "node", "id": 12115586371, "lat": 40.7285248, "lon": -73.957689}, {"type": "node", "id": 12115586372, "lat": 40.7284869, "lon": -73.9580704}, {"type": "node", "id": 12115586374, "lat": 40.7285913, "lon": -73.9582183}, {"type": "node", "id": 12662562301, "lat": 40.7339765, "lon": -73.9550761, "tags": {"addr:postcode": "11222", "amenity": "restaurant", "contact:instagram": "wenwenbk", "cuisine": "chinese", "email": "wenwen@eighteightsix.com", "name": "Wenwen", "opening_hours": "Tu-Fr 11:30-15:00, 17:00-22:00; Sa-Su 12:00-15:00, 17:00-22:00", "website": "https://www.wenwenbrooklyn.com/", "website:menu": "https://www.wenwenbrooklyn.com/menu"}}, {"type": "node", "id": 13018662304, "lat": 40.7292452, "lon": -73.954094, "tags": {"addr:city": "Brooklyn", "addr:housenumber": "861", "addr:postcode": "11222", "addr:state": "NY", "addr:street": "Manhattan Avenue", "addr:unit": "Suite 20", "name": "Colonna Cohen Law PLLC", "office": "lawyer", "phone": "+1-212-256-1327", "website": "https://www.colonnacohenlaw.com/"}}, {"type": "node", "id": 13318560443, "lat": 40.7318991, "lon": -73.9542272, "tags": {"addr:housenumber": "954", "addr:street": "Manhattan Ave", "amenity": "restaurant", "name": "Chiko\u2019s", "opening_hours": "Su 14:00-21:00; We-Fr 12:00-21:00; Sa 16:00-21:00", "phone": "+1-917-909-0580"}}, {"type": "way", "id": 280132272, "nodes": [2842931302, 2842931288, 2842931347, 2842931364, 2842931366, 2842931312, 2842931302], "tags": {"addr:housenumber": "128", "addr:postcode": "11222", "addr:street": "Greenpoint Avenue", "amenity": "restaurant", "building": "yes", "contact:email": "info@oxomoconyc.com", "contact:facebook": "oxomoco", "contact:instagram": "_oxomoco_", "contact:twitter": "_oxomoxo_", "cuisine": "mexican", "height": "5.1", "name": "Oxomoco", "nycdoitt:bin": "3337058", "opening_hours": "Mo-Fr 12:00-15:00; Sa, Su 11:00-15:00; Mo-Su 17:30-22:00", "outdoor_seating": "yes", "phone": "+1 646-688-4180", "reservation": "yes", "reservation:website": "https://resy.com/cities/ny/oxomoco", "website": "https://www.oxomoconyc.com/"}}, {"type": "way", "id": 280137527, "nodes": [2842999627, 2842999805, 2842999812, 2842999637, 2842999628, 2842999627], "tags": {"addr:city": "Brooklyn", "addr:country": "US", "addr:housenumber": "910", "addr:postcode": "11222", "addr:state": "NY", "addr:street": "Manhattan Avenue", "amenity": "cafe", "branch": "910 Manhattan Avenue", "brand": "Starbucks", "brand:wikidata": "Q37158", "building": "yes", "cuisine": "coffee_shop", "height": "8.4", "internet_access": "wlan", "internet_access:fee": "no", "name": "Starbucks", "nycdoitt:bin": "3400032", "official_name": "Starbucks Coffee", "opening_hours": "Mo-Th 06:00-22:30; Fr 06:00-23:00; Sa 06:30-23:00; Su 07:00-22:30", "phone": "+1 718-609-0467", "ref": "17014", "takeaway": "yes", "website": "https://www.starbucks.com/store-locator/store/17014/910-manhattan-avenue-910-manhattan-avenue-brooklyn-ny-112222107-us"}}, {"type": "way", "id": 372050312, "nodes": [357637294, 5867570178, 5867570173, 5867570184, 12115586374, 3755856095, 12115586372, 12115586368, 12115586371, 5867570174, 3755856093, 3755856094, 5867570175, 5867570176, 357637294], "tags": {"ele": "4", "gnis:feature_id": "2377230", "leisure": "park", "name": "American Playground", "operator": "New York City Department of Parks and Recreation", "operator:short": "NYC Parks", "operator:type": "government", "operator:wikidata": "Q1894232", "wikidata": "Q34803244"}}, {"type": "way", "id": 491213356, "nodes": [2793694299, 2793692975, 2793694304, 2793694310, 4833588676, 4833572861, 2793694273, 2793694281, 2793694149, 4833572856, 4833572855, 4833572854, 2793694173, 4833572853, 2793694267, 2793694261, 2793694243, 2793692900, 2793694299], "tags": {"addr:city": "Brooklyn", "addr:housenumber": "224", "addr:postcode": "11222", "addr:state": "NY", "addr:street": "Franklin Street", "amenity": "bar", "cocktails": "yes", "drink:beer": "yes", "drink:wine": "yes", "happy_hours": "yes", "name": "The Springs", "opening_hours": "Mo-Su 12:00-02:00", "outdoor_seating": "yes", "payment:cash": "yes", "payment:debit_cards": "yes", "phone": "+1-347-227-7114", "reservation": "yes", "smoking": "outside", "toilets": "yes", "website": "https://thespringsbklyn.com/", "wheelchair": "yes"}}]}