{"version": 0.6, "generator": "Overpass API 0.7.62.8 e802775f", "osm3s": {"timestamp_osm_base": "2025-12-01T17:20:12Z", "copyright": "The data included in this document is from www.openstreetmap.org. The data is made available under ODbL."}, "elements": [{"type": "node", "id": 1987892671, "lat": 40.6397709, "lon": -73.9672216, "tags": {"addr:city": "Brooklyn", "addr:housenumber": "1118", "addr:postcode": "11218", "addr:state": "NY", "addr:street": "Cortelyou Road", "amenity": "bar", "name": "Sycamore", "opening_hours": "Mo-Th 02:00-14:00; Fr 14:00-03:00; Sa 12:00-03:00; Su 12:00-02:00", "website": "http://www.sycamorebrooklyn.com/"}}, {"type": "node", "id": 2276257858, "lat": 40.6403441, "lon": -73.9666854, "tags": {"addr:city": "Brooklyn", "addr:country": "US", "addr:housenumber": "1213", "addr:postcode": "11218", "addr:state": "NY", "addr:street": "Cortelyou Road", "amenity": "restaurant", "name": "The Castello Plan", "phone": "+1-718-856-8888", "website": "https://thecastelloplan.com/"}}, {"type": "node", "id": 2494144923, "lat": 40.6402678, "lon": -73.9668472, "tags": {"addr:city": "Brooklyn", "addr:housenumber": "1205", "addr:postcode": "11218", "addr:state": "NY", "addr:street": "Cortelyou Road", "amenity": "bar", "min_age": "21", "name": "King Mother", "opening_hours": "Tu-Fr 16:00-22:00; Sa 12:00-22:00; Su 14:00-21:00", "outdoor_seating": "yes", "phone": "+1-718-287-0241", "website": "https://www.kingmotherbk.com/"}}, {"type": "node", "id": 2494144969, "lat": 40.6403106, "lon": -73.9667565, "tags": {"addr:city": "Brooklyn", "addr:housenumber": "1209", "addr:postcode": "11218", "addr:state": "NY", "addr:street": "Cortelyou Road", "amenity": "restaurant", "cuisine": "middle_eastern", "name": "Mimi's Hummus", "opening_hours": "10:30-22:00", "phone": "+1-718-284-4444", "website": "https://mimishummus.com/"}}, {"type": "node", "id": 2494146255, "lat": 40.6407747, "lon": -73.9657957}, {"type": "node", "id": 2494146358, "lat": 40.6409389, "lon": -73.9658281}, {"type": "node", "id": 2494146361, "lat": 40.6409428, "lon": -73.9660631}, {"type": "node", "id": 2494146374, "lat": 40.6409581, "lon": -73.965928}, {"type": "node", "id": 2494146385, "lat": 40.640963, "lon": -73.965929}, {"type": "node", "id": 2494146493, "lat": 40.6411118, "lon": -73.9660959}, {"type": "node", "id": 2494146530, "lat": 40.6411761, "lon": -73.9658083}, {"type": "node", "id": 2494146668, "lat": 40.6415265, "lon": -73.9661164}, {"type": "node", "id": 2494146680, "lat": 40.6415526, "lon": -73.965881}, {"type": "node", "id": 2494146737, "lat": 40.6416748, "lon": -73.9661448}, {"type": "node", "id": 2494210957, "lat": 40.6414722, "lon": -73.9641696, "tags": {"addr:housenumber": "1507", "addr:postcode": "11226", "addr:street": "Cortelyou Road", "name": "Berand's Accounting & Travel", "office": "accountant", "phone": "+1-718-462-6622", "shop": "travel_agency"}}, {"type": "node", "id": 2494211003, "lat": 40.6420244, "lon": -73.9629591, "tags": {"addr:city": "Brooklyn", "addr:housenumber": "1621", "addr:postcode": "11226", "addr:state": "NY", "addr:street": "Cortelyou Road", "name": "Instant Realty, Inc.", "office": "estate_agent", "opening_hours": "Mo-Fr 10:00-19:00; Sa-Su 10:00-17:00", "phone": "+1-718-941-7480", "website": "https://www.instantrealtyinc.com/"}}, {"type": "node", "id": 2494211005, "lat": 40.6420504, "lon": -73.962902, "tags": {"addr:housenumber": "1623", "addr:postcode": "11226", "addr:street": "Cortelyou Road", "amenity": "taxi", "name": "Max! Luxury Cars", "office": "taxi"}}, {"type": "node", "id": 3144820987, "lat": 40.6418353, "lon": -73.96338, "tags": {"addr:city": "Brooklyn", "addr:housenumber": "1603", "addr:postcode": "11226", "addr:state": "NY", "addr:street": "Cortelyou Road", "amenity": "cafe", "name": "Madeline", "opening_hours": "07:00-20:00", "phone": "+1 718-941-4020", "takeaway": "only", "website": "https://www.cafemadelline.com/"}}, {"type": "node", "id": 3144820988, "lat": 40.6411873, "lon": -73.9640917, "tags": {"addr:city": "Brooklyn", "addr:housenumber": "1510", "addr:postcode": "11226", "addr:state": "NY", "addr:street": "Cortelyou Road", "amenity": "restaurant", "check_date": "2025-05-06", "cuisine": "himalayan", "name": "Cafe Tibet", "payment:cash": "yes", "payment:credit_cards": "yes", "phone": "+1-718-941-2725", "wheelchair": "yes"}}, {"type": "node", "id": 3153548578, "lat": 40.6402887, "lon": -73.966803, "tags": {"addr:city": "Brooklyn", "addr:housenumber": "1207", "addr:postcode": "11218", "addr:state": "NY", "addr:street": "Cortelyou Road", "contact:instagram": "https://instagram.com/poljanproperties", "contact:linkedin": "https://www.linkedin.com/pub/peter-poljan/0/619/485", "name": "Poljan Properties", "office": "estate_agent", "phone": "+1-718-484-4776", "website": "https://poljanproperties.com/"}}, {"type": "node", "id": 3153549391, "lat": 40.6404285, "lon": -73.9658063, "tags": {"addr:city": "Brooklyn", "addr:housenumber": "1310", "addr:postcode": "11226", "addr:state": "NY", "addr:street": "Cortelyou Road", "amenity": "restaurant", "cuisine": "thai", "name": "Corthaiyou", "opening_hours": "Mo-Th 11:30-15:00,16:00-22:00; Fr 11:30-15:00,16:00-22:00; Sa,Su 11:30-22:00", "outdoor_seating": "yes", "phone": "+1 718-676-7388", "website": "https://www.corthaiyou.com/"}}, {"type": "node", "id": 3153553219, "lat": 40.640803, "lon": -73.9649265, "tags": {"addr:city": "Brooklyn", "addr:housenumber": "1408", "addr:postcode": "11226", "addr:state": "NY", "addr:street": "Cortelyou Road", "amenity": "restaurant", "check_date": "2025-05-06", "delivery": "yes", "highchair": "no", "name": "San Remo Pizzeria", "opening_hours": "Mo-We 11:30-21:30; Th 11:00-21:30; Fr,Sa 11:30-22:00; Su 11:45-21:00", "outdoor_seating": "no", "payment:cash": "yes", "payment:credit_cards": "yes", "phone": "+1 347-754-3941", "smoking": "no", "start_date": "1976", "takeaway": "yes", "website": "https://www.sanremomenu.com/", "wheelchair": "limited"}}, {"type": "node", "id": 3153554058, "lat": 40.6408437, "lon": -73.9648662, "tags": {"addr:housenumber": "1416", "addr:street": "Cortelyou Road", "air_conditioning": "yes", "check_date": "2025-05-06", "name": "Douglas Elliman", "office": "estate_agent", "payment:cash": "yes", "payment:credit_cards": "yes", "smoking": "no", "wheelchair": "yes"}}, {"type": "node", "id": 3153556210, "lat": 40.6407806, "lon": -73.9650002, "tags": {"addr:city": "Brooklyn", "addr:housenumber": "1406", "addr:postcode": "11226", "addr:state": "NY", "addr:street": "Cortelyou Road", "air_conditioning": "yes", "amenity": "restaurant", "check_date": "2025-05-06", "cuisine": "japanese;sushi", "delivery": "yes", "drink:beer": "yes", "drink:wine": "yes", "fax": "+1-718-282-5788", "name": "Kumo", "opening_hours": "Mo-Th 11:30-22:30; Fr 11:30-23:00; Sa 12:00-23:00; Su 13:00-22:30", "outdoor_seating": "no", "payment:cash": "yes", "payment:credit_cards": "yes", "phone": "+1-718-282-8288", "smoking": "no", "takeaway": "yes", "website": "https://kumosushionline.com", "wheelchair": "yes"}}, {"type": "node", "id": 3153560987, "lat": 40.6399446, "lon": -73.9668868, "tags": {"addr:city": "Brooklyn", "addr:housenumber": "1202", "addr:postcode": "11218", "addr:state": "NY", "addr:street": "Cortelyou Road", "amenity": "restaurant", "cuisine": "himalayan", "name": "Namaste Brooklyn", "opening_hours": "Tu-Su 05:00-10:00", "phone": "+1-347-365-3468"}}, {"type": "node", "id": 3516415657, "lat": 40.6398121, "lon": -73.9671473, "tags": {"addr:city": "Brooklyn", "addr:housenumber": "1120", "addr:postcode": "11218", "addr:state": "NY", "addr:street": "Cortelyou Road", "amenity": "restaurant", "check_date": "2025-02-08", "name": "La Puerta Roja", "phone": "+1 347-221-1970", "website": "https://www.lapuertarojarestaurant.com/"}}, {"type": "node", "id": 4998641166, "lat": 40.6401762, "lon": -73.9660155}, {"type": "node", "id": 4998641168, "lat": 40.6404306, "lon": -73.9658516}, {"type": "node", "id": 4998641169, "lat": 40.6401981, "lon": -73.965808}, {"type": "node", "id": 9197734857, "lat": 40.6417067, "lon": -73.9661509}, {"type": "node", "id": 9197734858, "lat": 40.6417673, "lon": -73.9655956}, {"type": "node", "id": 9197734859, "lat": 40.6409043, "lon": -73.9654288}, {"type": "node", "id": 9197734860, "lat": 40.640773, "lon": -73.9657213}, {"type": "node", "id": 9197734861, "lat": 40.6408086, "lon": -73.9657253}, {"type": "node", "id": 9197760557, "lat": 40.6403473, "lon": -73.9660515}, {"type": "node", "id": 9661877493, "lat": 40.6396937, "lon": -73.9674191, "tags": {"addr:city": "Brooklyn", "addr:housenumber": "1112", "addr:postcode": "11218", "addr:state": "NY", "addr:street": "Cortelyou Road", "amenity": "cafe", "check_date": "2025-02-07", "contact:facebook": "https://www.facebook.com/BlueStarParlor/", "internet_access": "wlan", "internet_access:fee": "no", "name": "Blue Star Parlor", "opening_hours": "07:00-17:00", "outdoor_seating": "yes", "phone": "+1 347-365-9035"}}, {"type": "node", "id": 10586909279, "lat": 40.6411449, "lon": -73.9658022}, {"type": "node", "id": 10586909280, "lat": 40.6409735, "lon": -73.9658353}, {"type": "node", "id": 10716485366, "lat": 40.6402563, "lon": -73.9660331, "tags": {"entrance": "yes"}}, {"type": "node", "id": 10716485373, "lat": 40.6402522, "lon": -73.9660322}, {"type": "node", "id": 10716485381, "lat": 40.6403041, "lon": -73.9658283}, {"type": "node", "id": 10716485382, "lat": 40.6404261, "lon": -73.9658625}, {"type": "node", "id": 10716485392, "lat": 40.6402307, "lon": -73.9658147}, {"type": "node", "id": 10716485394, "lat": 40.6402796, "lon": -73.9658237}, {"type": "node", "id": 11497580169, "lat": 40.6416313, "lon": -73.963071, "tags": {"addr:city": "Brooklyn", "addr:housenumber": "1616", "addr:postcode": "11226", "addr:state": "NY", "addr:street": "Cortelyou Road", "amenity": "restaurant", "branch": "Ditmas Park", "check_date": "2025-02-07", "contact:facebook": "https://www.facebook.com/ayat.nyc/", "cuisine": "palestinian", "delivery": "yes", "name": "Ayat", "opening_hours": "Mo-Th,Su 10:00-23:00; Fr,Sa 10:00-24:00", "phone": "+1 718-831-2585", "takeaway": "yes", "website": "https://www.ayatnyc.com/location/ditmas-park/"}}, {"type": "node", "id": 11638744860, "lat": 40.6407513, "lon": -73.9650679, "tags": {"addr:housenumber": "1404", "addr:street": "Cortelyou Road", "air_conditioning": "yes", "amenity": "cafe", "check_date": "2025-05-06", "cuisine": "bubble_tea;ramen", "delivery": "yes", "drive_through": "no", "highchair": "no", "name": "Tsa\u014dcaa", "payment:cash": "yes", "payment:credit_cards": "yes", "phone": "+1 347-221-1847", "smoking": "no", "takeaway": "yes", "toilets": "no", "wheelchair": "yes"}}, {"type": "node", "id": 12067124083, "lat": 40.6414946, "lon": -73.9641202, "tags": {"addr:housenumber": "1509", "addr:postcode": "11226", "addr:street": "Cortelyou Road", "amenity": "taxi", "name": "Juniors Car Service", "office": "taxi", "phone": "+1-718-940-1919", "website": "https://www.juniorsexpress.com"}}, {"type": "node", "id": 12352155340, "lat": 40.641897, "lon": -73.9632281, "tags": {"name": "Success Stories Learning Center", "office": "tutoring", "phone": "+1-917-586-2476"}}, {"type": "way", "id": 510871542, "nodes": [4998641166, 10716485373, 10716485366, 9197760557, 10716485382, 4998641168, 10716485381, 10716485394, 10716485392, 4998641169, 4998641166], "tags": {"ele": "11", "leisure": "park", "name": "Lieutenant Federico Narvaez Tot Lot", "operator": "New York City Department of Parks and Recreation", "operator:short": "NYC Parks", "operator:type": "public", "operator:wikidata": "Q1894232", "website": "https://www.nycgovparks.org/parks/federiconarvaeztotlot/highlights/7329", "wikidata": "Q34842668"}}, {"type": "way", "id": 996085354, "nodes": [9197734857, 9197734858, 9197734859, 9197734860, 9197734861, 2494146255, 2494146358, 10586909280, 2494146385, 2494146374, 2494146361, 2494146493, 10586909279, 2494146530, 2494146680, 2494146668, 2494146737, 9197734857], "tags": {"addr:city": "Brooklyn", "addr:housenumber": "330", "addr:postcode": "11226", "addr:state": "NY", "addr:street": "Rugby Road", "amenity": "school", "grades": "PK;0K;1-5;SE", "name": "P.S. 139 Alexine A. Fenty", "website": "https://www.ps139.org/", "wikidata": "Q115628771"}}]}