{"version": 0.6, "generator": "Overpass API 0.7.62.8 e802775f", "osm3s": {"timestamp_osm_base": "2025-12-01T16:40:14Z", "copyright": "The data included in this document is from www.openstreetmap.org. The data is made available under ODbL."}, "elements": [{"type": "node", "id": 2567948098, "lat": 40.6900892, "lon": -73.9503341}, {"type": "node", "id": 2567948385, "lat": 40.6906328, "lon": -73.9504427}, {"type": "node", "id": 2567986516, "lat": 40.6914476, "lon": -73.9515339}, {"type": "node", "id": 2567986517, "lat": 40.6914546, "lon": -73.9514762}, {"type": "node", "id": 2567986537, "lat": 40.6916128, "lon": -73.9515094}, {"type": "node", "id": 2567986553, "lat": 40.691706, "lon": -73.9517111}, {"type": "node", "id": 2567986560, "lat": 40.6917276, "lon": -73.9515334}, {"type": "node", "id": 2568066216, "lat": 40.6869941, "lon": -73.9548035, "tags": {"amenity": "restaurant", "cocktails": "yes", "contact:instagram": "@kingofthesea_bk", "cuisine": "seafood", "indoor_seating": "yes", "name": "King of the Sea", "opening_hours": "Tu-Th 17:00-22:00; Fr-Sa 17:00-23:00; Su 16:00-21:00", "outdoor_seating": "no", "phone": "+1-718-783-8000"}}, {"type": "node", "id": 2568119935, "lat": 40.6894576, "lon": -73.9515389, "tags": {"amenity": "cafe", "cuisine": "coffee_shop;juice", "drink:coffee": "yes", "drink:espresso": "yes", "name": "Natural Blend", "opening_hours": "Mo-Fr 07:00-21:00; Sa 08:00-21:00"}}, {"type": "node", "id": 2568120049, "lat": 40.6897313, "lon": -73.9516608, "tags": {"name": "Yes Training", "office": "security_training", "phone": "+1-866-481-9429", "website": "http://www.yes-security-training.com"}}, {"type": "node", "id": 2568143624, "lat": 40.6923093, "lon": -73.9527896}, {"type": "node", "id": 2568143634, "lat": 40.6923248, "lon": -73.9526542}, {"type": "node", "id": 2568143636, "lat": 40.6923327, "lon": -73.9525846}, {"type": "node", "id": 2568143643, "lat": 40.6923545, "lon": -73.9523937}, {"type": "node", "id": 3808253690, "lat": 40.690974, "lon": -73.9538595, "tags": {"addr:city": "Brooklyn", "addr:housenumber": "564", "addr:postcode": "11205", "addr:state": "NY", "addr:street": "DeKalb Avenue", "amenity": "restaurant", "bar": "yes", "cocktails": "yes", "cuisine": "american", "drink:beer": "yes", "drink:espresso": "yes", "drink:liquor": "yes", "drink:wine": "yes", "name": "Baron's", "opening_hours": "We-Fr 18:00-22:00; Sa 11:00-15:00,18:00-22:00; Su 11:00-15:00", "phone": "+1-718-230-7100", "website": "https://barons-brooklyn.com"}}, {"type": "node", "id": 3808276734, "lat": 40.691433, "lon": -73.9516538}, {"type": "node", "id": 3958825310, "lat": 40.6923879, "lon": -73.9521036}, {"type": "node", "id": 3958825311, "lat": 40.6928404, "lon": -73.9529109}, {"type": "node", "id": 3958825312, "lat": 40.6924769, "lon": -73.9521203}, {"type": "node", "id": 3958825317, "lat": 40.6929238, "lon": -73.9522047}, {"type": "node", "id": 3958825318, "lat": 40.6923075, "lon": -73.9528071}, {"type": "node", "id": 3958825319, "lat": 40.6930495, "lon": -73.9529556}, {"type": "node", "id": 3958825320, "lat": 40.6929381, "lon": -73.9525716}, {"type": "node", "id": 3958825321, "lat": 40.6929777, "lon": -73.9522149}, {"type": "node", "id": 3958825357, "lat": 40.6930704, "lon": -73.9527799}, {"type": "node", "id": 3958825360, "lat": 40.6932419, "lon": -73.9528151}, {"type": "node", "id": 3958825361, "lat": 40.6932138, "lon": -73.9526232}, {"type": "node", "id": 3958825362, "lat": 40.6932613, "lon": -73.9526365}, {"type": "node", "id": 3958825365, "lat": 40.6923861, "lon": -73.9521197}, {"type": "node", "id": 4541801291, "lat": 40.6889647, "lon": -73.9511404, "tags": {"amenity": "bar", "cuisine": "pizza", "drink:beer": "yes", "drink:liquor": "yes", "drink:wine": "yes", "name": "Paul's Bar", "outdoor_seating": "sidewalk"}}, {"type": "node", "id": 5357598225, "lat": 40.6885204, "lon": -73.9510534, "tags": {"addr:city": "Brooklyn", "addr:housenumber": "497", "addr:postcode": "11216", "addr:street": "Greene Avenue", "amenity": "pub", "cuisine": "american", "drink:beer": "draught", "drink:liquor": "yes", "drink:wine": "yes", "name": "Captain Dan's", "opening_hours": "Mo-Fr 12:00-04:00; Sa-Su 11:00-04:00", "opening_hours:kitchen": "Mo-Fr 12:00-03:00; Sa-Su 11:00-03:00", "outdoor_seating": "sidewalk", "phone": "+1-718-975-3887", "toilets": "yes", "toilets:unisex": "yes", "website": "https://www.captdansgoodtimetavern.com", "wheelchair": "yes"}}, {"type": "node", "id": 5600183533, "lat": 40.6907527, "lon": -73.9557871, "tags": {"addr:housenumber": "520", "addr:street": "DeKalb Avenue", "amenity": "cafe", "cuisine": "pastry", "drink:coffee": "yes", "drink:espresso": "yes", "name": "Brooklyn Kolache", "outdoor_seating": "garden;sidewalk"}}, {"type": "node", "id": 5600185437, "lat": 40.6892648, "lon": -73.9512084, "tags": {"addr:housenumber": "279", "addr:postcode": "11216", "addr:street": "Nostrand Avenue", "amenity": "cafe", "cuisine": "coffee_shop;breakfast;sandwich", "drink:coffee": "yes", "drink:espresso": "yes", "name": "The Bureau"}}, {"type": "node", "id": 5600185450, "lat": 40.6897553, "lon": -73.9513054, "tags": {"addr:housenumber": "261", "addr:postcode": "11216", "addr:street": "Nostrand Avenue", "amenity": "cafe", "cuisine": "breakfast;korean", "drink:beer": "draught", "drink:coffee": "yes", "drink:espresso": "yes", "drink:tea": "yes", "drink:wine": "yes", "name": "Nostrand Coffee Roaster", "toilets": "no"}}, {"type": "node", "id": 6006336588, "lat": 40.688819, "lon": -73.9551884, "tags": {"addr:housenumber": "1058", "addr:street": "Bedford Avenue", "alt_name": "Stonefruit Espresso & Kitchen", "amenity": "cafe", "cuisine": "breakfast;sandwich;eclectic", "drink:espresso": "yes", "name": "Stonefruit", "opening_hours": "Mo-Fr 07:30-18:00; Sa-Su 08:30-18:00", "outdoor_seating": "sidewalk;street"}}, {"type": "node", "id": 6380904180, "lat": 40.6882793, "lon": -73.9569264, "tags": {"addr:city": "Brooklyn", "addr:housenumber": "325", "addr:postcode": "11216", "addr:state": "NY", "addr:street": "Franklin Avenue", "amenity": "bar", "description": "C\u2019mon Everybody is a friendly neighborhood bar, lounge, gallery, and live arts space in Bed-Stuy, Brooklyn.", "email": "cmoneverybodybk@gmail.com", "name": "C'mon Everybody", "opening_hours": "Su-Th 18:00-26:00; Fr, Sa 18:00-28:00", "website": "https://www.cmoneverybody.com/"}}, {"type": "node", "id": 6876199945, "lat": 40.6908789, "lon": -73.9567887, "tags": {"amenity": "cafe", "cuisine": "latin_american;breakfast", "delivery": "yes", "name": "La Villa Caf\u00e9"}}, {"type": "node", "id": 7993726600, "lat": 40.6892859, "lon": -73.9549112, "tags": {"addr:city": "Brooklyn", "addr:housenumber": "1013", "addr:postcode": "11205", "addr:state": "NY", "addr:street": "Bedford Avenue", "amenity": "bar", "cocktails": "yes", "cuisine": "mexican", "drink:beer": "draught", "drink:liquor": "yes", "name": "Swell Dive", "opening_hours": "Mo-Th 16:00-24:00; Fr 16:00-02:00; Sa 12:00-02:00; Su 12:00-24:00", "phone": "+1-917-652-4779", "website": "https://www.swelldivenyc.com"}}, {"type": "node", "id": 8988157188, "lat": 40.6876221, "lon": -73.9568049, "tags": {"addr:housenumber": "343", "addr:postcode": "11216", "addr:street": "Franklin Avenue", "alt_name": "For All Things Good Molino & Cafe", "amenity": "cafe", "cocktails": "yes", "cuisine": "mexican;oaxacan", "drink:beer": "bottled", "drink:coffee": "yes", "drink:espresso": "yes", "drink:liquor": "yes", "drink:wine": "yes", "name": "For All Things Good", "opening_hours": "Tu-Fr 08:00-15:00; Sa-Su 10:00-16:00", "outdoor_seating": "sidewalk", "website": "https://www.forallthingsgoodbk.com"}}, {"type": "node", "id": 9008347789, "lat": 40.6883562, "lon": -73.9569437, "tags": {"amenity": "pub", "check_date": "2023-09-03", "cuisine": "mexican", "happy_hours": "Mo-Th 17:00-19:00", "indoor_seating": "yes", "name": "Chilo's", "outdoor_seating": "yes", "website": "https://www.chilosbk.com/chilos-bed-stuy-tacos"}}, {"type": "node", "id": 9015442245, "lat": 40.6894948, "lon": -73.9568995, "tags": {"addr:housenumber": "297", "addr:postcode": "11205", "addr:street": "Franklin Avenue", "name": "LG Multi Services", "office": "travel_agent", "phone": "+1-347-529-0093", "shop": "copyshop"}}, {"type": "node", "id": 9374750644, "lat": 40.6907877, "lon": -73.9490937}, {"type": "node", "id": 9374750645, "lat": 40.6905307, "lon": -73.9490424}, {"type": "node", "id": 9374750646, "lat": 40.69044, "lon": -73.9498333}, {"type": "node", "id": 9374750647, "lat": 40.6901532, "lon": -73.9497761}, {"type": "node", "id": 9511990466, "lat": 40.688066, "lon": -73.9550313, "tags": {"addr:postcode": "11216", "amenity": "restaurant", "bar": "yes", "cocktails": "yes", "contact:instagram": "millysongreene", "cuisine": "american;local", "drink:beer": "yes", "drink:coffee": "yes", "drink:espresso": "yes", "drink:liquor": "yes", "drink:wine": "yes", "internet_access": "wlan", "name": "Milly\u2019s", "outdoor_seating": "no", "self_service": "no", "website": "https://millysny.com"}}, {"type": "node", "id": 9512186337, "lat": 40.6882255, "lon": -73.9550673, "tags": {"amenity": "restaurant", "cuisine": "indian", "diet:vegetarian": "yes", "name": "Bombay Heights", "phone": "+1-718-230-7790"}}, {"type": "node", "id": 9583638725, "lat": 40.690448, "lon": -73.9518833, "tags": {"addr:housenumber": "90", "addr:postcode": "11205", "addr:street": "Kosciuszko Street", "amenity": "cafe", "name": "Burly Coffee"}}, {"type": "node", "id": 9624267824, "lat": 40.6898051, "lon": -73.9510019, "tags": {"addr:housenumber": "594", "addr:postcode": "11216", "addr:street": "Lafayette Avenue", "amenity": "restaurant", "check_date:opening_hours": "2025-05-07", "cuisine": "ramen", "drink:beer": "draught", "drink:sake": "yes", "drink:tea": "yes", "drink:wine": "yes", "name": "Samurai Papa", "opening_hours": "Mo-Fr 17:00-21:30; Sa 12:00-15:00,17:00-21:30; Su 12:00-15:00,17:00-21:20", "outdoor_seating": "garden", "phone": "+1-718-398-8181", "website": "https://www.samuraipapabk.com"}}, {"type": "node", "id": 10566448951, "lat": 40.6872273, "lon": -73.9570377, "tags": {"amenity": "bar", "cocktails": "yes", "drink:beer": "yes", "drink:liquor": "yes", "drink:wine": "yes", "happy_hours": "Mo-Fr 16:00-19:00", "name": "The Holler", "opening_hours": "Mo-Th 16:00-24:00; Fr 16:00-02:00; Sa 15:00-02:00; Su 15:00-24:00", "outdoor_seating": "garden;sidewalk", "phone": "+1-917-966-5723", "website": "https://www.thehollernyc.com"}}, {"type": "node", "id": 12771717142, "lat": 40.689113, "lon": -73.9569987, "tags": {"addr:city": "Brooklyn", "addr:housenumber": "452", "addr:state": "NY", "addr:street": "Lafayette Avenue", "amenity": "cafe", "name": "Cafe PHiL", "website": "https://www.instagram.com/cafephil.bk/"}}, {"type": "node", "id": 12799671733, "lat": 40.6872687, "lon": -73.9567348, "tags": {"addr:city": "Brooklyn", "addr:housenumber": "355", "addr:postcode": "11216", "addr:state": "NY", "addr:street": "Franklin Avenue", "amenity": "restaurant", "bar": "yes", "cuisine": "chicken;sandwich", "drink:beer": "yes", "drink:wine": "yes", "email": "disco@discobirdies.com", "name": "Disco Birdies", "opening_hours": "We-Sa 18:00-23:00, Su 12:00-18:00", "website": "https://www.discobirdies.com", "website:menu": "https://www.discobirdies.com/menu"}}, {"type": "way", "id": 250319335, "nodes": [3808276734, 2567986553, 2567986560, 2567986537, 2567986517, 2567986516, 3808276734], "tags": {"addr:city": "Brooklyn", "addr:housenumber": "217", "addr:postcode": "11205", "addr:state": "NY", "addr:street": "Nostrand Avenue", "amenity": "restaurant", "building": "yes", "height": "8.8", "internet_access": "wlan", "name": "Sugar Hill Disco Restaurant and Bar", "nycdoitt:bin": "3049423", "opening_hours": "10:00-19:00", "phone": "+1-844-369-6811", "website": "https://www.sugarhillsupperclub.com/"}}, {"type": "way", "id": 392694312, "nodes": [3958825311, 3958825318, 2568143624, 2568143634, 2568143636, 2568143643, 3958825365, 3958825310, 3958825312, 3958825317, 3958825321, 3958825320, 3958825361, 3958825362, 3958825360, 3958825357, 3958825319, 3958825311], "tags": {"addr:city": "Brooklyn", "addr:housenumber": "195", "addr:postcode": "11205", "addr:state": "NY", "addr:street": "Sandford Street", "amenity": "school", "ele": "10", "name": "Public School 54", "polling_station": "yes"}}, {"type": "way", "id": 1016414798, "nodes": [9374750644, 9374750645, 9374750646, 9374750647, 2567948098, 2567948385, 9374750644], "tags": {"amenity": "school", "check_date": "2025-05-07", "name": "Public School 256"}}]}