{"version": 0.6, "generator": "Overpass API 0.7.62.8 e802775f", "osm3s": {"timestamp_osm_base": "2025-12-01T04:03:02Z", "copyright": "The data included in this document is from www.openstreetmap.org. The data is made available under ODbL."}, "elements": [{"type": "node", "id": 357621676, "lat": 40.7611111, "lon": -73.9883333, "tags": {"amenity": "school", "ele": "15", "gnis:feature_id": "2083997", "name": "Public School 212"}}, {"type": "node", "id": 357648621, "lat": 40.7615114, "lon": -73.9886384, "tags": {"amenity": "school", "ele": "15", "gnis:feature_id": "2493099", "name": "M408 Professional Performing Arts High School"}}, {"type": "node", "id": 530697968, "lat": 40.7594616, "lon": -73.9830426}, {"type": "node", "id": 530697969, "lat": 40.7599304, "lon": -73.9826972}, {"type": "node", "id": 1147520797, "lat": 40.7649158, "lon": -73.9829157, "tags": {"addr:city": "New York", "addr:country": "US", "addr:housenumber": "240", "addr:postcode": "10019", "addr:state": "NY", "addr:street": "West 55th Street", "amenity": "pub", "name": "McGee's Pub & Restaurant", "opening_hours": "Mo-Su 11:00-02:00", "phone": "+12129573536", "website": "http://mcgeespub.com/", "wheelchair": "limited"}}, {"type": "node", "id": 1593328953, "lat": 40.7602407, "lon": -73.9822244}, {"type": "node", "id": 1593328960, "lat": 40.7604677, "lon": -73.9820585}, {"type": "node", "id": 1595140630, "lat": 40.7611783, "lon": -73.9890815}, {"type": "node", "id": 1728793890, "lat": 40.7609763, "lon": -73.9886109}, {"type": "node", "id": 1728793893, "lat": 40.7614649, "lon": -73.9882524}, {"type": "node", "id": 1758217485, "lat": 40.7604723, "lon": -73.9840506, "tags": {"addr:city": "New York", "addr:country": "US", "addr:housenumber": "202", "addr:postcode": "10019", "addr:state": "NY", "addr:street": "West 49th Street", "amenity": "restaurant", "email": "playact1@aol.com", "fax": "+1-212-664-0563", "name": "The Playwright", "phone": "+1 212-262-9263", "smoking": "no", "website": "https://www.playwrighttavern.com/"}}, {"type": "node", "id": 1899033650, "lat": 40.7616486, "lon": -73.9868145, "tags": {"amenity": "pub", "name": "West End Bar & Grill"}}, {"type": "node", "id": 2529911478, "lat": 40.7644391, "lon": -73.9856707, "tags": {"addr:city": "New York", "addr:housenumber": "318", "addr:postcode": "10019", "addr:state": "NY", "addr:street": "West 53rd Street", "addr:unit": "204", "check_date": "2024-03-01", "currency:XBT": "yes", "description": "Point of Sale provider for retail and restaurants in New York City.", "email": "contact@moduspos.com", "name": "Modus POS", "office": "company", "phone": "+1-347-746-9796", "website": "https://moduspos.com/"}}, {"type": "node", "id": 2610440246, "lat": 40.7604501, "lon": -73.9839884, "tags": {"addr:city": "New York", "addr:housenumber": "740", "addr:state": "NY", "addr:street": "7th Avenue", "amenity": "restaurant", "name": "Burger Man"}}, {"type": "node", "id": 2610440247, "lat": 40.7625486, "lon": -73.9824969, "tags": {"addr:city": "New York", "addr:country": "US", "addr:housenumber": "800", "addr:postcode": "10019", "addr:state": "NY", "addr:street": "7th Avenue", "amenity": "pub", "name": "Rosie O'Grady's Saloon", "website": "https://www.rosieogradys.com/", "wheelchair": "yes"}}, {"type": "node", "id": 2610440250, "lat": 40.7608044, "lon": -73.9837222, "tags": {"addr:city": "New York", "addr:housenumber": "750", "addr:postcode": "10019", "addr:state": "NY", "addr:street": "7th Avenue", "amenity": "cafe", "branch": "49th & Seventh", "brand": "Starbucks", "brand:wikidata": "Q37158", "cuisine": "coffee_shop", "name": "Starbucks", "official_name": "Starbucks Coffee", "phone": "+1 212-974-0032", "takeaway": "yes", "website": "https://www.starbucks.com/store-locator/store/11631/49th-seventh-750-seventh-avenue-new-york-ny-100196834-us"}}, {"type": "node", "id": 2622651509, "lat": 40.7645366, "lon": -73.9833266, "tags": {"addr:city": "New York", "addr:housenumber": "243", "addr:postcode": "10019", "addr:street": "West 54th Street", "amenity": "pub", "contact:phone": "+1 212 459 8904", "contact:website": "http://charactersnyc.com/", "name": "Characters NYC Bar & Lounge", "opening_hours": "11:00-04:00", "source": "local knowledge", "wheelchair": "no"}}, {"type": "node", "id": 2625469223, "lat": 40.7612883, "lon": -73.9871051, "tags": {"addr:housenumber": "795", "addr:street": "8th Avenue", "amenity": "bar", "name": "Q NYC"}}, {"type": "node", "id": 2678581856, "lat": 40.7601307, "lon": -73.9871355, "tags": {"addr:city": "New York", "addr:housenumber": "266", "addr:street": "West 47th Street", "amenity": "pub", "check_date": "2025-10-29", "name": "The Mean Fiddler", "website": "https://www.themeanfiddlernyc.com/"}}, {"type": "node", "id": 2678783476, "lat": 40.7614452, "lon": -73.9837559, "tags": {"addr:city": "New York", "addr:country": "US", "addr:housenumber": "205", "addr:postcode": "10019", "addr:state": "NY", "addr:street": "West 50th Street", "amenity": "restaurant", "brand": "Applebee's Neighborhood Grill & Bar", "brand:wikidata": "Q621532", "check_date": "2024-03-07", "cuisine": "american", "name": "Applebee's", "official_name": "Applebee's Neighborhood Grill & Bar", "opening_hours": "Su-Th 07:00-24:00; Fr-Sa 07:00-01:00", "phone": "+1 212-262-2400", "website": "https://restaurants.applebees.com/en-us/ny/new-york/205-w-50th-street-98001", "website:menu": "https://www.applebees.com/en/menu?StoreNumber=98001&action=viewmenu"}}, {"type": "node", "id": 2678783479, "lat": 40.7618484, "lon": -73.9835031, "tags": {"addr:city": "New York", "addr:country": "US", "addr:housenumber": "1650", "addr:postcode": "10019", "addr:state": "NY", "addr:street": "Broadway", "amenity": "restaurant", "cuisine": "american", "name": "Ellen's Stardust Diner", "name_alt": "Ellen's Stardust Dinner", "website": "https://www.ellensstardustdiner.com/", "wikidata": "Q5364708", "wikipedia": "en:Ellen's Stardust Diner"}}, {"type": "node", "id": 2678783481, "lat": 40.7620837, "lon": -73.9833543, "tags": {"addr:city": "New York", "addr:housenumber": "156", "addr:postcode": "10019", "addr:state": "NY", "addr:street": "West 52nd Street", "amenity": "cafe", "branch": "Pickup - 52nd & 7th", "brand": "Starbucks", "brand:wikidata": "Q37158", "check_date": "2014-10-06", "cuisine": "coffee_shop", "name": "Starbucks", "official_name": "Starbucks Coffee", "phone": "+1 212-245-6479", "ref": "11393", "takeaway": "yes", "website": "https://www.starbucks.com/store-locator/store/11393/pickup-52nd-7th-156-w-52nd-st-new-york-ny-100196004-us"}}, {"type": "node", "id": 2708165339, "lat": 40.7646127, "lon": -73.9828813}, {"type": "node", "id": 2708165357, "lat": 40.7646788, "lon": -73.9830409}, {"type": "node", "id": 2708165382, "lat": 40.7648171, "lon": -73.9827334}, {"type": "node", "id": 2709915353, "lat": 40.7611304, "lon": -73.9881885}, {"type": "node", "id": 2709915372, "lat": 40.7611969, "lon": -73.9883451}, {"type": "node", "id": 2709915384, "lat": 40.7612785, "lon": -73.9893169}, {"type": "node", "id": 2709915395, "lat": 40.7613629, "lon": -73.9880178}, {"type": "node", "id": 2709915398, "lat": 40.7613786, "lon": -73.989554}, {"type": "node", "id": 2709915405, "lat": 40.7614144, "lon": -73.989217}, {"type": "node", "id": 2709915406, "lat": 40.7614294, "lon": -73.9881744}, {"type": "node", "id": 2709915408, "lat": 40.7614412, "lon": -73.989508}, {"type": "node", "id": 2709915466, "lat": 40.7615795, "lon": -73.9893984}, {"type": "node", "id": 2709955296, "lat": 40.76498, "lon": -73.9883465, "tags": {"addr:housenumber": "401", "addr:postcode": "10019", "addr:street": "West 52nd Street", "amenity": "bar", "name": "The Red Stache"}}, {"type": "node", "id": 2709967726, "lat": 40.7644884, "lon": -73.9876662, "tags": {"addr:housenumber": "370", "addr:postcode": "10019", "addr:street": "West 52nd Street"}}, {"type": "node", "id": 2709967732, "lat": 40.7647706, "lon": -73.987788, "tags": {"addr:housenumber": "782", "addr:postcode": "10019", "addr:street": "9th Avenue", "amenity": "restaurant", "name": "Wondee Siam"}}, {"type": "node", "id": 2709967883, "lat": 40.7638814, "lon": -73.985773}, {"type": "node", "id": 2709967911, "lat": 40.763958, "lon": -73.9857167}, {"type": "node", "id": 2709967930, "lat": 40.7640193, "lon": -73.9856717}, {"type": "node", "id": 2709967942, "lat": 40.76408, "lon": -73.9862411}, {"type": "node", "id": 2709967945, "lat": 40.7640831, "lon": -73.9856249}, {"type": "node", "id": 2709967963, "lat": 40.7641248, "lon": -73.9862082}, {"type": "node", "id": 2709967981, "lat": 40.7641567, "lon": -73.9861848}, {"type": "node", "id": 2709967999, "lat": 40.7641765, "lon": -73.9855564}, {"type": "node", "id": 2709968000, "lat": 40.7641773, "lon": -73.9861697}, {"type": "node", "id": 2709968018, "lat": 40.7641963, "lon": -73.9856031}, {"type": "node", "id": 2709968071, "lat": 40.7642427, "lon": -73.9861216}, {"type": "node", "id": 2709968120, "lat": 40.7642867, "lon": -73.9858161}, {"type": "node", "id": 2709968122, "lat": 40.7642898, "lon": -73.9860871}, {"type": "node", "id": 2709968141, "lat": 40.7643188, "lon": -73.9860658}, {"type": "node", "id": 2709968170, "lat": 40.7643415, "lon": -73.9859452}, {"type": "node", "id": 2709968183, "lat": 40.7643534, "lon": -73.9861473}, {"type": "node", "id": 2709968210, "lat": 40.7643815, "lon": -73.9859159}, {"type": "node", "id": 2709968212, "lat": 40.7643886, "lon": -73.9861214}, {"type": "node", "id": 2709968220, "lat": 40.7644064, "lon": -73.9876562}, {"type": "node", "id": 2709968226, "lat": 40.7644312, "lon": -73.987715}, {"type": "node", "id": 2709968228, "lat": 40.7644355, "lon": -73.9858763}, {"type": "node", "id": 2709968230, "lat": 40.7644397, "lon": -73.9860839}, {"type": "node", "id": 2709968232, "lat": 40.7644466, "lon": -73.9877517}, {"type": "node", "id": 2709968241, "lat": 40.7644659, "lon": -73.9876129}, {"type": "node", "id": 2709968251, "lat": 40.7644879, "lon": -73.9860486}, {"type": "node", "id": 2709968258, "lat": 40.7645037, "lon": -73.986037}, {"type": "node", "id": 2709968261, "lat": 40.7645061, "lon": -73.9877084}, {"type": "node", "id": 2710031782, "lat": 40.7620192, "lon": -73.987651, "tags": {"addr:housenumber": "316", "addr:postcode": "10019", "addr:street": "West 49th Street", "amenity": "restaurant", "cuisine": "brazilian;steak_house", "delivery": "yes", "email": "info@plataformaonline.com", "facebook": "churrascariaplataformany", "fax": "+1 212-974-8250", "instagram": "churrascariaplataforma", "name": "Churrascaria Plataforma", "opening_hours": "Mo-We 13:00-21:00; Th, Fr 13:00-22:00; Sa 12:00-23:00; Su 12:00-21:00", "phone": "+1 212-245-0505", "reservation": "yes", "takeaway": "yes", "website": "https://plataformaonline.com"}}, {"type": "node", "id": 2710031799, "lat": 40.7615479, "lon": -73.9868708, "tags": {"addr:housenumber": "807", "addr:postcode": "10019", "addr:street": "8th Avenue", "amenity": "restaurant", "cocktails": "yes", "cuisine": "diner", "delivery": "yes", "drink:beer": "yes", "drink:wine": "yes", "name": "Times Square Diner & Grill", "opening_hours": "Mo-Su 07:00-23:00", "phone": "+1 212-315-2400", "takeaway": "yes", "website": "https://ordertimessquarediner.com/"}}, {"type": "node", "id": 2714986490, "lat": 40.7650575, "lon": -73.987136, "tags": {"addr:city": "New York", "addr:housenumber": "362", "addr:postcode": "10019", "addr:street": "West 53rd Street", "amenity": "restaurant", "contact:facebook": "TorishinNYC", "contact:instagram": "torishin_ny_official", "cuisine": "japanese", "name": "Yakitori Torishin", "opening_hours": "Tu-Su 17:00-22:00", "phone": "+1 212-757-0108", "reservation": "recommended", "start_date": "2015", "website": "https://torishinny.com", "wheelchair": "limited"}}, {"type": "node", "id": 2714986494, "lat": 40.7644572, "lon": -73.985746, "tags": {"amenity": "bar", "indoor_seating": "yes", "name": "Broadway Comedy Club", "outdoor_seating": "no", "wheelchair": "yes"}}, {"type": "node", "id": 2716952947, "lat": 40.7615172, "lon": -73.9891369}, {"type": "node", "id": 2716952948, "lat": 40.7616192, "lon": -73.9893698}, {"type": "node", "id": 2717293865, "lat": 40.7600472, "lon": -73.9888591, "tags": {"addr:city": "New York", "addr:housenumber": "320", "addr:postcode": "10036", "addr:street": "West 46th Street", "amenity": "restaurant", "branch": "46th Street", "check_date": "2025-11-04", "contact:email": "46thst@frankieandjohnnies.com", "contact:facebook": "FrankieandJohnnies46th", "contact:instagram": "frankieandjohnnies46th", "contact:twitter": "fjohnniesnyc", "cuisine": "steak_house", "delivery": "no", "name": "Frankie and Johnie's Steakhouse", "opening_hours": "Su 15:30-21:30; Tu 16:30-23:30; We-Sa 12:00-22:30, 16:30-23:30", "phone": "+1 212-997-9494", "reservation": "yes", "reservation:website": "https://www.opentable.com/frankie-and-johnnies-steakhouse-46th-street", "website": "https://frankieandjohnnies.com/"}}, {"type": "node", "id": 2717293878, "lat": 40.7605323, "lon": -73.9870469, "tags": {"addr:city": "New York", "addr:housenumber": "776", "addr:postcode": "10036", "addr:state": "NY", "addr:street": "8th Avenue", "amenity": "restaurant", "bar": "yes", "cuisine": "korean;american", "email": "info@guinyc.com", "name": "Gui Steakhouse", "phone": "+16463295929", "website": "https://guinyc.com/"}}, {"type": "node", "id": 2717323719, "lat": 40.7602955, "lon": -73.9845027, "tags": {"addr:housenumber": "1600", "addr:postcode": "10019", "addr:street": "Broadway", "amenity": "cafe", "brand": "Gong Cha", "brand:wikidata": "Q5581670", "brand:zh": "\u8ca2\u8336", "cuisine": "bubble_tea", "int_name": "Gong Cha", "name": "Gong Cha", "name:zh": "\u8ca2\u8336", "opening_hours": "Su-We 11:00-22:30; Th-Sa 11:00-23:00", "takeaway": "yes"}}, {"type": "node", "id": 2717323748, "lat": 40.7615479, "lon": -73.9837434, "tags": {"addr:city": "New York", "addr:housenumber": "1634", "addr:postcode": "10019", "addr:street": "Broadway", "amenity": "restaurant", "cuisine": "chinese", "name": "Nanking", "website": "https://www.nankingrestaurantgroup.com/"}}, {"type": "node", "id": 2717323791, "lat": 40.7608991, "lon": -73.986314, "tags": {"addr:housenumber": "235", "addr:postcode": "10036", "addr:street": "West 48th Street", "amenity": "restaurant", "contact:email": "info@lamasserianyc.com", "contact:fax": "+1 212-582-2420", "contact:instagram": "lamasserianyc", "contact:phone": "+1-212-582-2111", "contact:website": "https://lamasserianyc.com/", "cuisine": "italian", "delivery": "yes", "drink:wine": "served", "name": "La Masseria", "opening_hours": "Mo 12:00-15:00, 16:30-23:00; Tu-Sa 12:00-15:00, 16:30-24:00; Su 12:00-22:30", "reservation": "yes", "takeaway": "yes"}}, {"type": "node", "id": 2717355367, "lat": 40.7634867, "lon": -73.9847984, "tags": {"addr:housenumber": "265", "addr:postcode": "10019", "addr:street": "West 52nd Street", "amenity": "bar", "name": "Russian Vodka Room"}}, {"type": "node", "id": 2717546150, "lat": 40.7594997, "lon": -73.9831421}, {"type": "node", "id": 2717546205, "lat": 40.7597028, "lon": -73.9829935}, {"type": "node", "id": 2717546209, "lat": 40.7597089, "lon": -73.983004}, {"type": "node", "id": 2717546319, "lat": 40.7599823, "lon": -73.9828041}, {"type": "node", "id": 2717546353, "lat": 40.7600926, "lon": -73.9825761}, {"type": "node", "id": 2717546365, "lat": 40.7601674, "lon": -73.9827477}, {"type": "node", "id": 2717546378, "lat": 40.760203, "lon": -73.9827113}, {"type": "node", "id": 2717546381, "lat": 40.7602064, "lon": -73.9827194}, {"type": "node", "id": 2717546387, "lat": 40.7603189, "lon": -73.9824107}, {"type": "node", "id": 2717546406, "lat": 40.7603852, "lon": -73.9825551}, {"type": "node", "id": 2717546409, "lat": 40.7603929, "lon": -73.9825734}, {"type": "node", "id": 2717546457, "lat": 40.7605821, "lon": -73.9824121}, {"type": "node", "id": 2717546460, "lat": 40.7605937, "lon": -73.9824399}, {"type": "node", "id": 2717546466, "lat": 40.7606339, "lon": -73.9824107}, {"type": "node", "id": 2721574108, "lat": 40.7605232, "lon": -73.9861219, "tags": {"addr:city": "New York", "addr:housenumber": "232", "addr:postcode": "10036", "addr:street": "West 48th Street", "amenity": "pub", "cuisine": "american", "name": "Hurley's", "website": "https://www.hurleysnyc.com/"}}, {"type": "node", "id": 2721574113, "lat": 40.7606849, "lon": -73.9865304, "tags": {"addr:city": "New York", "addr:housenumber": "244", "addr:postcode": "10036", "addr:street": "West 48th Street", "amenity": "restaurant", "cuisine": "thai", "name": "Pongsri", "website": "http://www.pongsri.net/", "wheelchair": "no"}}, {"type": "node", "id": 2721574118, "lat": 40.7606569, "lon": -73.9864408, "tags": {"addr:city": "New York", "addr:housenumber": "234", "addr:postcode": "10036", "addr:street": "West 48th Street", "amenity": "restaurant", "cuisine": "vietnamese;japanese", "delivery": "yes", "name": "An'nam", "opening_hours": "Mo-Su 11:30-21:00", "phone": "+1-212-247-6042", "takeaway": "yes", "website": "https://www.annamnyc.com/", "wheelchair": "yes"}}, {"type": "node", "id": 2721574123, "lat": 40.7604406, "lon": -73.987191, "tags": {"addr:city": "New York", "addr:housenumber": "770", "addr:postcode": "10036", "addr:state": "NY", "addr:street": "8th Avenue", "amenity": "cafe", "branch": "47th & 8th", "brand": "Starbucks", "brand:wikidata": "Q37158", "check_date": "2025-04-29", "cuisine": "coffee_shop", "name": "Starbucks", "official_name": "Starbucks Coffee", "phone": "+1 212-830-9001", "takeaway": "yes", "website": "https://www.starbucks.com/store-locator/store/14350/47th-8th-770-eighth-ave-new-york-ny-100367017-us"}}, {"type": "node", "id": 2722857817, "lat": 40.7599261, "lon": -73.9866455, "tags": {"addr:city": "New York", "addr:housenumber": "252", "addr:postcode": "10036", "addr:street": "West 47th Street", "amenity": "restaurant", "check_date": "2025-10-28", "name": "Glass House Tavern", "website": "https://glasshousetavern.com/"}}, {"type": "node", "id": 2722857832, "lat": 40.7598975, "lon": -73.9865625, "tags": {"addr:city": "New York", "addr:housenumber": "250", "addr:postcode": "10036", "addr:street": "West 47th Street", "amenity": "restaurant", "cuisine": "indian", "name": "Dilli Dilli"}}, {"type": "node", "id": 2722857837, "lat": 40.7599596, "lon": -73.9867307, "tags": {"addr:city": "New York", "addr:housenumber": "254", "addr:postcode": "10036", "addr:street": "West 47th Street", "amenity": "restaurant", "check_date": "2025-11-04", "cuisine": "italian", "name": "Trattoria Trecolori", "website": "https://www.trattoriatrecolori.com/"}}, {"type": "node", "id": 2840169692, "lat": 40.7616682, "lon": -73.9887242}, {"type": "node", "id": 2868082193, "lat": 40.7646481, "lon": -73.9829672}, {"type": "node", "id": 2868104008, "lat": 40.7648318, "lon": -73.9827242}, {"type": "node", "id": 3067940109, "lat": 40.7627917, "lon": -73.9850724, "tags": {"addr:city": "New York", "addr:housenumber": "251", "addr:postcode": "10019", "addr:street": "West 51st Street", "amenity": "pub", "name": "McHale's Pub", "official_name": "McHale's Bar & Grill", "website": "http://mchalespub.com/"}}, {"type": "node", "id": 3067940118, "lat": 40.7623757, "lon": -73.9858109, "tags": {"addr:city": "New York", "addr:housenumber": "832", "addr:postcode": "10019", "addr:street": "8th Avenue", "amenity": "restaurant", "name": "Sosa Borella", "website": "http://www.sosaborella.com/", "wheelchair": "yes"}}, {"type": "node", "id": 3217939901, "lat": 40.7644229, "lon": -73.9879761, "tags": {"addr:city": "New York", "addr:housenumber": "774", "addr:postcode": "10019", "addr:state": "NY", "addr:street": "9th Avenue", "amenity": "cafe", "name": "Kahve", "phone": "+1 212 256-0207", "website": "http://www.kahvenyc.com/"}}, {"type": "node", "id": 3246839599, "lat": 40.7640857, "lon": -73.9867718, "tags": {"addr:housenumber": "346", "addr:postcode": "10019", "addr:street": "West 52nd Street", "amenity": "restaurant", "check_date": "2023-01-13", "cuisine": "korean", "name": "Danji", "payment:credit_cards": "yes"}}, {"type": "node", "id": 3573482103, "lat": 40.7601328, "lon": -73.9890604, "tags": {"amenity": "restaurant", "check_date": "2025-11-04", "name": "Joe Allen", "wikidata": "Q28206886"}}, {"type": "node", "id": 3577940193, "lat": 40.7631875, "lon": -73.9847037, "tags": {"addr:housenumber": "256", "addr:street": "West 52nd Street", "amenity": "restaurant", "bar": "yes", "cocktails": "yes", "cuisine": "russian", "drink:beer": "bottled", "drink:liquor": "yes", "drink:wine": "yes", "live_music": "yes", "name": "Russian Samovar Restaurant and Piano Bar", "opening_hours": "Mo 17:00-02:00; Tu-Th 12:00-02:00; Fr-Su 12:00-04:00", "opening_hours:kitchen": "Mo 17:00-00:00; Tu-Th 12:00-00:00; Fr-Sa 12:00-01:00; Su 12:00-04:00", "payment:credit_cards": "yes", "payment:debit_cards": "yes", "phone": "+1-212-757-0168", "reservation": "yes", "toilets": "yes", "toilets:access": "customers", "toilets:unisex": "no", "toilets:wheelchair": "no", "website": "https://www.russiansamovar.com/", "wheelchair": "yes"}}, {"type": "node", "id": 3995212060, "lat": 40.7600927, "lon": -73.9825066, "tags": {"addr:city": "New York", "addr:housenumber": "123", "addr:postcode": "10020", "addr:street": "West 49th Street", "alt_name": "Sushiden 6th Ave", "amenity": "restaurant", "cuisine": "japanese", "name": "Sushiden", "website": "http://sushiden.com/"}}, {"type": "node", "id": 4151778390, "lat": 40.7642433, "lon": -73.9881105, "tags": {"addr:housenumber": "766", "addr:postcode": "10019", "addr:street": "9th Avenue", "amenity": "restaurant", "check_date": "2023-01-13", "cuisine": "thai", "name": "Pure Thai Cookhouse", "opening_hours": "Mo-Th 12:00-22:00; Fr-Sa 12:00-23:00; Su off", "phone": "+1-212-581-0999", "website": "https://www.purethaicookhouse.com/"}}, {"type": "node", "id": 4151778391, "lat": 40.763547, "lon": -73.9865301, "tags": {"addr:housenumber": "321", "addr:street": "West 51st Street", "amenity": "restaurant", "brand": "Ippudo", "brand:en": "Ippudo", "brand:ja": "\u4e00\u98a8\u5802", "brand:wikidata": "Q6065417", "cuisine": "ramen", "name": "Ippudo", "name:en": "Ippudo", "name:ja": "\u4e00\u98a8\u5802"}}, {"type": "node", "id": 4188132390, "lat": 40.7616147, "lon": -73.9868436, "tags": {"addr:housenumber": "811", "addr:street": "8th Avenue", "amenity": "restaurant", "name": "Kung Fu Little Steamed Buns"}}, {"type": "node", "id": 4278330892, "lat": 40.7628531, "lon": -73.9838317, "tags": {"addr:housenumber": "228", "addr:postcode": "10019", "addr:street": "West 52nd Street", "amenity": "restaurant", "cocktails": "yes", "contact:facebook": "https://www.facebook.com/GallaghersNYC", "contact:instagram": "https://www.instagram.com/gallaghersnyc", "contact:twitter": "https://twitter.com/GallaghersNYC", "cuisine": "american;steak_house", "drink:beer": "yes", "drink:wine": "yes", "name": "Gallaghers Steakhouse", "opening_hours": "Mo-Sa 11:45-23:30; Su 11:45-22:30", "phone": "+1 212-586-5000", "reservation": "yes", "start_date": "1927", "website": "https://gallaghersnysteakhouse.com/", "wikidata": "Q5518818", "wikipedia": "en:Gallagher's Steakhouse"}}, {"type": "node", "id": 4311338893, "lat": 40.763523, "lon": -73.98853, "tags": {"addr:postcode": "10019", "amenity": "restaurant", "cuisine": "brazilian", "name": "Rice N Beans", "opening_hours": "Mo-Su 11:00-23:00", "phone": "+1-212-265-4444", "website": "https://www.ricenbeansnyc.com/", "wheelchair": "no"}}, {"type": "node", "id": 4311478190, "lat": 40.764055, "lon": -73.9880983, "tags": {"addr:housenumber": "369", "addr:postcode": "10019", "addr:street": "West 51st Street", "amenity": "restaurant", "name": "Arias Hell's Kitchen", "opening_hours": "Mo-Th 12:00-00:00; Fr 12:00-01:00; Sa 11:30-01:00; Su 11:30-00:00", "phone": "+1-212-541-9241", "website": "https://www.ariawinebar.com/", "wheelchair": "yes"}}, {"type": "node", "id": 4317887892, "lat": 40.7636131, "lon": -73.9849057, "tags": {"addr:postcode": "10019", "amenity": "restaurant", "cuisine": "american;breakfast;diner", "name": "Cosmic Diner", "opening_hours": "24/7", "phone": "+12123335888", "wheelchair": "yes"}}, {"type": "node", "id": 4330787300, "lat": 40.7608908, "lon": -73.9889333, "tags": {"amenity": "cafe", "internet_access": "wlan", "name": "Frisson Espresso", "opening_hours": "Mo,Tu 07:00-19:00; We-Fr 07:00-20:00; Sa 07:30-20:00; Su 07:30-19:00", "website": "https://frissonespresso.co/"}}, {"type": "node", "id": 4350615592, "lat": 40.7643365, "lon": -73.9880327, "tags": {"amenity": "restaurant", "name": "Island Burger and Shakes"}}, {"type": "node", "id": 4420510490, "lat": 40.7644404, "lon": -73.9875805, "tags": {"addr:housenumber": "366", "addr:street": "West 52nd Street", "amenity": "restaurant", "cuisine": "ramen", "delivery": "yes", "level": "-1", "name": "Toribro Ramen", "opening_hours": "Mo-Th 12:00-17:00, Mo-Sa 17:30-22:30, Fr,Sa 12:00-17:00,17:00-23:00, Su 12:00-22:00", "outdoor_seating": "yes", "phone": "+1-646-964-5863", "takeaway": "yes", "website": "https://www.toribroramen.com/", "wheelchair": "limited"}}, {"type": "node", "id": 4435477389, "lat": 40.7643224, "lon": -73.9873646, "tags": {"addr:housenumber": "355", "addr:street": "West 52nd Street", "amenity": "bar", "internet_access": "wlan", "lgbtq": "primary", "name": "Industry", "name:en": "Industry", "sport": "billiards", "wheelchair": "no"}}, {"type": "node", "id": 4479721389, "lat": 40.7643286, "lon": -73.984836, "tags": {"addr:housenumber": "891", "addr:postcode": "10019", "addr:street": "8th Avenue", "amenity": "cafe", "cuisine": "bagel", "delivery": "yes", "name": "Pick a Bagel", "opening_hours": "Mo-Su 07:00-19:00", "phone": "+1 212-582-8333", "website": "https://www.pickabagel.net/", "wheelchair": "yes"}}, {"type": "node", "id": 4494829289, "lat": 40.7622096, "lon": -73.9874605, "tags": {"addr:city": "New York", "addr:housenumber": "325", "addr:postcode": "10019", "addr:state": "NY", "addr:street": "West 49th Street", "amenity": "cafe", "branch": "49th btwn 8th & 9th", "brand": "Starbucks", "brand:wikidata": "Q37158", "cuisine": "coffee_shop", "name": "Starbucks", "official_name": "Starbucks Coffee", "phone": "+1 212-765-2205", "ref": "16666", "takeaway": "yes", "website": "https://www.starbucks.com/store-locator/store/16666/49th-btwn-8th-9th-325-w-49th-st-new-york-ny-100197316-us"}}, {"type": "node", "id": 4545006872, "lat": 40.7601231, "lon": -73.9826461}, {"type": "node", "id": 4545006873, "lat": 40.7604822, "lon": -73.9820496}, {"type": "node", "id": 4545006874, "lat": 40.7605918, "lon": -73.9823106}, {"type": "node", "id": 4546109657, "lat": 40.7647997, "lon": -73.9828965}, {"type": "node", "id": 4546109658, "lat": 40.7648085, "lon": -73.9829189, "tags": {"amenity": "parking", "fee": "yes", "layer": "-1", "parking": "underground", "wheelchair": "yes"}}, {"type": "node", "id": 4546109659, "lat": 40.7648178, "lon": -73.9829427}, {"type": "node", "id": 4546109660, "lat": 40.7648599, "lon": -73.982704}, {"type": "node", "id": 4546109661, "lat": 40.7649092, "lon": -73.9828173}, {"type": "node", "id": 4687113395, "lat": 40.7602363, "lon": -73.9873789, "tags": {"amenity": "restaurant", "check_date": "2025-10-28", "name": "Carve: Unique Sandwich", "name:en": "Carve: Unique Sandwich"}}, {"type": "node", "id": 4708888896, "lat": 40.7607941, "lon": -73.9886943, "tags": {"amenity": "restaurant", "name": "Fresh From Hell", "name:en": "Fresh From Hell", "opening_hours": "Mo-Sa 07:00-19:00; Su 07:00-18:00", "website": "https://www.freshfromhell.com/"}}, {"type": "node", "id": 4708892894, "lat": 40.7617708, "lon": -73.9850779, "tags": {"addr:housenumber": "226", "addr:street": "West 50th Street", "amenity": "restaurant", "contact:email": "info@natsuminyc.com", "contact:facebook": "natsuminyc", "contact:instagram": "natsuminyc", "contact:phone": "+1-212-258-2988", "contact:twitter": "natsumi_nyc", "contact:website": "http://natsuminyc.com/", "cuisine": "sushi;japanese", "delivery": "yes", "name": "Natsumi", "opening_hours": "Mo-Th 16:00-18:30; Fr, Sa 15:30-23:00", "reservation": "yes", "seats": "97", "takeaway": "yes", "wheelchair": "limited"}}, {"type": "node", "id": 4909127627, "lat": 40.761217, "lon": -73.987191, "tags": {"amenity": "restaurant", "cuisine": "mexican", "name": "Sombrero"}}, {"type": "node", "id": 5007572821, "lat": 40.7638883, "lon": -73.9882214, "tags": {"addr:housenumber": "370", "addr:street": "West 51st Street", "amenity": "restaurant", "capacity": "30", "cuisine": "italian", "name": "Bricola", "name:en": "Bricola", "name:fr": "Bricola", "opening_hours": "Mo-Su 12:00-23:30", "payment:cash": "yes", "payment:credit_cards": "yes", "phone": "+16466785763", "smoking": "no"}}, {"type": "node", "id": 5061206121, "lat": 40.7609089, "lon": -73.985336, "tags": {"addr:postcode": "10019", "amenity": "restaurant", "cuisine": "italian", "name": "Da Marino", "name:en": "Da Marino", "opening_hours": "Mo-Th 11:00-01:00; Fr-Sa 11:00-02:00", "phone": "+1-212-541-6601", "website": "http://www.damarino.com", "wheelchair": "no", "wikidata": "Q16974386"}}, {"type": "node", "id": 5181120222, "lat": 40.760714, "lon": -73.9879098, "tags": {"addr:housenumber": "307", "addr:postcode": "10036", "addr:street": "West 47th Street", "amenity": "bar", "check_date": "2025-11-02", "cocktails": "yes", "email": "info@dutchfreds.com", "facebook": "dutchfreds", "instagram": "dutchfreds", "level": "0", "name": "Dutch Freds", "opening_hours": "Tu-Fr 16:00-24:00; Sa, Su 11:00-24:00", "phone": "+1 646-918-6923", "reservation": "yes", "twitter": "dutchfreds", "website": "https://dutchfreds.com"}}, {"type": "node", "id": 5414820121, "lat": 40.7643912, "lon": -73.9888626, "tags": {"amenity": "bar", "name": "Posh", "toilets:wheelchair": "no", "wheelchair": "no"}}, {"type": "node", "id": 5415631321, "lat": 40.7626874, "lon": -73.9892881, "tags": {"addr:housenumber": "716", "addr:postcode": "10019", "addr:street": "9th Avenue", "amenity": "bar", "name": "Mickey Spillane's"}}, {"type": "node", "id": 5425647820, "lat": 40.7619612, "lon": -73.9843717, "tags": {"addr:city": "New York", "addr:floor": "37-38", "addr:housenumber": "1633", "addr:postcode": "10019", "addr:street": "Broadway", "name": "MongoDB", "office": "it", "phone": "+1 866 237 8815", "website": "https://www.mongodb.com/"}}, {"type": "node", "id": 5599496976, "lat": 40.7628613, "lon": -73.985265, "tags": {"addr:city": "New York", "addr:housenumber": "253", "addr:postcode": "10019", "addr:state": "NY", "addr:street": "West 51st Street", "amenity": "cafe", "cuisine": "coffee;coffee_shop;tea;dessert;bakery", "name": "Bibble & Sip", "opening_hours": "Mo-Fr 07:30-20:00, Sa-Su 10:00-20:00", "outdoor_seating": "yes", "phone": "+1-646-649-5116", "wheelchair": "yes"}}, {"type": "node", "id": 5762582555, "lat": 40.7622424, "lon": -73.9832858, "tags": {"addr:housenumber": "1650", "addr:postcode": "10019", "addr:street": "Broadway", "amenity": "pub", "name": "Iridium Jazz Club", "opening_hours": "Mo-Su 18:00-00:00", "phone": "+12125822121", "wikidata": "Q1331383"}}, {"type": "node", "id": 5840679445, "lat": 40.7608042, "lon": -73.9842008, "tags": {"addr:housenumber": "1626", "addr:postcode": "10019", "addr:street": "Broadway", "air_conditioning": "yes", "amenity": "restaurant", "branch": "49th Street", "check_date": "2025-05-03", "cocktails": "yes", "name": "Junior's", "opening_hours": "Mo-Th,Su 07:00-24:00; Fr-Sa 07:00-01:00", "outdoor_seating": "no", "phone": "+1 212-365-5900", "smoking": "no", "takeaway": "yes", "toilets": "yes", "website": "https://www.juniorscheesecake.com/blog/restaurants/49thstreet/", "wheelchair": "limited"}}, {"type": "node", "id": 5922862086, "lat": 40.7611297, "lon": -73.9839743, "tags": {"addr:housenumber": "1626", "addr:street": "Broadway", "amenity": "restaurant", "name": "Junior's Deli"}}, {"type": "node", "id": 5978510504, "lat": 40.7630158, "lon": -73.9853514, "tags": {"addr:city": "New York", "addr:housenumber": "852", "addr:postcode": "10019", "addr:state": "NY", "addr:street": "8th Avenue", "amenity": "restaurant", "contact:website": "https://www.romapizzaon8thave.com/", "cuisine": "pizza", "name": "Roma Pizza", "wheelchair": "yes"}}, {"type": "node", "id": 5984409285, "lat": 40.7648841, "lon": -73.9876636, "tags": {"addr:city": "New York", "addr:housenumber": "788", "addr:postcode": "10019", "addr:state": "NY", "addr:street": "9th Avenue", "air_conditioning": "yes", "amenity": "restaurant", "delivery": "yes", "name": "Badshah", "opening_hours": "Mo-Su 12:00-15:00, 17:00-23:00", "phone": "+1-646-649-2407", "smoking": "no", "takeaway": "yes", "website": "https://www.badshahny.com/", "wheelchair": "yes"}}, {"type": "node", "id": 6008970685, "lat": 40.7606732, "lon": -73.985793, "tags": {"amenity": "cafe", "name": "Masseria Caffe & Bakery", "opening_hours": "Tu-Fr 07:00-20:00; Sa 08:00-20:00; Su 08:00-16:00; Mo 07:00-19:00", "wheelchair": "yes"}}, {"type": "node", "id": 6023478828, "lat": 40.7641853, "lon": -73.988146, "tags": {"addr:housenumber": "764", "addr:street": "9th Avenue", "amenity": "restaurant", "craft": "caterer", "cuisine": "indian", "delivery": "yes", "diet:vegetarian": "yes", "drink:beer": "yes", "drink:tea": "yes", "drink:wine": "yes", "internet_access": "no", "name": "Bombay Grill House", "opening_hours": "Mo-Th 11:30-22:30; Fr 11:30-23:30; Sa 12:00-23:30; Su 12:00-22:30", "phone": "+1-212-977-1010", "reservation": "yes", "takeaway": "yes", "toilets": "yes", "toilets:access": "customers", "toilets:unisex": "yes", "toilets:wheelchair": "yes", "website": "http://bombaygrillhouse.com/", "wheelchair": "limited"}}, {"type": "node", "id": 6046944585, "lat": 40.7639563, "lon": -73.9883317, "tags": {"addr:housenumber": "370", "addr:street": "West 51st Street", "amenity": "restaurant", "name": "Sd", "name:en": "B si de pizzeria"}}, {"type": "node", "id": 6053407685, "lat": 40.7599574, "lon": -73.9831315, "tags": {"amenity": "restaurant", "cuisine": "deli", "name": "Toasties", "opening_hours": "Mo-Th 06:00-17:00, Fr-Su 06:00-20:00", "phone": "+1-212-398-4900", "website": "http://toastiesnyc.com"}}, {"type": "node", "id": 6066762932, "lat": 40.7646805, "lon": -73.9824427, "tags": {"addr:housenumber": "1725", "addr:postcode": "10019", "addr:street": "Broadway", "amenity": "restaurant", "check_date": "2024-08-07", "cocktails": "yes", "cuisine": "diner", "delivery": "yes", "drink:beer": "yes", "drink:wine": "yes", "email": "applejackdiner@yahoo.com", "fax": "+1 212-586-6079", "name": "Applejack Diner", "opening_hours": "Mo-Su 07:00-22:00", "outdoor_seating": "yes", "phone": "+1 212-586-6075", "website": "https://www.applejackdiner.com/", "wheelchair": "yes"}}, {"type": "node", "id": 6223911885, "lat": 40.7629409, "lon": -73.984028, "tags": {"addr:postcode": "10019", "amenity": "restaurant", "name": "Victor\u2019s Caf\u00e9", "phone": "+1-212-586-7714"}}, {"type": "node", "id": 6389664887, "lat": 40.7648888, "lon": -73.9834965, "tags": {"addr:housenumber": "248", "addr:street": "West 55th Street", "amenity": "bar", "cuisine": "mexican", "name": "Vida Verde", "website": "https://vidaverdeny.com/", "wheelchair": "limited"}}, {"type": "node", "id": 6426977889, "lat": 40.7601612, "lon": -73.9864034, "tags": {"amenity": "restaurant", "brand": "Buffalo Wild Wings", "brand:wikidata": "Q509255", "cuisine": "wings", "internet_access": "wlan", "name": "Buffalo Wild Wings", "opening_hours": "Mo-Su 11:00-00:00", "phone": "+1-212-265-9453", "short_name": "BW3"}}, {"type": "node", "id": 6466486185, "lat": 40.7641961, "lon": -73.9832028, "tags": {"addr:postcode": "10019", "amenity": "restaurant", "check_date": "2023-01-14", "name": "Iguana New York", "wheelchair": "no"}}, {"type": "node", "id": 6475002986, "lat": 40.7612776, "lon": -73.9828873, "tags": {"addr:housenumber": "761", "addr:street": "7th Avenue", "amenity": "restaurant", "cuisine": "steak_house", "name": "Tad\u2019s Steakhouse"}}, {"type": "node", "id": 6483003192, "lat": 40.7601137, "lon": -73.9890051, "tags": {"addr:housenumber": "324", "addr:street": "West 46th Street", "amenity": "restaurant", "name": "Orso"}}, {"type": "node", "id": 6497976385, "lat": 40.7639657, "lon": -73.9888381, "tags": {"amenity": "restaurant", "name": "GFG. Greek Food from Greece"}}, {"type": "node", "id": 6497976386, "lat": 40.7643238, "lon": -73.9887289, "tags": {"addr:city": "New York", "addr:housenumber": "403", "addr:postcode": "10019", "addr:state": "NY", "addr:street": "West 51st Street", "amenity": "cafe", "cuisine": "coffee_shop", "name": "The Coffee Pot", "phone": "+1-917-265-8014"}}, {"type": "node", "id": 6615272817, "lat": 40.7613601, "lon": -73.9895102, "tags": {"access": "yes", "entrance": "yes"}}, {"type": "node", "id": 6648520617, "lat": 40.7638111, "lon": -73.982806, "tags": {"addr:city": "New York", "addr:housenumber": "1697", "addr:postcode": "10019", "addr:state": "NY", "addr:street": "Broadway", "amenity": "restaurant", "cuisine": "pizza", "delivery": "yes", "name": "Angelo's Pizza", "opening_hours": "Mo-Su 11:00-03:00", "origin": "italian", "phone": "+1-347-875-6198", "takeaway": "yes", "website": "https://www.angelosbroadway.com/"}}, {"type": "node", "id": 6775582688, "lat": 40.7644289, "lon": -73.9842669, "tags": {"addr:housenumber": "900", "addr:street": "8th Avenue", "amenity": "restaurant", "contact:instagram": "cascadecafenyc", "cuisine": "diner", "name": "Cascade", "opening_hours": "24/7", "phone": "+1 646-329-5143"}}, {"type": "node", "id": 6898129085, "lat": 40.7615503, "lon": -73.9859763, "tags": {"addr:postcode": "10019", "amenity": "bar", "name": "Lillie\u2018s", "phone": "+1-212-957-4530", "website": "https://www.lilliesnyc.com/", "wheelchair": "yes"}}, {"type": "node", "id": 6981865793, "lat": 40.7625456, "lon": -73.9893759, "tags": {"addr:housenumber": "712", "addr:street": "9th Ave", "amenity": "restaurant", "description": "Turkish and Mediterranean restaurant serving delicious hallal meals having in or to go.", "name": "Istanbul Kebab House", "opening_hours": "Mo-Su 11:00-23:45", "phone": "+1-212-582-8282", "website": "https://www.istanbulkebabny.com/"}}, {"type": "node", "id": 7062657176, "lat": 40.7644156, "lon": -73.9885174, "tags": {"addr:housenumber": "765", "addr:street": "9th Avenue", "amenity": "restaurant", "branch": "Hell's Kitchen", "cocktails": "yes", "contact:email": "info@empmamanyc.com", "cuisine": "colombian", "delivery": "yes", "dish": "empanada", "drink:beer": "served", "happy_hours": "Mo-Su 01:00-04:00, 15:00-18:00", "name": "Empanada Mama", "opening_hours": "24/7", "phone": "+1 212-698-9008", "takeaway": "yes", "website": "https://www.empmamanyc.com"}}, {"type": "node", "id": 7173360085, "lat": 40.7643751, "lon": -73.988007, "tags": {"amenity": "restaurant", "cuisine": "steak_house;american;grill", "name": "K Rico Steakhouse"}}, {"type": "node", "id": 8791561183, "lat": 40.7630679, "lon": -73.9834068, "tags": {"addr:housenumber": "1675", "addr:street": "Broadway", "level": "23", "name": "Saatchi & Saatchi Wellness", "office": "company", "website": "https://www.saatchiwellness.com"}}, {"type": "node", "id": 8939919537, "lat": 40.7651283, "lon": -73.9875105, "tags": {"addr:street": "9th Avenue", "amenity": "restaurant", "cuisine": "noodle", "name": "Chong Qing Noodle", "phone": "+1 212 582 8866"}}, {"type": "node", "id": 8939922344, "lat": 40.7643561, "lon": -73.9854472, "tags": {"addr:housenumber": "310", "amenity": "restaurant", "indoor_seating": "yes", "name": "Turkuaz", "outdoor_seating": "yes"}}, {"type": "node", "id": 9049424120, "lat": 40.7623492, "lon": -73.9867012, "tags": {"amenity": "restaurant", "level": "0", "name": "The Blue Dog Cookhouse & Bar"}}, {"type": "node", "id": 9094620024, "lat": 40.7629436, "lon": -73.986239, "tags": {"amenity": "bar", "name": "Dolly Varden"}}, {"type": "node", "id": 9313457709, "lat": 40.7607466, "lon": -73.9847512, "tags": {"amenity": "restaurant", "name": "The Harrison Restaurant & Bar"}}, {"type": "node", "id": 9487723017, "lat": 40.7644424, "lon": -73.9830805, "tags": {"amenity": "restaurant", "check_date": "2023-01-14", "cuisine": "steak_house", "name": "Empire Steak House"}}, {"type": "node", "id": 9490051417, "lat": 40.7649715, "lon": -73.9876439, "tags": {"amenity": "restaurant", "name": "Kings of Kobe"}}, {"type": "node", "id": 9611990778, "lat": 40.7627414, "lon": -73.9849799, "tags": {"addr:city": "New York", "addr:housenumber": "245A", "addr:postcode": "10019", "addr:state": "NY", "addr:street": "West 51st Street", "amenity": "restaurant", "cuisine": "japanese;ramen;sushi;yakitori;sake;shochu;cocktails", "name": "Sake Bar Hagi", "opening_hours": "Mo-We 17:00-23:00; Th 17:00-00:00; Fr 17:00-01:00; Sa 12:00-15:00,16:00-01:00; Su 12:00-15:00,16:00-23:00", "phone": "+1-212-956-2429", "website": "https://sakebar-hagi.com/"}}, {"type": "node", "id": 9815615205, "lat": 40.7604274, "lon": -73.9840645, "tags": {"addr:city": "New York", "addr:housenumber": "736", "addr:state": "NY", "addr:street": "7th Avenue", "amenity": "restaurant", "cuisine": "pizza", "name": "Famous Original Ray's Pizza"}}, {"type": "node", "id": 9853378374, "lat": 40.762535, "lon": -73.9857038, "tags": {"addr:city": "New York", "addr:housenumber": "840", "addr:state": "NY", "addr:street": "8th Avenue", "amenity": "restaurant", "cuisine": "pizza", "name": "Famous Amadeus"}}, {"type": "node", "id": 9951354282, "lat": 40.7644509, "lon": -73.9837824, "tags": {"addr:housenumber": "254", "addr:street": "West 54th Street", "amenity": "college", "check_date": "2022-08-12", "name": "Mandl School, The College of Allied Health", "operator:type": "private", "website": "https://mandl.edu/"}}, {"type": "node", "id": 10108219017, "lat": 40.7636094, "lon": -73.9867217, "tags": {"amenity": "restaurant", "cuisine": "italian", "name": "ViceVersa", "opening_hours": "Tu-Fr 16:30-22:30; Sa 17:30-22:30; Su 11:30-15:00, 16:30-22:30", "phone": "+1-212-399-9291", "website": "https://www.viceversanyc.com/"}}, {"type": "node", "id": 10212457222, "lat": 40.7626147, "lon": -73.9893366, "tags": {"addr:city": "New York", "addr:housenumber": "714", "addr:postcode": "10019", "addr:state": "NY", "addr:street": "9th Avenue", "amenity": "bar", "lgbtq": "primary", "min_age": "21", "name": "VERS", "outdoor_seating": "yes", "website": "https://www.versnyc.com/", "wheelchair": "yes"}}, {"type": "node", "id": 10261258830, "lat": 40.7596078, "lon": -73.9830636}, {"type": "node", "id": 10547810049, "lat": 40.7601354, "lon": -73.9832283, "tags": {"addr:city": "New York", "addr:housenumber": "152", "addr:postcode": "10019", "addr:state": "NY", "addr:street": "West 49th Street", "amenity": "restaurant", "branch": "Times Square", "cuisine": "japanese;ramen", "delivery": "yes", "name": "Ichiran", "opening_hours": "Mo-Th 12:00-21:00; Fr-Su 12:00-22:00", "outdoor_seating": "no", "payment:cash": "yes", "payment:credit_cards": "yes", "phone": "+1-646-964-4294", "takeaway": "yes", "website": "https://www.ichiranusa.com/location/times-square/"}}, {"type": "node", "id": 10794176923, "lat": 40.7600479, "lon": -73.9837966, "tags": {"alt_name": "Lagos Times Square", "amenity": "restaurant", "bar": "yes", "cocktails": "yes", "cuisine": "west_african", "drink:beer": "yes", "drink:liquor": "yes", "drink:wine": "yes", "name": "Lagos TSQ", "phone": "+1-212-281-0500", "website": "https://lagosnyc.com"}}, {"type": "node", "id": 11044225344, "lat": 40.7620418, "lon": -73.9860181, "tags": {"amenity": "restaurant", "check_date": "2024-03-07", "name": "Carnegie Diner & Cafe"}}, {"type": "node", "id": 11076895105, "lat": 40.7615722, "lon": -73.983214, "tags": {"addr:housenumber": "762", "addr:street": "7th Avenue", "amenity": "cafe", "name": "Gregory\u2019s coffee", "opening_hours": "Mo-Fr 06:00-20:30; Su,Sa 07:00-19:00"}}, {"type": "node", "id": 11126165013, "lat": 40.7624184, "lon": -73.9878403, "tags": {"addr:city": "New York", "addr:housenumber": "329", "addr:postcode": "10019", "addr:state": "NY", "addr:street": "West 49th Street", "amenity": "restaurant", "branch": "Hell's Kitchen", "cuisine": "american", "name": "Barking Dog", "opening_hours": "08:00-22:00", "phone": "+1-646-755-8009", "website": "https://barkingdognyc.com/"}}, {"type": "node", "id": 11352644136, "lat": 40.7641497, "lon": -73.9850061, "tags": {"amenity": "restaurant", "branch": "To Go", "brand": "P.F. Chang's", "brand:wikidata": "Q5360181", "cuisine": "asian", "name": "P.F. Chang's", "official_name": "P.F. Chang's China Bistro"}}, {"type": "node", "id": 11737576669, "lat": 40.7636802, "lon": -73.9885247, "tags": {"amenity": "restaurant", "cuisine": "pizza", "name": "The Best Pizza"}}, {"type": "node", "id": 11773867097, "lat": 40.7606821, "lon": -73.986622, "tags": {"amenity": "restaurant", "name": "PS Kitchen", "opening_hours": "Su-Tu 11:00-22:00; We-Sa 11:00-23:00"}}, {"type": "node", "id": 11918781631, "lat": 40.7602653, "lon": -73.9895344, "tags": {"amenity": "restaurant", "cuisine": "french", "name": "Le Rivage", "opening_hours": "Mo 15:30-23:00; Tu-Th,Su 11:30-23:00; Fr-Sa 11:30-24:00", "outdoor_seating": "yes", "website": "https://www.lerivagenyc.com"}}, {"type": "node", "id": 11969588269, "lat": 40.7641352, "lon": -73.9830578, "tags": {"addr:housenumber": "236", "addr:street": "West 54 Street", "amenity": "bar", "name": "The Three Monkeys", "opening_hours": "Mo-Su 11:00-04:00", "phone": "+1-212-586-2080", "website": "https://www.thethreemonkeysbar.com/"}}, {"type": "node", "id": 12101284215, "lat": 40.760232, "lon": -73.9886968, "tags": {"addr:housenumber": "315", "addr:street": "West 46th Street", "air_conditioning": "yes", "amenity": "restaurant", "bar": "yes", "branch": "Times Square", "brewery": "various", "check_date": "2024-08-06", "contact:instagram": "https://www.instagram.com/kyuramen.official", "contact:tiktok": "https://www.tiktok.com/@kyuramen.official", "cuisine": "ramen", "delivery": "yes", "highchair": "yes", "internet_access": "wlan", "internet_access:fee": "customers", "name": "Kyuramen", "outdoor_seating": "no", "payment:cash": "yes", "payment:contactless": "yes", "payment:credit_cards": "yes", "payment:debit_cards": "yes", "smoking": "no", "takeaway": "yes", "toilets": "yes", "website": "https://www.kyuramen.com/", "website:menu": "https://www.kyuramen.com/menu", "wheelchair": "no"}}, {"type": "node", "id": 12286080701, "lat": 40.7620971, "lon": -73.984681, "tags": {"addr:postcode": "10019", "name": "Assured Guaranty", "office": "company", "website": "https://www.assuredguaranty.com"}}, {"type": "node", "id": 12646645001, "lat": 40.7601203, "lon": -73.9872499, "tags": {"addr:housenumber": "266", "addr:postcode": "10036", "addr:street": "West 47th Street", "amenity": "bar", "name": "The Woo Woo", "opening_hours": "Tu-Su 17:00-02:00", "website": "https://thewoowoonyc.com/"}}, {"type": "node", "id": 12662579801, "lat": 40.7651093, "lon": -73.988016, "tags": {"amenity": "restaurant", "email": "nfo@ariananewyorkcity.com", "name": "Ariana Afghan Kebab", "opening_hours": "Mo-Su 12:00-23:00", "phone": "+1 212-262-2323; +1 212-262-0065", "website": "https://www.ariananewyorkcity.com/"}}, {"type": "node", "id": 12662586701, "lat": 40.7602273, "lon": -73.9893114, "tags": {"addr:postcode": "10036", "amenity": "restaurant", "cuisine": "chinese", "name": "Dim Sum Palace", "opening_hours": "Mo-Fr 11:00-01:30; Sa-Su 10:30-13:30", "phone": "+1-646-861-1910", "website": "https://dimsumpalace.com/"}}, {"type": "node", "id": 12828447749, "lat": 40.7639018, "lon": -73.9888785, "tags": {"addr:city": "New York", "addr:housenumber": "749", "addr:postcode": "10019", "addr:state": "NY", "addr:street": "9th Avenue", "amenity": "restaurant", "cuisine": "thai", "email": "CHALONG@CHALONGNYC.COM", "name": "Chalong Southern Thai", "phone": "+1-212-466-6456", "website": "https://www.chalongnyc.com/"}}, {"type": "node", "id": 13056469502, "lat": 40.7637149, "lon": -73.9852986, "tags": {"amenity": "cafe", "brand": "Starbucks", "brand:wikidata": "Q37158", "contact:phone": "+1 212 246 7699", "cuisine": "coffee_shop", "name": "Starbucks", "official_name": "Starbucks Coffee", "outdoor_seating": "no", "takeaway": "yes"}}, {"type": "node", "id": 13057970730, "lat": 40.7637429, "lon": -73.9848071, "tags": {"addr:postcode": "10019", "amenity": "restaurant", "cuisine": "coffee_shop", "name": "Ground Central Coffee Company", "opening_hours": "Mo-Su 07:00-19:00", "outdoor_seating": "yes", "self_service": "yes", "takeaway": "yes", "wheelchair": "yes"}}, {"type": "node", "id": 13067936661, "lat": 40.7624706, "lon": -73.983143, "tags": {"addr:housenumber": "1668", "addr:postcode": "10019", "addr:state": "NY", "addr:street": "West 52nd Street", "amenity": "cafe", "cuisine": "coffee_shop", "indoor_seating": "yes", "level": "0", "name": "inerro", "opening_hours": "Mo-Su 07:30-19:00", "takeaway": "yes", "website": "https://inerro.co/", "wheelchair": "limited"}}, {"type": "node", "id": 13281497564, "lat": 40.7602775, "lon": -73.9894412, "tags": {"amenity": "restaurant", "name": "Pulperia"}}, {"type": "node", "id": 13281517266, "lat": 40.7601744, "lon": -73.9891823, "tags": {"amenity": "restaurant", "cuisine": "italian", "name": "Sicily"}}, {"type": "node", "id": 13304565268, "lat": 40.7599618, "lon": -73.9827619}, {"type": "node", "id": 13304565269, "lat": 40.7594857, "lon": -73.9831055}, {"type": "way", "id": 160905765, "nodes": [2840169692, 1595140630, 1728793890, 1728793893, 2840169692], "tags": {"amenity": "school", "check_date": "2025-11-04", "name": "Midtown West School PS 212"}}, {"type": "way", "id": 265322620, "nodes": [2709915406, 2709915395, 2709915353, 2709915372, 2709915406], "tags": {"addr:housenumber": "322", "addr:postcode": "10036", "addr:street": "West 48th Street", "building": "yes", "check_date": "2025-05-03", "email": "membership@local802afm.org", "facebook": "Local802AFM", "height": "23.8", "instagram": "musicians_of_ny", "name": "Local 802 American Federation of Musicians", "nycdoitt:bin": "1025108", "office": "union", "opening_hours": "Mo-Fr 09:30-17:30", "opening_hours:covid19": "closed", "phone": "+1 212-245-4802", "twitter": "Local_802_AFM", "website": "https://www.local802afm.org"}}, {"type": "way", "id": 265329530, "nodes": [2709968220, 2709968226, 2709968232, 2709968261, 2709967726, 2709968241, 2709968220], "tags": {"addr:housenumber": "370", "addr:postcode": "10019", "addr:street": "West 52nd Street", "amenity": "restaurant", "building": "yes", "cuisine": "burger", "delivery": "yes", "height": "13.7", "name": "Lucky's Famous Burger", "nycdoitt:bin": "1078890", "phone": "+1 212-247-6717", "smoking": "no", "takeaway": "yes"}}, {"type": "way", "id": 265329549, "nodes": [2709968170, 2709968120, 2709968018, 2709967999, 2709967945, 2709967930, 2709967911, 2709967883, 2709967942, 2709967963, 2709967981, 2709968000, 2709968071, 2709968122, 2709968141, 2709968183, 2709968212, 2709968230, 2709968251, 2709968258, 2709968228, 2709968210, 2709968170], "tags": {"addr:housenumber": "317", "addr:street": "West 52nd Street", "amenity": "school", "building": "school", "ele": "19", "gnis:feature_id": "961765", "height": "14.8", "name": "Public School 58", "nycdoitt:bin": "1025241", "wheelchair": "yes"}}, {"type": "way", "id": 266113539, "nodes": [2709915398, 2709915408, 2709915466, 2716952948, 2716952947, 2709915405, 2709915384, 6615272817, 2709915398], "tags": {"ele": "15", "gnis:feature_id": "2500950", "leisure": "park", "name": "Ramone Aponte Park", "wikidata": "Q49547907"}}, {"type": "way", "id": 458511171, "nodes": [2717546466, 2717546460, 2717546457, 2717546406, 2717546409, 2717546378, 2717546381, 2717546365, 4545006872, 2717546353, 2717546387, 1593328953, 1593328960, 4545006873, 4545006874, 2717546466], "tags": {"access": "yes", "highway": "pedestrian", "leisure": "park", "name": "745 Plaza"}}, {"type": "way", "id": 458642434, "nodes": [4546109661, 4546109657, 4546109658, 4546109659, 2708165357, 2868082193, 2708165339, 2708165382, 2868104008, 4546109660, 4546109661], "tags": {"leisure": "park"}}, {"type": "way", "id": 1317270172, "nodes": [2717546319, 13304565268, 530697969, 530697968, 13304565269, 2717546150, 10261258830, 2717546205, 2717546209, 2717546319], "tags": {"area": "yes", "highway": "pedestrian", "leisure": "park", "name": "McGraw-Hill Park", "surface": "concrete"}}]}