{"version": 0.6, "generator": "Overpass API 0.7.62.8 e802775f", "osm3s": {"timestamp_osm_base": "2025-12-01T17:12:02Z", "copyright": "The data included in this document is from www.openstreetmap.org. The data is made available under ODbL."}, "elements": [{"type": "node", "id": 357579360, "lat": 40.7849967, "lon": -73.9502957, "tags": {"addr:housenumber": "1700", "addr:postcode": "10128", "addr:street": "3rd Avenue", "alt_name": "Isidor & Ida Strauss School", "amenity": "school", "contact:instagram": "https://www.instagram.com/ps198m", "contact:twitter": "https://twitter.com/ps198m", "ele": "16", "fax": "+1 212-410-1731", "gnis:feature_id": "961488", "name": "Public School 198", "phone": "+1 212-289-3702", "short_name": "PS 198", "website": "https://www.ps198m.org"}}, {"type": "node", "id": 357581052, "lat": 40.7851696, "lon": -73.9499962, "tags": {"amenity": "school", "ele": "19", "gnis:feature_id": "961888", "name": "Public School 86"}}, {"type": "node", "id": 357621600, "lat": 40.7847222, "lon": -73.95, "tags": {"amenity": "school", "ele": "15", "gnis:feature_id": "2083945", "name": "Public School 77"}}, {"type": "node", "id": 2339994466, "lat": 40.7876139, "lon": -73.9473482}, {"type": "node", "id": 2339994472, "lat": 40.7873512, "lon": -73.9467037}, {"type": "node", "id": 2339994474, "lat": 40.7871478, "lon": -73.947686}, {"type": "node", "id": 2339994476, "lat": 40.7868752, "lon": -73.9470503}, {"type": "node", "id": 2340007773, "lat": 40.7841654, "lon": -73.9464794}, {"type": "node", "id": 2340007774, "lat": 40.7846001, "lon": -73.9460866}, {"type": "node", "id": 2340007775, "lat": 40.7838983, "lon": -73.9458336}, {"type": "node", "id": 2340007776, "lat": 40.7843573, "lon": -73.9454969}, {"type": "node", "id": 2340009014, "lat": 40.7837779, "lon": -73.9441465}, {"type": "node", "id": 2340009015, "lat": 40.7833317, "lon": -73.9444706}, {"type": "node", "id": 2340009018, "lat": 40.7831618, "lon": -73.9440728}, {"type": "node", "id": 2340009019, "lat": 40.7836063, "lon": -73.9437316}, {"type": "node", "id": 2357937268, "lat": 40.7859465, "lon": -73.9507027, "tags": {"addr:city": "New York", "addr:country": "US", "addr:housenumber": "1491", "addr:postcode": "10029", "addr:state": "NY", "addr:street": "Lexington Avenue", "amenity": "cafe", "branch": "96th & Lexington", "brand": "Starbucks", "brand:wikidata": "Q37158", "cuisine": "coffee_shop", "diet:vegan": "yes", "drink:soy_milk": "yes", "internet_access": "wlan", "name": "Starbucks", "official_name": "Starbucks Coffee", "opening_hours": "Mo-Fr 05:00-21:30; Sa, Su 06:00-20:30", "phone": "+1 212-369-0313", "takeaway": "yes", "toilets": "no", "website": "https://www.starbucks.com/store-locator/store/19114/96th-lexington-1491-lexington-avenue-new-york-ny-100297307-us"}}, {"type": "node", "id": 2724130500, "lat": 40.7826699, "lon": -73.9509653}, {"type": "node", "id": 2724130504, "lat": 40.7830915, "lon": -73.950658}, {"type": "node", "id": 2724132965, "lat": 40.782945, "lon": -73.9458768}, {"type": "node", "id": 2724133004, "lat": 40.7831008, "lon": -73.9457641}, {"type": "node", "id": 2724133017, "lat": 40.7831417, "lon": -73.9463475}, {"type": "node", "id": 2724133028, "lat": 40.783177, "lon": -73.945709}, {"type": "node", "id": 2724133034, "lat": 40.7831873, "lon": -73.9457336}, {"type": "node", "id": 2724133039, "lat": 40.7831966, "lon": -73.9463078}, {"type": "node", "id": 2724133069, "lat": 40.7832563, "lon": -73.9456408}, {"type": "node", "id": 2724133076, "lat": 40.7832701, "lon": -73.9456737}, {"type": "node", "id": 2724133117, "lat": 40.7833453, "lon": -73.9457158}, {"type": "node", "id": 2724133127, "lat": 40.7833646, "lon": -73.9461514}, {"type": "node", "id": 2724133131, "lat": 40.7833712, "lon": -73.9455577}, {"type": "node", "id": 2724133132, "lat": 40.7833717, "lon": -73.947522}, {"type": "node", "id": 2724133133, "lat": 40.7833758, "lon": -73.9461782}, {"type": "node", "id": 2724133138, "lat": 40.7833823, "lon": -73.9458043}, {"type": "node", "id": 2724133144, "lat": 40.7833977, "lon": -73.9457932}, {"type": "node", "id": 2724133153, "lat": 40.7834208, "lon": -73.9458964}, {"type": "node", "id": 2724133155, "lat": 40.7834225, "lon": -73.9455206}, {"type": "node", "id": 2724133159, "lat": 40.7834362, "lon": -73.9458852}, {"type": "node", "id": 2724133166, "lat": 40.7834447, "lon": -73.9460934}, {"type": "node", "id": 2724133167, "lat": 40.783456, "lon": -73.9461202}, {"type": "node", "id": 2724133168, "lat": 40.7834575, "lon": -73.9459843}, {"type": "node", "id": 2724133173, "lat": 40.7834672, "lon": -73.9456277}, {"type": "node", "id": 2724133177, "lat": 40.7834827, "lon": -73.9461009}, {"type": "node", "id": 2724133189, "lat": 40.7835091, "lon": -73.9459471}, {"type": "node", "id": 2724133219, "lat": 40.7835741, "lon": -73.9473719}, {"type": "node", "id": 2724133224, "lat": 40.7835813, "lon": -73.9458948}, {"type": "node", "id": 2724133229, "lat": 40.7835997, "lon": -73.9460163}, {"type": "node", "id": 2724133243, "lat": 40.7836245, "lon": -73.9459983}, {"type": "node", "id": 2724133253, "lat": 40.7836362, "lon": -73.947327}, {"type": "node", "id": 2724143682, "lat": 40.783461, "lon": -73.9448141}, {"type": "node", "id": 2724143683, "lat": 40.7835561, "lon": -73.9450392}, {"type": "node", "id": 2724143684, "lat": 40.7836983, "lon": -73.9449353}, {"type": "node", "id": 2724143685, "lat": 40.7837605, "lon": -73.9455267}, {"type": "node", "id": 2724143686, "lat": 40.7838551, "lon": -73.9457507}, {"type": "node", "id": 2724143687, "lat": 40.7838677, "lon": -73.9448115}, {"type": "node", "id": 2724143688, "lat": 40.7839038, "lon": -73.945422}, {"type": "node", "id": 2724143689, "lat": 40.7839145, "lon": -73.9444826}, {"type": "node", "id": 2724143690, "lat": 40.7839226, "lon": -73.9457014}, {"type": "node", "id": 2724143691, "lat": 40.7839367, "lon": -73.9457348}, {"type": "node", "id": 2724143692, "lat": 40.7840096, "lon": -73.9447078}, {"type": "node", "id": 2724143693, "lat": 40.7840738, "lon": -73.9452996}, {"type": "node", "id": 2724143694, "lat": 40.784216, "lon": -73.9451956}, {"type": "node", "id": 2724143695, "lat": 40.7842314, "lon": -73.9454757}, {"type": "node", "id": 2724143696, "lat": 40.7842455, "lon": -73.9455091}, {"type": "node", "id": 2724143697, "lat": 40.78431, "lon": -73.9454182}, {"type": "node", "id": 2724144352, "lat": 40.7844907, "lon": -73.9471205}, {"type": "node", "id": 2724147097, "lat": 40.785681, "lon": -73.9499015}, {"type": "node", "id": 2724147106, "lat": 40.7857381, "lon": -73.9498595}, {"type": "node", "id": 2724147108, "lat": 40.7857724, "lon": -73.9498119}, {"type": "node", "id": 2724149764, "lat": 40.7859503, "lon": -73.9501201}, {"type": "node", "id": 3421674047, "lat": 40.7831635, "lon": -73.94685}, {"type": "node", "id": 3421674048, "lat": 40.7829292, "lon": -73.9470209}, {"type": "node", "id": 3421674049, "lat": 40.782788, "lon": -73.9466944}, {"type": "node", "id": 3421674050, "lat": 40.7830251, "lon": -73.9465216}, {"type": "node", "id": 3587858200, "lat": 40.7824091, "lon": -73.950429}, {"type": "node", "id": 3590689281, "lat": 40.7839008, "lon": -73.950022, "tags": {"addr:housenumber": "1679", "addr:postcode": "10128", "addr:street": "3rd Avenue", "amenity": "restaurant", "cocktails": "yes", "delivery": "yes", "drink:beer": "yes", "drink:wine": "yes", "happy_hours": "Mo-Fr 12:00-20:00", "name": "The District Bar & Restaurant", "opening_hours": "Mo-Fr 11:00-04:00; Sa, Su 10:00-04:00", "opening_hours:kitchen": "Mo-We 11:00-23:00; Th, Fr 11:00-24:00; Sa 10:00-24:00; Su 10:00-23:00", "outdoor_seating": "yes", "phone": "+1 212-289-2005", "website": "http://thedistrictbarnyc.com"}}, {"type": "node", "id": 5402543163, "lat": 40.7819228, "lon": -73.9478219, "tags": {"addr:housenumber": "310", "addr:street": "East 93rd Street", "amenity": "restaurant", "cuisine": "japanese", "name": "Chochin", "opening_hours": "Mo, Tu, Th-Su 18:00-23:00", "payment:cash": "yes", "payment:credit_cards": "no", "phone": "+1-212-426-1216"}}, {"type": "node", "id": 5501633021, "lat": 40.7840697, "lon": -73.9503873, "tags": {"addr:housenumber": "1678", "addr:street": "3rd Avenue", "amenity": "restaurant", "branch": "UES", "cocktails": "yes", "cuisine": "american", "delivery": "yes", "name": "Barking Dog", "opening_hours": "Mo-Su 08:00-22:00", "outdoor_seating": "yes", "phone": "+1 212-831-1800", "website": "https://www.barkingdognyc.com/location/barking-dog-e-94/"}}, {"type": "node", "id": 5540462860, "lat": 40.7827672, "lon": -73.9479303, "tags": {"addr:housenumber": "1814", "addr:street": "2nd Avenue", "amenity": "restaurant", "cuisine": "italian", "delivery": "yes", "dish": "pizza", "drink:beer": "draught;bottled", "drink:wine": "served", "email": "info@nicksnyc.com", "internet_access": "wlan", "name": "Nick's", "opening_hours": "Mo-Su 11:30-22:00", "outdoor_seating": "yes", "phone": "+1 212-987-5700", "reservation": "yes", "takeaway": "yes", "website": "https://www.nicksnyc.com/", "wheelchair": "yes", "wikidata": "Q59378412"}}, {"type": "node", "id": 5556738950, "lat": 40.7827225, "lon": -73.9479691, "tags": {"addr:housenumber": "1812", "addr:street": "2nd Avenue", "amenity": "cafe", "cuisine": "chinese", "name": "Burp Bowl Cafe", "opening_hours": "Mo-Su 11:00-21:00", "phone": "+1 646-372-0862"}}, {"type": "node", "id": 5578220618, "lat": 40.7845215, "lon": -73.9471938}, {"type": "node", "id": 5585746634, "lat": 40.7845132, "lon": -73.947104, "tags": {"access": "yes", "entrance": "yes", "level": "0", "wheelchair": "yes"}}, {"type": "node", "id": 5585746635, "lat": 40.7845374, "lon": -73.947086}, {"type": "node", "id": 5585746637, "lat": 40.7845841, "lon": -73.9471948}, {"type": "node", "id": 5599264049, "lat": 40.7827156, "lon": -73.9484523, "tags": {"addr:city": "New York", "addr:housenumber": "245", "addr:postcode": "10128", "addr:state": "NY", "addr:street": "East 93rd Street", "amenity": "cafe", "branch": "93rd & Second", "brand": "Starbucks", "brand:wikidata": "Q37158", "cuisine": "coffee_shop", "internet_access": "wlan", "name": "Starbucks", "official_name": "Starbucks Coffee", "opening_hours": "Mo-Fr 05:30-20:30; Sa, Su 05:30-19:30", "phone": "+1 646-455-8766", "takeaway": "yes", "toilets": "yes", "website": "https://www.starbucks.com/store-locator/store/1015899/93rd-second-245-east-93rd-st-new-york-ny-101283966-us"}}, {"type": "node", "id": 5721493494, "lat": 40.7866636, "lon": -73.9501801, "tags": {"addr:housenumber": "1505", "addr:postcode": "10029", "addr:street": "Lexington Avenue", "amenity": "restaurant", "check_date": "2025-07-16", "cuisine": "mexican", "delivery": "yes", "drink:beer": "served", "drink:coffee": "yes", "drink:tea": "yes", "level": "0", "name": "El Tepeyac Taqueria", "opening_hours": "Mo-Su 08:00-23:00", "payment:american_express": "yes", "payment:discover_card": "yes", "payment:mastercard": "yes", "payment:visa": "yes", "phone": "+1 212-722-2020", "seats": "18", "takeaway": "yes", "toilets": "yes", "wheelchair": "yes"}}, {"type": "node", "id": 6110464441, "lat": 40.7828897, "lon": -73.9500837}, {"type": "node", "id": 6110464457, "lat": 40.7828068, "lon": -73.9498863}, {"type": "node", "id": 6204869960, "lat": 40.782137, "lon": -73.9457982, "tags": {"addr:housenumber": "345", "addr:street": "East 94th Street", "amenity": "school", "check_date": "2025-08-06", "email": "nykidsclub94@nykidsclub.com", "name": "NY Kids Club", "phone": "+1 917-924-8288", "website": "https://nykidsclub.com/NYC-Kids-Club/location/e-94th-street"}}, {"type": "node", "id": 6220974403, "lat": 40.783412, "lon": -73.9474709, "tags": {"access": "yes", "addr:housenumber": "1838", "addr:street": "2nd Avenue", "entrance": "yes"}}, {"type": "node", "id": 6220974406, "lat": 40.7833899, "lon": -73.9473788}, {"type": "node", "id": 6220974407, "lat": 40.783416, "lon": -73.9474406}, {"type": "node", "id": 6220974408, "lat": 40.7834088, "lon": -73.9474949}, {"type": "node", "id": 6220974409, "lat": 40.7833294, "lon": -73.9474214}, {"type": "node", "id": 6221107512, "lat": 40.783546, "lon": -73.9471113}, {"type": "node", "id": 6221107513, "lat": 40.7834845, "lon": -73.9471574}, {"type": "node", "id": 6221717771, "lat": 40.7859248, "lon": -73.9498839}, {"type": "node", "id": 6221717885, "lat": 40.7858667, "lon": -73.9499271}, {"type": "node", "id": 6221717900, "lat": 40.7857662, "lon": -73.9497977}, {"type": "node", "id": 6221717911, "lat": 40.7858586, "lon": -73.9497304}, {"type": "node", "id": 6221717916, "lat": 40.7857798, "lon": -73.9498291}, {"type": "node", "id": 6221717928, "lat": 40.7856257, "lon": -73.9499421}, {"type": "node", "id": 6221717941, "lat": 40.7857602, "lon": -73.9502575}, {"type": "node", "id": 6223880798, "lat": 40.7827895, "lon": -73.9508778}, {"type": "node", "id": 6223880803, "lat": 40.7827155, "lon": -73.9507069}, {"type": "node", "id": 6223880808, "lat": 40.7826529, "lon": -73.9509248, "tags": {"access": "yes", "entrance": "yes", "wheelchair": "yes"}}, {"type": "node", "id": 6223880812, "lat": 40.7825794, "lon": -73.950307}, {"type": "node", "id": 6223880813, "lat": 40.783058, "lon": -73.9506827, "tags": {"access": "yes", "addr:housenumber": "1659", "addr:street": "3rd Avenue", "entrance": "main", "wheelchair": "yes"}}, {"type": "node", "id": 6223880815, "lat": 40.7827367, "lon": -73.9509164, "tags": {"access": "yes", "door": "revolving", "entrance": "yes", "wheelchair": "no"}}, {"type": "node", "id": 6223880817, "lat": 40.7826881, "lon": -73.950952, "tags": {"access": "yes", "entrance": "main", "wheelchair": "yes"}}, {"type": "node", "id": 6223880824, "lat": 40.7827503, "lon": -73.9509064, "tags": {"access": "yes", "entrance": "yes", "wheelchair": "yes"}}, {"type": "node", "id": 6223880827, "lat": 40.7830186, "lon": -73.9504849}, {"type": "node", "id": 6223880835, "lat": 40.7829555, "lon": -73.9505334}, {"type": "node", "id": 6223880839, "lat": 40.782425, "lon": -73.9504178}, {"type": "node", "id": 6223880840, "lat": 40.7830283, "lon": -73.9507031}, {"type": "node", "id": 6223880845, "lat": 40.7825975, "lon": -73.9507933}, {"type": "node", "id": 6226167933, "lat": 40.7845697, "lon": -73.9471616}, {"type": "node", "id": 6226167942, "lat": 40.7845298, "lon": -73.9471932}, {"type": "node", "id": 6226167950, "lat": 40.7845384, "lon": -73.9472135}, {"type": "node", "id": 6226167952, "lat": 40.7845376, "lon": -73.9472321}, {"type": "node", "id": 6762609288, "lat": 40.7836113, "lon": -73.950714, "tags": {"addr:housenumber": "1668", "addr:postcode": "10128", "addr:street": "3rd Avenue", "amenity": "restaurant", "cuisine": "sandwich", "delivery": "yes", "name": "Fillmore Delicatessen", "opening_hours": "Mo-Fr 07:30-22:30; Sa, Su 09:00-22:30", "outdoor_seating": "yes", "phone": "+1 646-912-9488", "takeaway": "yes", "website": "http://fillmoredeli.com"}}, {"type": "node", "id": 6781789416, "lat": 40.7836719, "lon": -73.9506652, "tags": {"addr:housenumber": "1670", "addr:street": "3rd Avenue", "amenity": "restaurant", "cuisine": "italian", "delivery": "yes", "dish": "pizza", "name": "La Vita Pizza", "phone": "+1 212-722-7600", "takeaway": "yes"}}, {"type": "node", "id": 7042074233, "lat": 40.7864891, "lon": -73.945206, "tags": {"addr:housenumber": "1932", "addr:street": "2nd Avenue", "level": "0", "name": "Law Offices of Anthony Iadevaia", "office": "lawyer", "phone": "+1 212-996-8700"}}, {"type": "node", "id": 7138030368, "lat": 40.7845769, "lon": -73.946192}, {"type": "node", "id": 7615559875, "lat": 40.7842251, "lon": -73.9464377}, {"type": "node", "id": 8197484224, "lat": 40.7834235, "lon": -73.947941, "tags": {"addr:housenumber": "1827", "addr:postcode": "10128", "addr:street": "2nd Avenue", "amenity": "restaurant", "branch": "Upper East Side", "cuisine": "pizza;italian", "delivery": "yes", "instagram": "enzobrunipizzagourmet", "name": "Enzo Bruni La Pizza Gourmet", "opening_hours": "Mo-Sa 11:00-23:00; Su 11:00-22:00", "outdoor_seating": "yes", "phone": "+1-917-675-6867", "reservation": "yes", "takeaway": "yes", "website": "https://enzobrunigourmet.com/"}}, {"type": "node", "id": 8284627179, "lat": 40.7832576, "lon": -73.9475535, "tags": {"addr:city": "New York", "addr:housenumber": "1834", "addr:postcode": "10128", "addr:state": "NY", "addr:street": "2nd Avenue", "amenity": "cafe", "contact:email": "madamebontecafe@gmail.com", "contact:facebook": "madamebonte", "contact:instagram": "madamebonte", "contact:phone": "+1-212-722-1122", "contact:website": "https://www.madamebonte.com/", "cuisine": "coffee_shop", "drink:coffee": "yes", "level": "0", "name": "Madame Bont\u00e9 Caf\u00e9", "opening_hours": "Mo-Su 07:00-17:00"}}, {"type": "node", "id": 8284627180, "lat": 40.7831068, "lon": -73.9481432, "tags": {"addr:housenumber": "1817", "addr:postcode": "10128", "addr:street": "2nd Avenue", "amenity": "restaurant", "cuisine": "chinese;sichuan", "delivery": "yes", "level": "0", "name": "A-Jiao Sichuan Cuisine", "opening_hours": "Mo-Su 11:00-22:00", "payment:american_express": "yes", "payment:cash": "yes", "payment:discover_card": "yes", "payment:mastercard": "yes", "payment:visa": "yes", "phone": "+1 212-828-8996", "seats": "44", "takeaway": "yes", "website": "https://www.ajiaosichuancuisine.com/", "wheelchair": "yes"}}, {"type": "node", "id": 8789936622, "lat": 40.7874667, "lon": -73.9469871}, {"type": "node", "id": 9287217315, "lat": 40.7837376, "lon": -73.9506306, "tags": {"addr:housenumber": "1672", "addr:street": "3rd Avenue", "amenity": "bar", "cuisine": "pub", "email": "info@eastendbar.com", "facebook": "eastendnyc", "name": "East End Bar & Grill", "phone": "+1 212-348-3783", "website": "http://eastendbar.com"}}, {"type": "node", "id": 9908595363, "lat": 40.7867032, "lon": -73.9505047, "tags": {"addr:housenumber": "1504", "addr:postcode": "10029", "addr:street": "Lexington Avenue", "amenity": "pub", "cocktails": "yes", "contact:instagram": "lexingtonpublicknyc", "drink:beer": "draught; bottled", "drink:wine": "served", "email": "LexingtonPublickNYC@gmail.com", "happy_hours": "Mo-Fr 16:00-19:00", "internet_access": "wlan", "name": "Lexington Publick", "opening_hours": "Mo-Th, Sa, Su 16:00-02:00; Fr 14:00-02:00", "phone": "+1 646-799-9494", "website": "https://www.lexingtonpublicknyc.com/"}}, {"type": "node", "id": 10901064587, "lat": 40.7825661, "lon": -73.950003}, {"type": "node", "id": 10901064595, "lat": 40.7826206, "lon": -73.9499884}, {"type": "node", "id": 10901064600, "lat": 40.7825464, "lon": -73.9499561}, {"type": "node", "id": 10901070312, "lat": 40.7826249, "lon": -73.9499216}, {"type": "node", "id": 10901070318, "lat": 40.7825912, "lon": -73.9500099}, {"type": "node", "id": 10901070321, "lat": 40.7826174, "lon": -73.949904}, {"type": "node", "id": 10901070322, "lat": 40.7826413, "lon": -73.9499096}, {"type": "node", "id": 10901070324, "lat": 40.7826092, "lon": -73.9499613}, {"type": "node", "id": 10901070325, "lat": 40.7825831, "lon": -73.9499905}, {"type": "node", "id": 10901070349, "lat": 40.7826503, "lon": -73.9499311}, {"type": "node", "id": 10901070352, "lat": 40.7823316, "lon": -73.9502362}, {"type": "node", "id": 10983217449, "lat": 40.7868776, "lon": -73.9499982, "tags": {"addr:housenumber": "1513", "addr:street": "Lexington Avenue", "amenity": "restaurant", "check_date": "2025-07-16", "cuisine": "sushi", "level": "0", "name": "Sushi W", "payment:cash": "yes", "payment:credit_cards": "yes", "payment:debit_cards": "yes", "reservation": "yes", "wheelchair": "yes"}}, {"type": "node", "id": 11538333631, "lat": 40.7833661, "lon": -73.947979, "tags": {"addr:housenumber": "1825", "addr:street": "2nd Avenue", "amenity": "restaurant", "cocktails": "yes", "contact:instagram": "soledad_nyc", "cuisine": "mexican", "level": "0", "name": "Soledad", "website": "https://soledadnyc.com/"}}, {"type": "way", "id": 225188968, "nodes": [2339994472, 8789936622, 2339994466, 2339994474, 2339994476, 2339994472], "tags": {"leisure": "park", "name": "Cherry Tree Park", "opening_hours": "Mar 2-Oct 31 06:00-21:00; Nov 1-Mar 1 06:00-18:00"}}, {"type": "way", "id": 225190178, "nodes": [2340007775, 2340007776, 2340007774, 7138030368, 7615559875, 2340007773, 2340007775], "tags": {"ele": "4", "gnis:feature_id": "2500955", "leisure": "park", "name": "Marx Brothers Playground", "old_name": "Playground 96", "website": "https://www.nycgovparks.org/parks/marx-brothers-playground"}}, {"type": "way", "id": 225190195, "nodes": [2340009014, 2340009019, 2340009018, 2340009015, 2340009014], "tags": {"leisure": "park", "name": "Stanley Isaacs Courts", "wikidata": "Q49565227"}}, {"type": "way", "id": 266919101, "nodes": [2724133168, 2724133153, 2724133159, 2724133144, 2724133138, 2724133117, 2724133173, 2724133155, 2724133131, 2724133069, 2724133076, 2724133034, 2724133028, 2724133004, 2724132965, 2724133017, 2724133039, 2724133133, 2724133127, 2724133166, 2724133167, 2724133177, 2724133229, 2724133243, 2724133224, 2724133189, 2724133168], "tags": {"addr:housenumber": "320", "addr:postcode": "10128", "addr:street": "East 96th Street", "alt_name": "Public School M655", "amenity": "school", "building": "school", "ele": "3", "fax": "+1 212-348-4293", "gnis:feature_id": "2079015", "grades": "9-12", "height": "22.2", "isced:level": "2;3", "name": "High School for Climate Justice", "nycdoitt:bin": "1050338", "phone": "+1 212-348-1694", "website": "https://www.schools.nyc.gov/schools/M655"}}, {"type": "way", "id": 266921150, "nodes": [2724143694, 2724143693, 2724143687, 2724143692, 2724143689, 2724143682, 2724143683, 2724143684, 2724143688, 2724143685, 2724143686, 2724143690, 2724143691, 2724143696, 2724143695, 2724143697, 2724143694], "tags": {"amenity": "school", "building": "yes", "ele": "3", "gnis:feature_id": "2079030", "height": "18.2", "name": "School of Cooperative Technical Education", "nycdoitt:bin": "1083927"}}, {"type": "way", "id": 335037490, "nodes": [3421674047, 3421674048, 3421674049, 3421674050, 3421674047], "tags": {"addr:housenumber": "312", "addr:postcode": "10128", "addr:street": "East 95th Street", "amenity": "school", "branch": "Upper School", "building": "school", "building:levels": "12", "fee": "yes", "grades": "6-12", "isced:level": "2;3", "name": "Trevor Day School", "phone": "+1 212-426-3360", "website": "https://www.trevor.org", "wikidata": "Q18157262"}}, {"type": "way", "id": 584343352, "nodes": [5585746637, 6226167952, 6226167950, 6226167942, 5578220618, 2724144352, 5585746634, 5585746635, 6226167933, 5585746637], "tags": {"addr:housenumber": "1867", "addr:street": "2nd Avenue", "amenity": "cafe", "contact:facebook": "Perkkafe", "contact:instagram": "perkkafenyc", "contact:twitter": "perkkafe", "cuisine": "coffee_shop", "drink:coffee": "yes", "indoor": "area", "internet_access": "wlan", "internet_access:fee": "no", "level": "0", "name": "Perk Kafe", "opening_hours": "Mo-Fr 07:00-16:00; Sa, Su 08:00-16:00", "outdoor_seating": "no", "phone": "+1 646-678-4272", "toilets": "yes", "website": "http://perkkafe.com", "wheelchair": "yes"}}, {"type": "way", "id": 664619106, "nodes": [6220974406, 6220974407, 6220974403, 6220974408, 2724133132, 6220974409, 6220974406], "tags": {"addr:housenumber": "1838", "addr:postcode": "10128", "addr:street": "2nd Avenue", "amenity": "cafe", "cuisine": "frozen_yogurt", "delivery": "yes", "dog": "no", "level": "0", "name": "Go Cups", "opening_hours": "07:00-22:00", "payment:american_express": "yes", "payment:cash": "yes", "payment:mastercard": "yes", "payment:visa": "yes", "phone": "+1 212-289-2929", "seats": "9", "surveillance": "camera", "takeaway": "yes", "wheelchair": "yes"}}, {"type": "way", "id": 664632831, "nodes": [6221107512, 6221107513, 2724133219, 2724133253, 6221107512], "tags": {"addr:housenumber": "1840", "addr:postcode": "10128", "addr:street": "2nd Avenue", "amenity": "bar", "cocktails": "yes", "delivery": "yes", "drink:beer": "yes", "food": "yes", "happy_hours": "Mo-Fr 12:00-19:00", "instagram": "merrionsquarepub", "level": "0", "name": "Merrion Square Pub", "opening_hours": "Mo-Su 11:00-02:00", "opening_hours:kitchen": "12:00-01:00", "outdoor_seating": "yes", "phone": "+1 212-831-7696", "sport": "billiards", "start_date": "2003", "takeaway": "yes", "toilets": "yes", "toilets:access": "customers", "twitter": "merrionsquare", "wheelchair": "yes"}}, {"type": "way", "id": 664697032, "nodes": [6221717928, 6221717941, 2724149764, 6221717885, 6221717771, 6221717911, 6221717900, 2724147108, 6221717916, 2724147106, 2724147097, 6221717928], "tags": {"access": "yes", "dog": "no", "ele": "13", "gnis:feature_id": "2083564", "leisure": "park", "lit": "yes", "name": "Monterey Public Garden", "opening_hours": "24/7", "operator": "Monterey 96 Street, LLC", "wikidata": "Q49527794"}}, {"type": "way", "id": 664941289, "nodes": [6223880827, 2724130504, 6223880813, 6223880840, 6223880835, 6223880827], "tags": {"addr:housenumber": "1659", "addr:postcode": "10128", "addr:street": "3rd Avenue", "amenity": "cafe", "cuisine": "bagel", "diet:gluten_free": "yes", "drink:coffee": "yes", "indoor_seating": "yes", "level": "0", "name": "Bagel Shop", "opening_hours": "07:00-16:00", "phone": "+1 212-860-2377", "seats": "16", "takeaway": "yes", "website": "https://bagelshopnyc.com/", "wheelchair": "yes"}}, {"type": "way", "id": 664941293, "nodes": [6223880845, 6223880808, 2724130500, 6223880817, 6223880815, 6223880824, 6223880798, 6223880803, 6223880845], "tags": {"addr:housenumber": "1645", "addr:postcode": "10128", "addr:street": "3rd Avenue", "amenity": "restaurant", "contact:instagram": "lavoglianyc", "contact:twitter": "LaVogliaNYC", "cuisine": "italian", "level": "0", "name": "La Voglia", "opening_hours": "16:00-24:00", "outdoor_seating": "yes", "phone": "+1 212-471-0181", "reservation": "yes", "reservation:website": "https://resy.com/cities/ny/la-voglia", "website": "https://lavoglianyc.com/", "wheelchair": "yes"}}, {"type": "way", "id": 1173199006, "nodes": [10901064600, 10901064587, 10901070325, 10901070318, 10901064595, 10901070324, 10901070349, 10901070322, 10901070312, 10901070321, 10901064600], "tags": {"access": "private", "leisure": "park", "opening_hours": "08:00-21:00"}}, {"type": "way", "id": 1173199007, "nodes": [10901070352, 6110464457, 6110464441, 6223880812, 6223880839, 3587858200, 10901070352], "tags": {"leisure": "park", "opening_hours": "24/7", "operator": "Related Companies", "wheelchair": "yes"}}]}