{"version": 0.6, "generator": "Overpass API 0.7.62.8 e802775f", "osm3s": {"timestamp_osm_base": "2025-12-01T17:20:12Z", "copyright": "The data included in this document is from www.openstreetmap.org. The data is made available under ODbL."}, "elements": [{"type": "node", "id": 357567449, "lat": 40.6718768, "lon": -73.8934104, "tags": {"amenity": "school", "ele": "10", "gnis:feature_id": "954310", "name": "Intermediate School 292"}}, {"type": "node", "id": 357625277, "lat": 40.6713889, "lon": -73.8933333, "tags": {"amenity": "school", "ele": "10", "gnis:feature_id": "2104444", "name": "UFT Elementary Charter School"}}, {"type": "node", "id": 357635603, "lat": 40.6706824, "lon": -73.8870786}, {"type": "node", "id": 2561304434, "lat": 40.6717084, "lon": -73.8948643}, {"type": "node", "id": 2561304503, "lat": 40.671767, "lon": -73.8948794}, {"type": "node", "id": 2561304563, "lat": 40.671851, "lon": -73.894901}, {"type": "node", "id": 2561304581, "lat": 40.6718849, "lon": -73.8949097}, {"type": "node", "id": 2672969144, "lat": 40.6705757, "lon": -73.887785}, {"type": "node", "id": 2672969146, "lat": 40.6706572, "lon": -73.8878063}, {"type": "node", "id": 2672969148, "lat": 40.6710403, "lon": -73.8879069}, {"type": "node", "id": 2672969151, "lat": 40.6713903, "lon": -73.8872643}, {"type": "node", "id": 2672969152, "lat": 40.6716523, "lon": -73.8880674}, {"type": "node", "id": 2672969153, "lat": 40.6716786, "lon": -73.887893}, {"type": "node", "id": 2672969154, "lat": 40.6717216, "lon": -73.8873512}, {"type": "node", "id": 2672969155, "lat": 40.6717515, "lon": -73.8874096}, {"type": "node", "id": 2672969156, "lat": 40.6717589, "lon": -73.887361}, {"type": "node", "id": 2782459663, "lat": 40.670773, "lon": -73.8950628}, {"type": "node", "id": 2782459665, "lat": 40.6708488, "lon": -73.8946063}, {"type": "node", "id": 2782459666, "lat": 40.6708609, "lon": -73.8945283}, {"type": "node", "id": 2782459675, "lat": 40.6709797, "lon": -73.8937597}, {"type": "node", "id": 2782459683, "lat": 40.6711075, "lon": -73.8951524}, {"type": "node", "id": 2782459684, "lat": 40.6711184, "lon": -73.8950807}, {"type": "node", "id": 2782459690, "lat": 40.6712633, "lon": -73.8951159}, {"type": "node", "id": 2782459692, "lat": 40.6712854, "lon": -73.8949384}, {"type": "node", "id": 2782459694, "lat": 40.6713103, "lon": -73.8947664}, {"type": "node", "id": 2782459700, "lat": 40.6713615, "lon": -73.8938574}, {"type": "node", "id": 2782459708, "lat": 40.6714143, "lon": -73.8938709}, {"type": "node", "id": 2782459782, "lat": 40.6719272, "lon": -73.8949222}, {"type": "node", "id": 2782459783, "lat": 40.6719301, "lon": -73.8949019}, {"type": "node", "id": 2782459786, "lat": 40.6719399, "lon": -73.8948324}, {"type": "node", "id": 2782459788, "lat": 40.6720586, "lon": -73.8940337}, {"type": "node", "id": 3672730658, "lat": 40.6737128, "lon": -73.891986}, {"type": "node", "id": 3672730659, "lat": 40.6736896, "lon": -73.892131}, {"type": "node", "id": 3672730660, "lat": 40.6734963, "lon": -73.8920772}, {"type": "node", "id": 3672730661, "lat": 40.6735195, "lon": -73.8919321}, {"type": "node", "id": 5425752796, "lat": 40.6719441, "lon": -73.8948043}, {"type": "node", "id": 5425752799, "lat": 40.6720454, "lon": -73.8941226}, {"type": "node", "id": 7686393606, "lat": 40.6704344, "lon": -73.8894872, "tags": {"addr:city": "Brooklyn", "addr:housenumber": "385", "addr:postcode": "11207", "addr:state": "NY", "addr:street": "Van Siclen Avenue", "name": "Telligent Marketing LLC", "office": "it", "phone": "+1-877-688-0615", "website": "https://telligentmarketing.com/"}}, {"type": "node", "id": 13060969229, "lat": 40.673323, "lon": -73.887056, "tags": {"addr:city": "Brooklyn", "addr:country": "US", "addr:housenumber": "2311", "addr:postcode": "11207", "addr:state": "NY", "addr:street": "Pitkin Avenue", "amenity": "restaurant", "cuisine": "venezuelan;cachapa", "delivery": "Mo-Su 11:00-2:30", "description": "Servicio de mostrador sencillo que ofrece hamburguesas y arepas venezolanas, postres y opciones veganas.", "fixme": "Check if the information is correct, if the location is correct, and if the establishment/POI still exists", "opening_hours": "Mo-Su 11:00-12:45", "phone": "+1-718-484-4715", "takeaway": "Mo-Su 11:00-2:30", "website": "https://cachapasbrooklynnyc.com"}}, {"type": "node", "id": 13301791856, "lat": 40.6742556, "lon": -73.8881186, "tags": {"name": "Tristate Decking", "office": "company", "phone": "+1-718-485-2278"}}, {"type": "way", "id": 261698911, "nodes": [2672969144, 2672969146, 2672969148, 2672969152, 2672969153, 2672969155, 2672969156, 2672969154, 2672969151, 357635603, 2672969144], "tags": {"ele": "9", "gnis:feature_id": "2375228", "leisure": "park", "name": "Sutter Avenue Ballfield", "wikidata": "Q49568201"}}, {"type": "way", "id": 273385898, "nodes": [2561304581, 2782459782, 2782459783, 2782459786, 5425752796, 5425752799, 2782459788, 2782459708, 2782459700, 2782459675, 2782459666, 2782459665, 2782459663, 2782459683, 2782459684, 2782459690, 2782459692, 2782459694, 2561304434, 2561304503, 2561304563, 2561304581], "tags": {"leisure": "park", "name": "Grace Playground", "wikidata": "Q49494920"}}, {"type": "way", "id": 363062083, "nodes": [3672730658, 3672730659, 3672730660, 3672730661, 3672730658], "tags": {"addr:city": "Brooklyn", "addr:housenumber": "492", "addr:postcode": "11207", "addr:state": "NY", "addr:street": "Glenmore Avenue", "leisure": "park", "name": "Glenmore Grows", "note": "Owned by NYC Department of Housing Preservation an Development", "source": "596 Acres", "website": "https://livinglotsnyc.org/lot/58276/"}}]}