{"version": 0.6, "generator": "Overpass API 0.7.62.8 e802775f", "osm3s": {"timestamp_osm_base": "2025-12-01T16:46:19Z", "copyright": "The data included in this document is from www.openstreetmap.org. The data is made available under ODbL."}, "elements": [{"type": "node", "id": 1574922963, "lat": 40.7406636, "lon": -73.9228846}, {"type": "node", "id": 1574922965, "lat": 40.7414673, "lon": -73.9227229}, {"type": "node", "id": 1574922967, "lat": 40.7406544, "lon": -73.9228067}, {"type": "node", "id": 1574922973, "lat": 40.7413961, "lon": -73.9220462}, {"type": "node", "id": 1574922976, "lat": 40.7409453, "lon": -73.9221381}, {"type": "node", "id": 2065172290, "lat": 40.744228, "lon": -73.924884, "tags": {"addr:housenumber": "39-23", "addr:street": "Queens Boulevard", "amenity": "restaurant", "cuisine": "asian", "diet:halal": "only", "level": "0", "name": "Tangra Asian Fusion", "opening_hours": "Fr, Sa 13:00-00:00; Mo-Th, Su 13:00-23:00", "outdoor_seating": "no", "phone": "+1 718-786-8181", "takeaway": "yes", "website": "https://www.tangrafusionnyc.com/"}}, {"type": "node", "id": 2065685392, "lat": 40.7433564, "lon": -73.9229731, "tags": {"addr:city": "New York", "addr:housenumber": "41-16", "addr:street": "Queens Boulevard", "amenity": "restaurant", "cuisine": "pizza", "delivery": "yes", "name": "Philomena's Pizza", "opening_hours": "We, Th 16:00-21:00; Fr 16:00-22:00; Sa 13:00-22:00; Su 13:00-21:00", "phone": "+1 718-225-1778", "takeaway": "yes", "website": "https://www.philomenasqueens.com/", "wheelchair": "yes"}}, {"type": "node", "id": 2485355797, "lat": 40.7440783, "lon": -73.9240225, "tags": {"addr:city": "Sunnyside", "addr:housenumber": "40-01", "addr:postcode": "11104", "addr:street": "Queens Boulevard", "addr:unit": "A", "amenity": "restaurant", "cuisine": "pizza", "delivery": "yes", "level": "0", "name": "Sunnyside Pizza", "note": "Business Hours: Mon  -  Sun 11am - 10pm", "opening_hours": "Mo-Su 10:00-20:00", "phone": "+1 718-433-4040", "takeaway": "yes", "website": "http://www.sunnyside-pizza.com", "wheelchair": "no"}}, {"type": "node", "id": 2844936136, "lat": 40.7418591, "lon": -73.9262321, "tags": {"addr:housenumber": "39-10", "addr:postcode": "11104", "addr:street": "47th Avenue", "amenity": "cafe", "name": "Blended Smoothies"}}, {"type": "node", "id": 2844936171, "lat": 40.7415881, "lon": -73.9257789, "tags": {"addr:housenumber": "47-10", "addr:postcode": "11104", "addr:street": "39th Place", "name": "Sigma Brokerage", "office": "accountant", "phone": "+1 718-369-3864"}}, {"type": "node", "id": 2844950257, "lat": 40.743144, "lon": -73.9210367, "tags": {"addr:city": "Sunnyside", "addr:housenumber": "43-10", "addr:postcode": "11104", "addr:state": "NY", "addr:street": "Queens Boulevard", "amenity": "restaurant", "branch": "Sunnyside", "cuisine": "cajun;seafood", "name": "Cap't Loui Seafood Boil", "opening_hours": "Mo-Su 11:30-23:00", "phone": "+1-718-255-1014", "website": "https://captloui.com"}}, {"type": "node", "id": 2844971042, "lat": 40.7435758, "lon": -73.9247822, "tags": {"addr:housenumber": "39-40", "addr:postcode": "11104", "addr:street": "Queens Boulevard", "amenity": "restaurant", "contact:instagram": "papas.pasta", "cuisine": "italian", "delivery": "yes", "indoor_seating": "no", "level": "0", "name": "Papa's Pasta", "opening_hours": "Mo-Su 14:00-02:00", "outdoor_seating": "no", "takeaway": "yes", "wheelchair": "yes"}}, {"type": "node", "id": 2844971064, "lat": 40.7432719, "lon": -73.9242401, "tags": {"addr:housenumber": "45-09", "addr:postcode": "11104", "addr:street": "40th Street", "amenity": "cafe", "bar": "no", "contact:email": "mrbunchanyc@gmail.com", "contact:instagram": "mrbuncha_nyc", "cuisine": "thai", "delivery": "yes", "dish": "bao", "indoor_seating": "yes", "level": "0", "name": "Mr. Buncha", "opening_hours": "Mo-Su 10:30-21:00", "outdoor_seating": "yes", "phone": "+1 718-255-6534", "takeaway": "yes", "toilets": "no", "website": "https://www.mrbunchanyc.com/", "wheelchair": "yes"}}, {"type": "node", "id": 2844971065, "lat": 40.7422129, "lon": -73.9253981, "tags": {"addr:housenumber": "45-51", "addr:postcode": "11104", "addr:street": "47th Avenue", "amenity": "cafe", "name": "Moa Coffee", "opening_hours": "Mo-Fr 07:00-17:00; Sa, Su 07:30-17:00"}}, {"type": "node", "id": 2844999904, "lat": 40.743753, "lon": -73.9212418, "tags": {"addr:housenumber": "43-01", "addr:postcode": "11104", "addr:street": "Queens Boulevard", "amenity": "restaurant", "cuisine": "nepalese; american", "name": "Foodmandu Restaurant & Bar", "opening_hours": "Mo-Th, Su 12:00-22:00; Fr, Sa 12:00-23:00", "phone": "+1 347-396-5681", "website": "https://foodmandunyc.com/"}}, {"type": "node", "id": 2844999905, "lat": 40.7450823, "lon": -73.920947, "tags": {"addr:housenumber": "43-02", "addr:postcode": "11104", "addr:street": "43rd Avenue", "amenity": "bar", "contact:facebook": "thelowerybar", "contact:instagram": "thelowerybar", "happy_hours": "Mo-Fr 15:00-18:00", "name": "The Lowery", "opening_hours": "Mo-We 15:00-00:00; Fr 12:00-01:00; Sa 11:00-01:00; Th 12:00-23:00; Su 11:00-00:00", "phone": "+1 929-208-0054", "reservation": "yes", "reservation:website": "https://tmt.spotapps.co/reservations?spot_id=78119", "website": "https://theloweryqueens.com/"}}, {"type": "node", "id": 2844999909, "lat": 40.7450734, "lon": -73.9208719, "tags": {"addr:city": "Sunnyside", "addr:housenumber": "43-06", "addr:postcode": "11104", "addr:state": "NY", "addr:street": "43rd Avenue", "amenity": "restaurant", "cuisine": "european", "level": "0", "name": "Romanian Garden", "opening_hours": "Mo-Th 11:00-23:00, Fr 11:00-01:00, Sa 11:00-02:00, Su 11:00-00:00", "opening_hours:covid19": "restricted", "phone": "+1-718-786-7894", "website": "https://www.romaniangarden.nyc"}}, {"type": "node", "id": 2844999924, "lat": 40.7438925, "lon": -73.9212315, "tags": {"addr:housenumber": "43-45", "addr:postcode": "11104", "addr:street": "43rd Street", "amenity": "restaurant", "catering": "yes", "contact:fax": "+1 347-642-4383", "cuisine": "indian", "delivery": "yes", "diet:halal": "only", "diet:vegan": "yes", "diet:vegetarian": "yes", "drink:beer": "yes", "indoor_seating": "yes", "name": "Cardamom", "opening_hours": "Mo, We-Fr 16:00-22:00; Sa-Su 16:00-22:00", "phone": "+1-718-706-9718", "takeaway": "yes", "website": "https://cardamomny.com"}}, {"type": "node", "id": 2845010811, "lat": 40.743943, "lon": -73.9228755, "tags": {"addr:city": "New York", "addr:housenumber": "41-13", "addr:postcode": "11104", "addr:street": "Queens Boulevard", "amenity": "restaurant", "cuisine": "japanese", "name": "Ariyoshi", "opening_hours": "Tu-Th, Su 11:30-22:00; Fr, Sa 11:30-23:00", "phone": "+1 718-937-3288"}}, {"type": "node", "id": 2845010819, "lat": 40.7440886, "lon": -73.9240669, "tags": {"addr:housenumber": "40-01", "addr:postcode": "11104", "addr:street": "Queens Boulevard", "amenity": "restaurant", "cocktails": "yes", "contact:facebook": "solelunanyc", "contact:instagram": "solelunanyc", "cuisine": "italian", "drink:beer": "yes", "drink:wine": "yes", "level": "0", "name": "Soleluna", "opening_hours": "Mo-Fr 12:00-22:00; Sa, Su 11:00-22:00", "outdoor_seating": "yes", "phone": "+1 929-296-3942", "reservation": "yes", "takeaway": "yes", "website": "https://solelunanyc.com"}}, {"type": "node", "id": 2845010834, "lat": 40.7439034, "lon": -73.922528, "tags": {"addr:city": "Sunnyside", "addr:housenumber": "41-31", "addr:postcode": "11104", "addr:state": "NY", "addr:street": "Queens Boulevard", "air_conditioning": "yes", "amenity": "cafe", "bar": "no", "capacity": "50", "internet_access": "yes", "internet_access:fee": "yes", "internet_access:ssid": "caffeebene", "name": "Bon Cafe & Restaurant", "opening_hours": "Mo-Fr 06:30-21:30; Sa-Su 07:30-21:30", "payment:american_express": "yes", "payment:cash": "yes", "payment:credit_cards": "yes", "payment:debit_cards": "yes", "payment:discover_card": "yes", "payment:mastercard": "yes", "payment:visa": "yes", "smoking": "no", "wheelchair": "limited"}}, {"type": "node", "id": 2845010836, "lat": 40.7438597, "lon": -73.9221402, "tags": {"addr:city": "Sunnyside", "addr:housenumber": "42-03", "addr:postcode": "11104", "addr:state": "NY", "addr:street": "Queens Boulevard", "amenity": "restaurant", "contact:instagram": "zirvegrill", "cuisine": "turkish", "delivery": "yes", "name": "Zirve Grill", "opening_hours": "Mo-Th, Su 08:00-23:00; Fr, Sa 08:00-00:00", "outdoor_seating": "no", "phone": "+1-718-392-3838", "takeaway": "yes", "website": "https://zirveturkishgrill.getsauce.com/"}}, {"type": "node", "id": 2845014918, "lat": 40.7442404, "lon": -73.9254492, "tags": {"addr:housenumber": "39-13", "addr:postcode": "11104", "addr:street": "Queens Boulevard", "amenity": "cafe", "name": "Tropical Smoothie Cafe", "opening_hours": "Mo-Sa 07:00-21:00; Su 08:00-20:00"}}, {"type": "node", "id": 3798081320, "lat": 40.7409603, "lon": -73.9221336}, {"type": "node", "id": 3798081351, "lat": 40.7414197, "lon": -73.9222701}, {"type": "node", "id": 3798081356, "lat": 40.7406601, "lon": -73.9228644}, {"type": "node", "id": 4215939888, "lat": 40.7419873, "lon": -73.9252095, "tags": {"addr:city": "Long Island City", "addr:housenumber": "39-35", "addr:postcode": "11104", "addr:state": "NY", "addr:street": "47th Avenue", "amenity": "restaurant", "capacity": "30", "contact:instagram": "punda01", "cuisine": "tibetan", "delivery": "no", "level": "0", "name": "Punda's Tibetan", "opening_hours": "Mo-Su 12:00-23:00", "phone": "+1 718-806-1845", "smoking": "no", "takeaway": "yes", "website": "https://www.pundasrestaurant.com/", "wheelchair": "limited"}}, {"type": "node", "id": 4872271541, "lat": 40.7465955, "lon": -73.9235998}, {"type": "node", "id": 4872271542, "lat": 40.7465061, "lon": -73.9228918}, {"type": "node", "id": 4872271543, "lat": 40.746168, "lon": -73.9229545}, {"type": "node", "id": 4872271544, "lat": 40.7462646, "lon": -73.9236617}, {"type": "node", "id": 5400446681, "lat": 40.7413267, "lon": -73.9216544, "tags": {"addr:city": "Sunnyside", "addr:housenumber": "43-04", "addr:postcode": "11104", "addr:state": "NY", "addr:street": "47th Avenue", "amenity": "cafe", "contact:email": "curleysbagels@gmail.com", "contact:instagram": "Curley's_Bagels", "cuisine": "bagel", "name": "Curley's Bagels", "opening_hours": "Mo-Fr 06:00-15:30; Sa, Su 07:00-15:30", "takeaway": "yes", "website": "https://www.curleysbagels.com/"}}, {"type": "node", "id": 5406249748, "lat": 40.7439287, "lon": -73.9224905, "tags": {"addr:housenumber": "41-31", "addr:street": "Queens Boulevard", "amenity": "restaurant", "contact:facebook": "takesushisunnyside", "contact:instagram": "takesushi.nyc", "cuisine": "japanese; sushi", "level": "0", "name": "Takesushi", "opening_hours": "Fr-We 12:00-14:30, 17:00-21:00", "phone": "+1 718-729-8253", "reservation": "yes", "reservation:website": "https://www.foodbooking.com/ordering/restaurant/menu?restaurant_uid=766c3916-c19d-47dd-b486-2b9c3a2977b8", "takeaway": "yes", "website": "https://www.takesushi.us/"}}, {"type": "node", "id": 5721470075, "lat": 40.7435022, "lon": -73.924182, "tags": {"addr:housenumber": "40-02", "addr:postcode": "11104", "addr:street": "Queens Boulevard", "amenity": "restaurant", "contact:email": "info@oasispizzany.com", "contact:facebook": "oasispizzany", "delivery": "yes", "level": "0", "name": "Oasis Pizza & Gyro", "opening_hours": "Mo-Su 11:00-24:00", "takeaway": "yes", "toilets": "yes", "website": "https://www.oasispizzany.com/"}}, {"type": "node", "id": 5721473272, "lat": 40.7431115, "lon": -73.9207685, "tags": {"addr:city": "Sunnyside", "addr:housenumber": "43-16", "addr:postcode": "11104", "addr:state": "NY", "addr:street": "Queens Boulevard", "addr:unit": "B", "amenity": "restaurant", "branch": "Sunnyside", "cuisine": "chicken", "happy_hours": "Mo-Fr 15:00-18:00", "name": "Mad For Chicken", "opening_hours": "Mo-We, Su 11:00-01:00; Th-Sa 11:00-02:00", "phone": "+1-347-808-0178", "website": "https://madforchicken.com/locations/sunnyside/"}}, {"type": "node", "id": 5721473579, "lat": 40.7431316, "lon": -73.9209224, "tags": {"addr:housenumber": "43-16", "addr:street": "Queens Boulevard", "amenity": "restaurant", "disused:amenity": "restaurant", "disused:cuisine": "himalayan", "disused:name": "Bajeko Sekuwa", "indoor_seating": "yes", "name": "Bajeko Sekuwa The Himalayan Grill", "outdoor_seating": "no", "phone": "+1 347-808-8100"}}, {"type": "node", "id": 5721473937, "lat": 40.7434398, "lon": -73.9237094, "tags": {"addr:housenumber": "40-18", "addr:street": "Queens Boulevard", "amenity": "pub", "name": "The Courtyard Ale House"}}, {"type": "node", "id": 5721475988, "lat": 40.7436888, "lon": -73.9207172, "tags": {"addr:housenumber": "43-17", "addr:street": "Queens Boulevard", "amenity": "bar", "name": "The Goat", "opening_hours": "Mo-Fr 14:30-04:00; Sa, Su 12:00-04:00"}}, {"type": "node", "id": 5721476025, "lat": 40.7440319, "lon": -73.9236153, "tags": {"addr:housenumber": "40-15", "addr:street": "Queens Boulevard", "amenity": "restaurant", "cuisine": "japanese", "level": "0", "name": "Teppanyaki One", "opening_hours": "Mo-Sa 10:45-21:30; Su 10:45-21:00", "phone": "+1 347-448-6634", "takeaway": "yes", "website": "https://teppanyakione.com/", "wheelchair": "yes"}}, {"type": "node", "id": 5721476134, "lat": 40.7442007, "lon": -73.9230967, "tags": {"addr:housenumber": "43-43", "addr:street": "41st Street", "amenity": "restaurant", "cuisine": "korean", "name": "Doma", "opening_hours": "Mo-Sa 10:30-22:00", "phone": "+1 718-707-0615", "takeaway": "yes", "website": "https://doma-restaurant.square.site/"}}, {"type": "node", "id": 5721476514, "lat": 40.7449648, "lon": -73.9213586, "tags": {"addr:city": "Sunnyside", "addr:housenumber": "43-06", "addr:postcode": "11104", "addr:state": "NY", "addr:street": "43rd Street", "amenity": "bar", "contact:email": "info@bar43.com", "contact:facebook": "Bar43NY", "contact:instagram": "bar43ny", "cuisine": "pub", "level": "0", "name": "Bar 43", "opening_hours": "Mo-Th 15:00-02:00; Fr 12:00-04:00; Sa, Su 11:00-04:00", "phone": "+1 718-361-3090", "website": "https://bar43.com"}}, {"type": "node", "id": 5721476603, "lat": 40.7442397, "lon": -73.9240432, "tags": {"addr:housenumber": "43-47", "addr:street": "40th Street", "air_conditioning": "yes", "amenity": "restaurant", "cuisine": "diner; greek; mexican", "delivery": "07:00-20:30", "drink:beer": "bottles", "level": "0", "name": "Sunnyside Bro's Cafe", "opening_hours": "Mo-Sa 06:30-20:30; Su 07:00-19:00", "phone": "+1 718-349-3413", "takeaway": "yes", "toilets": "yes", "toilets:access": "customers", "website": "https://www.thebrotherscafe.com/Welcome.tpl#", "wheelchair": "yes"}}, {"type": "node", "id": 10996845904, "lat": 40.7409677, "lon": -73.9228234}, {"type": "node", "id": 11265041506, "lat": 40.7439012, "lon": -73.9275242, "tags": {"addr:city": "Long Island City", "addr:housenumber": "37-10", "addr:postcode": "11101", "addr:state": "NY", "addr:street": "Queens Boulevard", "amenity": "cafe", "cuisine": "bubble_tea", "name": "Vivi Bubble Tea"}}, {"type": "node", "id": 11265049781, "lat": 40.743595, "lon": -73.9255782, "tags": {"addr:city": "Long Island City", "addr:housenumber": "39-14", "addr:postcode": "11104", "addr:state": "NY", "addr:street": "Queens Boulevard", "amenity": "restaurant", "cuisine": "diner", "delivery": "yes", "indoor_seating": "yes", "internet_access": "no", "name": "Pete's Grill", "opening_hours": "Mo-Th, Su 06:00-22:30; Fr, Sa 06:00-23:30", "outdoor_seating": "no", "phone": "+1-718-937-2220", "smoking": "no", "takeaway": "yes", "website": "https://www.petesgrill.com/", "wheelchair": "no"}}, {"type": "node", "id": 11635411753, "lat": 40.7437228, "lon": -73.9209098, "tags": {"addr:housenumber": "43-11", "addr:street": "Queens Boulevard", "amenity": "restaurant", "cuisine": "diner", "name": "Blvd Diner", "opening_hours": "Mo-Su 07:00-23:00", "phone": "+1 718-806-1499", "website": "https://blvd-diner.business.site/"}}, {"type": "node", "id": 11635480733, "lat": 40.7437477, "lon": -73.921173, "tags": {"addr:housenumber": "43-03", "addr:street": "Queens Boulevard", "amenity": "restaurant", "contact:facebook": "Souk-El-Shater-219342458103898", "contact:instagram": "soukelshater", "cuisine": "lebanese", "delivery": "yes", "name": "Souk El-Shater", "opening_hours": "Mo-Su 08:00-19:00", "phone": "+1 718-392-7202", "takeaway": "yes", "website": "https://soukelshater.netwaiter.com/sunnyside/about/"}}, {"type": "node", "id": 11638867277, "lat": 40.743936, "lon": -73.9227847, "tags": {"addr:housenumber": "41-15", "addr:postcode": "11104", "addr:street": "Queens Boulevard", "amenity": "bar", "contact:email": "info@maggiemaesbar.com", "contact:facebook": "maggiemaesny", "contact:instagram": "maggiemaesbar", "contact:twitter": "MaggieMaesBar", "name": "Maggie Mae's Bar", "opening_hours": "Mo-We 16:00-04:00; Th 15:00-04:00; Fr-Su 12:00-04:00", "phone": "+1 718-433-3057", "website": "https://maggiemaesbar.com/"}}, {"type": "node", "id": 11651210924, "lat": 40.7437121, "lon": -73.9208461, "tags": {"addr:housenumber": "43-13", "addr:postcode": "11104", "addr:street": "Queens Boulevard", "amenity": "bar", "contact:email": "Carrie@vortexhospitality.com", "contact:facebook": "idasnearaboutnyc", "contact:instagram": "idasnearabout", "delivery": "yes", "happy_hours": "Mo-Fr 12:00-18:00", "name": "Ida's Nearabout", "opening_hours": "Mo-Fr 12:00-04:00; Sa, Su 11:00-04:00", "outdoor_seating": "yes", "phone": "+1 718-433-1916", "takeaway": "yes", "website": "https://idasnearabout.com/"}}, {"type": "node", "id": 11651290841, "lat": 40.743706, "lon": -73.9207774, "tags": {"addr:housenumber": "43-15", "addr:street": "Queens Boulevard", "amenity": "cafe", "contact:email": "carrie@vortexhospitality.com", "contact:facebook": "brooksidemarketnyc", "contact:instagram": "brooksidemarketnyc", "name": "Brookside Market", "opening_hours": "Mo-Su 07:00-16:00 open \"Cafe\" || Mo-Su 17:00-23:00 open \"Wine Bar\"", "phone": "+1 718-806-1902", "website": "https://brooksidemarketnyc.com/"}}, {"type": "node", "id": 11694597371, "lat": 40.7462555, "lon": -73.9235953}, {"type": "node", "id": 11694597372, "lat": 40.7456472, "lon": -73.923781}, {"type": "node", "id": 11694597373, "lat": 40.7455661, "lon": -73.9230727}, {"type": "way", "id": 143928485, "nodes": [1574922965, 10996845904, 1574922963, 3798081356, 1574922967, 1574922976, 3798081320, 1574922973, 3798081351, 1574922965], "tags": {"ele": "28", "gnis:feature_id": "2352569", "leisure": "park", "name": "Lance Corporal Thomas P Noonan Playground", "opening_hours": "06:00-21:00", "website": "https://www.nycgovparks.org/parks/l-cpl-thomas-p-noonan-jr-playground", "wikidata": "Q34840559"}}, {"type": "way", "id": 495484489, "nodes": [4872271541, 4872271542, 4872271543, 11694597371, 4872271544, 4872271541], "tags": {"leisure": "park", "opening_hours": "07:00-sunset"}}, {"type": "way", "id": 1257907303, "nodes": [4872271541, 11694597372, 11694597373, 4872271542, 4872271541], "tags": {"amenity": "school", "name": "PS 150", "operator": "New York City Department of Education", "operator:short": "NYC Public Schools", "operator:type": "public", "operator:wikidata": "Q408230"}}]}