{"version": 0.6, "generator": "Overpass API 0.7.62.8 e802775f", "osm3s": {"timestamp_osm_base": "2025-12-01T03:55:56Z", "copyright": "The data included in this document is from www.openstreetmap.org. The data is made available under ODbL."}, "elements": [{"type": "node", "id": 42433870, "lat": 40.7652352, "lon": -73.9731528}, {"type": "node", "id": 42453674, "lat": 40.7651788, "lon": -73.9725696}, {"type": "node", "id": 42453676, "lat": 40.7650614, "lon": -73.9726548}, {"type": "node", "id": 357648583, "lat": 40.8017647, "lon": -73.9554286, "tags": {"addr:city": "New York", "addr:housenumber": "240", "addr:postcode": "10026", "addr:state": "NY", "addr:street": "West 113th Street", "amenity": "school", "ele": "12", "gnis:feature_id": "2493087", "name": "Public School M241 STEM Institute of Manhattan", "old_name": "Public School 113 (historical)"}}, {"type": "node", "id": 357650651, "lat": 40.8038041, "lon": -73.9580654}, {"type": "node", "id": 470209692, "lat": 40.8102267, "lon": -73.9571552}, {"type": "node", "id": 470209693, "lat": 40.8107269, "lon": -73.9567834}, {"type": "node", "id": 470209698, "lat": 40.8057661, "lon": -73.9583407}, {"type": "node", "id": 470209699, "lat": 40.8056337, "lon": -73.9584014}, {"type": "node", "id": 470209701, "lat": 40.8032855, "lon": -73.9583658}, {"type": "node", "id": 470209702, "lat": 40.8029858, "lon": -73.9585098}, {"type": "node", "id": 470209703, "lat": 40.8024342, "lon": -73.9588998}, {"type": "node", "id": 470209704, "lat": 40.8013795, "lon": -73.9596736}, {"type": "node", "id": 470209705, "lat": 40.801901, "lon": -73.9608619}, {"type": "node", "id": 470209707, "lat": 40.8055464, "lon": -73.9596014}, {"type": "node", "id": 470209708, "lat": 40.8066982, "lon": -73.9587544}, {"type": "node", "id": 470209710, "lat": 40.8079883, "lon": -73.9578133}, {"type": "node", "id": 470209712, "lat": 40.8080778, "lon": -73.9577508}, {"type": "node", "id": 470209713, "lat": 40.8094515, "lon": -73.9570556}, {"type": "node", "id": 470209714, "lat": 40.8096728, "lon": -73.9569642}, {"type": "node", "id": 470209715, "lat": 40.8097972, "lon": -73.9569523}, {"type": "node", "id": 470209716, "lat": 40.8098545, "lon": -73.9569551}, {"type": "node", "id": 470209717, "lat": 40.8101158, "lon": -73.9570597}, {"type": "node", "id": 1283225217, "lat": 40.7651705, "lon": -73.9732909}, {"type": "node", "id": 1659428983, "lat": 40.7678317, "lon": -73.9810502}, {"type": "node", "id": 1659429013, "lat": 40.7679435, "lon": -73.9812166}, {"type": "node", "id": 1659429064, "lat": 40.7680529, "lon": -73.9811947}, {"type": "node", "id": 1659429078, "lat": 40.7681647, "lon": -73.9812054}, {"type": "node", "id": 1659429162, "lat": 40.7682578, "lon": -73.9812424}, {"type": "node", "id": 1659429202, "lat": 40.7683388, "lon": -73.9812954}, {"type": "node", "id": 1659429228, "lat": 40.7684558, "lon": -73.9814075}, {"type": "node", "id": 1659429258, "lat": 40.7685782, "lon": -73.9812971}, {"type": "node", "id": 1667412535, "lat": 40.8030944, "lon": -73.95657, "tags": {"addr:city": "New York", "addr:housenumber": "300", "addr:postcode": "10026", "addr:state": "NY", "addr:street": "West 114th Street", "amenity": "restaurant", "name": "Melba's", "opening_hours": "Mo-We 11:00-22:00; Th-Su 11:00-23:00", "phone": "+1-212-864-7777", "website": "https://www.melbasrestaurant.com"}}, {"type": "node", "id": 1695379680, "lat": 40.8099058, "lon": -73.9569615}, {"type": "node", "id": 1695379682, "lat": 40.8100598, "lon": -73.9570267}, {"type": "node", "id": 1695379688, "lat": 40.8100142, "lon": -73.9570007}, {"type": "node", "id": 1695379689, "lat": 40.8099629, "lon": -73.9569765}, {"type": "node", "id": 1695379693, "lat": 40.8097375, "lon": -73.9569572}, {"type": "node", "id": 1695379695, "lat": 40.8101822, "lon": -73.9571113}, {"type": "node", "id": 1695379698, "lat": 40.8096128, "lon": -73.9569815}, {"type": "node", "id": 1774036612, "lat": 40.805718, "lon": -73.9583631}, {"type": "node", "id": 1774036796, "lat": 40.8100438, "lon": -73.9570175}, {"type": "node", "id": 1774036882, "lat": 40.8041194, "lon": -73.9583798}, {"type": "node", "id": 1774036957, "lat": 40.808246, "lon": -73.9565216}, {"type": "node", "id": 1774037086, "lat": 40.805671, "lon": -73.9583854}, {"type": "node", "id": 1774037117, "lat": 40.8101571, "lon": -73.9570897}, {"type": "node", "id": 1774037151, "lat": 40.8060571, "lon": -73.9592327}, {"type": "node", "id": 1774037286, "lat": 40.8086671, "lon": -73.9574498}, {"type": "node", "id": 1775693144, "lat": 40.8031791, "lon": -73.9584041}, {"type": "node", "id": 1775693246, "lat": 40.8054745, "lon": -73.9584418}, {"type": "node", "id": 1775693260, "lat": 40.8052358, "lon": -73.9584492}, {"type": "node", "id": 1775693264, "lat": 40.8053765, "lon": -73.9584508}, {"type": "node", "id": 1775693397, "lat": 40.8055248, "lon": -73.9584294}, {"type": "node", "id": 1775693400, "lat": 40.8039261, "lon": -73.9601853}, {"type": "node", "id": 1775693407, "lat": 40.8102884, "lon": -73.9571094}, {"type": "node", "id": 1775693502, "lat": 40.8050531, "lon": -73.9584376}, {"type": "node", "id": 1792502065, "lat": 40.8073584, "lon": -73.9582744}, {"type": "node", "id": 1792502080, "lat": 40.8054643, "lon": -73.9596531}, {"type": "node", "id": 1792502082, "lat": 40.8054295, "lon": -73.9596688}, {"type": "node", "id": 1792502083, "lat": 40.805576, "lon": -73.9584174}, {"type": "node", "id": 1792502089, "lat": 40.8053468, "lon": -73.9597001}, {"type": "node", "id": 1792516991, "lat": 40.8034274, "lon": -73.9603571}, {"type": "node", "id": 1792517000, "lat": 40.8046468, "lon": -73.9599408}, {"type": "node", "id": 1792521264, "lat": 40.8057981, "lon": -73.9583111}, {"type": "node", "id": 1825841723, "lat": 40.7682236, "lon": -73.981225}, {"type": "node", "id": 2091641953, "lat": 40.8010232, "lon": -73.9587555, "tags": {"addr:city": "New York", "addr:housenumber": "301", "addr:postcode": "10026", "addr:state": "NY", "addr:street": "Cathedral Parkway", "amenity": "cafe", "internet_access": "wlan", "name": "Cafe Amrita", "opening_hours": "Mo-Su 08:00-23:00", "phone": "+1-212-222-0683", "website": "https://amritacafe.com"}}, {"type": "node", "id": 2553978278, "lat": 40.7678877, "lon": -73.9811787}, {"type": "node", "id": 2583212035, "lat": 40.8011509, "lon": -73.9617243, "tags": {"addr:city": "New York", "addr:housenumber": "994", "addr:postcode": "10025", "addr:state": "NY", "addr:street": "Columbus Avenue", "amenity": "restaurant", "cuisine": "pizza", "name": "Ortomare Ristorante Pizzeria", "opening_hours": "Tu-Fr 16:00-22:00; Sa-Su 15:00-22:00", "phone": "+1-212-665-2970", "website": "https://ortomare.com/"}}, {"type": "node", "id": 2583212038, "lat": 40.8014541, "lon": -73.9609048, "tags": {"addr:city": "New York", "addr:country": "US", "addr:housenumber": "366", "addr:postcode": "10025", "addr:state": "NY", "addr:street": "West 110th Street", "amenity": "restaurant", "cuisine": "american;southern", "name": "Miss Mamie's Spoonbread Too", "opening_hours": "Mo-Th 12:00-22:00; Fr-Sa 12:00-23:00; Su 11:00-21:30", "phone": "+1-212-865-0700", "takeaway": "yes", "website": "https://spoonbreadinc.com/"}}, {"type": "node", "id": 2710141721, "lat": 40.7691598, "lon": -73.9808882}, {"type": "node", "id": 2710141733, "lat": 40.7692432, "lon": -73.9808308}, {"type": "node", "id": 2761641622, "lat": 40.7994859, "lon": -73.9610681, "tags": {"addr:city": "New York", "addr:housenumber": "153", "addr:postcode": "10025", "addr:state": "NY", "addr:street": "Manhattan Avenue", "amenity": "cafe", "name": "Park Cafe", "outdoor_seating": "no", "phone": "+1-646-370-3773"}}, {"type": "node", "id": 2762466945, "lat": 40.8014098, "lon": -73.9578145, "tags": {"addr:city": "New York", "addr:housenumber": "2049", "addr:postcode": "10026", "addr:state": "NY", "addr:street": "Frederick Douglass Boulevard", "brand": "Coldwell Banker", "brand:wikidata": "Q738853", "name": "Coldwell Banker", "office": "estate_agent", "phone": "+1-718-921-3100", "website": "https://www.coldwellbankerny.com"}}, {"type": "node", "id": 2762470556, "lat": 40.8023112, "lon": -73.9566682, "tags": {"addr:housenumber": "2084", "addr:postcode": "10026", "addr:street": "Frederick Douglass Boulevard", "amenity": "restaurant", "cuisine": "ethiopian", "name": "Lalibela", "phone": "+1-917-409-1609"}}, {"type": "node", "id": 2764205002, "lat": 40.8105134, "lon": -73.9569448}, {"type": "node", "id": 2764229455, "lat": 40.8026272, "lon": -73.9611012}, {"type": "node", "id": 2764229483, "lat": 40.8027019, "lon": -73.9610559}, {"type": "node", "id": 2764229491, "lat": 40.8027138, "lon": -73.9613483}, {"type": "node", "id": 2764229493, "lat": 40.8027216, "lon": -73.961112}, {"type": "node", "id": 2764229514, "lat": 40.8027714, "lon": -73.9612565}, {"type": "node", "id": 2764229522, "lat": 40.8027879, "lon": -73.9613033}, {"type": "node", "id": 2764229541, "lat": 40.8029342, "lon": -73.9609657}, {"type": "node", "id": 2764229542, "lat": 40.8029392, "lon": -73.9609799}, {"type": "node", "id": 2764229546, "lat": 40.8029479, "lon": -73.9609574}, {"type": "node", "id": 2764229547, "lat": 40.8029577, "lon": -73.9611435}, {"type": "node", "id": 2764229554, "lat": 40.8029751, "lon": -73.9611932}, {"type": "node", "id": 2764229560, "lat": 40.8030045, "lon": -73.9611753}, {"type": "node", "id": 2764229563, "lat": 40.8030046, "lon": -73.960923}, {"type": "node", "id": 2764229566, "lat": 40.803018, "lon": -73.9612138}, {"type": "node", "id": 2764229592, "lat": 40.803091, "lon": -73.9611695}, {"type": "node", "id": 2902437013, "lat": 40.7652192, "lon": -73.9730317}, {"type": "node", "id": 3247295581, "lat": 40.8007041, "lon": -73.9583781}, {"type": "node", "id": 3247295582, "lat": 40.8007663, "lon": -73.9582666}, {"type": "node", "id": 3247295583, "lat": 40.8004682, "lon": -73.9579925}, {"type": "node", "id": 3247295584, "lat": 40.8004296, "lon": -73.9580524}, {"type": "node", "id": 3247295585, "lat": 40.8007773, "lon": -73.9581993}, {"type": "node", "id": 3247295586, "lat": 40.8007739, "lon": -73.9581307}, {"type": "node", "id": 3247295587, "lat": 40.8007563, "lon": -73.9580659}, {"type": "node", "id": 3247295588, "lat": 40.800705, "lon": -73.957985}, {"type": "node", "id": 3247295589, "lat": 40.8006557, "lon": -73.9579488}, {"type": "node", "id": 3247295590, "lat": 40.8006005, "lon": -73.9579335}, {"type": "node", "id": 3247295591, "lat": 40.8005444, "lon": -73.9579406}, {"type": "node", "id": 3247295592, "lat": 40.8004072, "lon": -73.9581252}, {"type": "node", "id": 3247295593, "lat": 40.8004032, "lon": -73.9582036}, {"type": "node", "id": 3247295594, "lat": 40.8004179, "lon": -73.9582798}, {"type": "node", "id": 3247295595, "lat": 40.8004499, "lon": -73.958346}, {"type": "node", "id": 3247295596, "lat": 40.8004943, "lon": -73.9583944}, {"type": "node", "id": 3247295597, "lat": 40.8005458, "lon": -73.9584221}, {"type": "node", "id": 3247295598, "lat": 40.8006011, "lon": -73.9584287}, {"type": "node", "id": 3247295599, "lat": 40.8006555, "lon": -73.9584136}, {"type": "node", "id": 3374115188, "lat": 40.7989278, "lon": -73.9616882, "tags": {"addr:city": "New York", "addr:housenumber": "53", "addr:postcode": "10025", "addr:state": "NY", "addr:street": "West 106th Street", "amenity": "restaurant", "cuisine": "italian", "delivery": "no", "name": "Osteria 106", "opening_hours": "Mo-Fr 16:00-23:00; Sa-Su 12:00-23:00", "phone": "+1-646-833-7614", "takeaway": "no", "website": "http://osteria106.com"}}, {"type": "node", "id": 3392519825, "lat": 40.7797018, "lon": -73.9618727}, {"type": "node", "id": 3392519827, "lat": 40.7798051, "lon": -73.9617979}, {"type": "node", "id": 3392519829, "lat": 40.7791667, "lon": -73.9622595}, {"type": "node", "id": 3392519847, "lat": 40.7790627, "lon": -73.9623347}, {"type": "node", "id": 3392519860, "lat": 40.7785304, "lon": -73.9627195}, {"type": "node", "id": 3392519861, "lat": 40.7784331, "lon": -73.9627898}, {"type": "node", "id": 3602661070, "lat": 40.7665973, "lon": -73.9715326}, {"type": "node", "id": 3602661071, "lat": 40.7680224, "lon": -73.9704918}, {"type": "node", "id": 4347535694, "lat": 40.7647683, "lon": -73.9735861}, {"type": "node", "id": 4347550058, "lat": 40.7684879, "lon": -73.9813785}, {"type": "node", "id": 4347550067, "lat": 40.7686118, "lon": -73.9812638}, {"type": "node", "id": 4347550072, "lat": 40.7678954, "lon": -73.9811958}, {"type": "node", "id": 4997760450, "lat": 40.7690783, "lon": -73.9809437}, {"type": "node", "id": 6426473697, "lat": 40.8020768, "lon": -73.956844, "tags": {"addr:city": "New York", "addr:housenumber": "2076", "addr:postcode": "10026", "addr:state": "NY", "addr:street": "Frederick Douglass Boulevard", "amenity": "restaurant", "cuisine": "chinese", "delivery": "no", "name": "Dragon One", "outdoor_seating": "no", "phone": "+1-212-222-2426", "takeaway": "yes", "website": "https://www.dragononeny.com"}}, {"type": "node", "id": 6426473699, "lat": 40.802121, "lon": -73.9572958, "tags": {"addr:city": "New York", "addr:housenumber": "2073", "addr:postcode": "10026", "addr:state": "NY", "addr:street": "Frederick Douglass Boulevard", "name": "Upstairs Downstairs Moving", "office": "moving_company"}}, {"type": "node", "id": 6549322049, "lat": 40.8029397, "lon": -73.956201, "tags": {"addr:city": "New York", "addr:housenumber": "2104", "addr:postcode": "10026", "addr:state": "NY", "addr:street": "Frederick Douglass Boulevard", "amenity": "cafe", "cuisine": "cake;breakfast;coffee_shop", "internet_access": "wlan", "internet_access:fee": "no", "name": "Cafe Frederick", "opening_hours": "Mo-Su 09:00-17:00", "outdoor_seating": "yes", "phone": "+1-212-222-1987"}}, {"type": "node", "id": 6783696411, "lat": 40.8005722, "lon": -73.9579342}, {"type": "node", "id": 6783696417, "lat": 40.8007557, "lon": -73.958298}, {"type": "node", "id": 6783696421, "lat": 40.8004162, "lon": -73.9580876}, {"type": "node", "id": 6783696423, "lat": 40.8004714, "lon": -73.9583733, "tags": {"barrier": "kerb", "kerb": "lowered", "tactile_paving": "yes", "wheelchair": "yes"}}, {"type": "node", "id": 6783696426, "lat": 40.8007668, "lon": -73.9580975}, {"type": "node", "id": 6783696430, "lat": 40.8005192, "lon": -73.9584108}, {"type": "node", "id": 6783696433, "lat": 40.8006285, "lon": -73.9579384}, {"type": "node", "id": 6783696436, "lat": 40.8006287, "lon": -73.9584238}, {"type": "node", "id": 6783696439, "lat": 40.8004471, "lon": -73.9580204}, {"type": "node", "id": 6783696442, "lat": 40.8005732, "lon": -73.9584281}, {"type": "node", "id": 6783696444, "lat": 40.8007774, "lon": -73.9581648}, {"type": "node", "id": 6783696449, "lat": 40.8004082, "lon": -73.9582425}, {"type": "node", "id": 6783696452, "lat": 40.8006814, "lon": -73.9579644}, {"type": "node", "id": 6783696457, "lat": 40.8006808, "lon": -73.9583982}, {"type": "node", "id": 6783696460, "lat": 40.8005175, "lon": -73.9579524}, {"type": "node", "id": 6783696465, "lat": 40.8007736, "lon": -73.9582335}, {"type": "node", "id": 6783696468, "lat": 40.8004028, "lon": -73.9581642}, {"type": "node", "id": 6783696471, "lat": 40.8004319, "lon": -73.9583146}, {"type": "node", "id": 6783696474, "lat": 40.8007426, "lon": -73.9580365}, {"type": "node", "id": 6783696479, "lat": 40.8007418, "lon": -73.9583273}, {"type": "node", "id": 6789372741, "lat": 40.8104349, "lon": -73.9570023}, {"type": "node", "id": 6794329312, "lat": 40.8102081, "lon": -73.957135}, {"type": "node", "id": 6794329313, "lat": 40.8101689, "lon": -73.9570989}, {"type": "node", "id": 6794329314, "lat": 40.8101968, "lon": -73.9571247}, {"type": "node", "id": 6794406099, "lat": 40.7865399, "lon": -73.9682398}, {"type": "node", "id": 6794406110, "lat": 40.7774861, "lon": -73.9748348}, {"type": "node", "id": 6815909899, "lat": 40.802966, "lon": -73.9611672, "tags": {"addr:housenumber": "28", "addr:street": "Morningside Drive", "entrance": "yes"}}, {"type": "node", "id": 6821846216, "lat": 40.8037761, "lon": -73.9581186}, {"type": "node", "id": 6821846217, "lat": 40.8037234, "lon": -73.9578861}, {"type": "node", "id": 6821846218, "lat": 40.8037967, "lon": -73.9581004}, {"type": "node", "id": 6821846219, "lat": 40.8037059, "lon": -73.9578804}, {"type": "node", "id": 6821846220, "lat": 40.803305, "lon": -73.9581863}, {"type": "node", "id": 6821846221, "lat": 40.8037379, "lon": -73.9579138}, {"type": "node", "id": 6821846222, "lat": 40.8036909, "lon": -73.9578873}, {"type": "node", "id": 6821846223, "lat": 40.8033492, "lon": -73.9581784}, {"type": "node", "id": 6821846227, "lat": 40.8037591, "lon": -73.9581208}, {"type": "node", "id": 6821846228, "lat": 40.8037269, "lon": -73.9578907}, {"type": "node", "id": 6821846229, "lat": 40.8033036, "lon": -73.9581725}, {"type": "node", "id": 6821846231, "lat": 40.8037908, "lon": -73.9581099}, {"type": "node", "id": 6821846232, "lat": 40.8038034, "lon": -73.9580761}, {"type": "node", "id": 6821846233, "lat": 40.8037107, "lon": -73.9578807}, {"type": "node", "id": 6821846234, "lat": 40.8033016, "lon": -73.958183}, {"type": "node", "id": 6821846235, "lat": 40.8036968, "lon": -73.9578831}, {"type": "node", "id": 6821846236, "lat": 40.8033255, "lon": -73.9581845}, {"type": "node", "id": 6821846241, "lat": 40.8037303, "lon": -73.9578962}, {"type": "node", "id": 6821846243, "lat": 40.8037832, "lon": -73.9581161}, {"type": "node", "id": 6821846244, "lat": 40.8037196, "lon": -73.9578836}, {"type": "node", "id": 6821846245, "lat": 40.8037168, "lon": -73.958127}, {"type": "node", "id": 6821846247, "lat": 40.8038005, "lon": -73.9580897}, {"type": "node", "id": 6821846248, "lat": 40.8037156, "lon": -73.9578816}, {"type": "node", "id": 6821846249, "lat": 40.8033008, "lon": -73.9581776}, {"type": "node", "id": 6821846250, "lat": 40.8038021, "lon": -73.9580566}, {"type": "node", "id": 6821846251, "lat": 40.8037013, "lon": -73.9578812}, {"type": "node", "id": 6821846252, "lat": 40.8033118, "lon": -73.958187}, {"type": "node", "id": 6821846254, "lat": 40.8034245, "lon": -73.9580792}, {"type": "node", "id": 6821846255, "lat": 40.8033962, "lon": -73.9581697}, {"type": "node", "id": 6838446016, "lat": 40.7682979, "lon": -73.9812666}, {"type": "node", "id": 6838446017, "lat": 40.7680759, "lon": -73.9811958}, {"type": "node", "id": 6838446021, "lat": 40.7680234, "lon": -73.9811958}, {"type": "node", "id": 6991124627, "lat": 40.7982164, "lon": -73.9527043}, {"type": "node", "id": 6991124628, "lat": 40.7840726, "lon": -73.9700242}, {"type": "node", "id": 6991124629, "lat": 40.7684005, "lon": -73.9813532}, {"type": "node", "id": 6991124630, "lat": 40.7968361, "lon": -73.9498019}, {"type": "node", "id": 6991124631, "lat": 40.7717669, "lon": -73.9789928}, {"type": "node", "id": 6991124632, "lat": 40.7760769, "lon": -73.9758687}, {"type": "node", "id": 6991124633, "lat": 40.7923871, "lon": -73.9639878}, {"type": "node", "id": 6991124634, "lat": 40.7999135, "lon": -73.9584444}, {"type": "node", "id": 6991124635, "lat": 40.796969, "lon": -73.9497623}, {"type": "node", "id": 6991124636, "lat": 40.7794669, "lon": -73.9734015}, {"type": "node", "id": 6991124637, "lat": 40.8002443, "lon": -73.9579135}, {"type": "node", "id": 6991124638, "lat": 40.7994129, "lon": -73.9588184}, {"type": "node", "id": 6991124639, "lat": 40.799237, "lon": -73.955126}, {"type": "node", "id": 6991124640, "lat": 40.783752, "lon": -73.9702619}, {"type": "node", "id": 6991124641, "lat": 40.7968656, "lon": -73.9497938}, {"type": "node", "id": 6991124643, "lat": 40.7762343, "lon": -73.9757406}, {"type": "node", "id": 6991124644, "lat": 40.7942007, "lon": -73.9626287}, {"type": "node", "id": 6991124645, "lat": 40.8001744, "lon": -73.9582454}, {"type": "node", "id": 6991124646, "lat": 40.7967264, "lon": -73.9497688}, {"type": "node", "id": 6991124648, "lat": 40.8002612, "lon": -73.9578609}, {"type": "node", "id": 6991124649, "lat": 40.7995306, "lon": -73.9587263}, {"type": "node", "id": 6991124650, "lat": 40.7699787, "lon": -73.9803189}, {"type": "node", "id": 6991124651, "lat": 40.8002923, "lon": -73.9576536}, {"type": "node", "id": 6991124652, "lat": 40.7845135, "lon": -73.9697076}, {"type": "node", "id": 6991124653, "lat": 40.7679925, "lon": -73.9812024}, {"type": "node", "id": 6991124654, "lat": 40.7968924, "lon": -73.9497839}, {"type": "node", "id": 6991124656, "lat": 40.795929, "lon": -73.9613682}, {"type": "node", "id": 6991124657, "lat": 40.8001889, "lon": -73.9582116}, {"type": "node", "id": 6991124658, "lat": 40.7967123, "lon": -73.9497575}, {"type": "node", "id": 6991124659, "lat": 40.7804911, "lon": -73.9726547}, {"type": "node", "id": 6991124660, "lat": 40.8002711, "lon": -73.9578357}, {"type": "node", "id": 6991124661, "lat": 40.8001649, "lon": -73.9582594}, {"type": "node", "id": 6991124662, "lat": 40.8002035, "lon": -73.9581067}, {"type": "node", "id": 6991124663, "lat": 40.784584, "lon": -73.969659}, {"type": "node", "id": 6991124664, "lat": 40.7681234, "lon": -73.9811983}, {"type": "node", "id": 6991124665, "lat": 40.7969178, "lon": -73.9497731}, {"type": "node", "id": 6991124666, "lat": 40.7755038, "lon": -73.9762831}, {"type": "node", "id": 6991124667, "lat": 40.7959607, "lon": -73.9613456}, {"type": "node", "id": 6991124668, "lat": 40.8001932, "lon": -73.9581901}, {"type": "node", "id": 6991124669, "lat": 40.7969775, "lon": -73.9497673}, {"type": "node", "id": 6991124671, "lat": 40.8002816, "lon": -73.9578121}, {"type": "node", "id": 6991124672, "lat": 40.8001812, "lon": -73.9582322}, {"type": "node", "id": 6991124673, "lat": 40.7900902, "lon": -73.965651}, {"type": "node", "id": 6991124674, "lat": 40.7851403, "lon": -73.9692564}, {"type": "node", "id": 6991124676, "lat": 40.7967913, "lon": -73.9498014}, {"type": "node", "id": 6991124677, "lat": 40.7742872, "lon": -73.9771742}, {"type": "node", "id": 6991124678, "lat": 40.8001916, "lon": -73.9582004}, {"type": "node", "id": 6991124679, "lat": 40.7978697, "lon": -73.9599617}, {"type": "node", "id": 6991124680, "lat": 40.8001953, "lon": -73.9581702}, {"type": "node", "id": 6991124681, "lat": 40.7969865, "lon": -73.9497883}, {"type": "node", "id": 6991124682, "lat": 40.7806502, "lon": -73.9725365}, {"type": "node", "id": 6991124683, "lat": 40.8003117, "lon": -73.9577424}, {"type": "node", "id": 6991124684, "lat": 40.8001852, "lon": -73.9582225}, {"type": "node", "id": 6991136385, "lat": 40.7706802, "lon": -73.9797918}, {"type": "node", "id": 6991136386, "lat": 40.7878736, "lon": -73.9672728}, {"type": "node", "id": 6991136387, "lat": 40.7853303, "lon": -73.969113}, {"type": "node", "id": 6991136389, "lat": 40.7974831, "lon": -73.9509739}, {"type": "node", "id": 6991136390, "lat": 40.7784888, "lon": -73.9741143}, {"type": "node", "id": 6991136391, "lat": 40.8003048, "lon": -73.9576827}, {"type": "node", "id": 6991136392, "lat": 40.8001996, "lon": -73.958139}, {"type": "node", "id": 6991136393, "lat": 40.79751, "lon": -73.9510383}, {"type": "node", "id": 6991136394, "lat": 40.781843, "lon": -73.9716566}, {"type": "node", "id": 6991136395, "lat": 40.8003107, "lon": -73.9577049}, {"type": "node", "id": 6991136397, "lat": 40.7707071, "lon": -73.9797693}, {"type": "node", "id": 6991136398, "lat": 40.7877836, "lon": -73.9673372}, {"type": "node", "id": 6991136400, "lat": 40.7971833, "lon": -73.9502608}, {"type": "node", "id": 6991136402, "lat": 40.8003135, "lon": -73.9577265}, {"type": "node", "id": 6991136403, "lat": 40.7981253, "lon": -73.959776}, {"type": "node", "id": 6991136404, "lat": 40.8002065, "lon": -73.9580742}, {"type": "node", "id": 6991136407, "lat": 40.7995974, "lon": -73.9559873}, {"type": "node", "id": 6991136408, "lat": 40.8003077, "lon": -73.9577602}, {"type": "node", "id": 6991136409, "lat": 40.7714634, "lon": -73.9792112}, {"type": "node", "id": 6991136410, "lat": 40.7729298, "lon": -73.9781445}, {"type": "node", "id": 6991136411, "lat": 40.7915356, "lon": -73.9646045}, {"type": "node", "id": 6991136413, "lat": 40.7969378, "lon": -73.9497626}, {"type": "node", "id": 6991136415, "lat": 40.8002523, "lon": -73.9578853}, {"type": "node", "id": 6991136416, "lat": 40.7991133, "lon": -73.9590607}, {"type": "node", "id": 6991136417, "lat": 40.7980661, "lon": -73.952353}, {"type": "node", "id": 6991136418, "lat": 40.7821005, "lon": -73.9714695}, {"type": "node", "id": 6991136419, "lat": 40.7994309, "lon": -73.9555925}, {"type": "node", "id": 6991136421, "lat": 40.7716807, "lon": -73.9790604}, {"type": "node", "id": 6991136422, "lat": 40.7742602, "lon": -73.9771962}, {"type": "node", "id": 6991136423, "lat": 40.7916521, "lon": -73.9645157}, {"type": "node", "id": 6991136424, "lat": 40.7894415, "lon": -73.9661212}, {"type": "node", "id": 6991136425, "lat": 40.7969467, "lon": -73.9497591}, {"type": "node", "id": 6991136426, "lat": 40.7790432, "lon": -73.973712}, {"type": "node", "id": 6991136427, "lat": 40.8002352, "lon": -73.9579531}, {"type": "node", "id": 6991136428, "lat": 40.7992085, "lon": -73.9589862}, {"type": "node", "id": 6991136430, "lat": 40.7834445, "lon": -73.9704966}, {"type": "node", "id": 6991136432, "lat": 40.772256, "lon": -73.9786494}, {"type": "node", "id": 6991136433, "lat": 40.7730567, "lon": -73.9780733}, {"type": "node", "id": 6991136435, "lat": 40.7992931, "lon": -73.9589165}, {"type": "node", "id": 6991136436, "lat": 40.7969586, "lon": -73.9497571}, {"type": "node", "id": 6991136437, "lat": 40.7793708, "lon": -73.9734706}, {"type": "node", "id": 6991136438, "lat": 40.8002111, "lon": -73.958039}, {"type": "node", "id": 6991136439, "lat": 40.7992378, "lon": -73.9589604}, {"type": "node", "id": 6991400307, "lat": 40.777239, "lon": -73.9637321}, {"type": "node", "id": 6991400308, "lat": 40.7843102, "lon": -73.9586307}, {"type": "node", "id": 6991400309, "lat": 40.7949343, "lon": -73.9508105}, {"type": "node", "id": 6991400312, "lat": 40.7950221, "lon": -73.9507494}, {"type": "node", "id": 6991400313, "lat": 40.7917411, "lon": -73.9531393}, {"type": "node", "id": 6991400314, "lat": 40.7686749, "lon": -73.9699764}, {"type": "node", "id": 6991400315, "lat": 40.7962602, "lon": -73.9498487}, {"type": "node", "id": 6991400316, "lat": 40.7965935, "lon": -73.9496061}, {"type": "node", "id": 6991400317, "lat": 40.7937493, "lon": -73.9516863}, {"type": "node", "id": 6991400319, "lat": 40.7746546, "lon": -73.9656177}, {"type": "node", "id": 6991400322, "lat": 40.7966288, "lon": -73.9496299}, {"type": "node", "id": 6991400323, "lat": 40.7943243, "lon": -73.9512675}, {"type": "node", "id": 6991400324, "lat": 40.7804146, "lon": -73.961481}, {"type": "node", "id": 6991400326, "lat": 40.770653, "lon": -73.968529}, {"type": "node", "id": 6991400329, "lat": 40.7966549, "lon": -73.9496802}, {"type": "node", "id": 6991400334, "lat": 40.7656121, "lon": -73.9722517}, {"type": "node", "id": 6991400337, "lat": 40.7966959, "lon": -73.9497422}, {"type": "node", "id": 6991400339, "lat": 40.7929767, "lon": -73.9522388}, {"type": "node", "id": 6991400342, "lat": 40.768135, "lon": -73.9704097}, {"type": "node", "id": 6991400344, "lat": 40.78096, "lon": -73.9610479}, {"type": "node", "id": 6991400345, "lat": 40.7888635, "lon": -73.9552971}, {"type": "node", "id": 6991400346, "lat": 40.7687628, "lon": -73.9699119}, {"type": "node", "id": 6991400348, "lat": 40.7961426, "lon": -73.9499364}, {"type": "node", "id": 6991400350, "lat": 40.7935351, "lon": -73.9518348}, {"type": "node", "id": 6991400355, "lat": 40.7966161, "lon": -73.9496189}, {"type": "node", "id": 6991400360, "lat": 40.7966473, "lon": -73.9496618}, {"type": "node", "id": 6991400366, "lat": 40.7966815, "lon": -73.9497244}, {"type": "node", "id": 6991400367, "lat": 40.7857067, "lon": -73.9575733}, {"type": "node", "id": 6991400368, "lat": 40.7912074, "lon": -73.9535256}, {"type": "node", "id": 6991400370, "lat": 40.7775416, "lon": -73.9635111}, {"type": "node", "id": 6991400371, "lat": 40.7674883, "lon": -73.9708816}, {"type": "node", "id": 6991400374, "lat": 40.7886997, "lon": -73.9554172}, {"type": "node", "id": 6991400375, "lat": 40.7775944, "lon": -73.9634737}, {"type": "node", "id": 6991400378, "lat": 40.7956392, "lon": -73.9503032}, {"type": "node", "id": 6991400379, "lat": 40.7839459, "lon": -73.9588854}, {"type": "node", "id": 6991400380, "lat": 40.7918681, "lon": -73.9530523}, {"type": "node", "id": 6991400383, "lat": 40.7965179, "lon": -73.9496631}, {"type": "node", "id": 6991400384, "lat": 40.796606, "lon": -73.9496116}, {"type": "node", "id": 6991414887, "lat": 40.7738129, "lon": -73.9662265}, {"type": "node", "id": 6991414890, "lat": 40.7966385, "lon": -73.9496411}, {"type": "node", "id": 6991414892, "lat": 40.7808832, "lon": -73.9611242}, {"type": "node", "id": 6991414894, "lat": 40.776801, "lon": -73.9640526}, {"type": "node", "id": 6991414897, "lat": 40.7966668, "lon": -73.9497027}, {"type": "node", "id": 6991414898, "lat": 40.788053, "lon": -73.9558772}, {"type": "node", "id": 6991414900, "lat": 40.7776896, "lon": -73.9634089}, {"type": "node", "id": 6991414901, "lat": 40.7673907, "lon": -73.970953}, {"type": "node", "id": 6993051353, "lat": 40.8092982, "lon": -73.957133}, {"type": "node", "id": 6993051356, "lat": 40.8093884, "lon": -73.9570873}, {"type": "node", "id": 6993998788, "lat": 40.8080259, "lon": -73.9577884}, {"type": "node", "id": 6993998789, "lat": 40.8089725, "lon": -73.9572952}, {"type": "node", "id": 6993998790, "lat": 40.8101411, "lon": -73.9570781}, {"type": "node", "id": 6993998792, "lat": 40.8067478, "lon": -73.9587185}, {"type": "node", "id": 6993998793, "lat": 40.8073145, "lon": -73.958307}, {"type": "node", "id": 6993998797, "lat": 40.8073423, "lon": -73.9582863}, {"type": "node", "id": 6993998798, "lat": 40.808005, "lon": -73.9578019}, {"type": "node", "id": 6993998799, "lat": 40.8086865, "lon": -73.9574395}, {"type": "node", "id": 6993998803, "lat": 40.8066868, "lon": -73.9587626}, {"type": "node", "id": 6993998806, "lat": 40.8087098, "lon": -73.9574276}, {"type": "node", "id": 6993998808, "lat": 40.8096066, "lon": -73.9569844}, {"type": "node", "id": 6993998812, "lat": 40.806767, "lon": -73.9587046}, {"type": "node", "id": 6993998813, "lat": 40.8086471, "lon": -73.9574605}, {"type": "node", "id": 6993998816, "lat": 40.8061285, "lon": -73.9591818}, {"type": "node", "id": 6993998824, "lat": 40.8079689, "lon": -73.957827}, {"type": "node", "id": 6993998835, "lat": 40.8073967, "lon": -73.9582458, "tags": {"amenity": "bench", "backrest": "yes"}}, {"type": "node", "id": 6993998837, "lat": 40.8100854, "lon": -73.9570418}, {"type": "node", "id": 6993998839, "lat": 40.8067128, "lon": -73.9587438}, {"type": "node", "id": 6993998843, "lat": 40.8073778, "lon": -73.9582605, "tags": {"amenity": "waste_basket"}}, {"type": "node", "id": 6993998845, "lat": 40.8086288, "lon": -73.9574699}, {"type": "node", "id": 6993998847, "lat": 40.8100302, "lon": -73.9570098}, {"type": "node", "id": 6993998852, "lat": 40.8079438, "lon": -73.9578447}, {"type": "node", "id": 6997797871, "lat": 40.8053664, "lon": -73.9596936}, {"type": "node", "id": 6997797873, "lat": 40.8039488, "lon": -73.9601792}, {"type": "node", "id": 6997797874, "lat": 40.8059846, "lon": -73.9592847}, {"type": "node", "id": 6997797875, "lat": 40.8034581, "lon": -73.960346}, {"type": "node", "id": 6997797876, "lat": 40.8019287, "lon": -73.9608607}, {"type": "node", "id": 6997797883, "lat": 40.8046205, "lon": -73.9599503}, {"type": "node", "id": 6997797884, "lat": 40.8038873, "lon": -73.9601998}, {"type": "node", "id": 6997846285, "lat": 40.8033994, "lon": -73.9603663}, {"type": "node", "id": 6997846289, "lat": 40.8053405, "lon": -73.9597021}, {"type": "node", "id": 6997846291, "lat": 40.805409, "lon": -73.959678}, {"type": "node", "id": 6997846295, "lat": 40.8055134, "lon": -73.959625}, {"type": "node", "id": 6997846299, "lat": 40.8046651, "lon": -73.9599339}, {"type": "node", "id": 7001614543, "lat": 40.8050658, "lon": -73.9598002}, {"type": "node", "id": 7001614559, "lat": 40.8054912, "lon": -73.9596393}, {"type": "node", "id": 7001614564, "lat": 40.8020356, "lon": -73.960839}, {"type": "node", "id": 7001614572, "lat": 40.8022592, "lon": -73.9607615}, {"type": "node", "id": 7001614579, "lat": 40.8026514, "lon": -73.9606246}, {"type": "node", "id": 7001614584, "lat": 40.8028686, "lon": -73.9605517}, {"type": "node", "id": 7001633291, "lat": 40.8030721, "lon": -73.9604828}, {"type": "node", "id": 7001633298, "lat": 40.8051308, "lon": -73.9597783}, {"type": "node", "id": 7004380293, "lat": 40.8068372, "lon": -73.9586583, "tags": {"amenity": "bench", "backrest": "yes"}}, {"type": "node", "id": 7004380296, "lat": 40.8069794, "lon": -73.9585552, "tags": {"amenity": "bench", "backrest": "yes"}}, {"type": "node", "id": 7004380297, "lat": 40.8070794, "lon": -73.9584859, "tags": {"amenity": "bench", "backrest": "yes"}}, {"type": "node", "id": 7004380299, "lat": 40.8072047, "lon": -73.9583906, "tags": {"amenity": "bench", "backrest": "yes"}}, {"type": "node", "id": 7004380300, "lat": 40.8072803, "lon": -73.958333, "tags": {"amenity": "bench", "backrest": "yes"}}, {"type": "node", "id": 7004380302, "lat": 40.8072398, "lon": -73.9583638, "tags": {"amenity": "bench", "backrest": "yes"}}, {"type": "node", "id": 7004380303, "lat": 40.8070361, "lon": -73.9585153, "tags": {"amenity": "bench", "backrest": "yes"}}, {"type": "node", "id": 7004401544, "lat": 40.8074779, "lon": -73.9581841, "tags": {"amenity": "bench", "backrest": "yes"}}, {"type": "node", "id": 7004410678, "lat": 40.8077676, "lon": -73.9579755, "tags": {"amenity": "bench", "backrest": "yes"}}, {"type": "node", "id": 7004410679, "lat": 40.8076868, "lon": -73.9580331, "tags": {"amenity": "bench", "backrest": "yes"}}, {"type": "node", "id": 7004410680, "lat": 40.8076176, "lon": -73.958083, "tags": {"amenity": "bench", "backrest": "yes"}}, {"type": "node", "id": 7004410681, "lat": 40.8075498, "lon": -73.9581295, "tags": {"amenity": "bench", "backrest": "yes"}}, {"type": "node", "id": 7006954131, "lat": 40.802564, "lon": -73.9606551}, {"type": "node", "id": 7006954134, "lat": 40.8024943, "lon": -73.9606794}, {"type": "node", "id": 7006954138, "lat": 40.8032742, "lon": -73.9604101}, {"type": "node", "id": 7006954141, "lat": 40.8032516, "lon": -73.960417}, {"type": "node", "id": 7006954142, "lat": 40.8031838, "lon": -73.9604412}, {"type": "node", "id": 7006954143, "lat": 40.802538, "lon": -73.9606642}, {"type": "node", "id": 7006954145, "lat": 40.803213, "lon": -73.9604306}, {"type": "node", "id": 7006954147, "lat": 40.8024663, "lon": -73.9606892}, {"type": "node", "id": 7009051880, "lat": 40.810245, "lon": -73.9556461}, {"type": "node", "id": 7009051881, "lat": 40.8103987, "lon": -73.9560115}, {"type": "node", "id": 7009051882, "lat": 40.8100678, "lon": -73.95528}, {"type": "node", "id": 7009094487, "lat": 40.8100977, "lon": -73.9552908}, {"type": "node", "id": 7009094488, "lat": 40.8100142, "lon": -73.9552644}, {"type": "node", "id": 7009094493, "lat": 40.8102299, "lon": -73.9556098}, {"type": "node", "id": 7009094494, "lat": 40.8099919, "lon": -73.955257}, {"type": "node", "id": 7009094495, "lat": 40.8104183, "lon": -73.9560585}, {"type": "node", "id": 7011518005, "lat": 40.8058297, "lon": -73.9582927}, {"type": "node", "id": 7011518006, "lat": 40.8070547, "lon": -73.9573875}, {"type": "node", "id": 7011518009, "lat": 40.8065359, "lon": -73.9577688}, {"type": "node", "id": 7011518011, "lat": 40.8082198, "lon": -73.9565313}, {"type": "node", "id": 7011518016, "lat": 40.8082668, "lon": -73.9564979}, {"type": "node", "id": 7011518019, "lat": 40.8065616, "lon": -73.95775}, {"type": "node", "id": 7011518022, "lat": 40.8070272, "lon": -73.9574078}, {"type": "node", "id": 7087041475, "lat": 40.8031301, "lon": -73.9584262}, {"type": "node", "id": 7093980560, "lat": 40.7803339, "lon": -73.9615543}, {"type": "node", "id": 7093980567, "lat": 40.781666, "lon": -73.9605506}, {"type": "node", "id": 7104620799, "lat": 40.7798279, "lon": -73.973142}, {"type": "node", "id": 7120586338, "lat": 40.7854255, "lon": -73.9690437}, {"type": "node", "id": 7125399099, "lat": 40.8022415, "lon": -73.9567108, "tags": {"amenity": "bar", "name": "67 Orange Street"}}, {"type": "node", "id": 7146903295, "lat": 40.7820679, "lon": -73.9714884}, {"type": "node", "id": 7146903298, "lat": 40.7851954, "lon": -73.9692206}, {"type": "node", "id": 7372610414, "lat": 40.8027105, "lon": -73.9610805, "tags": {"access": "no", "entrance": "yes"}}, {"type": "node", "id": 7785624616, "lat": 40.7777161, "lon": -73.9633886}, {"type": "node", "id": 7785624620, "lat": 40.7775657, "lon": -73.963494}, {"type": "node", "id": 7785624629, "lat": 40.7776951, "lon": -73.9633211}, {"type": "node", "id": 7785624644, "lat": 40.7776925, "lon": -73.9633258}, {"type": "node", "id": 7785624660, "lat": 40.7776932, "lon": -73.963339}, {"type": "node", "id": 7785624681, "lat": 40.7776914, "lon": -73.9633312}, {"type": "node", "id": 7830757189, "lat": 40.7679176, "lon": -73.9812094}, {"type": "node", "id": 7830757207, "lat": 40.765304, "lon": -73.9724768}, {"type": "node", "id": 8032579495, "lat": 40.7802617, "lon": -73.961464}, {"type": "node", "id": 8039941085, "lat": 40.7779237, "lon": -73.9631581}, {"type": "node", "id": 9418170698, "lat": 40.7684638, "lon": -73.9814003}, {"type": "node", "id": 9459150758, "lat": 40.8009324, "lon": -73.9613874, "tags": {"addr:city": "New York", "addr:housenumber": "993", "addr:postcode": "10025", "addr:state": "NY", "addr:street": "Columbus Avenue", "amenity": "restaurant", "cuisine": "caribbean", "name": "Freda's Caribbean and Soul Cuisine", "phone": "+1-917-409-3689"}}, {"type": "node", "id": 9793773981, "lat": 40.8011698, "lon": -73.961203, "tags": {"addr:city": "New York", "addr:housenumber": "999", "addr:postcode": "10025", "addr:state": "NY", "addr:street": "Columbus Avenue", "amenity": "restaurant", "cuisine": "mexican", "name": "Homemade Taqueria", "phone": "+1-212-419-3866", "website": "https://www.homemadetaqueria.com/"}}, {"type": "node", "id": 11040513632, "lat": 40.8028363, "lon": -73.9562879, "tags": {"addr:city": "New York", "addr:housenumber": "2100", "addr:postcode": "10026", "addr:state": "NY", "addr:street": "Frederick Douglass Blvd", "amenity": "restaurant", "delivery": "no", "diet:vegan": "yes", "name": "Vegan Hood", "opening_hours": "Su 11:30-20:00; Mo-Th 11:30-22:00; Fr, Sa 11:30-23:00", "phone": "+1-917-265-8172", "takeaway": "only", "website": "https://veganhood.net/"}}, {"type": "node", "id": 11359481056, "lat": 40.7647438, "lon": -73.9737496}, {"type": "node", "id": 11359481057, "lat": 40.7647331, "lon": -73.9737148, "tags": {"barrier": "kerb", "kerb": "lowered", "tactile_paving": "no", "wheelchair": "yes"}}, {"type": "node", "id": 11359481058, "lat": 40.7647275, "lon": -73.9736854}, {"type": "node", "id": 11359481059, "lat": 40.7647308, "lon": -73.9736453, "tags": {"barrier": "kerb", "kerb": "raised", "tactile_paving": "no", "wheelchair": "no"}}, {"type": "node", "id": 11359481060, "lat": 40.7647396, "lon": -73.9736203}, {"type": "node", "id": 11359481061, "lat": 40.7647514, "lon": -73.9735999}, {"type": "node", "id": 11359481062, "lat": 40.7658542, "lon": -73.9763836}, {"type": "node", "id": 11359481063, "lat": 40.7670323, "lon": -73.9791766}, {"type": "node", "id": 11359524187, "lat": 40.7651992, "lon": -73.9732538}, {"type": "node", "id": 11359524188, "lat": 40.765227, "lon": -73.9731998}, {"type": "node", "id": 11359524189, "lat": 40.7652342, "lon": -73.9731074}, {"type": "node", "id": 11359524190, "lat": 40.7652302, "lon": -73.9730738}, {"type": "node", "id": 11359524459, "lat": 40.7652163, "lon": -73.9732245, "tags": {"barrier": "kerb", "kerb": "flush", "tactile_paving": "no", "wheelchair": "yes"}}, {"type": "node", "id": 11427056758, "lat": 40.7968272, "lon": -73.9607174}, {"type": "node", "id": 11427056759, "lat": 40.7967535, "lon": -73.9607377}, {"type": "node", "id": 11427056760, "lat": 40.7968165, "lon": -73.9606922}, {"type": "node", "id": 11427056761, "lat": 40.7967641, "lon": -73.9607632}, {"type": "node", "id": 11517456127, "lat": 40.8012634, "lon": -73.9593439, "tags": {"addr:city": "New York", "addr:housenumber": "321", "addr:postcode": "10026", "addr:state": "NY", "addr:street": "Cathedral Parkway", "amenity": "cafe", "name": "Mom's Food Market", "opening_hours": "24/7", "phone": "+1-646-964-4527", "website": "https://www.momsfoodmarket.getsauce.com"}}, {"type": "node", "id": 11517472730, "lat": 40.8008299, "lon": -73.9575911, "tags": {"addr:city": "New York", "addr:housenumber": "285", "addr:postcode": "10026", "addr:state": "NY", "addr:street": "West 110th Street", "amenity": "cafe", "name": "Purple Waves", "phone": "+1-212-927-1101"}}, {"type": "node", "id": 11517472731, "lat": 40.8011005, "lon": -73.9580441, "tags": {"addr:city": "New York", "addr:housenumber": "301", "addr:postcode": "10026", "addr:state": "NY", "addr:street": "Cathedral Parkway", "brand": "State Farm", "brand:wikidata": "Q2007336", "name": "State Farm", "office": "insurance", "opening_hours": "Mo-Fr 09:00-17:00", "phone": "+1-212-665-2657", "website": "https://lburchettagency.com"}}, {"type": "node", "id": 11538724479, "lat": 40.8013869, "lon": -73.9615545, "tags": {"addr:city": "New York", "addr:housenumber": "998", "addr:postcode": "10025", "addr:state": "NY", "addr:street": "Columbus Avenue", "amenity": "restaurant", "cuisine": "sushi", "name": "Kikoo Sushi", "opening_hours": "Mo 15:00-22:00; We-Su 15:00-22:00", "phone": "+1-212-533-2211", "website": "https://www.kikoowest.com"}}, {"type": "node", "id": 11545491005, "lat": 40.798879, "lon": -73.9615675, "tags": {"addr:city": "New York", "addr:housenumber": "51", "addr:postcode": "10025", "addr:state": "NY", "addr:street": "West 106th Street", "amenity": "cafe", "name": "MACC Deli", "phone": "+1-646-756-4299"}}, {"type": "node", "id": 11722131073, "lat": 40.800952, "lon": -73.9611972, "tags": {"addr:city": "New York", "addr:housenumber": "72", "addr:postcode": "10025", "addr:state": "NY", "addr:street": "West 109th Street", "amenity": "taxi", "name": "Special Radio Dispatch", "office": "taxi", "phone": "+1-212-666-3939", "website": "https://www.specialcarlimo.com"}}, {"type": "node", "id": 11768136078, "lat": 40.8023366, "lon": -73.9589895}, {"type": "node", "id": 11768136089, "lat": 40.8025514, "lon": -73.9588213}, {"type": "node", "id": 11768136092, "lat": 40.803103, "lon": -73.9584371}, {"type": "node", "id": 11768136095, "lat": 40.8030669, "lon": -73.9584531}, {"type": "node", "id": 11768136096, "lat": 40.8034386, "lon": -73.9583415}, {"type": "node", "id": 11768136097, "lat": 40.8035747, "lon": -73.9583419}, {"type": "node", "id": 11768136101, "lat": 40.8039274, "lon": -73.9583664}, {"type": "node", "id": 11768136102, "lat": 40.8040776, "lon": -73.9583769}, {"type": "node", "id": 11915701205, "lat": 40.8018792, "lon": -73.9607978}, {"type": "node", "id": 11915701206, "lat": 40.8018503, "lon": -73.960799}, {"type": "node", "id": 11915701210, "lat": 40.8019538, "lon": -73.9608607}, {"type": "node", "id": 11971220970, "lat": 40.8055545, "lon": -73.9584224}, {"type": "node", "id": 11971220971, "lat": 40.8042487, "lon": -73.958388}, {"type": "node", "id": 11971220972, "lat": 40.8041735, "lon": -73.9583832}, {"type": "node", "id": 11971220973, "lat": 40.8041624, "lon": -73.9583825}, {"type": "node", "id": 11971220978, "lat": 40.8054281, "lon": -73.9584482}, {"type": "node", "id": 11986237926, "lat": 40.8061326, "lon": -73.9591787}, {"type": "node", "id": 11993380598, "lat": 40.8056401, "lon": -73.9583987}, {"type": "node", "id": 12014383329, "lat": 40.8019513, "lon": -73.9569308, "tags": {"addr:city": "New York", "addr:housenumber": "2072", "addr:postcode": "10026", "addr:state": "NY", "addr:street": "Frederick Douglass Boulevard", "amenity": "restaurant", "cuisine": "sushi", "name": "Dragon Sushi", "website": "https://www.dragonsushi8ave.com"}}, {"type": "node", "id": 12015891760, "lat": 40.800725, "lon": -73.9583536, "tags": {"barrier": "kerb", "kerb": "lowered", "tactile_paving": "yes", "wheelchair": "yes"}}, {"type": "node", "id": 12016010893, "lat": 40.8004873, "lon": -73.9579742, "tags": {"barrier": "kerb", "kerb": "lowered", "tactile_paving": "yes", "wheelchair": "yes"}}, {"type": "node", "id": 12036720755, "lat": 40.8027452, "lon": -73.9568209, "tags": {"amenity": "restaurant", "name": "Cantina Taqueria", "outdoor_seating": "yes", "phone": "+1-646-928-0133"}}, {"type": "node", "id": 12036804275, "lat": 40.8007344, "lon": -73.9580202, "tags": {"barrier": "kerb", "kerb": "lowered", "tactile_paving": "yes", "wheelchair": "yes"}}, {"type": "node", "id": 12346955500, "lat": 40.7841556, "lon": -73.9587388, "tags": {"barrier": "entrance", "name": "Engineers' Gate"}}, {"type": "node", "id": 12347042901, "lat": 40.7917798, "lon": -73.9531128, "tags": {"barrier": "entrance", "name": "Girls' Gate"}}, {"type": "node", "id": 12402813221, "lat": 40.8003369, "lon": -73.9549778, "tags": {"addr:housenumber": "1838", "addr:street": "Adam Clayton Powell Jr. Boulevard", "air_conditioning": "yes", "amenity": "restaurant", "bar": "yes", "check_date": "2024-12-07", "contact:facebook": "https://www.facebook.com/Alke-Coffee-Bar-61555646916038/", "contact:instagram": "https://www.instagram.com/alkecafe", "delivery": "yes", "email": "contact@AlkeCafe.co", "name": "Alke Caf\u00e9", "opening_hours": "Mo,Th 15:00-24:30; Tu 15:00-22:00; We 15:00-23:00; Fr-Sa 15:00-01:30; Su 09:00-22:00", "payment:cash": "yes", "payment:contactless": "yes", "payment:credit_cards": "yes", "payment:debit_cards": "yes", "phone": "+1 646-360-3920", "smoking": "no", "takeaway": "yes", "toilets": "yes", "website": "https://www.alkecafe.co/"}}, {"type": "node", "id": 12857802432, "lat": 40.7650993, "lon": -73.9726265}, {"type": "way", "id": 39243853, "nodes": [470209692, 1775693407, 6789372741, 2764205002, 470209693, 7009094495, 7009051881, 7009051880, 7009094493, 7009094487, 7009051882, 7009094488, 7009094494, 7011518016, 1774036957, 7011518011, 7011518006, 7011518022, 7011518019, 7011518009, 7011518005, 1792521264, 470209698, 1774036612, 1774037086, 11993380598, 470209699, 1792502083, 11971220970, 1775693397, 1775693246, 11971220978, 1775693264, 1775693260, 1775693502, 11971220971, 11971220972, 11971220973, 1774036882, 11768136102, 11768136101, 11768136097, 11768136096, 470209701, 1775693144, 7087041475, 11768136092, 11768136095, 470209702, 11768136089, 470209703, 11768136078, 470209704, 11915701206, 11915701205, 470209705, 6997797876, 11915701210, 7001614564, 7001614572, 7006954147, 7006954134, 7006954143, 7006954131, 7001614579, 7001614584, 7001633291, 7006954142, 7006954145, 7006954141, 7006954138, 6997846285, 1792516991, 6997797875, 6997797884, 1775693400, 6997797873, 6997797883, 1792517000, 6997846299, 7001614543, 7001633298, 6997846289, 1792502089, 6997797871, 6997846291, 1792502082, 1792502080, 7001614559, 6997846295, 470209707, 6997797874, 1774037151, 6993998816, 11986237926, 6993998803, 470209708, 6993998839, 6993998792, 6993998812, 7004380293, 7004380296, 7004380303, 7004380297, 7004380299, 7004380302, 7004380300, 6993998793, 6993998797, 1792502065, 6993998843, 6993998835, 7004401544, 7004410681, 7004410680, 7004410679, 7004410678, 6993998852, 6993998824, 470209710, 6993998798, 6993998788, 470209712, 6993998845, 6993998813, 1774037286, 6993998799, 6993998806, 6993998789, 6993051353, 6993051356, 470209713, 6993998808, 1695379698, 470209714, 1695379693, 470209715, 470209716, 1695379680, 1695379689, 1695379688, 6993998847, 1774036796, 1695379682, 6993998837, 470209717, 6993998790, 1774037117, 6794329313, 1695379695, 6794329314, 6794329312, 470209692], "tags": {"gnis:feature_id": "957684", "leisure": "park", "name": "Morningside Park", "operator": "New York City Department of Parks and Recreation", "operator:short": "NYC Parks", "operator:type": "government", "operator:wikidata": "Q1894232", "wikidata": "Q6913001", "wikipedia": "en:Morningside Park (Manhattan)"}}, {"type": "way", "id": 271461234, "nodes": [2764229541, 2764229542, 2764229493, 7372610414, 2764229483, 2764229455, 2764229491, 2764229522, 2764229514, 2764229547, 6815909899, 2764229554, 2764229560, 2764229566, 2764229592, 2764229563, 2764229546, 2764229541], "tags": {"addr:street": "Morningside Drive", "amenity": "school", "building": "yes", "height": "20.6", "name": "The Cathedral School", "nycdoitt:bin": "1086190"}}, {"type": "way", "id": 318328998, "nodes": [3247295592, 6783696468, 3247295593, 6783696449, 3247295594, 6783696471, 3247295595, 6783696423, 3247295596, 6783696430, 3247295597, 6783696442, 3247295598, 6783696436, 3247295599, 6783696457, 3247295581, 12015891760, 6783696479, 6783696417, 3247295582, 6783696465, 3247295585, 6783696444, 3247295586, 6783696426, 3247295587, 6783696474, 12036804275, 3247295588, 6783696452, 3247295589, 6783696433, 3247295590, 6783696411, 3247295591, 6783696460, 12016010893, 3247295583, 6783696439, 3247295584, 6783696421, 3247295592], "tags": {"access": "yes", "addr:city": "New York", "addr:postcode": "10026", "addr:state": "NY", "addr:street": "Frederick Douglass Circle", "leisure": "park", "name": "Frederick Douglass Circle", "operator": "Central Park Conservancy", "operator:type": "private_non_profit", "start_date": "2010", "website": "https://www.centralparknyc.org/locations/frederick-douglass", "wikidata": "Q5497668", "wikipedia": "en:Frederick Douglass Circle"}}, {"type": "way", "id": 427818536, "nodes": [6991136395, 6991136391, 6991124651, 6991136407, 6991136419, 6991124639, 6991124627, 6991136417, 6991136393, 6991136389, 6991136400, 6991124681, 6991124669, 6991124635, 6991136436, 6991136425, 6991136413, 6991124665, 6991124654, 6991124641, 6991124630, 6991124676, 6991124646, 6991124658, 6991400337, 6991400366, 6991414897, 6991400329, 6991400360, 6991414890, 6991400322, 6991400355, 6991400384, 6991400316, 6991400383, 6991400315, 6991400348, 6991400378, 6991400312, 6991400309, 6991400323, 6991400317, 6991400350, 6991400339, 6991400380, 12347042901, 6991400313, 6991400368, 6991400345, 6991400374, 6991414898, 6991400367, 6991400308, 12346955500, 6991400379, 7093980567, 6991400344, 6991414892, 6991400324, 7093980560, 8032579495, 3392519827, 3392519825, 3392519829, 3392519847, 3392519860, 3392519861, 8039941085, 7785624629, 7785624644, 7785624681, 7785624660, 7785624616, 6991414900, 6991400375, 7785624620, 6991400370, 6991400307, 6991414894, 6991400319, 6991414887, 6991400326, 6991400346, 6991400314, 6991400342, 3602661071, 6991400371, 6991414901, 3602661070, 6991400334, 7830757207, 42453674, 12857802432, 42453676, 2902437013, 11359524190, 11359524189, 42433870, 11359524188, 11359524459, 11359524187, 1283225217, 4347535694, 11359481061, 11359481060, 11359481059, 11359481058, 11359481057, 11359481056, 11359481062, 11359481063, 1659428983, 2553978278, 4347550072, 7830757189, 1659429013, 6991124653, 6838446021, 1659429064, 6838446017, 6991124664, 1659429078, 1825841723, 1659429162, 6838446016, 1659429202, 6991124629, 1659429228, 9418170698, 4347550058, 1659429258, 4347550067, 4997760450, 2710141721, 2710141733, 6991124650, 6991136385, 6991136397, 6991136409, 6991136421, 6991124631, 6991136432, 6991136410, 6991136433, 6991136422, 6991124677, 6991124666, 6991124632, 6991124643, 6794406110, 6991136390, 6991136426, 6991136437, 6991124636, 7104620799, 6991124659, 6991124682, 6991136394, 7146903295, 6991136418, 6991136430, 6991124640, 6991124628, 6991124652, 6991124663, 6991124674, 7146903298, 6991136387, 7120586338, 6794406099, 6991136398, 6991136386, 6991136424, 6991124673, 6991136411, 6991136423, 6991124633, 6991124644, 6991124656, 6991124667, 11427056761, 11427056759, 11427056760, 11427056758, 6991124679, 6991136403, 6991136416, 6991136428, 6991136439, 6991136435, 6991124638, 6991124649, 6991124634, 6991124661, 6991124645, 6991124672, 6991124684, 6991124657, 6991124678, 6991124668, 6991124680, 6991136392, 6991124662, 6991136404, 6991136438, 6991136427, 6991124637, 6991136415, 6991124648, 6991124660, 6991124671, 6991136408, 6991124683, 6991136402, 6991136395], "tags": {"access": "yes", "addr:city": "New York", "addr:state": "NY", "architect": "Frederick Law Olmsted;Calvert Vaux", "check_date": "2025-05-06", "check_date:opening_hours": "2021-05-01", "contact:facebook": "https://www.facebook.com/CentralParkNYC/", "contact:instagram": "https://www.instagram.com/centralparknyc/", "contact:pinterest": "https://www.pinterest.com/centralparknyc", "contact:tiktok": "https://www.tiktok.com/@centralparknyc", "contact:twitter": "https://twitter.com/centralparknyc/", "contact:youtube": "https://www.youtube.com/user/CentralParkChannel", "dog": "leashed", "heritage": "2", "heritage:operator": "nrhp", "heritage:website": "https://www.nps.gov/subjects/nationalregister/index.htm", "leisure": "park", "name": "Central Park", "name:be": "\u0426\u044d\u043d\u0442\u0440\u0430\u043b\u044c\u043d\u044b \u043f\u0430\u0440\u043a", "name:el": "\u039a\u03b5\u03bd\u03c4\u03c1\u03b9\u03ba\u03cc \u03c0\u03ac\u03c1\u03ba\u03bf", "name:en": "Central Park", "name:fa": "\u067e\u0627\u0631\u06a9 \u0645\u0631\u06a9\u0632\u06cc", "name:he": "\u05e1\u05e0\u05d8\u05e8\u05dc \u05e4\u05d0\u05e8\u05e7", "name:hi": "\u0938\u0947\u0902\u091f\u094d\u0930\u0932 \u092a\u093e\u0930\u094d\u0915", "name:ja": "\u4e2d\u592e\u516c\u5712", "name:kn": "\u0cb8\u0cc6\u0c82\u0c9f\u0ccd\u0cb0\u0cb2\u0ccd \u0caa\u0cbe\u0cb0\u0ccd\u0c95\u0ccd", "name:ko": "\uc13c\ud2b8\ub7f4 \ud30c\ud06c", "name:lt": "Centrinis parkas", "name:ru": "\u0426\u0435\u043d\u0442\u0440\u0430\u043b\u044c\u043d\u044b\u0439 \u043f\u0430\u0440\u043a", "name:sr": "\u0426\u0435\u043d\u0442\u0440\u0430\u043b \u043f\u0430\u0440\u043a", "name:sr-Latn": "Central park", "name:tr": "Central Park", "name:vi": "C\u00f4ng vi\u00ean Trung t\u00e2m", "name:zh": "\u4e2d\u592e\u516c\u56ed", "nrhp:inscription_date": "1966-10-15", "nrhp:nhl": "yes", "nrhp:nhl:inscription_date": "1963-05-23", "opening_hours": "06:00-01:00", "operator": "Central Park Conservancy", "operator:type": "ngo", "owner": "New York City Department of Parks and Recreation", "owner:short": "NYC Parks", "owner:wikidata": "Q1894232", "ref:nrhp": "66000538", "smoking": "no", "start_date": "1858", "website": "https://www.centralparknyc.org", "wikidata": "Q160409", "wikipedia": "en:Central Park"}}, {"type": "way", "id": 727964618, "nodes": [6821846249, 6821846229, 6821846254, 6821846222, 6821846235, 6821846251, 6821846219, 6821846233, 6821846248, 6821846244, 6821846217, 6821846228, 6821846241, 6821846221, 6821846250, 357650651, 6821846232, 6821846247, 6821846218, 6821846231, 6821846243, 6821846216, 6821846227, 6821846245, 6821846255, 6821846223, 6821846236, 6821846252, 6821846220, 6821846234, 6821846249], "tags": {"addr:housenumber": "335", "addr:street": "Manhattan Avenue", "ele": "12", "gnis:feature_id": "2500834", "leisure": "park", "name": "Lafayette Square", "website": "https://www.nycgovparks.org/parks/lafayette-square/highlights/7727"}}]}