{"version": 0.6, "generator": "Overpass API 0.7.62.8 e802775f", "osm3s": {"timestamp_osm_base": "2025-12-01T15:59:15Z", "copyright": "The data included in this document is from www.openstreetmap.org. The data is made available under ODbL."}, "elements": [{"type": "node", "id": 42433870, "lat": 40.7652352, "lon": -73.9731528}, {"type": "node", "id": 42453674, "lat": 40.7651788, "lon": -73.9725696}, {"type": "node", "id": 42453676, "lat": 40.7650614, "lon": -73.9726548}, {"type": "node", "id": 357580780, "lat": 40.7634348, "lon": -73.9795833, "tags": {"amenity": "school", "ele": "20", "gnis:feature_id": "961811", "name": "Public School 69"}}, {"type": "node", "id": 1251382353, "lat": 40.7647477, "lon": -73.9727939}, {"type": "node", "id": 1251382374, "lat": 40.7648503, "lon": -73.9727658}, {"type": "node", "id": 1251382409, "lat": 40.7649517, "lon": -73.9728052}, {"type": "node", "id": 1251382425, "lat": 40.76489, "lon": -73.972772}, {"type": "node", "id": 1251382430, "lat": 40.7649224, "lon": -73.9727858}, {"type": "node", "id": 1251382431, "lat": 40.7649373, "lon": -73.9732794}, {"type": "node", "id": 1251382462, "lat": 40.7650186, "lon": -73.9728934}, {"type": "node", "id": 1251382467, "lat": 40.7649762, "lon": -73.9732419}, {"type": "node", "id": 1251382511, "lat": 40.7650438, "lon": -73.9730882}, {"type": "node", "id": 1251382540, "lat": 40.7650461, "lon": -73.9729978}, {"type": "node", "id": 1283225217, "lat": 40.7651705, "lon": -73.9732909}, {"type": "node", "id": 1383954690, "lat": 40.7649496, "lon": -73.979109, "tags": {"amenity": "cafe", "brand": "Starbucks", "brand:wikidata": "Q37158", "check_date": "2011-08-03", "cuisine": "coffee_shop", "diet:vegan": "yes", "drink:soy_milk": "yes", "name": "Starbucks", "official_name": "Starbucks Coffee", "takeaway": "yes"}}, {"type": "node", "id": 1383955419, "lat": 40.7653848, "lon": -73.980359, "tags": {"addr:city": "New York", "addr:housenumber": "200", "addr:postcode": "10019", "addr:street": "West 57th Street", "amenity": "restaurant", "check_date": "2025-04-10", "cuisine": "sandwich; pizza", "name": "USA Brooklyn Delicatessen", "opening_hours": "Mo-Su 07:00-20:00"}}, {"type": "node", "id": 1383955759, "lat": 40.765737, "lon": -73.9801162, "tags": {"addr:city": "New York", "addr:housenumber": "205", "addr:postcode": "10019", "addr:state": "NY", "addr:street": "West 57th Street", "amenity": "restaurant", "check_date": "2025-05-30", "cuisine": "burger;sandwich;coffee_shop;ice_cream;american;pancake", "diet:gluten_free": "yes", "diet:vegan": "yes", "diet:vegetarian": "yes", "email": "Hello@CarnegieDiner.com", "internet_access": "wlan", "internet_access:fee": "customers", "level": "0", "name": "Carnegie Diner & Cafe", "opening_hours": "Su-Th 07:00-00:00; Fr-Sa 07:00-01:00", "payment:cash": "yes", "payment:credit_cards": "yes", "payment:debit_cards": "yes", "phone": "+1-212-664-1001", "website": "https://www.carnegiediner.com/location/carnegie-diner-central-park/"}}, {"type": "node", "id": 1383956543, "lat": 40.7656073, "lon": -73.9808744, "tags": {"addr:city": "New York", "addr:housenumber": "212", "addr:postcode": "10019", "addr:state": "NY", "addr:street": "West 57th Street", "amenity": "restaurant", "branch": "57th Street", "check_date": "2025-05-30", "cuisine": "diner", "delivery": "yes", "name": "Brooklyn Diner", "opening_hours": "Mo 07:30-23:00; Tu-Fr 07:30-24:00; Sa 07:00-24:00; Su 07:00-23:00", "phone": "+1 212-977-1957", "reservation": "yes", "takeaway": "yes", "website": "https://www.brooklyndiner.com/location/brooklyn-diner-57st/", "wheelchair": "no"}}, {"type": "node", "id": 1487569052, "lat": 40.7640653, "lon": -73.9782577, "tags": {"addr:housenumber": "119", "addr:street": "56th Street", "amenity": "restaurant", "cuisine": "burger", "name": "Le Parker Meridien Burger"}}, {"type": "node", "id": 1497326724, "lat": 40.7650339, "lon": -73.9793005, "tags": {"addr:city": "New York", "addr:housenumber": "150", "addr:postcode": "10019", "addr:street": "West 57th Street", "amenity": "restaurant", "cuisine": "russian", "name": "Russian Tea Room", "start_date": "1927", "website": "https://russiantearoomnyc.com/", "wikidata": "Q1814591", "wikipedia": "en:Russian Tea Room"}}, {"type": "node", "id": 1659428983, "lat": 40.7678317, "lon": -73.9810502}, {"type": "node", "id": 1659429013, "lat": 40.7679435, "lon": -73.9812166}, {"type": "node", "id": 1659429064, "lat": 40.7680529, "lon": -73.9811947}, {"type": "node", "id": 1659429078, "lat": 40.7681647, "lon": -73.9812054}, {"type": "node", "id": 1659429162, "lat": 40.7682578, "lon": -73.9812424}, {"type": "node", "id": 1659429202, "lat": 40.7683388, "lon": -73.9812954}, {"type": "node", "id": 1659429228, "lat": 40.7684558, "lon": -73.9814075}, {"type": "node", "id": 1659429258, "lat": 40.7685782, "lon": -73.9812971}, {"type": "node", "id": 1745856010, "lat": 40.7608045, "lon": -73.9786747}, {"type": "node", "id": 1745856081, "lat": 40.7614232, "lon": -73.9782277}, {"type": "node", "id": 1825841723, "lat": 40.7682236, "lon": -73.981225}, {"type": "node", "id": 2553978278, "lat": 40.7678877, "lon": -73.9811787}, {"type": "node", "id": 2629277997, "lat": 40.7636753, "lon": -73.9773838, "tags": {"addr:city": "New York", "addr:country": "US", "addr:housenumber": "1380", "addr:postcode": "10019", "addr:state": "NY", "addr:street": "6th Avenue", "amenity": "cafe", "branch": "56th & Sixth", "brand": "Starbucks", "brand:wikidata": "Q37158", "cuisine": "coffee_shop", "internet_access": "wlan", "internet_access:fee": "no", "name": "Starbucks", "official_name": "Starbucks Coffee", "opening_hours": "Mo-Th 05:30-23:00; Fr 05:30-24:00; Sa 06:00-24:00; Su 06:00-23:00", "phone": "+1 212-977-1382", "takeaway": "yes", "website": "https://www.starbucks.com/store-locator/store/14568/56th-sixth-1380-sixth-avenue-new-york-ny-100193907-us"}}, {"type": "node", "id": 2708083610, "lat": 40.7647657, "lon": -73.9766475, "tags": {"addr:city": "New York", "addr:housenumber": "1414", "addr:postcode": "10019", "addr:state": "NY", "addr:street": "Avenue Of The Americas", "amenity": "restaurant", "is_in": "1 Hotel Central Park", "name": "Jams"}}, {"type": "node", "id": 2708095649, "lat": 40.7616016, "lon": -73.9751953, "tags": {"addr:housenumber": "700", "addr:postcode": "10019", "addr:street": "5th Avenue", "amenity": "bar", "name": "Salon de Ning"}}, {"type": "node", "id": 2708095967, "lat": 40.7623925, "lon": -73.9755255}, {"type": "node", "id": 2708095986, "lat": 40.7624583, "lon": -73.975682}, {"type": "node", "id": 2708095989, "lat": 40.7624749, "lon": -73.9754656}, {"type": "node", "id": 2708095993, "lat": 40.7625855, "lon": -73.9753843}, {"type": "node", "id": 2708096023, "lat": 40.7625999, "lon": -73.9754213}, {"type": "node", "id": 2708096032, "lat": 40.7626507, "lon": -73.9755421}, {"type": "node", "id": 2708133479, "lat": 40.7636288, "lon": -73.9791548, "tags": {"addr:housenumber": "125", "addr:postcode": "10019", "addr:street": "West 55th Street", "amenity": "restaurant", "name": "Estiatorio Milos", "name:en": "Milos", "website": "https://www.estiatoriomilos.com/restaurant/new-york-midtown/"}}, {"type": "node", "id": 2708133494, "lat": 40.7632094, "lon": -73.9782428, "tags": {"addr:housenumber": "1361", "addr:postcode": "10019", "addr:street": "6th Avenue", "amenity": "restaurant", "cuisine": "greek;diner", "delivery": "yes", "email": "astrorestaurnant@yahoo.com", "facebook": "astrorestaurantnyc", "instagram": "astrorestaurant_nyc", "name": "Astro Restaurant", "opening_hours": "Tu-Sa 06:00-22:30; Su, Mo 06:00-21:30; Jan 1 07:00-22:30; Dec 24 06:00-20:00; Dec 25 06:00-21:30; Dec 31 06:00-20:00", "opening_hours:covid19": "07:00-21:00", "phone": "+1 212-489-6284", "start_date": "1980", "takeaway": "yes", "website": "https://astrorestaurant.com"}}, {"type": "node", "id": 2708133540, "lat": 40.7635051, "lon": -73.9809828, "tags": {"addr:city": "New York", "addr:housenumber": "159", "addr:postcode": "10019", "addr:state": "NY", "addr:street": "West 54th Street", "amenity": "bar", "brewery": "Lagunitas;Goose_Island;Bell's;Brooklyn_Lager", "cocktails": "yes", "cuisine": "salad;sandwich", "drink:beer": "yes", "drink:liquor": "yes", "drink:wine": "yes", "happy_hours": "yes", "name": "Faces and Names", "opening_hours": "Mo-Sa 11:00-04:00, Sa 12:00-04:00", "operator": "Faces and Names", "phone": "+1-212-586-9311", "reservation": "yes", "toilets": "yes", "wheelchair": "no"}}, {"type": "node", "id": 2708133546, "lat": 40.7646369, "lon": -73.9802846, "tags": {"addr:housenumber": "162", "addr:postcode": "10019", "addr:street": "West 56th Street", "amenity": "restaurant", "cuisine": "greek", "name": "Soulvlakigr"}}, {"type": "node", "id": 2710141721, "lat": 40.7691598, "lon": -73.9808882}, {"type": "node", "id": 2710141733, "lat": 40.7692432, "lon": -73.9808308}, {"type": "node", "id": 2716011967, "lat": 40.7613571, "lon": -73.9744256, "tags": {"addr:housenumber": "2", "addr:postcode": "10022", "addr:street": "East 55th Street", "amenity": "bar", "name": "King Cole Bar", "wikidata": "Q6411344"}}, {"type": "node", "id": 2727176211, "lat": 40.7642327, "lon": -73.9807509, "tags": {"addr:housenumber": "461", "addr:postcode": "10019", "addr:street": "7th Avenue", "amenity": "restaurant", "cuisine": "american", "drink:beer": "served", "drink:wine": "served", "email": "parkcafe@wellingtonhotel.com", "name": "Park Caf\u00e9", "opening_hours": "Mo-Fr, Su 06:00-02:00", "phone": "+1 212-315-4567", "website": "https://www.wellingtonhotel.com/dining/", "wheelchair": "limited"}}, {"type": "node", "id": 2727176217, "lat": 40.7650918, "lon": -73.9805946, "tags": {"addr:city": "New York", "addr:housenumber": "890", "addr:postcode": "10019", "addr:state": "NY", "addr:street": "7th Avenue", "air_conditioning": "yes", "amenity": "restaurant", "bar": "yes", "check_date": "2025-04-10", "cuisine": "seafood", "name": "Redeye Grill", "opening_hours": "Fr-Sa 12:00-23:00; Su-Th 12:00-22:00", "phone": "+1-212-541-9000", "website": "https://www.redeyegrill.com/", "website:menu": "https://www.redeyegrill.com/redeye-grill-menu/", "wheelchair": "no"}}, {"type": "node", "id": 2902437013, "lat": 40.7652192, "lon": -73.9730317}, {"type": "node", "id": 2958284620, "lat": 40.7632835, "lon": -73.9810028, "tags": {"addr:city": "New York", "addr:housenumber": "160", "addr:postcode": "10019", "addr:street": "West 54th Street", "amenity": "pub", "name": "Old Castle", "website": "http://www.oldcastlepub.com/"}}, {"type": "node", "id": 3054623864, "lat": 40.761316, "lon": -73.977408, "tags": {"name": "Cesar Pelli Architect", "office": "architect"}}, {"type": "node", "id": 3079037402, "lat": 40.7625321, "lon": -73.9772542, "tags": {"addr:city": "New York", "addr:housenumber": "60", "addr:postcode": "10019", "addr:state": "NY", "addr:street": "West 55th Street", "amenity": "restaurant", "cuisine": "french", "name": "Benoit", "website": "https://benoitny.com/"}}, {"type": "node", "id": 3079037403, "lat": 40.7626071, "lon": -73.9775243, "tags": {"addr:city": "New York", "addr:housenumber": "1350", "addr:postcode": "10019", "addr:state": "NY", "addr:street": "6th Avenue", "amenity": "restaurant", "cuisine": "italian", "name": "Bice", "website": "https://www.bicecucina.com/"}}, {"type": "node", "id": 3079037404, "lat": 40.7628066, "lon": -73.9773732, "tags": {"addr:city": "New York", "addr:housenumber": "65", "addr:postcode": "10019", "addr:street": "West 55th Street", "amenity": "pub", "name": "Cassidy\u2019s"}}, {"type": "node", "id": 3079037405, "lat": 40.762485, "lon": -73.9771512, "tags": {"addr:city": "New York", "addr:housenumber": "54", "addr:postcode": "10019", "addr:street": "West 55th Street", "amenity": "restaurant", "cuisine": "italian", "name": "Il Corso", "website": "https://www.ilcorsorestaurant.com/"}}, {"type": "node", "id": 3079054057, "lat": 40.7628723, "lon": -73.9775236, "tags": {"addr:city": "New York", "addr:housenumber": "71", "addr:postcode": "10019", "addr:state": "NY", "addr:street": "West 55th Street", "amenity": "pub", "name": "Whiskey Trader", "website": "https://whiskeytradernyc.com/"}}, {"type": "node", "id": 3079068320, "lat": 40.7620862, "lon": -73.9775771, "tags": {"addr:city": "New York", "addr:housenumber": "43", "addr:postcode": "10019", "addr:state": "NY", "addr:street": "West 54th Street", "amenity": "pub", "name": "Connolly's", "website": "https://www.connollyspubandrestaurant.com/"}}, {"type": "node", "id": 3232923482, "lat": 40.7638701, "lon": -73.9765096, "tags": {"addr:city": "New York", "addr:housenumber": "50", "addr:postcode": "10019", "addr:street": "West 57th Street", "amenity": "restaurant", "cuisine": "italian", "name": "Mangia", "website": "http://mangiatogo.com/"}}, {"type": "node", "id": 3392519825, "lat": 40.7797018, "lon": -73.9618727}, {"type": "node", "id": 3392519827, "lat": 40.7798051, "lon": -73.9617979}, {"type": "node", "id": 3392519829, "lat": 40.7791667, "lon": -73.9622595}, {"type": "node", "id": 3392519847, "lat": 40.7790627, "lon": -73.9623347}, {"type": "node", "id": 3392519860, "lat": 40.7785304, "lon": -73.9627195}, {"type": "node", "id": 3392519861, "lat": 40.7784331, "lon": -73.9627898}, {"type": "node", "id": 3480352395, "lat": 40.7646902, "lon": -73.9796633, "tags": {"amenity": "cafe", "name": "Blue Dog"}}, {"type": "node", "id": 3602661070, "lat": 40.7665973, "lon": -73.9715326}, {"type": "node", "id": 3602661071, "lat": 40.7680224, "lon": -73.9704918}, {"type": "node", "id": 3792489700, "lat": 40.764814, "lon": -73.9759888, "tags": {"addr:housenumber": "41", "addr:postcode": "10019", "addr:street": "West 58th Street", "amenity": "cafe", "cuisine": "coffee_shop", "name": "Sip + Co.", "opening_hours": "Mo-Fr 07:00-18:00; Sa-Su 08:00-18:00", "outdoor_seating": "yes", "phone": "+1-917-388-3757", "website": "https://www.sipandco.co"}}, {"type": "node", "id": 3976005755, "lat": 40.7607445, "lon": -73.978532}, {"type": "node", "id": 3976008162, "lat": 40.7613592, "lon": -73.9780752}, {"type": "node", "id": 4085364218, "lat": 40.7633124, "lon": -73.9772025, "tags": {"addr:city": "New York", "addr:housenumber": "62", "addr:postcode": "10019", "addr:state": "NY", "addr:street": "West 56th Street", "amenity": "restaurant", "check_date": "2025-09-24", "cuisine": "sushi;asian", "delivery": "yes", "diet:kosher": "yes", "diet:vegan": "yes", "diet:vegetarian": "yes", "level": "0", "name": "Beyond Sushi", "opening_hours": "Mo-Su 11:30-21:30", "phone": "+1 646-964-5097", "takeaway": "yes", "website": "https://beyondsushi.com/", "website:menu": "https://beyondsushi.com/menu/", "wheelchair": "yes", "wikidata": "Q136352419"}}, {"type": "node", "id": 4316376191, "lat": 40.7627204, "lon": -73.9759478, "tags": {"addr:city": "New York", "addr:housenumber": "24", "addr:postcode": "10019", "addr:street": "West 56th Street", "amenity": "restaurant", "name": "Red Peony", "website": "https://www.redpeonyorder.com/"}}, {"type": "node", "id": 4347535694, "lat": 40.7647683, "lon": -73.9735861}, {"type": "node", "id": 4347550058, "lat": 40.7684879, "lon": -73.9813785}, {"type": "node", "id": 4347550067, "lat": 40.7686118, "lon": -73.9812638}, {"type": "node", "id": 4347550072, "lat": 40.7678954, "lon": -73.9811958}, {"type": "node", "id": 4451316633, "lat": 40.7656533, "lon": -73.9768757, "tags": {"addr:city": "New York", "addr:housenumber": "106", "addr:postcode": "10019", "addr:state": "NY", "addr:street": "Central Park South", "email": "terre@simpsonassociates.com", "name": "Simpson Associates", "office": "yes", "owner": "Terre Simpson", "phone": "+1 212-767-0006", "website": "http://simpsonassociates.com"}}, {"type": "node", "id": 4470028190, "lat": 40.7624058, "lon": -73.9769664, "tags": {"amenity": "restaurant", "cuisine": "french", "name": "La Bonne Soupe", "website": "https://labonnenyc.com/"}}, {"type": "node", "id": 4562952595, "lat": 40.7641941, "lon": -73.9764545, "tags": {"addr:housenumber": "41", "addr:postcode": "10019", "addr:street": "West 57th Street", "amenity": "restaurant", "name": "Betony"}}, {"type": "node", "id": 4585519689, "lat": 40.7632437, "lon": -73.9771564, "tags": {"addr:postcode": "10019", "amenity": "restaurant", "cuisine": "japanese;asian;noodle", "level": "0", "name": "Menkui Teu", "opening_hours": "Mo-Fr 11:30-23:00; Sa-Su 11:30-21:00", "phone": "+1-212-757-1642", "website": "http://www.menkuitei.com"}}, {"type": "node", "id": 4686173789, "lat": 40.7619597, "lon": -73.9772624, "tags": {"amenity": "restaurant", "cuisine": "italian", "name": "Mozzarella & Vino", "opening_hours": "Mo-Su 11:30-22:00", "phone": "+1-646-629-8849", "website": "http://www.mozzarellaevino.com"}}, {"type": "node", "id": 4995849478, "lat": 40.7623579, "lon": -73.9739804, "tags": {"amenity": "bar", "check_date": "2022-12-17", "name": "Trump Bar"}}, {"type": "node", "id": 4995849479, "lat": 40.7623774, "lon": -73.9739888, "tags": {"addr:city": "New York", "addr:housenumber": "725", "addr:postcode": "10022", "addr:state": "NY", "addr:street": "5th Avenue", "amenity": "restaurant", "level": "-1", "name": "Trump Grill", "phone": "+12128363249", "website": "http://www.trumpgrill.com/"}}, {"type": "node", "id": 4995849481, "lat": 40.7624366, "lon": -73.9739908, "tags": {"addr:city": "New York", "addr:housenumber": "600", "addr:postcode": "10022", "addr:state": "NY", "addr:street": "Madison Avenue", "amenity": "cafe", "branch": "58th Btwn Madison & Fifth", "brand": "Starbucks", "brand:wikidata": "Q37158", "check_date": "2017-07-27", "cuisine": "coffee_shop", "level": "2", "name": "Starbucks", "official_name": "Starbucks Coffee", "phone": "+1 212-759-1569", "ref": "90579", "takeaway": "yes", "website": "https://www.starbucks.com/store-locator/store/90579/58th-btwn-madison-fifth-600-madison-avenue-new-york-ny-100221615-us"}}, {"type": "node", "id": 4997760450, "lat": 40.7690783, "lon": -73.9809437}, {"type": "node", "id": 5398699799, "lat": 40.761318, "lon": -73.9744256, "tags": {"addr:city": "New York", "addr:housenumber": "2", "addr:postcode": "10022", "addr:state": "NY", "addr:street": "East 55th Street", "amenity": "restaurant", "cuisine": "international;fine_dining", "delivery": "no", "name": "Astor Court", "phone": "+1-212-339-6857", "smoking": "no", "website": "http://www.stregisnewyork.com/astor-court-nyc"}}, {"type": "node", "id": 5433333127, "lat": 40.7652199, "lon": -73.9755591, "tags": {"addr:housenumber": "40", "addr:postcode": "10019", "addr:street": "Central Park South", "amenity": "restaurant", "branch": "Central Park South", "cuisine": "american", "delivery": "yes", "name": "Sarabeth's", "opening_hours": "Mo-Sa 08:00-23:00; Su 08:00-22:00", "phone": "+1 212-826-5959", "reservation": "yes", "website": "https://sarabethsrestaurants.com/central-park-south/"}}, {"type": "node", "id": 5762488554, "lat": 40.7646319, "lon": -73.9785599, "tags": {"addr:housenumber": "124", "addr:postcode": "10019", "amenity": "bar", "name": "The Roof", "opening_hours": "Mo-Su 15:00-04:00", "phone": "+12127078008", "website": "https://www.theroofny.com/"}}, {"type": "node", "id": 5960471088, "lat": 40.76314, "lon": -73.976775, "tags": {"amenity": "restaurant", "name": "Sushiya"}}, {"type": "node", "id": 6201492297, "lat": 40.7627635, "lon": -73.9779699, "tags": {"addr:city": "New York", "addr:housenumber": "1350", "addr:postcode": "10019", "addr:state": "NY", "addr:street": "6th Avenue", "amenity": "cafe", "brand": "Joe & The Juice", "brand:wikidata": "Q26221514", "cuisine": "coffee_shop", "name": "Joe & The Juice", "outdoor_seating": "yes", "takeaway": "yes"}}, {"type": "node", "id": 6201492492, "lat": 40.7624567, "lon": -73.9783185, "tags": {"addr:city": "New York", "addr:housenumber": "65", "addr:postcode": "10019", "addr:state": "NY", "addr:street": "West 54th Street", "amenity": "bar", "name": "Randolph's Bar & Lounge", "website": "https://www.randolphsnewyork.com/"}}, {"type": "node", "id": 6345862104, "lat": 40.7620218, "lon": -73.9803454, "tags": {"amenity": "cafe", "check_date": "2024-05-14", "name": "Cafe 53", "opening_hours": "24/7"}}, {"type": "node", "id": 6371402485, "lat": 40.7615247, "lon": -73.9743066, "tags": {"addr:housenumber": "1", "addr:street": "East 55th Street", "amenity": "bar", "name": "The Polo Bar"}}, {"type": "node", "id": 6433889787, "lat": 40.7642411, "lon": -73.9785007, "tags": {"amenity": "restaurant", "name": "Norma\u2019s"}}, {"type": "node", "id": 6536906987, "lat": 40.7639054, "lon": -73.977729, "tags": {"addr:housenumber": "1385", "addr:postcode": "10019", "addr:street": "6th Avenue", "amenity": "cafe", "branch": "1365 3rd Ave", "cuisine": "coffee_shop;italian", "instagram": "https://www.instagram.com/zibettoespresso", "level": "0", "name": "Zibetto Espresso Bar", "opening_hours": "Mo-Fr 07:00-19:00; Sa 08:00-18:00; Su 08:00-17:00", "phone": "+1 646-707-0505", "website": "http://wwe.zibettoespresso.com"}}, {"type": "node", "id": 6538395986, "lat": 40.7632356, "lon": -73.9769411, "tags": {"addr:housenumber": "54", "addr:street": "West 56th Street", "amenity": "restaurant", "cuisine": "lebanese", "name": "NAYA Express"}}, {"type": "node", "id": 6633208285, "lat": 40.7634136, "lon": -73.9781054, "tags": {"addr:housenumber": "1375", "addr:postcode": "10019", "addr:street": "6th Avenue", "amenity": "restaurant", "cocktails": "yes", "cuisine": "italian", "delivery": "yes", "drink:beer": "served", "drink:wine": "served", "email": "party@pazzanotte.com", "facebook": "https://www.facebook.com/pazzanotte", "fax": "+1 212-977-5440", "happy_hours": "12:30-17:00", "name": "Pazza Notte", "opening_hours": "12:30-22:30", "outdoor_seating": "yes", "phone": "+1 212-765-6288", "reservation": "yes", "takeaway": "yes", "website": "https://www.pazzanotte.com/", "wheelchair": "yes"}}, {"type": "node", "id": 6710916793, "lat": 40.7650065, "lon": -73.9731968}, {"type": "node", "id": 6710916794, "lat": 40.7649926, "lon": -73.9728512}, {"type": "node", "id": 6710916795, "lat": 40.7650366, "lon": -73.9729447}, {"type": "node", "id": 6794406099, "lat": 40.7865399, "lon": -73.9682398}, {"type": "node", "id": 6794406110, "lat": 40.7774861, "lon": -73.9748348}, {"type": "node", "id": 6838446016, "lat": 40.7682979, "lon": -73.9812666}, {"type": "node", "id": 6838446017, "lat": 40.7680759, "lon": -73.9811958}, {"type": "node", "id": 6838446021, "lat": 40.7680234, "lon": -73.9811958}, {"type": "node", "id": 6991124627, "lat": 40.7982164, "lon": -73.9527043}, {"type": "node", "id": 6991124628, "lat": 40.7840726, "lon": -73.9700242}, {"type": "node", "id": 6991124629, "lat": 40.7684005, "lon": -73.9813532}, {"type": "node", "id": 6991124630, "lat": 40.7968361, "lon": -73.9498019}, {"type": "node", "id": 6991124631, "lat": 40.7717669, "lon": -73.9789928}, {"type": "node", "id": 6991124632, "lat": 40.7760769, "lon": -73.9758687}, {"type": "node", "id": 6991124633, "lat": 40.7923871, "lon": -73.9639878}, {"type": "node", "id": 6991124634, "lat": 40.7999135, "lon": -73.9584444}, {"type": "node", "id": 6991124635, "lat": 40.796969, "lon": -73.9497623}, {"type": "node", "id": 6991124636, "lat": 40.7794669, "lon": -73.9734015}, {"type": "node", "id": 6991124637, "lat": 40.8002443, "lon": -73.9579135}, {"type": "node", "id": 6991124638, "lat": 40.7994129, "lon": -73.9588184}, {"type": "node", "id": 6991124639, "lat": 40.799237, "lon": -73.955126}, {"type": "node", "id": 6991124640, "lat": 40.783752, "lon": -73.9702619}, {"type": "node", "id": 6991124641, "lat": 40.7968656, "lon": -73.9497938}, {"type": "node", "id": 6991124643, "lat": 40.7762343, "lon": -73.9757406}, {"type": "node", "id": 6991124644, "lat": 40.7942007, "lon": -73.9626287}, {"type": "node", "id": 6991124645, "lat": 40.8001744, "lon": -73.9582454}, {"type": "node", "id": 6991124646, "lat": 40.7967264, "lon": -73.9497688}, {"type": "node", "id": 6991124648, "lat": 40.8002612, "lon": -73.9578609}, {"type": "node", "id": 6991124649, "lat": 40.7995306, "lon": -73.9587263}, {"type": "node", "id": 6991124650, "lat": 40.7699787, "lon": -73.9803189}, {"type": "node", "id": 6991124651, "lat": 40.8002923, "lon": -73.9576536}, {"type": "node", "id": 6991124652, "lat": 40.7845135, "lon": -73.9697076}, {"type": "node", "id": 6991124653, "lat": 40.7679925, "lon": -73.9812024}, {"type": "node", "id": 6991124654, "lat": 40.7968924, "lon": -73.9497839}, {"type": "node", "id": 6991124656, "lat": 40.795929, "lon": -73.9613682}, {"type": "node", "id": 6991124657, "lat": 40.8001889, "lon": -73.9582116}, {"type": "node", "id": 6991124658, "lat": 40.7967123, "lon": -73.9497575}, {"type": "node", "id": 6991124659, "lat": 40.7804911, "lon": -73.9726547}, {"type": "node", "id": 6991124660, "lat": 40.8002711, "lon": -73.9578357}, {"type": "node", "id": 6991124661, "lat": 40.8001649, "lon": -73.9582594}, {"type": "node", "id": 6991124662, "lat": 40.8002035, "lon": -73.9581067}, {"type": "node", "id": 6991124663, "lat": 40.784584, "lon": -73.969659}, {"type": "node", "id": 6991124664, "lat": 40.7681234, "lon": -73.9811983}, {"type": "node", "id": 6991124665, "lat": 40.7969178, "lon": -73.9497731}, {"type": "node", "id": 6991124666, "lat": 40.7755038, "lon": -73.9762831}, {"type": "node", "id": 6991124667, "lat": 40.7959607, "lon": -73.9613456}, {"type": "node", "id": 6991124668, "lat": 40.8001932, "lon": -73.9581901}, {"type": "node", "id": 6991124669, "lat": 40.7969775, "lon": -73.9497673}, {"type": "node", "id": 6991124671, "lat": 40.8002816, "lon": -73.9578121}, {"type": "node", "id": 6991124672, "lat": 40.8001812, "lon": -73.9582322}, {"type": "node", "id": 6991124673, "lat": 40.7900902, "lon": -73.965651}, {"type": "node", "id": 6991124674, "lat": 40.7851403, "lon": -73.9692564}, {"type": "node", "id": 6991124676, "lat": 40.7967913, "lon": -73.9498014}, {"type": "node", "id": 6991124677, "lat": 40.7742872, "lon": -73.9771742}, {"type": "node", "id": 6991124678, "lat": 40.8001916, "lon": -73.9582004}, {"type": "node", "id": 6991124679, "lat": 40.7978697, "lon": -73.9599617}, {"type": "node", "id": 6991124680, "lat": 40.8001953, "lon": -73.9581702}, {"type": "node", "id": 6991124681, "lat": 40.7969865, "lon": -73.9497883}, {"type": "node", "id": 6991124682, "lat": 40.7806502, "lon": -73.9725365}, {"type": "node", "id": 6991124683, "lat": 40.8003117, "lon": -73.9577424}, {"type": "node", "id": 6991124684, "lat": 40.8001852, "lon": -73.9582225}, {"type": "node", "id": 6991136385, "lat": 40.7706802, "lon": -73.9797918}, {"type": "node", "id": 6991136386, "lat": 40.7878736, "lon": -73.9672728}, {"type": "node", "id": 6991136387, "lat": 40.7853303, "lon": -73.969113}, {"type": "node", "id": 6991136389, "lat": 40.7974831, "lon": -73.9509739}, {"type": "node", "id": 6991136390, "lat": 40.7784888, "lon": -73.9741143}, {"type": "node", "id": 6991136391, "lat": 40.8003048, "lon": -73.9576827}, {"type": "node", "id": 6991136392, "lat": 40.8001996, "lon": -73.958139}, {"type": "node", "id": 6991136393, "lat": 40.79751, "lon": -73.9510383}, {"type": "node", "id": 6991136394, "lat": 40.781843, "lon": -73.9716566}, {"type": "node", "id": 6991136395, "lat": 40.8003107, "lon": -73.9577049}, {"type": "node", "id": 6991136397, "lat": 40.7707071, "lon": -73.9797693}, {"type": "node", "id": 6991136398, "lat": 40.7877836, "lon": -73.9673372}, {"type": "node", "id": 6991136400, "lat": 40.7971833, "lon": -73.9502608}, {"type": "node", "id": 6991136402, "lat": 40.8003135, "lon": -73.9577265}, {"type": "node", "id": 6991136403, "lat": 40.7981253, "lon": -73.959776}, {"type": "node", "id": 6991136404, "lat": 40.8002065, "lon": -73.9580742}, {"type": "node", "id": 6991136407, "lat": 40.7995974, "lon": -73.9559873}, {"type": "node", "id": 6991136408, "lat": 40.8003077, "lon": -73.9577602}, {"type": "node", "id": 6991136409, "lat": 40.7714634, "lon": -73.9792112}, {"type": "node", "id": 6991136410, "lat": 40.7729298, "lon": -73.9781445}, {"type": "node", "id": 6991136411, "lat": 40.7915356, "lon": -73.9646045}, {"type": "node", "id": 6991136413, "lat": 40.7969378, "lon": -73.9497626}, {"type": "node", "id": 6991136415, "lat": 40.8002523, "lon": -73.9578853}, {"type": "node", "id": 6991136416, "lat": 40.7991133, "lon": -73.9590607}, {"type": "node", "id": 6991136417, "lat": 40.7980661, "lon": -73.952353}, {"type": "node", "id": 6991136418, "lat": 40.7821005, "lon": -73.9714695}, {"type": "node", "id": 6991136419, "lat": 40.7994309, "lon": -73.9555925}, {"type": "node", "id": 6991136421, "lat": 40.7716807, "lon": -73.9790604}, {"type": "node", "id": 6991136422, "lat": 40.7742602, "lon": -73.9771962}, {"type": "node", "id": 6991136423, "lat": 40.7916521, "lon": -73.9645157}, {"type": "node", "id": 6991136424, "lat": 40.7894415, "lon": -73.9661212}, {"type": "node", "id": 6991136425, "lat": 40.7969467, "lon": -73.9497591}, {"type": "node", "id": 6991136426, "lat": 40.7790432, "lon": -73.973712}, {"type": "node", "id": 6991136427, "lat": 40.8002352, "lon": -73.9579531}, {"type": "node", "id": 6991136428, "lat": 40.7992085, "lon": -73.9589862}, {"type": "node", "id": 6991136430, "lat": 40.7834445, "lon": -73.9704966}, {"type": "node", "id": 6991136432, "lat": 40.772256, "lon": -73.9786494}, {"type": "node", "id": 6991136433, "lat": 40.7730567, "lon": -73.9780733}, {"type": "node", "id": 6991136435, "lat": 40.7992931, "lon": -73.9589165}, {"type": "node", "id": 6991136436, "lat": 40.7969586, "lon": -73.9497571}, {"type": "node", "id": 6991136437, "lat": 40.7793708, "lon": -73.9734706}, {"type": "node", "id": 6991136438, "lat": 40.8002111, "lon": -73.958039}, {"type": "node", "id": 6991136439, "lat": 40.7992378, "lon": -73.9589604}, {"type": "node", "id": 6991400307, "lat": 40.777239, "lon": -73.9637321}, {"type": "node", "id": 6991400308, "lat": 40.7843102, "lon": -73.9586307}, {"type": "node", "id": 6991400309, "lat": 40.7949343, "lon": -73.9508105}, {"type": "node", "id": 6991400312, "lat": 40.7950221, "lon": -73.9507494}, {"type": "node", "id": 6991400313, "lat": 40.7917411, "lon": -73.9531393}, {"type": "node", "id": 6991400314, "lat": 40.7686749, "lon": -73.9699764}, {"type": "node", "id": 6991400315, "lat": 40.7962602, "lon": -73.9498487}, {"type": "node", "id": 6991400316, "lat": 40.7965935, "lon": -73.9496061}, {"type": "node", "id": 6991400317, "lat": 40.7937493, "lon": -73.9516863}, {"type": "node", "id": 6991400319, "lat": 40.7746546, "lon": -73.9656177}, {"type": "node", "id": 6991400322, "lat": 40.7966288, "lon": -73.9496299}, {"type": "node", "id": 6991400323, "lat": 40.7943243, "lon": -73.9512675}, {"type": "node", "id": 6991400324, "lat": 40.7804146, "lon": -73.961481}, {"type": "node", "id": 6991400326, "lat": 40.770653, "lon": -73.968529}, {"type": "node", "id": 6991400329, "lat": 40.7966549, "lon": -73.9496802}, {"type": "node", "id": 6991400334, "lat": 40.7656121, "lon": -73.9722517}, {"type": "node", "id": 6991400337, "lat": 40.7966959, "lon": -73.9497422}, {"type": "node", "id": 6991400339, "lat": 40.7929767, "lon": -73.9522388}, {"type": "node", "id": 6991400342, "lat": 40.768135, "lon": -73.9704097}, {"type": "node", "id": 6991400344, "lat": 40.78096, "lon": -73.9610479}, {"type": "node", "id": 6991400345, "lat": 40.7888635, "lon": -73.9552971}, {"type": "node", "id": 6991400346, "lat": 40.7687628, "lon": -73.9699119}, {"type": "node", "id": 6991400348, "lat": 40.7961426, "lon": -73.9499364}, {"type": "node", "id": 6991400350, "lat": 40.7935351, "lon": -73.9518348}, {"type": "node", "id": 6991400355, "lat": 40.7966161, "lon": -73.9496189}, {"type": "node", "id": 6991400360, "lat": 40.7966473, "lon": -73.9496618}, {"type": "node", "id": 6991400366, "lat": 40.7966815, "lon": -73.9497244}, {"type": "node", "id": 6991400367, "lat": 40.7857067, "lon": -73.9575733}, {"type": "node", "id": 6991400368, "lat": 40.7912074, "lon": -73.9535256}, {"type": "node", "id": 6991400370, "lat": 40.7775416, "lon": -73.9635111}, {"type": "node", "id": 6991400371, "lat": 40.7674883, "lon": -73.9708816}, {"type": "node", "id": 6991400374, "lat": 40.7886997, "lon": -73.9554172}, {"type": "node", "id": 6991400375, "lat": 40.7775944, "lon": -73.9634737}, {"type": "node", "id": 6991400378, "lat": 40.7956392, "lon": -73.9503032}, {"type": "node", "id": 6991400379, "lat": 40.7839459, "lon": -73.9588854}, {"type": "node", "id": 6991400380, "lat": 40.7918681, "lon": -73.9530523}, {"type": "node", "id": 6991400383, "lat": 40.7965179, "lon": -73.9496631}, {"type": "node", "id": 6991400384, "lat": 40.796606, "lon": -73.9496116}, {"type": "node", "id": 6991414887, "lat": 40.7738129, "lon": -73.9662265}, {"type": "node", "id": 6991414890, "lat": 40.7966385, "lon": -73.9496411}, {"type": "node", "id": 6991414892, "lat": 40.7808832, "lon": -73.9611242}, {"type": "node", "id": 6991414894, "lat": 40.776801, "lon": -73.9640526}, {"type": "node", "id": 6991414897, "lat": 40.7966668, "lon": -73.9497027}, {"type": "node", "id": 6991414898, "lat": 40.788053, "lon": -73.9558772}, {"type": "node", "id": 6991414900, "lat": 40.7776896, "lon": -73.9634089}, {"type": "node", "id": 6991414901, "lat": 40.7673907, "lon": -73.970953}, {"type": "node", "id": 7056667924, "lat": 40.7623853, "lon": -73.9777742, "tags": {"addr:city": "New York", "addr:housenumber": "1350", "addr:postcode": "10019", "addr:state": "NY", "addr:street": "Avenue of the Americas", "brand": "KPMG", "brand:wikidata": "Q493751", "consulting": "accounting", "loc_name": "KPMG 1350", "name": "KPMG", "office": "consulting"}}, {"type": "node", "id": 7093547132, "lat": 40.7652832, "lon": -73.9804165, "tags": {"addr:city": "New York", "addr:housenumber": "900", "addr:postcode": "10019", "addr:state": "NY", "addr:street": "7th Avenue", "amenity": "restaurant", "check_date": "2025-04-10", "cuisine": "italian", "name": "Trattoria Dell'Arte", "website": "https://www.trattoriadellarte.com/"}}, {"type": "node", "id": 7093980560, "lat": 40.7803339, "lon": -73.9615543}, {"type": "node", "id": 7093980567, "lat": 40.781666, "lon": -73.9605506}, {"type": "node", "id": 7104620799, "lat": 40.7798279, "lon": -73.973142}, {"type": "node", "id": 7120586338, "lat": 40.7854255, "lon": -73.9690437}, {"type": "node", "id": 7146903295, "lat": 40.7820679, "lon": -73.9714884}, {"type": "node", "id": 7146903298, "lat": 40.7851954, "lon": -73.9692206}, {"type": "node", "id": 7176445484, "lat": 40.7648012, "lon": -73.9727712}, {"type": "node", "id": 7176461985, "lat": 40.765029, "lon": -73.9731457}, {"type": "node", "id": 7785624616, "lat": 40.7777161, "lon": -73.9633886}, {"type": "node", "id": 7785624620, "lat": 40.7775657, "lon": -73.963494}, {"type": "node", "id": 7785624629, "lat": 40.7776951, "lon": -73.9633211}, {"type": "node", "id": 7785624644, "lat": 40.7776925, "lon": -73.9633258}, {"type": "node", "id": 7785624660, "lat": 40.7776932, "lon": -73.963339}, {"type": "node", "id": 7785624681, "lat": 40.7776914, "lon": -73.9633312}, {"type": "node", "id": 7830757189, "lat": 40.7679176, "lon": -73.9812094}, {"type": "node", "id": 7830757207, "lat": 40.765304, "lon": -73.9724768}, {"type": "node", "id": 8032579495, "lat": 40.7802617, "lon": -73.961464}, {"type": "node", "id": 8039941085, "lat": 40.7779237, "lon": -73.9631581}, {"type": "node", "id": 8632736467, "lat": 40.7645688, "lon": -73.976773, "tags": {"addr:city": "New York", "addr:housenumber": "57", "addr:postcode": "10019", "addr:state": "NY", "addr:street": "West 57th Street", "amenity": "restaurant", "cocktails": "yes", "cuisine": "steak;italian", "delivery": "yes", "drink:beer": "served", "drink:wine": "served", "facebook": "https://www.facebook.com/Quality-Italian-327772647353045", "instagram": "https://www.instagram.com/qualityitalian", "level": "0;1", "name": "Quality Italian", "opening_hours": "Mo, Su 16:00-22:00; Tu-Sa 16:00-23:00", "phone": "+1 212-390-1111", "takeaway": "yes", "website": "https://www.qualityitalian.com"}}, {"type": "node", "id": 8757557471, "lat": 40.7613876, "lon": -73.980456, "tags": {"amenity": "restaurant", "check_date:opening_hours": "2023-09-15", "name": "Mastro's", "opening_hours:signed": "no", "payment:bitcoincash": "yes", "website": "https://www.mastrosrestaurants.com/location/mastros-steakhouse-new-york"}}, {"type": "node", "id": 8791561182, "lat": 40.7635878, "lon": -73.9759916, "tags": {"addr:city": "New York", "addr:housenumber": "40", "addr:postcode": "10019", "addr:state": "NY", "addr:street": "West 57th Street", "alt_name": "Nobu 57", "amenity": "restaurant", "branch": "Fifty Seven", "brand": "Nobu", "brand:wikidata": "Q104840749", "cuisine": "sushi", "delivery": "yes", "email": "fiftyseven@noburestaurants.com", "name": "Nobu", "opening_hours": "Mo-Th 11:45-14:15,17:30-22:15; Fr 11:45-14:15,17:30-23:15; Sa 11:45-14:45,17:30-23:15; Su 11:45-14:45,17:30-22:15", "phone": "+1-212-757-3000", "takeaway": "Mo-Su 12:00-14:30,17:00-21:30", "website": "https://www.noburestaurants.com/fifty-seven/home/"}}, {"type": "node", "id": 9171803773, "lat": 40.7630197, "lon": -73.976469, "tags": {"addr:city": "New York", "addr:housenumber": "40", "addr:postcode": "10019", "addr:state": "NY", "addr:street": "West 56th Street", "amenity": "restaurant", "cuisine": "chinese", "name": "Blue Willow", "opening_hours": "Mo-Fr 11:30-22:00; Sa-Su 12:00-22:00", "phone": "+1-212-213-2299", "website": "https://www.bluewillownyc.com/"}}, {"type": "node", "id": 9418170698, "lat": 40.7684638, "lon": -73.9814003}, {"type": "node", "id": 9472858517, "lat": 40.7632868, "lon": -73.9771154, "tags": {"addr:city": "New York", "addr:housenumber": "60", "addr:state": "NY", "addr:street": "West 56th Street", "amenity": "restaurant", "branch": "56", "cuisine": "chinese", "name": "Bites of Xi\u2019an", "name:zh": "\u897f\u5e9c\u5c0f\u5403", "website": "https://www.bitesofxian.com"}}, {"type": "node", "id": 10087482396, "lat": 40.7663723, "lon": -73.9796629, "tags": {"addr:city": "New York", "addr:housenumber": "922", "addr:postcode": "10019", "addr:state": "NY", "addr:street": "7th Avenue", "amenity": "restaurant", "bar": "yes", "contact:website": "https://www.brasseriecognac.com/CentralParksouth", "cuisine": "french;bistro", "internet_access": "wlan", "internet_access:fee": "no", "name": "Brasserie Cognac Central Park South", "opening_hours": "Mo-Su 09:00-22:00", "phone": "+1-212-470-5087", "website:menu": "https://brasseriecognac.com/CentralParksouth#Menus", "wheelchair": "yes"}}, {"type": "node", "id": 10154000117, "lat": 40.7645955, "lon": -73.9784506, "tags": {"amenity": "bar", "name": "Life Rooftop Central Park"}}, {"type": "node", "id": 10173210352, "lat": 40.7608644, "lon": -73.9786314}, {"type": "node", "id": 10173346255, "lat": 40.763744, "lon": -73.9735839, "tags": {"barrier": "kerb", "kerb": "flush", "tactile_paving": "no", "wheelchair": "yes"}}, {"type": "node", "id": 10215130211, "lat": 40.7614351, "lon": -73.9789142, "tags": {"brand": "Charles Schwab", "brand:wikidata": "Q1066028", "name": "Charles Schwab", "office": "financial_advisor"}}, {"type": "node", "id": 10215147555, "lat": 40.7613084, "lon": -73.9785249, "tags": {"amenity": "restaurant", "cuisine": "steak_house", "name": "Nusr Et"}}, {"type": "node", "id": 10823680937, "lat": 40.764332, "lon": -73.9764332, "tags": {"addr:city": "New York", "addr:country": "US", "addr:floor": "4", "addr:housenumber": "57", "addr:postcode": "10019", "addr:state": "NY", "addr:street": "West 57th Street", "name": "Redeemer City to City", "office": "association", "opening_hours": "Mo-Su 12:00-23:45", "phone": "+1-212-871-1815", "website": "https://redeemercitytocity.com"}}, {"type": "node", "id": 11092315005, "lat": 40.7644229, "lon": -73.9746, "tags": {"amenity": "cafe", "name": "Palm Court"}}, {"type": "node", "id": 11296226862, "lat": 40.761374, "lon": -73.9782633}, {"type": "node", "id": 11331402045, "lat": 40.7630341, "lon": -73.9786396, "tags": {"amenity": "cafe", "brand": "Blue Bottle Coffee", "brand:en": "Blue Bottle Coffee", "brand:ja": "\u30d6\u30eb\u30fc\u30dc\u30c8\u30eb\u30b3\u30fc\u30d2\u30fc", "brand:wikidata": "Q4928917", "cuisine": "coffee_shop", "name": "Blue Bottle Coffee", "name:en": "Blue Bottle Coffee", "name:ja": "\u30d6\u30eb\u30fc\u30dc\u30c8\u30eb\u30b3\u30fc\u30d2\u30fc", "takeaway": "yes"}}, {"type": "node", "id": 11359481056, "lat": 40.7647438, "lon": -73.9737496}, {"type": "node", "id": 11359481057, "lat": 40.7647331, "lon": -73.9737148, "tags": {"barrier": "kerb", "kerb": "lowered", "tactile_paving": "no", "wheelchair": "yes"}}, {"type": "node", "id": 11359481058, "lat": 40.7647275, "lon": -73.9736854}, {"type": "node", "id": 11359481059, "lat": 40.7647308, "lon": -73.9736453, "tags": {"barrier": "kerb", "kerb": "raised", "tactile_paving": "no", "wheelchair": "no"}}, {"type": "node", "id": 11359481060, "lat": 40.7647396, "lon": -73.9736203}, {"type": "node", "id": 11359481061, "lat": 40.7647514, "lon": -73.9735999}, {"type": "node", "id": 11359481062, "lat": 40.7658542, "lon": -73.9763836}, {"type": "node", "id": 11359481063, "lat": 40.7670323, "lon": -73.9791766}, {"type": "node", "id": 11359481065, "lat": 40.7645808, "lon": -73.9735378}, {"type": "node", "id": 11359481066, "lat": 40.7643692, "lon": -73.9730711}, {"type": "node", "id": 11359481067, "lat": 40.764545, "lon": -73.9735273}, {"type": "node", "id": 11359481068, "lat": 40.7645714, "lon": -73.9735407}, {"type": "node", "id": 11359523969, "lat": 40.7645511, "lon": -73.9735361}, {"type": "node", "id": 11359523970, "lat": 40.764561, "lon": -73.9735411}, {"type": "node", "id": 11359523971, "lat": 40.7643657, "lon": -73.9731034}, {"type": "node", "id": 11359523972, "lat": 40.7643622, "lon": -73.9730906}, {"type": "node", "id": 11359523973, "lat": 40.7643625, "lon": -73.9730811}, {"type": "node", "id": 11359523974, "lat": 40.7644389, "lon": -73.97302, "tags": {"barrier": "kerb", "kerb": "lowered", "tactile_paving": "yes", "wheelchair": "yes"}}, {"type": "node", "id": 11359523998, "lat": 40.7644703, "lon": -73.9736435}, {"type": "node", "id": 11359523999, "lat": 40.7642728, "lon": -73.9731813}, {"type": "node", "id": 11359524000, "lat": 40.7642646, "lon": -73.9731722}, {"type": "node", "id": 11359524001, "lat": 40.7642567, "lon": -73.9731677}, {"type": "node", "id": 11359524002, "lat": 40.7642432, "lon": -73.9731677}, {"type": "node", "id": 11359524003, "lat": 40.7642282, "lon": -73.973174}, {"type": "node", "id": 11359524004, "lat": 40.7637536, "lon": -73.9735222}, {"type": "node", "id": 11359524005, "lat": 40.7637444, "lon": -73.9735321}, {"type": "node", "id": 11359524006, "lat": 40.7637398, "lon": -73.9735503}, {"type": "node", "id": 11359524007, "lat": 40.7637411, "lon": -73.9735702}, {"type": "node", "id": 11359524008, "lat": 40.7637453, "lon": -73.9735895}, {"type": "node", "id": 11359524009, "lat": 40.7639366, "lon": -73.9740373}, {"type": "node", "id": 11359524010, "lat": 40.7639474, "lon": -73.9740524}, {"type": "node", "id": 11359524011, "lat": 40.7639582, "lon": -73.9740587}, {"type": "node", "id": 11359524012, "lat": 40.7639698, "lon": -73.9740608}, {"type": "node", "id": 11359524013, "lat": 40.7639812, "lon": -73.974059}, {"type": "node", "id": 11359524014, "lat": 40.7639928, "lon": -73.9740514}, {"type": "node", "id": 11359524015, "lat": 40.7644621, "lon": -73.9737086}, {"type": "node", "id": 11359524016, "lat": 40.7644692, "lon": -73.9736992}, {"type": "node", "id": 11359524017, "lat": 40.7644732, "lon": -73.9736898}, {"type": "node", "id": 11359524018, "lat": 40.7644763, "lon": -73.9736769}, {"type": "node", "id": 11359524019, "lat": 40.7644755, "lon": -73.9736602}, {"type": "node", "id": 11359524044, "lat": 40.7646426, "lon": -73.9734925, "tags": {"barrier": "kerb", "kerb": "lowered", "tactile_paving": "yes", "wheelchair": "yes"}}, {"type": "node", "id": 11359524046, "lat": 40.7645401, "lon": -73.9735155, "tags": {"barrier": "kerb", "kerb": "flush", "tactile_paving": "no", "wheelchair": "yes"}}, {"type": "node", "id": 11359524047, "lat": 40.7644499, "lon": -73.9735959, "tags": {"barrier": "kerb", "kerb": "lowered", "tactile_paving": "yes", "wheelchair": "yes"}}, {"type": "node", "id": 11359524177, "lat": 40.7649081, "lon": -73.9727798, "tags": {"barrier": "kerb", "kerb": "lowered", "tactile_paving": "yes", "wheelchair": "yes"}}, {"type": "node", "id": 11359524187, "lat": 40.7651992, "lon": -73.9732538}, {"type": "node", "id": 11359524188, "lat": 40.765227, "lon": -73.9731998}, {"type": "node", "id": 11359524189, "lat": 40.7652342, "lon": -73.9731074}, {"type": "node", "id": 11359524190, "lat": 40.7652302, "lon": -73.9730738}, {"type": "node", "id": 11359524206, "lat": 40.7644721, "lon": -73.9736923, "tags": {"barrier": "kerb", "kerb": "flush", "tactile_paving": "no", "wheelchair": "yes"}}, {"type": "node", "id": 11359524215, "lat": 40.7643702, "lon": -73.9731141, "tags": {"barrier": "kerb", "kerb": "flush", "tactile_paving": "no", "wheelchair": "yes"}}, {"type": "node", "id": 11359524216, "lat": 40.7649676, "lon": -73.9728207}, {"type": "node", "id": 11359524238, "lat": 40.7650478, "lon": -73.9730441}, {"type": "node", "id": 11359524253, "lat": 40.7642614, "lon": -73.9731704, "tags": {"barrier": "kerb", "kerb": "lowered", "tactile_paving": "no", "wheelchair": "yes"}}, {"type": "node", "id": 11359524332, "lat": 40.7637817, "lon": -73.9735016, "tags": {"barrier": "kerb", "kerb": "flush", "tactile_paving": "no", "wheelchair": "yes"}}, {"type": "node", "id": 11359524358, "lat": 40.7640058, "lon": -73.9740418, "tags": {"barrier": "kerb", "kerb": "flush", "tactile_paving": "no", "wheelchair": "yes"}}, {"type": "node", "id": 11359524459, "lat": 40.7652163, "lon": -73.9732245, "tags": {"barrier": "kerb", "kerb": "flush", "tactile_paving": "no", "wheelchair": "yes"}}, {"type": "node", "id": 11427056758, "lat": 40.7968272, "lon": -73.9607174}, {"type": "node", "id": 11427056759, "lat": 40.7967535, "lon": -73.9607377}, {"type": "node", "id": 11427056760, "lat": 40.7968165, "lon": -73.9606922}, {"type": "node", "id": 11427056761, "lat": 40.7967641, "lon": -73.9607632}, {"type": "node", "id": 11465739196, "lat": 40.7626575, "lon": -73.980662, "tags": {"addr:city": "New York", "addr:housenumber": "145", "addr:postcode": "10019", "addr:state": "NY", "addr:street": "West 53rd Street", "amenity": "restaurant", "cuisine": "french", "email": "lagrande@boucherie.nyc", "name": "La Grande Boucherie", "opening_hours": "Mo-Fr 08:00-24:00; Sa-Su 09:00-24:00", "phone": "+1-212-510-7714", "reservation": "yes", "website": "https://www.boucherieus.com/location/boucherie-la-grande-boucherie/"}}, {"type": "node", "id": 11500492169, "lat": 40.7644156, "lon": -73.9789989, "tags": {"addr:city": "New York", "addr:housenumber": "129", "addr:postcode": "10019", "addr:state": "NY", "addr:street": "West 56th Street", "air_conditioning": "yes", "amenity": "restaurant", "check_date": "2024-12-08", "contact:instagram": "https://www.instagram.com/kinramennyc/", "cuisine": "ramen", "delivery": "yes", "level": "0", "name": "Kin Ramen", "opening_hours": "Mo-Su 12:00-15:00, 16:30-22:00", "outdoor_seating": "no", "payment:cash": "yes", "payment:contactless": "yes", "payment:credit_cards": "yes", "payment:debit_cards": "yes", "phone": "+1 212-933-9292", "takeaway": "yes", "toilets": "yes", "website": "https://kinramen.com/", "wheelchair": "no"}}, {"type": "node", "id": 11672166967, "lat": 40.7643011, "lon": -73.9776344, "tags": {"addr:city": "New York", "addr:country": "US", "addr:housenumber": "100", "addr:postcode": "10019", "addr:state": "NY", "addr:street": "West 57th Street", "addr:unit": "8A", "name": "The Local Agency", "office": "advertising_agency", "opening_hours": "Mo-Fr 09:00-17:00; Sa-Su off", "phone": "+1-800-725-6669", "website": "https://thelocalagency.com/"}}, {"type": "node", "id": 12070394872, "lat": 40.7643677, "lon": -73.9789336, "tags": {"addr:city": "New York", "addr:housenumber": "127", "addr:state": "NY", "addr:street": "West 56th Street", "air_conditioning": "yes", "amenity": "restaurant", "bar": "yes", "changing_table": "no", "check_date": "2024-12-08", "cuisine": "thai", "delivery": "yes", "highchair": "no", "level": "0", "name": "Topaz", "opening_hours": "12:00-22:30", "payment:cash": "yes", "payment:contactless": "yes", "payment:credit_cards": "yes", "payment:debit_cards": "yes", "phone": "+1 212-957-8020", "reservation": "yes", "smoking": "no", "takeaway": "yes", "toilets": "yes", "toilets:wheelchair": "no", "website": "https://www.topazthaiauthentic.com/", "wheelchair": "no"}}, {"type": "node", "id": 12070422440, "lat": 40.7632955, "lon": -73.9771622, "tags": {"addr:city": "New York", "addr:housenumber": "62", "addr:state": "NY", "addr:street": "West 56th Street", "amenity": "restaurant", "cuisine": "korean", "name": "K-bap", "website": "https://www.kbapnyc.com"}}, {"type": "node", "id": 12070468651, "lat": 40.7630129, "lon": -73.9757399, "tags": {"amenity": "restaurant", "name": "Tina's Cuban Cuisine"}}, {"type": "node", "id": 12070476839, "lat": 40.7625761, "lon": -73.9756396, "tags": {"amenity": "restaurant", "cuisine": "italian", "name": "Il Tinello Ristorante"}}, {"type": "node", "id": 12070492977, "lat": 40.7627231, "lon": -73.9760278, "tags": {"amenity": "restaurant", "cuisine": "chinese", "name": "Dim Sum Palace"}}, {"type": "node", "id": 12328414023, "lat": 40.7648258, "lon": -73.980772, "tags": {"addr:city": "New York", "addr:housenumber": "870", "addr:postcode": "10019", "addr:state": "NY", "addr:street": "Seventh Avenue", "amenity": "restaurant", "branch": "Carnegie Hall", "check_date": "2025-04-10", "cuisine": "a\u00e7a\u00ed", "name": "Playa Bowls", "phone": "+1-917-231-5259", "website": "https://www.playabowls.com/location/carnegie-hall"}}, {"type": "node", "id": 12346955500, "lat": 40.7841556, "lon": -73.9587388, "tags": {"barrier": "entrance", "name": "Engineers' Gate"}}, {"type": "node", "id": 12347042901, "lat": 40.7917798, "lon": -73.9531128, "tags": {"barrier": "entrance", "name": "Girls' Gate"}}, {"type": "node", "id": 12459875815, "lat": 40.7653426, "lon": -73.9771997, "tags": {"addr:housenumber": "117", "addr:postcode": "10019", "addr:street": "West 58th Street", "amenity": "restaurant", "check_date": "2024-12-27", "cuisine": "steak_house", "name": "Tuscany Steakhouse", "phone": "+1-212-757-8630", "website": "https://tuscanysteakhouse.com"}}, {"type": "node", "id": 12459875822, "lat": 40.7653982, "lon": -73.9779596, "tags": {"addr:housenumber": "132", "addr:postcode": "10019", "addr:street": "West 58th Street", "amenity": "restaurant", "check_date": "2024-12-27", "cuisine": "greek", "name": "Loi Estiatorio", "phone": "+1-212-7130-0015", "website": "https://www.loiestiatorio.com"}}, {"type": "node", "id": 12510451776, "lat": 40.7649266, "lon": -73.9762437, "tags": {"addr:housenumber": "57", "addr:postcode": "10019", "addr:street": "West 58th Street", "amenity": "restaurant", "cuisine": "steak_house", "name": "Quality Meats", "phone": "+1-212-371-7777", "website": "https://www.qualitymeatsnyc.com"}}, {"type": "node", "id": 12513048658, "lat": 40.7647969, "lon": -73.9770797, "tags": {"addr:housenumber": "1411", "addr:postcode": "10019", "addr:street": "6th Avenue", "amenity": "cafe", "brand": "Starbucks", "brand:wikidata": "Q37158", "cuisine": "coffee_shop", "name": "Starbucks", "official_name": "Starbucks Coffee", "opening_hours": "Mo-Su 05:30-21:00", "outdoor_seating": "no", "phone": "+1 212-664-1305", "takeaway": "yes"}}, {"type": "node", "id": 12547321282, "lat": 40.7663058, "lon": -73.9781782, "tags": {"addr:housenumber": "160", "addr:postcode": "10019", "addr:street": "Central Park South", "amenity": "restaurant", "cuisine": "steak_house", "name": "Bourbon Steak New York", "phone": "+1-212-484-5120", "website": "https://www.bourbonsteaknyc.com", "wheelchair": "yes"}}, {"type": "node", "id": 12744975234, "lat": 40.7651708, "lon": -73.9805398, "tags": {"amenity": "restaurant", "check_date": "2025-04-10", "name": "888 Cafe & Bar"}}, {"type": "node", "id": 12812420201, "lat": 40.7624275, "lon": -73.9770156, "tags": {"addr:housenumber": "50", "addr:postcode": "10019", "addr:street": "West 55th Street", "amenity": "restaurant", "cuisine": "japanese", "name": "Kiku", "opening_hours": "Mo-Fr 11:00-22:00; Sa-Su 12:00-22:00", "phone": "+12125828357", "website:menu": "https://qmenu.us/#/kiku-new-york"}}, {"type": "node", "id": 12857802432, "lat": 40.7650993, "lon": -73.9726265}, {"type": "node", "id": 12866882564, "lat": 40.7632439, "lon": -73.9770786, "tags": {"amenity": "restaurant", "cuisine": "thai", "delivery": "yes", "level": "1", "name": "Tam Mai Thai", "opening_hours": "Mo-Fr 11:30-15:00, 16:30-22:00; Sa-Su 11:30-22:00", "phone": "+1-872-867-7662", "takeaway": "yes", "website": "https://www.tammaithai.com"}}, {"type": "node", "id": 12996543401, "lat": 40.7616056, "lon": -73.9764095, "tags": {"addr:housenumber": "15", "addr:street": "West 54th Street", "amenity": "restaurant", "cuisine": "fine_dining;italian", "name": "Il Gattopardo", "opening_hours": "Mo-Fr 12:00-15:00, 17:00-23:00; Sa 11:30-15:00, 17:00-23:00; Su 11:30-15:00, 17:00-22:00", "phone": "+1-212-246-0412", "website": "https://ilgattopardonyc.com/"}}, {"type": "node", "id": 12998414901, "lat": 40.7650593, "lon": -73.9752711, "tags": {"addr:housenumber": "36", "addr:street": "Central Park South", "amenity": "bar", "level": "47", "name": "Darling", "opening_hours": "Tu-Th 17:00-00:00; Fr-Sa 17:00-01:00", "phone": "+1-212-371-4000", "website": "https://www.darlingrooftop.com/"}}, {"type": "way", "id": 109269750, "nodes": [11359524044, 1251382431, 1251382467, 6710916793, 7176461985, 1251382511, 11359524238, 1251382540, 6710916795, 1251382462, 6710916794, 11359524216, 1251382409, 1251382430, 11359524177, 1251382425, 1251382374, 7176445484, 1251382353, 11359523974, 11359481066, 11359523973, 11359523972, 11359523971, 11359524215]}, {"type": "way", "id": 265149196, "nodes": [2708095967, 2708095986, 2708096032, 2708096023, 2708095993, 2708095989, 2708095967], "tags": {"addr:housenumber": "12", "addr:postcode": "10019", "addr:street": "West 56th Street", "building": "yes", "consulate": "consulate_general", "country": "AR", "diplomatic": "consulate", "height": "22.7", "name": "Consulate General Argentina", "name:en": "Consulate General Argentina", "name:es": "Consulado General de la Rep\u00fablica Argentina", "name:fr": "Consulat g\u00e9n\u00e9ral d'Argentine", "nycdoitt:bin": "1034835", "office": "diplomatic", "opening_hours": "Mo-Fr 09:00-13:00,14:00-17:00", "wikidata": "Q107053861", "wikipedia": "en:12 West 56th Street"}}, {"type": "way", "id": 427818536, "nodes": [6991136395, 6991136391, 6991124651, 6991136407, 6991136419, 6991124639, 6991124627, 6991136417, 6991136393, 6991136389, 6991136400, 6991124681, 6991124669, 6991124635, 6991136436, 6991136425, 6991136413, 6991124665, 6991124654, 6991124641, 6991124630, 6991124676, 6991124646, 6991124658, 6991400337, 6991400366, 6991414897, 6991400329, 6991400360, 6991414890, 6991400322, 6991400355, 6991400384, 6991400316, 6991400383, 6991400315, 6991400348, 6991400378, 6991400312, 6991400309, 6991400323, 6991400317, 6991400350, 6991400339, 6991400380, 12347042901, 6991400313, 6991400368, 6991400345, 6991400374, 6991414898, 6991400367, 6991400308, 12346955500, 6991400379, 7093980567, 6991400344, 6991414892, 6991400324, 7093980560, 8032579495, 3392519827, 3392519825, 3392519829, 3392519847, 3392519860, 3392519861, 8039941085, 7785624629, 7785624644, 7785624681, 7785624660, 7785624616, 6991414900, 6991400375, 7785624620, 6991400370, 6991400307, 6991414894, 6991400319, 6991414887, 6991400326, 6991400346, 6991400314, 6991400342, 3602661071, 6991400371, 6991414901, 3602661070, 6991400334, 7830757207, 42453674, 12857802432, 42453676, 2902437013, 11359524190, 11359524189, 42433870, 11359524188, 11359524459, 11359524187, 1283225217, 4347535694, 11359481061, 11359481060, 11359481059, 11359481058, 11359481057, 11359481056, 11359481062, 11359481063, 1659428983, 2553978278, 4347550072, 7830757189, 1659429013, 6991124653, 6838446021, 1659429064, 6838446017, 6991124664, 1659429078, 1825841723, 1659429162, 6838446016, 1659429202, 6991124629, 1659429228, 9418170698, 4347550058, 1659429258, 4347550067, 4997760450, 2710141721, 2710141733, 6991124650, 6991136385, 6991136397, 6991136409, 6991136421, 6991124631, 6991136432, 6991136410, 6991136433, 6991136422, 6991124677, 6991124666, 6991124632, 6991124643, 6794406110, 6991136390, 6991136426, 6991136437, 6991124636, 7104620799, 6991124659, 6991124682, 6991136394, 7146903295, 6991136418, 6991136430, 6991124640, 6991124628, 6991124652, 6991124663, 6991124674, 7146903298, 6991136387, 7120586338, 6794406099, 6991136398, 6991136386, 6991136424, 6991124673, 6991136411, 6991136423, 6991124633, 6991124644, 6991124656, 6991124667, 11427056761, 11427056759, 11427056760, 11427056758, 6991124679, 6991136403, 6991136416, 6991136428, 6991136439, 6991136435, 6991124638, 6991124649, 6991124634, 6991124661, 6991124645, 6991124672, 6991124684, 6991124657, 6991124678, 6991124668, 6991124680, 6991136392, 6991124662, 6991136404, 6991136438, 6991136427, 6991124637, 6991136415, 6991124648, 6991124660, 6991124671, 6991136408, 6991124683, 6991136402, 6991136395], "tags": {"access": "yes", "addr:city": "New York", "addr:state": "NY", "architect": "Frederick Law Olmsted;Calvert Vaux", "check_date": "2025-05-06", "check_date:opening_hours": "2021-05-01", "contact:facebook": "https://www.facebook.com/CentralParkNYC/", "contact:instagram": "https://www.instagram.com/centralparknyc/", "contact:pinterest": "https://www.pinterest.com/centralparknyc", "contact:tiktok": "https://www.tiktok.com/@centralparknyc", "contact:twitter": "https://twitter.com/centralparknyc/", "contact:youtube": "https://www.youtube.com/user/CentralParkChannel", "dog": "leashed", "heritage": "2", "heritage:operator": "nrhp", "heritage:website": "https://www.nps.gov/subjects/nationalregister/index.htm", "leisure": "park", "name": "Central Park", "name:be": "\u0426\u044d\u043d\u0442\u0440\u0430\u043b\u044c\u043d\u044b \u043f\u0430\u0440\u043a", "name:el": "\u039a\u03b5\u03bd\u03c4\u03c1\u03b9\u03ba\u03cc \u03c0\u03ac\u03c1\u03ba\u03bf", "name:en": "Central Park", "name:fa": "\u067e\u0627\u0631\u06a9 \u0645\u0631\u06a9\u0632\u06cc", "name:he": "\u05e1\u05e0\u05d8\u05e8\u05dc \u05e4\u05d0\u05e8\u05e7", "name:hi": "\u0938\u0947\u0902\u091f\u094d\u0930\u0932 \u092a\u093e\u0930\u094d\u0915", "name:ja": "\u4e2d\u592e\u516c\u5712", "name:kn": "\u0cb8\u0cc6\u0c82\u0c9f\u0ccd\u0cb0\u0cb2\u0ccd \u0caa\u0cbe\u0cb0\u0ccd\u0c95\u0ccd", "name:ko": "\uc13c\ud2b8\ub7f4 \ud30c\ud06c", "name:lt": "Centrinis parkas", "name:ru": "\u0426\u0435\u043d\u0442\u0440\u0430\u043b\u044c\u043d\u044b\u0439 \u043f\u0430\u0440\u043a", "name:sr": "\u0426\u0435\u043d\u0442\u0440\u0430\u043b \u043f\u0430\u0440\u043a", "name:sr-Latn": "Central park", "name:tr": "Central Park", "name:vi": "C\u00f4ng vi\u00ean Trung t\u00e2m", "name:zh": "\u4e2d\u592e\u516c\u56ed", "nrhp:inscription_date": "1966-10-15", "nrhp:nhl": "yes", "nrhp:nhl:inscription_date": "1963-05-23", "opening_hours": "06:00-01:00", "operator": "Central Park Conservancy", "operator:type": "ngo", "owner": "New York City Department of Parks and Recreation", "owner:short": "NYC Parks", "owner:wikidata": "Q1894232", "ref:nrhp": "66000538", "smoking": "no", "start_date": "1858", "website": "https://www.centralparknyc.org", "wikidata": "Q160409", "wikipedia": "en:Central Park"}}, {"type": "way", "id": 468472672, "nodes": [1745856081, 3976008162, 3976005755, 1745856010, 10173210352, 11296226862, 1745856081], "tags": {"leisure": "park"}}, {"type": "way", "id": 1224928888, "nodes": [11359524358, 11359524015, 11359524016, 11359524206, 11359524017, 11359524018, 11359524019, 11359523998, 11359524047, 11359523999, 11359524000, 11359524253, 11359524001, 11359524002, 11359524003, 11359524332, 11359524004, 11359524005, 11359524006, 11359524007, 10173346255, 11359524008, 11359524009, 11359524010, 11359524011, 11359524012, 11359524013, 11359524014, 11359524358]}, {"type": "way", "id": 1224928914, "nodes": [11359524215, 11359524046, 11359481067, 11359523969, 11359523970, 11359481068, 11359481065, 11359524044]}, {"type": "relation", "id": 16711715, "members": [{"type": "way", "ref": 1224928888, "role": "outer"}, {"type": "way", "ref": 109269750, "role": "outer"}, {"type": "way", "ref": 1224928914, "role": "outer"}], "tags": {"addr:city": "New York", "addr:postcode": "10019", "addr:state": "NY", "addr:street": "Grand Army Plaza", "check_date": "2023-11-17", "ele": "15", "gnis:feature_id": "2083287", "leisure": "park", "name": "Grand Army Plaza", "name:ko": "\uadf8\ub79c\ub4dc \uc544\ubbf8 \ud50c\ub77c\uc790", "name:ru": "\u0412\u0435\u043b\u0438\u043a\u0430\u044f \u0430\u0440\u043c\u0435\u0439\u0441\u043a\u0430\u044f \u043f\u043b\u043e\u0449\u0430\u0434\u044c", "operator": "New York City Department of Parks and Recreation", "operator:short": "NYC Parks", "operator:type": "government", "operator:wikidata": "Q1894232", "type": "multipolygon", "wikidata": "Q1139579", "wikipedia": "en:Grand Army Plaza (Manhattan)"}}]}