{"version": 0.6, "generator": "Overpass API 0.7.62.8 e802775f", "osm3s": {"timestamp_osm_base": "2025-12-01T17:02:44Z", "copyright": "The data included in this document is from www.openstreetmap.org. The data is made available under ODbL."}, "elements": [{"type": "node", "id": 357625374, "lat": 40.6467695, "lon": -74.0119449, "tags": {"fax": "+1-718-492-4143", "name": "Gavidia Brothers", "office": "tax_advisor", "phone": "+1-718-492-9600", "service:notary": "yes"}}, {"type": "node", "id": 2550087842, "lat": 40.6439716, "lon": -74.0116989, "tags": {"addr:city": "Brooklyn", "addr:housenumber": "5202", "addr:postcode": "11220", "addr:state": "NY", "addr:street": "5th Avenue", "name": "HealthFirst", "office": "insurance", "opening_hours": "Mo-Sa 09:00-15:00", "phone": "+1-866-463-6743", "website": "healthfirst.org"}}, {"type": "node", "id": 2550087849, "lat": 40.6447973, "lon": -74.0140169, "tags": {"addr:housenumber": "5219", "addr:postcode": "11220", "addr:street": "4th Avenue", "alt_name": "Ria Money Transfer", "amenity": "money_transfer", "name": "Atlantic Travel", "office": "travel_agent", "phone": "+1-718-567-9802"}}, {"type": "node", "id": 2561552342, "lat": 40.6457885, "lon": -74.0127537, "tags": {"addr:housenumber": "405", "addr:postcode": "11220", "addr:street": "51st Street", "amenity": "taxi", "name": "Bell Car Service", "office": "taxi", "phone": "+1-718-833-2929", "website": "https://gobellny.com"}}, {"type": "node", "id": 2561552343, "lat": 40.645757, "lon": -74.0127007, "tags": {"addr:housenumber": "407", "addr:postcode": "11220", "addr:street": "51st Street", "amenity": "restaurant", "cuisine": "latin_american", "name": "La Carreta", "outdoor_seating": "street", "phone": "+1-718-567-3566"}}, {"type": "node", "id": 2561577765, "lat": 40.6440439, "lon": -74.0148048, "tags": {"addr:housenumber": "5401", "addr:postcode": "11220", "addr:street": "4th Avenue", "amenity": "pub", "cuisine": "dominican", "name": "My Coral", "outdoor_seating": "sidewalk", "phone": "+1-718-492-2009"}}, {"type": "node", "id": 2561579896, "lat": 40.6430533, "lon": -74.0126417}, {"type": "node", "id": 2561579948, "lat": 40.6431086, "lon": -74.012584}, {"type": "node", "id": 2561579987, "lat": 40.6431612, "lon": -74.0128211}, {"type": "node", "id": 2561580038, "lat": 40.6432164, "lon": -74.0127633}, {"type": "node", "id": 2561694348, "lat": 40.6448164, "lon": -74.014603, "tags": {"addr:housenumber": "5302", "addr:postcode": "11220", "addr:street": "4th Avenue", "brand": "H&R Block", "brand:wikidata": "Q5627799", "name": "H&R Block", "office": "tax_advisor", "phone": "+1-718-567-8053"}}, {"type": "node", "id": 2561707885, "lat": 40.6462207, "lon": -74.0168956, "tags": {"addr:housenumber": "276", "addr:postcode": "11220", "addr:street": "53rd Street", "name": "Balanced Vending", "office": "company", "phone": "+1-718-844-0267", "website": "https://www.balancedvending.com"}}, {"type": "node", "id": 2561709395, "lat": 40.6475766, "lon": -74.0157524}, {"type": "node", "id": 2561709406, "lat": 40.647594, "lon": -74.015734}, {"type": "node", "id": 2561709450, "lat": 40.6477098, "lon": -74.0159705}, {"type": "node", "id": 2561709460, "lat": 40.647732, "lon": -74.0155887}, {"type": "node", "id": 2561709483, "lat": 40.6477884, "lon": -74.0155293}, {"type": "node", "id": 2561709567, "lat": 40.6479217, "lon": -74.0157474}, {"type": "node", "id": 9432015993, "lat": 40.6432914, "lon": -74.0155622, "tags": {"name": "Manuel A. Romero, P.C.", "office": "lawyer", "phone": "+1-718-492-4200", "service:notary": "yes"}}, {"type": "node", "id": 9432015997, "lat": 40.6431744, "lon": -74.0156777, "tags": {"fax": "+1-718-567-9407", "level": "-1", "name": "Metro II Services", "office": "tax_advisor", "phone": "+1-718-567-9405"}}, {"type": "node", "id": 9432075594, "lat": 40.6437024, "lon": -74.0150446, "tags": {"fax": "+1-718-492-1661", "office": "estate_agent", "phone": "+1-718-492-1200"}}, {"type": "node", "id": 9432075599, "lat": 40.6439884, "lon": -74.0148624, "tags": {"name": "Built NYG", "office": "construction_company", "phone": "+1-347-987-3556", "website": "https://www.builtnyg.com"}}, {"type": "node", "id": 9432075602, "lat": 40.6437312, "lon": -74.0151296, "tags": {"fax": "+1-718-492-1311", "name": "Law Offices of Jorge Rosario", "office": "lawyer", "phone": "+1-718-492-2626", "service:notary": "yes"}}, {"type": "node", "id": 9432153002, "lat": 40.6448644, "lon": -74.0139344, "tags": {"amenity": "money_transfer", "name": "Pay-o-matic", "office": "financial", "opening_hours": "Mo-Tu 07:00-22:00; We-Fr 07:00-23:00; Sa 07:00-22:00; Su 07:00-21:00"}}, {"type": "node", "id": 9432153007, "lat": 40.6451592, "lon": -74.0136405, "tags": {"addr:housenumber": "5201", "addr:postcode": "11220", "addr:street": "4th Avenue", "amenity": "restaurant", "cuisine": "latin_american", "delivery": "yes", "name": "El Buen Gusto Restaurant", "phone": "+1-718-492-6001", "takeaway": "yes"}}, {"type": "node", "id": 9432371725, "lat": 40.6455987, "lon": -74.0128939, "tags": {"level": "1", "name": "Sunset Park Redevelopment Committee", "office": "association", "phone": "+1-718-492-8580", "website": "https://www.sprccomm.org"}}, {"type": "node", "id": 9501513257, "lat": 40.6451065, "lon": -74.0105193, "tags": {"addr:housenumber": "5002", "addr:postcode": "11220", "addr:street": "5th Avenue", "alt_name": "Hi Tea", "amenity": "cafe", "name": "ViVi Bubble Tea"}}, {"type": "node", "id": 9773702366, "lat": 40.647534, "lon": -74.0151894, "tags": {"amenity": "restaurant", "cuisine": "latin_american", "name": "Usuluteco #2", "opening_hours": "Mo-Fr 10:00-22:00", "phone": "+1-718-439-0079", "takeaway": "yes"}}, {"type": "node", "id": 10163808180, "lat": 40.6468403, "lon": -74.0124973, "tags": {"name": "Guzman Business Services", "office": "tax_advisor", "phone": "+1-718-788-0608", "website": "https://www.guzmanbs.com"}}, {"type": "node", "id": 10245471205, "lat": 40.6426935, "lon": -74.0121247, "tags": {"amenity": "school", "level": "1", "name": "LEEP Dual Language Academy", "phone": "+1-917-819-5337", "website": "https://www.leepacademies.org/"}}, {"type": "node", "id": 10308841079, "lat": 40.642559, "lon": -74.0123376, "tags": {"name": "Henrco, LLC", "office": "company"}}, {"type": "node", "id": 10676873026, "lat": 40.6429756, "lon": -74.0130406, "tags": {"addr:housenumber": "476", "addr:postcode": "11220", "addr:street": "54th Street", "name": "Azteca Express Travel", "office": "travel_agent", "phone": "+1-718-439-1515"}}, {"type": "node", "id": 10676873030, "lat": 40.644482, "lon": -74.0140369, "tags": {"alt_name": "Paquita Service Center", "name": "Paquita Beltre Service Center", "office": "accountant", "opening_hours": "Mo-Fr 09:00-18:00; Sa 10:00-16:00", "phone": "+1-718-567-7169", "service:notary": "yes", "website": "https://paquitasservicecenter.com"}}, {"type": "node", "id": 10676873035, "lat": 40.64319, "lon": -74.0129782, "tags": {"name": "Law Office of Richard Villar Esq.", "office": "lawyer", "phone": "+1-718-492-3600"}}, {"type": "node", "id": 10678349893, "lat": 40.6436924, "lon": -74.0122954, "tags": {"addr:housenumber": "475", "addr:postcode": "11220", "addr:street": "53rd Street", "amenity": "school", "level": "1", "name": "LEEP Dual Language Academy", "phone": "+1-917-819-5337", "website": "https://www.leepacademies.org/"}}, {"type": "node", "id": 11479622123, "lat": 40.6443623, "lon": -74.0114284, "tags": {"name": "Sunset Park Business Improvement District", "office": "association", "phone": "+1-718-439-7767", "short_name": "Sunset Park BID"}}, {"type": "node", "id": 11480602173, "lat": 40.6429642, "lon": -74.0131416, "tags": {"name": "Porfirio Ramierez Mendoza Foreign Legal Advisors", "office": "company", "phone": "+1-973-931-6410"}}, {"type": "node", "id": 11764608694, "lat": 40.643804, "lon": -74.0124819, "tags": {"amenity": "taxi", "name": "Mixteca USA", "office": "taxi", "opening_hours": "24/7", "phone": "+1-718-439-0556", "website": "https://mixtecausainc.com"}}, {"type": "way", "id": 249574342, "nodes": [2561579896, 2561579987, 2561580038, 2561579948, 2561579896], "tags": {"addr:housenumber": "5320", "addr:postcode": "11220", "addr:street": "5th Avenue", "building": "yes", "height": "8.9", "name": "Anthem", "nycdoitt:bin": "3014259", "office": "insurance"}}, {"type": "way", "id": 249587013, "nodes": [2561709395, 2561709450, 2561709567, 2561709483, 2561709460, 2561709406, 2561709395], "tags": {"addr:housenumber": "257", "addr:postcode": "11220", "addr:street": "51st Street", "building": "yes", "height": "10.4", "name": "Precision Elevator", "nycdoitt:bin": "3250703", "office": "company"}}]}