{"version": 0.6, "generator": "Overpass API 0.7.62.8 e802775f", "osm3s": {"timestamp_osm_base": "2025-12-01T03:55:56Z", "copyright": "The data included in this document is from www.openstreetmap.org. The data is made available under ODbL."}, "elements": [{"type": "node", "id": 357610837, "lat": 40.7289704, "lon": -73.9900888, "tags": {"name": "NYC4Ukraine", "office": "charity", "operator": "Cornerstone First Ukrainian Assembly of God", "phone": "+1-917-409-0415", "website": "https://www.nyc4ukraine.com"}}, {"type": "node", "id": 357618564, "lat": 40.7313624, "lon": -73.9944525, "tags": {"addr:street": "East 8th Street", "alt_name": "Cantor Film Center", "amenity": "school", "ele": "9", "gnis:feature_id": "2080741", "name": "Iris and B Gerald Cantor Film Center"}}, {"type": "node", "id": 879680036, "lat": 40.7282929, "lon": -73.9885805, "tags": {"addr:city": "New York", "addr:housenumber": "43", "addr:postcode": "10003", "addr:state": "NY", "addr:street": "East 7th Street", "amenity": "bar", "contact:twitter": "https://twitter.com/StandingsNYC", "name": "Standings", "opening_hours": "Mo-Th 17:00-01:00, Fr 17:00-02:00, Sa 12:00-02:00, Su 12:00-24:00", "phone": "+1-212-420-0671", "sport": "yes", "start_date": "2005"}}, {"type": "node", "id": 879705916, "lat": 40.7283251, "lon": -73.9886573, "tags": {"addr:city": "New York", "addr:housenumber": "41", "addr:postcode": "10003", "addr:state": "NY", "addr:street": "East 7th Street", "amenity": "pub", "check_date": "2023-10-17", "name": "Burp Castle", "opening_hours": "Mo-Fr 17:00-23:00+; Sa,Su 16:00-23:00+"}}, {"type": "node", "id": 1110619836, "lat": 40.7284495, "lon": -73.9908469}, {"type": "node", "id": 1110619910, "lat": 40.7285237, "lon": -73.9910498}, {"type": "node", "id": 1110619966, "lat": 40.7291913, "lon": -73.9909094}, {"type": "node", "id": 1110619975, "lat": 40.728995, "lon": -73.9904675}, {"type": "node", "id": 1241288717, "lat": 40.7264876, "lon": -73.9971363}, {"type": "node", "id": 1241288720, "lat": 40.7308705, "lon": -74.0003257}, {"type": "node", "id": 1241288722, "lat": 40.7275913, "lon": -73.9961808}, {"type": "node", "id": 1241288724, "lat": 40.7260797, "lon": -73.9963141}, {"type": "node", "id": 1241288726, "lat": 40.7303373, "lon": -73.9948898}, {"type": "node", "id": 1241288727, "lat": 40.7323333, "lon": -73.9977498}, {"type": "node", "id": 1241288730, "lat": 40.7281958, "lon": -73.9956713}, {"type": "node", "id": 1241288732, "lat": 40.7290798, "lon": -73.9948925}, {"type": "node", "id": 1241288733, "lat": 40.7286293, "lon": -73.993981}, {"type": "node", "id": 1241288735, "lat": 40.727804, "lon": -73.9948769}, {"type": "node", "id": 1241288737, "lat": 40.726278, "lon": -73.9973165}, {"type": "node", "id": 1241288740, "lat": 40.7259582, "lon": -73.9975834}, {"type": "node", "id": 1241288742, "lat": 40.7270368, "lon": -73.9996987}, {"type": "node", "id": 1241288744, "lat": 40.7258656, "lon": -73.9965}, {"type": "node", "id": 1241288746, "lat": 40.7312344, "lon": -73.994137}, {"type": "node", "id": 1241288747, "lat": 40.7318616, "lon": -73.999674}, {"type": "node", "id": 1241288753, "lat": 40.7271999, "lon": -73.995385}, {"type": "node", "id": 1241288754, "lat": 40.7295127, "lon": -73.9932296}, {"type": "node", "id": 1729141648, "lat": 40.7318434, "lon": -73.9908441}, {"type": "node", "id": 1729141660, "lat": 40.7318982, "lon": -73.9908277}, {"type": "node", "id": 1729141671, "lat": 40.7318803, "lon": -73.9907236}, {"type": "node", "id": 1729141672, "lat": 40.7319202, "lon": -73.9907116}, {"type": "node", "id": 1729141677, "lat": 40.7320458, "lon": -73.9906297}, {"type": "node", "id": 1729141678, "lat": 40.7319579, "lon": -73.9904243}, {"type": "node", "id": 1729141685, "lat": 40.7319895, "lon": -73.9906143}, {"type": "node", "id": 1729141692, "lat": 40.7319077, "lon": -73.9906388}, {"type": "node", "id": 1729141694, "lat": 40.7321609, "lon": -73.9903678}, {"type": "node", "id": 1882727600, "lat": 40.7294602, "lon": -73.9942764, "tags": {"department": "philosophy", "name": "NYU Philosophy Department", "office": "university"}}, {"type": "node", "id": 2077984659, "lat": 40.7313204, "lon": -73.9985651}, {"type": "node", "id": 2322509058, "lat": 40.730445, "lon": -73.9899351, "tags": {"name": "MGNY", "office": "tax_advisor", "phone": "+1-212-343-1111", "website": "https://mgnyconsulting.com"}}, {"type": "node", "id": 2494160625, "lat": 40.7279733, "lon": -73.9883791, "tags": {"addr:housenumber": "117", "addr:postcode": "10003", "addr:street": "2nd Avenue", "amenity": "restaurant", "bar": "yes", "cuisine": "italian", "drink:beer": "draught", "drink:wine": "yes", "indoor_seating": "yes", "name": "San Marzano", "opening_hours": "We-Su 12:00-22:00", "outdoor_seating": "yes"}}, {"type": "node", "id": 2494160674, "lat": 40.7285199, "lon": -73.9879471, "tags": {"addr:housenumber": "131", "addr:postcode": "10003", "addr:street": "2nd Avenue", "amenity": "restaurant", "cuisine": "burger", "drink:beer": "yes", "indoor_seating": "yes", "name": "Paul's \"Da Burger Joint\"", "opening_hours": "Mo-Th 11:00-23:30; Fr-Sa 11:00-24:00; Su 11:00-23:30", "outdoor_seating": "yes", "phone": "+1-212-529-3033", "website": "https://paulsburgersnyc.com"}}, {"type": "node", "id": 2494160717, "lat": 40.7281531, "lon": -73.9900981}, {"type": "node", "id": 2494161089, "lat": 40.7290829, "lon": -73.990007, "tags": {"addr:housenumber": "63", "addr:postcode": "10003", "addr:street": "Cooper Square", "amenity": "restaurant", "cuisine": "ramen", "name": "Mr. Keke", "opening_hours": "Mo-Su 12:00-22:00", "phone": "+1-917-328-5777", "website": "https://www.mrkeke.net/restaurant-location-manhattan"}}, {"type": "node", "id": 2494161908, "lat": 40.727931, "lon": -73.9895691}, {"type": "node", "id": 2494162042, "lat": 40.7281479, "lon": -73.9894117}, {"type": "node", "id": 2494162121, "lat": 40.7282197, "lon": -73.9897515}, {"type": "node", "id": 2494162140, "lat": 40.7282297, "lon": -73.9897754}, {"type": "node", "id": 2494162156, "lat": 40.7283229, "lon": -73.9892142, "tags": {"addr:housenumber": "30", "addr:postcode": "10003", "addr:street": "East 7th Street", "name": "Saint George Rectory", "office": "religion"}}, {"type": "node", "id": 2494162163, "lat": 40.728262, "lon": -73.9896833}, {"type": "node", "id": 2494162209, "lat": 40.7283157, "lon": -73.9899801}, {"type": "node", "id": 2494245451, "lat": 40.728772, "lon": -73.9877814, "tags": {"addr:city": "New York", "addr:housenumber": "133", "addr:postcode": "10003", "addr:state": "NY", "addr:street": "2nd Avenue", "amenity": "cafe", "brand": "Xing Fu Tang", "brand:en": "Xing Fu Tang", "brand:wikidata": "Q95720330", "brand:zh": "\u5e78\u798f\u5802", "cuisine": "bubble_tea", "int_name": "Xing Fu Tang", "name": "Xing Fu Tang", "name:en": "Xing Fu Tang", "name:zh": "\u5e78\u798f\u5802", "opening_hours": "Mo-Th 14:00-22:00; Fr-Su 14:00-23:00", "phone": "+1-718-799-0220", "takeaway": "yes", "website": "https://xingfutang.com"}}, {"type": "node", "id": 2494245511, "lat": 40.7300152, "lon": -73.9885939}, {"type": "node", "id": 2494245564, "lat": 40.7297134, "lon": -73.98873, "tags": {"addr:housenumber": "212", "addr:postcode": "10003", "addr:street": "East 9th Street", "amenity": "bar", "cuisine": "asian", "name": "212 East", "opening_hours": "Mo-Su 15:30-22:00", "outdoor_seating": "no"}}, {"type": "node", "id": 2494245665, "lat": 40.7297726, "lon": -73.98948, "tags": {"addr:city": "New York", "addr:housenumber": "31", "addr:postcode": "10003", "addr:state": "NY", "addr:street": "3rd Avenue", "amenity": "cafe", "brand": "The Bean", "brand:wikidata": "Q122209700", "cuisine": "coffee_shop", "internet_access": "wlan", "internet_access:fee": "no", "name": "The Bean", "opening_hours": "Mo-Su 07:00-21:00", "outdoor_seating": "yes", "takeaway": "yes"}}, {"type": "node", "id": 2494245730, "lat": 40.7301107, "lon": -73.9902463, "tags": {"addr:housenumber": "51", "addr:postcode": "10003", "addr:street": "Astor Place", "name": "IBM Watson", "office": "company", "operator": "IBM", "website": "https://www.ibm.com/watson", "wikipedia": "en:Watson (computer)"}}, {"type": "node", "id": 2494246603, "lat": 40.7300232, "lon": -73.9884911}, {"type": "node", "id": 2546986722, "lat": 40.7274628, "lon": -73.9921333}, {"type": "node", "id": 2546986732, "lat": 40.7275745, "lon": -73.9923603}, {"type": "node", "id": 2546986734, "lat": 40.7275847, "lon": -73.9920297}, {"type": "node", "id": 2546986748, "lat": 40.7276542, "lon": -73.9919695}, {"type": "node", "id": 2546986755, "lat": 40.7277031, "lon": -73.992251}, {"type": "node", "id": 2546986759, "lat": 40.7277663, "lon": -73.9918742}, {"type": "node", "id": 2546987119, "lat": 40.7294484, "lon": -73.991118}, {"type": "node", "id": 2546987145, "lat": 40.7294677, "lon": -73.9911133}, {"type": "node", "id": 2546987147, "lat": 40.7294762, "lon": -73.9910802}, {"type": "node", "id": 2546987150, "lat": 40.729501, "lon": -73.99107}, {"type": "node", "id": 2546987171, "lat": 40.7294917, "lon": -73.9910058}, {"type": "node", "id": 2547023926, "lat": 40.7300458, "lon": -73.9930576, "tags": {"addr:housenumber": "739", "addr:postcode": "10003", "addr:street": "Broadway", "amenity": "restaurant", "cuisine": "diner", "drink:beer": "draught", "drink:tea": "yes", "drink:wine": "yes", "fax": "+1-212-477-4411", "name": "Cozy Soup 'n' Burger", "opening_hours": "Mo-Th 08:00-20:00; Fr-Sa 08:00-22:00; Su 10:00-20:00", "phone": "+1-212-477-5566", "toilets": "yes", "toilets:unisex": "yes", "toilets:wheelchair": "yes", "website": "http://www.cozysoupandburger.com"}}, {"type": "node", "id": 2547036910, "lat": 40.7277644, "lon": -73.9940694}, {"type": "node", "id": 2547036923, "lat": 40.7278577, "lon": -73.9939897}, {"type": "node", "id": 2547036941, "lat": 40.7279623, "lon": -73.9944726}, {"type": "node", "id": 2547036945, "lat": 40.7279432, "lon": -73.9942997, "tags": {"amenity": "restaurant", "cuisine": "american", "name": "The GRID", "opening_hours": "We-Su 17:30-21:30", "phone": "+1-332-910-9877", "website": "https://greatjonesdistillingco.com/restaurant/"}}, {"type": "node", "id": 2547036956, "lat": 40.7280556, "lon": -73.9943928}, {"type": "node", "id": 2547114752, "lat": 40.7323434, "lon": -73.9876343, "tags": {"addr:housenumber": "101", "addr:postcode": "10003", "addr:street": "3rd Avenue", "amenity": "restaurant", "bar": "yes", "cocktails": "yes", "cuisine": "american;pub;brunch", "drink:beer": "draught", "drink:liquor": "yes", "drink:wine": "yes", "name": "Linen Hall", "opening_hours": "Mo-Th 11:00-24:00; Fr-Sa 11:00-02:00", "opening_hours:kitchen": "Mo-Sa 11:00-21:00", "phone": "+1-646-602-9316", "toilets:wheelchair": "no", "website": "https://linenhallnyc.com", "wheelchair": "yes"}}, {"type": "node", "id": 2547114757, "lat": 40.7324161, "lon": -73.9875816, "tags": {"addr:housenumber": "103", "addr:postcode": "10003", "addr:street": "3rd Avenue", "amenity": "pub", "cocktails": "yes", "cuisine": "american;pub;brunch", "drink:beer": "draught", "drink:liquor": "yes", "drink:wine": "yes", "name": "The Penny Farthing", "opening_hours": "Mo-Th 11:00-24:00; Fr-Sa 11:00-02:00", "opening_hours:kitchen": "Mo-Sa 11:00-21:00", "outdoor_seating": "sidewalk", "phone": "+1-212-387-7300", "toilets": "yes", "toilets:unisex": "yes", "toilets:wheelchair": "no", "website": "https://thepennyfarthingnyc.com", "wheelchair": "yes"}}, {"type": "node", "id": 2547155234, "lat": 40.7304731, "lon": -73.9894757, "tags": {"addr:housenumber": "36", "addr:postcode": "10003", "addr:street": "3rd Avenue", "amenity": "cafe", "cuisine": "coffee_shop", "name": "Hidden Grounds"}}, {"type": "node", "id": 2547155241, "lat": 40.731052, "lon": -73.9902313, "tags": {"addr:housenumber": "71", "addr:postcode": "10003", "addr:street": "4th Avenue", "alt_name": "DM Restaurant", "amenity": "restaurant", "cuisine": "chinese", "name": "Hou Hot Pot", "opening_hours": "Mo-Th 12:00-22:00; Fr-Su 12:00-22:30", "phone": "+1-212-777-1838", "website": "https://www.houhotpot.com"}}, {"type": "node", "id": 2547155245, "lat": 40.7313326, "lon": -73.9901504, "tags": {"addr:housenumber": "85", "addr:postcode": "10003", "addr:street": "4th Avenue", "amenity": "restaurant", "cuisine": "dim_sum;chinese", "name": "Tim Ho Wan", "opening_hours": "Mo-Tu 11:30-20:00; We-Th 11:30-20:30; Fr 11:30-21:00; Sa 11:00-21:00; Su 11:00-20:00", "phone": "+1-212-228-2800", "website": "https://timhowanusa.com"}}, {"type": "node", "id": 2547162163, "lat": 40.7301234, "lon": -73.9941159, "tags": {"addr:city": "New York", "addr:housenumber": "11", "addr:postcode": "10003", "addr:state": "NY", "addr:street": "Waverly Place", "amenity": "cafe", "cuisine": "bubble_tea", "name": "Lazy Sundaes", "opening_hours": "Su-Th 12:00-21:00; Fr-Sa 12:00-22:00"}}, {"type": "node", "id": 2547162213, "lat": 40.7302457, "lon": -73.9939666, "tags": {"addr:city": "New York", "addr:housenumber": "293", "addr:postcode": "10003", "addr:state": "NY", "addr:street": "Mercer Street", "amenity": "cafe", "brand": "Matto Espresso", "brand:wikidata": "Q122209496", "cuisine": "coffee_shop", "description": "Coffee Shop", "name": "Matto Espresso", "opening_hours": "Mo-Fr 07:00-18:00; Su 07:00-17:00", "outdoor_seating": "yes", "phone": "+13478828000", "takeaway": "yes", "website": "https://www.matto.com/"}}, {"type": "node", "id": 2547193456, "lat": 40.7315927, "lon": -73.9905097}, {"type": "node", "id": 2547193459, "lat": 40.7316398, "lon": -73.9907913}, {"type": "node", "id": 2547193462, "lat": 40.7317244, "lon": -73.9904727}, {"type": "node", "id": 2547193465, "lat": 40.73176, "lon": -73.9906798}, {"type": "node", "id": 2547193468, "lat": 40.7317718, "lon": -73.9907532}, {"type": "node", "id": 2547193487, "lat": 40.7319039, "lon": -73.990419}, {"type": "node", "id": 2547193491, "lat": 40.7319123, "lon": -73.990468}, {"type": "node", "id": 2547193494, "lat": 40.7319617, "lon": -73.9904532}, {"type": "node", "id": 2547193506, "lat": 40.732167, "lon": -73.9905934}, {"type": "node", "id": 2547193508, "lat": 40.7321857, "lon": -73.9905224}, {"type": "node", "id": 2547193511, "lat": 40.7321942, "lon": -73.990751}, {"type": "node", "id": 2547193528, "lat": 40.7322913, "lon": -73.9904924}, {"type": "node", "id": 2547193531, "lat": 40.7323281, "lon": -73.9907124}, {"type": "node", "id": 2547205472, "lat": 40.7323365, "lon": -73.9881158, "tags": {"amenity": "restaurant", "cuisine": "chinese", "delivery": "yes", "name": "Hunan Bistro", "phone": "+1-212-388-9855", "takeaway": "yes"}}, {"type": "node", "id": 2889066126, "lat": 40.7291974, "lon": -73.9916255, "tags": {"addr:city": "New York", "addr:housenumber": "425", "addr:postcode": "10003", "addr:street": "Lafayette Street", "amenity": "bar", "name": "Joe's Pub at the Public", "opening_hours:signed": "no", "wikidata": "Q6208228", "wikipedia": "en:Joe's Pub"}}, {"type": "node", "id": 3170212010, "lat": 40.7294677, "lon": -73.9911011}, {"type": "node", "id": 3170212011, "lat": 40.7294706, "lon": -73.9910899}, {"type": "node", "id": 3170212014, "lat": 40.7294835, "lon": -73.9910734}, {"type": "node", "id": 3170212015, "lat": 40.7294921, "lon": -73.9910699}, {"type": "node", "id": 3170212029, "lat": 40.7294534, "lon": -73.9911514}, {"type": "node", "id": 3502137816, "lat": 40.7319768, "lon": -73.9942396, "tags": {"addr:city": "New York", "addr:housenumber": "33", "addr:postcode": "10003", "addr:state": "NY", "addr:street": "University Place", "amenity": "restaurant", "cuisine": "american", "name": "Knickerbocker Bar & Grill", "opening_hours": "\"Temporarily closed\"", "wheelchair": "no"}}, {"type": "node", "id": 3577652948, "lat": 40.7309292, "lon": -73.990263, "tags": {"addr:city": "New York", "addr:housenumber": "65", "addr:postcode": "10003", "addr:state": "NY", "addr:street": "4th Avenue", "air_conditioning": "yes", "amenity": "restaurant", "bar": "yes", "branch": "NY", "brand": "Ippudo", "brand:en": "Ippudo", "brand:ja": "\u4e00\u98a8\u5802", "brand:wikidata": "Q6065417", "check_date": "2023-10-05", "cocktails": "yes", "cuisine": "ramen", "drink:beer": "draught", "drink:wine": "yes", "happy_hours": "Mo-Fr 15:00-18:00; Sa-Su 14:00-18:00", "name": "Ippudo", "name:en": "Ippudo", "name:ja": "\u4e00\u98a8\u5802", "opening_hours": "Mo-Th 11:30-22:30; Fr-Sa 11:30-23:30; Su 11:30-22:30", "outdoor_seating": "no", "payment:cash": "yes", "payment:credit_cards": "yes", "payment:debit_cards": "yes", "payment:mastercard": "yes", "payment:visa": "yes", "phone": "+1-212-388-0088", "website": "https://ippudony.com"}}, {"type": "node", "id": 3581307956, "lat": 40.7280641, "lon": -73.9932516, "tags": {"addr:city": "New York", "addr:housenumber": "400", "addr:postcode": "10003", "addr:state": "NY", "addr:street": "Lafayette Street", "amenity": "cafe", "brand": "La Colombe Coffee Roasters", "brand:wikidata": "Q23461663", "check_date:opening_hours": "2025-07-23", "cuisine": "coffee_shop", "name": "La Colombe Coffee Roasters", "opening_hours": "Mo-Su 07:30-18:30", "phone": "+1-212-677-5834", "short_name": "La Colombe", "takeaway": "yes", "website": "https://www.lacolombe.com/"}}, {"type": "node", "id": 4146374200, "lat": 40.7284522, "lon": -73.9889619, "tags": {"addr:city": "New York", "addr:housenumber": "33", "addr:postcode": "10003", "addr:state": "NY", "addr:street": "East 7th Street", "amenity": "restaurant", "contact:instagram": "streecha", "cuisine": "ukrainian", "level": "-1", "name": "Streecha Ukrainian Kitchen", "name:uk": "\u0421\u0442\u0440\u0456\u0447\u0430", "opening_hours": "9:00-13:00", "phone": "+1-914-413-9774"}}, {"type": "node", "id": 4455580390, "lat": 40.7282161, "lon": -73.991431, "tags": {"amenity": "restaurant", "brand": "Gyu-Kaku", "brand:wikidata": "Q11349387", "cuisine": "japanese;barbecue", "name": "Gyu-Kaku", "name:en": "Gyu-Kaku Japanese BBQ", "opening_hours": "Su-Th 11:00-21:00; Fr,Sa 11:00-22:00"}}, {"type": "node", "id": 4475057767, "lat": 40.7318504, "lon": -73.9905257, "tags": {"addr:city": "New York", "addr:housenumber": "86", "addr:postcode": "10003", "addr:state": "NY", "addr:street": "4th Avenue", "amenity": "school", "name": "Grace Church School"}}, {"type": "node", "id": 4500010362, "lat": 40.7314382, "lon": -73.9905522}, {"type": "node", "id": 4500010364, "lat": 40.7314428, "lon": -73.9905402}, {"type": "node", "id": 4500010372, "lat": 40.73167, "lon": -73.9910883}, {"type": "node", "id": 4500010377, "lat": 40.7317345, "lon": -73.9908762}, {"type": "node", "id": 4500010379, "lat": 40.7317579, "lon": -73.9910297}, {"type": "node", "id": 4500010380, "lat": 40.7317703, "lon": -73.9907436}, {"type": "node", "id": 4500010381, "lat": 40.731808, "lon": -73.9908594}, {"type": "node", "id": 4577074781, "lat": 40.7278737, "lon": -73.9921105}, {"type": "node", "id": 4685430884, "lat": 40.7319955, "lon": -73.990649}, {"type": "node", "id": 4685430885, "lat": 40.7316029, "lon": -73.9909331}, {"type": "node", "id": 4685430886, "lat": 40.7317386, "lon": -73.9909032}, {"type": "node", "id": 4685441942, "lat": 40.728558, "lon": -73.9910814}, {"type": "node", "id": 4685441946, "lat": 40.728615, "lon": -73.9910852}, {"type": "node", "id": 4685441947, "lat": 40.7284823, "lon": -73.9909998}, {"type": "node", "id": 4685441948, "lat": 40.7284465, "lon": -73.9908888}, {"type": "node", "id": 4816775623, "lat": 40.7295926, "lon": -73.9879292, "tags": {"addr:postcode": "10003", "alt_name": "Soba-ya", "amenity": "restaurant", "cuisine": "japanese", "indoor_seating": "yes", "name": "Sobaya", "opening_hours": "Mo,We,Th 12:00-21:00; Fr,Sa 12:00-22:00; Su 12:00-20:00", "outdoor_seating": "no", "phone": "+1-212-533-6966", "website": "https://sobaya.square.site"}}, {"type": "node", "id": 4844172523, "lat": 40.7313359, "lon": -73.9919775, "tags": {"addr:housenumber": "771", "addr:postcode": "10003", "addr:street": "Broadway", "amenity": "cafe", "brand": "The Bean", "brand:wikidata": "Q122209700", "cuisine": "coffee_shop", "diet:vegan": "yes", "drink:coffee": "yes", "drink:espresso": "yes", "drink:tea": "yes", "indoor_seating": "yes", "internet_access": "wlan", "internet_access:fee": "no", "name": "The Bean", "opening_hours": "Mo-Su 07:00-21:00", "outdoor_seating": "yes", "phone": "+1-646-781-9620", "takeaway": "yes", "website": "https://www.thebean.nyc"}}, {"type": "node", "id": 4846659021, "lat": 40.7275668, "lon": -73.9905608, "tags": {"addr:city": "New York", "addr:housenumber": "209", "addr:postcode": "10003", "addr:state": "NY", "addr:street": "East 5th Street", "amenity": "pub", "brewery": "yes", "contact:facebook": "https://www.facebook.com/The-Scratcher-385137331523990/", "cuisine": "irish", "name": "The Scratcher", "name:en": "The Scratcher", "opening_hours": "Su, Mo 16:00-03:00; Tu-Sa 15:00-03:00", "outdoor_seating": "street", "phone": "+1-212-477-0030"}}, {"type": "node", "id": 4922311227, "lat": 40.7273626, "lon": -73.9888015, "tags": {"addr:housenumber": "101", "addr:postcode": "10003", "addr:street": "2nd Avenue", "amenity": "cafe", "check_date:opening_hours": "2023-09-16", "drink:coffee": "yes", "drink:espresso": "yes", "drink:tea": "yes", "indoor_seating": "yes", "name": "787 Coffee", "opening_hours:signed": "no", "outdoor_seating": "yes", "phone": "+1-646-838-9890", "website": "https://www.787coffee.com"}}, {"type": "node", "id": 4998805616, "lat": 40.73265, "lon": -73.9914016, "tags": {"addr:housenumber": "801", "addr:postcode": "10003", "addr:street": "Broadway", "amenity": "cafe", "branch": "Union Square", "cuisine": "coffee_shop", "name": "Hex & Co.", "opening_hours": "Mo-Su 10:00-23:00", "phone": "+1-646-524-5163", "shop": "games", "website": "https://www.hexnyc.com/hexco-union-square/"}}, {"type": "node", "id": 5397270880, "lat": 40.7294568, "lon": -73.9881288, "tags": {"addr:city": "New York", "addr:housenumber": "230", "addr:postcode": "10003", "addr:state": "NY", "addr:street": "East 9th Street", "amenity": "cafe", "cocktails": "yes", "contact:facebook": "https://www.facebook.com/chaanteahouse", "contact:instagram": "https://www.instagram.com/chaanteahouse", "contact:yelp": "contact:yelp=https://www.yelp.com/biz/cha-an-new-york", "drink:matcha": "yes", "drink:tea": "yes", "email": "info@chaanteahouse.com", "level": "1", "name": "Cha-An Teahouse", "opening_hours": "Mo 15:00-20:00; Th 14:00-20:00; Fr 14:00-21:00; Sa 13:00-21:00; Su 13:00-19:00", "operator": "T.I.C. Restaurant Group", "outdoor_seating": "no", "phone": "+1 212-228-8030", "reservation": "no", "start_date": "2004", "website": "https://www.chaanteahouse.com", "website:menu": "https://www.chaanteahouse.com/menu"}}, {"type": "node", "id": 5397501569, "lat": 40.7292798, "lon": -73.988977, "tags": {"addr:city": "New York", "addr:housenumber": "13", "addr:postcode": "10003", "addr:state": "NY", "addr:street": "Saint Marks Place", "amenity": "restaurant", "contact:instagram": "https://www.instagram.com/thebaony/", "cuisine": "dumplings;chinese", "name": "The Bao", "opening_hours": "11:30-22:00", "phone": "+1-212-388-9238", "website": "https://www.spotdessertbar.com/"}}, {"type": "node", "id": 5446727422, "lat": 40.7292159, "lon": -73.9894764, "tags": {"amenity": "bar", "branch": "St. Mark's Place", "check_date:opening_hours": "2024-05-18", "cuisine": "pub", "drink:beer": "yes", "happy_hours": "Mo-Fr 16:00-19:00", "leisure": "amusement_arcade", "name": "Barcade", "opening_hours": "Mo-Su 14:00-02:00", "opening_hours:kitchen": "Mo-Fr 16:00-24:00; Sa 14:00-24:00; Su 14:00-23:00", "payment:credit_cards": "yes", "payment:debit_cards": "yes", "phone": "+1-212-388-0522", "toilets": "yes", "website": "https://barcadestmarks.com/", "wheelchair": "yes"}}, {"type": "node", "id": 5780106463, "lat": 40.7293002, "lon": -73.9910653}, {"type": "node", "id": 5784518509, "lat": 40.7284661, "lon": -73.9908354, "tags": {"barrier": "kerb", "kerb": "lowered", "tactile_paving": "yes"}}, {"type": "node", "id": 5784518539, "lat": 40.7291667, "lon": -73.9908514}, {"type": "node", "id": 5784518540, "lat": 40.7290016, "lon": -73.9904821}, {"type": "node", "id": 5792284140, "lat": 40.7275742, "lon": -73.993705, "tags": {"addr:housenumber": "380", "addr:street": "Lafayette", "amenity": "cafe", "breakfast": "Mo-Fr 08:00-11:30;Sa-Su 08:00-10:00", "cocktails": "yes", "craft": "caterer", "cuisine": "french", "delivery": "yes", "drink:coffee": "yes", "drink:tea": "yes", "drink:wine": "yes", "email": "info@lafayetteny.com", "happy_hours": "Mo-Fr 16:00-18:30", "lunch": "Mo-Fr 12:00-15:00", "name": "Lafayette Grand Caf\u00e9 & Bakery", "opening_hours": "Mo-Su 08:00-22:00", "phone": "+1-212-533-3000", "reservation": "recommended", "shop": "bakery", "takeaway": "yes", "website": "https://www.lafayetteny.com/", "wheelchair": "yes"}}, {"type": "node", "id": 5906911085, "lat": 40.7302029, "lon": -73.9940209, "tags": {"addr:housenumber": "289", "addr:street": "Mercer Street", "amenity": "restaurant", "disused": "yes", "name": "Peppercorn Kitchen", "website": "http://peppercornkitchen.nyc.com"}}, {"type": "node", "id": 6027534885, "lat": 40.7290966, "lon": -73.9917737, "tags": {"amenity": "pub", "name": "joe\u2019s pub", "opening_hours:signed": "no", "wikidata": "Q6208228"}}, {"type": "node", "id": 6110907588, "lat": 40.7291946, "lon": -73.9886324, "tags": {"addr:housenumber": "23", "addr:postcode": "10003", "addr:street": "Saint Marks Place", "amenity": "cafe", "brand": "Mango Mango Dessert", "brand:wikidata": "Q117811257", "cuisine": "asian;dessert", "level": "1", "name": "Mango Mango Dessert", "opening_hours": "Mo-Th 14:00-23:00; Fr-Sa 13:00-24:00", "takeaway": "yes", "website": "https://www.mangomangodessert.com"}}, {"type": "node", "id": 6124186694, "lat": 40.72936, "lon": -73.9912013}, {"type": "node", "id": 6142309885, "lat": 40.7292596, "lon": -73.99246, "tags": {"addr:postcode": "10003", "amenity": "restaurant", "cuisine": "vietnamese", "name": "Indochine", "opening_hours": "Su-We 17:30-23:00; Th-Sa 17:30-00:00", "phone": "+12125055111", "website": "https://www.indochinenyc.com/"}}, {"type": "node", "id": 6306100371, "lat": 40.729934, "lon": -73.9900686, "tags": {"addr:housenumber": "101", "addr:postcode": "10003", "addr:street": "Astor Place", "amenity": "college", "branch": "Manhattan Campus", "name": "St. John's University", "phone": "+1-718-990-2000", "website": "https://www.stjohns.edu/about/campuses-locations/manhattan-campus"}}, {"type": "node", "id": 6345333428, "lat": 40.7312029, "lon": -73.9899196, "tags": {"addr:city": "New York", "addr:housenumber": "79", "addr:postcode": "10003", "addr:state": "NY", "addr:street": "East 10th Street", "amenity": "cafe", "cuisine": "coffee_shop;breakfast", "drink:coffee": "yes", "drink:espresso": "yes", "drink:tea": "yes", "name": "Irving Farm New York", "opening_hours": "Mo-Fr 07:00-16:00; Sa-Su 08:00-16:00", "outdoor_seating": "sidewalk", "phone": "+1-212-206-0707 x10"}}, {"type": "node", "id": 6434573686, "lat": 40.7284226, "lon": -73.988016, "tags": {"addr:city": "New York", "addr:housenumber": "127", "addr:postcode": "10003", "addr:state": "NY", "addr:street": "2nd Avenue", "alt_name": "B&H Dairy and Vegetarian", "amenity": "restaurant", "contact:facebook": "https://www.facebook.com/BHDairyKosherRestaurant", "contact:instagram": "https://www.instagram.com/bandhdairy/", "cuisine": "breakfast;sandwich;eastern_european;jewish", "delivery": "yes", "diet:kosher": "yes", "diet:vegetarian": "yes", "drink:coffee": "yes", "indoor_seating": "yes", "name": "B&H Dairy", "opening_hours": "Mo-Fr 07:00-11:30; Sa-Su 07:00-12:00", "outdoor_seating": "yes", "payment:cash": "only", "phone": "+1-212-505-8065", "start_date": "1938", "takeaway": "yes", "wheelchair": "no", "wikidata": "Q123655337", "wikipedia": "en:B&H Dairy"}}, {"type": "node", "id": 6462532123, "lat": 40.7309719, "lon": -73.9886066, "tags": {"addr:housenumber": "55", "addr:postcode": "10003", "addr:street": "3rd Avenue", "amenity": "restaurant", "cocktails": "yes", "drink:beer": "draught", "drink:liquor": "yes", "drink:wine": "yes", "name": "The Smith", "outdoor_seating": "sidewalk;street", "toilets:wheelchair": "yes", "wheelchair": "yes"}}, {"type": "node", "id": 6462532126, "lat": 40.7303245, "lon": -73.9895846, "tags": {"addr:housenumber": "30", "addr:postcode": "10003", "addr:street": "3rd Avenue", "amenity": "cafe", "drink:bubble_tea": "yes", "indoor_seating": "yes", "name": "ViVi Bubble Tea", "opening_hours": "Mo-Th 11:00-21:00; Fr-Sa 11:00-01:00; Su 11:00-23:00", "outdoor_seating": "no", "toilets": "yes", "toilets:access": "customers"}}, {"type": "node", "id": 6583004985, "lat": 40.7288654, "lon": -73.9886584, "tags": {"amenity": "restaurant", "cuisine": "chinese", "name": "886", "name:en": "886 (Taiwanese Restaurant)", "opening_hours": "Su-Th 12:00-21:00; Fr,Sa 12:00-23:00", "outdoor_seating": "yes", "website": "https://www.eighteightsix.com/", "website:menu": "https://www.eighteightsix.com/menu"}}, {"type": "node", "id": 6621617750, "lat": 40.7326818, "lon": -73.9902436, "tags": {"addr:housenumber": "114", "addr:postcode": "10003", "addr:street": "4th Avenue", "alt_name": "Paradis To Go", "amenity": "cafe", "name": "Paradis", "opening_hours": "Mo-Th 07:30-17:30; Fr 07:30-17:00", "outdoor_seating": "yes", "phone": "+1-646-416-6709", "website": "https://www.paradistogo.com"}}, {"type": "node", "id": 6662115185, "lat": 40.727873, "lon": -73.9907388, "tags": {"amenity": "restaurant", "name": "The Standard", "opening_hours": "Mo-Su 08:00-22:00"}}, {"type": "node", "id": 6693478207, "lat": 40.7327461, "lon": -73.9883025, "tags": {"addr:housenumber": "134", "addr:postcode": "10003", "addr:street": "East 13th Street", "amenity": "cafe", "drink:coffee": "yes", "drink:espresso": "yes", "name": "Everyman Espresso", "opening_hours": "Mo-Sa 08:00-17:00; Su 09:00-17:00"}}, {"type": "node", "id": 6791755732, "lat": 40.7301236, "lon": -73.990898}, {"type": "node", "id": 6791755733, "lat": 40.7301339, "lon": -73.990924}, {"type": "node", "id": 6791755734, "lat": 40.7301678, "lon": -73.9909005}, {"type": "node", "id": 6791755735, "lat": 40.7301575, "lon": -73.9908745}, {"type": "node", "id": 6969654187, "lat": 40.72845, "lon": -73.987993, "tags": {"addr:housenumber": "127", "addr:street": "2nd Avenue", "amenity": "restaurant", "check_date": "2025-02-08", "cuisine": "thai", "indoor_seating": "yes", "name": "Eim Khao Mun Kai", "name:zh": "\u6d77\u5357\u9e21\u996d", "opening_hours": "Mo-Th 12:00-21:00; Fr-Sa 12:00-22:00; Su 12:00-21:00", "opening_hours:signed": "no"}}, {"type": "node", "id": 7047041785, "lat": 40.7315779, "lon": -73.9895131, "tags": {"addr:postcode": "10003", "amenity": "restaurant", "name": "Cath\u00e9dral", "opening_hours": "We-Sa 18:00-23:00"}}, {"type": "node", "id": 7149186630, "lat": 40.7308046, "lon": -73.9916277, "tags": {"addr:city": "New York", "addr:housenumber": "770", "addr:state": "NY", "addr:street": "Broadway", "branch": "NY Office", "brand": "Meta", "brand:wikidata": "Q380", "name": "Meta", "office": "it"}}, {"type": "node", "id": 7324239647, "lat": 40.7309117, "lon": -73.9934941, "tags": {"addr:city": "New York", "addr:housenumber": "58", "addr:postcode": "10003", "addr:state": "NY", "addr:street": "East 8th Street", "amenity": "restaurant", "cuisine": "chinese", "name": "Lao Ma Spicy", "opening_hours": "Mo-Su 11:00-21:30", "phone": "+1-212-777-1887", "website": "https://laomaspicyny.com"}}, {"type": "node", "id": 7324240299, "lat": 40.7302173, "lon": -73.9940092, "tags": {"addr:city": "New York", "addr:housenumber": "289", "addr:postcode": "10003", "addr:state": "NY", "addr:street": "Mercer Street", "amenity": "restaurant", "name": "Yaso Noodle Bar", "phone": "+1-917-522-1600", "website": "https://www.yasotangbao.com/"}}, {"type": "node", "id": 7412581460, "lat": 40.7293986, "lon": -73.9892603, "tags": {"addr:city": "New York", "addr:housenumber": "7", "addr:postcode": "10003", "addr:state": "NY", "addr:street": "Saint Mark's Place", "amenity": "restaurant", "cuisine": "thai", "name": "Klong", "opening_hours": "Su-Tu 12:30-22:00; We-Sa 12:30-23:00", "phone": "+1-212-505-9955", "website": "https://www.klongmanhattan.com"}}, {"type": "node", "id": 7477289147, "lat": 40.7301569, "lon": -73.9941457, "tags": {"addr:city": "New York", "addr:housenumber": "17", "addr:postcode": "10003", "addr:state": "NY", "addr:street": "Waverly Place", "amenity": "restaurant", "cuisine": "cajun;seafood", "name": "The Boil", "phone": "+1-646-833-7110", "website": "https://www.theboilny.com/"}}, {"type": "node", "id": 8309478837, "lat": 40.7317921, "lon": -73.9965745, "tags": {"barrier": "kerb", "kerb": "lowered", "tactile_paving": "no"}}, {"type": "node", "id": 8309479188, "lat": 40.7288164, "lon": -73.9902623}, {"type": "node", "id": 8309479194, "lat": 40.7283519, "lon": -73.9906079}, {"type": "node", "id": 8309479195, "lat": 40.7282004, "lon": -73.9902508}, {"type": "node", "id": 8309479196, "lat": 40.7286689, "lon": -73.9899131}, {"type": "node", "id": 9018132187, "lat": 40.7317897, "lon": -73.9900368, "tags": {"amenity": "bar", "name": "Amsterdam Billiards & Bar"}}, {"type": "node", "id": 9018179738, "lat": 40.7302461, "lon": -73.9904206, "tags": {"amenity": "cafe", "brand": "Bluestone Lane", "brand:wikidata": "Q130381059", "name": "Bluestone Lane"}}, {"type": "node", "id": 9036389118, "lat": 40.7288297, "lon": -73.9898662, "tags": {"amenity": "restaurant", "cuisine": "barbecue;chinese", "name": "Shaji BBQ", "outdoor_seating": "street"}}, {"type": "node", "id": 9036389119, "lat": 40.7287612, "lon": -73.9897021, "tags": {"amenity": "pub", "cuisine": "pub", "name": "McSorley's Old Ale House", "opening_hours": "Mo-Sa 11:00-01:00; Su 13:00-01:00", "outdoor_seating": "sidewalk;street", "payment:cash": "only", "phone": "+1-212-474-9148", "toilets": "yes", "website": "https://mcsorleysoldalehouse.nyc/", "wheelchair": "limited", "wikidata": "Q4276394", "wikipedia": "en:McSorley's Old Ale House"}}, {"type": "node", "id": 9036389122, "lat": 40.7297204, "lon": -73.9909801, "tags": {"amenity": "cafe", "check_date": "2023-10-17", "cuisine": "breakfast;sandwich", "drink:coffee": "yes", "drink:espresso": "yes", "drink:tea": "yes", "name": "Astor Plate", "outdoor_seating": "only", "takeaway": "yes", "website": "https://astorplateny.com"}}, {"type": "node", "id": 9036389125, "lat": 40.7282924, "lon": -73.9891267, "tags": {"amenity": "cafe", "cuisine": "sandwich;pastry;french", "drink:beer": "yes", "drink:coffee": "yes", "drink:espresso": "yes", "drink:tea": "yes", "drink:wine": "yes", "internet_access": "wlan", "name": "Le Petit Parisien", "opening_hours": "Mo-Fr 08:30-18:00; Sa-Su 09:00-18:00", "outdoor_seating": "street", "phone": "+1-917-262-0406", "website": "https://www.lepetitparisienusa.com"}}, {"type": "node", "id": 9285956796, "lat": 40.7325074, "lon": -73.987978, "tags": {"amenity": "restaurant", "cocktails": "yes", "cuisine": "texan;mexican", "drink:beer": "draught", "drink:liquor": "yes", "drink:wine": "yes", "name": "Yellow Rose", "opening_hours": "Mo 17:00-22:00; Tu-Fr 12:00-22:00; Sa-Su 11:00-16:00,17:00-22:00", "phone": "+1-212-529-8880", "website": "https://www.yellowrosenyc.com", "wheelchair": "limited"}}, {"type": "node", "id": 9354018725, "lat": 40.7310025, "lon": -73.993706, "tags": {"addr:city": "New York", "addr:housenumber": "52", "addr:postcode": "10003", "addr:state": "NY", "addr:street": "East 8th Street", "amenity": "restaurant", "branch": "Soho NYU", "brand": "Pelicana", "brand:wikidata": "Q17575847", "cuisine": "korean;chicken", "delivery": "yes", "drive_through": "no", "name": "Pelicana Chicken", "opening_hours": "Mo-Su 10:45-23:00", "phone": "+1-646-969-7863", "takeaway": "yes", "website": "https://www.pelicanausa.com/"}}, {"type": "node", "id": 9472863017, "lat": 40.7292178, "lon": -73.9886913, "tags": {"addr:housenumber": "19", "addr:postcode": "10003", "addr:street": "Saint Marks Place", "amenity": "restaurant", "cuisine": "chinese", "level": "1", "name": "Che Li", "name:zh": "\u6d59\u91cc", "opening_hours": "Mo-Th 11:30-23:00; Fr-Sa 11:30-23:30; Su 11:30-23:00"}}, {"type": "node", "id": 9473109135, "lat": 40.7290769, "lon": -73.988483, "tags": {"addr:housenumber": "25", "addr:postcode": "10003", "addr:street": "Saint Marks Place", "amenity": "restaurant", "cuisine": "sushi;japanese", "name": "Kenka", "opening_hours": "Tu-Su 17:00-22:30"}}, {"type": "node", "id": 9473109136, "lat": 40.7293497, "lon": -73.9891443, "tags": {"addr:city": "New York", "addr:housenumber": "9", "addr:postcode": "10003", "addr:state": "NY", "addr:street": "Saint Marks Place", "amenity": "restaurant", "cuisine": "korean", "name": "Boka", "opening_hours": "Mo-Su 12:00-23:00", "outdoor_seating": "yes", "phone": "+1-212-228-2887", "smoking": "outside", "takeaway": "yes"}}, {"type": "node", "id": 9552593823, "lat": 40.7298931, "lon": -73.9925616, "tags": {"addr:housenumber": "2", "addr:postcode": "10003", "addr:street": "Astor Place", "contact:facebook": "hetrickmartin", "contact:instagram": "hetrickmartin", "contact:phone": "+1-212-674-2400", "contact:twitter": "hetrickmartin", "contact:website": "https://hmi.org", "level": "0", "name": "Hetrick-Martin Institute", "office": "association", "wheelchair": "yes"}}, {"type": "node", "id": 9552593824, "lat": 40.7297984, "lon": -73.9928785, "tags": {"addr:city": "New York", "addr:housenumber": "740", "addr:postcode": "10003", "addr:state": "NY", "addr:street": "Broadway", "amenity": "cafe", "branch": "Astor Place", "cuisine": "donut", "diet:gluten_free": "yes", "diet:nut_free": "only", "email": "donutpub@gmail.com", "level": "0", "name": "The Donut Pub", "opening_hours": "06:00-21:00", "phone": "+1 646-974-1221", "takeaway": "yes", "website": "https://www.donutpub.com/location/astor-place", "wheelchair": "yes"}}, {"type": "node", "id": 9559639727, "lat": 40.7295825, "lon": -73.9878389, "tags": {"addr:city": "New York", "addr:housenumber": "231", "addr:postcode": "10003", "addr:state": "NY", "addr:street": "East 9th Street", "amenity": "restaurant", "cuisine": "japanese", "name": "Hi-Collar", "opening_hours": "Mo-Sa 11:00-18:00, 19:00-24:00"}}, {"type": "node", "id": 9559658875, "lat": 40.7293544, "lon": -73.989023, "tags": {"addr:city": "New York", "addr:housenumber": "11", "addr:postcode": "10003", "addr:state": "NY", "addr:street": "Saint Mark's Place", "amenity": "cafe", "cuisine": "dessert", "description": "Fresh made cream puffs", "level": "1", "name": "Beard Papa's", "phone": "+1-212-960-8472", "website": "https://www.beardpapas.com/"}}, {"type": "node", "id": 9566829984, "lat": 40.7292575, "lon": -73.9889137, "tags": {"addr:city": "New York", "addr:housenumber": "15", "addr:postcode": "10003", "addr:state": "NY", "addr:street": "Saint Mark's Place", "amenity": "restaurant", "cuisine": "chinese;dumpling", "name": "Nan Xiang Xiao Long Bao", "name:zh": "\u5357\u7fd4\u5c0f\u7b3c\u5305", "opening_hours": "Mo-Su 11:00-02:00", "phone": "+1-212-970-8788", "website": "https://nanxiangxiaolongbao.com"}}, {"type": "node", "id": 9566829985, "lat": 40.7291717, "lon": -73.9885755, "tags": {"addr:city": "New York", "addr:housenumber": "23", "addr:postcode": "10003", "addr:state": "NY", "addr:street": "Saint Mark's Place", "amenity": "restaurant", "cuisine": "chinese;sichuan", "level": "1", "name": "Szechuan Mountain House - \u5ddd\u5c71\u7532", "opening_hours": "Mo-Su 11:30-23:00", "phone": "+19173883866", "website": "https://www.szechuanmountainhouse.com/"}}, {"type": "node", "id": 9566829986, "lat": 40.7290595, "lon": -73.9884404, "tags": {"addr:city": "New York", "addr:housenumber": "27", "addr:postcode": "10003", "addr:state": "NY", "addr:street": "Saint Mark's Place", "alt_name": "My's Banh Mi", "amenity": "cafe", "cuisine": "vietnamese", "drink:coffee": "yes", "drink:tea": "yes", "name": "N25 Nitro Tea & Coffee", "opening_hours": "Mo-Fr 08:00-20:00; Sa-Su 11:00-20:00", "outdoor_seating": "no", "takeaway": "yes"}}, {"type": "node", "id": 9579352615, "lat": 40.7310793, "lon": -73.9883694, "tags": {"addr:housenumber": "55", "addr:postcode": "10003", "addr:street": "3rd Avenue", "amenity": "restaurant", "cuisine": "american", "name": "Rubys", "opening_hours": "Mo-Su 09:00-22:30", "outdoor_seating": "sidewalk;street", "toilets:wheelchair": "yes", "wheelchair": "yes"}}, {"type": "node", "id": 9579352616, "lat": 40.7310867, "lon": -73.9885167, "tags": {"addr:housenumber": "55", "addr:postcode": "10003", "addr:street": "3rd Avenue", "amenity": "restaurant", "cuisine": "chinese", "internet_access": "wlan", "name": "The Dolar Shop", "opening_hours": "Mo-Th 12:00-00:00; Fr 12:00-01:00; Sa 11:30-01:00; Su 11:30-00:00", "outdoor_seating": "no", "phone": "+1-646-590-0034", "toilets:wheelchair": "yes", "website": "https://dolarshop.com/", "wheelchair": "yes"}}, {"type": "node", "id": 9579377217, "lat": 40.7316535, "lon": -73.9880652, "tags": {"addr:city": "New York", "addr:housenumber": "83", "addr:postcode": "10003", "addr:state": "NY", "addr:street": "3rd Avenue", "amenity": "cafe", "cuisine": "coffee_shop;sandwich;pastry", "drink:coffee": "yes", "drink:espresso": "yes", "drink:tea": "yes", "name": "Sammy L Coffee", "opening_hours": "Mo-Th 07:00-22:00; Fr 07:00-23:00; Sa 09:00-23:00; Su 09:00-21:00", "phone": "+1-917-770-4047", "toilets:wheelchair": "no", "wheelchair": "yes"}}, {"type": "node", "id": 9642113264, "lat": 40.7288007, "lon": -73.9885054, "tags": {"addr:city": "New York", "addr:housenumber": "30", "addr:postcode": "10003", "addr:state": "NY", "addr:street": "Saint Mark's Place", "amenity": "restaurant", "branch": "East Village", "cuisine": "middle_eastern", "delivery": "yes", "diet:halal": "yes", "name": "Mamoun's Falafel", "opening_hours": "Mo-Su 11:00-23:00", "phone": "+1 646-870-5785", "takeaway": "yes", "website": "https://www.mamouns.com/location/mamouns-east-village/"}}, {"type": "node", "id": 9659538027, "lat": 40.728188, "lon": -73.9877361, "tags": {"addr:city": "New York", "addr:housenumber": "124", "addr:postcode": "10003", "addr:state": "NY", "addr:street": "2nd Avenue", "amenity": "restaurant", "cuisine": "japanese", "name": "Okiboru House of Udon", "opening_hours": "Tu-Fr 12:00-15:00,17:00-22:00; Sa 12:00-21:00; Su 12:00-20:00", "reservation": "no", "website": "https://www.instagram.com/okiboru_udon/"}}, {"type": "node", "id": 9735550663, "lat": 40.7322044, "lon": -73.9882118, "tags": {"addr:housenumber": "90", "addr:postcode": "10003", "addr:street": "3rd Avenue", "amenity": "restaurant", "cuisine": "chinese", "name": "Han Dynasty", "opening_hours": "Mo-Su 11:30-01:00", "outdoor_seating": "sidewalk;street", "phone": "+1-212-390-8685", "website": "https://www.handynasty.net/location/han-dynasty-east-village/", "wheelchair": "no"}}, {"type": "node", "id": 9809110694, "lat": 40.7292871, "lon": -73.9877312, "tags": {"alt_name": "Sake Bar Decibel", "amenity": "bar", "cocktails": "yes", "cuisine": "japanese", "drink:beer": "yes", "drink:sake": "yes", "level": "-1", "name": "Decibel", "opening_hours": "We-Th 18:00-24:00; Fr-Sa 18:00-02:00; Su 18:00-24:00", "outdoor_seating": "street", "phone": "+1-212-979-2733", "website": "https://www.sakebardecibel.com"}}, {"type": "node", "id": 9875403134, "lat": 40.7291644, "lon": -73.9899477, "tags": {"addr:housenumber": "69", "addr:postcode": "10003", "addr:street": "Cooper Square", "amenity": "cafe", "cuisine": "asian", "drink:coffee": "no", "drink:tea": "yes", "name": "M\u00f6ge Tee", "opening_hours": "Mo-Fr 12:30-23:30; Sa-Su 12:30-24:00", "phone": "+1-929-350-2833", "website": "https://mogeteeusa.com"}}, {"type": "node", "id": 9966728719, "lat": 40.7288592, "lon": -73.9880038, "tags": {"addr:housenumber": "37", "addr:postcode": "10003", "addr:street": "Saint Marks Place", "amenity": "restaurant", "cuisine": "chinese", "name": "Chef Tan", "opening_hours": "Mo-Su 11:30-22:30", "phone": "+1-212-253-5476", "takeaway": "yes", "website": "https://www.cheftannyc.com"}}, {"type": "node", "id": 9978637391, "lat": 40.7294285, "lon": -73.9880625, "tags": {"addr:city": "New York", "addr:housenumber": "232", "addr:postcode": "10003", "addr:state": "NY", "addr:street": "East 9th Street", "amenity": "bar", "cocktails": "yes", "drink:beer": "draught", "drink:liquor": "yes", "drink:wine": "yes", "name": "Solas", "opening_hours": "Tu-Th 16:00-02:00, Fr-Sa 16:00-04:00, Su 16:00-02:00", "phone": "+1-212-375-0297", "website": "https://www.solasbar.com"}}, {"type": "node", "id": 10049007835, "lat": 40.7275665, "lon": -73.992344}, {"type": "node", "id": 10049007837, "lat": 40.7274975, "lon": -73.9922039}, {"type": "node", "id": 10756218233, "lat": 40.7302666, "lon": -73.9886172}, {"type": "node", "id": 10756218234, "lat": 40.7302316, "lon": -73.9885047}, {"type": "node", "id": 10757735006, "lat": 40.727457, "lon": -73.9889268, "tags": {"addr:housenumber": "240", "addr:postcode": "10003", "addr:street": "East 6th Street", "name": "William Chupa", "office": "insurance", "phone": "+1-212-674-5340"}}, {"type": "node", "id": 10769903500, "lat": 40.7304687, "lon": -73.9904348}, {"type": "node", "id": 10769903501, "lat": 40.7301403, "lon": -73.9896563}, {"type": "node", "id": 10769903502, "lat": 40.7290523, "lon": -73.990446}, {"type": "node", "id": 10769903503, "lat": 40.7291667, "lon": -73.9908514}, {"type": "node", "id": 10769903504, "lat": 40.7297415, "lon": -73.9906752}, {"type": "node", "id": 10769979605, "lat": 40.7299309, "lon": -73.9906356}, {"type": "node", "id": 10780577864, "lat": 40.729419, "lon": -73.9893134, "tags": {"addr:city": "New York", "addr:housenumber": "5", "addr:postcode": "10003", "addr:state": "NY", "addr:street": "Saint Mark's Place", "amenity": "restaurant", "cuisine": "chinese", "name": "Dumpling N' Dips", "opening_hours": "Su-Th 12:00-22:00, Fr-Sa 12:00-23:30", "phone": "+19294294656", "website": "https://www.dumplingndips.com/"}}, {"type": "node", "id": 10845663679, "lat": 40.729391, "lon": -73.9921562, "tags": {"addr:city": "New York", "addr:housenumber": "436", "addr:postcode": "10003", "addr:state": "NY", "addr:street": "Lafayette Street", "addr:unit": "Floor 6", "description": "Software company developing a cloud database for\nfast-changing data.", "level": "6", "name": "Materialize, Inc.", "office": "it", "phone": "+1 203-936-8759", "website": "https://materialize.com/"}}, {"type": "node", "id": 11031505389, "lat": 40.7297391, "lon": -73.9887902, "tags": {"amenity": "restaurant", "name": "Sushi Bar Hasaki"}}, {"type": "node", "id": 11031505391, "lat": 40.7296555, "lon": -73.9885942, "tags": {"amenity": "restaurant", "cuisine": "sushi", "name": "Shiso"}}, {"type": "node", "id": 11031505392, "lat": 40.729627, "lon": -73.9885276, "tags": {"amenity": "restaurant", "cuisine": "japanese", "drink:beer": "yes", "drink:sake": "yes", "drink:wine": "yes", "name": "Yakinku West"}}, {"type": "node", "id": 11055557246, "lat": 40.7314996, "lon": -73.9998038}, {"type": "node", "id": 11055557247, "lat": 40.7315606, "lon": -73.9999256}, {"type": "node", "id": 11055557248, "lat": 40.7306453, "lon": -73.9998778}, {"type": "node", "id": 11055557249, "lat": 40.7301385, "lon": -74.0003047}, {"type": "node", "id": 11055557250, "lat": 40.7299929, "lon": -74.0000136}, {"type": "node", "id": 11055557251, "lat": 40.7297981, "lon": -73.9996488}, {"type": "node", "id": 11055557255, "lat": 40.7299434, "lon": -74.0000558}, {"type": "node", "id": 11055557256, "lat": 40.7298505, "lon": -73.99987}, {"type": "node", "id": 11055557257, "lat": 40.7298906, "lon": -73.9998359}, {"type": "node", "id": 11055557258, "lat": 40.7301261, "lon": -73.9993779}, {"type": "node", "id": 11055557259, "lat": 40.7293308, "lon": -73.9977822}, {"type": "node", "id": 11055557264, "lat": 40.7273587, "lon": -73.9928387}, {"type": "node", "id": 11055557266, "lat": 40.7282055, "lon": -73.9943399}, {"type": "node", "id": 11055557267, "lat": 40.7278815, "lon": -73.9936841}, {"type": "node", "id": 11055557268, "lat": 40.7278098, "lon": -73.9937458}, {"type": "node", "id": 11055557269, "lat": 40.7275823, "lon": -73.9926514}, {"type": "node", "id": 11055557270, "lat": 40.7278835, "lon": -73.9932686}, {"type": "node", "id": 11055557271, "lat": 40.7284584, "lon": -73.9927843}, {"type": "node", "id": 11055557272, "lat": 40.7281807, "lon": -73.9918557}, {"type": "node", "id": 11055557273, "lat": 40.7280614, "lon": -73.9919881}, {"type": "node", "id": 11055557274, "lat": 40.7276541, "lon": -73.9915606}, {"type": "node", "id": 11055557275, "lat": 40.7279048, "lon": -73.9920986}, {"type": "node", "id": 11055557276, "lat": 40.7279927, "lon": -73.9914629}, {"type": "node", "id": 11055557278, "lat": 40.7282805, "lon": -73.9917677}, {"type": "node", "id": 11055557279, "lat": 40.7283413, "lon": -73.9918897}, {"type": "node", "id": 11055557280, "lat": 40.728307, "lon": -73.9919191}, {"type": "node", "id": 11055557281, "lat": 40.7286463, "lon": -73.9926141}, {"type": "node", "id": 11055557282, "lat": 40.7297518, "lon": -73.9916816}, {"type": "node", "id": 11055557283, "lat": 40.7298446, "lon": -73.9917228}, {"type": "node", "id": 11055557284, "lat": 40.7298547, "lon": -73.9916841}, {"type": "node", "id": 11055557285, "lat": 40.7298465, "lon": -73.9916345}, {"type": "node", "id": 11055557286, "lat": 40.7298412, "lon": -73.9916167}, {"type": "node", "id": 11055557287, "lat": 40.7298302, "lon": -73.9916059}, {"type": "node", "id": 11055557288, "lat": 40.7298135, "lon": -73.9916047}, {"type": "node", "id": 11055557289, "lat": 40.729801, "lon": -73.9916098}, {"type": "node", "id": 11055557290, "lat": 40.7297717, "lon": -73.9916402}, {"type": "node", "id": 11055557291, "lat": 40.7297579, "lon": -73.9916587}, {"type": "node", "id": 11055557292, "lat": 40.7297537, "lon": -73.9916705}, {"type": "node", "id": 11055557293, "lat": 40.7300034, "lon": -73.9927852}, {"type": "node", "id": 11055557294, "lat": 40.7299806, "lon": -73.9928383}, {"type": "node", "id": 11055557295, "lat": 40.7299955, "lon": -73.9928249}, {"type": "node", "id": 11055557296, "lat": 40.7300019, "lon": -73.9928068}, {"type": "node", "id": 11055557297, "lat": 40.7312787, "lon": -73.9941542}, {"type": "node", "id": 11055557298, "lat": 40.7312708, "lon": -73.9941405}, {"type": "node", "id": 11055557299, "lat": 40.7312607, "lon": -73.9941344}, {"type": "node", "id": 11055557300, "lat": 40.7312475, "lon": -73.9941328}, {"type": "node", "id": 11055557301, "lat": 40.7316866, "lon": -73.9951158}, {"type": "node", "id": 11055557302, "lat": 40.7312995, "lon": -73.9953986}, {"type": "node", "id": 11055557303, "lat": 40.7317845, "lon": -73.9966106}, {"type": "node", "id": 11055557304, "lat": 40.7317926, "lon": -73.9965895}, {"type": "node", "id": 11055557305, "lat": 40.7317906, "lon": -73.996604}, {"type": "node", "id": 11055557306, "lat": 40.7313443, "lon": -73.9969375}, {"type": "node", "id": 11055557307, "lat": 40.732198, "lon": -73.997421}, {"type": "node", "id": 11055557308, "lat": 40.7317424, "lon": -73.9977524}, {"type": "node", "id": 11105960681, "lat": 40.728556, "lon": -73.9879209, "tags": {"addr:housenumber": "131", "addr:postcode": "10003", "addr:street": "2nd Avenue", "amenity": "cafe", "drink:coffee": "yes", "drink:espresso": "yes", "drink:tea": "yes", "indoor_seating": "yes", "name": "Poetica Coffee", "opening_hours": "Mo-Su 07:00-18:00", "outdoor_seating": "yes"}}, {"type": "node", "id": 11242527168, "lat": 40.7309589, "lon": -73.9898626, "tags": {"addr:housenumber": "84", "addr:street": "East 10th Street", "amenity": "restaurant", "bar": "no", "check_date": "2023-10-05", "cuisine": "chinese", "level": "-1", "name": "Bites of Xi\u2019an", "name:zh": "\u897f\u5e9c\u5c0f\u53a8", "opening_hours": "Mo-Fr 11:00-21:00; Sa-Su 12:00-22:00", "outdoor_seating": "no", "payment:alipay": "yes", "payment:contactless": "yes", "payment:credit_cards": "yes", "payment:debit_cards": "yes", "payment:mastercard": "yes", "payment:unionpay": "yes", "payment:visa": "yes", "payment:wechat": "yes", "phone": "+1 917-409-5535", "reservation": "yes", "source": "local knowledge", "takeaway": "yes", "website": "https://bitesofxian.com", "wheelchair": "no"}}, {"type": "node", "id": 11389386379, "lat": 40.7278196, "lon": -73.9884697, "tags": {"addr:housenumber": "113", "addr:postcode": "10003", "addr:street": "2nd Avenue", "name": "NYU Tisch School of the Arts", "office": "educational_institution", "operator": "New York University"}}, {"type": "node", "id": 11435997261, "lat": 40.7314233, "lon": -73.9970991, "tags": {"barrier": "kerb", "kerb": "lowered", "tactile_paving": "yes", "wheelchair": "yes"}}, {"type": "node", "id": 11463577701, "lat": 40.7324491, "lon": -73.9880197, "tags": {"amenity": "restaurant", "cuisine": "japanese", "name": "Ichibantei", "opening_hours": "Mo-Sa 11:00-03:00, Su 11:00-02:00", "website": "https://ichibantei.nyc"}}, {"type": "node", "id": 11627936545, "lat": 40.7314777, "lon": -73.9942487, "tags": {"addr:city": "New York", "addr:housenumber": "37", "addr:postcode": "10003", "addr:state": "NY", "addr:street": "East 8th Street", "amenity": "cafe", "cuisine": "bubble_tea", "name": "Wanpo Tea Shop", "outdoor_seating": "no"}}, {"type": "node", "id": 11774637881, "lat": 40.7289868, "lon": -73.9882604, "tags": {"addr:city": "New York", "addr:housenumber": "31", "addr:postcode": "10003", "addr:state": "NY", "addr:street": "Saint Marks Place", "amenity": "restaurant", "cuisine": "japanese", "email": "Kimura.press@gmail.com", "name": "Kimura", "opening_hours": "Mo-Fr 12:00-15:30,17:00-23:30; Sa,Su 12:00-23:30", "phone": "+1-917-905-1864", "toilets": "yes", "website": "https://www.kimuranyc.com/"}}, {"type": "node", "id": 11836538423, "lat": 40.7323245, "lon": -73.993126, "tags": {"addr:city": "New York", "addr:housenumber": "32", "addr:postcode": "10003", "addr:state": "NY", "addr:street": "East 10th Street", "amenity": "restaurant", "cuisine": "italian", "name": "Il Cantinori"}}, {"type": "node", "id": 11910381816, "lat": 40.7292945, "lon": -73.989015, "tags": {"amenity": "cafe", "name": "Spot Dessert Bar"}}, {"type": "node", "id": 11910381822, "lat": 40.7293326, "lon": -73.9891008, "tags": {"amenity": "restaurant", "cuisine": "japanese", "drink:beer": "yes", "drink:sake": "yes", "name": "Udon St Marks", "opening_hours": "Mo-Fr 16:00-22:00; Fr-Su 13:00-22:00", "payment:cash": "only"}}, {"type": "node", "id": 11910381824, "lat": 40.7293722, "lon": -73.9892017, "tags": {"amenity": "restaurant", "cuisine": "japanese", "name": "Oh! Taisho", "opening_hours": "Mo-Th 17:00-23:30; Fr-Sa 17:00-00:30; Su 17:00-22:30"}}, {"type": "node", "id": 11959321244, "lat": 40.7286675, "lon": -73.9894532, "tags": {"addr:housenumber": "21", "addr:street": "East 7th Street", "amenity": "bar", "contact:instagram": "proletariatny", "name": "Proletariat", "phone": "+1-833-328-4588", "website": "https://www.proletariatny.com/", "website:menu": "https://www.proletariatny.com/menu-1"}}, {"type": "node", "id": 12333450784, "lat": 40.7308162, "lon": -73.9887471, "tags": {"addr:housenumber": "47", "addr:street": "3rd ave", "amenity": "bar", "level": "-1", "name": "Sugar Mouse", "opening_hours": "Mo-Th 15:00-01:00, Fr-Sa 15:00-02:00, Su 15:00-01:00", "sport": "billiards", "website": "https://www.sugarmousenyc.com"}}, {"type": "node", "id": 12616810056, "lat": 40.7282737, "lon": -73.9897124}, {"type": "node", "id": 12733020264, "lat": 40.7275633, "lon": -73.9886531, "tags": {"addr:housenumber": "103", "addr:street": "2nd Avenue", "amenity": "restaurant", "check_date": "2025-04-06", "cuisine": "sushi", "name": "SHIROKURO", "opening_hours": "12:00-16:00,17:00-22:00"}}, {"type": "node", "id": 12890222603, "lat": 40.7308231, "lon": -73.989714, "tags": {"amenity": "restaurant", "cuisine": "seafood", "drink:wine": "yes", "name": "Penny", "opening_hours": "Mo-Su 17:00-22:30", "website": "https://www.penny-nyc.com"}}, {"type": "node", "id": 12890222604, "lat": 40.7309058, "lon": -73.9899035, "tags": {"alt_name": "Two by Two", "amenity": "cafe", "cuisine": "coffee_shop;pastry", "name": "Cafe 2by2", "official_name": "Cafe 2/2", "opening_hours": "Mo-Su 11:00-22:00", "phone": "+1-646-565-1355", "short_name": "2 by 2", "website": "https://www.cafe2by2.com"}}, {"type": "node", "id": 12890222605, "lat": 40.7308697, "lon": -73.9896752, "tags": {"amenity": "restaurant", "cuisine": "french", "drink:wine": "yes", "name": "Claud", "opening_hours": "Mo-Su 17:00-22:30", "phone": "+1-917-261-6791", "website": "https://www.claudnyc.com"}}, {"type": "node", "id": 12987788601, "lat": 40.7286265, "lon": -73.9893727, "tags": {"addr:housenumber": "23", "addr:street": "East 7th Street", "amenity": "restaurant", "diet:vegan": "yes", "diet:vegetarian": "yes", "name": "Third Kingdom", "opening_hours": "Tu-Su 17:00-22:00", "website": "https://www.thirdkingdomnyc.com/"}}, {"type": "node", "id": 12988107101, "lat": 40.7274182, "lon": -73.9883002, "tags": {"addr:housenumber": "104", "addr:street": "2nd Avenue", "amenity": "restaurant", "cuisine": "chinese", "name": "Tipsy Shanghai", "name:zh": "\u8607\u676d", "phone": "+1 212 466 6788"}}, {"type": "node", "id": 12997487202, "lat": 40.728646, "lon": -73.9912931, "tags": {"addr:housenumber": "46", "addr:street": "Cooper Square", "amenity": "school", "name": "Grace Church School", "website": "http://gcschool.org"}}, {"type": "node", "id": 13003153501, "lat": 40.7296107, "lon": -73.9878145, "tags": {"addr:housenumber": "231", "addr:street": "East 9th Street", "amenity": "bar", "level": "2", "name": "Five Spot Jazz"}}, {"type": "way", "id": 95833119, "nodes": [1110619966, 4685441946, 4685441942, 1110619910, 4685441947, 4685441948, 1110619836, 5784518509, 1110619975, 5784518540, 5784518539, 1110619966], "tags": {"ele": "12", "gnis:feature_id": "2082974", "leisure": "park", "name": "Cooper Triangle", "name:etymology:wikidata": "Q935291", "wikidata": "Q34819734"}}, {"type": "way", "id": 108156090, "nodes": [1241288747, 11055557247, 11055557246, 1241288720, 11055557248, 11055557249, 11055557250, 11055557255, 11055557256, 11055557257, 11055557251, 11055557258, 11055557259, 1241288742, 1241288740, 1241288737, 1241288744, 1241288724, 1241288717, 1241288722, 1241288753, 1241288735, 1241288730, 1241288732, 1241288733, 11055557266, 11055557267, 11055557268, 11055557264, 11055557269, 11055557270, 11055557271, 11055557273, 11055557275, 11055557274, 11055557276, 11055557272, 11055557278, 11055557279, 11055557280, 11055557281, 11055557282, 11055557292, 11055557291, 11055557290, 11055557289, 11055557288, 11055557287, 11055557286, 11055557285, 11055557284, 11055557283, 11055557293, 11055557296, 11055557295, 11055557294, 1241288754, 1241288726, 1241288746, 11055557300, 11055557299, 11055557298, 11055557297, 11055557301, 11055557302, 8309478837, 11055557304, 11055557305, 11055557303, 11055557306, 11435997261, 11055557308, 11055557307, 1241288727, 2077984659, 1241288747], "tags": {"addr:city": "New York", "addr:state": "NY", "amenity": "university", "education": "university", "internet_access": "wlan", "internet_access:fee": "no", "name": "New York University", "name:es": "Universidad de Nueva York", "name:fr": "Universit\u00e9 de New York", "name:ko": "\ub274\uc695 \ub300\ud559\uad50", "name:ru": "\u041d\u044c\u044e-\u0419\u043e\u0440\u043a\u0441\u043a\u0438\u0439 \u0443\u043d\u0438\u0432\u0435\u0440\u0441\u0438\u0442\u0435\u0442", "name:zh": "\u7ebd\u7ea6\u5927\u5b66", "operator": "New York University", "operator:type": "private", "short_name": "NYU", "source": "bing", "toilets:wheelchair": "yes", "website": "https://www.nyu.edu/", "wheelchair": "yes", "wikidata": "Q49210", "wikipedia": "en:New York University"}}, {"type": "way", "id": 247842935, "nodes": [2547036941, 2547036956, 2547036923, 2547036910, 2547036941], "tags": {"addr:housenumber": "686", "addr:postcode": "10012", "addr:street": "Broadway", "alt_name": "Great Jones Distillery", "amenity": "bar", "building": "yes", "craft": "distillery", "height": "14.9", "name": "Great Jones Distilling Co", "nycdoitt:bin": "1008507", "opening_hours": "We-Su 12:00-24:00", "phone": "+1-332-910-9880", "website": "https://greatjonesdistillingco.com"}}, {"type": "way", "id": 462302471, "nodes": [2546986732, 10049007835, 10049007837, 2546986722, 2546986734, 2546986748, 2546986759, 4577074781, 2546986755, 2546986732], "tags": {"leisure": "park", "name": "Manuel Plaza", "opening_hours": "Mo-Su 06:00-22:00", "operator": "New York City Department of Parks and Recreation", "operator:short": "NYC Parks", "operator:type": "government", "operator:wikidata": "Q1894232"}}, {"type": "way", "id": 474632750, "nodes": [4500010372, 4500010379, 4685430886, 4500010377, 4500010381, 1729141648, 1729141660, 1729141671, 1729141672, 1729141692, 1729141685, 4685430884, 1729141677, 2547193506, 2547193511, 2547193531, 2547193528, 2547193508, 1729141694, 1729141678, 2547193494, 2547193491, 2547193487, 2547193462, 2547193465, 4500010380, 2547193468, 2547193459, 2547193456, 4500010364, 4500010362, 4685430885, 4500010372], "tags": {"amenity": "school", "name": "Grace Church School"}}, {"type": "way", "id": 724196597, "nodes": [6791755732, 6791755733, 6791755734, 6791755735, 6791755732], "tags": {"amenity": "cafe", "building": "yes", "name": "Madman Espresso"}}, {"type": "way", "id": 976724943, "nodes": [3170212029, 6124186694, 5780106463, 2546987171, 2546987150, 3170212015, 3170212014, 2546987147, 3170212011, 3170212010, 2546987145, 2546987119, 3170212029], "tags": {"leisure": "park"}}, {"type": "way", "id": 1156633380, "nodes": [10769903500, 10769903501, 10769903502, 10769903503, 10769903504, 10769979605, 10769903500], "tags": {"amenity": "college", "education": "college", "name": "Cooper Union"}}, {"type": "way", "id": 1156633381, "nodes": [8309479188, 8309479196, 8309479195, 8309479194, 8309479188], "tags": {"amenity": "college", "education": "college", "name": "Cooper Union - Academic Building"}}, {"type": "way", "id": 1156633383, "nodes": [10756218233, 10756218234, 2494246603, 2494245511, 10756218233], "tags": {"amenity": "college", "education": "college", "name": "Cooper Union President's House", "website": "https://middlestates.cooper.edu/Campus_Map_Directions.pdf"}}, {"type": "way", "id": 1362710595, "nodes": [2494162042, 2494162163, 12616810056, 2494162121, 2494162140, 2494162209, 2494160717, 2494161908, 2494162042], "tags": {"amenity": "school", "mascot": "Cardinals", "name": "La Salle Academy", "phone": "+1-212-475-8940", "website": "https://www.lasalleacademy.org"}}, {"type": "relation", "id": 15633680, "members": [{"type": "way", "ref": 1156633380, "role": "outer"}, {"type": "way", "ref": 1156633381, "role": "outer"}, {"type": "way", "ref": 1156633383, "role": "outer"}], "tags": {"amenity": "college", "education": "college", "ele": "12", "gnis:feature_id": "947397", "name": "The Cooper Union", "type": "multipolygon", "website": "https://middlestates.cooper.edu/Campus_Map_Directions.pdf", "wikidata": "Q130981", "wikipedia": "en:Cooper Union"}}]}