{"version": 0.6, "generator": "Overpass API 0.7.62.8 e802775f", "osm3s": {"timestamp_osm_base": "2025-12-01T15:53:06Z", "copyright": "The data included in this document is from www.openstreetmap.org. The data is made available under ODbL."}, "elements": [{"type": "node", "id": 357579076, "lat": 40.7551017, "lon": -73.9659718, "tags": {"amenity": "school", "ele": "12", "gnis:feature_id": "961413", "name": "United Nations School"}}, {"type": "node", "id": 357579218, "lat": 40.7567683, "lon": -73.9723609, "tags": {"amenity": "school", "ele": "15", "gnis:feature_id": "961446", "name": "Public School 18"}}, {"type": "node", "id": 357580621, "lat": 40.7591213, "lon": -73.9666402, "tags": {"addr:city": "New York", "addr:country": "US", "addr:housenumber": "233", "addr:postcode": "10022", "addr:state": "NY", "addr:street": "East 56th Street", "amenity": "school", "ele": "15", "gnis:feature_id": "961768", "grades": "3K-5", "internet_access": "yes", "name": "Public School 59", "polling_station": "yes", "website": "https://ps59.net/", "wheelchair": "yes"}}, {"type": "node", "id": 368043788, "lat": 40.7566936, "lon": -73.9686816, "tags": {"addr:city": "New York", "addr:country": "US", "addr:housenumber": "227", "addr:postcode": "10022", "addr:state": "NY", "addr:street": "East 52nd Street", "alt_name": "UN Mission Hungary", "country": "HU", "diplomatic": "embassy", "ele": "11", "email": "hungaryun.ny@mfa.gov.hu", "embassy": "mission", "fax": "+1-212-755-5395", "gnis:feature_id": "2083319", "name": "Permanent Mission of Hungary to the United Nations", "office": "diplomatic", "phone": "+1-212-752-0209", "target": "UN", "website": "https://un-newyork.mfa.gov.hu"}}, {"type": "node", "id": 1002929164, "lat": 40.7561822, "lon": -73.9694684}, {"type": "node", "id": 1002929165, "lat": 40.7564307, "lon": -73.9692906}, {"type": "node", "id": 1002929171, "lat": 40.7561019, "lon": -73.9692788}, {"type": "node", "id": 1290043792, "lat": 40.7580948, "lon": -73.9720223, "tags": {"addr:city": "New York", "addr:housenumber": "99", "addr:postcode": "10152", "addr:street": "East 52nd Street", "amenity": "restaurant", "cuisine": "new_american", "name": "Four Seasons", "start_date": "1959", "website": "https://www.fourseasonsrestaurant.com/", "wikidata": "Q7735035", "wikipedia": "en:Four Seasons Restaurant"}}, {"type": "node", "id": 1346386984, "lat": 40.7552548, "lon": -73.9709515, "tags": {"addr:city": "New York", "addr:housenumber": "797", "addr:postcode": "10022", "addr:street": "3rd Avenue", "air_conditioning": "yes", "amenity": "restaurant", "bar": "yes", "check_date": "2025-05-15", "cuisine": "steak_house", "delivery": "yes", "name": "Smith & Wollensky", "outdoor_seating": "yes", "payment:cash": "yes", "payment:contactless": "yes", "payment:credit_cards": "yes", "payment:debit_cards": "yes", "reservation": "yes", "smoking": "no", "start_date": "1977", "takeaway": "yes", "website": "https://www.smithandwollenskynyc.com/", "wheelchair": "yes", "wikidata": "Q2295313", "wikipedia": "en:Smith & Wollensky"}}, {"type": "node", "id": 2275805032, "lat": 40.7577444, "lon": -73.9725088, "tags": {"addr:city": "New York", "addr:housenumber": "345", "addr:postcode": "10154", "addr:state": "NY", "addr:street": "Park Avenue", "company": "private equity", "name": "The Blackstone Group", "office": "company"}}, {"type": "node", "id": 2613888352, "lat": 40.7558548, "lon": -73.970447, "tags": {"addr:city": "New York", "addr:housenumber": "825", "addr:postcode": "10022", "addr:state": "NY", "addr:street": "3rd Avenue", "air_conditioning": "yes", "amenity": "restaurant", "bar": "yes", "branch": "Midtown", "check_date": "2025-04-17", "cuisine": "italian", "delivery": "yes", "name": "Rosemary's", "opening_hours": "Mo-Fr 11:00-22:00; Sa-Su 10:00-22:00", "outdoor_seating": "yes", "payment:cash": "yes", "payment:contactless": "yes", "payment:credit_cards": "yes", "payment:debit_cards": "yes", "phone": "+1 212-870-6137", "reservation": "yes", "smoking": "no", "takeaway": "yes", "website": "https://www.rosemarysnyc.com/location/rosemarys-midtown/", "wheelchair": "yes"}}, {"type": "node", "id": 2711002336, "lat": 40.7598649, "lon": -73.9654975}, {"type": "node", "id": 2711002346, "lat": 40.7598931, "lon": -73.9655642}, {"type": "node", "id": 2711002351, "lat": 40.7599022, "lon": -73.9655576}, {"type": "node", "id": 2711002445, "lat": 40.760104, "lon": -73.9653227}, {"type": "node", "id": 2711002465, "lat": 40.7601322, "lon": -73.9653894}, {"type": "node", "id": 2711137653, "lat": 40.7567292, "lon": -73.9661549}, {"type": "node", "id": 2711137768, "lat": 40.7567981, "lon": -73.9662887}, {"type": "node", "id": 2711137798, "lat": 40.756811, "lon": -73.9660755}, {"type": "node", "id": 2711137870, "lat": 40.7568667, "lon": -73.966446}, {"type": "node", "id": 2711137955, "lat": 40.7569403, "lon": -73.9659813}, {"type": "node", "id": 2711137975, "lat": 40.7569741, "lon": -73.9663554}, {"type": "node", "id": 2711137978, "lat": 40.7569781, "lon": -73.9663649}, {"type": "node", "id": 2711138002, "lat": 40.7570269, "lon": -73.966317}, {"type": "node", "id": 2711138013, "lat": 40.757031, "lon": -73.9663269}, {"type": "node", "id": 2711138041, "lat": 40.7570702, "lon": -73.9662984}, {"type": "node", "id": 2711221740, "lat": 40.7552632, "lon": -73.968022, "tags": {"addr:housenumber": "956", "addr:postcode": "10022", "addr:street": "2nd Avenue", "amenity": "restaurant", "check_date": "2025-01-30", "cuisine": "american", "name": "The Smith"}}, {"type": "node", "id": 2711225323, "lat": 40.7552477, "lon": -73.9672164}, {"type": "node", "id": 2711225334, "lat": 40.755272, "lon": -73.9672735}, {"type": "node", "id": 2711225397, "lat": 40.7553985, "lon": -73.9671055}, {"type": "node", "id": 2711225420, "lat": 40.7554228, "lon": -73.9671626}, {"type": "node", "id": 2711232711, "lat": 40.7589826, "lon": -73.9682301, "tags": {"addr:city": "New York", "addr:housenumber": "915", "addr:postcode": "10022", "addr:street": "3rd Avenue", "amenity": "restaurant", "name": "P.J. Clarke\u2019s", "opening_hours": "Mo-Fr 11:30-02:00; Sa, Su 10:00-02:00", "website": "https://pjclarkes.com/third-avenue/", "wheelchair": "yes", "wikidata": "Q3359494", "wikipedia": "en:P. J. Clarke's"}}, {"type": "node", "id": 2711393424, "lat": 40.755098, "lon": -73.9707185, "tags": {"addr:housenumber": "201", "addr:postcode": "10022", "addr:street": "East 49th Street", "amenity": "restaurant", "check_date": "2025-05-15", "name": "Wollensky's Grill", "payment:cash": "yes", "payment:contactless": "yes", "payment:credit_cards": "yes", "payment:debit_cards": "yes", "wheelchair": "yes"}}, {"type": "node", "id": 2711393442, "lat": 40.7559526, "lon": -73.9693724, "tags": {"addr:city": "New York", "addr:housenumber": "222", "addr:postcode": "10022", "addr:state": "NY", "addr:street": "East 51st Street", "alt_name": "Tensai", "amenity": "restaurant", "catering": "yes", "cuisine": "japanese", "delivery": "yes", "drink:beer": "yes", "drink:sake": "yes", "drink:wine": "yes", "email": "tensai.nyc@gmail.com", "name": "Tensai Udon House", "opening_hours": "11:00-15:30,17:00-21:30", "outdoor_seating": "no", "payment:cash": "yes", "payment:contactless": "yes", "payment:credit_cards": "yes", "payment:debit_cards": "yes", "phone": "+1-212-466-6591", "smoking": "no", "takeaway": "yes", "website": "https://www.tensainyc.com/", "wheelchair": "no"}}, {"type": "node", "id": 2711393461, "lat": 40.7563383, "lon": -73.9678566, "tags": {"addr:housenumber": "251", "addr:postcode": "10022", "addr:street": "East 52nd Street", "amenity": "pub", "name": "Bareburger", "opening_hours": "Mo-Su 11:00-22:30; PH closed", "outdoor_seating": "yes", "phone": "+1-646-922-7169", "website": "https://www.bareburger.com/"}}, {"type": "node", "id": 2711393960, "lat": 40.7554051, "lon": -73.9686723}, {"type": "node", "id": 2711393987, "lat": 40.7554306, "lon": -73.9687327}, {"type": "node", "id": 2711394021, "lat": 40.7554576, "lon": -73.968634}, {"type": "node", "id": 2711394083, "lat": 40.7555069, "lon": -73.968598}, {"type": "node", "id": 2711394115, "lat": 40.7555546, "lon": -73.9685632}, {"type": "node", "id": 2711394144, "lat": 40.7555746, "lon": -73.9686275}, {"type": "node", "id": 2711394172, "lat": 40.7556019, "lon": -73.9685286}, {"type": "node", "id": 2711394196, "lat": 40.7556274, "lon": -73.968589}, {"type": "node", "id": 2711394306, "lat": 40.7556978, "lon": -73.9695702}, {"type": "node", "id": 2711394325, "lat": 40.7557314, "lon": -73.9696498}, {"type": "node", "id": 2711394332, "lat": 40.7557369, "lon": -73.9695418}, {"type": "node", "id": 2711394343, "lat": 40.7557833, "lon": -73.9695078}, {"type": "node", "id": 2711394360, "lat": 40.7558262, "lon": -73.9695408}, {"type": "node", "id": 2711394372, "lat": 40.755839, "lon": -73.9695713}, {"type": "node", "id": 2711394391, "lat": 40.755857, "lon": -73.9695183}, {"type": "node", "id": 2711394402, "lat": 40.7558698, "lon": -73.9695488}, {"type": "node", "id": 2711394448, "lat": 40.7559102, "lon": -73.9694152}, {"type": "node", "id": 2711394456, "lat": 40.7559216, "lon": -73.969511}, {"type": "node", "id": 2711394484, "lat": 40.7559607, "lon": -73.9693784}, {"type": "node", "id": 2711394510, "lat": 40.7559943, "lon": -73.969458}, {"type": "node", "id": 2711394613, "lat": 40.7561131, "lon": -73.9692705}, {"type": "node", "id": 2711394824, "lat": 40.7563458, "lon": -73.9691008}, {"type": "node", "id": 2711394881, "lat": 40.7564053, "lon": -73.9692281}, {"type": "node", "id": 2711394884, "lat": 40.756445, "lon": -73.9691984}, {"type": "node", "id": 2711394891, "lat": 40.7564166, "lon": -73.9691302}, {"type": "node", "id": 2711395022, "lat": 40.7565531, "lon": -73.9683695}, {"type": "node", "id": 2711395046, "lat": 40.7566057, "lon": -73.9684957}, {"type": "node", "id": 2711395104, "lat": 40.7566992, "lon": -73.9682642}, {"type": "node", "id": 2711395128, "lat": 40.7567872, "lon": -73.9682007}, {"type": "node", "id": 2711395135, "lat": 40.7568129, "lon": -73.9682625}, {"type": "node", "id": 2711395154, "lat": 40.7568398, "lon": -73.9683268}, {"type": "node", "id": 2715447755, "lat": 40.7591744, "lon": -73.9702294, "tags": {"addr:housenumber": "643", "addr:postcode": "10022", "addr:street": "Lexington Avenue", "amenity": "restaurant", "name": "Chop & Go"}}, {"type": "node", "id": 2715447782, "lat": 40.7599011, "lon": -73.9696793, "tags": {"addr:city": "New York", "addr:housenumber": "667", "addr:postcode": "10022", "addr:state": "NY", "addr:street": "Lexington Avenue", "amenity": "cafe", "name": "Maman", "opening_hours": "Mo-Fr 07:30-18:00; Sa-Su 08:00-18:00", "phone": "+1-646-524-5067", "website": "https://mamannyc.com/locations/lexington"}}, {"type": "node", "id": 2715512070, "lat": 40.7580277, "lon": -73.9714246, "tags": {"addr:city": "New York", "addr:country": "US", "addr:housenumber": "600", "addr:postcode": "10022", "addr:state": "NY", "addr:street": "Lexington Avenue", "amenity": "cafe", "branch": "Midtown", "name": "Devocion", "opening_hours": "Mo-Fr 07:00-18:00, Sa-Su 08:00-17:00", "website": "https://www.devocion.com/pages/coffee-shop-midtown-manhattan"}}, {"type": "node", "id": 2843446740, "lat": 40.7569462, "lon": -73.9663881}, {"type": "node", "id": 2855056896, "lat": 40.7590956, "lon": -73.9664369, "tags": {"addr:housenumber": "245", "addr:street": "East 56th Street", "amenity": "school", "gnis:feature_id": "2083923", "height": "30.1", "name": "High School of Art and Design", "website": "https://www.artanddesignhs.org", "wikidata": "Q12060065", "wikipedia": "en:High School of Art and Design"}}, {"type": "node", "id": 3058806598, "lat": 40.7559364, "lon": -73.9701722, "tags": {"addr:city": "New York", "addr:country": "US", "addr:housenumber": "825", "addr:postcode": "10017", "addr:state": "NY", "addr:street": "3rd Avenue", "alt_name": "UN Mission Norway", "check_date": "2025-10-21", "country": "NO", "diplomatic": "embassy", "email": "delun@mfa.no", "embassy": "mission", "level": "35", "name": "Permanent Mission of Norway to the United Nations", "office": "diplomatic", "official_name": "Permanent Mission of the Kingdom of Norway to the United Nations", "phone": "+1-646-430-7510", "target": "UN"}}, {"type": "node", "id": 3059147269, "lat": 40.7566172, "lon": -73.9665253, "tags": {"addr:city": "New York", "addr:country": "US", "addr:housenumber": "307", "addr:postcode": "10022", "addr:state": "NY", "addr:street": "East 53rd Street", "alt_name": "UN Mission Tanzania", "country": "TZ", "diplomatic": "embassy", "email": "newyork@nje.go.tz", "embassy": "mission", "fax": "+1-212-697-3618", "level": "5", "name": "Permanent Mission of Tanzania to the United Nations", "name:fr": "Mission permanente de Tanzanie aupr\u00e8s des Nations-Unies", "office": "diplomatic", "official_name": "Permanent Mission of the United Republic of Tanzania to the United Nations", "phone": "+1-212-697-3612", "target": "UN"}}, {"type": "node", "id": 3060726144, "lat": 40.7557306, "lon": -73.9722031, "tags": {"addr:city": "New York", "addr:housenumber": "143", "addr:postcode": "10022", "addr:street": "East 49th Street", "amenity": "restaurant", "cuisine": "italian", "name": "San Martin", "website": "https://www.sanmartinrestaurantny.com/"}}, {"type": "node", "id": 4329843790, "lat": 40.7571634, "lon": -73.9684577, "tags": {"addr:housenumber": "224", "addr:postcode": "10022", "addr:street": "East 53rd Street", "amenity": "restaurant", "cuisine": "italian", "delivery": "yes", "email": "info@angelobellini.com", "happy_hours": "Mo-Fr 16:00-19:00", "name": "Angelo Bellini", "opening_hours": "Mo-Su 11:30-22:45", "phone": "+1 212-980-2900", "reservation": "yes", "website": "https://www.angelobellini.com/"}}, {"type": "node", "id": 4346190189, "lat": 40.7580445, "lon": -73.9699967, "tags": {"addr:housenumber": "888", "addr:postcode": "10022", "addr:street": "3rd Avenue", "amenity": "restaurant", "branch": "Midtown", "contact:facebook": "https://www.facebook.com/hillstonemidtown", "contact:instagram": "https://www.instagram.com/hillstonemidtown/", "cuisine": "american", "drink:wine": "yes", "name": "Hillstone", "opening_hours": "Tu-Fr 11:30-23:00; Sa 12:00-23:00; Su 12:00-22:00; Mo 11:30-22:00", "phone": "+1 212-888-3828", "takeaway": "yes", "website": "https://hillstonerestaurant.com/locations/nyc-midtown/"}}, {"type": "node", "id": 4353160594, "lat": 40.7600052, "lon": -73.9665174, "tags": {"addr:street": "225 E 60th Street", "amenity": "restaurant", "name": "Serendipity 3", "website": "https://serendipity3.com", "wheelchair": "yes"}}, {"type": "node", "id": 4531545716, "lat": 40.7554975, "lon": -73.9705521, "tags": {"addr:city": "New York", "addr:housenumber": "805", "addr:postcode": "10022", "addr:state": "NY", "addr:street": "3rd Avenue", "level": "10", "name": "Egan Law Firm", "office": "lawyer", "opening_hours": "Mo-Fr 09:00-19:00", "payment:american_express": "yes", "payment:cash": "yes", "payment:cheque": "yes", "payment:discover_card": "yes", "payment:mastercard": "yes", "payment:visa": "yes", "phone": "+1-212-619-8456", "website": "https://www.eganlawfirm.com/"}}, {"type": "node", "id": 4549080336, "lat": 40.756641, "lon": -73.9691064, "tags": {"amenity": "pub", "name": "Nall's Irish Pub & Restaurant"}}, {"type": "node", "id": 4551144664, "lat": 40.7572639, "lon": -73.9686379, "tags": {"addr:city": "New York", "addr:housenumber": "218", "addr:postcode": "10022", "addr:state": "NY", "addr:street": "East 53rd Street", "amenity": "restaurant", "cuisine": "american", "delivery": "no", "name": "Hudson Malone", "opening_hours": "Mo-Fr 11:30-04:00; Sa 11:00-04:00; Su 11:00-01:00", "phone": "+1 212 355 6607", "smoking": "no", "takeaway": "no", "website": "https://www.hudsonmalone.com/"}}, {"type": "node", "id": 4589454992, "lat": 40.7565537, "lon": -73.9721358, "tags": {"addr:housenumber": "557", "addr:postcode": "10022", "addr:street": "557 Lexington Avenue", "amenity": "restaurant", "name": "The National"}}, {"type": "node", "id": 4687114892, "lat": 40.7564367, "lon": -73.971716, "tags": {"addr:postcode": "10022", "amenity": "cafe", "check_date": "2024-03-07", "name": "New York Luncheonette", "name:en": "New York Luncheonette"}}, {"type": "node", "id": 4724763198, "lat": 40.757702, "lon": -73.9687119}, {"type": "node", "id": 4724763199, "lat": 40.7576386, "lon": -73.9685349}, {"type": "node", "id": 4724763200, "lat": 40.7575462, "lon": -73.9686091}, {"type": "node", "id": 4724763201, "lat": 40.7576132, "lon": -73.9687717}, {"type": "node", "id": 4775546659, "lat": 40.7597637, "lon": -73.9698075, "tags": {"addr:housenumber": "661", "addr:postcode": "10022", "addr:street": "Lexington Avenue", "amenity": "cafe", "name": "Le Cafe Coffee"}}, {"type": "node", "id": 5328857445, "lat": 40.7590194, "lon": -73.9702028, "tags": {"addr:city": "New York", "addr:housenumber": "641", "addr:postcode": "10022", "addr:state": "NY", "addr:street": "Lexington Avenue", "email": "newyork@asianabsolute.com", "name": "Asian Absolute", "office": "translator", "opening_hours": "24/7", "phone": "+1 347 918 3994", "website": "https://asianabsolute.com/"}}, {"type": "node", "id": 5433332835, "lat": 40.7554688, "lon": -73.9707954, "tags": {"amenity": "cafe", "name": "The Picnic Basket"}}, {"type": "node", "id": 5808091324, "lat": 40.7595622, "lon": -73.9682586, "tags": {"addr:housenumber": "930", "addr:postcode": "10022", "addr:street": "3rd Avenue", "amenity": "restaurant", "cuisine": "italian", "delivery": "yes", "level": "0", "name": "Fresh Basil's", "opening_hours": "Mo-Fr 10:00-22:00", "phone": "+1 212-888-4292", "takeaway": "yes", "website": "http://www.freshbasils.com/", "wheelchair": "yes"}}, {"type": "node", "id": 5823260853, "lat": 40.7569712, "lon": -73.967446, "tags": {"addr:housenumber": "251", "addr:street": "East 53rd Street", "amenity": "restaurant", "name:fr": "hot kitchen"}}, {"type": "node", "id": 5855939724, "lat": 40.7549287, "lon": -73.9682465, "tags": {"addr:housenumber": "950", "addr:postcode": "10022", "addr:street": "2nd Avenue", "amenity": "restaurant", "branch": "Midtown", "check_date": "2023-09-19", "cocktails": "yes", "cuisine": "italian", "drink:wine": "yes", "email": "info@lapecorabianca.com", "name": "La Pecora Bianca", "opening_hours": "Mo-Fr 11:30-23:00; Sa 09:00-23:00; Su 09:00-22:00", "phone": "+1 212-899-9996", "reservation": "yes", "website": "https://www.lapecorabianca.com/location/midtown/"}}, {"type": "node", "id": 5983797885, "lat": 40.7571908, "lon": -73.9685241, "tags": {"amenity": "restaurant", "cuisine": "asian", "name": "OBAO", "phone": "+1-212-308-5588", "website": "https://www.obaony.com/"}}, {"type": "node", "id": 6077947286, "lat": 40.7552034, "lon": -73.9685534, "tags": {"addr:housenumber": "949", "addr:postcode": "10022", "addr:street": "2nd Avenue", "amenity": "restaurant", "cuisine": "diner", "delivery": "yes", "drink:beer": "served", "drink:coffee": "served", "drink:wine": "served", "email": "morningstarcafe949@gmail.com", "fax": "+1 212-355-6069", "name": "Morning Star Cafe", "opening_hours": "Tu-Sa 00:00-24:00; Su 00:00-22:00; Mo 06:00-24:00", "payment:american_express": "yes", "payment:cash": "yes", "payment:diners_club": "yes", "payment:discover_card": "yes", "payment:jcb": "yes", "payment:mastercard": "yes", "payment:visa": "yes", "phone": "+1 212-588-1050", "takeaway": "yes", "website": "https://morningstaronsecond.com/"}}, {"type": "node", "id": 6173403985, "lat": 40.7573506, "lon": -73.9702706, "tags": {"addr:housenumber": "155", "addr:street": "East 52nd Street", "amenity": "restaurant", "cuisine": "japanese"}}, {"type": "node", "id": 6206635061, "lat": 40.7561485, "lon": -73.9673746, "tags": {"addr:housenumber": "984", "addr:street": "2nd Avenue", "amenity": "restaurant", "check_date": "2025-01-30", "cuisine": "italian", "level": "0", "name": "Mimi's Piano Bar"}}, {"type": "node", "id": 6342212317, "lat": 40.7584777, "lon": -73.9721247, "tags": {"addr:city": "New York", "addr:housenumber": "98", "addr:postcode": "10022", "addr:state": "NY", "addr:street": "East 53rd Street", "amenity": "restaurant", "cuisine": "japanese;sushi;fine_dining", "name": "The Lobster Club", "opening_hours": "Mo-Fr 11:45-14:00 open \"Lunch\", Mo-Sa 17:00-22:00 \"Dinner\"", "phone": "+1-212-375-9001", "website": "https://thelobsterclub.com/"}}, {"type": "node", "id": 6351737294, "lat": 40.7593749, "lon": -73.9711618, "tags": {"addr:housenumber": "125", "addr:postcode": "10022", "addr:street": "East 54th Street", "amenity": "restaurant", "contact:facebook": "https://www.facebook.com/LeReveNewYork/", "contact:instagram": "https://www.instagram.com/lerevenyc/", "cuisine": "mediterranean", "email": "info@lerevenyc.com", "fax": "+1-212-759-7787", "happy_hours": "Tu-Fr 17:00-20:00", "name": "Le Reve", "opening_hours": "Tu-Fr 17:00-04:00; Sa, Su 14:00-04:00", "phone": "+1-212-755-7777", "reservation": "yes", "smoking": "hookah", "website": "https://www.lerevenyc.com"}}, {"type": "node", "id": 6369348885, "lat": 40.7573465, "lon": -73.9693316, "tags": {"amenity": "restaurant", "name": "Fresh&Co"}}, {"type": "node", "id": 6371366886, "lat": 40.7569432, "lon": -73.9717891, "tags": {"amenity": "restaurant", "check_date": "2023-12-06", "name": "Fresh & Co"}}, {"type": "node", "id": 6378468600, "lat": 40.7552533, "lon": -73.9685194, "tags": {"addr:housenumber": "951", "addr:street": "2nd Avenue", "amenity": "restaurant", "cocktails": "yes", "cuisine": "american", "drink:beer": "yes", "drink:liquor": "yes", "drink:wine": "yes", "happy_hours": "Mo-Su 16:00-19:00", "name": "The Horny Ram", "opening_hours": "Mo-Su 11:30-04:00", "phone": "+1-917-261-4136", "reservation": "yes", "toilets": "yes", "website": "https://www.thehornyramnyc.com/", "wheelchair": "yes"}}, {"type": "node", "id": 6538373186, "lat": 40.7584922, "lon": -73.9661187, "tags": {"amenity": "restaurant", "check_date": "2023-12-06", "cuisine": "lebanese", "name": "NAYA Mezze & Grill"}}, {"type": "node", "id": 6661175921, "lat": 40.7572541, "lon": -73.9693618, "tags": {"addr:city": "New York", "addr:housenumber": "875", "addr:postcode": "10022", "addr:state": "NY", "addr:street": "3rd Avenue", "brand": "McKinsey & Company", "brand:wikidata": "Q310207", "name": "McKinsey & Company", "office": "consulting", "phone": "+1-212-446-7000"}}, {"type": "node", "id": 6795570589, "lat": 40.7561488, "lon": -73.971257, "tags": {"addr:city": "New York", "addr:housenumber": "151", "addr:postcode": "10022", "addr:state": "NY", "addr:street": "East 50th Street", "air_conditioning": "yes", "amenity": "restaurant", "bar": "yes", "branch": "Midtown East", "check_date": "2025-04-12", "check_date:opening_hours": "2025-04-12", "cuisine": "steak_house", "delivery": "yes", "email": "info50@empiresteakhousenyc.com", "name": "Empire Steakhouse", "opening_hours": "Su 15:00-22:00; Mo-We 11:45-22:00; Th,Fr 11:45-23:00; Sa 15:00-23:00", "phone": "+1-212-582-6900", "website": "https://www.empiresteakhousenyc.com/midtown-east"}}, {"type": "node", "id": 8551295312, "lat": 40.7594589, "lon": -73.9700026, "tags": {"addr:city": "New York", "addr:housenumber": "655", "addr:postcode": "10022", "addr:state": "NY", "addr:street": "Lexington Avenue", "amenity": "cafe", "branch": "55th & Lex", "brand": "Starbucks", "brand:wikidata": "Q37158", "cuisine": "coffee_shop", "name": "Starbucks", "official_name": "Starbucks Coffee", "phone": "+1 212-308-5717", "ref": "7083", "takeaway": "yes", "website": "https://www.starbucks.com/store-locator/store/7083/55th-lex-655-lexington-avenue-new-york-ny-100224502-us"}}, {"type": "node", "id": 8551326223, "lat": 40.7592021, "lon": -73.9701987, "tags": {"amenity": "restaurant", "name": "Glaze"}}, {"type": "node", "id": 8593629442, "lat": 40.758653, "lon": -73.9655557, "tags": {"addr:housenumber": "1066", "addr:street": "2nd Avenue", "amenity": "restaurant", "bar": "yes", "catering": "yes", "cuisine": "greek", "drink:beer": "yes", "drink:espresso": "yes", "drink:liquor": "yes", "drink:wine": "yes", "name": "Anatoli 56", "opening_hours": "Mo-Fr 11:00-23:00, Sa-Su 10:00-23:00", "phone": "+1-212-385-9195", "reservation": "yes", "website": "https://anatoli56.com"}}, {"type": "node", "id": 8999499117, "lat": 40.7591125, "lon": -73.9687519, "tags": {"amenity": "restaurant", "name": "Teppen Ramen"}}, {"type": "node", "id": 9109801302, "lat": 40.7561131, "lon": -73.9693057}, {"type": "node", "id": 9109801303, "lat": 40.7561451, "lon": -73.9693805}, {"type": "node", "id": 9109801313, "lat": 40.7561376, "lon": -73.9693618}, {"type": "node", "id": 9109819924, "lat": 40.7563729, "lon": -73.9691617}, {"type": "node", "id": 9109819933, "lat": 40.7563789, "lon": -73.9693275}, {"type": "node", "id": 9109819937, "lat": 40.7561624, "lon": -73.9692346}, {"type": "node", "id": 9109819943, "lat": 40.7561573, "lon": -73.9694086}, {"type": "node", "id": 9318757129, "lat": 40.757714, "lon": -73.9724399, "tags": {"addr:city": "New York", "addr:housenumber": "345", "addr:postcode": "10154", "addr:state": "NY", "addr:street": "Park Avenue", "brand": "KPMG", "brand:wikidata": "Q493751", "name": "KPMG", "office": "consulting"}}, {"type": "node", "id": 9392834432, "lat": 40.7558918, "lon": -73.9716131, "tags": {"addr:city": "New York", "addr:housenumber": "150", "addr:postcode": "10022", "addr:state": "NY", "addr:street": "East 50th Street", "amenity": "restaurant", "check_date": "2024-03-07", "cuisine": "fusion;indian;chinese", "diet:halal": "yes", "diet:nut_free": "yes", "diet:vegan": "yes", "diet:vegetarian": "yes", "name": "Spice Symphony", "phone": "+1-212-300-4869", "website": "https://www.spicesymphony.com/"}}, {"type": "node", "id": 9555414817, "lat": 40.7573037, "lon": -73.9681176, "tags": {"amenity": "bar", "name": "Strangelove Bar NYC"}}, {"type": "node", "id": 10634248716, "lat": 40.7569768, "lon": -73.9659547}, {"type": "node", "id": 10634248717, "lat": 40.7570429, "lon": -73.9661127}, {"type": "node", "id": 10634248718, "lat": 40.7571087, "lon": -73.9662703}, {"type": "node", "id": 10634248719, "lat": 40.7568645, "lon": -73.9664476}, {"type": "node", "id": 10634248720, "lat": 40.7567881, "lon": -73.9662959}, {"type": "node", "id": 10634248721, "lat": 40.7567228, "lon": -73.9661397}, {"type": "node", "id": 10780279316, "lat": 40.7569068, "lon": -73.9678393, "tags": {"addr:city": "New York", "addr:housenumber": "244", "addr:postcode": "10022", "addr:state": "NY", "addr:street": "East 53rd Street", "amenity": "restaurant", "cuisine": "mexican", "name": "TacoVision", "phone": "+16469211990", "website": "https://tacovisionnyc.com/"}}, {"type": "node", "id": 10908633305, "lat": 40.7579767, "lon": -73.9694536, "tags": {"addr:housenumber": "880", "addr:postcode": "10022", "addr:street": "3rd Avenue", "amenity": "cafe", "check_date": "2025-02-10", "name": "Gregory\u2019s coffee", "opening_hours": "Mo-Th 07:00-17:00; Fr 07:00-16:00; Sa 08:00-16:00", "payment:cash": "yes", "payment:credit_cards": "yes", "payment:debit_cards": "yes", "phone": "+1877 212-5813", "website": "https://gregoryscoffee.com/"}}, {"type": "node", "id": 10982324243, "lat": 40.7601469, "lon": -73.9655086, "tags": {"addr:housenumber": "240", "addr:street": "East 58th Street", "amenity": "restaurant", "cuisine": "steak", "level": "0;1", "name": "Club A Steakhouse", "opening_hours": "Tu-Su 17:00-21:00", "outdoor_seating": "no", "phone": "+1-212-688-4190", "self_service": "no", "website": "https://clubasteakhouse.com/", "website:menu": "https://clubasteakhouse.com/menus/"}}, {"type": "node", "id": 11053422057, "lat": 40.7563844, "lon": -73.9713268, "tags": {"addr:city": "New York", "addr:housenumber": "145", "addr:postcode": "10022", "addr:state": "NY", "addr:street": "East 50th Street", "amenity": "restaurant", "cuisine": "italian", "name": "Bistango", "opening_hours": "Mo-Fr 00:00-16:00, Su-We 16:00-21:00, Th-Sa 16:00-22:00, Sa,Su 11:00-16:00", "phone": "+12128884121", "website": "https://www.bistangonyc.com/kimberly"}}, {"type": "node", "id": 11158249778, "lat": 40.7590969, "lon": -73.9714801, "tags": {"branch": "Savills North America", "brand": "Savills", "brand:wikidata": "Q10458056", "name": "Savills", "office": "estate_agent"}}, {"type": "node", "id": 11293344178, "lat": 40.7599443, "lon": -73.9680171, "tags": {"addr:housenumber": "940", "addr:postcode": "10022", "addr:street": "3rd Avenue", "amenity": "restaurant", "branch": "3rd Avenue", "cuisine": "cuban", "delivery": "yes", "level": "0", "name": "Tina's Cuban Cuisine", "opening_hours": "Mo-Fr 08:00-20:00", "phone": "+1 646-649-3663", "takeaway": "yes", "website": "https://tinascubancuisine.com/", "wheelchair": "yes"}}, {"type": "node", "id": 11293344183, "lat": 40.7593709, "lon": -73.96841, "tags": {"addr:housenumber": "922", "addr:postcode": "10022", "addr:street": "3rd Avenue", "amenity": "bar", "contact:instagram": "thenakedpignyc", "happy_hours": "Mo-Fr 15:00-18:00", "level": "0", "name": "The Naked Pig", "opening_hours": "Mo 12:00-22:00; Tu, We 12:00-24:00; Th, Fr 12:00-02:00; Sa 11:00-02:00; Su 11:00-22:00", "opening_hours:kitchen": "Mo 12:00-22:00; Tu-Fr 12:00-24:00; Sa 11:00-24:00; Su 11:00-22:00", "phone": "+1 917-261-7644", "reservation": "yes", "reservation:website": "https://resy.com/cities/ny/the-naked-pig", "website": "https://www.thenakedpignyc.com/"}}, {"type": "node", "id": 11486862485, "lat": 40.7579447, "lon": -73.9694746, "tags": {"addr:city": "New York", "addr:housenumber": "880", "addr:postcode": "10022", "addr:state": "NY", "addr:street": "3rd Avenue", "alt_name": "UN Mission Palau", "country": "PW", "diplomatic": "embassy", "email": "mission@palauun.org", "embassy": "mission", "name": "Permanent Mission of Palau to the United Nations", "office": "diplomatic", "official_name": "Permanent Mission of the Republic of Palau to the United Nations", "phone": "+1-201-523-6206", "target": "UN", "website": "https://www.palauun.org"}}, {"type": "node", "id": 11488408591, "lat": 40.7566495, "lon": -73.9698168, "tags": {"addr:housenumber": "845", "addr:postcode": "10022", "addr:street": "3rd Avenue", "alt_name": "UN Mission South Africa", "country": "ZA", "diplomatic": "embassy", "email": "pmun.newyork@dirco.gov.za", "embassy": "mission", "fax": "+1-212-692-2498", "level": "10", "name": "Permanent Mission of South Africa to the United Nations", "office": "diplomatic", "official_name": "Permanent Mission of the Republic of South Africa to the United Nations", "phone": "+1-212-213-5583", "target": "UN", "website": "https://www.southafrica-usa.net/pmun/"}}, {"type": "node", "id": 11500492269, "lat": 40.7596208, "lon": -73.9685472, "tags": {"addr:city": "New York", "addr:housenumber": "164", "addr:postcode": "10022", "addr:state": "NY", "addr:street": "East 56th Street", "amenity": "restaurant", "cuisine": "japanese", "email": "info@izakayatoribar.com", "name": "Izakaya Toribar", "opening_hours": "17:00-01:00; Fr,Sa 17:00-03:00", "phone": "+1-646-767-0029", "website": "https://izakayatoribar.com/"}}, {"type": "node", "id": 11592874869, "lat": 40.7572512, "lon": -73.9679558, "tags": {"addr:postcode": "10022", "amenity": "restaurant", "cuisine": "italian", "name": "Cafe Luce", "phone": "+16465902777", "website": "https://www.cafelucenyc.com/"}}, {"type": "node", "id": 11717251420, "lat": 40.75999, "lon": -73.9705353, "tags": {"amenity": "school", "name": "Sahra & William M Lese Religious School", "religion": "jewish"}}, {"type": "node", "id": 11717251431, "lat": 40.7599242, "lon": -73.9700459, "tags": {"amenity": "cafe", "name": "Caf\u00e9 Olympia"}}, {"type": "node", "id": 12074578120, "lat": 40.7579501, "lon": -73.9703988, "tags": {"addr:city": "New York", "addr:housenumber": "132", "addr:postcode": "10022", "addr:state": "NY", "addr:street": "East 53rd Street", "amenity": "restaurant", "branch": "Midtown East", "cuisine": "sushi", "name": "SUGARFISH by Sushi Nozawa", "opening_hours": "Su-Th 11:30-23:00; Fr,Sa 11:30-23:30", "phone": "+1-917-985-7726", "website": "https://sugarfishsushi.com/locations/midtown-east/"}}, {"type": "node", "id": 12120372893, "lat": 40.7575906, "lon": -73.9674597, "tags": {"addr:city": "New York", "addr:housenumber": "240", "addr:postcode": "10022", "addr:state": "NY", "addr:street": "East 54th Street", "amenity": "cafe", "cuisine": "coffee_shop", "internet_access": "no", "name": "Birch Coffee", "opening_hours": "Mo-Su 07:30-16:00", "outdoor_seating": "yes", "phone": "+12126861444", "website": "https://www.birchcoffee.com/"}}, {"type": "node", "id": 12544339981, "lat": 40.7561865, "lon": -73.967351, "tags": {"amenity": "bar", "check_date": "2025-01-30", "level": "0", "name": "Murphy's Irish Pub"}}, {"type": "node", "id": 12552541831, "lat": 40.755037, "lon": -73.9705438, "tags": {"addr:city": "New York", "addr:housenumber": "209", "addr:postcode": "10017", "addr:state": "NY", "addr:street": "East 49th Street", "amenity": "restaurant", "bar": "yes", "check_date": "2025-05-15", "contact:facebook": "https://www.facebook.com/tannewyorkcity/", "contact:instagram": "https://www.instagram.com/tannewyorkcity/", "cuisine": "mexican", "email": "hello@tannewyork.com", "name": "t\u00e1n", "opening_hours": "Su-Th 17:00-22:00; Fr-Sa 17:00-23:00; Sa-Su 11:00-14:30", "payment:credit_cards": "yes", "payment:debit_cards": "yes", "phone": "+1 917 388 2248", "website": "https://www.tannewyork.com/"}}, {"type": "node", "id": 12601522341, "lat": 40.755873, "lon": -73.9692659, "tags": {"addr:housenumber": "224", "addr:street": "East 51st Street", "air_conditioning": "yes", "amenity": "restaurant", "bar": "yes", "check_date": "2025-02-19", "cuisine": "sushi", "delivery": "yes", "name": "Shima Sushi", "opening_hours": "Mo-Fr 11:00-21:30; Sa off; Su 15:00-21:30", "outdoor_seating": "no", "payment:cash": "yes", "payment:contactless": "yes", "payment:credit_cards": "yes", "payment:debit_cards": "yes", "smoking": "no", "takeaway": "yes", "website": "https://www.shimasushionline.com/"}}, {"type": "node", "id": 12601547251, "lat": 40.7559192, "lon": -73.969303, "tags": {"addr:housenumber": "224", "addr:street": "East 51st Street", "air_conditioning": "yes", "amenity": "restaurant", "bar": "yes", "check_date": "2025-02-19", "cuisine": "thai", "delivery": "yes", "email": "sukhumvit51nyc@gmail.com", "highchair": "no", "name": "Su Khum Vit 51", "opening_hours": "Mo-Fr 11:00-15:30,17:00-21:45; Sa-Su 12:00-15:30,17:00-21:45", "outdoor_seating": "no", "payment:cash": "yes", "payment:contactless": "yes", "payment:credit_cards": "yes", "payment:debit_cards": "yes", "phone": "+1 212-888-8894", "reservation": "yes", "smoking": "no", "takeaway": "yes", "toilets": "yes", "website": "https://sukhumvit51.com/", "wheelchair": "limited"}}, {"type": "node", "id": 12607367266, "lat": 40.7567574, "lon": -73.9725486, "tags": {"addr:city": "New York", "addr:housenumber": "560", "addr:postcode": "10022", "addr:state": "NY", "addr:street": "Lexington Avenue", "brand": "KPMG", "brand:wikidata": "Q493751", "name": "KPMG", "office": "consulting"}}, {"type": "node", "id": 12707756043, "lat": 40.7561451, "lon": -73.9659724, "tags": {"alt_name": "8 Kealoha Sushi & Poke Bowl", "amenity": "restaurant", "cuisine": "japanese;sushi", "delivery": "yes", "fax": "+1-212-371-1592", "name": "Ke Aloha Sushi & Poke Bowl", "opening_hours": "Mo-Su 11:00-21:30", "phone": "+1-212-371-0430", "takeaway": "yes", "website": "https://www.kealohasushipokebowl.com"}}, {"type": "node", "id": 12710030055, "lat": 40.7592533, "lon": -73.9689049, "tags": {"alt_name": "Darbar Grill", "amenity": "restaurant", "cuisine": "indian", "delivery": "yes", "drink:beer": "yes", "drink:wine": "yes", "email": "darbarnyc@yahoo.com", "name": "Darbar", "opening_hours": "Mo-Th 11:30-22:00, Fr-Sa 11:30-22:30, Su 11:30-22:00", "phone": "+1-212-751-4600", "takeaway": "yes", "website": "https://darbargrill.com"}}, {"type": "node", "id": 12762754842, "lat": 40.7555288, "lon": -73.970365, "tags": {"amenity": "restaurant", "check_date": "2025-04-17", "cuisine": "japanese", "name": "Gyu-Kaku", "payment:cash": "yes", "payment:contactless": "yes", "payment:credit_cards": "yes", "payment:debit_cards": "yes", "wheelchair": "no"}}, {"type": "node", "id": 12803439203, "lat": 40.7567469, "lon": -73.9661974}, {"type": "node", "id": 12820832963, "lat": 40.7551236, "lon": -73.9725518, "tags": {"addr:housenumber": "141", "addr:street": "East 48th Street", "air_conditioning": "yes", "amenity": "restaurant", "bar": "yes", "branch": "48th", "check_date": "2025-05-08", "cuisine": "greek", "delivery": "yes", "name": "Avra", "opening_hours": "Mo,Su 12:00-23:00; Tu-Th 12:00-23:30; Fr-Sa 12:00-24:00", "organic": "yes", "outdoor_seating": "yes", "payment:cash": "yes", "payment:contactless": "yes", "payment:credit_cards": "yes", "payment:debit_cards": "yes", "phone": "+1 212-759-8550", "reservation": "yes", "smoking": "no", "takeaway": "yes", "toilets": "yes", "website": "https://theavragroup.com/avra-48th-street", "wheelchair": "yes"}}, {"type": "node", "id": 12917611586, "lat": 40.7566827, "lon": -73.9692284, "tags": {"amenity": "restaurant", "catering": "yes", "cuisine": "japanese;sushi", "delivery": "yes", "name": "Raku", "opening_hours": "Mo-Tu 10:00-22:00, We-Fr 10:00-23:00, Sa-Su 11:30-23:00", "phone": "+1-212-355-3272", "takeaway": "yes", "website": "https://rakujapanese.com"}}, {"type": "node", "id": 12917611587, "lat": 40.757224, "lon": -73.9685841, "tags": {"amenity": "restaurant", "catering": "yes", "cuisine": "indian;nepali", "delivery": "yes", "diet:gluten_free": "yes", "diet:halal": "yes", "diet:vegan": "yes", "diet:vegetarian": "yes", "drink:beer": "yes", "drink:liquor": "yes", "drink:wine": "yes", "name": "Himalayan Curry House", "opening_hours": "Mo-Su 10:00-22:00", "phone": "+1-646-861-1060", "takeaway": "yes"}}, {"type": "node", "id": 12923377791, "lat": 40.7582701, "lon": -73.9662712, "tags": {"amenity": "restaurant", "branch": "Midtown East", "delivery": "yes", "drink:beer": "yes", "drink:wine": "yes", "name": "Grand Sichuan Eastern", "opening_hours": "Mo-Fr 11:00-22:00, Sa-Su 12:00-22:00", "phone": "+1-212-355-5855", "takeaway": "yes", "website": "https://www.sichuanhunan1049.com"}}, {"type": "node", "id": 13027471401, "lat": 40.7571763, "lon": -73.9678034, "tags": {"addr:housenumber": "239", "addr:street": "East 53rd Street", "amenity": "bar", "name": "Tomi Jazz", "opening_hours": "Su-Th 17:00-01:00; Fr-Sa 17:00-03:00", "phone": "+1-646-497-1254", "website": "https://www.tomijazz.com/"}}, {"type": "node", "id": 13107945801, "lat": 40.7582895, "lon": -73.9665979, "tags": {"addr:housenumber": "245", "addr:street": "East 55th Street", "amenity": "bar", "name": "Draught 55"}}, {"type": "way", "id": 86338375, "nodes": [1002929164, 9109819933, 1002929165, 2711394881, 2711394884, 2711394891, 9109819924, 2711394824, 9109819937, 2711394613, 1002929171, 9109801302, 9109801313, 9109801303, 9109819943, 1002929164], "tags": {"addr:city": "New York", "addr:housenumber": "217", "addr:postcode": "10022", "addr:state": "NY", "addr:street": "East 51st Street", "ele": "11", "gnis:feature_id": "2083321", "leisure": "park", "name": "Greenacre Park", "opening_hours": "Mo-Su 08:00-20:00", "website": "https://greenacrepark.org", "wikidata": "Q47321179", "wikipedia": "en:Greenacre Park"}}, {"type": "way", "id": 265430681, "nodes": [2711002336, 2711002346, 2711002351, 2711002465, 2711002445, 2711002336], "tags": {"addr:city": "New York", "addr:country": "US", "addr:housenumber": "244", "addr:postcode": "10022", "addr:state": "NY", "addr:street": "East 58th Street", "alt_name": "UN Mission Gabon", "building": "yes", "country": "GA", "diplomatic": "embassy", "email": "info@gabonunmission.com", "embassy": "mission", "fax": "+1-917-675-7485", "height": "20.8", "name": "Permanent Mission of Gabon to the United Nations", "nycdoitt:bin": "1038606", "office": "diplomatic", "official_name": "Permanent Mission of the Gabonese Republic to the United Nations", "phone": "+1-212-686-9720", "target": "UN"}}, {"type": "way", "id": 265459491, "nodes": [2711225323, 2711225334, 2711225420, 2711225397, 2711225323], "tags": {"addr:city": "New York", "addr:country": "US", "addr:housenumber": "317", "addr:postcode": "10022", "addr:state": "NY", "addr:street": "East 51st Street", "alt_name": "UN Mission Lao", "building": "yes", "country": "LA", "diplomatic": "embassy", "email": "lao.pr.ny@gmail.com", "embassy": "mission", "fax": "+1-212-750-0039", "height": "16.5", "name": "Permanent Mission of Laos to the United Nations", "nycdoitt:bin": "1039650", "office": "diplomatic", "official_name": "Permanent Mission of the Lao People's Democratic Republic to the United Nations", "phone": "+1-212-832-2734", "target": "UN", "website": "https://www.un.int/lao"}}, {"type": "way", "id": 265483513, "nodes": [2711394306, 2711394325, 2711394372, 2711394360, 2711394391, 2711394402, 2711394456, 2711394510, 2711394484, 2711394448, 2711394343, 2711394332, 2711394306], "tags": {"addr:city": "New York", "addr:country": "US", "addr:housenumber": "220", "addr:postcode": "10022", "addr:state": "NY", "addr:street": "East 51st Street", "alt_name": "UN Mission Ukraine", "building": "yes", "building:colour": "#B9B9B6", "building:levels": "4", "country": "UA", "diplomatic": "embassy", "email": "uno_us@mfa.gov.ua", "embassy": "mission", "fax": "+1-212-355-9455", "height": "14.0", "name": "Permanent Mission of Ukraine to the United Nations", "name:ru": "\u041f\u043e\u0441\u0442\u043e\u044f\u043d\u043d\u043e\u0435 \u043f\u0440\u0435\u0434\u0441\u0442\u0430\u0432\u0438\u0442\u0435\u043b\u044c\u0441\u0442\u0432\u043e \u0423\u043a\u0440\u0430\u0438\u043d\u044b \u043f\u0440\u0438 \u041e\u041e\u041d", "nycdoitt:bin": "1038452", "office": "diplomatic", "phone": "+1-212-759-7003", "roof:material": "concrete", "roof:shape": "flat", "target": "UN", "website": "https://www.ukraineun.org"}}, {"type": "way", "id": 265483547, "nodes": [2711395128, 2711395104, 2711395022, 2711395046, 2711395154, 2711395135, 2711395128], "tags": {"addr:city": "New York", "addr:country": "US", "addr:housenumber": "237", "addr:postcode": "10022", "addr:state": "NY", "addr:street": "East 52nd Street", "alt_name": "UN Mission Zambia", "building": "yes", "country": "ZM", "diplomatic": "embassy", "email": "zambia@un.int", "embassy": "mission", "fax": "+1-212-888-5213", "height": "18.3", "name": "Permanent Mission of Zambia to the United Nations", "nycdoitt:bin": "1038524", "office": "diplomatic", "official_name": "Permanent Mission of the Republic of Zambia to the United Nations", "phone": "+1-212-888-5770", "target": "UN", "wikidata": "Q38250872", "wikipedia": "en:Permanent Representative of Zambia to the United Nations"}}, {"type": "way", "id": 265483580, "nodes": [2711393960, 2711393987, 2711394144, 2711394196, 2711394172, 2711394115, 2711394083, 2711394021, 2711393960], "tags": {"addr:city": "New York", "addr:country": "US", "addr:housenumber": "250", "addr:postcode": "10022", "addr:state": "NY", "addr:street": "East 51st Street", "alt_name": "UN Mission Tonga", "building": "yes", "building:colour": "#8C7A6A", "building:levels": "6", "building:material": "brick", "country": "TO", "diplomatic": "embassy", "email": "tongaunmission@gmail.com", "embassy": "mission", "fax": "+1-212-692-6070", "height": "22.8", "name": "Permanent Mission of Tonga to the United Nations", "nycdoitt:bin": "1038461", "office": "diplomatic", "official_name": "Permanent Mission of the Kingdom of Tonga to the United Nations", "phone": "+1-646-692-3552", "roof:material": "concrete", "roof:shape": "flat", "target": "UN"}}, {"type": "way", "id": 479358564, "nodes": [4724763198, 4724763199, 4724763200, 4724763201, 4724763198], "tags": {"leisure": "park", "name": "Rooftop Park", "name:fa": "\u067e\u0627\u0631\u06a9 \u0631\u0648\u0641\u062a\u0627\u067e"}}, {"type": "way", "id": 1141662701, "nodes": [2711137955, 2711137798, 10634248721, 2711137653, 12803439203, 10634248720, 2711137768, 10634248719, 2711137870, 2843446740, 2711137978, 2711137975, 2711138002, 2711138013, 2711138041, 10634248718, 10634248717, 10634248716, 2711137955], "tags": {"leisure": "park"}}]}