{"version": 0.6, "generator": "Overpass API 0.7.62.8 e802775f", "osm3s": {"timestamp_osm_base": "2025-12-01T17:15:59Z", "copyright": "The data included in this document is from www.openstreetmap.org. The data is made available under ODbL."}, "elements": [{"type": "node", "id": 357544577, "lat": 40.7012239, "lon": -73.9445117, "tags": {"amenity": "school", "ele": "5", "gnis:feature_id": "942331", "name": "All Saints High School"}}, {"type": "node", "id": 357619933, "lat": 40.7050203, "lon": -73.9491762, "tags": {"amenity": "school", "ele": "4", "gnis:feature_id": "2082387", "name": "Tiferes Bnos Girls School"}}, {"type": "node", "id": 357620024, "lat": 40.7030556, "lon": -73.9508333, "tags": {"amenity": "school", "ele": "5", "gnis:feature_id": "2082416", "name": "Yeshiva Sharie Torah"}}, {"type": "node", "id": 357638273, "lat": 40.7008855, "lon": -73.9455293}, {"type": "node", "id": 357638276, "lat": 40.7025, "lon": -73.9494444, "tags": {"ele": "4", "gnis:feature_id": "2380953", "leisure": "park", "name": "Eugenio Maria De Hostos Playground", "wikidata": "Q34829182"}}, {"type": "node", "id": 2837949767, "lat": 40.7032106, "lon": -73.9482279, "tags": {"addr:housenumber": "101", "addr:postcode": "11206", "addr:street": "Walton Street", "amenity": "school", "ele": "4", "gnis:feature_id": "2082153", "name": "Intermediate School 318", "wikidata": "Q17182193"}}, {"type": "node", "id": 2838396585, "lat": 40.7008524, "lon": -73.9466997}, {"type": "node", "id": 2838487912, "lat": 40.7051452, "lon": -73.9440823}, {"type": "node", "id": 2838487946, "lat": 40.7054235, "lon": -73.944123}, {"type": "node", "id": 2838492505, "lat": 40.7064629, "lon": -73.9453463}, {"type": "node", "id": 2838492506, "lat": 40.7064969, "lon": -73.9449959}, {"type": "node", "id": 2838492509, "lat": 40.7066742, "lon": -73.9462974}, {"type": "node", "id": 2838492514, "lat": 40.7068513, "lon": -73.9450138}, {"type": "node", "id": 2838492515, "lat": 40.706873, "lon": -73.9463307}, {"type": "node", "id": 2838492521, "lat": 40.7070202, "lon": -73.9450421}, {"type": "node", "id": 3026945563, "lat": 40.7041091, "lon": -73.9482692}, {"type": "node", "id": 3026945567, "lat": 40.7043137, "lon": -73.9484551}, {"type": "node", "id": 3026945570, "lat": 40.7043043, "lon": -73.9484033}, {"type": "node", "id": 3026945571, "lat": 40.7041782, "lon": -73.9481699}, {"type": "node", "id": 3026945572, "lat": 40.7042697, "lon": -73.9484489}, {"type": "node", "id": 5341007407, "lat": 40.7055874, "lon": -73.9478468}, {"type": "node", "id": 5341007408, "lat": 40.7057124, "lon": -73.9464339}, {"type": "node", "id": 5341007409, "lat": 40.7068673, "lon": -73.9466147}, {"type": "node", "id": 5341007410, "lat": 40.7067793, "lon": -73.947982}, {"type": "node", "id": 5823823343, "lat": 40.7052284, "lon": -73.9444215, "tags": {"addr:housenumber": "84", "addr:street": "Manhattan Avenue", "amenity": "cafe", "name": "19 Cafe"}}, {"type": "node", "id": 6202720013, "lat": 40.7037344, "lon": -73.9474885, "tags": {"addr:housenumber": "586", "addr:postcode": "11206", "addr:street": "Broadway", "alt_name": "Cheap Car Insurance Brooklyn", "email": "insurancec530@gmail.com", "insurance": "car", "name": "Williams Insurance", "office": "insurance", "phone": "+1-929-244-2557", "website": "https://cheapcarinsurancebrooklyn.info"}}, {"type": "node", "id": 6402959206, "lat": 40.7060759, "lon": -73.9501176, "tags": {"addr:housenumber": "192", "addr:postcode": "11206", "addr:street": "Union Avenue", "amenity": "restaurant", "atm": "yes", "cuisine": "chinese", "name": "China Express", "phone": "+1-718-218-7919"}}, {"type": "node", "id": 8229508973, "lat": 40.7005355, "lon": -73.9460897}, {"type": "node", "id": 8229508984, "lat": 40.7006615, "lon": -73.946486}, {"type": "node", "id": 8229508991, "lat": 40.7006876, "lon": -73.9462625}, {"type": "node", "id": 8232714829, "lat": 40.7051649, "lon": -73.9438996}, {"type": "node", "id": 8232714841, "lat": 40.7054336, "lon": -73.9439466}, {"type": "node", "id": 8403360417, "lat": 40.7069014, "lon": -73.9466752}, {"type": "node", "id": 8403360418, "lat": 40.7063741, "lon": -73.9479813}, {"type": "node", "id": 8403360419, "lat": 40.706432, "lon": -73.9479306}, {"type": "node", "id": 8468038702, "lat": 40.7032907, "lon": -73.9504695}, {"type": "node", "id": 8468050603, "lat": 40.7033649, "lon": -73.950355}, {"type": "node", "id": 8468050650, "lat": 40.7031945, "lon": -73.95037}, {"type": "node", "id": 8627671858, "lat": 40.7055417, "lon": -73.9506952, "tags": {"addr:city": "Brooklyn", "addr:housenumber": "500", "addr:postcode": "11211", "addr:state": "NY", "addr:street": "Broadway", "name": "YM Suites", "office": "coworking", "phone": "+1-347-907-9068"}}, {"type": "node", "id": 10693930873, "lat": 40.7063758, "lon": -73.9462482}, {"type": "node", "id": 10693930874, "lat": 40.7069302, "lon": -73.94634}, {"type": "node", "id": 10693930875, "lat": 40.7070547, "lon": -73.9450471}, {"type": "node", "id": 10693930876, "lat": 40.7064994, "lon": -73.9449564}, {"type": "node", "id": 10693930878, "lat": 40.7064781, "lon": -73.9462653}, {"type": "node", "id": 10693930883, "lat": 40.7064591, "lon": -73.9453859}, {"type": "node", "id": 11133133376, "lat": 40.7012967, "lon": -73.9459987}, {"type": "node", "id": 11351558268, "lat": 40.7005941, "lon": -73.9464057}, {"type": "node", "id": 11367394646, "lat": 40.7030953, "lon": -73.9492721}, {"type": "node", "id": 11367394647, "lat": 40.7027237, "lon": -73.9498524}, {"type": "node", "id": 11367394648, "lat": 40.7022819, "lon": -73.9493647}, {"type": "node", "id": 11367394649, "lat": 40.7026646, "lon": -73.9487905}, {"type": "way", "id": 298761168, "nodes": [3026945572, 3026945567, 3026945570, 3026945571, 3026945563, 3026945572], "tags": {"ele": "4", "leisure": "park", "name": "Lindsay Triangle", "name:etymology:wikidata": "Q666931", "wikidata": "Q34843876"}}, {"type": "way", "id": 553286421, "nodes": [5341007407, 5341007408, 5341007409, 8403360417, 5341007410, 8403360419, 8403360418, 5341007407], "tags": {"ele": "6", "gnis:feature_id": "2097537", "leisure": "park", "name": "Sternberg Park", "operator": "New York City Department of Parks and Recreation", "operator:short": "NYC Parks", "operator:type": "government", "operator:wikidata": "Q1894232", "website": "https://www.nycgovparks.org/parks/sternberg-park", "wikidata": "Q49566226"}}, {"type": "way", "id": 885323004, "nodes": [2838487912, 8232714829, 8232714841, 2838487946, 2838487912], "tags": {"ele": "6", "gnis:feature_id": "2381031", "leisure": "park", "name": "Sunshine Community Garden", "wikidata": "Q49568059"}}, {"type": "way", "id": 911895738, "nodes": [8468038702, 8468050603, 8468050650, 8468038702], "tags": {"ele": "5", "gnis:feature_id": "2097534", "leisure": "park", "name": "Harmony Triangle", "wikidata": "Q34833640"}}, {"type": "way", "id": 1149531149, "nodes": [2838492506, 2838492505, 10693930883, 10693930873, 10693930878, 2838492509, 2838492515, 10693930874, 10693930875, 2838492521, 2838492514, 10693930876, 2838492506], "tags": {"amenity": "school"}}, {"type": "way", "id": 1223837947, "nodes": [2838396585, 11133133376, 357638273, 8229508973, 8229508991, 11351558268, 8229508984, 2838396585], "tags": {"addr:city": "Brooklyn", "addr:postcode": "11206", "addr:state": "NY", "ele": "4", "gnis:feature_id": "2380952", "leisure": "park", "name": "Bartlett Playground", "opening_hours": "Mo-Su 06:00-21:00", "operator": "New York City Department of Parks and Recreation", "operator:short": "NYC Parks", "operator:type": "government", "operator:wikidata": "Q1894232", "website": "https://www.nycgovparks.org/parks/bartlett-playground", "wikidata": "Q34805064"}}, {"type": "way", "id": 1225770132, "nodes": [11367394646, 11367394647, 11367394648, 11367394649, 11367394646], "tags": {"addr:city": "Brooklyn", "addr:housenumber": "133", "addr:postcode": "11206", "addr:state": "NY", "addr:street": "Harrison Avenue", "leisure": "park", "name": "De Hostos Playground", "opening_hours": "Mo-Su 06:00-21:00", "operator": "New York City Department of Parks and Recreation", "operator:short": "NYC Parks", "operator:type": "government", "operator:wikidata": "Q1894232"}}]}