{"version": 0.6, "generator": "Overpass API 0.7.62.8 e802775f", "osm3s": {"timestamp_osm_base": "2025-12-01T17:11:00Z", "copyright": "The data included in this document is from www.openstreetmap.org. The data is made available under ODbL."}, "elements": [{"type": "node", "id": 246538378, "lat": 40.7334125, "lon": -73.9851339}, {"type": "node", "id": 246538379, "lat": 40.7345058, "lon": -73.9843537}, {"type": "node", "id": 246538404, "lat": 40.7338819, "lon": -73.9828655}, {"type": "node", "id": 357548361, "lat": 40.732711, "lon": -73.9825978, "tags": {"addr:city": "Manhattan", "addr:housenumber": "345", "addr:postcode": "10003", "addr:street": "East 15th Street", "amenity": "school", "gnis:feature_id": "943768", "name": "High School for Health Professions and Human Services", "operator": "The New York City Department of Education", "phone": "+1 212 780 9175", "website": "https://www.hphsnyc.org/", "wikidata": "Q5756583", "wikipedia": "en:High School for Health Professions and Human Services"}}, {"type": "node", "id": 357567542, "lat": 40.7295465, "lon": -73.982639, "tags": {"amenity": "school", "ele": "6", "gnis:feature_id": "954336", "name": "Twelfth Street Academy"}}, {"type": "node", "id": 357621383, "lat": 40.7324983, "lon": -73.9827378, "tags": {"amenity": "school", "ele": "7", "gnis:feature_id": "2083892", "name": "Institute for Collaborative Education"}}, {"type": "node", "id": 357650317, "lat": 40.7285623, "lon": -73.9783526, "tags": {"ele": "3", "gnis:feature_id": "2500579", "leisure": "park", "name": "Yu Suen Garden", "wikidata": "Q49583807"}}, {"type": "node", "id": 1251856893, "lat": 40.7284083, "lon": -73.9799351}, {"type": "node", "id": 1251856949, "lat": 40.7281605, "lon": -73.9801131}, {"type": "node", "id": 1251856970, "lat": 40.7279043, "lon": -73.9794922}, {"type": "node", "id": 1251857017, "lat": 40.7281522, "lon": -73.9793142}, {"type": "node", "id": 1493005667, "lat": 40.7302946, "lon": -73.9831042, "tags": {"amenity": "restaurant", "check_date": "2024-11-23", "cuisine": "lebanese", "delivery": "yes", "name": "Balade", "opening_hours": "Mo-Fr 17:00-24:00; Sa-Su 11:00-23:00", "outdoor_seating": "street", "phone": "+1-212 529-6868", "takeaway": "yes", "website": "https://www.baladerestaurants.com"}}, {"type": "node", "id": 2279508475, "lat": 40.7308318, "lon": -73.983183, "tags": {"addr:housenumber": "219", "addr:postcode": "10003", "addr:street": "1st Avenue", "amenity": "cafe", "brand": "Starbucks", "brand:wikidata": "Q37158", "contact:website": "https://www.starbucks.com/store-locator/store/90278/13-th-1st-219-first-avenue-new-york-ny-100033072-us", "cuisine": "coffee_shop", "diet:vegan": "yes", "drink:coffee": "yes", "drink:espresso": "yes", "drink:soy_milk": "yes", "drink:tea": "yes", "name": "Starbucks", "official_name": "Starbucks Coffee", "opening_hours": "Mo-Fr 06:00-20:00; Sa-Su 06:00-19:30", "takeaway": "yes"}}, {"type": "node", "id": 2279536009, "lat": 40.7325595, "lon": -73.9850445, "tags": {"addr:city": "New York", "addr:housenumber": "231", "addr:postcode": "10003", "addr:state": "NY", "addr:street": "2nd Avenue", "amenity": "restaurant", "bar": "yes", "cocktails": "yes", "cuisine": "mediterranean", "drink:beer": "draught", "drink:liquor": "yes", "drink:wine": "yes", "name": "The Laurels", "opening_hours": "Mo 15:00-02:00, Tu-We 10:00-02:00, Th-Sa 10:00-04:00, Su 10:00-02:00", "outdoor_seating": "yes", "phone": "+1-646-398-9002", "website": "https://thelaurelsnyc.com"}}, {"type": "node", "id": 2287619730, "lat": 40.7302647, "lon": -73.9838635, "tags": {"addr:housenumber": "349", "addr:postcode": "10003", "addr:street": "East 12th Street", "amenity": "restaurant", "cuisine": "thai", "drink:beer": "yes", "drink:wine": "yes", "happy_hours": "Mo-Su 17:00-22:00", "name": "Thai Terminal", "opening_hours": "Mo-Th 12:00-22:15; Fr-Su 12:00-22:30"}}, {"type": "node", "id": 2491325773, "lat": 40.7299571, "lon": -73.9808751, "tags": {"addr:city": "New York", "addr:housenumber": "211", "addr:postcode": "10009", "addr:street": "Avenue A", "amenity": "bar", "check_date": "2024-11-07", "name": "Drop-Off Service", "opening_hours:signed": "no", "phone": "+1 212 260-2914"}}, {"type": "node", "id": 2491343755, "lat": 40.7291724, "lon": -73.9783661, "tags": {"addr:city": "New York", "addr:housenumber": "224", "addr:postcode": "10009", "addr:street": "Avenue B", "amenity": "bar", "check_date:opening_hours": "2021-03-04", "name": "Mona's", "opening_hours": "Mo-Su 15:00-04:00", "payment:cash": "yes", "payment:credit_cards": "yes", "phone": "+1-212-353-3780", "sport": "billiards", "toilets": "yes", "website": "https://www.facebook.com/Monas-Bar-NYC-118839478171924/", "wheelchair": "yes"}}, {"type": "node", "id": 2547121461, "lat": 40.7289736, "lon": -73.984523, "tags": {"addr:city": "New York", "addr:housenumber": "163", "addr:postcode": "10003", "addr:state": "NY", "addr:street": "1st Avenue", "amenity": "restaurant", "cuisine": "eclectic", "diet:vegan": "yes", "name": "Hags", "opening_hours": "Mo-Sa 18:00-22:00, Su 11:00-14:30", "website": "https://hagsnyc.com"}}, {"type": "node", "id": 2547121512, "lat": 40.729007, "lon": -73.9847265, "tags": {"addr:city": "New York", "addr:housenumber": "241", "addr:postcode": "10003", "addr:state": "NY", "addr:street": "East 10th Street", "amenity": "cafe", "cuisine": "coffee_shop", "drink:coffee": "yes", "drink:espresso": "yes", "drink:tea": "yes", "email": "hello@notasbitter.com", "name": "Not As Bitter", "opening_hours": "Mo-Su 08:00-18:00", "phone": "+1-646-939-3129", "website": "https://www.notasbitter.com"}}, {"type": "node", "id": 2547122345, "lat": 40.7295404, "lon": -73.9841399}, {"type": "node", "id": 2547122878, "lat": 40.729764, "lon": -73.9846675}, {"type": "node", "id": 2547123158, "lat": 40.7299951, "lon": -73.9852476}, {"type": "node", "id": 2547123163, "lat": 40.7300155, "lon": -73.983792}, {"type": "node", "id": 2547123184, "lat": 40.7301682, "lon": -73.9851202}, {"type": "node", "id": 2547123193, "lat": 40.7302391, "lon": -73.9843196}, {"type": "node", "id": 2547123239, "lat": 40.7303722, "lon": -73.9848682}, {"type": "node", "id": 2547123271, "lat": 40.730484, "lon": -73.984878}, {"type": "node", "id": 2547218207, "lat": 40.7299744, "lon": -73.9811697, "tags": {"addr:city": "New York", "addr:housenumber": "447", "addr:postcode": "10009", "addr:state": "NY", "addr:street": "East 13th Street", "amenity": "bar", "cocktails": "yes", "drink:wine": "yes", "email": "brenda@phoenixbarnyc.com", "internet_access": "wlan", "internet_access:fee": "no", "lgbtq": "primary", "name": "Phoenix Bar", "opening_hours": "Mo 00:00-04:00, 15:00-00:00; Tu-Su 00:30-04:00, 15:00-00:00", "payment:contactless": "yes", "payment:debit_cards": "yes", "phone": "+1-212-477-9979", "sport": "billiards", "toilets": "yes", "toilets:unisex": "yes", "toilets:wheelchair": "yes", "website": "https://www.phoenixbarnyc.com/"}}, {"type": "node", "id": 2547218712, "lat": 40.7303404, "lon": -73.9820953}, {"type": "node", "id": 2547218781, "lat": 40.7305043, "lon": -73.9819761}, {"type": "node", "id": 2547218785, "lat": 40.73051, "lon": -73.9820914}, {"type": "node", "id": 2547218808, "lat": 40.7305355, "lon": -73.9819534}, {"type": "node", "id": 2547218814, "lat": 40.7305392, "lon": -73.9825675}, {"type": "node", "id": 2547218816, "lat": 40.7305411, "lon": -73.9819668}, {"type": "node", "id": 2547218820, "lat": 40.7305571, "lon": -73.981973}, {"type": "node", "id": 2547218823, "lat": 40.7305674, "lon": -73.9820291}, {"type": "node", "id": 2547218825, "lat": 40.7305725, "lon": -73.9820096}, {"type": "node", "id": 2547218827, "lat": 40.730574, "lon": -73.9820449}, {"type": "node", "id": 2547218836, "lat": 40.7305821, "lon": -73.9822627}, {"type": "node", "id": 2547218867, "lat": 40.7306702, "lon": -73.9824721}, {"type": "node", "id": 2549930391, "lat": 40.7283608, "lon": -73.9832269}, {"type": "node", "id": 2549930409, "lat": 40.7283939, "lon": -73.9833057}, {"type": "node", "id": 2549930435, "lat": 40.7284326, "lon": -73.9832775}, {"type": "node", "id": 2549930481, "lat": 40.7285167, "lon": -73.9831136}, {"type": "node", "id": 2549930501, "lat": 40.728557, "lon": -73.9831872}, {"type": "node", "id": 2549930505, "lat": 40.7285633, "lon": -73.9830798}, {"type": "node", "id": 2549930523, "lat": 40.728595, "lon": -73.9831596}, {"type": "node", "id": 2549930524, "lat": 40.7285964, "lon": -73.9831586}, {"type": "node", "id": 2549930598, "lat": 40.7287898, "lon": -73.9823694}, {"type": "node", "id": 2549930613, "lat": 40.7288414, "lon": -73.9824996}, {"type": "node", "id": 2549930653, "lat": 40.7289362, "lon": -73.9827242}, {"type": "node", "id": 2549930675, "lat": 40.7290191, "lon": -73.9829263}, {"type": "node", "id": 2549930707, "lat": 40.7291569, "lon": -73.9821074}, {"type": "node", "id": 2549930712, "lat": 40.7291854, "lon": -73.9820863}, {"type": "node", "id": 2549930723, "lat": 40.72928, "lon": -73.9820164}, {"type": "node", "id": 2549930726, "lat": 40.7293223, "lon": -73.9821163}, {"type": "node", "id": 2549930728, "lat": 40.7293494, "lon": -73.982686}, {"type": "node", "id": 2549930737, "lat": 40.7294167, "lon": -73.9826371}, {"type": "node", "id": 2549930743, "lat": 40.7294707, "lon": -73.9824671}, {"type": "node", "id": 2549930747, "lat": 40.7295136, "lon": -73.9825665}, {"type": "node", "id": 2549930753, "lat": 40.7296411, "lon": -73.9831976}, {"type": "node", "id": 2549930762, "lat": 40.7297456, "lon": -73.9831216}, {"type": "node", "id": 2562432504, "lat": 40.7316362, "lon": -73.9828499, "tags": {"addr:housenumber": "351", "addr:postcode": "10003", "addr:street": "East 14th Street", "alt_name": "Hakata Izakaya", "amenity": "restaurant", "bar": "yes", "cuisine": "japanese", "drink:beer": "yes", "drink:sake": "yes", "drink:wine": "yes", "name": "Rockmeisha", "opening_hours": "Tu-Su 18:00-23:00", "phone": "+1-646-360-2598"}}, {"type": "node", "id": 2562432745, "lat": 40.7325065, "lon": -73.9843101}, {"type": "node", "id": 2562432758, "lat": 40.7325441, "lon": -73.9842825}, {"type": "node", "id": 2562432770, "lat": 40.7325944, "lon": -73.9845175}, {"type": "node", "id": 2562432780, "lat": 40.7326142, "lon": -73.9842312}, {"type": "node", "id": 2562432785, "lat": 40.7326308, "lon": -73.9842704}, {"type": "node", "id": 2562432793, "lat": 40.7326643, "lon": -73.9841944}, {"type": "node", "id": 2562432805, "lat": 40.732681, "lon": -73.9842336}, {"type": "node", "id": 2562432839, "lat": 40.7327716, "lon": -73.9841158}, {"type": "node", "id": 2562432860, "lat": 40.7328596, "lon": -73.9843232}, {"type": "node", "id": 2611290567, "lat": 40.7309012, "lon": -73.9833892, "tags": {"addr:city": "New York", "addr:housenumber": "349", "addr:postcode": "10003", "addr:street": "East 13th Street", "amenity": "bar", "cocktails": "yes", "drink:beer": "draught", "drink:liquor": "yes", "drink:wine": "yes", "name": "Idaho"}}, {"type": "node", "id": 2611479030, "lat": 40.7309843, "lon": -73.983062, "tags": {"amenity": "restaurant", "branch": "Go", "brand": "Buffalo Wild Wings", "brand:wikidata": "Q509255", "cuisine": "wings", "name": "Buffalo Wild Wings", "opening_hours": "Mo-Th 11:00-01:00, Fr-Sa 11:00-02:00, Su 11:00-01:00", "short_name": "BW3", "takeaway": "yes"}}, {"type": "node", "id": 2611479031, "lat": 40.7308818, "lon": -73.9831335, "tags": {"alt_name": "Fattoush by Salma", "amenity": "restaurant", "cuisine": "mediterranean", "name": "Fattoush"}}, {"type": "node", "id": 2611479035, "lat": 40.7307963, "lon": -73.9827498, "tags": {"amenity": "restaurant", "cuisine": "indian", "name": "Veeray Da Dhaba", "opening_hours": "Mo-Su 12:00-21:00", "phone": "+1-212-777-1420"}}, {"type": "node", "id": 2611479038, "lat": 40.7304977, "lon": -73.9829866, "tags": {"addr:city": "New York", "addr:housenumber": "214", "addr:street": "1st Avenue", "amenity": "restaurant", "cuisine": "pizza", "name": "Onion Tree Pizza Co"}}, {"type": "node", "id": 2611479042, "lat": 40.7303986, "lon": -73.9830423, "tags": {"amenity": "restaurant", "check_date": "2024-11-23", "name": "Gena's Grill", "opening_hours": "Mo-Su 07:00-23:00"}}, {"type": "node", "id": 2611490850, "lat": 40.7302858, "lon": -73.9839142, "tags": {"addr:city": "New York", "addr:housenumber": "349", "addr:postcode": "10003", "addr:state": "NY", "addr:street": "East 12th Street", "amenity": "restaurant", "cuisine": "pizza", "drink:beer": "yes", "drink:wine": "yes", "name": "Motorino", "opening_hours": "Mo-Th 16:00-22:30, Fr-Su 12:00-22:30", "outdoor_seating": "sidewalk", "phone": "+1-212-777-2644", "website": "https://www.motorinony.com/location/east-village/"}}, {"type": "node", "id": 2611490851, "lat": 40.7301897, "lon": -73.9836385, "tags": {"addr:city": "New York", "addr:housenumber": "197", "addr:postcode": "10003", "addr:state": "NY", "addr:street": "1st Avenue", "alt_name": "Sarita's Mac and Cheese", "amenity": "restaurant", "cuisine": "macaroni_and_cheese", "name": "S'MAC", "opening_hours": "Mo-Su 11:00-23:00", "outdoor_seating": "sidewalk", "phone": "+1-212-358-7912", "website": "https://www.eatsmac.com"}}, {"type": "node", "id": 2611490853, "lat": 40.7303381, "lon": -73.9835297, "tags": {"amenity": "restaurant", "cuisine": "vietnamese", "drink:beer": "yes", "drink:wine": "yes", "name": "Sao Mai", "opening_hours": "Mo-Su 11:00-22:00", "phone": "+1-212-358-8880", "website": "http://saomainyc.com"}}, {"type": "node", "id": 2826971928, "lat": 40.7319306, "lon": -73.981761, "tags": {"addr:housenumber": "252", "addr:postcode": "10009", "addr:street": "1st Avenue", "alt_name": "Stuyvesant Town Leasing Office", "check_date": "2024-09-22", "name": "Stuytown Leasing Office", "office": "residential"}}, {"type": "node", "id": 2826989576, "lat": 40.7317939, "lon": -73.978843}, {"type": "node", "id": 2826989577, "lat": 40.7318257, "lon": -73.9789852}, {"type": "node", "id": 2826989579, "lat": 40.7318569, "lon": -73.9791197}, {"type": "node", "id": 2826989581, "lat": 40.7318979, "lon": -73.9788029}, {"type": "node", "id": 2826989584, "lat": 40.7319297, "lon": -73.9789451}, {"type": "node", "id": 2826989587, "lat": 40.7319598, "lon": -73.9790801}, {"type": "node", "id": 2826989589, "lat": 40.732014, "lon": -73.9789125}, {"type": "node", "id": 2826989592, "lat": 40.7320442, "lon": -73.9790475}, {"type": "node", "id": 2901108443, "lat": 40.7295158, "lon": -73.9786409, "tags": {"addr:city": "New York", "addr:housenumber": "538", "addr:postcode": "10009", "addr:street": "East 14th Street", "amenity": "bar", "brewery": "various", "name": "Otto's Shrunken Head Tiki Bar", "opening_hours": "Th-Su 16:00-24:00", "phone": "+1-212-228-2240", "reservation": "yes", "toilets": "yes", "website": "https://www.ottosshrunkenhead.com/", "wheelchair": "limited"}}, {"type": "node", "id": 3676972134, "lat": 40.7316957, "lon": -73.9829911, "tags": {"addr:city": "New York", "addr:housenumber": "347", "addr:postcode": "10003", "addr:state": "NY", "addr:street": "East 14th Street", "amenity": "restaurant", "cuisine": "thai", "name": "Kati", "opening_hours": "Mo-Sa 12:00-22:30; Su 16:00-22:30", "outdoor_seating": "sidewalk", "phone": "+1-212-533-2046", "website": "https://katithai.com/"}}, {"type": "node", "id": 3676993343, "lat": 40.7306979, "lon": -73.9814385, "tags": {"addr:city": "New York", "addr:housenumber": "424", "addr:postcode": "10009", "addr:state": "NY", "addr:street": "East 14th Street", "alt_name": "Gemina Coffee Shop", "amenity": "cafe", "cuisine": "coffee_shop", "drink:coffee": "yes", "drink:espresso": "yes", "name": "Gemina", "outdoor_seating": "sidewalk"}}, {"type": "node", "id": 3677010929, "lat": 40.7318045, "lon": -73.9840953, "tags": {"addr:city": "New York", "addr:housenumber": "322", "addr:postcode": "10003", "addr:state": "NY", "addr:street": "East 14th Street", "amenity": "bar", "check_date:opening_hours": "2021-05-07", "name": "Nowhere", "opening_hours": "Mo-Su 15:00-04:00", "phone": "+1-212-477-4744", "sport": "billiards", "website": "https://www.nowherebarnyc.com/"}}, {"type": "node", "id": 4146358991, "lat": 40.7288511, "lon": -73.9841239, "tags": {"addr:housenumber": "166", "addr:postcode": "10009", "addr:street": "1st Avenue", "amenity": "restaurant", "check_date": "2024-11-23", "cocktails": "yes", "contact:email": "team@fernsnyc.com", "contact:instagram": "fernsnyc", "contact:phone": "+1 646-998-5034", "contact:twitter": "fernsnyc", "contact:website": "https://fernsnyc.com", "delivery": "yes", "drink:beer": "bottled", "drink:wine": "served", "level": "-1;0", "name": "Ferns", "opening_hours": "Tu-Th 16:00-24:00; Fr 16:00-01:00; Sa 11:00-01:00; Su 11:00-23:00", "reservation": "yes", "takeaway": "yes"}}, {"type": "node", "id": 4210173133, "lat": 40.7291861, "lon": -73.9843786, "tags": {"addr:city": "New York", "addr:housenumber": "171", "addr:postcode": "10003", "addr:state": "NY", "addr:street": "1st Avenue", "amenity": "restaurant", "cuisine": "asian;japanese;noodle", "description": "Momofuku serves ramen and a roster of dishes that changes with the seasons. Noodle Bar only takes reservations for the fried chicken and the caviar and fried chicken meals for 4-8 people.", "indoor_seating": "yes", "name": "Momofuku Noodle Bar", "opening_hours": "Mo-Th 17:00-22:00; Fr-Sa 12:00-16:00,17:00-23:00; Su 12:00-16:00,17:00-22:00", "outdoor_seating": "no", "website": "https://noodlebar-ny.momofuku.com/"}}, {"type": "node", "id": 4221091789, "lat": 40.7284125, "lon": -73.9820074, "tags": {"addr:housenumber": "173", "addr:postcode": "10009", "addr:street": "Avenue A", "amenity": "restaurant", "check_date": "2024-03-10", "cuisine": "american;salad;burger;fish", "diet:non-vegetarian": "yes", "diet:pescetarian": "yes", "diet:vegan": "yes", "diet:vegetarian": "yes", "drink:beer": "draught", "drink:wine": "yes", "level": "0", "name": "Westville East", "opening_hours": "Mo-Fr 11:30-15:00, Sa,Su 10:00-15:00, Mo-Fr 17:00-22:00, Sa,Su 17:00-22:00", "payment:cash": "yes", "payment:mastercard": "yes", "payment:visa": "yes", "phone": "+1-212-677-2033", "website": "https://westvillenyc.com/locations/westville-east/", "wheelchair": "yes"}}, {"type": "node", "id": 4502535317, "lat": 40.7302202, "lon": -73.9850087}, {"type": "node", "id": 4502535318, "lat": 40.7302454, "lon": -73.984315}, {"type": "node", "id": 4716523571, "lat": 40.7294592, "lon": -73.9837203, "tags": {"addr:housenumber": "184", "addr:postcode": "10009", "addr:street": "1st Avenue", "amenity": "restaurant", "cuisine": "middle_eastern", "name": "Sahara East", "phone": "+1-212-353-9000", "smoking": "hookah"}}, {"type": "node", "id": 4747803481, "lat": 40.7342486, "lon": -73.9837404}, {"type": "node", "id": 4747803482, "lat": 40.7341314, "lon": -73.9834614}, {"type": "node", "id": 4747803483, "lat": 40.7331585, "lon": -73.9845314}, {"type": "node", "id": 4747803484, "lat": 40.7330415, "lon": -73.9842559}, {"type": "node", "id": 4950995921, "lat": 40.7290639, "lon": -73.9784477, "tags": {"addr:city": "New York", "addr:housenumber": "222", "addr:postcode": "10009", "addr:state": "NY", "addr:street": "Avenue B", "amenity": "cafe", "bar": "yes", "brewery": "various", "cuisine": "breakfast;coffee_shop;pastry", "name": "The Roost", "opening_hours": "Mo-Th 07:00-02:00; Fr, Sa 08:00-03:30; Su 07:00-01:30", "payment:cash": "yes", "payment:credit_cards": "yes", "phone": "+1-646-918-6700", "wheelchair": "yes"}}, {"type": "node", "id": 5097810483, "lat": 40.7299792, "lon": -73.9832142, "tags": {"addr:city": "New York", "addr:housenumber": "403", "addr:street": "East 12nd Street", "amenity": "restaurant", "cuisine": "italian", "name": "Hearth", "opening_hours": "Mo-Th 11:30-15:00,17:00-21:30; Fr 11:30-15:00,17:00-22:30; Sa 11:00-15:00,17:00-22:30; Su 11:00-15:00,17:00-21:30", "phone": "+1-646-602-1300", "website": "https://www.restauranthearth.com"}}, {"type": "node", "id": 5147808600, "lat": 40.7296313, "lon": -73.9828482}, {"type": "node", "id": 5147808601, "lat": 40.7291384, "lon": -73.9832119, "tags": {"barrier": "gate"}}, {"type": "node", "id": 5147808603, "lat": 40.729607, "lon": -73.98279, "tags": {"barrier": "gate"}}, {"type": "node", "id": 5248793777, "lat": 40.7291278, "lon": -73.9811072, "tags": {"addr:housenumber": "194", "addr:postcode": "10009", "addr:street": "Avenue A", "amenity": "restaurant", "cocktails": "yes", "cuisine": "mexican", "drink:beer": "draught", "drink:liquor": "yes", "drink:wine": "yes", "facebook": "ElCamionCantina", "fax": "+1-212-533-5439", "instagram": "elcamioncantina", "name": "El Camion Cantina", "opening_hours": "Mo-Su 12:00-22:00", "outdoor_seating": "sidewalk", "phone": "+1-212-533-5436", "takeaway": "yes", "website": "https://www.elcamioncantina.com"}}, {"type": "node", "id": 5415350325, "lat": 40.730937, "lon": -73.9831109, "tags": {"amenity": "restaurant", "cuisine": "noodle;chinese", "name": "Mee", "opening_hours": "Mo-Su 11:30-21:30"}}, {"type": "node", "id": 5415434959, "lat": 40.7284736, "lon": -73.9834305, "tags": {"addr:housenumber": "261", "addr:postcode": "10009", "addr:street": "East 10th Street", "amenity": "bar", "check_date": "2023-05-08", "check_date:opening_hours": "2021-02-24", "currency:XBT": "no", "delivery": "yes", "drink:beer": "no", "drink:coffee": "yes", "drink:kava": "yes", "drink:tea": "yes", "drink:wine": "no", "name": "Kavasutra Kava Bar", "opening_hours": "Mo-Su 10:00-02:00", "payment:american_express": "yes", "payment:apple_pay": "yes", "payment:bitcoincash": "yes", "payment:discover_card": "yes", "payment:ethereum": "yes", "payment:google_pay": "yes", "payment:litecoin": "yes", "payment:mastercard": "yes", "payment:paypal": "yes", "payment:visa": "yes", "phone": "+1-646-649-4214", "website": "https://kavasutra.com/pages/kavasutra-new-york"}}, {"type": "node", "id": 5553457642, "lat": 40.7297578, "lon": -73.9806443, "tags": {"addr:housenumber": "212", "addr:postcode": "10009", "addr:street": "Avenue A", "amenity": "bar", "cuisine": "eclectic", "name": "Motel No Tell", "opening_hours": "Mo-Tu 16:00-24:00, We 16:00-01:00, Th 16:00-02:00, Fr 14:00-02:00, Sa 11:00-02:00, Su 11:00-24:00", "outdoor_seating": "sidewalk", "phone": "+1-646-368-9775", "website": "https://motelnotellnyc.com", "wheelchair": "yes"}}, {"type": "node", "id": 5553460385, "lat": 40.7294965, "lon": -73.9808235, "tags": {"addr:housenumber": "206", "addr:street": "Avenue A", "amenity": "bar", "name": "Waiting On A Friend", "toilets": "yes"}}, {"type": "node", "id": 5553506737, "lat": 40.7289041, "lon": -73.978241, "tags": {"addr:housenumber": "219", "addr:street": "Avenue B", "amenity": "bar", "brewery": "various", "email": "revisionlounge@gmail.com", "leisure": "dance", "name": "ReVision Lounge and Gallery", "opening_hours": "\"Temporarily closed\"", "phone": "+1-646-490-7271", "reservation": "yes", "toilets": "yes", "website": "http://www.revisionlounge.com/"}}, {"type": "node", "id": 5603357400, "lat": 40.7289381, "lon": -73.9812454, "tags": {"addr:city": "New York", "addr:housenumber": "188", "addr:postcode": "10009", "addr:state": "NY", "addr:street": "Avenue A", "amenity": "restaurant", "branch": "East Village", "cuisine": "middle_eastern;lebanese", "delivery": "yes", "drink:beer": "served", "drink:wine": "served", "email": "info@auzaatar.com", "facebook": "auzaatar", "instagram": "auzaatar", "name": "Au Za'atar", "opening_hours": "Mo-Su 11:00-23:00", "outdoor_seating": "yes", "phone": "+1 212-254-5660", "reservation": "recommended", "takeaway": "yes", "twitter": "AuZaatar", "website": "https://auzaatar.com"}}, {"type": "node", "id": 5603534984, "lat": 40.7292335, "lon": -73.9814002, "tags": {"addr:city": "New York", "addr:housenumber": "195", "addr:postcode": "10009", "addr:state": "NY", "addr:street": "Avenue A", "amenity": "cafe", "cuisine": "coffee_shop", "description": "dog-friendly cafe", "dog": "yes", "drink:beer": "yes", "drink:coffee": "yes", "drink:espresso": "yes", "drink:wine": "yes", "name": "Boris and Horton", "opening_hours": "Tu-Su 08:00-20:00", "outdoor_seating": "sidewalk", "phone": "+1-212-510-8986", "website": "https://www.borisandhorton.com"}}, {"type": "node", "id": 5603537158, "lat": 40.7288636, "lon": -73.9813167, "tags": {"addr:city": "New York", "addr:housenumber": "186", "addr:postcode": "10009", "addr:state": "NY", "addr:street": "Avenue A", "amenity": "bar", "name": "Gomi", "opening_hours": "We-Su 17:00-22:00"}}, {"type": "node", "id": 5849787600, "lat": 40.7291067, "lon": -73.9839653, "tags": {"addr:housenumber": "176", "addr:postcode": "10009", "addr:street": "1st Avenue", "amenity": "cafe", "branch": "East Village", "cuisine": "bagel", "name": "Black Seed Bagels", "opening_hours": "Mo-Fr 07:00-15:00; Sa-Su 07:00-16:00", "phone": "+1 646-484-5781", "website": "https://www.blackseedbagels.com"}}, {"type": "node", "id": 6053555793, "lat": 40.7294715, "lon": -73.9844822, "tags": {"addr:housenumber": "342", "addr:postcode": "10003", "addr:street": "East 11th Street", "amenity": "cafe", "check_date:opening_hours": "2024-10-07", "cuisine": "pastry;coffee_shop", "drink:beer": "yes", "drink:coffee": "yes", "drink:espresso": "yes", "drink:liquor": "yes", "drink:wine": "yes", "name": "Veniero's Pasticceria & Caff\u00e9", "opening_hours": "Mo-Th,Su 08:00-22:00; Fr-Sa 08:00-23:00", "phone": "+1-212-674-7070", "shop": "pastry", "website": "https://venieros.com/"}}, {"type": "node", "id": 6473280860, "lat": 40.7286956, "lon": -73.9787601, "tags": {"addr:city": "New York", "addr:housenumber": "512", "addr:postcode": "10009", "addr:state": "NY", "addr:street": "Avenue B", "amenity": "cafe", "cuisine": "coffee_shop", "delivery": "yes", "email": "bcupcafe@gmail.com", "facebook": "bcupcafe", "internet_access": "wlan", "internet_access:fee": "no", "name": "B Cup Caf\u00e9", "opening_hours": "Mo-Su 07:30-17:30", "phone": "+1 212-228-4808", "reservation": "no", "takeaway": "yes", "website": "https://www.bcupcafe.com"}}, {"type": "node", "id": 6680695932, "lat": 40.7316647, "lon": -73.9829175, "tags": {"addr:city": "New York", "addr:housenumber": "349", "addr:postcode": "10003", "addr:street": "East 14th Street", "amenity": "bar", "disused:website": "http://www.ohanlonsnyc.com", "name": "O'Hanlons Bar", "opening_hours": "Mo-Sa 08:00-04:00, Su 12:00-04:00", "outdoor_seating": "sidewalk", "phone": "+1-212-533-7333"}}, {"type": "node", "id": 6910758321, "lat": 40.7283918, "lon": -73.983236, "tags": {"amenity": "restaurant", "check_date:opening_hours": "2021-02-24", "cuisine": "indian", "diet:gluten_free": "yes", "diet:jain": "yes", "diet:kosher": "yes", "diet:vegan": "yes", "diet:vegetarian": "yes", "drink:beer": "yes", "drink:wine": "yes", "name": "Ahimsa", "opening_hours": "Mo-Th 12:00-22:00; Fr-Sa 12:00-23:00; Su 12:00-22:00", "phone": "+1-212-533-7290", "website": "https://ahimsagarden.com"}}, {"type": "node", "id": 6910793420, "lat": 40.7310339, "lon": -73.982565, "tags": {"addr:housenumber": "228", "addr:postcode": "10009", "addr:street": "1st Avenue", "amenity": "restaurant", "cuisine": "greek;seafood", "drink:wine": "yes", "name": "Tavern Kyclades", "opening_hours": "Mo-Th 12:00-23:00; Fr-Sa 12:00-23:30; Su 12:00-22:30", "phone": "+1-212-432-0011", "reservation": "no", "website": "https://www.tavernakyclades.com/east-village"}}, {"type": "node", "id": 6910793421, "lat": 40.7311721, "lon": -73.9829309, "tags": {"amenity": "restaurant", "check_date": "2024-09-22", "diet:vegetarian": "yes", "name": "New Arc Chicken"}}, {"type": "node", "id": 7072974787, "lat": 40.7293429, "lon": -73.9816876, "tags": {"addr:city": "New York", "addr:housenumber": "441", "addr:postcode": "10009", "addr:state": "NY", "addr:street": "East 12th Street", "amenity": "restaurant", "cuisine": "nordic", "delivery": "yes", "name": "Sm\u00f8r", "opening_hours": "We-Su 10:00-21:00", "website": "https://www.smornyc.com"}}, {"type": "node", "id": 7084620591, "lat": 40.7330316, "lon": -73.9809522, "tags": {"addr:housenumber": "286", "addr:postcode": "10009", "addr:street": "1st Avenue", "addr:unit": "A", "amenity": "cafe", "branch": "17th & 1st", "brand": "Starbucks", "brand:wikidata": "Q37158", "cuisine": "coffee_shop", "diet:vegetarian": "yes", "indoor_seating": "yes", "name": "Starbucks", "official_name": "Starbucks Coffee", "opening_hours": "Mo-Fr 06:30-18:30; Sa,Su 07:00-18:30", "outdoor_seating": "no", "phone": "+1 212-353-1214", "takeaway": "yes", "website": "https://www.starbucks.com/store-locator/store/15099/17th-1st-286-first-avenue-new-york-ny-100091850-us"}}, {"type": "node", "id": 7147636761, "lat": 40.7326764, "lon": -73.9794501}, {"type": "node", "id": 7147636762, "lat": 40.7326878, "lon": -73.9794704}, {"type": "node", "id": 7147636763, "lat": 40.7326945, "lon": -73.9794828}, {"type": "node", "id": 7147636764, "lat": 40.7326958, "lon": -73.9794951}, {"type": "node", "id": 7147636765, "lat": 40.7326951, "lon": -73.9795084}, {"type": "node", "id": 7147636766, "lat": 40.7326918, "lon": -73.9795199}, {"type": "node", "id": 7147636767, "lat": 40.7326837, "lon": -73.9795287}, {"type": "node", "id": 7147636768, "lat": 40.7324007, "lon": -73.9797371}, {"type": "node", "id": 7147636769, "lat": 40.7323893, "lon": -73.9797424}, {"type": "node", "id": 7147636770, "lat": 40.7323799, "lon": -73.9797424}, {"type": "node", "id": 7147636771, "lat": 40.7323719, "lon": -73.9797353}, {"type": "node", "id": 7147636772, "lat": 40.7322695, "lon": -73.9794731}, {"type": "node", "id": 7147636773, "lat": 40.7322615, "lon": -73.9794492}, {"type": "node", "id": 7147636774, "lat": 40.7321705, "lon": -73.9790757}, {"type": "node", "id": 7147636775, "lat": 40.7321391, "lon": -73.9788814}, {"type": "node", "id": 7147636776, "lat": 40.7321384, "lon": -73.9788549}, {"type": "node", "id": 7147636777, "lat": 40.7321417, "lon": -73.9788346}, {"type": "node", "id": 7147636778, "lat": 40.7321511, "lon": -73.9788161}, {"type": "node", "id": 7147636779, "lat": 40.7321625, "lon": -73.9788037}, {"type": "node", "id": 7147636780, "lat": 40.7321765, "lon": -73.9787958}, {"type": "node", "id": 7147636781, "lat": 40.7321926, "lon": -73.9787949}, {"type": "node", "id": 7147636782, "lat": 40.7322046, "lon": -73.9787966}, {"type": "node", "id": 7147636783, "lat": 40.7322227, "lon": -73.9788072}, {"type": "node", "id": 7147636784, "lat": 40.7322428, "lon": -73.9788205}, {"type": "node", "id": 7147636785, "lat": 40.7322595, "lon": -73.9788373}, {"type": "node", "id": 7147636786, "lat": 40.7323452, "lon": -73.97896}, {"type": "node", "id": 7147636787, "lat": 40.7324589, "lon": -73.9791349}, {"type": "node", "id": 7147637021, "lat": 40.7323234, "lon": -73.9789289}, {"type": "node", "id": 7147637023, "lat": 40.7321643, "lon": -73.9790376}, {"type": "node", "id": 7147637025, "lat": 40.7321599, "lon": -73.97901}, {"type": "node", "id": 7147637057, "lat": 40.7323131, "lon": -73.9789141}, {"type": "node", "id": 7147637090, "lat": 40.7321689, "lon": -73.9790659}, {"type": "node", "id": 7272018487, "lat": 40.7290033, "lon": -73.9808662, "tags": {"addr:housenumber": "505", "addr:street": "East 12th Street", "amenity": "restaurant", "check_date": "2025-05-25", "cuisine": "american", "name": "Poppy"}}, {"type": "node", "id": 7363764833, "lat": 40.7295928, "lon": -73.9788241, "tags": {"addr:housenumber": "534", "addr:postcode": "10009", "addr:street": "East 14th Street", "amenity": "cafe", "cuisine": "coffee_shop;japanese", "disused:shop": "yes", "drink:coffee": "yes", "drink:tea": "yes", "name": "Kijitora", "website": "https://www.kijitorabrooklyn.com"}}, {"type": "node", "id": 7876726521, "lat": 40.7291618, "lon": -73.98327}, {"type": "node", "id": 7876726522, "lat": 40.7295147, "lon": -73.9830104}, {"type": "node", "id": 7876726523, "lat": 40.7296019, "lon": -73.9832262}, {"type": "node", "id": 7876726524, "lat": 40.729736, "lon": -73.9830985}, {"type": "node", "id": 8789731894, "lat": 40.728413, "lon": -73.9789264, "tags": {"addr:housenumber": "204", "addr:postcode": "10009", "addr:street": "Avenue B", "amenity": "bar", "name": "B-Side", "opening_hours": "12:00-24:00", "phone": "+1 212-475-4600"}}, {"type": "node", "id": 8887980285, "lat": 40.7302267, "lon": -73.9848554}, {"type": "node", "id": 8887980286, "lat": 40.7302438, "lon": -73.9850645}, {"type": "node", "id": 8887980287, "lat": 40.7297525, "lon": -73.9846759}, {"type": "node", "id": 8888045087, "lat": 40.7302679, "lon": -73.9843682}, {"type": "node", "id": 8888045088, "lat": 40.7297729, "lon": -73.9847239}, {"type": "node", "id": 9543885217, "lat": 40.7303032, "lon": -73.9839567, "tags": {"addr:housenumber": "345", "addr:postcode": "10003", "addr:street": "East 12th Street", "amenity": "cafe", "name": "Saltwater Coffee"}}, {"type": "node", "id": 9581876700, "lat": 40.7287959, "lon": -73.9841615, "tags": {"addr:housenumber": "164", "addr:postcode": "10009", "addr:street": "1st Avenue", "amenity": "restaurant", "check_date": "2023-05-08", "cuisine": "japanese", "delivery": "yes", "drink:beer": "yes", "drink:sake": "yes", "drink:wine": "yes", "level": "0", "name": "Beron Beron", "opening_hours": "Tu-Su 15:30-22:30", "phone": "+1 212-477-1005", "takeaway": "yes"}}, {"type": "node", "id": 9581876701, "lat": 40.7285297, "lon": -73.9843806, "tags": {"addr:housenumber": "160", "addr:postcode": "10009", "addr:street": "1st Avenue", "amenity": "restaurant", "check_date": "2024-11-23", "contact:instagram": "saboramexico_les", "contact:phone": "+1 212-533-4002", "cuisine": "mexican", "level": "0", "name": "Sabor A Mexico", "opening_hours": "Mo-Th 12:00-21:30; Fr, Sa 12:00-22:00; Su 12:00-21:00", "takeaway": "yes"}}, {"type": "node", "id": 9581876702, "lat": 40.7289087, "lon": -73.9840953, "tags": {"addr:housenumber": "168", "addr:postcode": "10009", "addr:street": "1st Avenue", "amenity": "restaurant", "check_date": "2024-11-23", "cocktails": "yes", "contact:instagram": "joeandpatsnyc", "contact:phone": "+1 212-677-4992", "contact:website": "https://joeandpatsnyc.com", "cuisine": "pizza", "delivery": "yes", "drink:beer": "draught", "drink:wine": "served", "happy_hours": "Mo-Th 16:00-19:00; Fr-Su 12:00-18:00", "level": "0", "name": "Joe & Pat's", "opening_hours": "Mo-Th 16:00-23:00; Fr, Sa 11:30-24:00", "reservation": "yes", "takeaway": "yes"}}, {"type": "node", "id": 10119541721, "lat": 40.7289361, "lon": -73.9822611}, {"type": "node", "id": 10119541723, "lat": 40.7291068, "lon": -73.9821444}, {"type": "node", "id": 10145183252, "lat": 40.7325514, "lon": -73.9819418, "tags": {"amenity": "restaurant", "bar": "yes", "cocktails": "yes", "cuisine": "mediterranean", "drink:beer": "yes", "drink:coffee": "yes", "drink:espresso": "yes", "drink:liquor": "yes", "drink:tea": "yes", "name": "Fortuna", "opening_hours": "Mo-Su 11:30-23:00", "outdoor_seating": "garden", "website": "https://fortunanyc.com"}}, {"type": "node", "id": 10281524809, "lat": 40.7286903, "lon": -73.984733, "tags": {"addr:housenumber": "157", "addr:postcode": "10003", "addr:street": "1st Avenue", "amenity": "bar", "name": "Stickett Inn"}}, {"type": "node", "id": 10290384729, "lat": 40.7290538, "lon": -73.9781533, "tags": {"amenity": "bar", "cuisine": "japanese;thai", "name": "11 Tigers", "opening_hours": "Mo-Th 17:00-24:00; Fr 17:00-02:00; Sa 14:00-02:00; Su 14:00-24:00", "phone": "+1-646-368-1422", "website": "https://www.11tigersnyc.com"}}, {"type": "node", "id": 10738150415, "lat": 40.7334193, "lon": -73.9838684}, {"type": "node", "id": 10738150417, "lat": 40.73325, "lon": -73.9834528}, {"type": "node", "id": 10738150418, "lat": 40.7330458, "lon": -73.9835977}, {"type": "node", "id": 10738150419, "lat": 40.7329861, "lon": -73.9837079}, {"type": "node", "id": 10738150420, "lat": 40.7331976, "lon": -73.9840257}, {"type": "node", "id": 10740069028, "lat": 40.7329767, "lon": -73.9838592}, {"type": "node", "id": 10740069029, "lat": 40.7330127, "lon": -73.9839592}, {"type": "node", "id": 10740069030, "lat": 40.7330913, "lon": -73.9840179}, {"type": "node", "id": 10757661198, "lat": 40.7302407, "lon": -73.9838074, "tags": {"addr:housenumber": "351", "addr:postcode": "10003", "addr:street": "East 12th Street", "amenity": "restaurant", "cuisine": "lebanese", "diet:vegan": "yes", "diet:vegetarian": "yes", "name": "Salma", "phone": "+1-917-261-4900", "website": "https://www.salmaeastvillage.com"}}, {"type": "node", "id": 10856476937, "lat": 40.7327944, "lon": -73.9836607}, {"type": "node", "id": 11090671998, "lat": 40.7296149, "lon": -73.9828119}, {"type": "node", "id": 11196362150, "lat": 40.7302121, "lon": -73.9807164, "tags": {"amenity": "restaurant", "cuisine": "pizza", "name": "Burrata Basil Pizza", "opening_hours": "Su 11:00-00:00; Tu-We 11:00-00:00; Th 11:00-02:00; Fr,Sa 11:00-04:00"}}, {"type": "node", "id": 11196374537, "lat": 40.7300131, "lon": -73.9804574, "tags": {"amenity": "bar", "cocktails": "yes", "drink:beer": "draught", "drink:liquor": "yes", "happy_hours": "Mo-Fr 12:00-18:00", "name": "Spikes", "opening_hours": "Mo-Su 12:00-04:00", "toilets": "yes"}}, {"type": "node", "id": 11565487891, "lat": 40.7302931, "lon": -73.9835696, "tags": {"amenity": "restaurant", "cuisine": "filipino", "name": "Naks", "opening_hours": "Mo-Sa 17:00-22:00", "website": "https://www.naks.nyc"}}, {"type": "node", "id": 11714928281, "lat": 40.7283393, "lon": -73.9820432, "tags": {"amenity": "restaurant", "check_date": "2024-03-10", "level": "0", "name": "Fishmarket", "wheelchair": "limited"}}, {"type": "node", "id": 11715036337, "lat": 40.7291209, "lon": -73.9836233, "tags": {"addr:housenumber": "402", "addr:street": "East 11th Street", "amenity": "restaurant", "check_date": "2024-03-10", "diet:halal": "yes", "level": "0", "name": "Madina Halal Deli", "wheelchair": "limited"}}, {"type": "node", "id": 12150641967, "lat": 40.7298793, "lon": -73.9809353, "tags": {"addr:housenumber": "211", "addr:street": "Avenue A", "amenity": "bar", "check_date": "2024-11-07", "name": "The Spotted Owl", "sport": "billiards"}}, {"type": "node", "id": 12313182579, "lat": 40.7301469, "lon": -73.9807499, "tags": {"addr:city": "New York", "addr:housenumber": "219", "addr:street": "Avenue A", "amenity": "bar", "karaoke": "yes", "name": "Planet Rose"}}, {"type": "node", "id": 12322531439, "lat": 40.7300094, "lon": -73.9808364, "tags": {"addr:city": "New York", "addr:housenumber": "215", "addr:street": "Avenue A", "amenity": "restaurant", "check_date": "2024-11-07", "cuisine": "mexican", "name": "Zaragoza", "note": "Mexican food and groceries", "opening_hours": "Su-Th 10:00-00:00; Fr-Sa 10:00-04:00"}}, {"type": "node", "id": 12327548513, "lat": 40.7289642, "lon": -73.9816112, "tags": {"addr:housenumber": "189", "addr:street": "Avenue A", "amenity": "restaurant", "check_date": "2024-11-09", "name": "Foxface Natural", "note": "no sign currently, but asked employee for name"}}, {"type": "node", "id": 12334487669, "lat": 40.7300279, "lon": -73.9818721, "tags": {"amenity": "bar", "cocktails": "yes", "drink:beer": "draught", "drink:liquor": "yes", "name": "The Last Resort"}}, {"type": "node", "id": 12334487675, "lat": 40.7292501, "lon": -73.9810072, "tags": {"amenity": "cafe", "cuisine": "breakfast;sandwich", "name": "Oasis Cafe", "opening_hours": "Mo-Th 07:30-24:00, Fr-Sa 07:30-01:00, Su 07:30-24:00"}}, {"type": "node", "id": 12334487678, "lat": 40.7293684, "lon": -73.9809196, "tags": {"amenity": "restaurant", "bar": "yes", "cocktails": "yes", "cuisine": "indian", "drink:liquor": "yes", "name": "Ishq"}}, {"type": "node", "id": 12334487681, "lat": 40.7298281, "lon": -73.9805928, "tags": {"alt_name": "Fat Tiger", "amenity": "cafe", "drink:coffee": "yes", "drink:espresso": "yes", "drink:tea": "yes", "name": "Cafe Joah", "opening_hours": "Mo-Fr 08:00-17:00, Sa-Su 09:00-19:00", "outdoor_seating": "sidewalk"}}, {"type": "node", "id": 12368281668, "lat": 40.729764, "lon": -73.9835016, "tags": {"addr:city": "New York", "addr:housenumber": "194", "addr:street": "1st Avenue", "amenity": "cafe", "name": "Red Beard Bakery", "opening_hours": "Mo-Su 07:30-17:30"}}, {"type": "node", "id": 12368307474, "lat": 40.7303479, "lon": -73.9830787, "tags": {"addr:city": "New York", "addr:housenumber": "210", "addr:street": "1st Avenue", "amenity": "restaurant", "cuisine": "pizza;korean", "name": "Appa\u2019s Pizza", "opening_hours": "Mo-Su 12:00-22:00", "phone": "+1-929-280-0921", "website": "https://appaspizza.com"}}, {"type": "node", "id": 12368319328, "lat": 40.7299937, "lon": -73.9817762, "tags": {"addr:city": "New York", "addr:housenumber": "432", "addr:street": "East 13th Street", "amenity": "restaurant", "check_date": "2024-11-23", "name": "Luthun"}}, {"type": "node", "id": 12552066544, "lat": 40.7290286, "lon": -73.9847778, "tags": {"addr:housenumber": "241", "addr:postcode": "10003", "addr:street": "East 10th Street", "amenity": "restaurant", "cuisine": "sushi", "drink:beer": "yes", "drink:sake": "yes", "name": "To Eat Sushi", "opening_hours": "Mo-Su 12:30-23:30", "phone": "+1-516-853-3838", "website": "https://www.toeatsushi.com"}}, {"type": "node", "id": 12720698856, "lat": 40.7288795, "lon": -73.9849717, "tags": {"addr:city": "New York", "addr:housenumber": "242", "addr:postcode": "10003", "addr:state": "NY", "addr:street": "East 10th Street", "amenity": "restaurant", "cuisine": "coffee_shop;bagel", "name": "Apollo Bagels", "opening_hours": "Mo-Su 07:00-17:00", "phone": "+1-844-218-3081", "website": "https://www.apollobagels.com/"}}, {"type": "node", "id": 12863513173, "lat": 40.7297959, "lon": -73.9827359, "tags": {"addr:city": "New York", "addr:housenumber": "413", "addr:street": "East 12th Street", "amenity": "restaurant", "check_date": "2025-05-25", "cuisine": "italian", "name": "Spes"}}, {"type": "node", "id": 12959511237, "lat": 40.7281049, "lon": -73.9793481}, {"type": "node", "id": 13162330401, "lat": 40.7285237, "lon": -73.9832612, "tags": {"addr:housenumber": "263", "addr:street": "East 10th Street", "amenity": "cafe", "name": "From Lucie"}}, {"type": "way", "id": 109328312, "nodes": [1251857017, 12959511237, 1251856970, 1251856949, 1251856893, 1251857017], "tags": {"ele": "4", "gnis:feature_id": "2500577", "leisure": "park", "name": "Joseph C. Sauer Park", "operator": "New York City Department of Parks and Recreation", "operator:short": "NYC Parks", "operator:type": "government", "operator:wikidata": "Q1894232", "website": "https://www.nycgovparks.org/parks/joseph-c-sauer-park", "wikidata": "Q34839109"}}, {"type": "way", "id": 247864236, "nodes": [2547218785, 2547218827, 2547218823, 2547218825, 2547218820, 2547218816, 2547218808, 2547218781, 2547218712, 2547218814, 2547218867, 2547218836, 2547218785], "tags": {"addr:housenumber": "419", "addr:postcode": "10009", "addr:street": "East 13th Street", "amenity": "school", "building": "school", "denomination": "roman_catholic", "height": "22.6", "name": "Immaculate Conception School", "nycdoitt:bin": "1079097", "phone": "+1-212-475-2590", "religion": "christian", "website": "https://www.immaculateconceptionschoolnyc.org/"}}, {"type": "way", "id": 248142897, "nodes": [2549930391, 2549930409, 2549930435, 2549930501, 2549930523, 2549930524, 2549930505, 2549930481, 2549930391], "tags": {"addr:city": "New York City", "addr:housenumber": "265", "addr:postcode": "10009", "addr:state": "NY", "addr:street": "East 10th Street", "amenity": "restaurant", "building": "commercial", "cuisine": "kebab", "diet:non-vegetarian": "yes", "height": "17.2", "name": "EastSide Story", "nycdoitt:bin": "1005957", "opening_hours": "Mo-Su 12:00-04:00", "phone": "+1-646-386-7897"}}, {"type": "way", "id": 249663144, "nodes": [2562432793, 2562432805, 2562432785, 2562432780, 2562432758, 2562432745, 2562432770, 2562432860, 2562432839, 2562432793], "tags": {"addr:housenumber": "240", "addr:postcode": "10003", "addr:street": "2nd Avenue", "amenity": "school", "building": "school", "ele": "9", "fax": "+1-212-353-1673", "gnis:feature_id": "2076780", "height": "28.1", "name": "Manhattan Comprehensive Night And Day High School", "nycdoitt:bin": "1020416", "phone": "+1-212-353-2010", "website": "https://www.mcndhs.com"}}, {"type": "way", "id": 281499418, "nodes": [2549930747, 2549930737, 2549930728, 2549930675, 2549930653, 2549930613, 2549930598, 10119541721, 10119541723, 2549930707, 2549930712, 2549930723, 2549930726, 2549930743, 2549930747], "tags": {"addr:city": "New York", "addr:housenumber": "420", "addr:postcode": "10009", "addr:street": "East 12th Street", "amenity": "school", "ele": "5", "gnis:feature_id": "2083885", "mascot": "Tigers", "name": "East Side Community High School", "ref": "M450", "wikidata": "Q5329363", "wikipedia": "en:East Side Community High School"}}, {"type": "way", "id": 281499420, "nodes": [7876726521, 5147808601, 2549930675, 2549930728, 2549930737, 2549930747, 5147808603, 11090671998, 5147808600, 7876726524, 2549930762, 2549930753, 7876726523, 7876726522, 7876726521], "tags": {"addr:city": "New York", "ele": "6", "gnis:feature_id": "2500578", "leisure": "park", "name": "Lower East Side Playground", "old_name": "Open Road Park", "website": "https://www.nycgovparks.org/parks/lower-east-side-playground", "wikidata": "Q20858185", "wikipedia": "en:Open Road Park"}}, {"type": "way", "id": 453531005, "nodes": [2547123163, 2547123193, 4502535318, 8888045087, 2547123271, 2547123239, 8887980285, 4502535317, 8887980286, 2547123184, 2547123158, 8888045088, 8887980287, 2547122878, 2547122345, 2547123163], "tags": {"addr:city": "New York", "addr:housenumber": "185", "addr:postcode": "10003", "addr:street": "1st Avenue", "alt_name": "P.S. 19 East Village Community School", "amenity": "school", "name": "East Village Community School", "nycdoe:ref": "M315", "old_name": "P.S. 19 Asher Levy School", "phone": "+1-212-533-5340", "short_name": "PS19 EVCS", "website": "https://www.ps19evcs.org"}}, {"type": "way", "id": 481883253, "nodes": [246538404, 10856476937, 4747803484, 4747803482, 246538404]}, {"type": "way", "id": 481883254, "nodes": [4747803483, 246538378, 246538379, 4747803481, 4747803483]}, {"type": "way", "id": 765274338, "nodes": [7147636761, 7147636762, 7147636763, 7147636764, 7147636765, 7147636766, 7147636767, 7147636768, 7147636769, 7147636770, 7147636771, 7147636772, 7147636773, 7147636774, 7147637090, 7147637023, 7147637025, 7147636775, 7147636776, 7147636777, 7147636778, 7147636779, 7147636780, 7147636781, 7147636782, 7147636783, 7147636784, 7147636785, 7147637057, 7147637021, 7147636786, 7147636787, 7147636761], "tags": {"leisure": "park"}}, {"type": "way", "id": 884524432, "nodes": [2826989581, 2826989584, 2826989589, 2826989592, 2826989587, 2826989579, 2826989577, 2826989576, 2826989581], "tags": {"addr:city": "New York", "addr:housenumber": "5", "addr:postcode": "10009", "addr:state": "NY", "addr:street": "Stuyvesant Oval", "air_conditioning": "yes", "amenity": "cafe", "building": "no", "name": "Five Stuy Cafe", "opening_hours": "Mo-Fr 07:00-19:00; Sa,Su 08:00-19:00", "outdoor_seating": "yes", "phone": "+12 12 614 5843", "website": "http://places.singleplatform.com/five-stuy-cafe/menu"}}, {"type": "way", "id": 1154628504, "nodes": [10738150415, 10738150417, 10738150418, 10738150419, 10740069028, 10740069029, 10740069030, 10738150420, 10738150415], "tags": {"access": "yes", "addr:city": "New York", "addr:postcode": "10003", "addr:state": "NY", "addr:street": "2nd Avenue", "dog": "yes", "leisure": "dog_park", "name": "Stuyvesant Park Dog Run", "operator": "New York City Department of Parks and Recreation", "operator:short": "NYC Parks", "operator:type": "public", "operator:wikidata": "Q1894232", "website": "https://www.nycgovparks.org/parks/stuyvesant-square/facilities/dogareas"}}, {"type": "relation", "id": 7095669, "members": [{"type": "way", "ref": 481883254, "role": "outer"}, {"type": "way", "ref": 481883253, "role": "outer"}, {"type": "way", "ref": 1154628504, "role": "inner"}], "tags": {"ele": "8", "gnis:feature_id": "966670", "leisure": "park", "name": "Stuyvesant Square", "name:etymology:wikidata": "Q54954772", "operator": "New York City Department of Parks and Recreation", "operator:short": "NYC Parks", "operator:type": "government", "operator:wikidata": "Q1894232", "type": "multipolygon", "website": "https://www.nycgovparks.org/parks/stuyvesant-square", "wikidata": "Q1478163", "wikipedia": "en:Stuyvesant Square"}}]}