{"version": 0.6, "generator": "Overpass API 0.7.62.8 e802775f", "osm3s": {"timestamp_osm_base": "2025-12-01T16:45:16Z", "copyright": "The data included in this document is from www.openstreetmap.org. The data is made available under ODbL."}, "elements": [{"type": "node", "id": 357588258, "lat": 40.7684347, "lon": -73.9662495, "tags": {"addr:city": "New York", "addr:housenumber": "58", "addr:postcode": "10065", "addr:state": "NY", "addr:street": "East 68th Street", "ele": "21", "gnis:feature_id": "964603", "name": "Council on Foreign Relations", "office": "association", "phone": "+1-212-434-9400;+1-212-434-9800", "website": "https://www.cfr.org/", "wikidata": "Q594712", "wikipedia": "en:Council on Foreign Relations"}}, {"type": "node", "id": 357620705, "lat": 40.7658333, "lon": -73.9646959, "tags": {"amenity": "school", "ele": "19", "gnis:feature_id": "2083511", "mascot": "Falcons", "name": "Saint Vincent Ferrer School", "wikidata": "Q7592088"}}, {"type": "node", "id": 357620708, "lat": 40.7672109, "lon": -73.9641727, "tags": {"amenity": "school", "ele": "23", "gnis:feature_id": "2083516", "name": "Kennedy Child Study Center"}}, {"type": "node", "id": 357621335, "lat": 40.768641, "lon": -73.9666795, "tags": {"amenity": "school", "ele": "21", "gnis:feature_id": "2083880", "mascot": "Tigers", "mascot:name": "Dominic the Tiger", "name": "Dominican Academy", "wikidata": "Q5290722"}}, {"type": "node", "id": 357621557, "lat": 40.7686111, "lon": -73.9663889, "tags": {"amenity": "school", "ele": "22", "gnis:feature_id": "2083935", "name": "Peter G Peterson Center for International Studies"}}, {"type": "node", "id": 1241295070, "lat": 40.768172, "lon": -73.9646434}, {"type": "node", "id": 1241295082, "lat": 40.7685027, "lon": -73.9654282}, {"type": "node", "id": 1241295087, "lat": 40.7690072, "lon": -73.9650561}, {"type": "node", "id": 1241295092, "lat": 40.7673434, "lon": -73.9637839}, {"type": "node", "id": 1241295095, "lat": 40.7673454, "lon": -73.9645788}, {"type": "node", "id": 1241295098, "lat": 40.7678158, "lon": -73.9642028}, {"type": "node", "id": 1241295100, "lat": 40.7684494, "lon": -73.9637375}, {"type": "node", "id": 1241295101, "lat": 40.7676012, "lon": -73.9643899}, {"type": "node", "id": 2296577483, "lat": 40.7677084, "lon": -73.9639466, "tags": {"description": "all 6,<6> trains", "level": "0", "name": "East 68th Street & Lexington Avenue at Southeast Corner", "railway": "subway_entrance", "wheelchair": "no"}}, {"type": "node", "id": 2623014627, "lat": 40.7659236, "lon": -73.9636686, "tags": {"addr:city": "New York", "addr:country": "US", "addr:housenumber": "1128", "addr:postcode": "10065", "addr:state": "NY", "addr:street": "3rd Avenue", "amenity": "cafe", "branch": "66th & Third", "brand": "Starbucks", "brand:wikidata": "Q37158", "cuisine": "coffee_shop", "internet_access": "wlan", "internet_access:fee": "no", "name": "Starbucks", "official_name": "Starbucks Coffee", "opening_hours": "Mo-Fr 04:45-22:30; Sa-Su 05:30-22:00", "phone": "+1 212-472-6535", "takeaway": "yes", "website": "https://www.starbucks.com/store-locator/store/11721/66th-third-1128-third-avenue-new-york-ny-100656606-us"}}, {"type": "node", "id": 2631523818, "lat": 40.7689352, "lon": -73.963462, "tags": {"addr:housenumber": "956", "addr:postcode": "10021", "addr:street": "Lexington Avenue", "amenity": "cafe", "cuisine": "coffee_shop", "internet_access": "no", "name": "World Cup Cafe & Bakery", "shop": "bakery", "source": "local knowledge"}}, {"type": "node", "id": 2631523821, "lat": 40.7692128, "lon": -73.9629325, "tags": {"amenity": "restaurant", "check_date": "2023-10-19", "cuisine": "pizza", "name": "Mariella Pizza", "source": "local knowledge"}}, {"type": "node", "id": 2723809130, "lat": 40.7658005, "lon": -73.9628184, "tags": {"addr:housenumber": "205", "addr:postcode": "10065", "addr:street": "East 66th Street", "amenity": "cafe", "name": "Madame Bonte Cafe"}}, {"type": "node", "id": 2723809737, "lat": 40.7660748, "lon": -73.9634958}, {"type": "node", "id": 2723809774, "lat": 40.7661552, "lon": -73.9636856}, {"type": "node", "id": 2723809786, "lat": 40.7661682, "lon": -73.9636761}, {"type": "node", "id": 2723809794, "lat": 40.7661866, "lon": -73.9637195}, {"type": "node", "id": 2723809835, "lat": 40.7662903, "lon": -73.9636127}, {"type": "node", "id": 2723809838, "lat": 40.7663003, "lon": -73.9636362}, {"type": "node", "id": 2723809848, "lat": 40.7663406, "lon": -73.9635759}, {"type": "node", "id": 2723809851, "lat": 40.7663506, "lon": -73.9635994}, {"type": "node", "id": 2723809879, "lat": 40.7664634, "lon": -73.9634859}, {"type": "node", "id": 2723809883, "lat": 40.7664734, "lon": -73.9635094}, {"type": "node", "id": 2723809885, "lat": 40.7664759, "lon": -73.9637037}, {"type": "node", "id": 2723809891, "lat": 40.7665105, "lon": -73.9635827}, {"type": "node", "id": 2723809893, "lat": 40.7665142, "lon": -73.9634487}, {"type": "node", "id": 2723809899, "lat": 40.7665242, "lon": -73.9634722}, {"type": "node", "id": 2723809905, "lat": 40.7665414, "lon": -73.9636555}, {"type": "node", "id": 2723809916, "lat": 40.7665536, "lon": -73.963145}, {"type": "node", "id": 2723809921, "lat": 40.766572, "lon": -73.9635375}, {"type": "node", "id": 2723809924, "lat": 40.7665797, "lon": -73.9635557}, {"type": "node", "id": 2723809932, "lat": 40.7666197, "lon": -73.9633441}, {"type": "node", "id": 2723809934, "lat": 40.7666224, "lon": -73.9635004}, {"type": "node", "id": 2723809942, "lat": 40.7666301, "lon": -73.9635186}, {"type": "node", "id": 2723809944, "lat": 40.7666336, "lon": -73.9633339}, {"type": "node", "id": 2723809949, "lat": 40.7666385, "lon": -73.9633884}, {"type": "node", "id": 2723809952, "lat": 40.7666457, "lon": -73.9641032}, {"type": "node", "id": 2723809957, "lat": 40.7666839, "lon": -73.9634552}, {"type": "node", "id": 2723809962, "lat": 40.7666989, "lon": -73.9635892}, {"type": "node", "id": 2723809967, "lat": 40.7667189, "lon": -73.9635744}, {"type": "node", "id": 2723809969, "lat": 40.7667251, "lon": -73.9635519}, {"type": "node", "id": 2723809973, "lat": 40.7667649, "lon": -73.9640156}, {"type": "node", "id": 2723809990, "lat": 40.7668036, "lon": -73.9638355}, {"type": "node", "id": 2723809994, "lat": 40.7668236, "lon": -73.9638207}, {"type": "node", "id": 2723810003, "lat": 40.7668423, "lon": -73.9638278}, {"type": "node", "id": 2723810024, "lat": 40.7668847, "lon": -73.9639275}, {"type": "node", "id": 2723812979, "lat": 40.7671441, "lon": -73.964083, "tags": {"addr:city": "New York", "addr:housenumber": "151", "addr:postcode": "10065", "addr:state": "NY", "addr:street": "East 67th Street", "amenity": "college", "description": "A building that is part of Hunter College of the City University of New York", "internet_access": "wlan", "name": "Baker Theatre Building", "website": "https://www.hunter.cuny.edu/theatre"}}, {"type": "node", "id": 2723813006, "lat": 40.767958, "lon": -73.9637948, "tags": {"addr:housenumber": "925", "addr:postcode": "10065", "addr:street": "Lexington Avenue", "amenity": "cafe", "brand": "Gong Cha", "brand:wikidata": "Q5581670", "brand:zh": "\u8ca2\u8336", "cuisine": "bubble_tea", "int_name": "Gong Cha", "name": "Gong Cha", "name:zh": "\u8ca2\u8336", "phone": "+1-646-876-1020", "takeaway": "yes", "website": "https://www.gongchausa.com/"}}, {"type": "node", "id": 2723813086, "lat": 40.7673248, "lon": -73.963384}, {"type": "node", "id": 2723813094, "lat": 40.767354, "lon": -73.9638088}, {"type": "node", "id": 2723813097, "lat": 40.7673622, "lon": -73.963828}, {"type": "node", "id": 2723813103, "lat": 40.767389, "lon": -73.963891}, {"type": "node", "id": 2723813119, "lat": 40.7674587, "lon": -73.9636983}, {"type": "node", "id": 2723813280, "lat": 40.7684056, "lon": -73.9624614}, {"type": "node", "id": 2723813284, "lat": 40.7684137, "lon": -73.9624804}, {"type": "node", "id": 2723813292, "lat": 40.7684491, "lon": -73.9625641}, {"type": "node", "id": 2723813296, "lat": 40.7684821, "lon": -73.9626421}, {"type": "node", "id": 2723813306, "lat": 40.7685159, "lon": -73.9623806}, {"type": "node", "id": 2723813321, "lat": 40.7685725, "lon": -73.9625759}, {"type": "node", "id": 2723813341, "lat": 40.7686304, "lon": -73.9622968}, {"type": "node", "id": 2723813353, "lat": 40.7686462, "lon": -73.9622852}, {"type": "node", "id": 2723813369, "lat": 40.7687036, "lon": -73.9624799}, {"type": "node", "id": 2723813378, "lat": 40.7687227, "lon": -73.9624659}, {"type": "node", "id": 2723858499, "lat": 40.7673553, "lon": -73.9645999}, {"type": "node", "id": 2723858503, "lat": 40.7675087, "lon": -73.9641714}, {"type": "node", "id": 2723858508, "lat": 40.7675658, "lon": -73.9650911}, {"type": "node", "id": 2723858509, "lat": 40.7675681, "lon": -73.9636171}, {"type": "node", "id": 2723858531, "lat": 40.7676783, "lon": -73.9650069}, {"type": "node", "id": 2723858547, "lat": 40.7677332, "lon": -73.9640048}, {"type": "node", "id": 2723858598, "lat": 40.7679261, "lon": -73.9648242}, {"type": "node", "id": 2723858642, "lat": 40.7680423, "lon": -73.9647386}, {"type": "node", "id": 2723866660, "lat": 40.7698597, "lon": -73.9671261, "tags": {"addr:city": "New York", "addr:housenumber": "20", "addr:postcode": "10065", "addr:state": "NY", "addr:street": "East 69th Street", "amenity": "cafe", "cuisine": "coffee_shop", "email": "info@poppi.nyc", "internet_access": "wlan", "name": "Poppi", "opening_hours": "Su-Fr 07:00-19:00; Sa 08:00-18:00", "website": "https://www.poppi.nyc/"}}, {"type": "node", "id": 2723866677, "lat": 40.7691228, "lon": -73.9655949, "tags": {"addr:city": "New York", "addr:housenumber": "690", "addr:postcode": "10065", "addr:state": "NY", "addr:street": "Park Avenue", "consulate": "consulate_general", "country": "IT", "diplomatic": "consulate", "name": "Consulate General of Italy", "name:fr": "Consulat gn\u00e9ral d'Italie", "name:it": "Consolato Generale d'Italia", "office": "diplomatic", "phone": "+1-212-737-9100", "target": "US"}}, {"type": "node", "id": 2723866745, "lat": 40.7690481, "lon": -73.9633799, "tags": {"addr:housenumber": "958", "addr:postcode": "10021", "addr:street": "Lexington Avenue", "addr:unit": "B", "amenity": "restaurant", "contact:phone": "+1 646-454-0619", "contact:website": "https://www.blenoircrepes.com/", "cuisine": "crepe", "diet:gluten_free": "yes", "name": "Blenoir Cr\u00eapes and Cafe"}}, {"type": "node", "id": 2723866795, "lat": 40.7684736, "lon": -73.9637947}, {"type": "node", "id": 2723866796, "lat": 40.7684762, "lon": -73.9638009}, {"type": "node", "id": 2723866798, "lat": 40.7685572, "lon": -73.9639922}, {"type": "node", "id": 2723866833, "lat": 40.7689017, "lon": -73.9643771}, {"type": "node", "id": 2723866844, "lat": 40.7689292, "lon": -73.9644419}, {"type": "node", "id": 2723866896, "lat": 40.7690601, "lon": -73.964293}, {"type": "node", "id": 2723866904, "lat": 40.7690754, "lon": -73.96429}, {"type": "node", "id": 2723866906, "lat": 40.7690772, "lon": -73.9643333}, {"type": "node", "id": 2723866917, "lat": 40.7691033, "lon": -73.9642292}, {"type": "node", "id": 2723866927, "lat": 40.7691164, "lon": -73.96426}, {"type": "node", "id": 2723867204, "lat": 40.7696293, "lon": -73.9661041}, {"type": "node", "id": 2723867225, "lat": 40.7696606, "lon": -73.9661784}, {"type": "node", "id": 2723867386, "lat": 40.7698235, "lon": -73.9660193}, {"type": "node", "id": 2723867388, "lat": 40.7698242, "lon": -73.965962}, {"type": "node", "id": 2723867399, "lat": 40.7698365, "lon": -73.9660502}, {"type": "node", "id": 2723867427, "lat": 40.7698692, "lon": -73.9659292}, {"type": "node", "id": 2723867445, "lat": 40.7698875, "lon": -73.9659727}, {"type": "node", "id": 2723870222, "lat": 40.7692531, "lon": -73.9632427, "tags": {"addr:city": "New York", "addr:housenumber": "960", "addr:postcode": "10021", "addr:state": "NY", "addr:street": "Lexington Avenue", "amenity": "cafe", "cuisine": "italian;sandwich;coffee_shop;soup;salad;pastry", "name": "Corrado Bread And Pastry", "opening_hours": "Mo-Fr 07:00-19:00; Sa 08:00-18:00; Su 08:00-17:00", "outdoor_seating": "yes", "phone": "+1-212-774-1904", "website": "https://corradobreadandpastry.com/"}}, {"type": "node", "id": 3056935567, "lat": 40.7666777, "lon": -73.9635898, "tags": {"addr:city": "New York", "addr:country": "US", "addr:housenumber": "136", "addr:postcode": "10065", "addr:state": "NY", "addr:street": "East 67th Street", "alt_name": "UN Mission Belarus", "country": "BY", "diplomatic": "embassy", "email": "usaun@mfa.gov.by", "embassy": "mission", "fax": "+1-212-734-4810", "level": "4", "name": "Permanent Mission of Belarus to the United Nations", "name:ru": "\u041f\u043e\u0441\u0442\u043e\u044f\u043d\u043d\u043e\u0435 \u043f\u0440\u0435\u0434\u0441\u0442\u0430\u0432\u0438\u0442\u0435\u043b\u044c\u0441\u0442\u0432\u043e \u0420\u0435\u0441\u043f\u0443\u0431\u043b\u0438\u043a\u0438 \u0411\u0435\u043b\u0430\u0440\u0443\u0441\u044c \u043f\u0440\u0438 \u041e\u041e\u041d", "office": "diplomatic", "official_name": "Permanent Mission of the Republic of Belarus to the United Nations", "official_name:ru": "\u041f\u043e\u0441\u0442\u043e\u044f\u043d\u043d\u043e\u0435 \u043f\u0440\u0435\u0434\u0441\u0442\u0430\u0432\u0438\u0442\u0435\u043b\u044c\u0441\u0442\u0432\u043e \u0420\u0435\u0441\u043f\u0443\u0431\u043b\u0438\u043a\u0438 \u0411\u0435\u043b\u0430\u0440\u0443\u0441\u044c \u043f\u0440\u0438 \u041e\u041e\u041d", "phone": "+1-212-535-3420", "target": "UN", "website": "https://un.mfa.gov.by/en/"}}, {"type": "node", "id": 3058719825, "lat": 40.7689212, "lon": -73.9644231, "tags": {"entrance": "main"}}, {"type": "node", "id": 3417778209, "lat": 40.7674361, "lon": -73.9633019}, {"type": "node", "id": 3938479923, "lat": 40.7658131, "lon": -73.9653728, "tags": {"addr:housenumber": "861", "addr:street": "Lexington Avenue", "amenity": "cafe", "brand": "Le Pain Quotidien", "brand:wikidata": "Q2046903", "cuisine": "coffee_shop", "diet:vegetarian": "yes", "name": "Le Pain Quotidien", "takeaway": "yes"}}, {"type": "node", "id": 3958753834, "lat": 40.7664513, "lon": -73.966313, "tags": {"addr:city": "New York", "addr:country": "US", "addr:housenumber": "115", "addr:postcode": "10065", "addr:state": "NY", "addr:street": "East 65th Street", "alt_name": "UN Mission Palestine", "country": "PS", "diplomatic": "embassy", "email": "palestine@un.int", "embassy": "mission", "fax": "+1-212-517-2377", "name": "Permanent Observer Mission of Palestine to the United Nations", "office": "diplomatic", "official_name": "Permanent Observer Mission of the State of Palestine to the United Nations", "phone": "+1-212-288-8500", "target": "UN"}}, {"type": "node", "id": 4549080332, "lat": 40.7695933, "lon": -73.9659854, "tags": {"addr:city": "New York", "addr:housenumber": "31", "addr:postcode": "10021", "addr:state": "NY", "addr:street": "East 69th Street", "consulate": "consulate_general", "country": "AT", "diplomatic": "consulate", "name": "Consulate General of Austria", "name:de": "\u00d6sterreichisches Generalkonsulat", "name:fr": "Consulat g\u00e9n\u00e9ral d'Autriche", "office": "diplomatic", "phone": "+1 212-737-6400", "target": "US"}}, {"type": "node", "id": 6217348319, "lat": 40.7657733, "lon": -73.9657807, "tags": {"addr:housenumber": "858", "addr:street": "Lexington Avenue", "amenity": "cafe", "name": "Panda Bubble Tea", "not:brand:wikidata": "Q1358690", "website": "https://pandabubbletea.com/"}}, {"type": "node", "id": 6244721154, "lat": 40.765555, "lon": -73.9655855, "tags": {"addr:city": "New York", "addr:housenumber": "849", "addr:postcode": "10065", "addr:state": "NY", "addr:street": "Lexington Avenue", "addr:unit": "#1", "amenity": "cafe", "cuisine": "sandwich;soup;salad", "delivery": "yes", "name": "Hale and Hearty Soups", "opening_hours": "Mo-Fr 10:00-21:00; Sa 11:00-18:00; Su 11:00-17:00", "outdoor_seating": "no", "phone": "+1-212-517-7600", "website": "https://www.haleandhearty.com/"}}, {"type": "node", "id": 6937498381, "lat": 40.7700367, "lon": -73.9623088, "tags": {"amenity": "cafe", "brand": "Joe & The Juice", "brand:wikidata": "Q26221514", "cuisine": "coffee_shop", "name": "Joe & The Juice", "takeaway": "yes"}}, {"type": "node", "id": 6949740429, "lat": 40.7690363, "lon": -73.9671242, "tags": {"alt_name": "Bel Ami;Bel Ami Caf\u00e9", "amenity": "restaurant", "name": "Bel Ami Cafe"}}, {"type": "node", "id": 7029583970, "lat": 40.7685229, "lon": -73.9639113, "tags": {"access": "private", "entrance": "yes"}}, {"type": "node", "id": 9109679331, "lat": 40.7675526, "lon": -73.9636297, "tags": {"barrier": "gate", "bicycle": "private", "foot": "private", "motor_vehicle": "no", "wheelchair": "yes"}}, {"type": "node", "id": 9692134308, "lat": 40.7681319, "lon": -73.9611242, "tags": {"addr:city": "New York", "addr:housenumber": "202", "addr:postcode": "10021", "addr:state": "NY", "addr:street": "East 70th Street", "amenity": "restaurant", "branch": "Upper East Side", "check_date": "2024-06-19", "cuisine": "mexican", "name": "Tacos del Este Superior", "opening_hours": "Mo-Su 11:00-23:00", "outdoor_seating": "yes", "phone": "+1-646-726-4302", "website": "https://www.tacombi.com/"}}, {"type": "node", "id": 11093309492, "lat": 40.7661833, "lon": -73.962362, "tags": {"addr:housenumber": "210", "addr:street": "East 67th Street ", "amenity": "cafe", "check_date": "2024-01-16", "name": "Padoca Bakery", "opening_hours": "Mo, Tu 07:30-15:30; We-Fr 07:30-16:30; Sa, Su 08:00-16:00"}}, {"type": "node", "id": 11093347420, "lat": 40.7662226, "lon": -73.9624711, "tags": {"addr:housenumber": "206", "addr:street": "East 67th Street", "amenity": "restaurant", "check_date": "2024-01-16", "name": "Bedford Falls"}}, {"type": "node", "id": 11731444670, "lat": 40.7707505, "lon": -73.9617952, "tags": {"addr:housenumber": "1007", "addr:street": "Lexington Avenue", "amenity": "restaurant", "check_date": "2024-03-14", "cuisine": "regional", "diet:chicken": "yes", "diet:fish": "yes", "diet:meat": "yes", "level": "0", "name": "Maria Mulata Colombian Restaurant & Bar", "wheelchair": "yes"}}, {"type": "way", "id": 108156814, "nodes": [1241295087, 1241295082, 1241295070, 2723858642, 2723858598, 2723858531, 2723858508, 2723858499, 1241295095, 1241295101, 2723858503, 2723813103, 2723813097, 2723813094, 1241295092, 2723813119, 9109679331, 2723858509, 2296577483, 2723858547, 1241295098, 1241295100, 2723866795, 2723866796, 7029583970, 2723866798, 1241295087], "tags": {"addr:city": "New York", "addr:housenumber": "695", "addr:postcode": "10065", "addr:state": "NY", "addr:street": "Park Avenue", "alt_name": "City University of New York Hunter College", "amenity": "college", "internet_access": "wlan", "internet_access:fee": "no", "name": "Hunter College", "name:ru": "\u0425\u0430\u043d\u0442\u0435\u0440\u0441\u043a\u0438\u0439 \u043a\u043e\u043b\u043b\u0435\u0434\u0436", "operator": "City University of New York", "source": "Bing;Hunter campus map", "website": "https://hunter.cuny.edu", "wikidata": "Q1446181"}}, {"type": "way", "id": 266879107, "nodes": [2723810024, 2723810003, 2723809994, 2723809990, 2723809962, 2723809967, 2723809969, 2723809957, 2723809934, 2723809942, 2723809924, 2723809921, 2723809891, 2723809905, 2723809885, 2723809952, 2723809973, 2723810024], "tags": {"addr:city": "New York", "addr:country": "US", "addr:housenumber": "136", "addr:postcode": "10065", "addr:state": "NY", "addr:street": "East 67th Street", "alt_name": "UN Mission Russia", "building": "yes", "country": "RU", "diplomatic": "embassy", "email": "press@russiaun.ru", "embassy": "mission", "fax": "+1-212-628-0252", "height": "43.0", "name": "Permanent Mission of Russia to the United Nations", "name:ru": "\u041f\u043e\u0441\u0442\u043e\u044f\u043d\u043d\u043e\u0435 \u043f\u0440\u0435\u0434\u0441\u0442\u0430\u0432\u0438\u0442\u0435\u043b\u044c\u0441\u0442\u0432\u043e \u0420\u043e\u0441\u0441\u0438\u0439\u0441\u043a\u043e\u0439 \u0424\u0435\u0434\u0435\u0440\u0430\u0446\u0438\u0438 \u043f\u0440\u0438 \u041e\u041e\u041d", "nycdoitt:bin": "1042465", "office": "diplomatic", "official_name": "Permanent Mission of the Russian Federation to the United Nations", "phone": "+1-212-861-4900", "target": "UN", "website": "https://russiaun.ru"}}, {"type": "way", "id": 266879142, "nodes": [2723809932, 2723809944, 2723809916, 2723809737, 2723809774, 2723809786, 2723809794, 2723809838, 2723809835, 2723809848, 2723809851, 2723809883, 2723809879, 2723809893, 2723809899, 2723809949, 2723809932], "tags": {"addr:city": "New York", "addr:housenumber": "1128", "addr:postcode": "10065", "addr:state": "NY", "addr:street": "3rd Avenue", "amenity": "cafe", "brand": "Starbucks", "brand:wikidata": "Q37158", "building": "yes", "cuisine": "coffee_shop", "height": "63.7", "name": "Starbucks", "nycdoitt:bin": "1042464", "official_name": "Starbucks Coffee", "takeaway": "yes"}}, {"type": "way", "id": 266879276, "nodes": [2723813280, 2723813284, 2723813292, 2723813296, 2723813321, 2723813369, 2723813378, 2723813353, 2723813341, 2723813306, 2723813280], "tags": {"addr:housenumber": "170", "addr:postcode": "10021", "addr:street": "East 70th Street", "amenity": "college", "architect": "C. P. H. Gilbert", "architect:wikidata": "Q1022552", "architect:wikipedia": "en:C. P. H. Gilbert", "building": "stable", "building:levels": "4", "building:old_name": "Daniel G. Reid Carriage House", "building:start_date": "1902", "building:use": "school", "contact:facebook": "https://www.facebook.com/nysidnyc", "contact:instagram": "http://instagram.com/nysid", "contact:twitter": "https://twitter.com/NYSID", "ele": "25", "email": "info@nysid.edu", "gnis:feature_id": "2083932", "height": "20.7", "name": "New York School of Interior Design", "nycdoitt:bin": "1042502", "phone": "+1 212-472-1500", "website": "https://www.nysid.edu", "wikidata": "Q30263418", "wikipedia": "en:New York School of Interior Design"}}, {"type": "way", "id": 266887387, "nodes": [2723866833, 3058719825, 2723866844, 2723866906, 2723866896, 2723866904, 2723866927, 2723866917, 2723866833], "tags": {"addr:city": "New York", "addr:country": "US", "addr:housenumber": "111", "addr:postcode": "10021", "addr:state": "NY", "addr:street": "East 69th Street", "alt_name": "UN Mission Mali", "building": "yes", "building:colour": "#736C7B", "building:levels": "5", "building:material": "brick", "country": "ML", "diplomatic": "embassy", "email": "miperma@malionu.com", "embassy": "mission", "fax": "+1-212-472-3778", "height": "19.1", "name": "Permanent Mission of Mali to the United Nations", "nycdoitt:bin": "1042481", "office": "diplomatic", "official_name": "Permanent Mission of the Republic of Mali to the United Nations", "phone": "+1-212-737-4150", "roof:material": "concrete", "roof:shape": "flat", "target": "UN"}}, {"type": "way", "id": 266887412, "nodes": [2723867204, 2723867225, 2723867399, 2723867386, 2723867445, 2723867427, 2723867388, 2723867204], "tags": {"addr:city": "New York", "addr:country": "US", "addr:housenumber": "27", "addr:postcode": "10021", "addr:state": "NY", "addr:street": "East 69th Street", "alt_name": "UN Mission Cabo Verde", "building": "yes", "country": "CV", "diplomatic": "embassy", "email": "capeverde@un.int", "embassy": "mission", "height": "18.8", "name": "Permanent Mission of Cabo Verde to the United Nations", "nycdoitt:bin": "1041304", "office": "diplomatic", "official_name": "Permanent Mission of the Republic of Cabo Verde to the United Nations", "phone": "+1-212-472-0333", "target": "UN"}}, {"type": "way", "id": 334715965, "nodes": [2723858509, 9109679331, 2723813119, 2723813086, 3417778209, 2723858509], "tags": {"leisure": "park", "name": "Poses Park", "operator": "CUNY Hunter College", "website": "https://www.hunter.cuny.edu/communications/pressroom/news/hunter-college-officially-re-opens-poses-park-to-the-public"}}]}