{"version": 0.6, "generator": "Overpass API 0.7.62.8 e802775f", "osm3s": {"timestamp_osm_base": "2025-12-01T03:55:56Z", "copyright": "The data included in this document is from www.openstreetmap.org. The data is made available under ODbL."}, "elements": [{"type": "node", "id": 42487342, "lat": 40.6331009, "lon": -74.015074}, {"type": "node", "id": 42524823, "lat": 40.6326136, "lon": -74.0127327}, {"type": "node", "id": 1955950509, "lat": 40.6325689, "lon": -74.0153163}, {"type": "node", "id": 1955950531, "lat": 40.6332097, "lon": -74.0137205}, {"type": "node", "id": 2561485165, "lat": 40.6341283, "lon": -74.0105726, "tags": {"addr:city": "Brooklyn", "addr:housenumber": "806", "addr:postcode": "11220", "addr:state": "NY", "addr:street": "62nd Street", "amenity": "cafe", "cuisine": "dessert", "name": "KULU Desserts", "website": "https://www.kuludesserts.com/"}}, {"type": "node", "id": 2561487904, "lat": 40.6362824, "lon": -74.0083069}, {"type": "node", "id": 2561487937, "lat": 40.636325, "lon": -74.0082626}, {"type": "node", "id": 2561487949, "lat": 40.6363463, "lon": -74.0083253}, {"type": "node", "id": 2561487954, "lat": 40.6363564, "lon": -74.0083147}, {"type": "node", "id": 2561487955, "lat": 40.636358, "lon": -74.0083447}, {"type": "node", "id": 2561487962, "lat": 40.6363682, "lon": -74.0083341}, {"type": "node", "id": 2561487967, "lat": 40.6363734, "lon": -74.0084578}, {"type": "node", "id": 2561487989, "lat": 40.636416, "lon": -74.0084136}, {"type": "node", "id": 2561631122, "lat": 40.6362311, "lon": -74.0125811, "tags": {"addr:housenumber": "6102", "addr:postcode": "11220", "addr:street": "7th Avenue", "amenity": "restaurant", "check_date": "2024-10-13", "cuisine": "chinese;asian", "delivery": "yes", "name": "Wu La Bu Huan", "opening_hours": "13:00-01:00", "outdoor_seating": "no", "payment:cash": "yes", "payment:credit_cards": "yes", "phone": "+1 718-878-6550", "takeaway": "yes", "wheelchair": "limited"}}, {"type": "node", "id": 2561631178, "lat": 40.6373422, "lon": -74.0108511, "tags": {"addr:housenumber": "705", "addr:postcode": "11220", "addr:street": "59th Street", "amenity": "restaurant", "cuisine": "chinese;noodle", "name": "WesternYunnan Crossing Bridge Noodle", "phone": "+17188384181", "wheelchair": "no"}}, {"type": "node", "id": 2561631196, "lat": 40.6353919, "lon": -74.0107533, "tags": {"addr:housenumber": "763", "addr:postcode": "11220", "addr:street": "61st Street", "amenity": "restaurant", "cuisine": "chinese", "name": "Great Forest Food", "opening_hours": "Mo-Su 12:00-23:00", "phone": "+1-718-400-9388", "takeaway": "yes", "website": "https://www.greatforestfood.com"}}, {"type": "node", "id": 4026460333, "lat": 40.6320177, "lon": -74.0133743}, {"type": "node", "id": 4026460335, "lat": 40.6321538, "lon": -74.013205}, {"type": "node", "id": 4026460340, "lat": 40.6316429, "lon": -74.0137589}, {"type": "node", "id": 4026460354, "lat": 40.6327677, "lon": -74.0141687}, {"type": "node", "id": 4026478028, "lat": 40.6342638, "lon": -74.0178516}, {"type": "node", "id": 4026478029, "lat": 40.6366735, "lon": -74.0207397}, {"type": "node", "id": 4026478030, "lat": 40.635745, "lon": -74.0202488}, {"type": "node", "id": 4026478031, "lat": 40.6339154, "lon": -74.0164642}, {"type": "node", "id": 4026478032, "lat": 40.6362121, "lon": -74.0211537}, {"type": "node", "id": 4026478033, "lat": 40.6356578, "lon": -74.0199672}, {"type": "node", "id": 4026478034, "lat": 40.6340783, "lon": -74.0176042}, {"type": "node", "id": 4026478035, "lat": 40.6346095, "lon": -74.0174567}, {"type": "node", "id": 4026478036, "lat": 40.6347683, "lon": -74.0176471}, {"type": "node", "id": 4026478037, "lat": 40.6355601, "lon": -74.0200021}, {"type": "node", "id": 4026478038, "lat": 40.6360473, "lon": -74.020754}, {"type": "node", "id": 4026478039, "lat": 40.6341475, "lon": -74.0165435}, {"type": "node", "id": 4026478040, "lat": 40.635976, "lon": -74.0196436}, {"type": "node", "id": 4026478041, "lat": 40.6363865, "lon": -74.0203374}, {"type": "node", "id": 4026478042, "lat": 40.6361096, "lon": -74.0198814}, {"type": "node", "id": 4026478044, "lat": 40.6345383, "lon": -74.0175237}, {"type": "node", "id": 4026478045, "lat": 40.6335897, "lon": -74.0164508}, {"type": "node", "id": 4026478046, "lat": 40.6333462, "lon": -74.0165108}, {"type": "node", "id": 4026491440, "lat": 40.6385935, "lon": -74.02408}, {"type": "node", "id": 4026491443, "lat": 40.6374944, "lon": -74.0222292}, {"type": "node", "id": 4026491450, "lat": 40.6378063, "lon": -74.0249189}, {"type": "node", "id": 4026491470, "lat": 40.6369319, "lon": -74.0227512}, {"type": "node", "id": 4297076490, "lat": 40.6335234, "lon": -74.0143617, "tags": {"amenity": "restaurant", "name": "East Harbor seafood"}}, {"type": "node", "id": 5299354218, "lat": 40.6366369, "lon": -74.0117444, "tags": {"addr:housenumber": "6001", "addr:postcode": "11220", "addr:street": "7th Avenue", "amenity": "restaurant", "cuisine": "chinese", "delivery": "yes", "name": "The Meat Corner", "opening_hours": "08:00-22:00", "outdoor_seating": "no", "payment:cash": "yes", "payment:credit_cards": "yes", "phone": "+1 646-820-0838", "takeaway": "yes", "wheelchair": "limited"}}, {"type": "node", "id": 6260102833, "lat": 40.6356846, "lon": -74.0096259, "tags": {"addr:housenumber": "5924", "addr:postcode": "11220", "addr:street": "8th Avenue", "amenity": "cafe", "name": "ViVi Bubble Tea", "phone": "+1 718-439-0288", "takeaway": "only", "website": "https://www.vivibubbletea.com/location_content.php?l=6"}}, {"type": "node", "id": 6324604870, "lat": 40.637324, "lon": -74.0218141}, {"type": "node", "id": 6324604871, "lat": 40.6368751, "lon": -74.0222708}, {"type": "node", "id": 6791111462, "lat": 40.6358568, "lon": -74.0089718, "tags": {"addr:housenumber": "5903", "addr:postcode": "11220", "addr:street": "8th Avenue", "amenity": "cafe", "brand": "Tiger Sugar", "brand:wikidata": "Q76099070", "cuisine": "bubble_tea", "name": "Tiger Sugar", "opening_hours": "Mo-Su 11:00-21:30", "phone": "+1-718-438-2358", "takeaway": "yes"}}, {"type": "node", "id": 6883958747, "lat": 40.6324619, "lon": -74.0108786, "tags": {"addr:city": "Brooklyn", "addr:housenumber": "842", "addr:postcode": "11220", "addr:state": "NY", "addr:street": "64th Street", "amenity": "restaurant", "cuisine": "szechuan", "name": "Chuan Yue", "opening_hours": "Mo-Su 12:00-02:00", "phone": "+1-718-836-6888", "reservation": "yes", "takeaway": "yes"}}, {"type": "node", "id": 6906966997, "lat": 40.636985, "lon": -74.0113838, "tags": {"addr:city": "Brooklyn", "addr:housenumber": "5915", "addr:postcode": "11220", "addr:state": "NY", "addr:street": "7th Avenue", "amenity": "restaurant", "cuisine": "cajun;creole;seafood", "name": "Holy Crab Boiling", "opening_hours": "Mo-Su 13:00-01:00", "phone": "+1-347-889-6663", "reservation": "yes", "takeaway": "yes", "website": "https://www.holycrabboiling.com"}}, {"type": "node", "id": 7245658925, "lat": 40.6373775, "lon": -74.0084488, "tags": {"addr:city": "Brooklyn", "addr:housenumber": "768", "addr:postcode": "11220", "addr:state": "NY", "addr:street": "57th Street", "amenity": "restaurant", "cuisine": "sushi", "internet_access": "yes", "name": "Daizen", "opening_hours": "Mo-Fr 12:00-23:00; Sa-Su 11:30-23:30", "outdoor_seating": "yes", "phone": "+1-718-567-0888", "reservation": "yes", "website": "http://www.daizenbrooklyn.com/", "wheelchair": "yes"}}, {"type": "node", "id": 7656525681, "lat": 40.6353752, "lon": -74.009882, "tags": {"amenity": "cafe", "name": "Jooy Tea Shoppe", "phone": "+1-347-457-5888"}}, {"type": "node", "id": 7656550169, "lat": 40.6358941, "lon": -74.0129469, "tags": {"addr:housenumber": "6122", "addr:postcode": "11220", "addr:street": "7th Avenue", "amenity": "cafe", "building": "yes", "check_date": "2025-03-11", "cuisine": "tea;small_plates;bubble_tea;asian", "email": "info@princeteahouse.com", "height": "10.6", "name": "Prince Tea House", "nycdoitt:bin": "3143871", "opening_hours": "Mo-Th,Su 12:00-23:00; Fr-Sa 12:00-24:00", "opening_hours:url": "https://www.princeteahouse.com/locations", "outdoor_seating": "yes", "payment:cash": "yes", "payment:credit_cards": "yes", "payment:debit_cards": "yes", "phone": "+1 929-337-7150", "reservation": "no", "source": "survey", "website": "https://www.princeteahouse.com/"}}, {"type": "node", "id": 7656695500, "lat": 40.6367635, "lon": -74.0088184, "tags": {"addr:city": "Brooklyn", "addr:housenumber": "774", "addr:postcode": "11220", "addr:state": "NY", "addr:street": "58th Street", "amenity": "cafe", "brand": "Yi Fang Tea", "brand:en": "Yi Fang Tea", "brand:wikidata": "Q66196395", "brand:zh": "\u4e00\u82b3\u6c34\u679c\u8336", "cuisine": "bubble_tea", "name": "Yi Fang Tea", "name:en": "Yi Fang Tea", "name:zh": "\u4e00\u82b3\u6c34\u679c\u8336", "payment:cash": "yes", "shop": "tea", "takeaway": "yes"}}, {"type": "node", "id": 7659109028, "lat": 40.6359863, "lon": -74.0092627, "tags": {"addr:housenumber": "5906", "addr:postcode": "11220", "addr:street": "8th Avenue", "amenity": "restaurant", "cuisine": "vietnamese", "name": "Great 8", "phone": "+17184928916", "website": "https://www.great8brooklyn.com/"}}, {"type": "node", "id": 7659620146, "lat": 40.637359, "lon": -74.0083203, "tags": {"addr:housenumber": "772", "addr:postcode": "11220", "addr:state": "NY", "addr:street": "57th Street", "amenity": "restaurant", "cuisine": "chinese", "name": "Fire Leopard BBQ"}}, {"type": "node", "id": 10555809160, "lat": 40.6380911, "lon": -74.0246154}, {"type": "node", "id": 12248243318, "lat": 40.6361007, "lon": -74.0127169, "tags": {"addr:housenumber": "6110", "addr:street": "7th Avenue", "amenity": "restaurant", "check_date": "2024-10-13", "cuisine": "chinese", "delivery": "yes", "name": "New Fu Shen Restaurant", "outdoor_seating": "no", "payment:cash": "yes", "payment:credit_cards": "yes", "phone": "+1 718-439-8808", "takeaway": "yes", "wheelchair": "yes"}}, {"type": "node", "id": 12248243319, "lat": 40.6361507, "lon": -74.0126619, "tags": {"addr:housenumber": "6108", "addr:street": "7th Avenue", "check_date": "2024-10-13", "name": "City Insurance Agency", "office": "insurance", "payment:cash": "yes", "payment:credit_cards": "yes", "phone": "+1 718-833-8332", "wheelchair": "yes"}}, {"type": "node", "id": 12248243320, "lat": 40.6361965, "lon": -74.0126301, "tags": {"addr:housenumber": "6104", "addr:street": "7th Avenue", "air_conditioning": "yes", "amenity": "cafe", "brand": "Kung Fu Tea", "brand:wikidata": "Q66023886", "check_date": "2024-10-13", "cuisine": "bubble_tea", "delivery": "yes", "drive_through": "no", "highchair": "no", "name": "Kung Fu Tea", "opening_hours": "11:00-22:30", "outdoor_seating": "no", "payment:cash": "yes", "payment:credit_cards": "yes", "smoking": "no", "takeaway": "yes", "wheelchair": "yes"}}, {"type": "node", "id": 12248272577, "lat": 40.6365949, "lon": -74.0117882, "tags": {"addr:housenumber": "6003", "addr:postcode": "11220", "addr:street": "7th Avenue", "amenity": "cafe", "check_date": "2024-10-13", "cuisine": "bubble_tea", "delivery": "yes", "drive_through": "no", "name": "In Cha", "opening_hours": "10:30-22:30", "outdoor_seating": "no", "payment:cash": "yes", "payment:credit_cards": "yes", "takeaway": "yes"}}, {"type": "node", "id": 12296825826, "lat": 40.6341316, "lon": -74.0107447, "tags": {"name": "WWKO Marketing", "office": "company", "phone": "+1-718-492-0356"}}, {"type": "node", "id": 12296825827, "lat": 40.6341555, "lon": -74.0107217, "tags": {"name": "Sunset Park Law", "office": "lawyer", "phone": "+1-718-921-8787"}}, {"type": "node", "id": 12296825828, "lat": 40.6341401, "lon": -74.0106968, "tags": {"name": "Rainbow Travel NY", "office": "travel_agent", "phone": "+1-929-666-0816"}}, {"type": "node", "id": 12296825830, "lat": 40.6338385, "lon": -74.0110489, "tags": {"name": "Allstate", "office": "insurance", "phone": "+1-718-748-8920"}}, {"type": "node", "id": 12585246695, "lat": 40.630116, "lon": -74.0102572}, {"type": "node", "id": 12585246696, "lat": 40.6318647, "lon": -74.013163}, {"type": "node", "id": 12585253209, "lat": 40.6315144, "lon": -74.0135181}, {"type": "node", "id": 12585253213, "lat": 40.629819, "lon": -74.010699}, {"type": "node", "id": 12626619102, "lat": 40.6357813, "lon": -74.0090505, "tags": {"amenity": "cafe", "cuisine": "milk_tea", "drink:coffee": "no", "drink:tea": "yes", "name": "Molly Tea", "opening_hours": "Mo-Su 11:00-21:30", "phone": "+1-347-599-2688", "website": "https://mollyteausa.com"}}, {"type": "node", "id": 12631743736, "lat": 40.6365047, "lon": -74.0114916, "tags": {"amenity": "restaurant", "cuisine": "chinese", "name": "Yuan Zai Bing", "opening_hours": "Mo-Su 11:00-21:30", "phone": "+1-929-626-8881", "website": "https://www.yuanzaibing.com"}}, {"type": "node", "id": 12631743739, "lat": 40.6352886, "lon": -74.0099728, "tags": {"amenity": "restaurant", "cuisine": "chinese", "name": "Ng's Kitchen", "phone": "+1-646-818-5282"}}, {"type": "node", "id": 12631743740, "lat": 40.6354177, "lon": -74.0098375, "tags": {"amenity": "bar", "name": "Soccer Tavern"}}, {"type": "node", "id": 12631743741, "lat": 40.6351592, "lon": -74.0101086, "tags": {"addr:housenumber": "6018", "addr:postcode": "11220", "addr:street": "8th Avenue", "amenity": "restaurant", "cuisine": "chinese", "name": "New Double Fire"}}, {"type": "node", "id": 12631743742, "lat": 40.6351207, "lon": -74.0101489, "tags": {"addr:housenumber": "6020", "addr:postcode": "11220", "addr:street": "8th Avenue", "amenity": "restaurant", "cuisine": "chinese", "name": "Gongfu Xiao Long Bao"}}, {"type": "node", "id": 12631743748, "lat": 40.6359924, "lon": -74.0117519, "tags": {"addr:housenumber": "715", "addr:postcode": "11220", "addr:street": "61st Street", "amenity": "restaurant", "cuisine": "chinese", "name": "Special Restaurant", "phone": "+1-347-457-6638"}}, {"type": "node", "id": 12631743751, "lat": 40.6359362, "lon": -74.0116585, "tags": {"addr:housenumber": "717", "addr:postcode": "11220", "addr:street": "61st Street", "alt_name": "Grill Master BK", "amenity": "restaurant", "cuisine": "chinese", "name": "Wang Hao Restaurant", "phone": "+1-718-808-1838"}}, {"type": "node", "id": 12631743755, "lat": 40.636507, "lon": -74.01188, "tags": {"amenity": "restaurant", "cuisine": "chinese", "name": "Rice Village'", "phone": "+1-718-238-8738"}}, {"type": "node", "id": 12631743756, "lat": 40.6365509, "lon": -74.0118342, "tags": {"name": "E House", "office": "estate_agent", "phone": "+1-718-680-2776", "website": "https://ehouseusa.com"}}, {"type": "node", "id": 12650765086, "lat": 40.6353036, "lon": -74.0089934, "tags": {"amenity": "restaurant", "cuisine": "chinese", "name": "Don Huang", "phone": "+1-929-326-5967"}}, {"type": "node", "id": 12650765094, "lat": 40.6358306, "lon": -74.0087431, "tags": {"addr:housenumber": "5901", "addr:postcode": "11220", "addr:street": "8th Avenue", "alt_name": "U. Save Travel", "name": "U-Save Travel Group", "office": "travel_agent", "phone": "+1-718-576-6866"}}, {"type": "node", "id": 12662707701, "lat": 40.6356066, "lon": -74.0116046, "tags": {"addr:housenumber": "732", "addr:postcode": "11220", "addr:street": "61st Street", "amenity": "restaurant", "contact:facebook": "99FavorTasteUSA", "contact:instagram": "99favortasteofficial", "cuisine": "chinese", "name": "99 Flavor Taste", "opening_hours": "Mo-Su 12:00-01:00", "phone": "+1-718-439-0578", "website": "https://www.99favortaste.com/", "website:menu": "https://www.99favortaste.com/menu"}}, {"type": "way", "id": 185021927, "nodes": [4026460335, 42524823, 1955950531, 4026460354, 4026460335], "tags": {"leisure": "park", "name": "Quaker Parrot Park at the Dust Bowl", "old_name": "The Dust Bowl", "website": "https://www.nycgovparks.org/parks/quaker-parrot-park-at-the-dust-bowl", "wikidata": "Q49484641"}}, {"type": "way", "id": 185022007, "nodes": [4026460340, 1955950509, 42487342, 4026460333, 4026460340]}, {"type": "way", "id": 185022011, "nodes": [12585253209, 12585253213, 12585246695, 12585246696, 12585253209]}, {"type": "way", "id": 249563085, "nodes": [2561487955, 2561487949, 2561487954, 2561487937, 2561487904, 2561487967, 2561487989, 2561487962, 2561487955], "tags": {"addr:city": "Brooklyn", "addr:housenumber": "5805", "addr:postcode": "11220", "addr:state": "NY", "addr:street": "8th Avenue", "amenity": "restaurant", "building": "yes", "height": "10.1", "name": "MM Tea Cafe", "nycdoitt:bin": "3140503", "phone": "+1-718-853-6888"}}, {"type": "way", "id": 400011767, "nodes": [4026478041, 4026478029, 6324604870, 6324604871, 4026478032, 4026478038, 4026478030]}, {"type": "way", "id": 400011768, "nodes": [4026478039, 4026478031, 4026478045, 4026478046, 4026478034, 4026478044, 4026478035, 4026478039]}, {"type": "way", "id": 400011769, "nodes": [4026478036, 4026478028, 4026478037, 4026478033, 4026478040, 4026478036]}, {"type": "way", "id": 400014470, "nodes": [4026491470, 4026491450, 10555809160, 4026491440, 4026491443, 4026491470]}, {"type": "way", "id": 1420328522, "nodes": [4026478030, 4026478042, 4026478041]}, {"type": "relation", "id": 6006556, "members": [{"type": "way", "ref": 185022007, "role": "outer"}, {"type": "way", "ref": 185022011, "role": "outer"}, {"type": "way", "ref": 400011768, "role": "outer"}, {"type": "way", "ref": 400011769, "role": "outer"}, {"type": "way", "ref": 400011767, "role": "outer"}, {"type": "way", "ref": 1420328522, "role": "outer"}, {"type": "way", "ref": 400014470, "role": "outer"}], "tags": {"gnis:feature_id": "2356150", "leisure": "park", "name": "Leif Ericson Park", "name:etymology:wikidata": "Q42838", "type": "multipolygon", "website": "https://www.nycgovparks.org/parks/leif-ericson-park", "wikidata": "Q49515767"}}]}