{"version": 0.6, "generator": "Overpass API 0.7.62.8 e802775f", "osm3s": {"timestamp_osm_base": "2025-12-01T17:04:51Z", "copyright": "The data included in this document is from www.openstreetmap.org. The data is made available under ODbL."}, "elements": [{"type": "node", "id": 419362699, "lat": 40.7239188, "lon": -73.9937813, "tags": {"alt_name": "265 Musket Room", "amenity": "restaurant", "bar": "yes", "cocktails": "yes", "cuisine": "continental;eclectic", "diet:vegan": "yes", "drink:beer": "yes", "drink:liquor": "yes", "drink:wine": "yes", "happy_hours": "Tu-Sa 17:00-19:00", "name": "The Musket Room", "opening_hours": "Tu-Sa 17:00-23:00", "phone": "+1-212-219-0764", "website": "https://www.musketroom.com"}}, {"type": "node", "id": 886702490, "lat": 40.7272065, "lon": -73.9954808, "tags": {"addr:housenumber": "665", "addr:street": "Broadway", "amenity": "cafe", "brand": "Starbucks", "brand:wikidata": "Q37158", "contact:website": "https://www.starbucks.com/store-locator/store/16853/broadway-and-bond-665-broadway-new-york-ny-100122300-us", "cuisine": "coffee_shop", "diet:vegan": "yes", "drink:coffee": "yes", "drink:soy_milk": "yes", "drink:tea": "yes", "internet_access": "wlan", "internet_access:fee": "no", "name": "Starbucks", "official_name": "Starbucks Coffee", "opening_hours": "Mo-Su 06:00-21:00", "payment:cash": "yes", "payment:contactless": "yes", "payment:credit_cards": "yes", "payment:debit_cards": "yes", "phone": "+1-917-534-0799", "ref": "16853", "takeaway": "yes", "toilets": "yes", "toilets:wheelchair": "yes", "wheelchair": "yes"}}, {"type": "node", "id": 1241288717, "lat": 40.7264876, "lon": -73.9971363}, {"type": "node", "id": 1241288720, "lat": 40.7308705, "lon": -74.0003257}, {"type": "node", "id": 1241288722, "lat": 40.7275913, "lon": -73.9961808}, {"type": "node", "id": 1241288724, "lat": 40.7260797, "lon": -73.9963141}, {"type": "node", "id": 1241288726, "lat": 40.7303373, "lon": -73.9948898}, {"type": "node", "id": 1241288727, "lat": 40.7323333, "lon": -73.9977498}, {"type": "node", "id": 1241288730, "lat": 40.7281958, "lon": -73.9956713}, {"type": "node", "id": 1241288732, "lat": 40.7290798, "lon": -73.9948925}, {"type": "node", "id": 1241288733, "lat": 40.7286293, "lon": -73.993981}, {"type": "node", "id": 1241288735, "lat": 40.727804, "lon": -73.9948769}, {"type": "node", "id": 1241288737, "lat": 40.726278, "lon": -73.9973165}, {"type": "node", "id": 1241288740, "lat": 40.7259582, "lon": -73.9975834}, {"type": "node", "id": 1241288742, "lat": 40.7270368, "lon": -73.9996987}, {"type": "node", "id": 1241288744, "lat": 40.7258656, "lon": -73.9965}, {"type": "node", "id": 1241288746, "lat": 40.7312344, "lon": -73.994137}, {"type": "node", "id": 1241288747, "lat": 40.7318616, "lon": -73.999674}, {"type": "node", "id": 1241288753, "lat": 40.7271999, "lon": -73.995385}, {"type": "node", "id": 1241288754, "lat": 40.7295127, "lon": -73.9932296}, {"type": "node", "id": 1692433915, "lat": 40.7255206, "lon": -73.994722}, {"type": "node", "id": 2077984659, "lat": 40.7313204, "lon": -73.9985651}, {"type": "node", "id": 2109918801, "lat": 40.725584, "lon": -73.9947398, "tags": {"addr:city": "New York", "addr:housenumber": "337", "addr:state": "NY", "addr:street": "Lafayette Street", "amenity": "cafe", "cuisine": "sandwich", "diet:gluten_free": "yes", "diet:vegetarian": "yes", "drink:coffee": "yes", "drink:espresso": "yes", "drink:tea": "yes", "name": "Bite", "opening_hours": "Mo-Sa 07:30-21:00; Sa, Su 11:00-20:00", "outdoor_seating": "only", "takeaway": "only", "website": "https://www.bitenyc.com/"}}, {"type": "node", "id": 2180708702, "lat": 40.7253771, "lon": -73.9947942}, {"type": "node", "id": 2547036417, "lat": 40.726927, "lon": -73.9957148, "tags": {"addr:housenumber": "651", "addr:postcode": "10012", "addr:street": "Broadway", "amenity": "cafe", "cuisine": "bagel;breakfast;sandwich", "drink:coffee": "yes", "drink:espresso": "yes", "name": "Grabenstein's Bagels", "outdoor_seating": "sidewalk"}}, {"type": "node", "id": 2547036910, "lat": 40.7277644, "lon": -73.9940694}, {"type": "node", "id": 2547036923, "lat": 40.7278577, "lon": -73.9939897}, {"type": "node", "id": 2547036941, "lat": 40.7279623, "lon": -73.9944726}, {"type": "node", "id": 2547036945, "lat": 40.7279432, "lon": -73.9942997, "tags": {"amenity": "restaurant", "cuisine": "american", "name": "The GRID", "opening_hours": "We-Su 17:30-21:30", "phone": "+1-332-910-9877", "website": "https://greatjonesdistillingco.com/restaurant/"}}, {"type": "node", "id": 2547036956, "lat": 40.7280556, "lon": -73.9943928}, {"type": "node", "id": 2547041115, "lat": 40.7246643, "lon": -73.9958567, "tags": {"addr:city": "New York", "addr:housenumber": "300", "addr:postcode": "10012", "addr:state": "NY", "addr:street": "Lafayette Street", "name": "Microsoft SOHO Office", "office": "company"}}, {"type": "node", "id": 2547041173, "lat": 40.7254574, "lon": -73.994857}, {"type": "node", "id": 2547067899, "lat": 40.7245967, "lon": -73.9945106, "tags": {"addr:housenumber": "55", "addr:postcode": "10012", "addr:street": "East Houston Street", "alt_name": "Emilio's Ballato", "amenity": "restaurant", "contact:facebook": "https://www.facebook.com/emiliosballato/", "cuisine": "italian", "name": "Ballato", "phone": "+1-212-274-8881"}}, {"type": "node", "id": 2547083556, "lat": 40.727911, "lon": -73.9992736, "tags": {"addr:city": "New York", "addr:housenumber": "510", "addr:postcode": "10012", "addr:state": "NY", "addr:street": "Laguardia Place", "amenity": "restaurant", "cuisine": "moroccan", "delivery": "no", "diet:vegetarian": "yes", "name": "Le Souk New York - Restaurant & Hookah Lounge", "opening_hours": "Mo-Fr 16:00-04:00; Sa-Su 12:00-04:00", "payment:credit_cards": "yes", "phone": "+1-212-777-5454", "reservation": "recommended", "takeaway": "yes", "website": "http://lesoukny.com/", "wheelchair": "no"}}, {"type": "node", "id": 2547109169, "lat": 40.7261039, "lon": -73.9987153, "tags": {"addr:city": "New York", "addr:housenumber": "145", "addr:postcode": "10012", "addr:state": "NY", "addr:street": "Greene Street", "amenity": "cafe", "cuisine": "coffee_shop", "internet_access": "wlan", "internet_access:fee": "no", "name": "Felix Roasting Co.", "payment:contactless": "yes", "payment:credit_cards": "yes", "reservation": "no", "smoking": "no", "takeaway": "yes", "toilets": "yes", "website": "https://felixroastingco.com/", "wheelchair": "no"}}, {"type": "node", "id": 2547241551, "lat": 40.723501, "lon": -73.9963078, "tags": {"addr:housenumber": "54", "addr:postcode": "10012", "addr:street": "Prince Street", "amenity": "restaurant", "contact:phone": "+1-212-380-8202", "cuisine": "italian", "name": "La Pecora Bianca", "outdoor_seating": "sidewalk;street", "website": "https://www.lapecorabianca.com"}}, {"type": "node", "id": 2547241611, "lat": 40.7239788, "lon": -73.9964591, "tags": {"addr:housenumber": "270", "addr:postcode": "10012", "addr:street": "Lafayette Street", "amenity": "cafe", "brand": "La Colombe Coffee Roasters", "brand:wikidata": "Q23461663", "cuisine": "coffee_shop", "name": "La Colombe Coffee Roasters", "name:en": "La Colombe Coffee Roasters", "short_name": "La Colombe", "takeaway": "yes"}}, {"type": "node", "id": 2578562385, "lat": 40.7259353, "lon": -73.9942882, "tags": {"addr:city": "New York", "addr:housenumber": "49", "addr:postcode": "10012", "addr:street": "Bleecker Street", "name": "Turtle Conservancy", "office": "company", "opening_hours": "Mo-Fr 10:00-18:00", "phone": "+1-212-353-5060", "website": "https://www.turtleconservancy.org/"}}, {"type": "node", "id": 3573482099, "lat": 40.7246074, "lon": -73.9987503, "tags": {"alt_name": "Fanelli's", "amenity": "restaurant", "bar": "yes", "check_date": "2024-02-22", "cocktails": "yes", "cuisine": "italian;pub", "drink:beer": "draught", "drink:liquor": "yes", "drink:wine": "yes", "name": "Fanelli Cafe", "phone": "+1-212-226-9412", "toilets": "yes", "toilets:unisex": "no", "toilets:wheelchair": "no", "walkup_window": "yes", "wheelchair": "limited", "wikidata": "Q19868052", "wikipedia": "en:Fanelli Cafe"}}, {"type": "node", "id": 3608032646, "lat": 40.7226578, "lon": -73.9981644, "tags": {"addr:housenumber": "80", "addr:street": "Spring Street", "amenity": "restaurant", "cuisine": "french", "name": "Balthazar", "wikidata": "Q4852657"}}, {"type": "node", "id": 3608616551, "lat": 40.7229657, "lon": -73.99576, "tags": {"addr:housenumber": "244", "addr:street": "Mulberry Street", "amenity": "restaurant", "branch": "Nolita", "cocktails": "yes", "cuisine": "sandwich;salad;brunch", "drink:beer": "yes", "drink:coffee": "yes", "drink:tea": "yes", "drink:wine": "yes", "happy_hours": "Su-Mo 16:00-18:00", "internet_access": "wlan", "internet_access:fee": "no", "name": "The Grey Dog", "opening_hours": "Mo-Su 08:00-21:00", "outdoor_seating": "yes", "payment:cash": "yes", "payment:credit_cards": "yes", "phone": "+1-212-966-1060", "takeaway": "yes", "toilets": "yes", "toilets:access": "permissive", "toilets:unisex": "yes", "toilets:wheelchair": "yes", "website": "https://www.thegreydog.com/location/the-grey-dog-nolita/", "wheelchair": "yes"}}, {"type": "node", "id": 3612291899, "lat": 40.7228449, "lon": -73.9942284, "tags": {"addr:city": "New York", "addr:housenumber": "17", "addr:postcode": "10012", "addr:street": "Prince Street", "amenity": "restaurant", "bar": "yes", "cocktails": "yes", "cuisine": "cuban", "drink:beer": "yes", "drink:coffee": "yes", "drink:espresso": "yes", "drink:liquor": "yes", "name": "Caf\u00e9 Habana", "opening_hours": "Mo-Su 10:00-23:00", "phone": "+1-212-625-2001", "toilets": "yes", "website": "https://www.cafehabana.com/menu/cafe-habana-nyc/"}}, {"type": "node", "id": 3825544457, "lat": 40.7252194, "lon": -73.9967722, "tags": {"addr:city": "New York", "addr:housenumber": "600", "addr:postcode": "10018", "addr:state": "NY", "addr:street": "Broadway", "name": "Code Academy", "office": "company", "website": "https://www.codecademy.com"}}, {"type": "node", "id": 4006308109, "lat": 40.7255749, "lon": -73.9951521, "tags": {"amenity": "restaurant", "name": "Gato", "phone": "+1-212-334-6400", "website": "http://gatonyc.com/"}}, {"type": "node", "id": 4149654210, "lat": 40.7239825, "lon": -73.9937554, "tags": {"addr:housenumber": "267", "addr:postcode": "10012", "addr:street": "Elizabeth Street", "alt_name": "Fonda Nolita", "amenity": "restaurant", "bar": "yes", "brand": "Tacombi", "brand:wikidata": "Q123165959", "cuisine": "mexican", "name": "Tacombi", "opening_hours": "Mo-Su 11:00-23:00", "phone": "+1-917-727-0179", "website": "https://www.tacombi.com"}}, {"type": "node", "id": 4243416297, "lat": 40.7248056, "lon": -73.998682, "tags": {"addr:housenumber": "99", "addr:postcode": "10012", "addr:street": "Prince Street", "amenity": "restaurant", "cuisine": "italian", "name": "Sartiano\u2019s", "phone": "+1 212-658-1155", "website": "https://sartianos.com"}}, {"type": "node", "id": 4305816205, "lat": 40.7227225, "lon": -73.9961142, "tags": {"air_conditioning": "yes", "amenity": "restaurant", "bar": "yes", "brewery": "yes", "cuisine": "pizza", "name": "Rubirosa"}}, {"type": "node", "id": 4849663224, "lat": 40.7234888, "lon": -73.9957917, "tags": {"addr:city": "New York", "addr:housenumber": "47", "addr:postcode": "10012", "addr:street": "Prince Street", "amenity": "restaurant", "cuisine": "japanese", "name": "Momoya", "phone": "+1 646-429-9315", "website": "https://momoyanyc.com"}}, {"type": "node", "id": 4937329121, "lat": 40.7229906, "lon": -73.9945851, "tags": {"addr:city": "New York", "addr:housenumber": "27", "addr:postcode": "10012", "addr:state": "NY", "addr:street": "Prince Street", "amenity": "restaurant", "cuisine": "pizza", "delivery": "yes", "name": "Prince Street Pizza", "opening_hours": "Su-Th 11:30-23:00; Fr-Sa 11:30-04:00", "phone": "+1 212-966-1960", "takeaway": "yes", "website": "https://www.princestreetpizzamenu.com/"}}, {"type": "node", "id": 5067720936, "lat": 40.7255394, "lon": -73.9947919}, {"type": "node", "id": 5123314121, "lat": 40.7257657, "lon": -73.9926595, "tags": {"addr:housenumber": "53", "addr:street": "Bond Street", "amenity": "restaurant", "name": "Mile End Deli"}}, {"type": "node", "id": 5152316163, "lat": 40.7230602, "lon": -73.9973087, "tags": {"amenity": "restaurant"}}, {"type": "node", "id": 5193508103, "lat": 40.7246694, "lon": -73.9983531, "tags": {"addr:city": "New York", "addr:housenumber": "142", "addr:state": "NY", "addr:street": "Mercer Street", "amenity": "restaurant", "cuisine": "seafood", "name": "Lure Fishbar", "outdoor_seating": "yes", "phone": "+1-212-431-7676", "website": "https://www.lurefishbar.com"}}, {"type": "node", "id": 5209395822, "lat": 40.7265987, "lon": -73.999651, "tags": {"addr:city": "New York City", "addr:housenumber": "77", "addr:postcode": "10012", "addr:state": "NY", "addr:street": "West Houston Street", "amenity": "restaurant", "cuisine": "moroccan", "name": "Ayah Restaurant", "phone": "+1 212-501-8900", "website": "https://ayahrestaurant.com"}}, {"type": "node", "id": 5273499021, "lat": 40.7265452, "lon": -73.9936365, "tags": {"addr:city": "New York", "addr:housenumber": "26", "addr:postcode": "10012", "addr:state": "NY", "addr:street": "Bond Street", "amenity": "bar", "name": "Jac's On Bond", "opening_hours": "17:00+", "phone": "+1-646-370-1446", "reservation": "yes", "website": "https://www.jacsonbond.com/"}}, {"type": "node", "id": 5395639744, "lat": 40.7270961, "lon": -73.993997, "tags": {"addr:housenumber": "372", "addr:postcode": "10012", "addr:street": "Lafayette Street", "amenity": "cafe", "check_date:opening_hours": "2025-07-23", "cuisine": "sandwich", "diet:vegetarian": "yes", "name": "Honeybrains", "opening_hours": "Mo-Su 08:00-21:00", "opening_hours:signed": "no", "website": "https://www.honeybrains.com/location/honeybrains/"}}, {"type": "node", "id": 5511982448, "lat": 40.7277038, "lon": -73.9994973, "tags": {"addr:housenumber": "506", "addr:street": "Laguardia Place", "amenity": "restaurant", "cocktails": "yes", "cuisine": "french;brunch;coffee_shop", "drink:beer": "yes", "drink:coffee": "yes", "drink:espresso": "yes", "drink:liquor": "yes", "drink:tea": "yes", "drink:wine": "yes", "email": "info@bosienyc.com", "name": "Bosie", "opening_hours": "Mo 08:00-18:00, Tu-Th 08:00-23:00, Fr 08:00-00:00, Sa 10:00-00:00, Su 10:00-23:00", "payment:credit_cards": "yes", "phone": "+1-212-352-9900", "reservation": "recommended", "takeaway": "yes", "website": "https://www.bosienyc.com/", "wheelchair": "yes"}}, {"type": "node", "id": 5511988543, "lat": 40.7274205, "lon": -73.9997484, "tags": {"addr:housenumber": "496", "addr:street": "LaGuardia Place", "amenity": "restaurant", "cuisine": "burger", "delivery": "yes", "diet:kosher": "only", "email": "mochaburgernyc@gmail.com", "name": "Mocha Burger", "opening_hours": "Mo-We, Su 11:30-00:00; Th 11:30-02:00; Fr 11:30-14:30; Sa 17:30-02:00", "payment:credit_cards": "yes", "phone": "+1-212-982-3800", "reservation": "recommended", "takeaway": "yes", "website": "https://mochaburger.com/", "wheelchair": "yes"}}, {"type": "node", "id": 5611937541, "lat": 40.7265689, "lon": -73.9996226, "tags": {"addr:city": "New York", "addr:housenumber": "71", "addr:postcode": "10012", "addr:state": "NY", "addr:street": "West Houston Street", "amenity": "cafe", "branch": "Soho", "cuisine": "coffee_shop", "drink:coffee": "yes", "drink:tea": "yes", "email": "soho@birchcoffee.com", "internet_access": "wlan", "name": "Birch Coffee", "opening_hours": "Mo-Fr 07:00-18:00, Sa-Su 08:00-18:00", "payment:cash": "yes", "payment:credit_cards": "yes", "phone": "+1 212-686-1444", "website": "http://birchcoffee.com/locations/soho/", "wheelchair": "yes"}}, {"type": "node", "id": 5618806821, "lat": 40.7243026, "lon": -73.9973808, "tags": {"addr:city": "New York", "addr:housenumber": "568", "addr:postcode": "10012", "addr:state": "NY", "addr:street": "Broadway", "check_date": "2025-05-03", "name": "Zocdoc", "office": "company", "website": "https://www.zocdoc.com"}}, {"type": "node", "id": 5788137439, "lat": 40.7266858, "lon": -73.9959215, "tags": {"addr:housenumber": "643", "addr:street": "Broadway", "amenity": "cafe", "branch": "& Cru", "brand": "CoCo", "brand:wikidata": "Q65084369", "cocktails": "yes", "cuisine": "bubble_tea", "delivery": "yes", "diet:vegetarian": "yes", "drink:beer": "yes", "drink:coffee": "yes", "drink:liquor": "yes", "drink:tea": "yes", "email": "info@everyday-hospitality.com", "name": "CoCo Fresh Tea & Juice", "opening_hours": "Mo-Th 08:00-21:00; Fr 08:00-22:00; Sa 09:00-22:00; Su 09:00-21:00", "organic": "yes", "phone": "+1-212-614-3170", "reservation": "yes", "short_name": "CoCo", "takeaway": "yes", "toilets": "yes", "toilets:unisex": "no", "website": "https://www.cocoandcru.com/", "wheelchair": "yes"}}, {"type": "node", "id": 5788183778, "lat": 40.7267077, "lon": -73.9959009, "tags": {"addr:housenumber": "643", "addr:street": "Broadway", "amenity": "bar", "cocktails": "yes", "drink:beer": "yes", "email": "events@drinksweetwater.com", "level": "-1", "name": "Sweetwater Social", "opening_hours": "Tu, We 17:00-00:00; Th-Sa 17:00-02:00", "payment:debit_cards": "yes", "phone": "+1-212-253-0477", "reservation": "yes", "toilets": "yes", "toilets:unisex": "no", "toilets:wheelchair": "no", "website": "https://www.drinksweetwater.com/", "wheelchair": "no"}}, {"type": "node", "id": 5788273495, "lat": 40.726876, "lon": -73.995752, "tags": {"addr:housenumber": "649", "addr:postcode": "10012", "addr:street": "Broadway", "amenity": "cafe", "brand": "Gregorys Coffee", "brand:wikidata": "Q28229714", "cuisine": "coffee_shop", "drink:coffee": "yes", "drink:espresso": "yes", "drink:tea": "yes", "name": "Gregorys Coffee", "note": "lack of apostrophe in name is not a typo", "opening_hours": "Mo-Fr 07:00-18:00, Sa-Su 08:00-17:00", "payment:contactless": "yes", "payment:debit_cards": "yes", "phone": "+1-646-478-7258", "website": "https://gregoryscoffee.com/", "wheelchair": "yes"}}, {"type": "node", "id": 5792264308, "lat": 40.726208, "lon": -73.9954844, "tags": {"addr:housenumber": "68", "addr:street": "Bleecker Street", "amenity": "cafe", "cuisine": "breakfast;sandwich", "drink:coffee": "yes", "drink:tea": "yes", "email": "info@cafeangeliquenyc.com", "fax": "+1-212-475-4334", "internet_access": "wlan", "internet_access:fee": "no", "name": "Cafe Angelique", "opening_hours": "Mo-Fr 07:00-19:00; Sa, Su 08:00-17:00", "phone": "+1-212-475-3500", "takeaway": "yes", "website": "http://cafeangeliquenyc.com/"}}, {"type": "node", "id": 5792284140, "lat": 40.7275742, "lon": -73.993705, "tags": {"addr:housenumber": "380", "addr:street": "Lafayette", "amenity": "cafe", "breakfast": "Mo-Fr 08:00-11:30;Sa-Su 08:00-10:00", "cocktails": "yes", "craft": "caterer", "cuisine": "french", "delivery": "yes", "drink:coffee": "yes", "drink:tea": "yes", "drink:wine": "yes", "email": "info@lafayetteny.com", "happy_hours": "Mo-Fr 16:00-18:30", "lunch": "Mo-Fr 12:00-15:00", "name": "Lafayette Grand Caf\u00e9 & Bakery", "opening_hours": "Mo-Su 08:00-22:00", "phone": "+1-212-533-3000", "reservation": "recommended", "shop": "bakery", "takeaway": "yes", "website": "https://www.lafayetteny.com/", "wheelchair": "yes"}}, {"type": "node", "id": 6216388193, "lat": 40.7279134, "lon": -73.9987834}, {"type": "node", "id": 6216388194, "lat": 40.7278737, "lon": -73.9988173}, {"type": "node", "id": 6222190782, "lat": 40.7254629, "lon": -73.9927069, "tags": {"addr:housenumber": "5", "addr:street": "Bleecker Street", "amenity": "restaurant", "check_date": "2024-11-05", "cuisine": "korean", "name": "C as in Charlie", "opening_hours:signed": "no", "wheelchair": "yes"}}, {"type": "node", "id": 6371442486, "lat": 40.7246217, "lon": -73.9947736, "tags": {"amenity": "restaurant", "cuisine": "american", "drink:liquor": "yes", "drink:wine": "yes", "level": "1", "name": "Estela", "opening_hours": "Mo-Th 17:00-20:30; Fr-Su 11:30-14:30,17:00-20:30", "website": "https://estelanyc.com"}}, {"type": "node", "id": 6419733289, "lat": 40.7231443, "lon": -73.9947458, "tags": {"addr:housenumber": "242", "addr:postcode": "10012", "addr:street": "Mott Street", "amenity": "cafe", "branch": "New York City", "check_date": "2025-04-29", "contact:instagram": "cafegitaneny", "cuisine": "moroccan", "name": "Caf\u00e9 Gitane", "opening_hours": "Mo-Fr 12:00-20:00; Sa 10:00-22:00; Su 10:00-20:00", "phone": "+1 212-334-9552", "website": "https://www.cafegitanenyc.com/"}}, {"type": "node", "id": 6568736486, "lat": 40.7230403, "lon": -73.9957307, "tags": {"amenity": "restaurant", "branch": "Mulberry Street", "cocktails": "yes", "cuisine": "italian", "drink:beer": "yes", "drink:liquor": "yes", "drink:wine": "yes", "happy_hours": "Mo-Fr 15:00-19:00", "name": "Parm", "opening_hours": "Mo-Su 11:00-22:00", "outdoor_seating": "street", "website": "https://www.parmitalian.com/locations/mulberry-street/"}}, {"type": "node", "id": 6568807585, "lat": 40.7258103, "lon": -73.9981248, "tags": {"amenity": "bar", "name": "b&b winebar"}}, {"type": "node", "id": 6622185985, "lat": 40.7258235, "lon": -73.9929943, "tags": {"amenity": "restaurant", "name": "il Buco"}}, {"type": "node", "id": 6634227885, "lat": 40.7254165, "lon": -73.9948896}, {"type": "node", "id": 7077578988, "lat": 40.7241895, "lon": -73.9945177, "tags": {"amenity": "restaurant", "name": "Cafeta Social Club Italian Restaurant"}}, {"type": "node", "id": 7150082985, "lat": 40.7238897, "lon": -73.9967151, "tags": {"amenity": "cafe", "name": "T2 tea"}}, {"type": "node", "id": 7906873339, "lat": 40.7244928, "lon": -73.9950083, "tags": {"amenity": "restaurant", "bar": "yes", "cuisine": "spanish", "name": "Socarrat Paella Bar"}}, {"type": "node", "id": 8000650772, "lat": 40.724629, "lon": -73.9946134, "tags": {"addr:housenumber": "51", "addr:street": "East Houston Street", "amenity": "bar", "dog": "no", "happy_hours": "17:00-20:00", "name": "Milano's Bar", "toilets": "customers"}}, {"type": "node", "id": 8309478837, "lat": 40.7317921, "lon": -73.9965745, "tags": {"barrier": "kerb", "kerb": "lowered", "tactile_paving": "no"}}, {"type": "node", "id": 9138110226, "lat": 40.7259782, "lon": -73.9950281, "tags": {"amenity": "bar", "name": "Bleecker Street Bar"}}, {"type": "node", "id": 9332464948, "lat": 40.723302, "lon": -73.9965416, "tags": {"addr:housenumber": "265", "addr:postcode": "10012", "addr:street": "Lafayette Street", "amenity": "restaurant", "cuisine": "italian", "name": "Sant Ambroeus", "outdoor_seating": "sidewalk;street", "phone": "+1-212-966-2770", "website": "https://www.santambroeus.com"}}, {"type": "node", "id": 9505710292, "lat": 40.7246444, "lon": -73.9932411, "tags": {"amenity": "bar", "name": "Tom & Jerry"}}, {"type": "node", "id": 9659603357, "lat": 40.7247677, "lon": -73.9926478, "tags": {"addr:city": "New York", "addr:housenumber": "304", "addr:street": "Bowery", "amenity": "pub", "cocktails": "yes", "cuisine": "pub", "drink:beer": "draught", "drink:liquor": "yes", "drink:wine": "yes", "name": "Slainte", "opening_hours": "Mo-Tu 12:00-01:00; We 12:00-02:00; Th-Sa 12:00-03:00; Su 12:00-01:00", "outdoor_seating": "sidewalk;street", "phone": "+1-212-253-7030", "website": "https://slaintenbarnyc.com"}}, {"type": "node", "id": 9671008374, "lat": 40.7269244, "lon": -73.9932027, "tags": {"amenity": "restaurant", "cocktails": "yes", "cuisine": "italian", "drink:beer": "yes", "drink:liquor": "yes", "drink:wine": "yes", "name": "Vic's", "opening_hours": "Mo 17:00-22:00; Tu-Fr 17:00-23:00; Sa 11:00-23:00; Su 11:00-22:00", "outdoor_seating": "street", "phone": "+1-212-253-5700", "website": "https://www.vicsnewyork.com"}}, {"type": "node", "id": 10067374317, "lat": 40.7272564, "lon": -73.9939092, "tags": {"addr:housenumber": "372", "addr:postcode": "10012", "addr:street": "Lafayette Street", "amenity": "restaurant", "contact:facebook": "atlanyc", "cuisine": "mexican", "name": "ATLA", "opening_hours": "Mo-Sa 12:00-23:00; Su 11:00-17:00", "phone": "+1 347-662-3522", "website": "https://www.atlanyc.com/"}}, {"type": "node", "id": 10689604902, "lat": 40.7249699, "lon": -73.9931218, "tags": {"alt_name": "Raga Partners", "name": "David B. Heller", "office": "company", "website": "https://dbh.io"}}, {"type": "node", "id": 10692222096, "lat": 40.7254249, "lon": -73.9947701}, {"type": "node", "id": 10692222097, "lat": 40.7254984, "lon": -73.9948244}, {"type": "node", "id": 10692222098, "lat": 40.7254728, "lon": -73.994746}, {"type": "node", "id": 10757735011, "lat": 40.7226537, "lon": -73.9928275, "tags": {"amenity": "bar", "drink:beer": "yes", "drink:liquor": "yes", "drink:wine": "yes", "name": "Bar Veloce", "opening_hours": "Mo-Th 16:00-24:00, Fr-Sa 16:00-01:00; Su 16:00-24:00", "theme": "wine_bar", "website": "https://www.winebarveloce.com"}}, {"type": "node", "id": 10827603587, "lat": 40.7249264, "lon": -73.9963375, "tags": {"addr:housenumber": "136", "addr:postcode": "10012", "addr:street": "Crosby Street", "level": "7", "name": "Konrad", "office": "company", "website": "https://www.konrad.com"}}, {"type": "node", "id": 11055557246, "lat": 40.7314996, "lon": -73.9998038}, {"type": "node", "id": 11055557247, "lat": 40.7315606, "lon": -73.9999256}, {"type": "node", "id": 11055557248, "lat": 40.7306453, "lon": -73.9998778}, {"type": "node", "id": 11055557249, "lat": 40.7301385, "lon": -74.0003047}, {"type": "node", "id": 11055557250, "lat": 40.7299929, "lon": -74.0000136}, {"type": "node", "id": 11055557251, "lat": 40.7297981, "lon": -73.9996488}, {"type": "node", "id": 11055557255, "lat": 40.7299434, "lon": -74.0000558}, {"type": "node", "id": 11055557256, "lat": 40.7298505, "lon": -73.99987}, {"type": "node", "id": 11055557257, "lat": 40.7298906, "lon": -73.9998359}, {"type": "node", "id": 11055557258, "lat": 40.7301261, "lon": -73.9993779}, {"type": "node", "id": 11055557259, "lat": 40.7293308, "lon": -73.9977822}, {"type": "node", "id": 11055557264, "lat": 40.7273587, "lon": -73.9928387}, {"type": "node", "id": 11055557266, "lat": 40.7282055, "lon": -73.9943399}, {"type": "node", "id": 11055557267, "lat": 40.7278815, "lon": -73.9936841}, {"type": "node", "id": 11055557268, "lat": 40.7278098, "lon": -73.9937458}, {"type": "node", "id": 11055557269, "lat": 40.7275823, "lon": -73.9926514}, {"type": "node", "id": 11055557270, "lat": 40.7278835, "lon": -73.9932686}, {"type": "node", "id": 11055557271, "lat": 40.7284584, "lon": -73.9927843}, {"type": "node", "id": 11055557272, "lat": 40.7281807, "lon": -73.9918557}, {"type": "node", "id": 11055557273, "lat": 40.7280614, "lon": -73.9919881}, {"type": "node", "id": 11055557274, "lat": 40.7276541, "lon": -73.9915606}, {"type": "node", "id": 11055557275, "lat": 40.7279048, "lon": -73.9920986}, {"type": "node", "id": 11055557276, "lat": 40.7279927, "lon": -73.9914629}, {"type": "node", "id": 11055557278, "lat": 40.7282805, "lon": -73.9917677}, {"type": "node", "id": 11055557279, "lat": 40.7283413, "lon": -73.9918897}, {"type": "node", "id": 11055557280, "lat": 40.728307, "lon": -73.9919191}, {"type": "node", "id": 11055557281, "lat": 40.7286463, "lon": -73.9926141}, {"type": "node", "id": 11055557282, "lat": 40.7297518, "lon": -73.9916816}, {"type": "node", "id": 11055557283, "lat": 40.7298446, "lon": -73.9917228}, {"type": "node", "id": 11055557284, "lat": 40.7298547, "lon": -73.9916841}, {"type": "node", "id": 11055557285, "lat": 40.7298465, "lon": -73.9916345}, {"type": "node", "id": 11055557286, "lat": 40.7298412, "lon": -73.9916167}, {"type": "node", "id": 11055557287, "lat": 40.7298302, "lon": -73.9916059}, {"type": "node", "id": 11055557288, "lat": 40.7298135, "lon": -73.9916047}, {"type": "node", "id": 11055557289, "lat": 40.729801, "lon": -73.9916098}, {"type": "node", "id": 11055557290, "lat": 40.7297717, "lon": -73.9916402}, {"type": "node", "id": 11055557291, "lat": 40.7297579, "lon": -73.9916587}, {"type": "node", "id": 11055557292, "lat": 40.7297537, "lon": -73.9916705}, {"type": "node", "id": 11055557293, "lat": 40.7300034, "lon": -73.9927852}, {"type": "node", "id": 11055557294, "lat": 40.7299806, "lon": -73.9928383}, {"type": "node", "id": 11055557295, "lat": 40.7299955, "lon": -73.9928249}, {"type": "node", "id": 11055557296, "lat": 40.7300019, "lon": -73.9928068}, {"type": "node", "id": 11055557297, "lat": 40.7312787, "lon": -73.9941542}, {"type": "node", "id": 11055557298, "lat": 40.7312708, "lon": -73.9941405}, {"type": "node", "id": 11055557299, "lat": 40.7312607, "lon": -73.9941344}, {"type": "node", "id": 11055557300, "lat": 40.7312475, "lon": -73.9941328}, {"type": "node", "id": 11055557301, "lat": 40.7316866, "lon": -73.9951158}, {"type": "node", "id": 11055557302, "lat": 40.7312995, "lon": -73.9953986}, {"type": "node", "id": 11055557303, "lat": 40.7317845, "lon": -73.9966106}, {"type": "node", "id": 11055557304, "lat": 40.7317926, "lon": -73.9965895}, {"type": "node", "id": 11055557305, "lat": 40.7317906, "lon": -73.996604}, {"type": "node", "id": 11055557306, "lat": 40.7313443, "lon": -73.9969375}, {"type": "node", "id": 11055557307, "lat": 40.732198, "lon": -73.997421}, {"type": "node", "id": 11055557308, "lat": 40.7317424, "lon": -73.9977524}, {"type": "node", "id": 11435997261, "lat": 40.7314233, "lon": -73.9970991, "tags": {"barrier": "kerb", "kerb": "lowered", "tactile_paving": "yes", "wheelchair": "yes"}}, {"type": "node", "id": 11441007599, "lat": 40.7248407, "lon": -73.9970753, "tags": {"addr:housenumber": "588", "addr:postcode": "10012", "addr:street": "Broadway", "amenity": "cafe", "cuisine": "coffee_shop;pastry;italian", "drink:coffee": "yes", "drink:espresso": "yes", "drink:tea": "yes", "name": "Mangia", "opening_hours": "Mo-Fr 08:00-18:00; Sa 10:00-18:00", "outdoor_seating": "sidewalk", "phone": "+1-212-644-0422"}}, {"type": "node", "id": 11552752827, "lat": 40.7279334, "lon": -73.9989399}, {"type": "node", "id": 11552752828, "lat": 40.7279732, "lon": -73.9989062}, {"type": "node", "id": 11610991069, "lat": 40.7242387, "lon": -73.9961964, "tags": {"addr:city": "New York", "addr:housenumber": "284", "addr:postcode": "10012", "addr:state": "NY", "addr:street": "Lafayette Street", "amenity": "cafe", "branch": "SoHo", "name": "La Cabra", "opening_hours": "Mo-Fr 07:00-18:00; Sa-Su 08:00-18:00", "website": "https://www.lacabra.dk/pages/soho"}}, {"type": "node", "id": 11654745957, "lat": 40.7245453, "lon": -73.9943619, "tags": {"addr:housenumber": "55", "amenity": "cafe", "name": "Pop\u2019s Bagels", "opening_hours": "Mo-Su 06:00-16:00", "phone": "+1 646-370-1520", "takeaway": "only"}}, {"type": "node", "id": 11679760934, "lat": 40.7227424, "lon": -73.9971339, "tags": {"addr:housenumber": "240", "addr:street": "Lafayette Street", "amenity": "restaurant", "check_date": "2024-02-29", "cuisine": "burger", "diet:vegan": "yes", "level": "0", "name": "Beatnic", "opening_hours": "Mo-Fr 11:00-21:00; Sa-Su 12:00-21:00", "wheelchair": "yes"}}, {"type": "node", "id": 11725779437, "lat": 40.7256642, "lon": -73.9989626, "tags": {"addr:city": "New York", "addr:housenumber": "131", "addr:postcode": "10012", "addr:state": "NY", "addr:street": "Greene Street", "amenity": "cafe", "cuisine": "coffee_shop", "name": "Panther Coffee", "outdoor_seating": "no", "website": "https://panthercoffee.com/"}}, {"type": "node", "id": 11875083121, "lat": 40.7265973, "lon": -73.9953567, "tags": {"addr:housenumber": "648", "addr:street": "Broadway", "amenity": "bar", "internet_access": "wlan", "internet_access:fee": "no", "name": "Bleecker Street Bar", "sport": "billiards"}}, {"type": "node", "id": 11943260737, "lat": 40.724217, "lon": -73.9954001, "tags": {"addr:housenumber": "275", "addr:postcode": "10012", "addr:street": "Mulberry Street", "amenity": "restaurant", "cocktails": "yes", "cuisine": "italian", "drink:beer": "yes", "drink:liquor": "yes", "drink:wine": "yes", "name": "Torrisi", "opening_hours": "Mo 17:00-23:30; Tu-Sa 11:30-14:00,17:00-23:30", "website": "https://www.torrisinyc.com", "wheelchair": "yes"}}, {"type": "node", "id": 11943260739, "lat": 40.7246846, "lon": -73.994744, "tags": {"amenity": "bar", "drink:beer": "draught", "drink:liquor": "yes", "drink:wine": "yes", "happy_hours": "Mo-Fr 17:00-19:00, Sa 16:00-19:00, Su 17:00-19:00", "name": "Botantica Bar", "opening_hours": "Mo-We 17:00-01:00, Th-Fr 17:00-02:00, Sa 16:00-02:00, Su 17:00-01:00", "outdoor_seating": "street", "phone": "+1-212-343-7251", "website": "https://botanicabarnyc.com"}}, {"type": "node", "id": 12055614728, "lat": 40.7262725, "lon": -73.9946961, "tags": {"addr:city": "New York", "addr:housenumber": "340", "addr:postcode": "10012", "addr:street": "Lafayette Street", "amenity": "restaurant", "cuisine": "tacos", "name": "Los Tacos No.1", "opening_hours": "11:00-22:00", "website": "https://lostacos1.com"}}, {"type": "node", "id": 12055618255, "lat": 40.725889, "lon": -73.9954623, "tags": {"addr:city": "New York", "addr:housenumber": "166", "addr:postcode": "10012", "addr:street": "Crosby Street", "amenity": "cafe", "name": "Cafe Lyria", "opening_hours": "08:00-17:00"}}, {"type": "node", "id": 12055649675, "lat": 40.7246991, "lon": -73.9932247, "tags": {"addr:city": "New York", "addr:housenumber": "290", "addr:postcode": "10012", "addr:street": "Elizabeth Street", "amenity": "cafe", "cocktails": "yes", "cuisine": "italian;french;breakfast;pastry", "drink:beer": "yes", "drink:coffee": "yes", "drink:espresso": "yes", "drink:liquor": "yes", "drink:tea": "yes", "drink:wine": "yes", "name": "Raf's", "opening_hours": "Tu-Su 09:00-14:00,17:00-22:00+", "website": "https://rafsnewyork.com"}}, {"type": "node", "id": 12488365381, "lat": 40.7239709, "lon": -73.9946087, "tags": {"alt_name": "Axel Springer Haus", "name": "Axel Springer", "office": "company", "official_name": "Axel Springer SE"}}, {"type": "node", "id": 12496752010, "lat": 40.7226448, "lon": -73.9949556, "tags": {"addr:housenumber": "238", "addr:postcode": "10012", "addr:street": "Mott Street", "amenity": "restaurant", "cuisine": "mediterranean", "drink:wine": "yes", "name": "Boni & Mott", "website": "https://boniandmott.com"}}, {"type": "node", "id": 12926687501, "lat": 40.7257276, "lon": -73.9949997, "tags": {"amenity": "bar", "name": "Temple Bar"}}, {"type": "node", "id": 13322193023, "lat": 40.723877, "lon": -73.9946519, "tags": {"amenity": "restaurant", "cuisine": "sushi;thai", "delivery": "yes", "drink:beer": "yes", "name": "Sakura", "opening_hours": "Mo-Sa 10:45-22:30, Su 15:00-22:00", "outdoor_seating": "sidewalk", "phone": "+1-212-941-9888", "takeaway": "yes", "website": "https://www.sakurasushithai.com/"}}, {"type": "way", "id": 108156090, "nodes": [1241288747, 11055557247, 11055557246, 1241288720, 11055557248, 11055557249, 11055557250, 11055557255, 11055557256, 11055557257, 11055557251, 11055557258, 11055557259, 1241288742, 1241288740, 1241288737, 1241288744, 1241288724, 1241288717, 1241288722, 1241288753, 1241288735, 1241288730, 1241288732, 1241288733, 11055557266, 11055557267, 11055557268, 11055557264, 11055557269, 11055557270, 11055557271, 11055557273, 11055557275, 11055557274, 11055557276, 11055557272, 11055557278, 11055557279, 11055557280, 11055557281, 11055557282, 11055557292, 11055557291, 11055557290, 11055557289, 11055557288, 11055557287, 11055557286, 11055557285, 11055557284, 11055557283, 11055557293, 11055557296, 11055557295, 11055557294, 1241288754, 1241288726, 1241288746, 11055557300, 11055557299, 11055557298, 11055557297, 11055557301, 11055557302, 8309478837, 11055557304, 11055557305, 11055557303, 11055557306, 11435997261, 11055557308, 11055557307, 1241288727, 2077984659, 1241288747], "tags": {"addr:city": "New York", "addr:state": "NY", "amenity": "university", "education": "university", "internet_access": "wlan", "internet_access:fee": "no", "name": "New York University", "name:es": "Universidad de Nueva York", "name:fr": "Universit\u00e9 de New York", "name:ko": "\ub274\uc695 \ub300\ud559\uad50", "name:ru": "\u041d\u044c\u044e-\u0419\u043e\u0440\u043a\u0441\u043a\u0438\u0439 \u0443\u043d\u0438\u0432\u0435\u0440\u0441\u0438\u0442\u0435\u0442", "name:zh": "\u7ebd\u7ea6\u5927\u5b66", "operator": "New York University", "operator:type": "private", "short_name": "NYU", "source": "bing", "toilets:wheelchair": "yes", "website": "https://www.nyu.edu/", "wheelchair": "yes", "wikidata": "Q49210", "wikipedia": "en:New York University"}}, {"type": "way", "id": 247842935, "nodes": [2547036941, 2547036956, 2547036923, 2547036910, 2547036941], "tags": {"addr:housenumber": "686", "addr:postcode": "10012", "addr:street": "Broadway", "alt_name": "Great Jones Distillery", "amenity": "bar", "building": "yes", "craft": "distillery", "height": "14.9", "name": "Great Jones Distilling Co", "nycdoitt:bin": "1008507", "opening_hours": "We-Su 12:00-24:00", "phone": "+1-332-910-9880", "website": "https://greatjonesdistillingco.com"}}, {"type": "way", "id": 664153165, "nodes": [11552752827, 11552752828, 6216388193, 6216388194, 11552752827], "tags": {"leisure": "park", "name": "LaGuardia Corner Garden"}}, {"type": "way", "id": 1149319923, "nodes": [2180708702, 10692222096, 2547041173, 6634227885, 2180708702], "tags": {"addr:housenumber": "327", "addr:postcode": "10012", "addr:street": "Lafayette Street", "amenity": "cafe", "branch": "NoHo", "drink:matcha": "yes", "level": "0", "name": "Cha Cha Matcha", "opening_hours": "Mo-Fr 08:00-19:30; Sa, Su 09:00-19:30", "phone": "+1-646-895-9484", "website": "https://chachamatcha.com/pages/locations?location=new-york-city"}}, {"type": "way", "id": 1149319925, "nodes": [10692222098, 1692433915, 5067720936, 10692222097, 10692222098], "tags": {"addr:housenumber": "325", "addr:postcode": "10012", "addr:street": "Lafayette Street", "amenity": "cafe", "drink:coffee": "yes", "drink:espresso": "yes", "level": "0", "name": "Gasoline Alley Coffee", "opening_hours": "Mo-Fr 07:00-19:00; Sa-Su 08:00-19:00", "website": "https://www.gasolinealleycoffee.com"}}]}