{"version": 0.6, "generator": "Overpass API 0.7.62.8 e802775f", "osm3s": {"timestamp_osm_base": "2025-12-01T17:26:16Z", "copyright": "The data included in this document is from www.openstreetmap.org. The data is made available under ODbL."}, "elements": [{"type": "node", "id": 42433870, "lat": 40.7652352, "lon": -73.9731528}, {"type": "node", "id": 42453674, "lat": 40.7651788, "lon": -73.9725696}, {"type": "node", "id": 42453676, "lat": 40.7650614, "lon": -73.9726548}, {"type": "node", "id": 357620637, "lat": 40.7708333, "lon": -73.9801592, "tags": {"amenity": "school", "ele": "23", "gnis:feature_id": "2083444", "name": "Ethical Culture School"}}, {"type": "node", "id": 357647418, "lat": 40.769922, "lon": -73.9835253}, {"type": "node", "id": 1241742436, "lat": 40.7706962, "lon": -73.9849219}, {"type": "node", "id": 1241742443, "lat": 40.7704239, "lon": -73.9844476}, {"type": "node", "id": 1241742463, "lat": 40.7707139, "lon": -73.9842289}, {"type": "node", "id": 1241742474, "lat": 40.7714151, "lon": -73.9856328}, {"type": "node", "id": 1241742512, "lat": 40.7709559, "lon": -73.9853864}, {"type": "node", "id": 1241742578, "lat": 40.7709427, "lon": -73.9855467}, {"type": "node", "id": 1241742582, "lat": 40.7710438, "lon": -73.9851508}, {"type": "node", "id": 1241742598, "lat": 40.7709666, "lon": -73.9856191}, {"type": "node", "id": 1241742650, "lat": 40.7706549, "lon": -73.9849514}, {"type": "node", "id": 1241742673, "lat": 40.7711713, "lon": -73.9850594}, {"type": "node", "id": 1241742696, "lat": 40.7708201, "lon": -73.9851556}, {"type": "node", "id": 1241742731, "lat": 40.7708504, "lon": -73.9851336}, {"type": "node", "id": 1241742732, "lat": 40.7710765, "lon": -73.9858758}, {"type": "node", "id": 1241742735, "lat": 40.7709005, "lon": -73.9852535}, {"type": "node", "id": 1283225217, "lat": 40.7651705, "lon": -73.9732909}, {"type": "node", "id": 1383905311, "lat": 40.7664708, "lon": -73.9834647, "tags": {"name": "The Hearst Corporation", "office": "company", "wheelchair": "yes"}}, {"type": "node", "id": 1383909693, "lat": 40.767389, "lon": -73.9814374, "tags": {"amenity": "cafe", "branch": "Columbus_Circle", "brand": "Le Pain Quotidien", "brand:wikidata": "Q2046903", "cuisine": "coffee_shop", "name": "Le Pain Quotidien", "opening_hours": "Mo-Fr 07:00-20:00; Sa-Su 08:00-20:00", "outdoor_seating": "yes", "phone": "+13329106866", "takeaway": "yes", "website": "https://www.lepainquotidien.com/us/en/locations/3003:%20columbus_circle/1800-broadway-columbus-circle"}}, {"type": "node", "id": 1383921230, "lat": 40.7673137, "lon": -73.9826753, "tags": {"name": "Steelcase", "office": "company", "wheelchair": "yes"}}, {"type": "node", "id": 1383927735, "lat": 40.7675881, "lon": -73.9831167, "tags": {"addr:city": "New York", "addr:housenumber": "308", "addr:postcode": "10019", "addr:state": "NY", "addr:street": "West 58th Street", "air_conditioning": "yes", "amenity": "restaurant", "bar": "yes", "name": "Blue Ribbon Sushi Bar & Grill", "opening_hours": "Su-We 07:00-11:00, 12:00-23:00; Th-Sa 07:00-11:00, 12:00-00:00", "phone": "+1-212-397-0404", "reservation": "yes", "smoking": "no", "website": "https://www.blueribbonsushibarandgrillnyc.com/", "website:menu": "https://www.blueribbonsushibarandgrillnyc.com/menu"}}, {"type": "node", "id": 1383928351, "lat": 40.7677295, "lon": -73.9834926, "tags": {"addr:housenumber": "330", "addr:postcode": "10019", "addr:street": "West 58th Street", "amenity": "restaurant", "cocktails": "yes", "contact:facebook": "https://www.facebook.com/Sushi-damo-106127884314922/", "contact:instagram": "https://www.instagram.com/sushidamonewyork", "contact:twitter": "https://twitter.com/sushidamonewyork", "cuisine": "japanese", "drink:beer": "yes", "drink:sake": "yes", "drink:wine": "yes", "happy_hours": "Mo-Sa 17:00-19:00", "indoor_seating": "yes", "name": "Sushi Damo", "opening_hours": "Mo-We 12:00-23:00; Th-Sa 12:00-00:00; Su 12:00-22:30", "outdoor_seating": "no", "phone": "+1 212-707-8609", "reservation": "yes", "website": "https://sushidamo58.com/", "wheelchair": "yes"}}, {"type": "node", "id": 1383935410, "lat": 40.7675105, "lon": -73.9829426, "tags": {"addr:city": "New York", "addr:housenumber": "4", "addr:postcode": "10019", "addr:state": "NY", "addr:street": "Columbus Circle", "air_conditioning": "yes", "amenity": "cafe", "bar": "no", "branch": "58th & Eighth", "brand": "Starbucks", "brand:wikidata": "Q37158", "cuisine": "coffee_shop", "diet:dairy_free": "yes", "diet:gluten_free": "yes", "diet:vegan": "yes", "diet:vegetarian": "yes", "drink:soy_milk": "yes", "internet_access": "wlan", "internet_access:fee": "no", "level": "0", "name": "Starbucks", "official_name": "Starbucks Coffee", "opening_hours": "Mo-Sa 06:00-19:00; Su 07:00-18:00", "payment:american_express": "yes", "payment:cash": "yes", "payment:debit_cards": "yes", "payment:discover_card": "yes", "payment:mastercard": "yes", "payment:visa": "yes", "phone": "+1-212-265-0658", "reservation": "no", "smoking": "no", "takeaway": "yes", "website": "https://www.starbucks.com/store-locator/store/13904/58th-eighth-4-columbus-circle-new-york-ny-100191100-us", "wheelchair": "yes"}}, {"type": "node", "id": 1383942697, "lat": 40.7676336, "lon": -73.9812871, "tags": {"addr:city": "New York", "addr:housenumber": "240", "addr:postcode": "10019", "addr:state": "NY", "addr:street": "Central Park South", "air_conditioning": "yes", "amenity": "cafe", "bar": "no", "branch": "59th & Broadway", "brand": "Starbucks", "brand:wikidata": "Q37158", "check_date": "2025-01-17", "cuisine": "coffee_shop", "diet:dairy_free": "yes", "diet:gluten_free": "yes", "diet:vegan": "yes", "diet:vegetarian": "yes", "internet_access": "wlan", "internet_access:fee": "no", "name": "Starbucks", "official_name": "Starbucks Coffee", "opening_hours": "Mo-Fr 06:00-22:00; Sa-Su 07:00-22:00", "payment:american_express": "yes", "payment:cash": "yes", "payment:debit_cards": "yes", "payment:discover_card": "yes", "payment:mastercard": "yes", "payment:visa": "yes", "phone": "+1-718-635-9564", "reservation": "no", "takeaway": "yes", "website": "https://www.starbucks.com/store-locator/store/1030514/59th-broadway-240-central-park-south-new-york-ny-100191457-us"}}, {"type": "node", "id": 1383955759, "lat": 40.765737, "lon": -73.9801162, "tags": {"addr:city": "New York", "addr:housenumber": "205", "addr:postcode": "10019", "addr:state": "NY", "addr:street": "West 57th Street", "amenity": "restaurant", "check_date": "2025-05-30", "cuisine": "burger;sandwich;coffee_shop;ice_cream;american;pancake", "diet:gluten_free": "yes", "diet:vegan": "yes", "diet:vegetarian": "yes", "email": "Hello@CarnegieDiner.com", "internet_access": "wlan", "internet_access:fee": "customers", "level": "0", "name": "Carnegie Diner & Cafe", "opening_hours": "Su-Th 07:00-00:00; Fr-Sa 07:00-01:00", "payment:cash": "yes", "payment:credit_cards": "yes", "payment:debit_cards": "yes", "phone": "+1-212-664-1001", "website": "https://www.carnegiediner.com/location/carnegie-diner-central-park/"}}, {"type": "node", "id": 1383956543, "lat": 40.7656073, "lon": -73.9808744, "tags": {"addr:city": "New York", "addr:housenumber": "212", "addr:postcode": "10019", "addr:state": "NY", "addr:street": "West 57th Street", "amenity": "restaurant", "branch": "57th Street", "check_date": "2025-05-30", "cuisine": "diner", "delivery": "yes", "name": "Brooklyn Diner", "opening_hours": "Mo 07:30-23:00; Tu-Fr 07:30-24:00; Sa 07:00-24:00; Su 07:00-23:00", "phone": "+1 212-977-1957", "reservation": "yes", "takeaway": "yes", "website": "https://www.brooklyndiner.com/location/brooklyn-diner-57st/", "wheelchair": "no"}}, {"type": "node", "id": 1383956828, "lat": 40.7671365, "lon": -73.9814703, "tags": {"addr:city": "New York", "addr:housenumber": "1792", "addr:postcode": "10019", "addr:state": "NY", "addr:street": "Broadway", "amenity": "restaurant", "check_date": "2025-01-17", "cuisine": "pizza", "diet:vegetarian": "yes", "name": "Farinella", "opening_hours": "10:00-22:00", "outdoor_seating": "yes", "payment:american_express": "yes", "payment:debit_cards": "yes", "payment:discover_card": "yes", "payment:mastercard": "yes", "payment:visa": "yes", "phone": "+1 646-205-2230", "takeaway": "yes", "website": "https://www.farinellanyc.com/", "wheelchair": "yes"}}, {"type": "node", "id": 1659428983, "lat": 40.7678317, "lon": -73.9810502}, {"type": "node", "id": 1659429013, "lat": 40.7679435, "lon": -73.9812166}, {"type": "node", "id": 1659429064, "lat": 40.7680529, "lon": -73.9811947}, {"type": "node", "id": 1659429078, "lat": 40.7681647, "lon": -73.9812054}, {"type": "node", "id": 1659429162, "lat": 40.7682578, "lon": -73.9812424}, {"type": "node", "id": 1659429202, "lat": 40.7683388, "lon": -73.9812954}, {"type": "node", "id": 1659429228, "lat": 40.7684558, "lon": -73.9814075}, {"type": "node", "id": 1659429258, "lat": 40.7685782, "lon": -73.9812971}, {"type": "node", "id": 1825841723, "lat": 40.7682236, "lon": -73.981225}, {"type": "node", "id": 2226852197, "lat": 40.7689698, "lon": -73.9816665, "tags": {"addr:city": "New York", "addr:country": "US", "addr:housenumber": "1", "addr:postcode": "10023", "addr:state": "NY", "addr:street": "Central Park West", "air_conditioning": "yes", "amenity": "restaurant", "contact:website": "http://www.jean-georgesrestaurant.com/", "cuisine": "french", "name": "Jean-Georges", "opening_hours": "Mo-Su 11:45-14:30; Mo-Th 17:30-23:00; Fr-Sa 17:00-23:00; Su 17:30-22:30", "outdoor_seating": "yes", "phone": "+1 212-299-3900", "reservation": "yes", "stars": "3", "start_date": "1997", "website": "https://www.jean-georges.com/restaurants/united-states/new-york/jean-georges", "wikidata": "Q2604229", "wikipedia": "en:Jean-Georges"}}, {"type": "node", "id": 2423176814, "lat": 40.7694073, "lon": -73.9848933, "tags": {"addr:city": "New York", "addr:housenumber": "2", "addr:postcode": "10023", "addr:state": "NY", "addr:street": "Columbus Avenue", "air_conditioning": "yes", "amenity": "cafe", "bar": "no", "branch": "59th & Columbus", "brand": "Starbucks", "brand:wikidata": "Q37158", "cuisine": "coffee_shop", "diet:dairy_free": "yes", "diet:gluten_free": "yes", "diet:vegan": "yes", "diet:vegetarian": "yes", "internet_access": "wlan", "internet_access:fee": "no", "level": "0", "name": "Starbucks", "official_name": "Starbucks Coffee", "opening_hours": "Mo-Fr 06:00-20:00; Sa-Su 07:00-18:00", "payment:american_express": "yes", "payment:cash": "yes", "payment:discover_card": "yes", "payment:mastercard": "yes", "payment:visa": "yes", "phone": "+1 212-489-6757", "reservation": "no", "smoking": "no", "takeaway": "yes", "toilets:wheelchair": "no", "website": "https://www.starbucks.com/store-locator/store/8735/59th-columbus-2-columbus-avenue-new-york-ny-100236924-us", "wheelchair": "limited"}}, {"type": "node", "id": 2553978278, "lat": 40.7678877, "lon": -73.9811787}, {"type": "node", "id": 2653803373, "lat": 40.7659999, "lon": -73.9830265}, {"type": "node", "id": 2653803379, "lat": 40.7660518, "lon": -73.9829904}, {"type": "node", "id": 2653803407, "lat": 40.7662338, "lon": -73.9828588}, {"type": "node", "id": 2653803412, "lat": 40.7662904, "lon": -73.9830008}, {"type": "node", "id": 2710077003, "lat": 40.7708356, "lon": -73.9824721, "tags": {"addr:city": "New York", "addr:housenumber": "1881", "addr:postcode": "10023", "addr:state": "NY", "addr:street": "Broadway", "branch": "Manhattan", "brand": "American Automobile Association", "brand:wikidata": "Q463436", "fax": "+1-212-956-5199", "name": "American Automobile Association", "office": "insurance", "opening_hours": "Mo-Fr 09:00-17:00; Sa 09:00-14:00", "phone": "+1-212-586-1723", "shop": "travel_agency", "short_name": "AAA", "website": "https://branches.northeast.aaa.com/ny/manhattan", "wheelchair": "yes"}}, {"type": "node", "id": 2710077066, "lat": 40.7706417, "lon": -73.9816303}, {"type": "node", "id": 2710077086, "lat": 40.7709154, "lon": -73.9816371}, {"type": "node", "id": 2710077093, "lat": 40.77104, "lon": -73.9815468}, {"type": "node", "id": 2710082448, "lat": 40.7695287, "lon": -73.9828091}, {"type": "node", "id": 2710082471, "lat": 40.7693495, "lon": -73.9829155}, {"type": "node", "id": 2710082475, "lat": 40.7694373, "lon": -73.9823806}, {"type": "node", "id": 2710082476, "lat": 40.7694457, "lon": -73.9831451}, {"type": "node", "id": 2710082482, "lat": 40.7694946, "lon": -73.9828103}, {"type": "node", "id": 2710082483, "lat": 40.7695006, "lon": -73.9830527}, {"type": "node", "id": 2710082484, "lat": 40.7695021, "lon": -73.9828283}, {"type": "node", "id": 2710082485, "lat": 40.7695107, "lon": -73.9830011}, {"type": "node", "id": 2710082486, "lat": 40.7695175, "lon": -73.9830931}, {"type": "node", "id": 2710082487, "lat": 40.7695187, "lon": -73.9823824}, {"type": "node", "id": 2710082489, "lat": 40.7695212, "lon": -73.982791}, {"type": "node", "id": 2710082490, "lat": 40.7695249, "lon": -73.9830351}, {"type": "node", "id": 2710082493, "lat": 40.7695498, "lon": -73.9827703}, {"type": "node", "id": 2710082494, "lat": 40.7695562, "lon": -73.9829681}, {"type": "node", "id": 2710082495, "lat": 40.7695874, "lon": -73.9830425}, {"type": "node", "id": 2710082496, "lat": 40.7696015, "lon": -73.9827725}, {"type": "node", "id": 2710082498, "lat": 40.769646, "lon": -73.983}, {"type": "node", "id": 2710082503, "lat": 40.7697131, "lon": -73.9830314}, {"type": "node", "id": 2710082507, "lat": 40.769756, "lon": -73.9831338}, {"type": "node", "id": 2710082508, "lat": 40.7697568, "lon": -73.9823875}, {"type": "node", "id": 2710082509, "lat": 40.7698354, "lon": -73.9833233}, {"type": "node", "id": 2710082511, "lat": 40.7698555, "lon": -73.9833713}, {"type": "node", "id": 2710082525, "lat": 40.7700547, "lon": -73.9834258}, {"type": "node", "id": 2710082528, "lat": 40.7701198, "lon": -73.9833786}, {"type": "node", "id": 2710141721, "lat": 40.7691598, "lon": -73.9808882}, {"type": "node", "id": 2710141733, "lat": 40.7692432, "lon": -73.9808308}, {"type": "node", "id": 2797917337, "lat": 40.7663043, "lon": -73.9829515, "tags": {"amenity": "cafe", "brand": "Starbucks", "brand:wikidata": "Q37158", "check_date": "2014-04-18", "cuisine": "coffee_shop", "name": "Starbucks", "official_name": "Starbucks Coffee", "takeaway": "yes"}}, {"type": "node", "id": 2902437013, "lat": 40.7652192, "lon": -73.9730317}, {"type": "node", "id": 2973075958, "lat": 40.7658052, "lon": -73.9833111, "tags": {"addr:city": "New York", "addr:housenumber": "944", "addr:postcode": "10019", "addr:street": "8th Avenue", "amenity": "restaurant"}}, {"type": "node", "id": 3114918480, "lat": 40.7662367, "lon": -73.982866}, {"type": "node", "id": 3114918482, "lat": 40.7662399, "lon": -73.9828742}, {"type": "node", "id": 3114918485, "lat": 40.7662576, "lon": -73.9829186}, {"type": "node", "id": 3220130727, "lat": 40.7717706, "lon": -73.9859267}, {"type": "node", "id": 3220130730, "lat": 40.7718095, "lon": -73.9858998}, {"type": "node", "id": 3220130734, "lat": 40.771971, "lon": -73.9857832}, {"type": "node", "id": 3220130736, "lat": 40.7719802, "lon": -73.9857763}, {"type": "node", "id": 3272863061, "lat": 40.7709824, "lon": -73.9866234}, {"type": "node", "id": 3272863063, "lat": 40.7711608, "lon": -73.9864979}, {"type": "node", "id": 3392519825, "lat": 40.7797018, "lon": -73.9618727}, {"type": "node", "id": 3392519827, "lat": 40.7798051, "lon": -73.9617979}, {"type": "node", "id": 3392519829, "lat": 40.7791667, "lon": -73.9622595}, {"type": "node", "id": 3392519847, "lat": 40.7790627, "lon": -73.9623347}, {"type": "node", "id": 3392519860, "lat": 40.7785304, "lon": -73.9627195}, {"type": "node", "id": 3392519861, "lat": 40.7784331, "lon": -73.9627898}, {"type": "node", "id": 3602661070, "lat": 40.7665973, "lon": -73.9715326}, {"type": "node", "id": 3602661071, "lat": 40.7680224, "lon": -73.9704918}, {"type": "node", "id": 3785197547, "lat": 40.767821, "lon": -73.9836723, "tags": {"addr:city": "New York", "addr:housenumber": "330", "addr:postcode": "10019", "addr:state": "NY", "addr:street": "West 58th Street", "amenity": "bar", "contact:phone": "+1-212-707-8248", "name": "Red Cork", "opening_hours": "07:00-23:00"}}, {"type": "node", "id": 3932353664, "lat": 40.7685324, "lon": -73.9827663, "tags": {"addr:city": "New York", "addr:country": "US", "addr:floor": "4", "addr:housenumber": "10", "addr:postcode": "10019", "addr:state": "NY", "addr:street": "Columbus Circle", "amenity": "restaurant", "check_date": "2023-01-13", "contact:phone": "+1-212-823-9807", "contact:website": "http://www.masanyc.com/", "cuisine": "sushi", "level": "3", "level:ref": "4", "name": "Masa", "stars": "3", "wikidata": "Q12408773", "wikipedia": "en:Masa (restaurant)"}}, {"type": "node", "id": 3932353665, "lat": 40.7682549, "lon": -73.9828519, "tags": {"addr:city": "New York", "addr:country": "US", "addr:floor": "4", "addr:housenumber": "10", "addr:postcode": "10019", "addr:state": "NY", "addr:street": "Columbus Circle", "amenity": "restaurant", "contact:email": "nyinfo@perseny.com", "contact:phone": "+1-212-823-9335", "contact:website": "http://www.thomaskeller.com/per-se", "cuisine": "american;french", "level": "4", "name": "Per Se", "opening_hours": "Mo-Su 17:30-22:00; Fr-Su 11:30-13:30", "operator": "Thomas Keller", "smoking": "no", "stars": "3", "wheelchair": "yes", "wikidata": "Q1255039", "wikipedia": "en:Per Se (restaurant)"}}, {"type": "node", "id": 4128896890, "lat": 40.7671718, "lon": -73.9835181, "tags": {"addr:city": "New York", "addr:housenumber": "313", "addr:state": "NY", "addr:street": "West 57th Street", "air_conditioning": "yes", "amenity": "restaurant", "cocktails": "yes", "diet:gluten_free": "yes", "diet:organic": "yes", "diet:vegan": "yes", "diet:vegetarian": "yes", "drink:beer": "yes", "drink:wine": "yes", "name": "Bareburger", "opening_hours": "Fr, Sa 11:00-23:00; Mo, Tu, Su 11:00-22:00; We, Th 11:00-22:30", "opening_hours:covid19": "12:00-21:00", "organic": "yes", "outdoor_seating": "yes", "phone": "+1-212-685-2273", "website": "https://www.bareburger.com/"}}, {"type": "node", "id": 4149450808, "lat": 40.7674386, "lon": -73.9839741, "tags": {"addr:city": "New York", "addr:housenumber": "325", "addr:postcode": "10019", "addr:state": "NY", "addr:street": "West 57th Street", "air_conditioning": "yes", "amenity": "restaurant", "cuisine": "turkish", "delivery": "yes", "diet:gluten_free": "yes", "diet:vegan": "yes", "diet:vegetarian": "yes", "email": "info@abarestaurant.com", "fax": "+1-212-969-9863", "name": "ABA Turkish Restaurant", "opening_hours": "11:00-22:00", "outdoor_seating": "yes", "phone": "+1-212-969-1782", "reservation": "yes", "smoking": "no", "takeaway": "yes", "website": "https://abarestaurant.com/"}}, {"type": "node", "id": 4347535694, "lat": 40.7647683, "lon": -73.9735861}, {"type": "node", "id": 4347550058, "lat": 40.7684879, "lon": -73.9813785}, {"type": "node", "id": 4347550067, "lat": 40.7686118, "lon": -73.9812638}, {"type": "node", "id": 4347550072, "lat": 40.7678954, "lon": -73.9811958}, {"type": "node", "id": 4546109664, "lat": 40.7660578, "lon": -73.9831676}, {"type": "node", "id": 4840395322, "lat": 40.7657503, "lon": -73.9833487, "tags": {"addr:postcode": "10019", "amenity": "restaurant", "cuisine": "indian", "name": "Deep Indian Kitchen", "opening_hours": "Mo-Fr 10:30-22:00; Sa-Su 11:00-21:00", "phone": "+16469187778"}}, {"type": "node", "id": 4957074132, "lat": 40.7684196, "lon": -73.9851251, "tags": {"addr:city": "New York", "addr:housenumber": "370", "addr:postcode": "10019", "addr:state": "NY", "addr:street": "West 58th Street", "air_conditioning": "yes", "amenity": "cafe", "bar": "no", "cuisine": "pizza;pasta;salad;pastry;italian", "delivery": "yes", "fax": "+1-212-245-0144", "level": "0", "name": "Amore Pizza Cafe", "opening_hours": "Su-Th 10:00-02:00; Fr-Sa 10:00-04:00", "outdoor_seating": "no", "payment:cash": "yes", "payment:credit_cards": "yes", "phone": "+1-212-581-4200", "reservation": "no", "smoking": "no", "takeaway": "yes", "toilets:wheelchair": "no", "website": "http://amorepizzacafe.com/", "wheelchair": "yes"}}, {"type": "node", "id": 4997760450, "lat": 40.7690783, "lon": -73.9809437}, {"type": "node", "id": 5344178933, "lat": 40.7658518, "lon": -73.9837506, "tags": {"addr:housenumber": "939", "addr:postcode": "10019", "addr:street": "8th Avenue", "amenity": "restaurant", "cuisine": "cuban", "delivery": "Mo-Fr, Su: 12:00-22:30; Sa 12:00-20:00", "email": "info@guantanamerany.com", "facebook": "guantanameranyc", "happy_hours": "Mo 12:00-24:00; Tu-Fr 12:00-18:00", "instagram": "guantanamerany", "name": "Guantanamera", "opening_hours": "Mo-Th, Su 12:00-00:00; Fr, Sa 12:00-01:00", "phone": "+1 212-262-5354", "reservation": "yes", "takeaway": "yes", "twitter": "GuantanameraNY", "website": "https://guantanamerany.com/nyc.html", "wheelchair": "yes"}}, {"type": "node", "id": 5859255847, "lat": 40.7659061, "lon": -73.9814885, "tags": {"addr:housenumber": "224", "addr:street": "West 57th Street", "name": "Open Society Foundations", "office": "foundation", "opening_hours": "Mo-Fr 10:00-16:00", "phone": "+1-212-548-0600", "website": "https://opensocietyfoundations.org/"}}, {"type": "node", "id": 6422307085, "lat": 40.7687105, "lon": -73.9827974, "tags": {"addr:city": "New York", "addr:housenumber": "10", "addr:postcode": "10019", "addr:state": "NY", "addr:street": "Columbus Circle", "air_conditioning": "yes", "amenity": "cafe", "branch": "Columbus Circle", "cuisine": "french;juice", "delivery": "yes", "diet:gluten_free": "yes", "diet:lactose_free": "yes", "diet:vegan": "yes", "diet:vegetarian": "yes", "drink:beer": "served", "drink:wine": "served", "email": "cc@tartinery.com", "level": "2", "level:ref": "3", "name": "Tartinery", "opening_hours": "Mo-Sa 08:00-20:00; Su 08:00-19:00", "outdoor_seating": "no", "phone": "+1-917-409-1991", "reservation": "no", "smoking": "no", "takeaway": "yes", "website": "https://www.tartinery.com/location/columbus-circle/"}}, {"type": "node", "id": 6452665615, "lat": 40.7716018, "lon": -73.9855252}, {"type": "node", "id": 6469023487, "lat": 40.7711449, "lon": -73.9858752}, {"type": "node", "id": 6469023488, "lat": 40.7711239, "lon": -73.9859346}, {"type": "node", "id": 6469023496, "lat": 40.7711664, "lon": -73.9860225}, {"type": "node", "id": 6469023499, "lat": 40.7713207, "lon": -73.9860876}, {"type": "node", "id": 6469023500, "lat": 40.7711582, "lon": -73.9860387}, {"type": "node", "id": 6469023502, "lat": 40.771209, "lon": -73.986097}, {"type": "node", "id": 6469023503, "lat": 40.771272, "lon": -73.9861111}, {"type": "node", "id": 6473165620, "lat": 40.7715338, "lon": -73.9865926}, {"type": "node", "id": 6473165621, "lat": 40.7713048, "lon": -73.9867583}, {"type": "node", "id": 6625281401, "lat": 40.7708794, "lon": -73.9811652}, {"type": "node", "id": 6625281402, "lat": 40.7705521, "lon": -73.9814166}, {"type": "node", "id": 6794406099, "lat": 40.7865399, "lon": -73.9682398}, {"type": "node", "id": 6794406110, "lat": 40.7774861, "lon": -73.9748348}, {"type": "node", "id": 6838446016, "lat": 40.7682979, "lon": -73.9812666}, {"type": "node", "id": 6838446017, "lat": 40.7680759, "lon": -73.9811958}, {"type": "node", "id": 6838446021, "lat": 40.7680234, "lon": -73.9811958}, {"type": "node", "id": 6943963085, "lat": 40.7674142, "lon": -73.9831796, "tags": {"amenity": "bar", "name": "above 6 sushi rooftop bar"}}, {"type": "node", "id": 6991124627, "lat": 40.7982164, "lon": -73.9527043}, {"type": "node", "id": 6991124628, "lat": 40.7840726, "lon": -73.9700242}, {"type": "node", "id": 6991124629, "lat": 40.7684005, "lon": -73.9813532}, {"type": "node", "id": 6991124630, "lat": 40.7968361, "lon": -73.9498019}, {"type": "node", "id": 6991124631, "lat": 40.7717669, "lon": -73.9789928}, {"type": "node", "id": 6991124632, "lat": 40.7760769, "lon": -73.9758687}, {"type": "node", "id": 6991124633, "lat": 40.7923871, "lon": -73.9639878}, {"type": "node", "id": 6991124634, "lat": 40.7999135, "lon": -73.9584444}, {"type": "node", "id": 6991124635, "lat": 40.796969, "lon": -73.9497623}, {"type": "node", "id": 6991124636, "lat": 40.7794669, "lon": -73.9734015}, {"type": "node", "id": 6991124637, "lat": 40.8002443, "lon": -73.9579135}, {"type": "node", "id": 6991124638, "lat": 40.7994129, "lon": -73.9588184}, {"type": "node", "id": 6991124639, "lat": 40.799237, "lon": -73.955126}, {"type": "node", "id": 6991124640, "lat": 40.783752, "lon": -73.9702619}, {"type": "node", "id": 6991124641, "lat": 40.7968656, "lon": -73.9497938}, {"type": "node", "id": 6991124643, "lat": 40.7762343, "lon": -73.9757406}, {"type": "node", "id": 6991124644, "lat": 40.7942007, "lon": -73.9626287}, {"type": "node", "id": 6991124645, "lat": 40.8001744, "lon": -73.9582454}, {"type": "node", "id": 6991124646, "lat": 40.7967264, "lon": -73.9497688}, {"type": "node", "id": 6991124648, "lat": 40.8002612, "lon": -73.9578609}, {"type": "node", "id": 6991124649, "lat": 40.7995306, "lon": -73.9587263}, {"type": "node", "id": 6991124650, "lat": 40.7699787, "lon": -73.9803189}, {"type": "node", "id": 6991124651, "lat": 40.8002923, "lon": -73.9576536}, {"type": "node", "id": 6991124652, "lat": 40.7845135, "lon": -73.9697076}, {"type": "node", "id": 6991124653, "lat": 40.7679925, "lon": -73.9812024}, {"type": "node", "id": 6991124654, "lat": 40.7968924, "lon": -73.9497839}, {"type": "node", "id": 6991124656, "lat": 40.795929, "lon": -73.9613682}, {"type": "node", "id": 6991124657, "lat": 40.8001889, "lon": -73.9582116}, {"type": "node", "id": 6991124658, "lat": 40.7967123, "lon": -73.9497575}, {"type": "node", "id": 6991124659, "lat": 40.7804911, "lon": -73.9726547}, {"type": "node", "id": 6991124660, "lat": 40.8002711, "lon": -73.9578357}, {"type": "node", "id": 6991124661, "lat": 40.8001649, "lon": -73.9582594}, {"type": "node", "id": 6991124662, "lat": 40.8002035, "lon": -73.9581067}, {"type": "node", "id": 6991124663, "lat": 40.784584, "lon": -73.969659}, {"type": "node", "id": 6991124664, "lat": 40.7681234, "lon": -73.9811983}, {"type": "node", "id": 6991124665, "lat": 40.7969178, "lon": -73.9497731}, {"type": "node", "id": 6991124666, "lat": 40.7755038, "lon": -73.9762831}, {"type": "node", "id": 6991124667, "lat": 40.7959607, "lon": -73.9613456}, {"type": "node", "id": 6991124668, "lat": 40.8001932, "lon": -73.9581901}, {"type": "node", "id": 6991124669, "lat": 40.7969775, "lon": -73.9497673}, {"type": "node", "id": 6991124671, "lat": 40.8002816, "lon": -73.9578121}, {"type": "node", "id": 6991124672, "lat": 40.8001812, "lon": -73.9582322}, {"type": "node", "id": 6991124673, "lat": 40.7900902, "lon": -73.965651}, {"type": "node", "id": 6991124674, "lat": 40.7851403, "lon": -73.9692564}, {"type": "node", "id": 6991124676, "lat": 40.7967913, "lon": -73.9498014}, {"type": "node", "id": 6991124677, "lat": 40.7742872, "lon": -73.9771742}, {"type": "node", "id": 6991124678, "lat": 40.8001916, "lon": -73.9582004}, {"type": "node", "id": 6991124679, "lat": 40.7978697, "lon": -73.9599617}, {"type": "node", "id": 6991124680, "lat": 40.8001953, "lon": -73.9581702}, {"type": "node", "id": 6991124681, "lat": 40.7969865, "lon": -73.9497883}, {"type": "node", "id": 6991124682, "lat": 40.7806502, "lon": -73.9725365}, {"type": "node", "id": 6991124683, "lat": 40.8003117, "lon": -73.9577424}, {"type": "node", "id": 6991124684, "lat": 40.8001852, "lon": -73.9582225}, {"type": "node", "id": 6991136385, "lat": 40.7706802, "lon": -73.9797918}, {"type": "node", "id": 6991136386, "lat": 40.7878736, "lon": -73.9672728}, {"type": "node", "id": 6991136387, "lat": 40.7853303, "lon": -73.969113}, {"type": "node", "id": 6991136389, "lat": 40.7974831, "lon": -73.9509739}, {"type": "node", "id": 6991136390, "lat": 40.7784888, "lon": -73.9741143}, {"type": "node", "id": 6991136391, "lat": 40.8003048, "lon": -73.9576827}, {"type": "node", "id": 6991136392, "lat": 40.8001996, "lon": -73.958139}, {"type": "node", "id": 6991136393, "lat": 40.79751, "lon": -73.9510383}, {"type": "node", "id": 6991136394, "lat": 40.781843, "lon": -73.9716566}, {"type": "node", "id": 6991136395, "lat": 40.8003107, "lon": -73.9577049}, {"type": "node", "id": 6991136397, "lat": 40.7707071, "lon": -73.9797693}, {"type": "node", "id": 6991136398, "lat": 40.7877836, "lon": -73.9673372}, {"type": "node", "id": 6991136400, "lat": 40.7971833, "lon": -73.9502608}, {"type": "node", "id": 6991136402, "lat": 40.8003135, "lon": -73.9577265}, {"type": "node", "id": 6991136403, "lat": 40.7981253, "lon": -73.959776}, {"type": "node", "id": 6991136404, "lat": 40.8002065, "lon": -73.9580742}, {"type": "node", "id": 6991136407, "lat": 40.7995974, "lon": -73.9559873}, {"type": "node", "id": 6991136408, "lat": 40.8003077, "lon": -73.9577602}, {"type": "node", "id": 6991136409, "lat": 40.7714634, "lon": -73.9792112}, {"type": "node", "id": 6991136410, "lat": 40.7729298, "lon": -73.9781445}, {"type": "node", "id": 6991136411, "lat": 40.7915356, "lon": -73.9646045}, {"type": "node", "id": 6991136413, "lat": 40.7969378, "lon": -73.9497626}, {"type": "node", "id": 6991136415, "lat": 40.8002523, "lon": -73.9578853}, {"type": "node", "id": 6991136416, "lat": 40.7991133, "lon": -73.9590607}, {"type": "node", "id": 6991136417, "lat": 40.7980661, "lon": -73.952353}, {"type": "node", "id": 6991136418, "lat": 40.7821005, "lon": -73.9714695}, {"type": "node", "id": 6991136419, "lat": 40.7994309, "lon": -73.9555925}, {"type": "node", "id": 6991136421, "lat": 40.7716807, "lon": -73.9790604}, {"type": "node", "id": 6991136422, "lat": 40.7742602, "lon": -73.9771962}, {"type": "node", "id": 6991136423, "lat": 40.7916521, "lon": -73.9645157}, {"type": "node", "id": 6991136424, "lat": 40.7894415, "lon": -73.9661212}, {"type": "node", "id": 6991136425, "lat": 40.7969467, "lon": -73.9497591}, {"type": "node", "id": 6991136426, "lat": 40.7790432, "lon": -73.973712}, {"type": "node", "id": 6991136427, "lat": 40.8002352, "lon": -73.9579531}, {"type": "node", "id": 6991136428, "lat": 40.7992085, "lon": -73.9589862}, {"type": "node", "id": 6991136430, "lat": 40.7834445, "lon": -73.9704966}, {"type": "node", "id": 6991136432, "lat": 40.772256, "lon": -73.9786494}, {"type": "node", "id": 6991136433, "lat": 40.7730567, "lon": -73.9780733}, {"type": "node", "id": 6991136435, "lat": 40.7992931, "lon": -73.9589165}, {"type": "node", "id": 6991136436, "lat": 40.7969586, "lon": -73.9497571}, {"type": "node", "id": 6991136437, "lat": 40.7793708, "lon": -73.9734706}, {"type": "node", "id": 6991136438, "lat": 40.8002111, "lon": -73.958039}, {"type": "node", "id": 6991136439, "lat": 40.7992378, "lon": -73.9589604}, {"type": "node", "id": 6991400307, "lat": 40.777239, "lon": -73.9637321}, {"type": "node", "id": 6991400308, "lat": 40.7843102, "lon": -73.9586307}, {"type": "node", "id": 6991400309, "lat": 40.7949343, "lon": -73.9508105}, {"type": "node", "id": 6991400312, "lat": 40.7950221, "lon": -73.9507494}, {"type": "node", "id": 6991400313, "lat": 40.7917411, "lon": -73.9531393}, {"type": "node", "id": 6991400314, "lat": 40.7686749, "lon": -73.9699764}, {"type": "node", "id": 6991400315, "lat": 40.7962602, "lon": -73.9498487}, {"type": "node", "id": 6991400316, "lat": 40.7965935, "lon": -73.9496061}, {"type": "node", "id": 6991400317, "lat": 40.7937493, "lon": -73.9516863}, {"type": "node", "id": 6991400319, "lat": 40.7746546, "lon": -73.9656177}, {"type": "node", "id": 6991400322, "lat": 40.7966288, "lon": -73.9496299}, {"type": "node", "id": 6991400323, "lat": 40.7943243, "lon": -73.9512675}, {"type": "node", "id": 6991400324, "lat": 40.7804146, "lon": -73.961481}, {"type": "node", "id": 6991400326, "lat": 40.770653, "lon": -73.968529}, {"type": "node", "id": 6991400329, "lat": 40.7966549, "lon": -73.9496802}, {"type": "node", "id": 6991400334, "lat": 40.7656121, "lon": -73.9722517}, {"type": "node", "id": 6991400337, "lat": 40.7966959, "lon": -73.9497422}, {"type": "node", "id": 6991400339, "lat": 40.7929767, "lon": -73.9522388}, {"type": "node", "id": 6991400342, "lat": 40.768135, "lon": -73.9704097}, {"type": "node", "id": 6991400344, "lat": 40.78096, "lon": -73.9610479}, {"type": "node", "id": 6991400345, "lat": 40.7888635, "lon": -73.9552971}, {"type": "node", "id": 6991400346, "lat": 40.7687628, "lon": -73.9699119}, {"type": "node", "id": 6991400348, "lat": 40.7961426, "lon": -73.9499364}, {"type": "node", "id": 6991400350, "lat": 40.7935351, "lon": -73.9518348}, {"type": "node", "id": 6991400355, "lat": 40.7966161, "lon": -73.9496189}, {"type": "node", "id": 6991400360, "lat": 40.7966473, "lon": -73.9496618}, {"type": "node", "id": 6991400366, "lat": 40.7966815, "lon": -73.9497244}, {"type": "node", "id": 6991400367, "lat": 40.7857067, "lon": -73.9575733}, {"type": "node", "id": 6991400368, "lat": 40.7912074, "lon": -73.9535256}, {"type": "node", "id": 6991400370, "lat": 40.7775416, "lon": -73.9635111}, {"type": "node", "id": 6991400371, "lat": 40.7674883, "lon": -73.9708816}, {"type": "node", "id": 6991400374, "lat": 40.7886997, "lon": -73.9554172}, {"type": "node", "id": 6991400375, "lat": 40.7775944, "lon": -73.9634737}, {"type": "node", "id": 6991400378, "lat": 40.7956392, "lon": -73.9503032}, {"type": "node", "id": 6991400379, "lat": 40.7839459, "lon": -73.9588854}, {"type": "node", "id": 6991400380, "lat": 40.7918681, "lon": -73.9530523}, {"type": "node", "id": 6991400383, "lat": 40.7965179, "lon": -73.9496631}, {"type": "node", "id": 6991400384, "lat": 40.796606, "lon": -73.9496116}, {"type": "node", "id": 6991414887, "lat": 40.7738129, "lon": -73.9662265}, {"type": "node", "id": 6991414890, "lat": 40.7966385, "lon": -73.9496411}, {"type": "node", "id": 6991414892, "lat": 40.7808832, "lon": -73.9611242}, {"type": "node", "id": 6991414894, "lat": 40.776801, "lon": -73.9640526}, {"type": "node", "id": 6991414897, "lat": 40.7966668, "lon": -73.9497027}, {"type": "node", "id": 6991414898, "lat": 40.788053, "lon": -73.9558772}, {"type": "node", "id": 6991414900, "lat": 40.7776896, "lon": -73.9634089}, {"type": "node", "id": 6991414901, "lat": 40.7673907, "lon": -73.970953}, {"type": "node", "id": 7093980560, "lat": 40.7803339, "lon": -73.9615543}, {"type": "node", "id": 7093980567, "lat": 40.781666, "lon": -73.9605506}, {"type": "node", "id": 7104620799, "lat": 40.7798279, "lon": -73.973142}, {"type": "node", "id": 7120586338, "lat": 40.7854255, "lon": -73.9690437}, {"type": "node", "id": 7146903295, "lat": 40.7820679, "lon": -73.9714884}, {"type": "node", "id": 7146903298, "lat": 40.7851954, "lon": -73.9692206}, {"type": "node", "id": 7448738070, "lat": 40.7710753, "lon": -73.983631}, {"type": "node", "id": 7448738072, "lat": 40.770216, "lon": -73.9842655}, {"type": "node", "id": 7448738073, "lat": 40.7703259, "lon": -73.9845175}, {"type": "node", "id": 7448783486, "lat": 40.7703821, "lon": -73.9844775}, {"type": "node", "id": 7474716551, "lat": 40.7711876, "lon": -73.986479}, {"type": "node", "id": 7474729993, "lat": 40.7708865, "lon": -73.9863973}, {"type": "node", "id": 7474730023, "lat": 40.7709514, "lon": -73.9865455}, {"type": "node", "id": 7504586055, "lat": 40.7707993, "lon": -73.9861911}, {"type": "node", "id": 7551756702, "lat": 40.7702395, "lon": -73.9832922}, {"type": "node", "id": 7712324738, "lat": 40.7702203, "lon": -73.9845945, "tags": {"entrance": "main", "level": "0", "wheelchair": "yes"}}, {"type": "node", "id": 7785624616, "lat": 40.7777161, "lon": -73.9633886}, {"type": "node", "id": 7785624620, "lat": 40.7775657, "lon": -73.963494}, {"type": "node", "id": 7785624629, "lat": 40.7776951, "lon": -73.9633211}, {"type": "node", "id": 7785624644, "lat": 40.7776925, "lon": -73.9633258}, {"type": "node", "id": 7785624660, "lat": 40.7776932, "lon": -73.963339}, {"type": "node", "id": 7785624681, "lat": 40.7776914, "lon": -73.9633312}, {"type": "node", "id": 7830757189, "lat": 40.7679176, "lon": -73.9812094}, {"type": "node", "id": 7830757207, "lat": 40.765304, "lon": -73.9724768}, {"type": "node", "id": 8032579495, "lat": 40.7802617, "lon": -73.961464}, {"type": "node", "id": 8039941085, "lat": 40.7779237, "lon": -73.9631581}, {"type": "node", "id": 8333740825, "lat": 40.7675041, "lon": -73.9811088, "tags": {"amenity": "restaurant", "name": "Marea", "wheelchair": "yes"}}, {"type": "node", "id": 8676382818, "lat": 40.7702758, "lon": -73.9848156}, {"type": "node", "id": 8676382821, "lat": 40.7701926, "lon": -73.9846143}, {"type": "node", "id": 8695205603, "lat": 40.7709386, "lon": -73.985458}, {"type": "node", "id": 9418170698, "lat": 40.7684638, "lon": -73.9814003}, {"type": "node", "id": 9446258121, "lat": 40.7698582, "lon": -73.9823912}, {"type": "node", "id": 10078967833, "lat": 40.7700333, "lon": -73.9844008}, {"type": "node", "id": 10078967834, "lat": 40.7711868, "lon": -73.985817}, {"type": "node", "id": 10087482396, "lat": 40.7663723, "lon": -73.9796629, "tags": {"addr:city": "New York", "addr:housenumber": "922", "addr:postcode": "10019", "addr:state": "NY", "addr:street": "7th Avenue", "amenity": "restaurant", "bar": "yes", "contact:website": "https://www.brasseriecognac.com/CentralParksouth", "cuisine": "french;bistro", "internet_access": "wlan", "internet_access:fee": "no", "name": "Brasserie Cognac Central Park South", "opening_hours": "Mo-Su 09:00-22:00", "phone": "+1-212-470-5087", "website:menu": "https://brasseriecognac.com/CentralParksouth#Menus", "wheelchair": "yes"}}, {"type": "node", "id": 10552774830, "lat": 40.7678592, "lon": -73.9827995, "tags": {"addr:floor": "3", "addr:housenumber": "10", "addr:street": "Columbus Circle", "air_conditioning": "yes", "amenity": "restaurant", "check_date": "2023-01-13", "level": "2", "level:ref": "3", "name": "Bluebird London NYC", "outdoor_seating": "no", "payment:american_express": "yes", "payment:debit_cards": "yes", "payment:discover_card": "yes", "payment:mastercard": "yes", "payment:visa": "yes", "phone": "+1-317-682-2100", "website": "https://www.bluebirdlondon.nyc/"}}, {"type": "node", "id": 10863921029, "lat": 40.7693903, "lon": -73.9828859}, {"type": "node", "id": 11107632623, "lat": 40.7700572, "lon": -73.9828614}, {"type": "node", "id": 11186999469, "lat": 40.7702631, "lon": -73.9845638}, {"type": "node", "id": 11359481056, "lat": 40.7647438, "lon": -73.9737496}, {"type": "node", "id": 11359481057, "lat": 40.7647331, "lon": -73.9737148, "tags": {"barrier": "kerb", "kerb": "lowered", "tactile_paving": "no", "wheelchair": "yes"}}, {"type": "node", "id": 11359481058, "lat": 40.7647275, "lon": -73.9736854}, {"type": "node", "id": 11359481059, "lat": 40.7647308, "lon": -73.9736453, "tags": {"barrier": "kerb", "kerb": "raised", "tactile_paving": "no", "wheelchair": "no"}}, {"type": "node", "id": 11359481060, "lat": 40.7647396, "lon": -73.9736203}, {"type": "node", "id": 11359481061, "lat": 40.7647514, "lon": -73.9735999}, {"type": "node", "id": 11359481062, "lat": 40.7658542, "lon": -73.9763836}, {"type": "node", "id": 11359481063, "lat": 40.7670323, "lon": -73.9791766}, {"type": "node", "id": 11359524187, "lat": 40.7651992, "lon": -73.9732538}, {"type": "node", "id": 11359524188, "lat": 40.765227, "lon": -73.9731998}, {"type": "node", "id": 11359524189, "lat": 40.7652342, "lon": -73.9731074}, {"type": "node", "id": 11359524190, "lat": 40.7652302, "lon": -73.9730738}, {"type": "node", "id": 11359524459, "lat": 40.7652163, "lon": -73.9732245, "tags": {"barrier": "kerb", "kerb": "flush", "tactile_paving": "no", "wheelchair": "yes"}}, {"type": "node", "id": 11427056758, "lat": 40.7968272, "lon": -73.9607174}, {"type": "node", "id": 11427056759, "lat": 40.7967535, "lon": -73.9607377}, {"type": "node", "id": 11427056760, "lat": 40.7968165, "lon": -73.9606922}, {"type": "node", "id": 11427056761, "lat": 40.7967641, "lon": -73.9607632}, {"type": "node", "id": 11506163553, "lat": 40.7674398, "lon": -73.9820336, "tags": {"addr:city": "New York", "addr:housenumber": "2", "addr:postcode": "10019", "addr:state": "NY", "addr:street": "Columbus Circle", "amenity": "restaurant", "cuisine": "american", "name": "Robert", "opening_hours": "Mo-Th 12:00-22:00; Fr 12:00-23:00; Sa 11:00-23:00; Su 11:00-22:00", "phone": "+1-212-299-7730", "reservation": "yes", "website": "https://robertnyc.com/"}}, {"type": "node", "id": 11774131269, "lat": 40.7658115, "lon": -73.9839012, "tags": {"amenity": "restaurant", "cuisine": "pizza", "name": "Little Italy Pizza"}}, {"type": "node", "id": 12207775922, "lat": 40.7686801, "lon": -73.9824413, "tags": {"addr:city": "New York", "addr:floor": "3", "addr:housenumber": "10", "addr:postcode": "10019", "addr:state": "NY", "addr:street": "Columbus Circle", "amenity": "restaurant", "cuisine": "italian", "name": "Bad Roman", "smoking": "no"}}, {"type": "node", "id": 12346955500, "lat": 40.7841556, "lon": -73.9587388, "tags": {"barrier": "entrance", "name": "Engineers' Gate"}}, {"type": "node", "id": 12347042901, "lat": 40.7917798, "lon": -73.9531128, "tags": {"barrier": "entrance", "name": "Girls' Gate"}}, {"type": "node", "id": 12547321282, "lat": 40.7663058, "lon": -73.9781782, "tags": {"addr:housenumber": "160", "addr:postcode": "10019", "addr:street": "Central Park South", "amenity": "restaurant", "cuisine": "steak_house", "name": "Bourbon Steak New York", "phone": "+1-212-484-5120", "website": "https://www.bourbonsteaknyc.com", "wheelchair": "yes"}}, {"type": "node", "id": 12834633388, "lat": 40.7707736, "lon": -73.9851134}, {"type": "node", "id": 12834633389, "lat": 40.7705646, "lon": -73.9847301}, {"type": "node", "id": 12834633390, "lat": 40.770422, "lon": -73.9848317}, {"type": "node", "id": 12834633391, "lat": 40.7704073, "lon": -73.9848087}, {"type": "node", "id": 12834633392, "lat": 40.7703588, "lon": -73.9848435}, {"type": "node", "id": 12834633393, "lat": 40.7702859, "lon": -73.9849724}, {"type": "node", "id": 12834633394, "lat": 40.7703749, "lon": -73.9848872}, {"type": "node", "id": 12834633395, "lat": 40.770264, "lon": -73.9849208}, {"type": "node", "id": 12834633396, "lat": 40.770307, "lon": -73.9848895}, {"type": "node", "id": 12834633397, "lat": 40.7707507, "lon": -73.9844983}, {"type": "node", "id": 12834633398, "lat": 40.7708097, "lon": -73.9844549}, {"type": "node", "id": 12834633399, "lat": 40.7708553, "lon": -73.9847166}, {"type": "node", "id": 12834633400, "lat": 40.7708441, "lon": -73.9847248}, {"type": "node", "id": 12856359604, "lat": 40.770617, "lon": -73.9852725, "tags": {"addr:city": "New York", "addr:housenumber": "113", "addr:postcode": "10023", "addr:state": "NY", "addr:street": "West 60th Street", "addr:unit": "Room 804", "air_conditioning": "yes", "fax": "+1-212-636-6755", "name": "Academic Advising, Fordham College at Lincoln Center", "office": "educational_institution", "operator": "Fordham University", "operator:type": "ngo", "operator:wikidata": "Q130965", "operator:wikipedia": "en:Fordham University", "phone": "+1-212-636-6350", "website": "https://www.fordham.edu/fordham-college-at-lincoln-center/academics/academic-advising/"}}, {"type": "node", "id": 12856359606, "lat": 40.7706433, "lon": -73.9834774, "tags": {"addr:city": "New York", "addr:housenumber": "45", "addr:postcode": "10023", "addr:state": "NY", "addr:street": "Columbus Avenue", "addr:unit": "4th Floor", "air_conditioning": "yes", "name": "Graduate Admissions, Gabelli School of Business", "office": "educational_institution", "operator": "Gabelli School of Business", "operator:type": "ngo", "operator:wikidata": "Q5515370", "operator:wikipedia": "en:Gabelli School of Business", "phone": "+1-212-636-6200", "website": "https://www.fordham.edu/gabelli-school-of-business/academic-programs-and-admissions/graduate-programs/graduate-admissions/"}}, {"type": "node", "id": 12857802432, "lat": 40.7650993, "lon": -73.9726265}, {"type": "node", "id": 12866882565, "lat": 40.7655983, "lon": -73.9825967, "tags": {"amenity": "restaurant", "contact:facebook": "Bengal-Tiger-Indian-Food-313435315465974", "contact:instagram": "bengaltigerindianfood", "craft": "caterer", "cuisine": "indian", "delivery": "yes", "diet:vegan": "yes", "diet:vegetarian": "yes", "name": "Bengal Tiger", "opening_hours": "Mo-Fr 11:30-15:00, 17:00-22:00; Sa-Su 12:00-22:00", "phone": "+1-212-265-2703", "takeaway": "yes", "website": "https://www.bengaltigerindianfood.com/"}}, {"type": "node", "id": 12887750795, "lat": 40.7667053, "lon": -73.982032, "tags": {"addr:housename": "Nordstrom", "addr:housenumber": "235", "addr:street": "West 57th Street", "amenity": "cafe", "check_date": "2025-05-30", "cuisine": "coffee_shop", "name": "Carharrt WIP Coffee Bar"}}, {"type": "node", "id": 13143970801, "lat": 40.7657529, "lon": -73.9828919, "tags": {"addr:housenumber": "244", "addr:postcode": "10019", "addr:street": "West 56th Street", "amenity": "restaurant", "contact:instagram": "joeg_italianrestaurant", "cuisine": "italian;italian_pizza", "email": "customer_service@joegrestaurant.com", "name": "Joe G", "opening_hours": "Mo 15:00-22:00; Tu-Su 11:30-22:00", "phone": "+1-212-765-3160", "website": "https://joegrestaurant.com/", "website:menu": "http://joegrestaurant.com/menu"}}, {"type": "node", "id": 13150051545, "lat": 40.7703393, "lon": -73.9849213}, {"type": "node", "id": 13150051546, "lat": 40.7703426, "lon": -73.984929}, {"type": "node", "id": 13337433960, "lat": 40.7706023, "lon": -73.9852311, "tags": {"addr:city": "New York", "addr:housenumber": "113", "addr:postcode": "10023", "addr:state": "NY", "addr:street": "West 60th Street", "addr:unit": "Room 203", "air_conditioning": "yes", "fax": "+1-718-817-0549", "name": "Undergraduate Admissions, Fordham University", "office": "educational_institution", "operator": "Fordham University", "operator:type": "ngo", "operator:wikidata": "Q130965", "operator:wikipedia": "en:Fordham University", "phone": "+1-212-636-6710", "website": "https://www.fordham.edu/undergraduate-admission/"}}, {"type": "node", "id": 13337433961, "lat": 40.7706341, "lon": -73.983486, "tags": {"addr:city": "New York", "addr:housenumber": "45", "addr:state": "NY", "addr:street": "Columbus Avenue", "addr:unit": "Room 207", "name": "Admissions, Fordham Graduate School of Education", "office": "educational_institution", "website": "https://www.fordham.edu/graduate-school-of-education/admissions/"}}, {"type": "way", "id": 108199253, "nodes": [1241742463, 1241742443, 7448783486, 7448738073, 11186999469, 7712324738, 8676382821, 8676382818, 12834633396, 12834633395, 12834633393, 13150051546, 13150051545, 12834633394, 12834633392, 12834633391, 12834633390, 12834633389, 1241742650, 1241742436, 12834633388, 1241742696, 1241742731, 1241742735, 1241742582, 12834633399, 12834633400, 12834633397, 12834633398, 1241742463], "tags": {"layer": "1", "leisure": "park", "level": "1", "name": "Robert Moses Plaza", "operator": "Fordham University", "operator:type": "ngo", "operator:wikidata": "Q130965", "operator:wikipedia": "en:Fordham University"}}, {"type": "way", "id": 108199259, "nodes": [3220130736, 7448738070, 7448738072, 10078967833, 7504586055, 7474729993, 7474730023, 3272863061, 3272863063, 7474716551, 6473165621, 6473165620, 6469023499, 6469023503, 6469023502, 6469023500, 6469023496, 6469023488, 6469023487, 10078967834, 6452665615, 3220130727, 3220130730, 3220130734, 3220130736], "tags": {"addr:city": "New York", "addr:postcode": "10023", "addr:state": "NY", "amenity": "university", "denomination": "catholic", "education": "university", "internet_access": "wlan", "name": "Fordham University Lincoln Center Campus", "operator": "Fordham University", "operator:type": "ngo", "operator:wikidata": "Q130965", "operator:wikipedia": "en:Fordham University", "religion": "christian", "website": "https://www.fordham.edu/info/21454/lincoln_center_campus"}}, {"type": "way", "id": 108199260, "nodes": [1241742474, 1241742732, 1241742598, 1241742578, 8695205603, 1241742512, 1241742735, 1241742582, 1241742673, 1241742474], "tags": {"layer": "1", "leisure": "park", "level": "1", "name": "St. Peter's Garden", "operator": "Fordham University", "operator:type": "ngo", "operator:wikidata": "Q130965", "operator:wikipedia": "en:Fordham University", "surface": "grass"}}, {"type": "way", "id": 265344257, "nodes": [2710082489, 2710082448, 2710082484, 2710082482, 10863921029, 2710082471, 2710082476, 2710082486, 2710082483, 2710082490, 2710082485, 2710082494, 2710082495, 2710082498, 2710082493, 2710082489], "tags": {"addr:city": "New York", "addr:housenumber": "17", "addr:postcode": "10023", "addr:state": "NY", "addr:street": "West 60th Street", "amenity": "school", "building": "school", "building:levels": "11", "building:levels:underground": "1", "height": "40.5", "name": "The Shefa School", "nycdoitt:bin": "1027188", "opening_date": "2024-08", "roof:levels": "4", "roof:shape": "flat", "website": "https://campaign.shefaschool.org/our-new-home/", "wheelchair": "yes"}}, {"type": "way", "id": 427818536, "nodes": [6991136395, 6991136391, 6991124651, 6991136407, 6991136419, 6991124639, 6991124627, 6991136417, 6991136393, 6991136389, 6991136400, 6991124681, 6991124669, 6991124635, 6991136436, 6991136425, 6991136413, 6991124665, 6991124654, 6991124641, 6991124630, 6991124676, 6991124646, 6991124658, 6991400337, 6991400366, 6991414897, 6991400329, 6991400360, 6991414890, 6991400322, 6991400355, 6991400384, 6991400316, 6991400383, 6991400315, 6991400348, 6991400378, 6991400312, 6991400309, 6991400323, 6991400317, 6991400350, 6991400339, 6991400380, 12347042901, 6991400313, 6991400368, 6991400345, 6991400374, 6991414898, 6991400367, 6991400308, 12346955500, 6991400379, 7093980567, 6991400344, 6991414892, 6991400324, 7093980560, 8032579495, 3392519827, 3392519825, 3392519829, 3392519847, 3392519860, 3392519861, 8039941085, 7785624629, 7785624644, 7785624681, 7785624660, 7785624616, 6991414900, 6991400375, 7785624620, 6991400370, 6991400307, 6991414894, 6991400319, 6991414887, 6991400326, 6991400346, 6991400314, 6991400342, 3602661071, 6991400371, 6991414901, 3602661070, 6991400334, 7830757207, 42453674, 12857802432, 42453676, 2902437013, 11359524190, 11359524189, 42433870, 11359524188, 11359524459, 11359524187, 1283225217, 4347535694, 11359481061, 11359481060, 11359481059, 11359481058, 11359481057, 11359481056, 11359481062, 11359481063, 1659428983, 2553978278, 4347550072, 7830757189, 1659429013, 6991124653, 6838446021, 1659429064, 6838446017, 6991124664, 1659429078, 1825841723, 1659429162, 6838446016, 1659429202, 6991124629, 1659429228, 9418170698, 4347550058, 1659429258, 4347550067, 4997760450, 2710141721, 2710141733, 6991124650, 6991136385, 6991136397, 6991136409, 6991136421, 6991124631, 6991136432, 6991136410, 6991136433, 6991136422, 6991124677, 6991124666, 6991124632, 6991124643, 6794406110, 6991136390, 6991136426, 6991136437, 6991124636, 7104620799, 6991124659, 6991124682, 6991136394, 7146903295, 6991136418, 6991136430, 6991124640, 6991124628, 6991124652, 6991124663, 6991124674, 7146903298, 6991136387, 7120586338, 6794406099, 6991136398, 6991136386, 6991136424, 6991124673, 6991136411, 6991136423, 6991124633, 6991124644, 6991124656, 6991124667, 11427056761, 11427056759, 11427056760, 11427056758, 6991124679, 6991136403, 6991136416, 6991136428, 6991136439, 6991136435, 6991124638, 6991124649, 6991124634, 6991124661, 6991124645, 6991124672, 6991124684, 6991124657, 6991124678, 6991124668, 6991124680, 6991136392, 6991124662, 6991136404, 6991136438, 6991136427, 6991124637, 6991136415, 6991124648, 6991124660, 6991124671, 6991136408, 6991124683, 6991136402, 6991136395], "tags": {"access": "yes", "addr:city": "New York", "addr:state": "NY", "architect": "Frederick Law Olmsted;Calvert Vaux", "check_date": "2025-05-06", "check_date:opening_hours": "2021-05-01", "contact:facebook": "https://www.facebook.com/CentralParkNYC/", "contact:instagram": "https://www.instagram.com/centralparknyc/", "contact:pinterest": "https://www.pinterest.com/centralparknyc", "contact:tiktok": "https://www.tiktok.com/@centralparknyc", "contact:twitter": "https://twitter.com/centralparknyc/", "contact:youtube": "https://www.youtube.com/user/CentralParkChannel", "dog": "leashed", "heritage": "2", "heritage:operator": "nrhp", "heritage:website": "https://www.nps.gov/subjects/nationalregister/index.htm", "leisure": "park", "name": "Central Park", "name:be": "\u0426\u044d\u043d\u0442\u0440\u0430\u043b\u044c\u043d\u044b \u043f\u0430\u0440\u043a", "name:el": "\u039a\u03b5\u03bd\u03c4\u03c1\u03b9\u03ba\u03cc \u03c0\u03ac\u03c1\u03ba\u03bf", "name:en": "Central Park", "name:fa": "\u067e\u0627\u0631\u06a9 \u0645\u0631\u06a9\u0632\u06cc", "name:he": "\u05e1\u05e0\u05d8\u05e8\u05dc \u05e4\u05d0\u05e8\u05e7", "name:hi": "\u0938\u0947\u0902\u091f\u094d\u0930\u0932 \u092a\u093e\u0930\u094d\u0915", "name:ja": "\u4e2d\u592e\u516c\u5712", "name:kn": "\u0cb8\u0cc6\u0c82\u0c9f\u0ccd\u0cb0\u0cb2\u0ccd \u0caa\u0cbe\u0cb0\u0ccd\u0c95\u0ccd", "name:ko": "\uc13c\ud2b8\ub7f4 \ud30c\ud06c", "name:lt": "Centrinis parkas", "name:ru": "\u0426\u0435\u043d\u0442\u0440\u0430\u043b\u044c\u043d\u044b\u0439 \u043f\u0430\u0440\u043a", "name:sr": "\u0426\u0435\u043d\u0442\u0440\u0430\u043b \u043f\u0430\u0440\u043a", "name:sr-Latn": "Central park", "name:tr": "Central Park", "name:vi": "C\u00f4ng vi\u00ean Trung t\u00e2m", "name:zh": "\u4e2d\u592e\u516c\u56ed", "nrhp:inscription_date": "1966-10-15", "nrhp:nhl": "yes", "nrhp:nhl:inscription_date": "1963-05-23", "opening_hours": "06:00-01:00", "operator": "Central Park Conservancy", "operator:type": "ngo", "owner": "New York City Department of Parks and Recreation", "owner:short": "NYC Parks", "owner:wikidata": "Q1894232", "ref:nrhp": "66000538", "smoking": "no", "start_date": "1858", "website": "https://www.centralparknyc.org", "wikidata": "Q160409", "wikipedia": "en:Central Park"}}, {"type": "way", "id": 458642435, "nodes": [2653803407, 3114918480, 3114918482, 3114918485, 2653803412, 4546109664, 2653803373, 2653803379, 2653803407], "tags": {"leisure": "park"}}, {"type": "way", "id": 705304809, "nodes": [2710077093, 6625281401, 6625281402, 2710077066, 2710077086, 2710077093], "tags": {"addr:city": "New York", "addr:housenumber": "1886", "addr:postcode": "10023", "addr:state": "NY", "addr:street": "Broadway", "architect": "Philip Birnbaum", "architect:wikidata": "Q45940822", "architect:wikipedia": "en:Philip Birnbaum (architect)", "leisure": "park", "name": "30 Lincoln Plaza", "opening_hours": "8:00-23:00", "start_date": "1978", "website": "https://capitalplanning.nyc.gov/pops/M070015#16.52/40.76956/-73.98279"}}, {"type": "way", "id": 1024411997, "nodes": [7551756702, 2710082528, 2710082525, 357647418, 2710082511, 2710082509, 2710082507, 2710082503, 2710082496, 2710082475, 2710082487, 2710082508, 9446258121, 11107632623, 7551756702], "tags": {"amenity": "university", "branch": "Manhattan Campus", "education": "university", "ele": "25", "gnis:feature_id": "2485813", "name": "New York Institute of Technology", "operator": "New York Institute of Technology", "operator:type": "private", "website": "https://www.nyit.edu/nyc/", "wikidata": "Q1709596", "wikipedia": "en:New York Institute of Technology"}}]}