{"version": 0.6, "generator": "Overpass API 0.7.62.8 e802775f", "osm3s": {"timestamp_osm_base": "2025-12-01T15:32:29Z", "copyright": "The data included in this document is from www.openstreetmap.org. The data is made available under ODbL."}, "elements": [{"type": "node", "id": 42523928, "lat": 40.6943772, "lon": -73.9851684}, {"type": "node", "id": 357569585, "lat": 40.6901298, "lon": -73.9813461}, {"type": "node", "id": 1693893363, "lat": 40.6930835, "lon": -73.986119}, {"type": "node", "id": 1693893369, "lat": 40.6930525, "lon": -73.9853496}, {"type": "node", "id": 1907740409, "lat": 40.6918324, "lon": -73.9801555}, {"type": "node", "id": 1907740419, "lat": 40.6908597, "lon": -73.9789505}, {"type": "node", "id": 1907740420, "lat": 40.6899674, "lon": -73.9794971}, {"type": "node", "id": 1907740428, "lat": 40.69179, "lon": -73.9790732}, {"type": "node", "id": 1907740429, "lat": 40.68994, "lon": -73.9788122}, {"type": "node", "id": 2550005838, "lat": 40.6890162, "lon": -73.9837875, "tags": {"addr:city": "Brooklyn", "addr:housenumber": "253", "addr:postcode": "11201", "addr:state": "NY", "addr:street": "Livingston Street", "alt_name": "International House of Pancakes", "amenity": "restaurant", "brand": "IHOP", "brand:wikidata": "Q1185675", "cuisine": "pancake;diner", "drink:coffee": "yes", "drink:tea": "yes", "name": "IHOP", "phone": "+1-718-222-4467", "takeaway": "yes", "website": "https://restaurants.ihop.com/en-us/ny/brooklyn/breakfast-253-livingston-st-3503"}}, {"type": "node", "id": 2550005862, "lat": 40.6880994, "lon": -73.9806452, "tags": {"addr:housenumber": "30", "addr:postcode": "11217", "addr:street": "Flatbush Avenue", "check_date": "2024-08-17", "name": "ConEdison", "office": "company"}}, {"type": "node", "id": 2550005915, "lat": 40.6905044, "lon": -73.9845775, "tags": {"addr:housenumber": "519", "addr:postcode": "11201", "addr:street": "Fulton Street", "amenity": "restaurant", "cuisine": "caribbean", "name": "Imani Grill", "opening_hours": "Mo-Su 11:00-21:30", "phone": "+1-929-866-2979", "website": "https://www.imanigrill.nyc"}}, {"type": "node", "id": 2550006166, "lat": 40.6900416, "lon": -73.9817675, "tags": {"entrance": "main"}}, {"type": "node", "id": 2550006169, "lat": 40.6900566, "lon": -73.9821649}, {"type": "node", "id": 2550006194, "lat": 40.6902343, "lon": -73.9821519}, {"type": "node", "id": 2550006209, "lat": 40.6903243, "lon": -73.9819075}, {"type": "node", "id": 2550064303, "lat": 40.6886044, "lon": -73.9834746, "tags": {"addr:housenumber": "276", "addr:postcode": "11217", "addr:street": "Livingston Street", "amenity": "cafe", "branch": "Downtown Brooklyn", "drink:coffee": "yes", "drink:espresso": "yes", "drink:tea": "yes", "name": "Devoci\u00f3n", "opening_hours": "Mo-Fr 07:00-18:00; Sa-Su 07:30-18:00", "phone": "+1-929-262-1241", "website": "https://www.devocion.com/pages/devocion-cafe-downtown-brooklyn-ny"}}, {"type": "node", "id": 2550064306, "lat": 40.6884777, "lon": -73.9831474, "tags": {"addr:housenumber": "288", "addr:postcode": "11217", "addr:street": "Livingston Street", "amenity": "restaurant", "bar": "yes", "cuisine": "burger", "drink:beer": "draught", "drink:wine": "yes", "name": "Burger Village", "opening_hours": "Mo-Su 11:00-22:00", "phone": "+1-917-909-0594"}}, {"type": "node", "id": 2550064307, "lat": 40.6884355, "lon": -73.9830383, "tags": {"addr:housenumber": "290", "addr:postcode": "11217", "addr:street": "Livingston Street", "amenity": "restaurant", "cuisine": "korean", "happy_hours": "Mo-Su 15:00-18:00", "name": "Kuun", "opening_hours": "Mo-Su 11:30-22:30", "outdoor_seating": "street", "phases": "+1-917-909-1466", "website": "https://www.kuunbrooklyn.com"}}, {"type": "node", "id": 2550065990, "lat": 40.6879283, "lon": -73.9842504}, {"type": "node", "id": 2550065999, "lat": 40.6879579, "lon": -73.9843297}, {"type": "node", "id": 2550066021, "lat": 40.6881043, "lon": -73.9841313}, {"type": "node", "id": 2550066033, "lat": 40.6881426, "lon": -73.9848248}, {"type": "node", "id": 2550066071, "lat": 40.6883259, "lon": -73.9847008}, {"type": "node", "id": 2568308099, "lat": 40.6899642, "lon": -73.9796172}, {"type": "node", "id": 2568308100, "lat": 40.6899788, "lon": -73.9799732}, {"type": "node", "id": 2568308102, "lat": 40.6899994, "lon": -73.9805367}, {"type": "node", "id": 2568308105, "lat": 40.6900106, "lon": -73.981006}, {"type": "node", "id": 2568308107, "lat": 40.6900206, "lon": -73.9812331}, {"type": "node", "id": 2568308108, "lat": 40.6900349, "lon": -73.9812562}, {"type": "node", "id": 2568308109, "lat": 40.6900388, "lon": -73.9799928}, {"type": "node", "id": 2568308110, "lat": 40.6900418, "lon": -73.9803543}, {"type": "node", "id": 2568308111, "lat": 40.6900471, "lon": -73.9802821}, {"type": "node", "id": 2568308112, "lat": 40.6900477, "lon": -73.9802675}, {"type": "node", "id": 2568308113, "lat": 40.6900508, "lon": -73.9802829}, {"type": "node", "id": 2568308115, "lat": 40.6900522, "lon": -73.9802682}, {"type": "node", "id": 2568308120, "lat": 40.6900904, "lon": -73.980001}, {"type": "node", "id": 2568308122, "lat": 40.6900914, "lon": -73.9799903}, {"type": "node", "id": 2568308173, "lat": 40.6904794, "lon": -73.9788902}, {"type": "node", "id": 2568308258, "lat": 40.6908292, "lon": -73.9789411}, {"type": "node", "id": 2568308488, "lat": 40.6915898, "lon": -73.9820601}, {"type": "node", "id": 2568308513, "lat": 40.6916323, "lon": -73.9819128}, {"type": "node", "id": 2568308529, "lat": 40.6917117, "lon": -73.9819523}, {"type": "node", "id": 2568308530, "lat": 40.6917249, "lon": -73.9819066}, {"type": "node", "id": 2568308546, "lat": 40.6917535, "lon": -73.9818957}, {"type": "node", "id": 2568308621, "lat": 40.6918699, "lon": -73.9819536}, {"type": "node", "id": 2568308624, "lat": 40.6918724, "lon": -73.9819449}, {"type": "node", "id": 2568308627, "lat": 40.6919044, "lon": -73.9822168}, {"type": "node", "id": 2568308630, "lat": 40.6919343, "lon": -73.9820593}, {"type": "node", "id": 2568308632, "lat": 40.6919432, "lon": -73.9820041}, {"type": "node", "id": 2568308634, "lat": 40.6919479, "lon": -73.9820661}, {"type": "node", "id": 2568308637, "lat": 40.6919492, "lon": -73.9819832}, {"type": "node", "id": 2568308640, "lat": 40.6919494, "lon": -73.9820072}, {"type": "node", "id": 2568345400, "lat": 40.6929075, "lon": -73.985483}, {"type": "node", "id": 2568345402, "lat": 40.6929109, "lon": -73.9855742}, {"type": "node", "id": 2568345405, "lat": 40.6929311, "lon": -73.9853595}, {"type": "node", "id": 2568345406, "lat": 40.6929356, "lon": -73.9854812}, {"type": "node", "id": 2568345407, "lat": 40.692939, "lon": -73.9855724}, {"type": "node", "id": 2568345408, "lat": 40.692946, "lon": -73.9857605}, {"type": "node", "id": 2568345409, "lat": 40.6929597, "lon": -73.9861293}, {"type": "node", "id": 2568345411, "lat": 40.6929791, "lon": -73.9853564}, {"type": "node", "id": 2568345435, "lat": 40.6936211, "lon": -73.985319}, {"type": "node", "id": 2568345436, "lat": 40.6936451, "lon": -73.9860854}, {"type": "node", "id": 2568345481, "lat": 40.6950393, "lon": -73.9865614}, {"type": "node", "id": 2568345485, "lat": 40.6950587, "lon": -73.9865602}, {"type": "node", "id": 2568345487, "lat": 40.6948806, "lon": -73.9861244}, {"type": "node", "id": 2568345490, "lat": 40.6950917, "lon": -73.9861116}, {"type": "node", "id": 2568345494, "lat": 40.6951955, "lon": -73.9861053}, {"type": "node", "id": 2568345496, "lat": 40.6952032, "lon": -73.9865514}, {"type": "node", "id": 2568361433, "lat": 40.6941818, "lon": -73.9840224}, {"type": "node", "id": 2568361436, "lat": 40.6942065, "lon": -73.984703}, {"type": "node", "id": 2568361438, "lat": 40.6942158, "lon": -73.9850281}, {"type": "node", "id": 2572921551, "lat": 40.6889988, "lon": -73.9792983}, {"type": "node", "id": 2572921566, "lat": 40.6890283, "lon": -73.9789381}, {"type": "node", "id": 2572921579, "lat": 40.6890554, "lon": -73.9793063}, {"type": "node", "id": 2572921581, "lat": 40.6890559, "lon": -73.9790039}, {"type": "node", "id": 2572921585, "lat": 40.6890609, "lon": -73.9789428}, {"type": "node", "id": 2572921596, "lat": 40.6890799, "lon": -73.9790073}, {"type": "node", "id": 3670173276, "lat": 40.6941845, "lon": -73.9840981}, {"type": "node", "id": 3670173277, "lat": 40.6941866, "lon": -73.9841543}, {"type": "node", "id": 3670173278, "lat": 40.6941885, "lon": -73.984207}, {"type": "node", "id": 4416209989, "lat": 40.6914766, "lon": -73.9845457, "tags": {"amenity": "bar", "name": "Rooftop Bar"}}, {"type": "node", "id": 4564264140, "lat": 40.6889134, "lon": -73.9833505, "tags": {"alt_name": "Cafe Plus The Lounge", "amenity": "restaurant", "bar": "yes", "cuisine": "american", "name": "Cafe Plus", "website": "https://thecafeplus.com"}}, {"type": "node", "id": 4625638116, "lat": 40.6917468, "lon": -73.981763}, {"type": "node", "id": 4625638117, "lat": 40.6919337, "lon": -73.9817522}, {"type": "node", "id": 4625638118, "lat": 40.6919302, "lon": -73.9815018}, {"type": "node", "id": 4922165421, "lat": 40.6912596, "lon": -73.9842362, "tags": {"amenity": "pub", "cuisine": "american;breakfast", "name": "Brooklyn Brewhouse", "opening_hours": "Mo-Su 06:30-02:00", "opening_hours:kitchen": "Mo-Su 06:30-24:00", "phone": "+1-718-254-7813", "website": "http://brooklynbrewhouse.com"}}, {"type": "node", "id": 5009155037, "lat": 40.6949099, "lon": -73.9870407}, {"type": "node", "id": 5009155039, "lat": 40.6933, "lon": -73.9871148}, {"type": "node", "id": 5009155040, "lat": 40.6933255, "lon": -73.988063}, {"type": "node", "id": 5009155041, "lat": 40.6929822, "lon": -73.9880737}, {"type": "node", "id": 5009155042, "lat": 40.6929745, "lon": -73.9877164}, {"type": "node", "id": 5009155045, "lat": 40.6927984, "lon": -73.9874006}, {"type": "node", "id": 5009155047, "lat": 40.6929293, "lon": -73.9853407}, {"type": "node", "id": 5009155052, "lat": 40.6954249, "lon": -73.9860914}, {"type": "node", "id": 5009155053, "lat": 40.6954404, "lon": -73.986537}, {"type": "node", "id": 5009155054, "lat": 40.6948958, "lon": -73.9865701}, {"type": "node", "id": 5420452682, "lat": 40.6913447, "lon": -73.9819263}, {"type": "node", "id": 5420452683, "lat": 40.691525, "lon": -73.9817758}, {"type": "node", "id": 5420452686, "lat": 40.6918778, "lon": -73.9814918}, {"type": "node", "id": 5521624421, "lat": 40.6897579, "lon": -73.98015, "tags": {"addr:city": "Brooklyn", "addr:housenumber": "80", "addr:postcode": "11201", "addr:state": "NY", "addr:street": "DeKalb Avenue", "amenity": "cafe", "cuisine": "coffee_shop", "drink:coffee": "yes", "drink:espresso": "yes", "drink:tea": "yes", "name": "Hungry Ghost", "opening_hours": "Mo-Su 07:00-17:00"}}, {"type": "node", "id": 5538367714, "lat": 40.6893231, "lon": -73.9809019, "tags": {"addr:city": "Brooklyn", "addr:housenumber": "395", "addr:postcode": "11201", "addr:state": "NY", "addr:street": "Flatbush Avenue Extension", "addr:unit": "D", "amenity": "cafe", "branch": "395 Flatbush Avenue Extension", "brand": "Starbucks", "brand:wikidata": "Q37158", "cuisine": "coffee_shop", "drink:coffee": "yes", "internet_access": "yes", "internet_access:fee": "no", "name": "Starbucks", "official_name": "Starbucks Coffee", "opening_hours": "Mo-Fr 06:30-18:00; Sa-Su 08:00-15:00", "outdoor_seating": "no", "phone": "+1 718-858-8070", "ref": "1005807", "takeaway": "yes", "website": "https://www.starbucks.com/store-locator/store/1005807/395-flatbush-ave-extension-395-flatbush-ave-extension-d-brooklyn-ny-112015300"}}, {"type": "node", "id": 5538376790, "lat": 40.6891797, "lon": -73.9808302, "tags": {"brand": "H&R Block", "brand:wikidata": "Q5627799", "name": "H&R Block", "office": "tax_advisor", "opening_hours": "Mo 12:00-19:00; Tu 10:00-18:00; We \"by appointment\"; Th 15:00-19:00; Fr \"by appointment\"; Sa 10:00-14:00; Su \"by appointment\"", "phone": "+1-718-624-1151"}}, {"type": "node", "id": 5754824463, "lat": 40.6942594, "lon": -73.9870689}, {"type": "node", "id": 6329651375, "lat": 40.6900528, "lon": -73.9820632, "tags": {"entrance": "yes"}}, {"type": "node", "id": 6465763264, "lat": 40.688351, "lon": -73.9828201, "tags": {"addr:housenumber": "294", "addr:postcode": "11217", "addr:street": "Livingston Street", "amenity": "restaurant", "cocktails": "yes", "cuisine": "korean;barbecue", "delivery": "yes", "disused:amenity": "cafe", "drink:beer": "yes", "drink:liquor": "yes", "drink:sake": "yes", "drink:wine": "yes", "name": "Atti", "opening_hours": "Mo-Th 17:00-23:00; Fr-Su 11:30-23:00", "phone": "+1-917-909-1122", "takeaway": "yes", "website": "https://attinyc.com"}}, {"type": "node", "id": 6639135306, "lat": 40.6885302, "lon": -73.9852937, "tags": {"addr:housenumber": "200", "addr:postcode": "11201", "addr:street": "Schermerhorn Street", "name": "Balsamo & Rosenblatt", "office": "lawyer", "phone": "+1-718-858-7399", "website": "http://nyevictionlawyer.com"}}, {"type": "node", "id": 6639135312, "lat": 40.6884919, "lon": -73.984419, "tags": {"addr:housenumber": "243", "addr:postcode": "11201", "addr:street": "Schermerhorn Street", "alt_name": "NYC HRA", "government": "city", "name": "NYC Human Resources Administration", "office": "government"}}, {"type": "node", "id": 6680340129, "lat": 40.688954, "lon": -73.9836296, "tags": {"name": "Armed Forces Career Center", "office": "military_recruitment"}}, {"type": "node", "id": 6680340130, "lat": 40.6888199, "lon": -73.9832523, "tags": {"addr:housenumber": "255", "addr:postcode": "11201", "addr:street": "Livingston Street", "addr:unit": "4th Floor", "level": "3", "name": "Chidi Eze", "office": "lawyer", "phone": "+1-718-643-8800", "service:notary": "yes"}}, {"type": "node", "id": 6680633193, "lat": 40.6912513, "lon": -73.9831859, "tags": {"addr:city": "Brooklyn", "addr:floor": "4", "addr:housenumber": "445", "addr:postcode": "11201", "addr:state": "NY", "addr:street": "Albee Square", "amenity": "bar", "brewery": "yes", "check_date": "2024-04-19", "description": "Bar exhibiting a rare selection of waxwork sculptures featuring life-size wax figures.", "level": "3", "name": "House of Wax", "opening_hours": "Su-Th 16:00-24:00; Fr-Sa 16:00-26:00", "phone": "+1-718-513-2547", "website": "https://thehouseofwax.com"}}, {"type": "node", "id": 6883641338, "lat": 40.6885574, "lon": -73.9853641, "tags": {"addr:housenumber": "200", "addr:postcode": "11201", "addr:street": "Schermerhorn Street", "name": "Jeffrey Edelman", "office": "lawyer", "phone": "+1-718-305-4131"}}, {"type": "node", "id": 6896613952, "lat": 40.6905277, "lon": -73.9842727, "tags": {"addr:housenumber": "255", "addr:postcode": "11201", "addr:street": "Duffield Street", "description": "administrative offices, not a healthcare location", "name": "The Brooklyn Hospital Center", "office": "healthcare", "website": "https://www.tbh.org"}}, {"type": "node", "id": 6993160950, "lat": 40.6935678, "lon": -73.9834485}, {"type": "node", "id": 6993160973, "lat": 40.6941782, "lon": -73.9837692}, {"type": "node", "id": 6993160974, "lat": 40.6942214, "lon": -73.9851762}, {"type": "node", "id": 7561532120, "lat": 40.6923281, "lon": -73.9877437}, {"type": "node", "id": 7561532121, "lat": 40.6923234, "lon": -73.9874302}, {"type": "node", "id": 7561532122, "lat": 40.6927654, "lon": -73.9863466}, {"type": "node", "id": 7561532123, "lat": 40.6929643, "lon": -73.9863375}, {"type": "node", "id": 7561532124, "lat": 40.69362, "lon": -73.9853057}, {"type": "node", "id": 7730910956, "lat": 40.6927374, "lon": -73.9824146, "tags": {"name": "Jack Jaffa & Associates", "office": "company", "phone": "+1-718-855-6110", "website": "https://www.jackjaffa.com"}}, {"type": "node", "id": 7795039234, "lat": 40.6920093, "lon": -73.9850009, "tags": {"addr:city": "Brooklyn", "addr:housenumber": "100", "addr:postcode": "11201", "addr:state": "NY", "addr:street": "Willoughby Street", "amenity": "cafe", "cuisine": "coffee_shop", "name": "Ava Brew", "opening_hours": "Mo-Su 07:00-19:00"}}, {"type": "node", "id": 8486524574, "lat": 40.6890395, "lon": -73.9807614, "tags": {"name": "Verizon", "office": "telecommunication"}}, {"type": "node", "id": 8837943948, "lat": 40.6954273, "lon": -73.9861597}, {"type": "node", "id": 9033077995, "lat": 40.6889471, "lon": -73.982243, "tags": {"amenity": "school", "fax": "+1-929-295-6097", "name": "Science, Language & Arts International School", "phone": "+1-718-636-3836", "website": "https://slaschool.org"}}, {"type": "node", "id": 9130590698, "lat": 40.6888819, "lon": -73.9832711, "tags": {"name": "Barango-Tariah, D.A.", "office": "lawyer", "phone": "+1-718-625-4200"}}, {"type": "node", "id": 9130590701, "lat": 40.6906954, "lon": -73.9836225, "tags": {"addr:housenumber": "430", "addr:postcode": "11201", "addr:street": "Albee Square", "amenity": "restaurant", "bar": "yes", "cuisine": "cajun;seafood", "name": "Hook & Reel", "opening_hours": "Mo-Th 12:00-22:30; Fr-Sa 12:00-24:00; Su 12:30-22:00", "phone": "+1-929-397-0031", "website": "https://hookreel.com/location/albeesquarebrooklyn/"}}, {"type": "node", "id": 9135361054, "lat": 40.6920289, "lon": -73.9842254}, {"type": "node", "id": 9293681958, "lat": 40.6910754, "lon": -73.9841989, "tags": {"addr:city": "Brooklyn", "addr:housenumber": "1", "addr:postcode": "11201", "addr:state": "NY", "addr:street": "Willoughby Square", "addr:unit": "7th Floor", "name": "FXCollaborative Architects LLP", "office": "architect", "phone": "+1 212 627 1700", "website": "https://www.fxcollaborative.com/"}}, {"type": "node", "id": 9528668469, "lat": 40.6879415, "lon": -73.9838052, "tags": {"amenity": "bar", "cocktails": "yes", "cuisine": "eclectic", "drink:beer": "draught", "drink:liquor": "yes", "drink:wine": "yes", "name": "The Lobby", "website": "https://acehotel.com/brooklyn/eat-drink/the-lobby/"}}, {"type": "node", "id": 9571394577, "lat": 40.6914251, "lon": -73.9837148}, {"type": "node", "id": 9571394578, "lat": 40.6913411, "lon": -73.9835465}, {"type": "node", "id": 9571394582, "lat": 40.6920042, "lon": -73.9835189}, {"type": "node", "id": 9793717854, "lat": 40.6928795, "lon": -73.982411, "tags": {"name": "ABC Safety Group", "office": "company", "phone": "+1-718-307-8133", "website": "https://www.abcsafetygroup.com"}}, {"type": "node", "id": 10109662184, "lat": 40.6890831, "lon": -73.9824347, "tags": {"addr:housenumber": "10", "addr:postcode": "11201", "addr:street": "Hanover Place", "name": "Job Corps", "office": "employment_agency", "official_name": "Job Corps Brooklyn Admission Office", "opening_hours": "Mo-Fr 08:30-17:00||Sa \"open every other Saturday\"", "phone": "+1-718-522-0144"}}, {"type": "node", "id": 10112378652, "lat": 40.6922251, "lon": -73.9839231, "tags": {"name": "JPMorgan Chase & Co", "office": "company"}}, {"type": "node", "id": 10156034599, "lat": 40.6948445, "lon": -73.9851455}, {"type": "node", "id": 10651869821, "lat": 40.6919072, "lon": -73.9828819, "tags": {"addr:housenumber": "136", "addr:postcode": "11201", "addr:street": "Willoughby Street", "amenity": "cafe", "brand": "Gong Cha", "brand:wikidata": "Q5581670", "brand:zh": "\u8ca2\u8336", "cuisine": "bubble_tea", "drink:bubble_tea": "yes", "drink:tea": "yes", "int_name": "Gong Cha", "name": "Gong Cha", "name:zh": "\u8ca2\u8336", "opening_hours": "Mo-Fr 10:30-21:00; Sa-Su 11:00-21:00", "phone": "+1-917-909-1207", "takeaway": "yes", "website": "https://gongchausa.com/new-york-brooklyn/"}}, {"type": "node", "id": 10651869823, "lat": 40.691805, "lon": -73.9832786, "tags": {"addr:housenumber": "405", "addr:postcode": "11201", "addr:street": "Gold Street", "amenity": "school", "name": "BASIS Independent Brooklyn Lower", "phone": "+1-929-295-5124", "website": "https://brooklyn.basisindependent.com"}}, {"type": "node", "id": 10695150094, "lat": 40.6914599, "lon": -73.982586, "tags": {"amenity": "cafe", "cuisine": "coffee_shop", "drink:coffee": "yes", "drink:espresso": "yes", "level": "0", "name": "Cafe d'Avignon", "takeaway": "only", "website": "https://www.cafedavignon.com/location/cafe-davignon-dekalb-market-hall-brooklyn/"}}, {"type": "node", "id": 10817712250, "lat": 40.6920015, "lon": -73.9847858, "tags": {"addr:city": "Brooklyn", "addr:housenumber": "102", "addr:postcode": "11201", "addr:state": "NY", "addr:street": "Willoughby Street", "amenity": "restaurant", "cuisine": "salad;sandwich", "indoor_seating": "yes", "name": "Everytable", "opening_hours": "Mo-Su 07:00-19:00", "outdoor_seating": "yes", "phone": "+1-646-222-9334", "website": "https://everytable.com/"}}, {"type": "node", "id": 11215534001, "lat": 40.688026, "lon": -73.9784403}, {"type": "node", "id": 11215534002, "lat": 40.6884273, "lon": -73.9784975}, {"type": "node", "id": 11215534003, "lat": 40.6884187, "lon": -73.9786038}, {"type": "node", "id": 11215534004, "lat": 40.6880732, "lon": -73.9785578}, {"type": "node", "id": 11399440626, "lat": 40.6903171, "lon": -73.9820547}, {"type": "node", "id": 11399440627, "lat": 40.6903318, "lon": -73.9820434}, {"type": "node", "id": 11399440628, "lat": 40.6903435, "lon": -73.9820699}, {"type": "node", "id": 11399440629, "lat": 40.6902803, "lon": -73.9821243}, {"type": "node", "id": 11399440630, "lat": 40.690282, "lon": -73.9821488}, {"type": "node", "id": 11783969920, "lat": 40.689538, "lon": -73.9851519, "tags": {"addr:housenumber": "217", "addr:postcode": "11201", "addr:street": "Livingston Street", "amenity": "cafe", "cuisine": "coffee_shop", "name": "Jack's Stir Brew Coffee", "opening_hours": "Mo-Fr 07:00-16:00; Sa-Su 08:00-16:00"}}, {"type": "node", "id": 12049892750, "lat": 40.6927727, "lon": -73.9823455, "tags": {"addr:city": "Brooklyn", "addr:housenumber": "147", "addr:postcode": "11201", "addr:state": "NY", "addr:street": "Prince Street", "addr:unit": "#100", "name": "Brooklyn Injury Attorneys P.C.", "office": "lawyer", "opening_hours": "24/7", "phone": "+19292853825", "website": "https://brooklyn-injury-attorneys.com/"}}, {"type": "node", "id": 12294824399, "lat": 40.6913449, "lon": -73.9836639}, {"type": "node", "id": 12294824400, "lat": 40.6914411, "lon": -73.9842557}, {"type": "node", "id": 12306576560, "lat": 40.6900186, "lon": -73.9811879}, {"type": "node", "id": 12480632412, "lat": 40.6914216, "lon": -73.9828851, "tags": {"amenity": "restaurant", "brand": "Fogo de Ch\u00e3o", "brand:wikidata": "Q5464133", "cuisine": "brazilian;steak_house", "level": "0", "name": "Fogo de Ch\u00e3o"}}, {"type": "node", "id": 12563374901, "lat": 40.6913475, "lon": -73.9850419, "tags": {"addr:city": "Brooklyn", "addr:housenumber": "397", "addr:postcode": "11201", "addr:state": "NY", "addr:street": "Bridge Street", "contact:instagram": "recursecenter", "contact:linkedin": "https://www.linkedin.com/company/recurse-center/", "contact:twitter": "recursecenter", "name": "Recurse Center", "office": "educational_institution", "website": "https://www.recurse.com/", "wikidata": "Q27919546", "wikipedia": "en:Recurse Center"}}, {"type": "node", "id": 13111159320, "lat": 40.691377, "lon": -73.9836843}, {"type": "node", "id": 13111159322, "lat": 40.6914338, "lon": -73.9840081}, {"type": "way", "id": 248156367, "nodes": [2550006169, 2550006194, 11399440630, 11399440629, 11399440628, 11399440627, 11399440626, 2550006209, 2550006166, 6329651375, 2550006169], "tags": {"addr:housenumber": "386", "addr:postcode": "11201", "addr:street": "Flatbush Avenue Extension", "amenity": "restaurant", "bar": "yes", "branch": "Brooklyn", "building": "yes", "building:levels": "2", "cocktails": "yes", "cuisine": "american;breakfast;dessert", "drink:beer": "draught", "drink:coffee": "yes", "drink:liquor": "yes", "drink:wine": "yes", "height": "8.6", "name": "Junior's", "nycdoitt:bin": "3000369", "opening_hours": "Mo-Th 06:30-24:00; Fr-Sa 06:30-01:00; Su 06:30-24:00", "phone": "+1-718-852-5257", "shop": "pastry", "website": "https://www.juniorscheesecake.com/blog/restaurants/brooklyn/", "wheelchair": "yes", "wikidata": "Q4984555", "wikimedia_commons": "Category:Junior's Restaurant (Brooklyn)", "wikipedia": "en:Junior's"}}, {"type": "way", "id": 248165928, "nodes": [2550065990, 2550065999, 2550066033, 2550066071, 2550066021, 2550065990], "tags": {"building": "yes", "government": "yes", "height": "19.8", "name": "NYS Department of Labor", "nycdoitt:bin": "3000542", "office": "government"}}, {"type": "way", "id": 250366065, "nodes": [2568308632, 2568308637, 2568308624, 2568308621, 2568308546, 2568308530, 2568308529, 2568308513, 2568308488, 2568308627, 2568308634, 2568308630, 2568308640, 2568308632], "tags": {"addr:housenumber": "295", "addr:postcode": "11201", "addr:street": "Flatbush Avenue Extension", "alt_name": "Department of Health New York City", "building": "yes", "government": "city", "height": "23.1", "name": "NYC Department of Health", "nycdoitt:bin": "3058406", "office": "government"}}, {"type": "way", "id": 250369751, "nodes": [2568345405, 2568345406, 2568345400, 2568345402, 2568345407, 2568345408, 2568345409, 1693893363, 2568345436, 2568345435, 1693893369, 2568345411, 2568345405], "tags": {"addr:city": "Brooklyn", "addr:housenumber": "2", "addr:postcode": "11201", "addr:state": "NY", "addr:street": "MetroTech", "building": "yes", "height": "57.5", "layer": "1", "name": "2 MetroTech Center", "nycdoitt:bin": "3255603", "office": "yes"}}, {"type": "way", "id": 250965847, "nodes": [2572921581, 2572921585, 2572921566, 2572921551, 2572921579, 2572921596, 2572921581], "tags": {"addr:housenumber": "31", "addr:postcode": "11217", "addr:street": "Rockwell Place", "amenity": "bar", "building": "yes", "cocktails": "yes", "cuisine": "american", "drink:beer": "draught", "drink:liquor": "yes", "drink:wine": "yes", "height": "5.2", "name": "The Rockwell Place", "nycdoitt:bin": "3058598", "outdoor_seating": "street", "website": "https://therockwellplace.com"}}, {"type": "way", "id": 512264724, "nodes": [5009155037, 5754824463, 5009155039, 5009155040, 5009155041, 5009155042, 7561532120, 7561532121, 5009155045, 7561532122, 7561532123, 5009155047, 7561532124, 6993160950, 6993160973, 2568361433, 3670173276, 3670173277, 3670173278, 2568361436, 2568361438, 6993160974, 42523928, 10156034599, 2568345487, 2568345490, 2568345494, 5009155052, 8837943948, 5009155053, 2568345496, 2568345485, 2568345481, 5009155054, 5009155037], "tags": {"amenity": "university", "name": "New York University - Brooklyn campus", "wheelchair": "yes"}}, {"type": "way", "id": 562256745, "nodes": [1907740429, 2568308173, 2568308258, 1907740419, 1907740428, 1907740409, 5420452686, 4625638118, 4625638117, 4625638116, 5420452683, 5420452682, 357569585, 2568308108, 2568308107, 12306576560, 2568308105, 2568308102, 2568308110, 2568308111, 2568308113, 2568308115, 2568308112, 2568308109, 2568308120, 2568308122, 2568308100, 2568308099, 1907740420, 1907740429], "tags": {"addr:city": "Brooklyn", "addr:housenumber": "1", "addr:postcode": "11201", "addr:street": "University Plaza", "amenity": "university", "gnis:feature_id": "955868", "name": "Long Island University Brooklyn Campus", "operator": "Long Island University", "phone": "+1 718 488 1000", "website": "https://www.liu.edu/Brooklyn.aspx", "wikidata": "Q7720324"}}, {"type": "way", "id": 1039404269, "nodes": [9135361054, 12294824400, 13111159322, 9571394577, 13111159320, 12294824399, 9571394578, 9571394582, 9135361054], "tags": {"alt_name": "Abolitionist Place Park", "leisure": "park", "name": "Abolitionist Place", "operator": "New York City Economic Development Corporation", "website": "https://edc.nyc/project/abolitionist-place"}}, {"type": "way", "id": 1210539676, "nodes": [11215534001, 11215534002, 11215534003, 11215534004, 11215534001], "tags": {"leisure": "park", "name": "Fort\u00e9 Plaza", "opening_hours": "24/7", "operator:type": "private", "ref:nycpops": "K020007"}}]}