{"version": 0.6, "generator": "Overpass API 0.7.62.8 e802775f", "osm3s": {"timestamp_osm_base": "2025-12-01T16:38:15Z", "copyright": "The data included in this document is from www.openstreetmap.org. The data is made available under ODbL."}, "elements": [{"type": "node", "id": 357648487, "lat": 40.7435086, "lon": -73.9335532, "tags": {"amenity": "school", "ele": "8", "gnis:feature_id": "2493038", "name": "Q530 International High School at LaGuardia Community College", "wheelchair": "yes"}}, {"type": "node", "id": 2065153935, "lat": 40.74475, "lon": -73.929014, "tags": {"addr:housenumber": "35-11", "addr:street": "Queens Boulevard", "amenity": "restaurant", "contact:email": "rinconmelanianyc@gmail.com", "contact:instagram": "rinconmelanianyc", "cuisine": "ecuadorian", "delivery": "yes", "name": "Rinc\u00f3n Melania", "opening_hours": "Mo-Th, Su 10:00-19:45; Fr, Sa 10:00-22:00", "phone": "+1 718-361-1905", "reservation": "yes", "takeaway": "yes", "toilets": "customers", "website": "https://rinconmelanianyc.com/"}}, {"type": "node", "id": 2669357296, "lat": 40.7446852, "lon": -73.9391541}, {"type": "node", "id": 2844936126, "lat": 40.7439147, "lon": -73.9276511, "tags": {"addr:city": "Long Island City", "addr:housenumber": "37-08", "addr:postcode": "11101", "addr:state": "NY", "addr:street": "Queens Boulevard", "amenity": "restaurant", "contact:email": "allyoucaneat@wonderpigkbbq.com", "contact:instagram": "wonderpig.ny", "cuisine": "korean", "delivery": "yes", "name": "Wonder Pig K-BBQ", "opening_hours": "Mo-Th 12:00-22:00; Fr, Sa 12:00-00:00; Su 12:00-23:00", "phone": "+1-845-592-5554", "reservation": "yes", "reservation:website": "https://client.minitable.net/c_reservation?sid=s08e38ff2bd55188bfdaacdd0da876cc3", "takeaway": "yes", "website": "https://www.wonderpigkbbq.com/"}}, {"type": "node", "id": 2844936165, "lat": 40.7420469, "lon": -73.9285338, "tags": {"addr:housenumber": "47-02", "addr:postcode": "11101", "addr:street": "37th Street", "amenity": "cafe", "cuisine": "pizza", "name": "Cypriana", "phone": "+1 718-361-1747"}}, {"type": "node", "id": 3745741932, "lat": 40.7424511, "lon": -73.9293838}, {"type": "node", "id": 3745741933, "lat": 40.7441758, "lon": -73.9297857}, {"type": "node", "id": 3745741934, "lat": 40.7440925, "lon": -73.9290746}, {"type": "node", "id": 3745741935, "lat": 40.7425364, "lon": -73.9301053}, {"type": "node", "id": 3745758380, "lat": 40.7409466, "lon": -73.9277713}, {"type": "node", "id": 3745758381, "lat": 40.7414675, "lon": -73.9284182}, {"type": "node", "id": 3745758382, "lat": 40.7409842, "lon": -73.9281175}, {"type": "node", "id": 3745758383, "lat": 40.7413476, "lon": -73.9280507}, {"type": "node", "id": 3745758384, "lat": 40.7413638, "lon": -73.9280963}, {"type": "node", "id": 3745758385, "lat": 40.7420304, "lon": -73.927584}, {"type": "node", "id": 3745758386, "lat": 40.7421178, "lon": -73.9282921}, {"type": "node", "id": 3745758387, "lat": 40.7414289, "lon": -73.9280909}, {"type": "node", "id": 4803985122, "lat": 40.7430465, "lon": -73.9337016, "tags": {"addr:housenumber": "4555", "addr:postcode": "11101", "addr:street": "Van Dam Street", "amenity": "restaurant", "cuisine": "american", "name": "Van Dam Diner", "opening_hours": "Mo-Fr 06:00-20:00; Sa 08:00-15:00", "phone": "+17183928371", "website": "http://www.vandamdinner.com"}}, {"type": "node", "id": 4827882221, "lat": 40.7426975, "lon": -73.9337688, "tags": {"addr:housenumber": "47-01", "addr:postcode": "11101", "addr:street": "Van Dam Street", "amenity": "cafe", "name": "Don Dean Bakery"}}, {"type": "node", "id": 4867347824, "lat": 40.7443589, "lon": -73.9315047, "tags": {"addr:housenumber": "33-06", "addr:street": "Queens Boulevard", "amenity": "cafe", "name": "Fresco Deli Cafe", "phone": "+1 718-482-7400"}}, {"type": "node", "id": 4870096821, "lat": 40.7443417, "lon": -73.9313867, "tags": {"addr:housenumber": "33-08", "addr:street": "Queens Boulevard", "amenity": "restaurant", "diet:halal": "only", "indoor_seating": "yes", "name": "Halal Munchies", "opening_hours": "Mo-Su 10:00-01:00", "outdoor_seating": "no", "phone": "+1 929-666-3651"}}, {"type": "node", "id": 6597261557, "lat": 40.7451076, "lon": -73.9378988}, {"type": "node", "id": 6597261559, "lat": 40.743012, "lon": -73.9340423}, {"type": "node", "id": 6597261562, "lat": 40.7431984, "lon": -73.935675}, {"type": "node", "id": 6597261567, "lat": 40.7448372, "lon": -73.9353447}, {"type": "node", "id": 6597261579, "lat": 40.7432578, "lon": -73.9367814}, {"type": "node", "id": 6597314489, "lat": 40.7436202, "lon": -73.9393694}, {"type": "node", "id": 6597314492, "lat": 40.7446748, "lon": -73.9337117}, {"type": "node", "id": 6597314494, "lat": 40.7449607, "lon": -73.9364496}, {"type": "node", "id": 8991509378, "lat": 40.743522, "lon": -73.9384402}, {"type": "node", "id": 8991509390, "lat": 40.7451186, "lon": -73.9378244}, {"type": "node", "id": 8991509392, "lat": 40.7435299, "lon": -73.9386802}, {"type": "node", "id": 10762202969, "lat": 40.7432595, "lon": -73.9367919}, {"type": "node", "id": 11265041505, "lat": 40.7439252, "lon": -73.9277394, "tags": {"addr:city": "Long Island City", "addr:housenumber": "37-04", "addr:postcode": "11101", "addr:state": "NY", "addr:street": "Queens Boulevard", "amenity": "restaurant", "cuisine": "korean", "email": "info@koreanfoodziggle.com", "name": "Ziggle Tofu & Grill", "opening_hours": "Mo-Th, Su 11:00-23:00; Fr, Sa 11:00-01:00", "phone": "+1-718-885-4429", "website": "https://koreanfoodziggle.com/"}}, {"type": "node", "id": 11265041506, "lat": 40.7439012, "lon": -73.9275242, "tags": {"addr:city": "Long Island City", "addr:housenumber": "37-10", "addr:postcode": "11101", "addr:state": "NY", "addr:street": "Queens Boulevard", "amenity": "cafe", "cuisine": "bubble_tea", "name": "Vivi Bubble Tea"}}, {"type": "node", "id": 11832103714, "lat": 40.7447523, "lon": -73.9292703, "tags": {"addr:housenumber": "35-11", "addr:street": "Queens Boulevard", "amenity": "restaurant", "cuisine": "turkish", "delivery": "yes", "name": "Asir-Et Steak House", "takeaway": "yes"}}, {"type": "node", "id": 12164540030, "lat": 40.7435704, "lon": -73.9278857, "tags": {"addr:housenumber": "45-15", "addr:street": "37th Street", "amenity": "restaurant", "contact:email": "susy@lighthouserooftop.com", "cuisine": "mexican;japanese", "name": "LightHouse Rooftop", "opening_hours": "Mo-Th 17:00-00:00; Fr 17:00-04:00; Sa 12:00-18:00, 19:00-04:00; Su 12:00-18:00, 19:00-00:00", "phone": "+1 718-550-6108", "reservation": "recommended", "reservation:website": "https://resy.com/cities/new-york-ny/venues/lighthouse-rooftop", "website": "https://lighthouserooftop.com/"}}, {"type": "way", "id": 370907280, "nodes": [3745741932, 3745741934, 3745741933, 3745741935, 3745741932], "tags": {"addr:city": "Long Island City", "addr:country": "US", "addr:postcode": "11101", "addr:state": "NY", "amenity": "school", "ele": "16", "gnis:feature_id": "942726", "mascot": "Flyers", "mascot:iconography": "Eagles", "mascot:name": "Captain Eagle", "name": "Aviation High School", "phone": "+1 718 361-2032", "wikidata": "Q4828641"}}, {"type": "way", "id": 370909168, "nodes": [3745758385, 3745758380, 3745758382, 3745758383, 3745758384, 3745758387, 3745758381, 3745758386, 3745758385], "tags": {"addr:housenumber": "37-02", "addr:postcode": "11101", "addr:street": "47th Avenue", "amenity": "school", "ele": "19", "gnis:feature_id": "962087", "name": "Queens Technical High School", "wheelchair": "yes", "wikidata": "Q7270831"}}, {"type": "way", "id": 702523338, "nodes": [6597261567, 6597314492, 6597261559, 6597261562, 6597261567]}, {"type": "way", "id": 702523342, "nodes": [6597314494, 8991509390, 6597261557, 2669357296, 6597314489, 8991509392, 8991509378, 10762202969, 6597261579, 6597314494]}, {"type": "relation", "id": 12979959, "members": [{"type": "way", "ref": 702523338, "role": "outer"}, {"type": "way", "ref": 702523342, "role": "outer"}], "tags": {"addr:city": "Long Island City", "addr:housenumber": "31-10", "addr:postcode": "11101", "addr:street": "Thomson Avenue", "amenity": "college", "grades": "college", "name": "LaGuardia Community College", "type": "multipolygon", "website": "https://www.laguardia.edu"}}]}