{"version": 0.6, "generator": "Overpass API 0.7.62.8 e802775f", "osm3s": {"timestamp_osm_base": "2025-12-01T15:36:36Z", "copyright": "The data included in this document is from www.openstreetmap.org. The data is made available under ODbL."}, "elements": [{"type": "node", "id": 2294835825, "lat": 40.767878, "lon": -73.9227977}, {"type": "node", "id": 2294835826, "lat": 40.7677498, "lon": -73.9229129}, {"type": "node", "id": 2294835827, "lat": 40.7674983, "lon": -73.922399}, {"type": "node", "id": 2294835828, "lat": 40.7680103, "lon": -73.9217358}, {"type": "node", "id": 2294835829, "lat": 40.7682202, "lon": -73.9221011}, {"type": "node", "id": 2297322327, "lat": 40.7682514, "lon": -73.9220718}, {"type": "node", "id": 2297322346, "lat": 40.768039, "lon": -73.9232461}, {"type": "node", "id": 2297322348, "lat": 40.7685677, "lon": -73.9227272}, {"type": "node", "id": 2693364221, "lat": 40.7679165, "lon": -73.9223897}, {"type": "node", "id": 2693364223, "lat": 40.7677249, "lon": -73.9220257}, {"type": "node", "id": 2693364227, "lat": 40.7677477, "lon": -73.9225451}, {"type": "node", "id": 2693396903, "lat": 40.76794, "lon": -73.9233431}, {"type": "node", "id": 2693396905, "lat": 40.7678826, "lon": -73.9232187, "tags": {"barrier": "gate", "maxwidth:physical": "7'8\"", "school": "entrance", "source:maxwidth:physical": "ARCore"}}, {"type": "node", "id": 2693476374, "lat": 40.7686066, "lon": -73.9226883}, {"type": "node", "id": 2693476415, "lat": 40.7675905, "lon": -73.922583}, {"type": "node", "id": 2693476434, "lat": 40.7675117, "lon": -73.9223854}, {"type": "node", "id": 2693476436, "lat": 40.7675045, "lon": -73.9222419}, {"type": "node", "id": 2693476438, "lat": 40.7674731, "lon": -73.9223106}, {"type": "node", "id": 2693476440, "lat": 40.7675169, "lon": -73.9222684}, {"type": "node", "id": 2693476443, "lat": 40.767914, "lon": -73.9218336, "tags": {"entrance": "yes"}}, {"type": "node", "id": 2693476445, "lat": 40.7675781, "lon": -73.9225588, "tags": {"entrance": "yes"}}, {"type": "node", "id": 2693476450, "lat": 40.7678908, "lon": -73.9232367}, {"type": "node", "id": 2693476452, "lat": 40.7680242, "lon": -73.9232606}, {"type": "node", "id": 2693513064, "lat": 40.7669867, "lon": -73.9225548}, {"type": "node", "id": 2693513066, "lat": 40.7672681, "lon": -73.9231677}, {"type": "node", "id": 2693513070, "lat": 40.7667867, "lon": -73.923553}, {"type": "node", "id": 2693513073, "lat": 40.7665054, "lon": -73.9229401}, {"type": "node", "id": 2846780757, "lat": 40.7656278, "lon": -73.9192526, "tags": {"addr:housenumber": "30-06", "addr:postcode": "11103", "addr:street": "34th Street", "amenity": "cafe", "cuisine": "bakery;dessert", "name": "Chip City", "opening_hours": "Mo-Su 11:00-22:00", "outdoor_seating": "no", "phone": "+1-917-745-0101", "website": "https://www.chipcitycookies.com/chip-nyc-menu/"}}, {"type": "node", "id": 2846780759, "lat": 40.765578, "lon": -73.9192929, "tags": {"addr:housenumber": "30-08", "addr:postcode": "11103", "addr:street": "34th Street", "amenity": "cafe", "name": "Kung Fu Tea"}}, {"type": "node", "id": 2846799315, "lat": 40.7673366, "lon": -73.9179699, "tags": {"addr:housenumber": "33-18", "addr:postcode": "11103", "addr:street": "28th Avenue", "amenity": "restaurant", "name": "Favella Grill"}}, {"type": "node", "id": 2846817353, "lat": 40.7676435, "lon": -73.9206227, "tags": {"addr:housenumber": "31-01", "addr:postcode": "11102", "addr:street": "Newtown Avenue", "amenity": "restaurant", "cuisine": "italian", "name": "Mela Pizza", "phone": "+1 718-777-5533"}}, {"type": "node", "id": 2846913476, "lat": 40.7646039, "lon": -73.9236121, "tags": {"addr:housenumber": "30-15", "addr:postcode": "11102", "addr:street": "31st Avenue", "amenity": "restaurant", "cuisine": "greek", "name": "Boulis Cafe"}}, {"type": "node", "id": 2846937475, "lat": 40.7676954, "lon": -73.9234307, "tags": {"addr:housenumber": "29-04", "addr:postcode": "11102", "addr:street": "30th Avenue", "amenity": "restaurant", "cuisine": "pizza", "name": "Bellucci Pizza"}}, {"type": "node", "id": 2846937476, "lat": 40.767651, "lon": -73.9233348, "tags": {"addr:housenumber": "29-10", "addr:postcode": "11102", "addr:street": "30th Avenue", "amenity": "restaurant", "name": "Wake Cup"}}, {"type": "node", "id": 2992278309, "lat": 40.7676356, "lon": -73.9226778}, {"type": "node", "id": 4466440189, "lat": 40.7657458, "lon": -73.9185956, "tags": {"addr:city": "Astoria", "addr:housenumber": "34-05", "addr:postcode": "11103", "addr:state": "NY", "addr:street": "30th Avenue", "amenity": "pub", "name": "Dominie's"}}, {"type": "node", "id": 4687813992, "lat": 40.7671306, "lon": -73.9224642, "tags": {"addr:housenumber": "30-04", "addr:postcode": "11102", "addr:street": "30th Street", "amenity": "cafe", "email": "dennis@astoriacoffeeny.com", "internet_access": "wlan", "name": "Astoria Coffee", "opening_hours": "Mo-Fr 07:00-20:00; Sa-Su 08:00-20:00", "website": "https://www.astoriacoffeeny.com/"}}, {"type": "node", "id": 5022189196, "lat": 40.7660014, "lon": -73.9191452, "tags": {"addr:housenumber": "33-15", "addr:street": "30th Avenue", "amenity": "restaurant", "cuisine": "crepes", "level": "0", "name": "Crepe House", "opening_hours": "Mo-Th, Su 14:00-02:00; Fr, Sa 14:00-03:00", "phone": "+1 917-832-7646", "wheelchair": "yes"}}, {"type": "node", "id": 5136305517, "lat": 40.7655055, "lon": -73.918796, "tags": {"addr:city": "Astoria", "addr:housenumber": "34-08", "addr:postcode": "11103", "addr:state": "NY", "addr:street": "30th Avenue", "amenity": "bar", "brewery": "Allagash_Brewing_Company;Bell's_Brewery;Blue_Point_Brewing_Company;Citizen_Cider;DESTIHL_Brewery;Ebbs_Brewing_Co.;Firestone_Walker_Brewing_Company;Founders_Brewing_Company;Greenport_Harbor_Brewing_Company;Grey_Sail_Brewing_of_Rhode_Island;Kings_County_Bre", "email": "contact@judyandpunch.com", "name": "Judy & Punch", "opening_hours": "Mo-Fr 16:00-4:00; Sa-Su 14:00-2:00", "phone": "+1-718-626-3101", "website": "https://www.judyandpunch.com", "wheelchair": "yes"}}, {"type": "node", "id": 5136305742, "lat": 40.76569, "lon": -73.9184617, "tags": {"addr:housenumber": "34-11", "addr:street": "30th Avenue", "amenity": "restaurant", "cuisine": "indian", "name": "Seva"}}, {"type": "node", "id": 5136305886, "lat": 40.7655545, "lon": -73.9182196, "tags": {"addr:housenumber": "34-19", "addr:street": "30th Avenue", "amenity": "restaurant", "name": "The Shady Lady", "phone": "+1-718-440-9081", "wheelchair": "yes"}}, {"type": "node", "id": 5149722061, "lat": 40.76548, "lon": -73.918729, "tags": {"addr:housenumber": "34-10", "addr:street": "30th Avenue", "amenity": "bar", "name": "Kween"}}, {"type": "node", "id": 5156146591, "lat": 40.7674767, "lon": -73.9229465, "tags": {"addr:city": "Astoria", "addr:housenumber": "29-20", "addr:postcode": "11102", "addr:state": "NY", "addr:street": "30th Avenue", "amenity": "restaurant", "cuisine": "greek", "name": "Blue Sea Taverna"}}, {"type": "node", "id": 5156146592, "lat": 40.765438, "lon": -73.9186187, "tags": {"addr:city": "Astoria", "addr:housenumber": "34-14", "addr:postcode": "11103", "addr:state": "NY", "addr:street": "30th Avenue", "amenity": "restaurant", "branch": "Astoria", "cuisine": "indian", "name": "Tikka Indian Grill", "opening_hours": "12:00-23:00; Fr,Sa 12:00-24:00", "phone": "+1-718-255-1085", "toilets": "yes", "website": "https://www.tikkaindiangrill.com/", "wheelchair": "yes"}}, {"type": "node", "id": 5156147337, "lat": 40.7653318, "lon": -73.9183999, "tags": {"addr:housenumber": "34-24", "addr:street": "30th Avenue", "amenity": "restaurant", "cuisine": "pizza", "delivery": "yes", "name": "Grand Avenue Pizza", "opening_hours": "Mo-Sa 10:30-22:30; Su 10:00-22:30", "phone": "+1 718-728-8879", "takeaway": "yes", "wheelchair": "yes"}}, {"type": "node", "id": 5156147425, "lat": 40.7656077, "lon": -73.9189553, "tags": {"addr:housenumber": "34-02", "addr:street": "30th Avenue", "amenity": "restaurant", "name": "Ample Hill", "opening_hours": "Mo-Th 13:00-22:00; Fr 13:00-23:00; Sa 12:00-23:00; Su 12:00-22:00", "wheelchair": "yes"}}, {"type": "node", "id": 5156147426, "lat": 40.7657215, "lon": -73.9191914, "tags": {"addr:housenumber": "33-20", "addr:street": "30th Avenue", "amenity": "cafe", "name": "La Sabrosura", "wheelchair": "limited"}}, {"type": "node", "id": 5156147905, "lat": 40.7657513, "lon": -73.9193084, "tags": {"addr:housenumber": "33-16", "addr:street": "30th Avenue", "amenity": "restaurant", "cuisine": "thai", "name": "Ponchana", "wheelchair": "yes"}}, {"type": "node", "id": 5156168082, "lat": 40.7688024, "lon": -73.9214529, "tags": {"addr:housenumber": "29-21", "addr:street": "Newtown Avenue", "amenity": "school", "name": "Les Enfantes Montessori School", "phone": "+1-718-626-9549", "website": "https://www.lesenfantsschool.com/"}}, {"type": "node", "id": 5156168422, "lat": 40.7685396, "lon": -73.9212065, "tags": {"addr:housenumber": "29-37", "addr:street": "Newtown Avenue", "amenity": "restaurant", "cuisine": "greek", "name": "Koroni Souvlaki & Grill"}}, {"type": "node", "id": 5156180444, "lat": 40.7659528, "lon": -73.9190629, "tags": {"addr:housenumber": "33-17", "addr:street": "30th Avenue", "amenity": "cafe", "name": "The Teapsy", "wheelchair": "yes"}}, {"type": "node", "id": 5156183131, "lat": 40.7672494, "lon": -73.9218524, "tags": {"addr:housenumber": "30-11", "addr:street": "30th Avenue", "amenity": "restaurant", "cocktails": "yes", "cuisine": "mexican", "delivery": "yes", "drink:beer": "yes", "drink:liquor": "yes", "name": "Athens Grill and Sport Bar", "opening_hours": "Mo-Su 06:00-05:00", "phone": "+1-718-777-5366", "takeaway": "yes"}}, {"type": "node", "id": 5159984903, "lat": 40.7668872, "lon": -73.9210453, "tags": {"addr:housenumber": "31-03", "addr:street": "30th Avenue", "amenity": "cafe", "name": "Freddo Coffee Pot Espresso", "not:brand:wikidata": "Q28823999", "wheelchair": "yes"}}, {"type": "node", "id": 5182465253, "lat": 40.7666655, "lon": -73.9206293, "tags": {"addr:housenumber": "31-19", "addr:street": "30th Avenue", "amenity": "cafe", "name": "Dunkin'", "opening_hours": "Mo-Fr 05:00-23:00; Sa, Su 06:00-23:00", "toilets:wheelchair": "no", "wheelchair": "yes"}}, {"type": "node", "id": 5481496774, "lat": 40.7658549, "lon": -73.9195051, "tags": {"addr:housenumber": "33-10", "addr:postcode": "11103", "addr:street": "30th Avenue", "amenity": "cafe", "delivery": "yes", "indoor_seating": "yes", "level": "0", "name": "New York City Bagel Coffee House", "outdoor_seating": "yes", "takeaway": "yes", "wheelchair": "yes"}}, {"type": "node", "id": 5481498113, "lat": 40.7663306, "lon": -73.9205555, "tags": {"addr:housenumber": "32-02", "addr:street": "30th Avenue", "amenity": "restaurant", "cuisine": "burger", "name": "Burger Club", "wheelchair": "yes"}}, {"type": "node", "id": 5481498114, "lat": 40.7663001, "lon": -73.9204838, "tags": {"addr:housenumber": "32-04", "addr:street": "30th Avenue", "amenity": "restaurant", "name": "Astoria Pizza", "wheelchair": "yes"}}, {"type": "node", "id": 5487110395, "lat": 40.7671361, "lon": -73.9202693, "tags": {"addr:city": "Astoria", "addr:housenumber": "31-19", "addr:postcode": "11102", "addr:state": "NY", "addr:street": "Newtown Avenue", "amenity": "restaurant", "bar": "yes", "cuisine": "american", "email": "katchastoria@gmail.com", "name": "Katch", "opening_hours": "Mo-Th 17:00-01:00; Fr 15:00-03:00; Sa 11:30-03:00; Su 11:30-01:00", "phone": "+1-718-777-2230", "restaurant": "yes", "website": "https://www.katchastoria.com"}}, {"type": "node", "id": 5711108963, "lat": 40.764795, "lon": -73.9233644, "tags": {"addr:housenumber": "30-92", "addr:street": "31st Street", "amenity": "cafe", "name": "Under Pressure Espresso Bar", "opening_hours": "Mo-Su 07:00-17:00"}}, {"type": "node", "id": 6370603208, "lat": 40.7689633, "lon": -73.9250036, "tags": {"addr:city": "Astoria", "addr:housenumber": "29-14", "addr:postcode": "11102", "addr:state": "NY", "addr:street": "Crescent Street", "amenity": "restaurant", "cuisine": "moroccan", "internet_access": "wlan", "name": "Merzouka Cafe", "outdoor_seating": "no", "phone": "+1-718-255-6369", "takeaway": "yes", "website": "https://merzouka.com/"}}, {"type": "node", "id": 6370603209, "lat": 40.7689855, "lon": -73.9249842, "tags": {"addr:city": "Astoria", "addr:housenumber": "29-12", "addr:postcode": "11102", "addr:state": "NY", "addr:street": "Crescent Street", "amenity": "restaurant", "cuisine": "juice;frozen_yogurt", "name": "Green Apple Delight", "outdoor_seating": "no", "phone": "+1-718-777-7731", "takeaway": "yes", "website": "https://www.astoriajuicebar.com/"}}, {"type": "node", "id": 6744698190, "lat": 40.7659898, "lon": -73.9218817, "tags": {"addr:housenumber": "30-33", "addr:street": "31st Street", "name": "Andreas Tsangarides Accounting", "office": "accountant"}}, {"type": "node", "id": 6744698192, "lat": 40.7670978, "lon": -73.9215146, "tags": {"addr:housenumber": "30-23", "addr:street": "30th Avenue", "amenity": "restaurant", "cuisine": "chicken", "name": "Kennedy Fried Chicken"}}, {"type": "node", "id": 6744698195, "lat": 40.7671664, "lon": -73.9216675, "tags": {"addr:housenumber": "30-17", "addr:street": "30th Avenue", "amenity": "restaurant", "cuisine": "burger", "name": "Petey's Burger", "toilets:wheelchair": "no", "wheelchair": "yes"}}, {"type": "node", "id": 7293594202, "lat": 40.7647552, "lon": -73.9228833, "tags": {"brand": "Allstate", "brand:wikidata": "Q2645636", "name": "Allstate", "office": "insurance"}}, {"type": "node", "id": 8551036565, "lat": 40.7648135, "lon": -73.9228305, "tags": {"office": "tax_advisor"}}, {"type": "node", "id": 8551036566, "lat": 40.7645877, "lon": -73.923028, "tags": {"addr:street": "31st Street", "name": "Astoria Realty", "office": "estate_agent"}}, {"type": "node", "id": 8941943724, "lat": 40.7684383, "lon": -73.9243666, "tags": {"addr:city": "Astoria", "addr:housenumber": "25-17", "addr:state": "NY", "addr:street": "30th Avenue", "amenity": "cafe", "name": "Sip A Cup", "opening_hours": "Mo-Fr 07:00-17:00; Sa 08:00-17:00"}}, {"type": "node", "id": 8941943725, "lat": 40.76861, "lon": -73.9247309, "tags": {"addr:housenumber": "25-05", "addr:street": "30th Avenue", "brand": "Nationwide", "brand:wikidata": "Q6979886", "name": "Nationwide", "office": "insurance"}}, {"type": "node", "id": 8941998451, "lat": 40.7672995, "lon": -73.9231123, "tags": {"addr:housenumber": "30-09", "addr:postcode": "11102", "addr:street": "29th Street", "name": "Mac Realty", "office": "estate_agent"}}, {"type": "node", "id": 8942038676, "lat": 40.7670385, "lon": -73.9225427, "tags": {"addr:housenumber": "30-06", "addr:street": "30th Street", "name": "Partridge Realty", "office": "estate_agent", "phone": "+1 718 274 1119"}}, {"type": "node", "id": 9684925126, "lat": 40.7658643, "lon": -73.9187427, "tags": {"addr:city": "Astoria", "addr:housenumber": "3401", "addr:postcode": "11103", "addr:state": "NY", "addr:street": "30th Avenue", "amenity": "restaurant", "cuisine": "greek", "name": "Ovelia", "website": "https://www.ovelianyc.com/"}}, {"type": "node", "id": 11483291661, "lat": 40.7672663, "lon": -73.9213487, "tags": {"addr:housenumber": "28-54", "addr:street": "31st Street", "amenity": "bar", "name": "McCaffrey & Burke", "opening_hours": "Mo-Su 12:00-04:00"}}, {"type": "node", "id": 11483327317, "lat": 40.7673949, "lon": -73.9212278, "tags": {"addr:housenumber": "28-48", "addr:street": "31st Street", "amenity": "bar", "name": "Irish Whiskey Bar"}}, {"type": "node", "id": 11963278382, "lat": 40.7668738, "lon": -73.9204798, "tags": {"amenity": "cafe", "cuisine": "coffee_shop", "name": "Cafe to Go"}}, {"type": "node", "id": 12032620792, "lat": 40.7678759, "lon": -73.9232032}, {"type": "node", "id": 12037348894, "lat": 40.7679813, "lon": -73.9207799, "tags": {"amenity": "restaurant", "name": "Agenda"}}, {"type": "node", "id": 12132326271, "lat": 40.7664794, "lon": -73.9208167, "tags": {"addr:housenumber": "31-16", "addr:street": "30th Avenue", "amenity": "restaurant", "check_date": "2024-08-23", "cuisine": "salad", "name": "Pokeworks", "opening_hours": "11:30-21:30"}}, {"type": "node", "id": 12168922023, "lat": 40.7655517, "lon": -73.9188484, "tags": {"amenity": "pub", "name": "Maggie Halls"}}, {"type": "node", "id": 12168940159, "lat": 40.7653977, "lon": -73.9185165, "tags": {"amenity": "restaurant", "cuisine": "japanese", "name": "Mochiron Izakaya"}}, {"type": "node", "id": 12450134293, "lat": 40.7681609, "lon": -73.9244408, "tags": {"amenity": "cafe", "name": "Dunkin Donuts"}}, {"type": "way", "id": 220354581, "nodes": [2294835825, 2294835826, 2992278309, 2693476415, 2693476445, 2294835827, 2693476434, 2693476438, 2693476440, 2693476436, 2693364223, 2693476443, 2294835828, 2294835829, 2693364221, 2693364227, 2294835825], "tags": {"ele": "12", "gnis:feature_id": "2352111", "leisure": "park", "name": "Athens Square", "operator": "New York City Department of Parks and Recreation", "operator:short": "NYC Parks", "operator:type": "public", "operator:wikidata": "Q1894232", "website": "https://www.nycgovparks.org/parks/athenssquare/history", "wikidata": "Q34803522"}}, {"type": "way", "id": 263706663, "nodes": [2294835826, 12032620792, 2693396905, 2693476450, 2693396903, 2693476452, 2297322346, 2297322348, 2693476374, 2297322327, 2294835829, 2693364221, 2693364227, 2294835825, 2294835826], "tags": {"addr:city": "Astoria", "addr:housenumber": "28-37", "addr:postcode": "11102", "addr:state": "NY", "addr:street": "29th Street", "alt_name": "Public School 17;Henry David Thoreau School", "amenity": "school", "gnis:feature_id": "961421", "grades": "PK,K,1-5", "name": "P.S. 17 - Henry David Thoreau School", "name:etymology:wikidata": "Q131149", "operator": "New York City Department of Education", "operator:short": "NYC Public Schools", "operator:type": "public", "operator:wikidata": "Q408230", "phone": "+1-718-278-1220", "ref": "Q017", "short_name": "P.S. 17", "website": "https://www.ps17queens.com/"}}, {"type": "way", "id": 263715065, "nodes": [2693513064, 2693513066, 2693513070, 2693513073, 2693513064], "tags": {"amenity": "school", "ele": "11", "gnis:feature_id": "961731", "name": "P.S. 234", "phone": "+1 718 956 2760", "website": "https://www.schools.nyc.gov/SchoolPortals/30/Q234/default.htm", "wheelchair": "yes"}}]}