{"version": 0.6, "generator": "Overpass API 0.7.62.8 e802775f", "osm3s": {"timestamp_osm_base": "2025-12-01T17:40:41Z", "copyright": "The data included in this document is from www.openstreetmap.org. The data is made available under ODbL."}, "elements": [{"type": "node", "id": 246859499, "lat": 40.710469, "lon": -74.014348}, {"type": "node", "id": 272194598, "lat": 40.7095497, "lon": -74.0116948}, {"type": "node", "id": 272194601, "lat": 40.7088871, "lon": -74.0109134, "tags": {"barrier": "kerb", "kerb": "lowered", "tactile_paving": "yes", "wheelchair": "yes"}}, {"type": "node", "id": 272194602, "lat": 40.7091543, "lon": -74.010684}, {"type": "node", "id": 480910122, "lat": 40.7099994, "lon": -74.0136144}, {"type": "node", "id": 480910126, "lat": 40.7096737, "lon": -74.0129631}, {"type": "node", "id": 781712009, "lat": 40.7048694, "lon": -74.0094378, "tags": {"addr:housenumber": "3", "addr:postcode": "10004", "addr:street": "Hanover Square", "entrance": "main"}}, {"type": "node", "id": 793879917, "lat": 40.7100842, "lon": -74.0128136}, {"type": "node", "id": 888527171, "lat": 40.709558, "lon": -74.012778, "tags": {"amenity": "pub", "name": "O'Hara's Pub"}}, {"type": "node", "id": 1242148263, "lat": 40.7089989, "lon": -74.0158628}, {"type": "node", "id": 1251958153, "lat": 40.7048959, "lon": -74.0139431}, {"type": "node", "id": 1251958161, "lat": 40.705336, "lon": -74.0136237}, {"type": "node", "id": 1251958176, "lat": 40.7048408, "lon": -74.0134269}, {"type": "node", "id": 1251958243, "lat": 40.7052955, "lon": -74.0134387}, {"type": "node", "id": 1251958258, "lat": 40.7046218, "lon": -74.009496, "tags": {"barrier": "kerb", "kerb": "lowered", "tactile_paving": "yes", "wheelchair": "yes"}}, {"type": "node", "id": 1251958261, "lat": 40.7052856, "lon": -74.013703}, {"type": "node", "id": 1251958263, "lat": 40.7052245, "lon": -74.0134038}, {"type": "node", "id": 1251959556, "lat": 40.7064642, "lon": -74.0143777}, {"type": "node", "id": 1280366091, "lat": 40.7047243, "lon": -74.0137297}, {"type": "node", "id": 1280366094, "lat": 40.7048909, "lon": -74.0134041}, {"type": "node", "id": 1431806493, "lat": 40.710786, "lon": -74.0142507}, {"type": "node", "id": 1585033979, "lat": 40.7050656, "lon": -74.0086896, "tags": {"amenity": "pub", "indoor_seating": "yes", "name": "Killarney Rose", "outdoor_seating": "no"}}, {"type": "node", "id": 2033946685, "lat": 40.7072305, "lon": -74.0123877, "tags": {"amenity": "cafe", "name": "Bean And Bean", "wheelchair": "no"}}, {"type": "node", "id": 2183010447, "lat": 40.7067993, "lon": -74.0089458, "tags": {"amenity": "pub", "name": "Bailey Pub & Brasserie", "wheelchair": "no"}}, {"type": "node", "id": 2183010450, "lat": 40.7061255, "lon": -74.0110467, "tags": {"amenity": "restaurant", "check_date": "2025-08-14", "name": "Bobby Van's", "wheelchair": "no"}}, {"type": "node", "id": 2183010458, "lat": 40.7059471, "lon": -74.0116452, "tags": {"addr:housenumber": "40", "addr:street": "Broad Street", "amenity": "cafe", "brand": "Joe & The Juice", "brand:wikidata": "Q26221514", "cuisine": "coffee_shop", "indoor_seating": "yes", "name": "Joe & The Juice", "outdoor_seating": "no", "takeaway": "yes", "wheelchair": "yes"}}, {"type": "node", "id": 2183010488, "lat": 40.7051728, "lon": -74.011298, "tags": {"addr:city": "New York", "addr:housenumber": "55", "addr:postcode": "10004", "addr:state": "NY", "addr:street": "Broad Street", "amenity": "cafe", "branch": "55 Broad Street", "brand": "Starbucks", "brand:wikidata": "Q37158", "cuisine": "coffee_shop", "diet:vegan": "yes", "drink:soy_milk": "yes", "indoor_seating": "yes", "internet_access": "wlan", "name": "Starbucks", "official_name": "Starbucks Coffee", "opening_hours": "Mo-Su 07:00-18:00", "outdoor_seating": "no", "phone": "+1 212-742-2490", "ref": "16214", "takeaway": "yes", "website": "https://www.starbucks.com/store-locator/store/16214/55-broad-street-55-broad-street-new-york-ny-100042501-us", "wheelchair": "yes"}}, {"type": "node", "id": 2183039959, "lat": 40.7089962, "lon": -74.0090796, "tags": {"addr:city": "New York", "addr:housenumber": "53", "addr:postcode": "10038", "addr:state": "NY", "addr:street": "Nassau Street", "amenity": "restaurant", "check_date:opening_hours": "2023-08-31", "cuisine": "indian", "indoor_seating": "yes", "name": "Raj's Indian Kitchen", "opening_hours:signed": "no", "outdoor_seating": "no", "phone": "+1-646-559-2322"}}, {"type": "node", "id": 2183891964, "lat": 40.7061385, "lon": -74.0093922, "tags": {"addr:housenumber": "55", "addr:street": "Wall Street", "amenity": "restaurant", "check_date": "2025-08-14", "name": "Cipriani", "wheelchair": "yes"}}, {"type": "node", "id": 2183891976, "lat": 40.7051087, "lon": -74.0096903, "tags": {"addr:housenumber": "60", "addr:postcode": "10005", "addr:street": "Beaver Street", "amenity": "restaurant", "cuisine": "japanese", "name": "Taste of Tokyo", "opening_hours": "Mo-Fr 11:00-15:30,17:00-21:45; Su 17:00-21:30", "phone": "+1-212-809-4711", "website": "https://www.tasteoftokyony.com", "wheelchair": "yes"}}, {"type": "node", "id": 2186614176, "lat": 40.704892, "lon": -74.0085955, "tags": {"amenity": "restaurant", "name": "Wall Street Grill", "nursery": "yes"}}, {"type": "node", "id": 2186614177, "lat": 40.705042, "lon": -74.0102055, "tags": {"addr:housenumber": "56", "addr:postcode": "10004", "addr:street": "Beaver Street", "amenity": "restaurant", "cuisine": "steak_house", "indoor_seating": "yes", "name": "Delmonico's", "opening_hours": "Mo-Fr 11:30-22:00; Sa 17:00-22:00", "outdoor_seating": "no", "phone": "+12125091144", "website": "http://www.delmonicosny.com", "wheelchair": "no", "wikidata": "Q1184537"}}, {"type": "node", "id": 2186614180, "lat": 40.704919, "lon": -74.0093135, "tags": {"addr:housenumber": "5", "addr:postcode": "10004", "addr:street": "Hanover Square", "alt_name": "H&R Block", "brand": "Block Advisors", "brand:wikidata": "Q64166231", "name": "Block Advisors", "office": "tax_advisor", "phone": "+1-212-785-1216", "website": "https://www.blockadvisors.com"}}, {"type": "node", "id": 2186614181, "lat": 40.7051928, "lon": -74.0109499, "tags": {"amenity": "restaurant", "name": "Hale & Hearty Soup", "wheelchair": "yes"}}, {"type": "node", "id": 2186614209, "lat": 40.7046205, "lon": -74.0094594, "tags": {"barrier": "kerb", "kerb": "lowered", "tactile_paving": "yes", "wheelchair": "yes"}}, {"type": "node", "id": 2186614214, "lat": 40.7048036, "lon": -74.0097208}, {"type": "node", "id": 2186614223, "lat": 40.7049721, "lon": -74.0089843}, {"type": "node", "id": 2186614225, "lat": 40.7048141, "lon": -74.0096822}, {"type": "node", "id": 2275856089, "lat": 40.7087251, "lon": -74.0103625, "tags": {"addr:housenumber": "140", "addr:street": "Broadway", "name": "Brown Brothers Harriman & Trust", "office": "company", "wheelchair": "yes"}}, {"type": "node", "id": 2706005871, "lat": 40.7096869, "lon": -74.0139312, "tags": {"addr:city": "New York", "addr:housenumber": "136", "addr:postcode": "10006", "addr:state": "NY", "addr:street": "Washington Street", "amenity": "restaurant", "branch": "Steakhouse", "brand": "Morton's The Steakhouse", "brand:wikidata": "Q17022759", "check_date": "2023-02-23", "cuisine": "steak_house", "indoor_seating": "yes", "name": "Morton's The Steakhouse", "opening_hours": "Mo-Th 12:00-21:00; Fr-Sa 17:00-22:00; Su 16:00-21:00", "outdoor_seating": "no", "phone": "+1-212-608-0171", "website": "https://www.mortons.com/location/mortons-the-steakhouse-new-york-ny-world-trade-center/"}}, {"type": "node", "id": 2706005872, "lat": 40.7094546, "lon": -74.014076, "tags": {"addr:city": "New York", "addr:housenumber": "85", "addr:postcode": "10006", "addr:state": "NY", "addr:street": "West Street", "amenity": "restaurant", "check_date": "2023-02-23", "cuisine": "burger", "internet_access": "wlan", "internet_access:fee": "no", "name": "Bill's Bar and Burger", "opening_hours": "12:00-20:00", "phone": "+1-212-894-3800", "website": "https://www.billsbarandburger.com/location/bills-bar-and-burger-downtown-nyc/"}}, {"type": "node", "id": 2706009357, "lat": 40.709192, "lon": -74.0138424, "tags": {"addr:city": "New York", "addr:housenumber": "123", "addr:street": "Washington Street", "amenity": "restaurant", "check_date": "2023-02-23", "name": "Skinos"}}, {"type": "node", "id": 2731108933, "lat": 40.7059245, "lon": -74.0103947, "tags": {"addr:city": "New York", "addr:housenumber": "40", "addr:postcode": "10005", "addr:street": "Exchange Place", "amenity": "pub", "check_date:opening_hours": "2023-09-21", "indoor_seating": "yes", "internet_access": "yes", "internet_access:fee": "no", "name": "The Irish Punt", "opening_hours:signed": "no", "outdoor_seating": "no", "phone": "+1 212-422-7868", "wheelchair": "no"}}, {"type": "node", "id": 2790377994, "lat": 40.7068622, "lon": -74.0097342, "tags": {"addr:housenumber": "40", "addr:postcode": "10005", "addr:state": "NY", "addr:street": "Wall Street", "name": "Send A Package Inc.", "office": "company", "shop": "shipping", "website": "sendapackage.com"}}, {"type": "node", "id": 2823591084, "lat": 40.7092126, "lon": -74.0157933}, {"type": "node", "id": 2823591088, "lat": 40.7093741, "lon": -74.0157304}, {"type": "node", "id": 2823609708, "lat": 40.709767, "lon": -74.0155773}, {"type": "node", "id": 2824641540, "lat": 40.7088461, "lon": -74.012467}, {"type": "node", "id": 2824641541, "lat": 40.7088562, "lon": -74.0124081}, {"type": "node", "id": 2824641543, "lat": 40.708872, "lon": -74.0124479}, {"type": "node", "id": 2824641547, "lat": 40.7089288, "lon": -74.0126577}, {"type": "node", "id": 2824641551, "lat": 40.7089987, "lon": -74.0123068}, {"type": "node", "id": 2824641552, "lat": 40.7090116, "lon": -74.0123365}, {"type": "node", "id": 2824641554, "lat": 40.7090388, "lon": -74.0123161}, {"type": "node", "id": 2824641555, "lat": 40.7090518, "lon": -74.0125562}, {"type": "node", "id": 2824641556, "lat": 40.7090549, "lon": -74.0125633}, {"type": "node", "id": 2824641561, "lat": 40.7090784, "lon": -74.0122745}, {"type": "node", "id": 2824641564, "lat": 40.7090881, "lon": -74.0125189}, {"type": "node", "id": 2824641565, "lat": 40.7090914, "lon": -74.0125265}, {"type": "node", "id": 2824641569, "lat": 40.7091173, "lon": -74.012497}, {"type": "node", "id": 2824641576, "lat": 40.7091894, "lon": -74.0125281}, {"type": "node", "id": 2824641585, "lat": 40.7093112, "lon": -74.0124361}, {"type": "node", "id": 2824641586, "lat": 40.7093236, "lon": -74.0120892}, {"type": "node", "id": 2824641590, "lat": 40.7093741, "lon": -74.0125799}, {"type": "node", "id": 2824641596, "lat": 40.7093869, "lon": -74.0125703}, {"type": "node", "id": 2824641604, "lat": 40.7094975, "lon": -74.0124867}, {"type": "node", "id": 2824697572, "lat": 40.7090436, "lon": -74.0082939}, {"type": "node", "id": 2824697586, "lat": 40.7090885, "lon": -74.0083437}, {"type": "node", "id": 2824697701, "lat": 40.7092123, "lon": -74.0081188}, {"type": "node", "id": 2824697702, "lat": 40.7092472, "lon": -74.0081831}, {"type": "node", "id": 2824827795, "lat": 40.7050976, "lon": -74.0090366, "tags": {"addr:city": "New York", "addr:housenumber": "5", "addr:postcode": "10004", "addr:state": "NY", "addr:street": "Hanover Street", "office": "yes"}}, {"type": "node", "id": 2824828249, "lat": 40.7054375, "lon": -74.0138074, "tags": {"addr:housenumber": "25", "addr:postcode": "10004", "addr:street": "Broadway", "name": "Satellite Innovations", "office": "company", "website": "https://www.satelliteinnovations.io/"}}, {"type": "node", "id": 2824829283, "lat": 40.7047118, "lon": -74.010504}, {"type": "node", "id": 2824829296, "lat": 40.7047547, "lon": -74.0104395}, {"type": "node", "id": 2824829401, "lat": 40.7047963, "lon": -74.0105641}, {"type": "node", "id": 2824829405, "lat": 40.7048243, "lon": -74.0110154}, {"type": "node", "id": 2824829407, "lat": 40.7048365, "lon": -74.0107205}, {"type": "node", "id": 2824829408, "lat": 40.7048448, "lon": -74.0106291}, {"type": "node", "id": 2824829409, "lat": 40.7048503, "lon": -74.01063}, {"type": "node", "id": 2824829410, "lat": 40.7048509, "lon": -74.0107228}, {"type": "node", "id": 2824829411, "lat": 40.7048526, "lon": -74.0106043}, {"type": "node", "id": 2824829414, "lat": 40.7048795, "lon": -74.0105996}, {"type": "node", "id": 2824829418, "lat": 40.7048811, "lon": -74.0093861}, {"type": "node", "id": 2824829420, "lat": 40.7048971, "lon": -74.010566}, {"type": "node", "id": 2824829441, "lat": 40.7049877, "lon": -74.0110411}, {"type": "node", "id": 2824829448, "lat": 40.7050208, "lon": -74.0106775}, {"type": "node", "id": 2824988421, "lat": 40.7071182, "lon": -74.0081966}, {"type": "node", "id": 2824988442, "lat": 40.7072313, "lon": -74.0081413}, {"type": "node", "id": 2824988446, "lat": 40.7072328, "lon": -74.0081305}, {"type": "node", "id": 2824988452, "lat": 40.7072449, "lon": -74.0081625}, {"type": "node", "id": 2824988458, "lat": 40.7072559, "lon": -74.0081666}, {"type": "node", "id": 2824988459, "lat": 40.7072567, "lon": -74.0081808}, {"type": "node", "id": 2824988465, "lat": 40.7072623, "lon": -74.0081595}, {"type": "node", "id": 2824988469, "lat": 40.7072827, "lon": -74.0082213}, {"type": "node", "id": 2824988471, "lat": 40.7072876, "lon": -74.0082158}, {"type": "node", "id": 2824988474, "lat": 40.7072917, "lon": -74.0082353}, {"type": "node", "id": 2824988476, "lat": 40.7072966, "lon": -74.0082299}, {"type": "node", "id": 2824988484, "lat": 40.7073177, "lon": -74.0082759}, {"type": "node", "id": 2824988485, "lat": 40.7073187, "lon": -74.0082838}, {"type": "node", "id": 2824988494, "lat": 40.7073637, "lon": -74.0083539}, {"type": "node", "id": 2824988495, "lat": 40.7073701, "lon": -74.0083575}, {"type": "node", "id": 2824988497, "lat": 40.7073834, "lon": -74.0083783}, {"type": "node", "id": 2824988501, "lat": 40.707388, "lon": -74.0083733}, {"type": "node", "id": 2824988503, "lat": 40.7073928, "lon": -74.0083808}, {"type": "node", "id": 2824988505, "lat": 40.7074054, "lon": -74.0084076}, {"type": "node", "id": 2824988508, "lat": 40.707415, "lon": -74.0084093}, {"type": "node", "id": 2824988649, "lat": 40.708478, "lon": -74.0161563}, {"type": "node", "id": 2824988652, "lat": 40.7085009, "lon": -74.0162112}, {"type": "node", "id": 2824988656, "lat": 40.7086876, "lon": -74.016075}, {"type": "node", "id": 2837384392, "lat": 40.7057886, "lon": -74.0112224, "tags": {"addr:housenumber": "41", "addr:postcode": "10004", "addr:street": "Broad Street", "amenity": "school", "check_date": "2025-08-14", "name": "Lehman Manhattan Preparatory School", "wheelchair": "yes"}}, {"type": "node", "id": 2897265318, "lat": 40.709679, "lon": -74.0083821, "tags": {"addr:housenumber": "71", "addr:postcode": "10038", "addr:street": "Nassau Street", "amenity": "cafe", "cuisine": "sandwich", "delivery": "yes", "indoor_seating": "yes", "name": "d Elici", "opening_hours": "Mo-Fr 07:00-16:00; Sa 07:30-16:00", "outdoor_seating": "no", "phone": "+1 212-587-5740", "takeaway": "yes", "website": "http://delicinyc.com", "wheelchair": "yes"}}, {"type": "node", "id": 2897270433, "lat": 40.7102382, "lon": -74.0106426, "tags": {"addr:housenumber": "22", "addr:street": "Cortlandt Street", "amenity": "cafe", "brand": "The Coffee Bean & Tea Leaf", "brand:wikidata": "Q1141384", "cuisine": "coffee_shop", "name": "The Coffee Bean & Tea Leaf", "takeaway": "yes"}}, {"type": "node", "id": 2897876736, "lat": 40.70932, "lon": -74.008734, "tags": {"addr:city": "New York", "addr:housenumber": "59", "addr:postcode": "10038", "addr:state": "NY", "addr:street": "Nassau Street", "amenity": "restaurant", "cuisine": "sushi;ramen", "name": "Otani", "name:en": "Otani", "name:ja": "\u5927\u8c37", "opening_hours": "Mo-Th 11:00-22:00;Fr-Sa 11:00-10:30;Su 12:00-22:00", "phone": "+1-212-732-9250", "wheelchair": "no"}}, {"type": "node", "id": 2897876738, "lat": 40.7099489, "lon": -74.0100671, "tags": {"addr:housenumber": "173", "addr:street": "Broadway", "air_conditioning": "yes", "amenity": "restaurant", "check_date": "2024-06-27", "cuisine": "japanese", "delivery": "yes", "name": "Bento Sushi", "opening_hours": "Mo-Fr 10:30-19:00; Sa 11:00-18:00; Su off", "outdoor_seating": "no", "payment:cash": "yes", "payment:credit_cards": "yes", "smoking": "no", "takeaway": "yes", "wheelchair": "yes"}}, {"type": "node", "id": 2915596861, "lat": 40.7066535, "lon": -74.0123807, "tags": {"addr:city": "New York", "addr:housenumber": "56", "addr:postcode": "10004", "addr:state": "NY", "addr:street": "Broadway", "amenity": "college", "name": "The King's College", "phone": "+1 212-659-7200", "website": "https://www.tkc.edu/", "wheelchair": "yes"}}, {"type": "node", "id": 3190230454, "lat": 40.7053184, "lon": -74.0100991, "tags": {"amenity": "restaurant", "cuisine": "american;korean;japanese;coffee_shop", "indoor_seating": "yes", "name": "Open Kitchen", "outdoor_seating": "yes", "wheelchair": "yes"}}, {"type": "node", "id": 3190230455, "lat": 40.7062033, "lon": -74.011905, "tags": {"addr:city": "New York", "addr:housenumber": "30", "addr:postcode": "10004", "addr:state": "NY", "addr:street": "Broad Street", "amenity": "cafe", "brand": "Bluestone Lane", "brand:wikidata": "Q130381059", "cuisine": "australian;coffee_shop", "name": "Bluestone Lane"}}, {"type": "node", "id": 3448908338, "lat": 40.7060236, "lon": -74.0102403, "tags": {"addr:city": "New York", "addr:housenumber": "41", "addr:postcode": "10005", "addr:state": "NY", "addr:street": "Exchange Place", "amenity": "restaurant", "cuisine": "pizza", "delivery": "yes", "name": "Cucina Bene Pizza", "website": "https://www.cucinabenepizza.com/"}}, {"type": "node", "id": 3451440812, "lat": 40.7052914, "lon": -74.00834, "tags": {"addr:city": "New York", "addr:housenumber": "1", "addr:postcode": "10005", "addr:state": "NY", "addr:street": "Wall Street Court", "amenity": "bar", "name": "Continental Bar & Lounge", "old_name": "Haru Sushi", "opening_hours": "Mo-Th 11:00-23:00, Fr-Sa 11:00-00:00"}}, {"type": "node", "id": 3737959221, "lat": 40.7084159, "lon": -74.0142036, "tags": {"addr:city": "New York", "addr:housenumber": "103", "addr:postcode": "10006", "addr:street": "Washington Street", "amenity": "restaurant", "name": "St. George Tavern", "opening_hours": "Su-Th 06:30-18:00; Fr-Sa 06:30-02:00", "phone": "+12122409868", "wheelchair": "limited"}}, {"type": "node", "id": 3748367336, "lat": 40.7091507, "lon": -74.008281}, {"type": "node", "id": 3762209179, "lat": 40.7092057, "lon": -74.0125158}, {"type": "node", "id": 3762209180, "lat": 40.7092512, "lon": -74.0124814}, {"type": "node", "id": 3762209186, "lat": 40.7094335, "lon": -74.0123404}, {"type": "node", "id": 3772831306, "lat": 40.708905, "lon": -74.0126029}, {"type": "node", "id": 3926398285, "lat": 40.7073841, "lon": -74.012574, "tags": {"addr:city": "New York", "addr:housenumber": "65", "addr:postcode": "10006", "addr:state": "NY", "addr:street": "Broadway", "amenity": "restaurant", "name": "Variety Cafe", "phone": "+1-212-430-6888", "wheelchair": "no"}}, {"type": "node", "id": 4032952252, "lat": 40.7078904, "lon": -74.015861}, {"type": "node", "id": 4032952253, "lat": 40.7097207, "lon": -74.0152059}, {"type": "node", "id": 4032952254, "lat": 40.7090289, "lon": -74.0153735}, {"type": "node", "id": 4032952264, "lat": 40.7081177, "lon": -74.016193}, {"type": "node", "id": 4032952269, "lat": 40.7093489, "lon": -74.0152599}, {"type": "node", "id": 4032952276, "lat": 40.7097982, "lon": -74.0155642}, {"type": "node", "id": 4032952277, "lat": 40.708016, "lon": -74.0161506}, {"type": "node", "id": 4032952278, "lat": 40.7079324, "lon": -74.0159631}, {"type": "node", "id": 4032952280, "lat": 40.7078799, "lon": -74.0157961}, {"type": "node", "id": 4032952286, "lat": 40.7081788, "lon": -74.016337}, {"type": "node", "id": 4140525190, "lat": 40.7097774, "lon": -74.0089148, "tags": {"addr:housenumber": "20", "addr:street": "John Street", "air_conditioning": "yes", "amenity": "restaurant", "bar": "no", "capacity": "16", "cuisine": "thai", "delivery": "yes", "highchair": "no", "indoor_seating": "yes", "microbrewery": "no", "name": "Aroy Dee Thai Kitchen", "opening_hours": "Mo-Su 11:00-21:15", "outdoor_seating": "no", "phone": "+1-212-528-9922", "smoking": "no", "takeaway": "yes", "toilets": "no", "website": "http://www.aroydeethaikitchen.com", "wheelchair": "no"}}, {"type": "node", "id": 4206997147, "lat": 40.7070081, "lon": -74.0139099, "tags": {"barrier": "kerb", "kerb": "lowered", "tactile_paving": "yes", "wheelchair": "yes"}}, {"type": "node", "id": 4324282097, "lat": 40.7090297, "lon": -74.0114731, "tags": {"addr:housenumber": "115", "addr:postcode": "10006", "addr:state": "NY", "addr:street": "Broadway", "amenity": "pub", "name": "Trinity Place Bar and Restaurant", "opening_hours": "Mo-Fr 11:30-01:00"}}, {"type": "node", "id": 4402057816, "lat": 40.7065633, "lon": -74.0129228, "tags": {"addr:housenumber": "47", "addr:postcode": "10006", "addr:street": "Broadway", "amenity": "restaurant", "branch": "47 Broadway", "brand": "TGI Fridays", "brand:wikidata": "Q1524184", "cocktails": "yes", "cuisine": "american", "drink:beer": "yes", "drink:wine": "yes", "level": "0", "name": "TGI Fridays", "opening_hours": "Su-We 11:30-22:00; Th-Sa 11:30-11:00", "phone": "+1 212-483-8322", "website": "https://locations.tgifridays.com/ny/new-york/47-broadway.html", "wheelchair": "yes"}}, {"type": "node", "id": 4680481185, "lat": 40.7081387, "lon": -74.010378, "tags": {"addr:city": "New York", "addr:floor": "31", "addr:housenumber": "120", "addr:postcode": "10271", "addr:state": "NY", "addr:street": "Broadway", "addr:unit": "31st Floor", "air_conditioning": "yes", "fax": "+1-212-720-3488", "government": "yes", "name": "New York City Department of City Planning", "office": "government", "operator": "City of New York", "operator:type": "government", "operator:wikidata": "Q3112559", "operator:wikipedia": "en:City of New York", "phone": "+1-212-720-3300", "website": "https://www1.nyc.gov/site/planning/index.page", "wikidata": "Q8354830", "wikipedia": "en:New York City Department of City Planning"}}, {"type": "node", "id": 4762006023, "lat": 40.7080962, "lon": -74.0146254, "tags": {"addr:housenumber": "90", "addr:postcode": "10006", "addr:street": "Washington Street", "amenity": "bar", "indoor_seating": "yes", "name": "Clinton Hall", "opening_hours": "Th-Sa 11:30-02:00; Su-We 11:30-00:00", "outdoor_seating": "yes", "phone": "+12123636000", "toilets": "yes", "website": "http://www.clintonhaklny.com", "wheelchair": "yes"}}, {"type": "node", "id": 4802844049, "lat": 40.706735, "lon": -74.0096934, "tags": {"addr:housenumber": "40", "addr:street": "Wall Street", "amenity": "restaurant", "check_date": "2023-01-26", "cuisine": "pizza", "indoor_seating": "yes", "name": "Luzzo's La Pizza Napoletana", "outdoor_seating": "yes", "payment:credit_cards": "yes", "payment:debit_cards": "yes", "takeaway": "yes", "wheelchair": "yes"}}, {"type": "node", "id": 4846158321, "lat": 40.7056733, "lon": -74.0083741, "tags": {"addr:housenumber": "69B", "addr:postcode": "10005", "addr:street": "Wall Street", "amenity": "cafe", "brand": "La Colombe Coffee Roasters", "brand:wikidata": "Q23461663", "cuisine": "coffee_shop", "drink:coffee": "yes", "drink:espresso": "yes", "drink:tea": "yes", "indoor_seating": "yes", "name": "La Colombe Coffee Roasters", "opening_hours": "Mo-Fr 06:00-18:30; Sa-Su 07:00-18:30", "opening_hours:covid19": "Mo-Fr 07:00-18:00; Sa-Su 07:00-17:00", "outdoor_seating": "no", "phone": "+1-212-220-0415", "short_name": "La Colombe", "takeaway": "yes", "website": "https://www.lacolombe.com/", "wheelchair": "yes"}}, {"type": "node", "id": 4850230829, "lat": 40.7061594, "lon": -74.008845, "tags": {"addr:postcode": "10005", "amenity": "cafe", "brand": "Starbucks", "brand:wikidata": "Q37158", "check_date": "2019-11-02", "cuisine": "coffee_shop", "name": "Starbucks", "official_name": "Starbucks Coffee", "opening_hours": "Mo-Fr 07:00-20:00; Sa-Su 07:00-18:00", "phone": "+13474614068", "takeaway": "yes", "wheelchair": "yes"}}, {"type": "node", "id": 4860132622, "lat": 40.7080709, "lon": -74.0137437, "tags": {"addr:housenumber": "94", "addr:postcode": "10006", "addr:street": "Greenwich Street", "amenity": "cafe", "check_date": "2023-02-23", "indoor_seating": "yes", "name": "Siena Bakehouse", "outdoor_seating": "no"}}, {"type": "node", "id": 4860141023, "lat": 40.7080225, "lon": -74.0143548, "tags": {"addr:postcode": "10006", "amenity": "restaurant", "name": "Sauce & Barrel", "opening_hours": "Mo-Fr 11:30-23:00; Sa 12:00-01:00", "phone": "+12124806800", "website": "https://www.sauceandbarrel.com/"}}, {"type": "node", "id": 4942593330, "lat": 40.7073323, "lon": -74.008539}, {"type": "node", "id": 4942593331, "lat": 40.7072142, "lon": -74.0081009}, {"type": "node", "id": 4942593338, "lat": 40.7073374, "lon": -74.0084629}, {"type": "node", "id": 4942593339, "lat": 40.7073262, "lon": -74.0084448}, {"type": "node", "id": 4942593348, "lat": 40.7073559, "lon": -74.0084173}, {"type": "node", "id": 4942593349, "lat": 40.7073659, "lon": -74.0084339}, {"type": "node", "id": 4972315823, "lat": 40.7078644, "lon": -74.0134822, "tags": {"addr:housenumber": "85", "addr:street": "Greenwich Street", "amenity": "restaurant", "indoor_seating": "yes", "name": "George's New York", "name:en": "George's New York", "outdoor_seating": "yes", "wheelchair": "limited"}}, {"type": "node", "id": 4972322721, "lat": 40.7075864, "lon": -74.0134624, "tags": {"addr:city": "New York", "addr:housenumber": "44", "addr:street": "Trinity Place", "amenity": "restaurant", "branch": "Financial District", "cuisine": "sandwich", "delivery": "yes", "facebook": "wogiesbar", "indoor_seating": "yes", "instagram": "wogiesbar", "name": "Wogies", "opening_hours": "Mo-Su 11:00-02:00", "outdoor_seating": "no", "phone": "+1 212-785-2838", "takeaway": "yes", "twitter": "wogiesbar", "website": "https://wogies.com"}}, {"type": "node", "id": 5047505367, "lat": 40.7104854, "lon": -74.0143552}, {"type": "node", "id": 5101299223, "lat": 40.7070263, "lon": -74.0132592, "tags": {"addr:housenumber": "27", "addr:street": "Trinity Place", "amenity": "restaurant", "name": "Sale & Pepe", "wheelchair": "yes"}}, {"type": "node", "id": 5101542622, "lat": 40.7081578, "lon": -74.0139728, "tags": {"addr:housenumber": "16", "addr:postcode": "10006", "addr:street": "Rector Street", "amenity": "cafe"}}, {"type": "node", "id": 5135848733, "lat": 40.7078716, "lon": -74.0102438, "tags": {"addr:city": "New York", "addr:housenumber": "120", "addr:postcode": "10271", "addr:state": "NY", "addr:street": "Broadway", "amenity": "restaurant", "bar": "yes", "indoor_seating": "yes", "name": "The Capital Grille", "opening_hours": "Mo-Fr 11:30-10:00, Sa 05:00-10:00, Su closed", "outdoor_seating": "no", "phone": "+1-212-374-1811", "reservation": "yes", "website": "https://www.thecapitalgrille.com/home", "wheelchair": "limited"}}, {"type": "node", "id": 5170067385, "lat": 40.7070592, "lon": -74.0101923, "tags": {"addr:city": "New York", "addr:housenumber": "30", "addr:postcode": "10005", "addr:state": "NY", "addr:street": "Wall Street", "name": "dearJulius.com", "office": "newspaper", "opening_hours": "24/7", "phone": "+1-646-893-7689", "website": "https://www.dearjulius.com/"}}, {"type": "node", "id": 5209054495, "lat": 40.7066849, "lon": -74.0137949}, {"type": "node", "id": 5209054497, "lat": 40.706364, "lon": -74.0142569}, {"type": "node", "id": 5209054498, "lat": 40.7065043, "lon": -74.0139931}, {"type": "node", "id": 5209054500, "lat": 40.7065489, "lon": -74.0139305}, {"type": "node", "id": 5209054504, "lat": 40.7063447, "lon": -74.0142955}, {"type": "node", "id": 5209054506, "lat": 40.7065917, "lon": -74.0138802}, {"type": "node", "id": 5209054508, "lat": 40.706652, "lon": -74.0138232}, {"type": "node", "id": 5209054509, "lat": 40.706448, "lon": -74.0140846}, {"type": "node", "id": 5244657822, "lat": 40.7095698, "lon": -74.012718, "tags": {"amenity": "restaurant", "branch": "Financial District", "catering": "yes", "cuisine": "indian", "delivery": "yes", "diet:halal": "yes", "diet:vegetarian": "yes", "indoor_seating": "yes", "name": "Mughlai Indian Cuisine", "opening_hours": "Mo-Th 11:00-14:45, 17:00-21:45; Fr 11:00-14:45, 17:00-22:15; Sa 11:00-22:15; Su 11:00-21:45", "outdoor_seating": "no", "payment:cash": "yes", "payment:credit_cards": "yes", "phone": "+1-646-869-0300", "reservation": "yes", "smoking": "no", "takeaway": "yes", "toilets": "yes", "website": "https://mughlaicuisineny.com/"}}, {"type": "node", "id": 5332665135, "lat": 40.7061301, "lon": -74.0114781, "tags": {"addr:city": "New York", "addr:housenumber": "30", "addr:postcode": "10004", "addr:state": "NY", "addr:street": "Broad Street", "email": "alexlogerfo@ssconcretepolshing.com", "name": "Southside Concrete Polishing", "office": "company", "phone": "+1-646-760-4442", "website": "https://ssconcretepolishing.com/", "wheelchair": "yes"}}, {"type": "node", "id": 5383989328, "lat": 40.7091871, "lon": -74.0088819, "tags": {"addr:housenumber": "59", "addr:postcode": "10038", "addr:street": "Nassau Street", "air_conditioning": "no", "amenity": "restaurant", "bar": "no", "check_date": "2024-06-27", "cuisine": "italian", "delivery": "yes", "dish": "pizza", "highchair": "yes", "name": "Friendly Gourmet Pizza", "opening_hours": "Mo-Fr 06:30-18:00", "outdoor_seating": "yes", "payment:cash": "yes", "payment:credit_cards": "yes", "phone": "+1 212-791-1800", "takeaway": "yes", "website": "https://www.friendlypizzeria.com", "wheelchair": "yes"}}, {"type": "node", "id": 5461888238, "lat": 40.7053339, "lon": -74.0139867, "tags": {"addr:city": "New York", "addr:housenumber": "11", "addr:postcode": "10004", "addr:state": "NY", "addr:street": "Broadway", "addr:unit": "Suite 1005", "email": "a.johnson@lawapj.com", "fax": "+1-212-430-6797", "name": "Andrew P. Johnson, PC", "office": "lawyer", "phone": "+1-212-693-3355", "website": "https://www.lawapj.com/"}}, {"type": "node", "id": 5561000664, "lat": 40.7086517, "lon": -74.010158, "tags": {"addr:city": "New York", "addr:housenumber": "140", "addr:postcode": "10004", "addr:state": "NY", "addr:street": "Broadway", "addr:unit": "Suite 46", "contact:facebook": "https://www.facebook.com/LevoritzLawGroup/", "name": "The Levoritz Law Firm", "office": "lawyer", "phone": "+1-929-207-6637", "website": "https://levoritzlaw.com/"}}, {"type": "node", "id": 5801870934, "lat": 40.7078151, "lon": -74.0086882, "tags": {"addr:housenumber": "28", "addr:street": "Liberty Street", "amenity": "bar", "cocktails": "yes", "contact:instagram": "manhatta_nyc", "drink:beer": "draught; bottled", "drink:wine": "served", "email": "info@manhattarestaurant.com", "level": "59", "name": "Manhatta", "phone": "+1 212-230-5788", "reservation": "yes", "website": "https://www.manhattarestaurant.com", "wheelchair": "limited"}}, {"type": "node", "id": 5810383921, "lat": 40.7066673, "lon": -74.0135136, "tags": {"addr:city": "New York", "addr:housenumber": "17", "addr:postcode": "10006", "addr:state": "NY", "addr:street": "Trinity Place", "amenity": "restaurant", "cuisine": "pizza;sushi", "diet:dairy_free": "yes", "diet:gluten_free": "yes", "diet:kosher": "only", "diet:vegan": "yes", "drive_through": "no", "name": "Bravo Kosher Pizza", "not:brand:wikidata": "Q64055574", "opening_hours": "Mo-Th 10:00-19:00", "outdoor_seating": "yes", "phone": "+1-212-344-1111", "website": "https://www.bravokosherdowntown.com/", "wheelchair": "yes"}}, {"type": "node", "id": 5889771445, "lat": 40.7052679, "lon": -74.0145708, "tags": {"addr:housenumber": "11", "addr:postcode": "10004", "addr:street": "Greenwich Street", "admin_level": "4", "branch": "Lower Manhattan", "government": "transportation", "name": "New York State Department of Motor Vehicles", "office": "government", "opening_hours": "Mo-Fr 08:30-16:00", "operator": "New York State Department of Motor Vehicles", "operator:short": "NYSDMV", "operator:wikidata": "Q17109616", "phone": "+1 212-645-5550", "short_name": "DMV", "website": "https://dmv.ny.gov/office/lower-manhattan-greenwich-st"}}, {"type": "node", "id": 5978556702, "lat": 40.7048978, "lon": -74.0122892, "tags": {"addr:city": "New York", "addr:housenumber": "20", "addr:postcode": "10004", "addr:state": "NY", "addr:street": "Beaver Street", "amenity": "restaurant", "check_date": "2025-08-14", "cuisine": "pizza", "name": "Pizza Etalia", "wheelchair": "no"}}, {"type": "node", "id": 5978556705, "lat": 40.7061538, "lon": -74.0128132, "tags": {"addr:housenumber": "42", "addr:street": "Broadway", "amenity": "cafe", "indoor_seating": "yes", "name": "Gregory\u2019s Coffee", "opening_hours": "Mo-Fr 06:00-18:00; Sa,Su 07:00-17:00", "outdoor_seating": "yes", "wheelchair": "yes"}}, {"type": "node", "id": 5978556715, "lat": 40.7055604, "lon": -74.0124709, "tags": {"addr:housenumber": "75", "addr:street": "New Street", "amenity": "restaurant", "cuisine": "caribbean", "name": "Sophie\u2019s", "wheelchair": "yes"}}, {"type": "node", "id": 5978556716, "lat": 40.7056747, "lon": -74.0125085, "tags": {"addr:housenumber": "69", "addr:street": "New Street", "amenity": "restaurant", "cuisine": "mexican", "name": "El Toro", "phone": "+1-212-363-3900", "wheelchair": "yes"}}, {"type": "node", "id": 5978556721, "lat": 40.707216, "lon": -74.008596, "tags": {"addr:housenumber": "62", "addr:street": "William Street", "amenity": "cafe", "name": "Koyzina Kafe", "wheelchair": "no"}}, {"type": "node", "id": 5978557992, "lat": 40.7057076, "lon": -74.0123841, "tags": {"addr:housenumber": "69", "addr:street": "New Street", "amenity": "restaurant", "cuisine": "pizza", "name": "The Grotto", "wheelchair": "no"}}, {"type": "node", "id": 5978557997, "lat": 40.7095297, "lon": -74.0119738, "tags": {"addr:housenumber": "110", "addr:street": "Trinity Place", "amenity": "cafe", "name": "Lazzaro", "wheelchair": "yes"}}, {"type": "node", "id": 5978557998, "lat": 40.7094109, "lon": -74.0120305, "tags": {"addr:housenumber": "110", "addr:street": "Trinity Place", "amenity": "cafe", "check_date": "2025-07-15", "cuisine": "pizza", "indoor_seating": "yes", "name": "Hank\u2019s Pizza", "outdoor_seating": "yes", "payment:cash": "yes", "payment:credit_cards": "yes", "payment:debit_cards": "yes", "phone": "+12127964499", "wheelchair": "yes"}}, {"type": "node", "id": 5978558886, "lat": 40.7082492, "lon": -74.0101892, "tags": {"amenity": "cafe", "name": "Manon Cafe"}}, {"type": "node", "id": 5978837398, "lat": 40.7077341, "lon": -74.0135393, "tags": {"addr:housenumber": "85", "addr:street": "Greenwich Street", "amenity": "restaurant", "cuisine": "mexican", "indoor_seating": "yes", "name": "Tajin", "outdoor_seating": "yes"}}, {"type": "node", "id": 5980089186, "lat": 40.709609, "lon": -74.0093344, "tags": {"addr:city": "New York", "addr:housenumber": "9", "addr:postcode": "10038", "addr:state": "NY", "addr:street": "Maiden Lane", "air_conditioning": "yes", "amenity": "restaurant", "check_date": "2024-06-27", "cuisine": "coffee_shop;cafe;sandwich", "description": "Has at least 1 wall outlet to charge phone", "drive_through": "no", "highchair": "no", "indoor_seating": "yes", "internet_access": "yes", "internet_access:fee": "no", "name": "La Parisienne", "opening_hours": "Mo-Fr 07:30-19:30; Sa-Su 08:00-17:00", "outdoor_seating": "yes", "payment:cash": "yes", "payment:credit_cards": "yes", "reservation": "yes", "smoking": "no", "takeaway": "yes", "wheelchair": "yes"}}, {"type": "node", "id": 6020091159, "lat": 40.7065551, "lon": -74.0136373, "tags": {"addr:housenumber": "11", "addr:street": "Trinity Place", "amenity": "restaurant", "cuisine": "irish", "name": "Blarney Stone", "wheelchair": "yes"}}, {"type": "node", "id": 6179821278, "lat": 40.7099202, "lon": -74.0091218, "tags": {"addr:housenumber": "12", "addr:postcode": "10038", "addr:street": "John Street", "amenity": "cafe", "brand": "CoCo", "brand:wikidata": "Q65084369", "cuisine": "bubble_tea", "indoor_seating": "yes", "name": "CoCo Fresh Tea & Juice", "opening_hours": "Mo-Fr 10:00-22:00; Sa, Su 10:00-21:00", "outdoor_seating": "no", "phone": "+1-212-349-1800", "seats": "8", "short_name": "CoCo", "takeaway": "yes", "website": "http://en.coco-tea.com/store-locator/store/359", "wheelchair": "yes"}}, {"type": "node", "id": 6268489254, "lat": 40.7082737, "lon": -74.010834, "tags": {"addr:city": "New York", "addr:housenumber": "120", "addr:postcode": "10271", "addr:state": "NY", "addr:street": "Broadway", "addr:unit": "6th Fl.", "air_conditioning": "yes", "name": "Handel Architects", "office": "architect", "opening_hours": "Mo-Fr 09:00-18:00", "website": "https://handelarchitects.com"}}, {"type": "node", "id": 6347184545, "lat": 40.7058861, "lon": -74.0129692, "tags": {"addr:city": "New York", "addr:housenumber": "32", "addr:postcode": "10004", "addr:state": "NY", "addr:street": "Broadway", "addr:unit": "Suite 811", "contact:facebook": "https://www.facebook.com/michaeljredenburg", "description": "Michael J. Redenburg is a personal injury attorney in Manhattan helping car accident victims cover their rightful compensation.", "name": "Michael J. Redenburg, Esq. P.C.", "office": "lawyer", "opening_hours": "Mo-Tu, Fr 09:00-17:00; We-Th 09:00-18:00", "phone": "+1-212-240-9465", "website": "https://mjrlaw-ny.com/"}}, {"type": "node", "id": 6417640366, "lat": 40.7101282, "lon": -74.0136388}, {"type": "node", "id": 6419225446, "lat": 40.7101821, "lon": -74.0137046}, {"type": "node", "id": 6419487813, "lat": 40.7100613, "lon": -74.0135855}, {"type": "node", "id": 6419487814, "lat": 40.7102987, "lon": -74.0139633}, {"type": "node", "id": 6419520969, "lat": 40.7098358, "lon": -74.0132328}, {"type": "node", "id": 6475062686, "lat": 40.7059216, "lon": -74.0129774, "tags": {"addr:housenumber": "32", "addr:street": "Broadway", "amenity": "restaurant", "cuisine": "sushi", "fixme": "fix node position", "indoor_seating": "yes", "name": "Bento Nouveau", "opening_hours": "Mo-Th 09:00-20:00; Sa,Su 10:00-18:00", "outdoor_seating": "no", "wheelchair": "no"}}, {"type": "node", "id": 6566728787, "lat": 40.7098464, "lon": -74.0090195, "tags": {"amenity": "restaurant", "indoor_seating": "yes", "name": "Go! Go! Curry", "outdoor_seating": "no"}}, {"type": "node", "id": 6566940485, "lat": 40.7091007, "lon": -74.0091471, "tags": {"amenity": "restaurant", "check_date:opening_hours": "2023-08-16", "indoor_seating": "yes", "name": "Kati Roll Company", "opening_hours:signed": "no", "outdoor_seating": "yes"}}, {"type": "node", "id": 6802800188, "lat": 40.7058652, "lon": -74.0087804, "tags": {"addr:housenumber": "65A", "addr:postcode": "10005", "addr:street": "Wall Street", "amenity": "restaurant", "brand": "CAVA", "brand:wikidata": "Q85751038", "check_date": "2025-04-28", "check_date:opening_hours": "2025-04-28", "cuisine": "mediterranean", "diet:vegetarian": "yes", "indoor_seating": "yes", "name": "CAVA", "opening_hours": "Mo-Su 10:45-22:00", "outdoor_seating": "no", "phone": "+1-212-206-2524"}}, {"type": "node", "id": 6978478914, "lat": 40.7097557, "lon": -74.0153526}, {"type": "node", "id": 6978478915, "lat": 40.7097812, "lon": -74.0154826}, {"type": "node", "id": 7072589176, "lat": 40.7049872, "lon": -74.0139401}, {"type": "node", "id": 7072589177, "lat": 40.7050721, "lon": -74.0139015}, {"type": "node", "id": 7072589179, "lat": 40.7050603, "lon": -74.0133783}, {"type": "node", "id": 7072589180, "lat": 40.7050218, "lon": -74.0133785}, {"type": "node", "id": 7072589181, "lat": 40.7050847, "lon": -74.0133785}, {"type": "node", "id": 7129357663, "lat": 40.7085722, "lon": -74.0147295, "tags": {"addr:city": "New York", "addr:housenumber": "40", "addr:postcode": "11225", "addr:state": "NY", "addr:street": "Rector Street", "addr:unit": "16th Floor", "name": "Doctors Without Borders", "office": "ngo"}}, {"type": "node", "id": 7685535298, "lat": 40.7053268, "lon": -74.0136437}, {"type": "node", "id": 7685535299, "lat": 40.7053095, "lon": -74.0136702}, {"type": "node", "id": 7685535300, "lat": 40.7052601, "lon": -74.0137382}, {"type": "node", "id": 7685535302, "lat": 40.7051087, "lon": -74.0138774}, {"type": "node", "id": 7685535303, "lat": 40.7050212, "lon": -74.0139287}, {"type": "node", "id": 7685535304, "lat": 40.7049577, "lon": -74.0139461}, {"type": "node", "id": 7685535305, "lat": 40.7049287, "lon": -74.0139474}, {"type": "node", "id": 7685535306, "lat": 40.704871, "lon": -74.0139357}, {"type": "node", "id": 7685535307, "lat": 40.7048441, "lon": -74.013922}, {"type": "node", "id": 7685535308, "lat": 40.7048151, "lon": -74.0139002}, {"type": "node", "id": 7685535309, "lat": 40.7047823, "lon": -74.0138676}, {"type": "node", "id": 7685535310, "lat": 40.7047612, "lon": -74.0138371}, {"type": "node", "id": 7685535311, "lat": 40.7047277, "lon": -74.0137457}, {"type": "node", "id": 7685535312, "lat": 40.7047203, "lon": -74.0136775}, {"type": "node", "id": 7685535313, "lat": 40.7047235, "lon": -74.0136393}, {"type": "node", "id": 7685535314, "lat": 40.7047307, "lon": -74.0135932}, {"type": "node", "id": 7685535315, "lat": 40.7047404, "lon": -74.0135565}, {"type": "node", "id": 7685535316, "lat": 40.7047676, "lon": -74.0135002}, {"type": "node", "id": 7685535317, "lat": 40.7047953, "lon": -74.0134633}, {"type": "node", "id": 7685535318, "lat": 40.7049492, "lon": -74.0133877}, {"type": "node", "id": 7685535319, "lat": 40.7049172, "lon": -74.0133954}, {"type": "node", "id": 7685535320, "lat": 40.7051261, "lon": -74.0133808}, {"type": "node", "id": 7685535321, "lat": 40.7051656, "lon": -74.0133874}, {"type": "node", "id": 7685535322, "lat": 40.7052672, "lon": -74.0134212}, {"type": "node", "id": 7685535323, "lat": 40.7053242, "lon": -74.0134687}, {"type": "node", "id": 7685535324, "lat": 40.7053339, "lon": -74.0134854}, {"type": "node", "id": 7685535325, "lat": 40.7053451, "lon": -74.0135136}, {"type": "node", "id": 7685535326, "lat": 40.7053504, "lon": -74.013547}, {"type": "node", "id": 7685535327, "lat": 40.7053454, "lon": -74.0135959}, {"type": "node", "id": 7685535328, "lat": 40.7047389, "lon": -74.0137909}, {"type": "node", "id": 7685539641, "lat": 40.7053093, "lon": -74.0134506}, {"type": "node", "id": 7685539642, "lat": 40.7051999, "lon": -74.0133954}, {"type": "node", "id": 7685539643, "lat": 40.7049947, "lon": -74.0133807}, {"type": "node", "id": 7685539644, "lat": 40.7048605, "lon": -74.0134167}, {"type": "node", "id": 7685539645, "lat": 40.7048129, "lon": -74.0134468}, {"type": "node", "id": 7685539646, "lat": 40.704784, "lon": -74.013478}, {"type": "node", "id": 7685539647, "lat": 40.7047549, "lon": -74.0135213}, {"type": "node", "id": 7685539648, "lat": 40.704721, "lon": -74.0137126}, {"type": "node", "id": 7685539649, "lat": 40.7053506, "lon": -74.0135706}, {"type": "node", "id": 7706733771, "lat": 40.7063749, "lon": -74.0144154}, {"type": "node", "id": 7706983307, "lat": 40.706363, "lon": -74.0143666}, {"type": "node", "id": 8262936617, "lat": 40.7095801, "lon": -74.0116553, "tags": {"barrier": "kerb", "kerb": "lowered", "tactile_paving": "yes", "wheelchair": "yes"}}, {"type": "node", "id": 8262936618, "lat": 40.7093169, "lon": -74.0118366, "tags": {"barrier": "kerb", "kerb": "lowered", "tactile_paving": "yes", "wheelchair": "yes"}}, {"type": "node", "id": 8276468685, "lat": 40.7048889, "lon": -74.0089652}, {"type": "node", "id": 8276468689, "lat": 40.7048109, "lon": -74.0096941}, {"type": "node", "id": 8281922296, "lat": 40.7097015, "lon": -74.0151801}, {"type": "node", "id": 8281922297, "lat": 40.7085415, "lon": -74.0155511}, {"type": "node", "id": 8281922298, "lat": 40.7078747, "lon": -74.0158126}, {"type": "node", "id": 8281922320, "lat": 40.7083565, "lon": -74.0162062}, {"type": "node", "id": 8281922321, "lat": 40.7084429, "lon": -74.0161436}, {"type": "node", "id": 8281922325, "lat": 40.7082863, "lon": -74.016258}, {"type": "node", "id": 8281922328, "lat": 40.7079136, "lon": -74.0159195}, {"type": "node", "id": 8281922329, "lat": 40.7079022, "lon": -74.0158908}, {"type": "node", "id": 8281922333, "lat": 40.7097403, "lon": -74.0152742}, {"type": "node", "id": 8281922334, "lat": 40.7097462, "lon": -74.0153037}, {"type": "node", "id": 8806749196, "lat": 40.7098346, "lon": -74.0091022, "tags": {"addr:city": "New York", "addr:housenumber": "12", "addr:postcode": "10038", "addr:street": "John Street", "contact:website": "https://cleaningexec.com/", "email": "support@cleaningexec.com", "name": "Cleaning Exec Cleaning Services", "office": "company", "phone": "+1-212-457-8699"}}, {"type": "node", "id": 8832734925, "lat": 40.7092166, "lon": -74.0141592, "tags": {"addr:city": "New York", "addr:housenumber": "15", "addr:postcode": "10006", "addr:state": "NY", "addr:street": "Carlisle Street", "amenity": "cafe", "branch": "Carlisle and Washington", "brand": "Starbucks", "brand:wikidata": "Q37158", "check_date": "2023-02-23", "cuisine": "coffee_shop", "name": "Starbucks", "official_name": "Starbucks Coffee", "phone": "+1 646-860-8615", "ref": "1017449", "takeaway": "yes", "website": "https://www.starbucks.com/store-locator/store/1017449/carlisle-and-washington-15-carlisle-st-new-york-ny-100061516-us"}}, {"type": "node", "id": 9025349991, "lat": 40.7048689, "lon": -74.0095345, "tags": {"addr:housenumber": "3", "addr:postcode": "10004", "addr:street": "Hanover Square", "brand": "Block Advisors", "brand:wikidata": "Q64166231", "name": "Block Advisors", "office": "tax_advisor"}}, {"type": "node", "id": 9120821898, "lat": 40.7088439, "lon": -74.0113831, "tags": {"addr:city": "New York", "addr:housenumber": "9", "addr:postcode": "10006", "addr:state": "NY", "addr:street": "Thames Street", "amenity": "restaurant", "cuisine": "pizza", "name": "Big Al's Chicago Style Pizza"}}, {"type": "node", "id": 9149294696, "lat": 40.7095464, "lon": -74.0092712, "tags": {"air_conditioning": "yes", "amenity": "restaurant", "bar": "yes", "check_date": "2024-06-27", "cuisine": "american", "indoor_seating": "yes", "name": "The Malt House", "outdoor_seating": "yes", "payment:cash": "yes", "payment:credit_cards": "yes", "reservation": "yes", "takeaway": "yes", "wheelchair": "yes"}}, {"type": "node", "id": 9652667817, "lat": 40.7052164, "lon": -74.0091284, "tags": {"addr:housenumber": "5", "addr:street": "Hanover Street", "amenity": "cafe", "name": "The Little Beet"}}, {"type": "node", "id": 9711419117, "lat": 40.709544, "lon": -74.0085841, "tags": {"amenity": "cafe", "name": "Healthy Green Juice Bar"}}, {"type": "node", "id": 9733053717, "lat": 40.709698, "lon": -74.009548, "tags": {"addr:housenumber": "3", "addr:street": "Maiden Lane", "air_conditioning": "yes", "amenity": "restaurant", "check_date": "2024-06-27", "cuisine": "vietnamese;rice_noodle", "delivery": "yes", "highchair": "no", "indoor_seating": "yes", "name": "Pho Maiden Lane", "opening_hours": "Mo-Sa 10:00-20:00; Su 10:00-18:00", "outdoor_seating": "no", "payment:cash": "yes", "payment:credit_cards": "yes", "phone": "+1 646-449-0247", "rice_noodle": "pho", "smoking": "no", "takeaway": "yes", "toilets": "no", "wheelchair": "yes"}}, {"type": "node", "id": 9771083990, "lat": 40.7084333, "lon": -74.0135562, "tags": {"addr:housenumber": "104", "addr:street": "Greenwich Street", "amenity": "restaurant", "check_date": "2023-02-23", "cuisine": "diner", "delivery": "yes", "indoor_seating": "yes", "name": "ZAZA", "opening_hours": "07:00-22:00", "outdoor_seating": "no", "phone": "+1 646-864-0040", "takeaway": "yes", "toilets:wheelchair": "yes", "wheelchair": "yes"}}, {"type": "node", "id": 9898775045, "lat": 40.704909, "lon": -74.0139448, "tags": {"barrier": "kerb", "kerb": "raised", "tactile_paving": "no", "wheelchair": "no"}}, {"type": "node", "id": 10168364245, "lat": 40.7068647, "lon": -74.0136495, "tags": {"barrier": "kerb", "kerb": "lowered", "tactile_paving": "yes", "wheelchair": "yes"}}, {"type": "node", "id": 10268906107, "lat": 40.7062579, "lon": -74.0114037, "tags": {"addr:city": "New York", "addr:housenumber": "30", "addr:postcode": "10004", "addr:state": "NY", "addr:street": "Broad Street", "amenity": "restaurant", "cuisine": "italian", "name": "Serafina Vino e Cucina", "opening_hours": "Fr-Sa 12:00-22:00; Su off", "phone": "+1-347-647-9030", "website": "https://serafinavinoecucina.com/"}}, {"type": "node", "id": 10290401161, "lat": 40.7095787, "lon": -74.0116227}, {"type": "node", "id": 10290401162, "lat": 40.7095701, "lon": -74.0116785}, {"type": "node", "id": 10290401163, "lat": 40.7095774, "lon": -74.0116677}, {"type": "node", "id": 10290401164, "lat": 40.7095813, "lon": -74.0116439}, {"type": "node", "id": 10290401165, "lat": 40.7095809, "lon": -74.0116333}, {"type": "node", "id": 10290401166, "lat": 40.7090991, "lon": -74.0106835}, {"type": "node", "id": 10290401167, "lat": 40.7091134, "lon": -74.0106746, "tags": {"barrier": "kerb", "kerb": "lowered", "tactile_paving": "yes", "wheelchair": "yes"}}, {"type": "node", "id": 10290401168, "lat": 40.7091447, "lon": -74.0106724}, {"type": "node", "id": 10290401169, "lat": 40.7091335, "lon": -74.0106682}, {"type": "node", "id": 10290401170, "lat": 40.7091235, "lon": -74.0106687}, {"type": "node", "id": 10290401171, "lat": 40.7088955, "lon": -74.0108539}, {"type": "node", "id": 10290401172, "lat": 40.7088822, "lon": -74.010898}, {"type": "node", "id": 10290401173, "lat": 40.7088815, "lon": -74.0108829}, {"type": "node", "id": 10290401174, "lat": 40.708886, "lon": -74.0108684}, {"type": "node", "id": 10290401177, "lat": 40.7093397, "lon": -74.0118364}, {"type": "node", "id": 10290401178, "lat": 40.7093013, "lon": -74.011824}, {"type": "node", "id": 10290401179, "lat": 40.7093269, "lon": -74.0118396}, {"type": "node", "id": 10290401180, "lat": 40.7093085, "lon": -74.011833}, {"type": "node", "id": 10290401193, "lat": 40.7091564, "lon": -74.0106886, "tags": {"barrier": "kerb", "kerb": "lowered", "tactile_paving": "yes", "wheelchair": "yes"}}, {"type": "node", "id": 10290401197, "lat": 40.7088913, "lon": -74.0108603, "tags": {"barrier": "kerb", "kerb": "lowered", "tactile_paving": "yes", "wheelchair": "yes"}}, {"type": "node", "id": 10315959486, "lat": 40.7064028, "lon": -74.0144036, "tags": {"highway": "street_lamp"}}, {"type": "node", "id": 10315971065, "lat": 40.7067275, "lon": -74.0137584}, {"type": "node", "id": 10315971066, "lat": 40.7069271, "lon": -74.0136479, "tags": {"barrier": "kerb", "kerb": "lowered", "tactile_paving": "yes", "wheelchair": "yes"}}, {"type": "node", "id": 10315971073, "lat": 40.7068879, "lon": -74.0136312}, {"type": "node", "id": 10315971074, "lat": 40.7069189, "lon": -74.0136349}, {"type": "node", "id": 10315971075, "lat": 40.7069126, "lon": -74.013628}, {"type": "node", "id": 10315971076, "lat": 40.7069054, "lon": -74.0136261}, {"type": "node", "id": 10315971077, "lat": 40.706897, "lon": -74.0136261}, {"type": "node", "id": 10315971142, "lat": 40.7067043, "lon": -74.0141518}, {"type": "node", "id": 10315971143, "lat": 40.7066724, "lon": -74.0141972}, {"type": "node", "id": 10315971144, "lat": 40.7066485, "lon": -74.014234}, {"type": "node", "id": 10315971145, "lat": 40.7066226, "lon": -74.0142692}, {"type": "node", "id": 10315971146, "lat": 40.7066, "lon": -74.0142981}, {"type": "node", "id": 10315971147, "lat": 40.7065757, "lon": -74.0143208}, {"type": "node", "id": 10315971148, "lat": 40.7065046, "lon": -74.0143588}, {"type": "node", "id": 10315971149, "lat": 40.7065365, "lon": -74.0143445}, {"type": "node", "id": 10315971150, "lat": 40.7067392, "lon": -74.0141065}, {"type": "node", "id": 10315971151, "lat": 40.706768, "lon": -74.0140792}, {"type": "node", "id": 10315971152, "lat": 40.706806, "lon": -74.0140554}, {"type": "node", "id": 10315971153, "lat": 40.7069406, "lon": -74.0139916}, {"type": "node", "id": 10315971154, "lat": 40.706945, "lon": -74.0139777}, {"type": "node", "id": 10315971155, "lat": 40.7069686, "lon": -74.013968}, {"type": "node", "id": 10315971156, "lat": 40.7069802, "lon": -74.0139819}, {"type": "node", "id": 10315971157, "lat": 40.706973, "lon": -74.0139745}, {"type": "node", "id": 10315971158, "lat": 40.7069918, "lon": -74.0139674}, {"type": "node", "id": 10315971159, "lat": 40.7069998, "lon": -74.0139499}, {"type": "node", "id": 10315971160, "lat": 40.7070055, "lon": -74.0139321}, {"type": "node", "id": 10315971161, "lat": 40.7070077, "lon": -74.0138877}, {"type": "node", "id": 10315971162, "lat": 40.7070049, "lon": -74.0138609}, {"type": "node", "id": 10315971163, "lat": 40.7069995, "lon": -74.0138357}, {"type": "node", "id": 10315971164, "lat": 40.706935, "lon": -74.0136651}, {"type": "node", "id": 10315971170, "lat": 40.7069776, "lon": -74.0139792}, {"type": "node", "id": 10315971189, "lat": 40.7068511, "lon": -74.0136603}, {"type": "node", "id": 10315971257, "lat": 40.7063696, "lon": -74.0143941}, {"type": "node", "id": 10315971264, "lat": 40.7063557, "lon": -74.014339}, {"type": "node", "id": 10316226060, "lat": 40.7053492, "lon": -74.0135326}, {"type": "node", "id": 10316226075, "lat": 40.7051667, "lon": -74.0138334}, {"type": "node", "id": 10316226076, "lat": 40.7052184, "lon": -74.0137863}, {"type": "node", "id": 10316226185, "lat": 40.7050025, "lon": -74.0133801, "tags": {"barrier": "kerb", "kerb": "raised", "tactile_paving": "no", "wheelchair": "no"}}, {"type": "node", "id": 10344043175, "lat": 40.7047913, "lon": -74.0097097}, {"type": "node", "id": 10344043176, "lat": 40.704776, "lon": -74.0096911}, {"type": "node", "id": 10344043177, "lat": 40.7046176, "lon": -74.0094723}, {"type": "node", "id": 10344043178, "lat": 40.7046184, "lon": -74.0094875}, {"type": "node", "id": 10344043179, "lat": 40.7049764, "lon": -74.0089618}, {"type": "node", "id": 10344043180, "lat": 40.7049418, "lon": -74.0089519}, {"type": "node", "id": 10344043181, "lat": 40.7049277, "lon": -74.0089484}, {"type": "node", "id": 10344043182, "lat": 40.704902, "lon": -74.0089534}, {"type": "node", "id": 10344043183, "lat": 40.704915, "lon": -74.0089485}, {"type": "node", "id": 10344043184, "lat": 40.7048951, "lon": -74.008958}, {"type": "node", "id": 10344043190, "lat": 40.7049598, "lon": -74.0089571, "tags": {"barrier": "kerb", "kerb": "lowered", "tactile_paving": "yes", "wheelchair": "yes"}}, {"type": "node", "id": 10344354958, "lat": 40.704779, "lon": -74.0096947, "tags": {"barrier": "kerb", "kerb": "lowered", "tactile_paving": "no", "wheelchair": "yes"}}, {"type": "node", "id": 10344354960, "lat": 40.7049745, "lon": -74.008972}, {"type": "node", "id": 10665137474, "lat": 40.7052408, "lon": -74.0127902, "tags": {"addr:city": "New York", "addr:floor": "5", "addr:housenumber": "26", "addr:postcode": "10004", "addr:state": "NY", "addr:street": "Broadway", "amenity": "school", "contact:facebook": "UASBYW.US", "fax": "+1-212-668-0635", "grades": "9-12", "internet_access": "no", "name": "Urban Assembly School of Business for Young Women", "phone": "+1-212-668-0169", "polling_station": "yes", "ref": "M316", "religion": "none", "school:gender": "female", "website": "https://www.uasbfyw.org/", "wheelchair": "yes"}}, {"type": "node", "id": 10665280266, "lat": 40.7052186, "lon": -74.013179, "tags": {"addr:city": "New York", "addr:housenumber": "7", "addr:postcode": "10004", "addr:state": "NY", "addr:street": "Beaver Street", "amenity": "school", "fax": "+1-646-826-8175", "grades": "9-12", "name": "Richard R. Green High School of Teaching", "phone": "+1-646-826-8174", "ref": "M580", "religion": "none", "school:gender": "mixed", "website": "https://www.rrghst.org/", "wheelchair": "yes"}}, {"type": "node", "id": 10689045274, "lat": 40.7084835, "lon": -74.0135243, "tags": {"amenity": "cafe", "cuisine": "bubble_tea", "indoor_seating": "yes", "name": "Dragon Tea", "outdoor_seating": "yes"}}, {"type": "node", "id": 10689052120, "lat": 40.7085207, "lon": -74.0135093, "tags": {"amenity": "restaurant", "indoor_seating": "yes", "name": "Bao Bao Cafe", "outdoor_seating": "no"}}, {"type": "node", "id": 10757806380, "lat": 40.7072563, "lon": -74.0123018, "tags": {"addr:city": "New York", "addr:housenumber": "65", "addr:postcode": "10006", "addr:state": "NY", "addr:street": "Broadway", "amenity": "restaurant", "cuisine": "italian;chinese;mexican", "name": "Slow Food Market"}}, {"type": "node", "id": 11064559007, "lat": 40.7070451, "lon": -74.0125704, "tags": {"level": "32", "name": "Framestore", "office": "it"}}, {"type": "node", "id": 11084144532, "lat": 40.7097477, "lon": -74.0088749, "tags": {"amenity": "restaurant", "cuisine": "ramen", "indoor_seating": "yes", "name": "Kuu Ramen", "opening_hours": "Mo-Su 11:30-21:30", "outdoor_seating": "no"}}, {"type": "node", "id": 11084146197, "lat": 40.7094717, "lon": -74.0085899, "tags": {"addr:city": "New York", "addr:housenumber": "67", "addr:postcode": "10038", "addr:state": "NY", "addr:street": "Nassau Street", "amenity": "restaurant", "check_date:opening_hours": "2023-08-02", "cuisine": "sushi", "indoor_seating": "yes", "name": "Sushi & Co", "opening_hours:signed": "no", "outdoor_seating": "no", "phone": "+1-646-799-9911", "website": "https://www.sushinco.com/"}}, {"type": "node", "id": 11084164914, "lat": 40.7098633, "lon": -74.0086893, "tags": {"amenity": "bar", "name": "The Irish American", "sport": "billiards"}}, {"type": "node", "id": 11084168882, "lat": 40.7092141, "lon": -74.0088431, "tags": {"amenity": "cafe", "cuisine": "coffee_shop", "indoor_seating": "yes", "name": "Simpl Coffee Shop", "opening_hours": "Mo-Su 07:00-19:00", "outdoor_seating": "no"}}, {"type": "node", "id": 11119847161, "lat": 40.7096711, "lon": -74.0087599, "tags": {"addr:city": "New York", "addr:housenumber": "24", "addr:postcode": "10038", "addr:state": "NY", "addr:street": "John Street", "amenity": "cafe", "cuisine": "coffee_shop", "name": "Tutto Calcio Espresso Bar", "opening_hours": "Mo-Su 07:00-20:00", "outdoor_seating": "no", "phone": "+1-212-389-0254", "website": "https://www.instagram.com/tuttocalcioespressobar"}}, {"type": "node", "id": 11159662142, "lat": 40.7075759, "lon": -74.0111489, "tags": {"amenity": "restaurant", "check_date": "2023-08-31", "check_date:opening_hours": "2023-09-06", "cuisine": "poke;italian", "indoor_seating": "yes", "name": "Gnoccheria Wall Street", "opening_hours:signed": "no", "outdoor_seating": "no"}}, {"type": "node", "id": 11159676323, "lat": 40.7075238, "lon": -74.0110938, "tags": {"amenity": "cafe", "cuisine": "coffee_shop", "indoor_seating": "no", "name": "Tenthousand Coffee", "opening_hours": "Mo-Fr 07:00-18:00; Sa,Su 10:00-17:00", "outdoor_seating": "yes"}}, {"type": "node", "id": 11172400856, "lat": 40.7065445, "lon": -74.0112372, "tags": {"addr:housenumber": "22", "addr:street": "Broad Street", "amenity": "cafe", "brand": "Blue Bottle Coffee", "brand:en": "Blue Bottle Coffee", "brand:ja": "\u30d6\u30eb\u30fc\u30dc\u30c8\u30eb\u30b3\u30fc\u30d2\u30fc", "brand:wikidata": "Q4928917", "cuisine": "coffee_shop", "indoor_seating": "yes", "name": "Blue Bottle Coffee", "name:en": "Blue Bottle Coffee", "name:ja": "\u30d6\u30eb\u30fc\u30dc\u30c8\u30eb\u30b3\u30fc\u30d2\u30fc", "outdoor_seating": "yes", "takeaway": "yes"}}, {"type": "node", "id": 11208744396, "lat": 40.7058839, "lon": -74.0102847, "tags": {"amenity": "bar", "indoor_seating": "yes", "name": "Split Eights", "outdoor_seating": "no"}}, {"type": "node", "id": 11223060596, "lat": 40.7080354, "lon": -74.0105959, "tags": {"amenity": "cafe", "indoor_seating": "yes", "name": "Ashby's", "outdoor_seating": "no"}}, {"type": "node", "id": 11223076752, "lat": 40.7081186, "lon": -74.0111656, "tags": {"brand": "Charles Schwab", "brand:wikidata": "Q1066028", "name": "Charles Schwab", "office": "financial_advisor"}}, {"type": "node", "id": 11365172080, "lat": 40.7092483, "lon": -74.0081689}, {"type": "node", "id": 11365172083, "lat": 40.7092333, "lon": -74.0081469, "tags": {"barrier": "gate"}}, {"type": "node", "id": 11365172084, "lat": 40.7092183, "lon": -74.0081272}, {"type": "node", "id": 11369414048, "lat": 40.7074268, "lon": -74.008398}, {"type": "node", "id": 11369414049, "lat": 40.7074416, "lon": -74.0084255}, {"type": "node", "id": 11369414061, "lat": 40.7073167, "lon": -74.008513}, {"type": "node", "id": 11369414063, "lat": 40.7073532, "lon": -74.0085171}, {"type": "node", "id": 11369490572, "lat": 40.7073793, "lon": -74.0084899}, {"type": "node", "id": 11369490573, "lat": 40.7073955, "lon": -74.0084733}, {"type": "node", "id": 11369490575, "lat": 40.7074388, "lon": -74.00842}, {"type": "node", "id": 11369490578, "lat": 40.7072722, "lon": -74.008442}, {"type": "node", "id": 11369490583, "lat": 40.707289, "lon": -74.0084688}, {"type": "node", "id": 11369490586, "lat": 40.7072489, "lon": -74.0084049}, {"type": "node", "id": 11369490589, "lat": 40.7072299, "lon": -74.0083746}, {"type": "node", "id": 11369490591, "lat": 40.7071688, "lon": -74.0082776}, {"type": "node", "id": 11369490594, "lat": 40.7071502, "lon": -74.0082475}, {"type": "node", "id": 11369490595, "lat": 40.707124, "lon": -74.0082058}, {"type": "node", "id": 11369490596, "lat": 40.7072203, "lon": -74.0081106}, {"type": "node", "id": 11369490605, "lat": 40.7071355, "lon": -74.0082242}, {"type": "node", "id": 11369490606, "lat": 40.7071392, "lon": -74.0082299}, {"type": "node", "id": 11369490640, "lat": 40.7074215, "lon": -74.0084464}, {"type": "node", "id": 11369490656, "lat": 40.7071296, "lon": -74.0082148}, {"type": "node", "id": 11369490663, "lat": 40.7073435, "lon": -74.0084143}, {"type": "node", "id": 11369490664, "lat": 40.7073276, "lon": -74.0084316}, {"type": "node", "id": 11369490665, "lat": 40.7073496, "lon": -74.008465}, {"type": "node", "id": 11369490666, "lat": 40.7073649, "lon": -74.0084492}, {"type": "node", "id": 11415663148, "lat": 40.7096883, "lon": -74.0129586}, {"type": "node", "id": 11416374410, "lat": 40.7078744, "lon": -74.0158027}, {"type": "node", "id": 11416374439, "lat": 40.7097172, "lon": -74.0151873}, {"type": "node", "id": 11416374440, "lat": 40.7097113, "lon": -74.0151808}, {"type": "node", "id": 11416374459, "lat": 40.7097313, "lon": -74.0152416}, {"type": "node", "id": 11416374463, "lat": 40.7097845, "lon": -74.0154998}, {"type": "node", "id": 11416395928, "lat": 40.7097928, "lon": -74.0155402}, {"type": "node", "id": 11416395944, "lat": 40.7090589, "lon": -74.0158416}, {"type": "node", "id": 11416395954, "lat": 40.7088977, "lon": -74.0159013}, {"type": "node", "id": 11416395966, "lat": 40.7088403, "lon": -74.0159271}, {"type": "node", "id": 11416396059, "lat": 40.7080436, "lon": -74.0161551}, {"type": "node", "id": 11416396063, "lat": 40.7080342, "lon": -74.0161575}, {"type": "node", "id": 11416396064, "lat": 40.7080245, "lon": -74.016158}, {"type": "node", "id": 11416396170, "lat": 40.7097879, "lon": -74.0155161}, {"type": "node", "id": 11486138023, "lat": 40.7062326, "lon": -74.0132146, "tags": {"addr:city": "New York", "addr:housenumber": "39", "addr:postcode": "10006", "addr:state": "NY", "addr:street": "Broadway", "addr:unit": "2430", "name": "HKM Employment Attorneys LLP", "office": "lawyer", "opening_hours": "Mo-Fr 08:00-18:00; Sa-Su 08:00-16:00", "phone": "+1-212-451-9533", "website": "https://hkm.com/new-york/"}}, {"type": "node", "id": 11754487748, "lat": 40.7054382, "lon": -74.0091433, "tags": {"addr:city": "New York", "addr:housenumber": "6", "addr:postcode": "10005", "addr:state": "NY", "addr:street": "Hanover Street", "amenity": "cafe", "email": "concierge@conwellcoffeehall.com", "name": "Conwell Coffee Hall", "opening_hours": "Mo-Fr 07:30-21:00; Sa-Su 09:00-21:00", "outdoor_seating": "no", "website": "https://conwellcoffeehall.com", "website:menu": "https://conwellcoffeehall.com/menus/"}}, {"type": "node", "id": 12050009362, "lat": 40.7086274, "lon": -74.010127, "tags": {"addr:city": "New York", "addr:housenumber": "140", "addr:postcode": "10005", "addr:state": "NY", "addr:street": "Broadway", "addr:unit": "46th Floor, PMB 300", "name": "NYC Injury Attorneys P.C.", "office": "lawyer", "opening_hours": "24/7", "phone": "+1-646-452-3663", "website": "https://nyc-injury-attorneys.com"}}, {"type": "node", "id": 12355026163, "lat": 40.7050172, "lon": -74.0107175, "tags": {"entrance": "main"}}, {"type": "node", "id": 12355026164, "lat": 40.7049909, "lon": -74.011006, "tags": {"entrance": "yes"}}, {"type": "node", "id": 12358205057, "lat": 40.7049281, "lon": -74.0091784, "tags": {"entrance": "yes"}}, {"type": "node", "id": 12361291561, "lat": 40.7089279, "lon": -74.0123571, "tags": {"entrance": "yes"}}, {"type": "node", "id": 12361377540, "lat": 40.7091832, "lon": -74.0121953, "tags": {"entrance": "yes"}}, {"type": "node", "id": 12386824050, "lat": 40.7080429, "lon": -74.0141252, "tags": {"addr:city": "New York", "addr:housenumber": "19", "addr:postcode": "10006", "addr:state": "NY", "addr:street": "Rector Street", "amenity": "restaurant", "name": "REGULAR NYC", "opening_hours": "Mo-Fr 07:00-15:00; Sa-Su 07:00-16:00", "phone": "+19172612090", "website": "https://www.regular.nyc/"}}, {"type": "node", "id": 12480002393, "lat": 40.7087658, "lon": -74.0083225, "tags": {"addr:city": "New York", "addr:housenumber": "59", "addr:postcode": "10038", "addr:state": "NY", "addr:street": "Maiden Lane", "addr:unit": "6th floor", "contact:facebook": "https://www.facebook.com/ParkerWaichmanLLP/", "contact:instagram": "https://www.instagram.com/parkerwaichman/", "contact:linkedin": "https://www.linkedin.com/company/parker-waichman-llp", "contact:pinterest": "https://www.pinterest.com/parkerwaichman/", "contact:twitter": "https://x.com/parkerwaichman", "language:en": "yes", "name": "Parker Waichman LLP, Personal Injury Accident Attorneys", "office": "lawyer", "opening_hours": "24/7", "phone": "+1-212-267-6700", "website": "https://www.yourlawyer.com/new-york-city-personal-injury/", "year_of_construction": "1993"}}, {"type": "node", "id": 12965535575, "lat": 40.7081048, "lon": -74.0104126, "tags": {"addr:city": "New York", "addr:floor": "31", "addr:housenumber": "120", "addr:postcode": "10271", "addr:state": "NY", "addr:street": "Broadway", "addr:unit": "31st Floor", "air_conditioning": "yes", "branch": "Manhattan", "fax": "+1-212-720-3488", "government": "yes", "name": "New York City Department of City Planning", "office": "government", "operator": "New York City Department of City Planning", "operator:type": "government", "operator:wikidata": "Q8354830", "phone": "+1-212-720-3480", "website": "https://www1.nyc.gov/site/planning/index.page", "wikipedia": "en:New York City Department of City Planning"}}, {"type": "node", "id": 13064363257, "lat": 40.7053265, "lon": -74.0112644, "tags": {"addr:city": "New York", "addr:housenumber": "55", "addr:postcode": "10004", "addr:state": "NY", "addr:street": "Broad Street", "consulting": "marketing", "name": "HVR Studio", "office": "consulting", "website": "https://www.hvrstudio.net"}}, {"type": "node", "id": 13071727592, "lat": 40.7051235, "lon": -74.0085966, "tags": {"amenity": "restaurant", "name": "The Cocoa Exchange"}}, {"type": "node", "id": 13071776167, "lat": 40.7068019, "lon": -74.0099313, "tags": {"amenity": "restaurant", "cuisine": "italian", "name": "NeroLab"}}, {"type": "node", "id": 13165461201, "lat": 40.707305, "lon": -74.0137268, "tags": {"addr:housenumber": "77", "addr:street": "Greenwich Street", "amenity": "cafe", "name": "Ateaz Cafe"}}, {"type": "node", "id": 13254235312, "lat": 40.7051211, "lon": -74.0096508, "tags": {"addr:city": "New York", "addr:housenumber": "60", "addr:postcode": "10004", "addr:state": "NY", "addr:street": "Beaver Street", "amenity": "restaurant", "cuisine": "asian;ramen;noodle;uyghur", "name": "Caravan Uyghur Cuisine", "name:de": "Karawanen-Uigurische K\u00fcche", "name:fr": "Cuisine Ou\u00efghoure de la caravane", "name:tr": "Karavan Uygur Yemekleri", "opening_hours": "12:00-22:00 Fr 17:00-22:00", "phone": "+1 929-318-8615", "website": "https://www.caravanuyghur.com/"}}, {"type": "node", "id": 13312214083, "lat": 40.7070527, "lon": -74.0101215, "tags": {"addr:city": "New York", "addr:housenumber": "30", "addr:postcode": "10005", "addr:state": "NY", "addr:street": "Wall Street", "office": "lawyer", "opening_hours": "Mo-Th 10:00-19:00 Fr 10:00-14:00", "phone": "+1-646-825-3850", "website": "https://mcadefenseattorney.com"}}, {"type": "way", "id": 22926662, "nodes": [1431806493, 793879917, 11415663148, 480910126, 6419520969, 480910122, 6419487813, 6417640366, 6419225446, 6419487814, 246859499, 5047505367, 1431806493], "tags": {"leisure": "park", "name": "Liberty Park", "wikidata": "Q16932670", "wikipedia": "en:Liberty Park"}}, {"type": "way", "id": 25026338, "nodes": [272194598, 10290401177, 10290401179, 8262936618, 10290401180, 10290401178, 272194601, 10290401172, 10290401173, 10290401174, 10290401197, 10290401171, 10290401166, 10290401167, 10290401170, 10290401169, 10290401168, 272194602, 10290401193, 10290401161, 10290401165, 10290401164, 8262936617, 10290401163, 10290401162, 272194598], "tags": {"leisure": "park", "name": "Zuccotti Park", "name:etymology:wikidata": "Q9012427", "name:ko": "\uc988\uce74\ud2f0 \uacf5\uc6d0", "old_name": "Liberty Plaza Park", "wikidata": "Q227659", "wikipedia": "en:Zuccotti Park"}}, {"type": "way", "id": 112692313, "nodes": [1251958176, 7685539644, 1280366094, 7685535319, 7685535318, 7685539643, 10316226185, 7072589180, 7072589179, 7072589181, 7685535320, 7685535321, 7685539642, 1251958263, 7685535322, 1251958243, 7685539641, 7685535323, 7685535324, 7685535325, 10316226060, 7685535326, 7685539649, 7685535327, 1251958161, 7685535298, 7685535299, 1251958261, 7685535300, 10316226076, 10316226075, 7685535302, 7072589177, 7685535303, 7072589176, 7685535304, 7685535305, 9898775045, 1251958153, 7685535306, 7685535307, 7685535308, 7685535309, 7685535310, 7685535328, 7685535311, 1280366091, 7685539648, 7685535312, 7685535313, 7685535314, 7685535315, 7685539647, 7685535316, 7685539646, 7685535317, 7685539645, 1251958176], "tags": {"ele": "5", "gnis:feature_id": "944522", "leisure": "park", "name": "Bowling Green", "website": "https://www.nycgovparks.org/parks/bowling-green", "wikidata": "Q895455", "wikipedia": "en:Bowling Green (New York City)"}}, {"type": "way", "id": 208360494, "nodes": [2186614214, 10344043175, 10344354958, 10344043176, 1251958258, 10344043178, 10344043177, 2186614209, 8276468685, 10344043184, 10344043182, 10344043183, 10344043181, 10344043180, 10344043190, 10344043179, 10344354960, 2186614223, 12358205057, 2824829418, 781712009, 2186614225, 8276468689, 2186614214], "tags": {"addr:city": "New York", "addr:housenumber": "11", "addr:postcode": "10005", "addr:state": "NY", "addr:street": "Hanover Square", "alt_name": "British Garden at Hanover Square", "leisure": "park", "name": "The Queen Elizabeth II September 11th Garden", "old_name": "Hanover Square Park", "operator": "New York City Department of Parks and Recreation", "operator:short": "NYC Parks", "operator:type": "government", "operator:wikidata": "Q1894232", "website": "https://www.nycgovparks.org/parks/british-garden-at-hanover-square/", "wikidata": "Q4970000", "wikipedia": "en:Queen Elizabeth II September 11th Garden"}}, {"type": "way", "id": 278033590, "nodes": [2824641604, 3762209186, 2824641586, 12361377540, 2824641561, 2824641576, 3762209179, 3762209180, 2824641585, 2824641590, 2824641596, 2824641604], "tags": {"addr:city": "New York", "addr:housenumber": "100", "addr:street": "Trinity Place", "amenity": "school", "building": "school", "building:levels": "10", "ele": "5", "gnis:feature_id": "2083910", "mascot": "Panthers", "name": "High School of Economics and Finance", "nycdoitt:bin": "1001037", "wikidata": "Q5756623"}}, {"type": "way", "id": 278033603, "nodes": [2824641547, 2824641556, 2824641555, 2824641565, 2824641564, 2824641569, 2824641554, 2824641552, 2824641551, 12361291561, 2824641541, 2824641543, 2824641540, 3772831306, 2824641547], "tags": {"addr:city": "New York", "addr:housenumber": "90", "addr:postcode": "10006", "addr:state": "NY", "addr:street": "Trinity Place", "amenity": "school", "building": "school", "ele": "5", "gnis:feature_id": "2083909", "height": "62.7", "mascot": "Panthers", "name": "Leadership and Public Service High School", "nycdoitt:bin": "1001035", "polling_station": "yes", "wikidata": "Q6508641"}}, {"type": "way", "id": 278053528, "nodes": [2824829296, 2824829283, 2824829401, 2824829411, 2824829409, 2824829408, 2824829407, 2824829410, 2824829405, 2824829441, 12355026164, 12355026163, 2824829448, 2824829414, 2824829420, 2824829296], "tags": {"addr:city": "New York", "addr:housenumber": "44", "addr:postcode": "10005", "addr:state": "NY", "addr:street": "Beaver Street", "building": "yes", "government": "yes", "height": "54.4", "name": "New York City Department of Sanitation", "nycdoitt:bin": "1000850", "office": "government"}}, {"type": "way", "id": 375369089, "nodes": [2824697701, 11365172084, 11365172083, 11365172080, 2824697702, 3748367336, 2824697586, 2824697572, 2824697701], "tags": {"leisure": "park", "opening_hours": "sunrise-sunset"}}, {"type": "way", "id": 400782872, "nodes": [4032952253, 11416374459, 8281922333, 8281922334, 6978478914, 6978478915, 11416374463, 11416396170, 11416395928, 4032952276, 2823609708, 2823591088, 2823591084, 11416395944, 1242148263, 11416395954, 11416395966, 2824988656, 2824988652, 2824988649, 8281922321, 8281922320, 8281922325, 4032952286, 4032952264, 11416396059, 11416396063, 11416396064, 4032952277, 4032952278, 8281922328, 8281922329, 4032952252, 8281922298, 11416374410, 4032952280, 8281922297, 4032952254, 4032952269, 8281922296, 11416374440, 11416374439, 4032952253], "tags": {"leisure": "park", "name": "West Thames Park", "operator": "Battery Park City Authority", "operator:type": "public", "website": "https://bpcparks.org/whats-here/parks/west-thames-park/"}}, {"type": "way", "id": 504045549, "nodes": [2824988421, 11369490595, 11369490656, 11369490605, 11369490606, 11369490594, 11369490591, 11369490589, 11369490586, 11369490578, 11369490583, 11369414061, 4942593330, 11369414063, 11369490572, 11369490573, 11369490640, 11369414049, 11369490575, 11369414048, 2824988508, 2824988505, 2824988503, 2824988501, 2824988497, 2824988495, 2824988494, 2824988485, 2824988484, 2824988474, 2824988476, 2824988471, 2824988469, 2824988459, 2824988458, 2824988465, 2824988452, 2824988442, 2824988446, 11369490596, 4942593331, 2824988421], "tags": {"dog": "leashed", "leisure": "park", "outdoor_seating": "yes", "smoking": "no", "wheelchair": "yes"}}, {"type": "way", "id": 504045550, "nodes": [4942593338, 4942593339, 11369490664, 11369490663, 4942593348, 4942593349, 11369490666, 11369490665, 4942593338], "tags": {"amenity": "cafe", "building": "yes", "name": "Pi Greek Caf\u00e9 Bakerie", "shelter_type": "gazebo"}}, {"type": "way", "id": 538080002, "nodes": [7706733771, 10315959486, 1251959556, 10315971148, 10315971149, 10315971147, 10315971146, 10315971145, 10315971144, 10315971143, 10315971142, 10315971150, 10315971151, 10315971152, 10315971153, 10315971154, 10315971155, 10315971157, 10315971170, 10315971156, 10315971158, 10315971159, 10315971160, 4206997147, 10315971161, 10315971162, 10315971163, 10315971164, 10315971066, 10315971074, 10315971075, 10315971076, 10315971077, 10315971073, 10168364245, 10315971189, 10315971065, 5209054495, 5209054508, 5209054506, 5209054500, 5209054498, 5209054509, 5209054497, 5209054504, 10315971264, 7706983307, 10315971257, 7706733771], "tags": {"addr:city": "New York", "addr:housenumber": "2", "addr:postcode": "10006", "addr:state": "NY", "addr:street": "Edgar Street", "leisure": "park", "name": "Elizabeth H. Berger Plaza", "operator": "New York City Department of Parks and Recreation", "operator:short": "NYC Parks", "operator:type": "public", "operator:wikidata": "Q1894232", "website": "https://www.nycgovparks.org/planning-and-building/capital-project-tracker/project/5994", "wikidata": "Q24192795", "wikipedia": "en:Elizabeth H. Berger Plaza"}}]}