{"version": 0.6, "generator": "Overpass API 0.7.62.8 e802775f", "osm3s": {"timestamp_osm_base": "2025-12-01T15:37:36Z", "copyright": "The data included in this document is from www.openstreetmap.org. The data is made available under ODbL."}, "elements": [{"type": "node", "id": 358262182, "lat": 40.6809118, "lon": -73.9645205}, {"type": "node", "id": 358262183, "lat": 40.680469, "lon": -73.9646798}, {"type": "node", "id": 1956618014, "lat": 40.6806979, "lon": -73.9690533}, {"type": "node", "id": 1956618020, "lat": 40.6808713, "lon": -73.9701871}, {"type": "node", "id": 2550153196, "lat": 40.6827058, "lon": -73.9685719, "tags": {"addr:housenumber": "495", "addr:postcode": "11238", "addr:street": "Clermont Avenue", "government": "city", "name": "NYC Department of Social Services", "office": "government", "operator": "New York City"}}, {"type": "node", "id": 2550153208, "lat": 40.6833048, "lon": -73.9666221, "tags": {"addr:housenumber": "860", "addr:postcode": "11238", "addr:street": "Fulton Street", "amenity": "restaurant", "cocktails": "yes", "cuisine": "italian", "diet:gluten_free": "yes", "drink:beer": "yes", "drink:liquor": "yes", "drink:wine": "yes", "happy_hours": "Mo-Su 17:00-19:00", "name": "Belli Osteria", "opening_hours": "Mo-Th 17:00-22:30; Fr 17:00-23:00; Sa 11:00-16:00,17:00-23:00; Su 11:00-16:00,17:00-22:30", "phone": "+1-347-799-1230", "website": "https://www.bellibrooklyn.com"}}, {"type": "node", "id": 2550153209, "lat": 40.6831057, "lon": -73.9657053, "tags": {"addr:housenumber": "884", "addr:postcode": "11238", "addr:street": "Fulton Street", "amenity": "restaurant", "cuisine": "chinese", "indoor_seating": "yes", "name": "Wei's", "outdoor_seating": "no"}}, {"type": "node", "id": 2550153239, "lat": 40.6809372, "lon": -73.9627767}, {"type": "node", "id": 2550153244, "lat": 40.6809799, "lon": -73.9629804}, {"type": "node", "id": 2550153256, "lat": 40.6810587, "lon": -73.9629517}, {"type": "node", "id": 2550153312, "lat": 40.6812545, "lon": -73.9626611}, {"type": "node", "id": 2550153323, "lat": 40.6812796, "lon": -73.9627809}, {"type": "node", "id": 2550153338, "lat": 40.6813289, "lon": -73.962763}, {"type": "node", "id": 2550153343, "lat": 40.6813465, "lon": -73.9628468}, {"type": "node", "id": 2550153839, "lat": 40.6821005, "lon": -73.9659989}, {"type": "node", "id": 2550153847, "lat": 40.6821174, "lon": -73.9660348}, {"type": "node", "id": 2550153851, "lat": 40.6821214, "lon": -73.9660698}, {"type": "node", "id": 2550153855, "lat": 40.6821255, "lon": -73.9660365}, {"type": "node", "id": 2550153860, "lat": 40.6821287, "lon": -73.9657434}, {"type": "node", "id": 2550153983, "lat": 40.6823687, "lon": -73.9661217}, {"type": "node", "id": 2550153988, "lat": 40.6823768, "lon": -73.9660482}, {"type": "node", "id": 2550154111, "lat": 40.6827133, "lon": -73.9661139}, {"type": "node", "id": 2550154115, "lat": 40.6827236, "lon": -73.9660292}, {"type": "node", "id": 2550154124, "lat": 40.6827427, "lon": -73.9658723}, {"type": "node", "id": 2550154733, "lat": 40.6822782, "lon": -73.9691166}, {"type": "node", "id": 2550154734, "lat": 40.6823052, "lon": -73.9688745}, {"type": "node", "id": 2550154738, "lat": 40.6825692, "lon": -73.9696234}, {"type": "node", "id": 2550154740, "lat": 40.6826184, "lon": -73.9691821}, {"type": "node", "id": 2550154756, "lat": 40.6827915, "lon": -73.9696662}, {"type": "node", "id": 2550154758, "lat": 40.6828303, "lon": -73.9690768}, {"type": "node", "id": 2550154759, "lat": 40.6828414, "lon": -73.9689778}, {"type": "node", "id": 2550154761, "lat": 40.6828567, "lon": -73.9690818}, {"type": "node", "id": 2568092616, "lat": 40.6829071, "lon": -73.9635306, "tags": {"addr:housenumber": "983", "addr:postcode": "11238", "addr:street": "Fulton Street", "amenity": "bar", "name": "Casanara"}}, {"type": "node", "id": 2568093497, "lat": 40.683931, "lon": -73.9647286}, {"type": "node", "id": 2568093510, "lat": 40.6839597, "lon": -73.9644787}, {"type": "node", "id": 2568093518, "lat": 40.6839786, "lon": -73.9645092}, {"type": "node", "id": 2568093520, "lat": 40.6839816, "lon": -73.9644831}, {"type": "node", "id": 2568093533, "lat": 40.6839964, "lon": -73.9647416}, {"type": "node", "id": 2568093547, "lat": 40.6840087, "lon": -73.9645249}, {"type": "node", "id": 2568093551, "lat": 40.6840098, "lon": -73.9645154}, {"type": "node", "id": 2568093562, "lat": 40.684021, "lon": -73.9645273}, {"type": "node", "id": 2568110406, "lat": 40.6849134, "lon": -73.9629368, "tags": {"addr:housenumber": "129", "addr:postcode": "11238", "addr:street": "Gates Avenue", "amenity": "restaurant", "cuisine": "italian", "drink:wine": "yes", "name": "Vini e Olii", "opening_hours": "Mo-Su 17:30-22:00+", "phone": "+1-718-622-9202", "website": "https://www.locandany.com"}}, {"type": "node", "id": 2568260645, "lat": 40.6834031, "lon": -73.9671965, "tags": {"name": "Levy & Nau P.C.", "office": "lawyer", "phone": "+1-718-622-8149", "website": "http://www.levynau.com"}}, {"type": "node", "id": 2568260649, "lat": 40.6837716, "lon": -73.9676771, "tags": {"addr:city": "Brooklyn", "addr:housenumber": "887", "addr:postcode": "11238", "addr:state": "NY", "addr:street": "Fulton Street", "amenity": "restaurant", "cuisine": "diner", "drink:coffee": "yes", "drink:tea": "yes", "name": "Country House Diner", "wheelchair": "yes"}}, {"type": "node", "id": 3204100599, "lat": 40.6852709, "lon": -73.9653796}, {"type": "node", "id": 3414529659, "lat": 40.6860677, "lon": -73.9662787}, {"type": "node", "id": 3414529660, "lat": 40.686151, "lon": -73.9655599}, {"type": "node", "id": 4092436133, "lat": 40.6829726, "lon": -73.9650709, "tags": {"addr:city": "Brooklyn", "addr:housenumber": "900", "addr:street": "Fulton Street", "amenity": "restaurant", "black_owned": "yes", "cuisine": "american;brunch", "name": "Sisters", "outdoor_seating": "sidewalk", "phone": "+1-347-763-2537", "website": "https://www.sistersbklyn.com"}}, {"type": "node", "id": 4864396484, "lat": 40.6807894, "lon": -73.9675362, "tags": {"addr:city": "Brooklyn", "addr:housenumber": "565", "addr:postcode": "11238", "addr:state": "NY", "addr:street": "Vanderbilt Avenue", "amenity": "restaurant", "cuisine": "ramen;japanese", "delivery": "yes", "drink:beer": "draught", "drink:liquor": "no", "drink:sake": "yes", "drink:wine": "yes", "name": "Chuko", "opening_hours": "Mo-Th 17:30-21:00; Fr 17:30-22:00; Sa 12:00-15:00,17:30-22:00; Su 12:00-15:00,17:30-21:00", "outdoor_seating": "street", "takeaway": "yes", "toilets": "yes", "toilets:unisex": "yes", "toilets:wheelchair": "yes", "website": "https://chukobk.com"}}, {"type": "node", "id": 4940954521, "lat": 40.683091, "lon": -73.9656353, "tags": {"addr:city": "Brooklyn", "addr:housenumber": "886", "addr:postcode": "11238", "addr:state": "NY", "addr:street": "Fulton Street", "amenity": "bar", "indoor_seating": "yes", "name": "Hops Hill", "opening_hours": "Mo-Su 12:00-04:00", "outdoor_seating": "no", "phone": "+1-347-987-4334", "website": "https://www.hops-hill.com/"}}, {"type": "node", "id": 5065021422, "lat": 40.6827012, "lon": -73.963804, "tags": {"addr:housenumber": "930", "addr:postcode": "11238", "addr:street": "Fulton Street", "amenity": "restaurant", "cocktails": "yes", "cuisine": "american;brunch;coffee_shop", "drink:beer": "yes", "drink:coffee": "yes", "drink:espresso": "yes", "drink:liquor": "yes", "drink:wine": "yes", "happy_hours": "Mo-Fr 17:30-19:30", "indoor_seating": "yes", "name": "Otway", "outdoor_seating": "yes", "takeaway": "yes"}}, {"type": "node", "id": 5837304268, "lat": 40.6813686, "lon": -73.966569, "tags": {"amenity": "bar", "name": "Kinanm", "phone": "+1-800-207-0048"}}, {"type": "node", "id": 5837304273, "lat": 40.6834323, "lon": -73.9673356, "tags": {"name": "H.P. Greenfield", "office": "estate_agent", "phone": "+1-718-338-3380", "website": "http://hpgreenfield.com"}}, {"type": "node", "id": 5837304274, "lat": 40.6821483, "lon": -73.9683505, "tags": {"addr:housenumber": "787", "addr:postcode": "11238", "addr:street": "Atlantic Avenue", "government": "city", "name": "NYCHA", "office": "government", "official_name": "New York City Housing Authority"}}, {"type": "node", "id": 5837304279, "lat": 40.6820669, "lon": -73.9679316, "tags": {"addr:housenumber": "803", "addr:postcode": "11238", "addr:street": "Atlantic Avenue", "government": "city", "name": "NYCHA", "office": "government", "official_name": "New York City Housing Authority"}}, {"type": "node", "id": 5837304283, "lat": 40.6834487, "lon": -73.9674137, "tags": {"amenity": "restaurant", "cuisine": "thai", "delivery": "yes", "drink:bubble_tea": "yes", "drink:tea": "yes", "indoor_seating": "yes", "name": "Fulton Thai", "opening_hours": "Mo-Fr 12:00-16:00,17:00-22:00; Sa-Su 17:00-21:00", "outdoor_seating": "no", "phone": "+1-718-789-5931", "takeaway": "yes", "website": "https://fulton-thai-restaurant.business.site"}}, {"type": "node", "id": 5838586516, "lat": 40.68093, "lon": -73.9678768}, {"type": "node", "id": 5838586517, "lat": 40.6810396, "lon": -73.9683983}, {"type": "node", "id": 5838586518, "lat": 40.6808675, "lon": -73.9684612}, {"type": "node", "id": 5838586519, "lat": 40.6808092, "lon": -73.9681843}, {"type": "node", "id": 5838586520, "lat": 40.6805429, "lon": -73.9682818}, {"type": "node", "id": 5838586521, "lat": 40.6805998, "lon": -73.9685523}, {"type": "node", "id": 5838586522, "lat": 40.6804315, "lon": -73.9686138}, {"type": "node", "id": 5864324690, "lat": 40.6808387, "lon": -73.9704699}, {"type": "node", "id": 5864324691, "lat": 40.6813032, "lon": -73.970608}, {"type": "node", "id": 5864324692, "lat": 40.6812569, "lon": -73.9703857}, {"type": "node", "id": 5864324696, "lat": 40.6809869, "lon": -73.9704202}, {"type": "node", "id": 5864324698, "lat": 40.6810431, "lon": -73.9707019}, {"type": "node", "id": 5864324700, "lat": 40.681456, "lon": -73.9706696}, {"type": "node", "id": 5864324701, "lat": 40.6814805, "lon": -73.9707864}, {"type": "node", "id": 5864324702, "lat": 40.6814886, "lon": -73.9706576}, {"type": "node", "id": 5864324703, "lat": 40.6814181, "lon": -73.9703304}, {"type": "node", "id": 5912637773, "lat": 40.6803463, "lon": -73.9645245}, {"type": "node", "id": 5912637774, "lat": 40.6803922, "lon": -73.9646426, "tags": {"barrier": "kerb", "kerb": "lowered"}}, {"type": "node", "id": 5912637775, "lat": 40.6803771, "lon": -73.9644193}, {"type": "node", "id": 5912637776, "lat": 40.6803608, "lon": -73.9645897}, {"type": "node", "id": 5912637777, "lat": 40.6804402, "lon": -73.9646778}, {"type": "node", "id": 5912637778, "lat": 40.6804126, "lon": -73.964381}, {"type": "node", "id": 5912637779, "lat": 40.6804412, "lon": -73.9643721}, {"type": "node", "id": 5912637780, "lat": 40.6803941, "lon": -73.9643974, "tags": {"barrier": "kerb", "kerb": "lowered"}}, {"type": "node", "id": 5912637781, "lat": 40.680364, "lon": -73.9644434}, {"type": "node", "id": 5912637782, "lat": 40.6803488, "lon": -73.9644958}, {"type": "node", "id": 5912637783, "lat": 40.6803503, "lon": -73.9645564}, {"type": "node", "id": 5912637784, "lat": 40.6803752, "lon": -73.9646189}, {"type": "node", "id": 5912637785, "lat": 40.6804162, "lon": -73.9646651}, {"type": "node", "id": 5912637788, "lat": 40.6809469, "lon": -73.9645417}, {"type": "node", "id": 5912637791, "lat": 40.6809342, "lon": -73.9644648}, {"type": "node", "id": 5912637803, "lat": 40.6803551, "lon": -73.9644683}, {"type": "node", "id": 6168774385, "lat": 40.6835141, "lon": -73.9664316, "tags": {"addr:city": "Brooklyn", "addr:housenumber": "919", "addr:postcode": "11238", "addr:state": "NY", "addr:street": "Fulton Street", "amenity": "restaurant", "cocktails": "yes", "cuisine": "pizza;burger", "drink:beer": "draught", "drink:liquor": "yes", "drink:wine": "yes", "name": "Emily", "opening_hours": "Mo-Th 17:30-22:30; Fr 17:30-23:30; Sa 12:00-15:00,17:00-23:30; Su 12:00-15:00,17:00-22:30", "phone": "+1-347-844-9588", "website": "https://www.pizzalovesemily.com/location/brooklyn/"}}, {"type": "node", "id": 6175354947, "lat": 40.6825769, "lon": -73.9631724, "tags": {"addr:city": "Brooklyn", "addr:housenumber": "940", "addr:postcode": "11238", "addr:state": "NY", "addr:street": "Fulton Street", "amenity": "restaurant", "cuisine": "southern;fish_and_chips", "diet:vegetarian": "no", "indoor_seating": "no", "name": "Bed Stuy Fish Fry", "opening_hours": "Mo-Th 11:00-23:00; Fr-Sa 11:00-24:00; Su 11:00-23:00", "outdoor_seating": "no", "phone": "+1-718-399-3000", "takeaway": "only"}}, {"type": "node", "id": 6175354948, "lat": 40.6825942, "lon": -73.9632502, "tags": {"addr:city": "Brooklyn", "addr:housenumber": "936", "addr:postcode": "11238", "addr:state": "NY", "addr:street": "Fulton Street", "amenity": "cafe", "cuisine": "pastry;ice_cream", "drink:coffee": "yes", "drink:espresso": "yes", "drink:tea": "yes", "name": "The Good Batch", "opening_hours": "Mo-Su 08:00-20:00"}}, {"type": "node", "id": 6175354949, "lat": 40.6826135, "lon": -73.9633373, "tags": {"addr:city": "Brooklyn", "addr:housenumber": "936", "addr:postcode": "11238", "addr:state": "NY", "addr:street": "Fulton Street", "name": "Sterling Town Equities", "office": "estate_agent"}}, {"type": "node", "id": 6175434119, "lat": 40.6806185, "lon": -73.9629361, "tags": {"fax": "+1-347-987-4007", "name": "Alexis Robins Income Tax", "office": "tax_advisor", "phone": "+1-347-987-3660", "service:copy": "yes", "service:fax": "yes"}}, {"type": "node", "id": 6175434121, "lat": 40.6828345, "lon": -73.9644493, "tags": {"addr:housenumber": "914A", "addr:postcode": "11238", "addr:street": "Fulton Street", "amenity": "restaurant", "cuisine": "indian", "delivery": "yes", "diet:halal": "yes", "diet:vegetarian": "yes", "drink:beer": "byob", "drink:wine": "byob", "fax": "+1-718-789-7802", "internet_access": "wlan", "internet_access:fee": "no", "name": "Kitchen Grill", "opening_hours": "Mo-Th 11:30-22:30; Fr-Sa 11:30-23:00; Su 11:30-22:30", "phone": "+1-718-789-7800", "website": "https://kitchengrillny.com"}}, {"type": "node", "id": 6175434129, "lat": 40.6827554, "lon": -73.9640663, "tags": {"addr:city": "Brooklyn", "addr:housenumber": "922", "addr:postcode": "11238", "addr:state": "NY", "addr:street": "Fulton Street", "alt_name": "Brooklyn Burro", "amenity": "restaurant", "cuisine": "mexican", "indoor_seating": "yes", "name": "B'klyn Burro", "opening_hours": "Mo-Th 11:00-16:30,17:00-21:30; Fr 10:00-16:30,17:00-22:00; Sa-Su 10:00-16:30,17:00-21:00", "outdoor_seating": "no", "phone": "+1-718-622-8776", "website": "https://bklynburro.square.site"}}, {"type": "node", "id": 6175551617, "lat": 40.683473, "lon": -73.9662418, "tags": {"addr:city": "Brooklyn", "addr:housenumber": "925", "addr:postcode": "11238", "addr:state": "NY", "addr:street": "Fulton Street", "amenity": "bar", "cocktails": "yes", "drink:beer": "draught", "drink:liquor": "yes", "drink:wine": "yes", "name": "Hanson Dry", "opening_hours": "Mo-Th 16:00-02:00; Fr-Su 14:00-04:00", "outdoor_seating": "garden", "website": "https://www.hansondry.com"}}, {"type": "node", "id": 6175586130, "lat": 40.6837168, "lon": -73.9673984, "tags": {"addr:city": "Brooklyn", "addr:housenumber": "899", "addr:postcode": "11238", "addr:street": "Fulton Street", "amenity": "bar", "cocktails": "yes", "contact:facebook": "https://www.facebook.com/babyjanebk/", "drink:beer": "yes", "drink:liquor": "yes", "drink:wine": "yes", "name": "Baby Jane's", "opening_hours": "Su-Th 17:00-24:00; Fr-Sa 17:00-01:00", "outdoor_seating": "sidewalk", "phone": "+1-646-469-3333", "website": "https://dickandjanesbk.com"}}, {"type": "node", "id": 6175586131, "lat": 40.6837366, "lon": -73.9674992, "tags": {"addr:city": "Brooklyn", "addr:housenumber": "895", "addr:postcode": "11238", "addr:state": "NY", "addr:street": "Fulton Street", "amenity": "bar", "cocktails": "yes", "cuisine": "american;mexican", "drink:beer": "draught", "drink:liquor": "yes", "drink:wine": "yes", "name": "Vessel Bar & Grill", "opening_hours": "Mo-Th 13:00-23:00; Fr-Sa 13:00-02:00; Su 13:00-23:00", "phone": "+1-347-889-6036", "website": "https://vesselbarandgrill.com/"}}, {"type": "node", "id": 6412731568, "lat": 40.6840727, "lon": -73.9699213}, {"type": "node", "id": 6412731570, "lat": 40.6840597, "lon": -73.969204}, {"type": "node", "id": 6412731574, "lat": 40.682799, "lon": -73.9696246}, {"type": "node", "id": 6412732709, "lat": 40.6828438, "lon": -73.9689552}, {"type": "node", "id": 6412732710, "lat": 40.6841012, "lon": -73.9692128}, {"type": "node", "id": 6412732711, "lat": 40.6844143, "lon": -73.969994}, {"type": "node", "id": 6513463318, "lat": 40.6828999, "lon": -73.9696845}, {"type": "node", "id": 6670685135, "lat": 40.6823813, "lon": -73.9688892}, {"type": "node", "id": 6909319761, "lat": 40.682167, "lon": -73.9684556, "tags": {"addr:housenumber": "785", "addr:postcode": "11238", "addr:street": "Atlantic Avenue", "government": "city", "name": "NYC Department of Social Services", "office": "government", "operator": "New York City"}}, {"type": "node", "id": 7124985058, "lat": 40.6834178, "lon": -73.9672664, "tags": {"addr:housenumber": "852", "addr:postcode": "11238", "addr:street": "Fulton Street", "alt_name": "Efes Mediterranean", "amenity": "restaurant", "cuisine": "turkish", "name": "Istanbul Clinton Hill", "opening_hours": "Mo-Su 11:00-23:00", "phone": "+1-347-725-3132", "website": "https://www.istanbulclintonhill.com"}}, {"type": "node", "id": 8495079937, "lat": 40.6808743, "lon": -73.9679538, "tags": {"amenity": "bar", "cocktails": "yes", "cuisine": "sandwich;charcuterie", "drink:beer": "draught", "drink:liquor": "yes", "drink:wine": "yes", "name": "Beer Street South", "opening_hours": "Mo-We 17:00+; Th 15:00+; Fr 14:00+; Sa-Su 12:00+", "outdoor_seating": "sidewalk", "website": "https://www.beerstreetny.com/beer-street-south-menu"}}, {"type": "node", "id": 8889003254, "lat": 40.6830461, "lon": -73.9680211, "tags": {"addr:housenumber": "470", "addr:postcode": "11238", "addr:street": "Vanderbilt Avenue", "name": "RXR", "office": "yes"}}, {"type": "node", "id": 8889003257, "lat": 40.682419, "lon": -73.9685311, "tags": {"addr:housenumber": "505", "addr:postcode": "11238", "addr:street": "Clermont Avenue", "government": "city", "name": "NYC Department of Social Services", "office": "government", "operator": "New York City"}}, {"type": "node", "id": 9008194066, "lat": 40.6816377, "lon": -73.9654273, "tags": {"name": "US Navy Recruiting Command", "office": "military_recruitment"}}, {"type": "node", "id": 9008194067, "lat": 40.680867, "lon": -73.9666486, "tags": {"name": "HRL Electric Motors", "office": "company", "phone": "+1-718-622-3587"}}, {"type": "node", "id": 9962140857, "lat": 40.6827643, "lon": -73.9641104, "tags": {"addr:housenumber": "920A", "addr:postcode": "11238", "addr:street": "Fulton Street", "amenity": "cafe", "cuisine": "coffee_shop", "drink:coffee": "yes", "drink:espresso": "yes", "indoor_seating": "yes", "name": "Otway Bakery", "opening_hours": "Mo-Fr 07:30-15:00; Sa-Su 08:00-16:00", "outdoor_seating": "yes", "shop": "bakery"}}, {"type": "node", "id": 9964805382, "lat": 40.6806532, "lon": -73.963101, "tags": {"amenity": "bar", "cocktails": "yes", "drink:beer": "yes", "drink:liquor": "yes", "drink:wine": "yes", "live_music": "yes", "name": "Manado's Jazz Lounge", "phone": "+1-718-313-9999", "website": "https://www.manadosjazz.com"}}, {"type": "node", "id": 10043984274, "lat": 40.6860619, "lon": -73.9663078}, {"type": "node", "id": 10043984275, "lat": 40.6851689, "lon": -73.9661287}, {"type": "node", "id": 10043984276, "lat": 40.6852556, "lon": -73.9653765}, {"type": "node", "id": 10043984277, "lat": 40.6852003, "lon": -73.9658562}, {"type": "node", "id": 10282968180, "lat": 40.683681, "lon": -73.9682409, "tags": {"addr:housenumber": "810", "addr:postcode": "11238", "addr:street": "Fulton Street", "amenity": "bar", "cocktails": "yes", "cuisine": "charcuterie;oysters", "indoor_seating": "yes", "name": "Bar Francis", "opening_hours": "We 16:00-24:00; Th 16:00-01:00; Fr-Sa 16:00-02:00; Su 16:00-24:00", "outdoor_seating": "no", "phone": "+1-718-885-4728", "website": "https://www.barfrancisnyc.com"}}, {"type": "node", "id": 10282968181, "lat": 40.6836366, "lon": -73.9681287, "tags": {"addr:housenumber": "810", "addr:postcode": "11238", "addr:street": "Fulton Street", "amenity": "cafe", "drink:coffee": "yes", "drink:espresso": "yes", "drink:tea": "yes", "indoor_seating": "yes", "name": "Hungry Ghost Coffee", "opening_hours": "Mo-Su 07:00-19:00", "outdoor_seating": "no", "website": "https://www.hungryghostcoffee.com/location/clinton-hill/"}}, {"type": "node", "id": 10757533390, "lat": 40.68418, "lon": -73.9684285, "tags": {"addr:street": "Gates Avenue Plaza", "leisure": "park", "name": "Apolline's Garden", "operator": "NYC DOT"}}, {"type": "node", "id": 10778953571, "lat": 40.6807793, "lon": -73.9692641}, {"type": "node", "id": 10778953572, "lat": 40.6808672, "lon": -73.9701676}, {"type": "node", "id": 10778953573, "lat": 40.681306, "lon": -73.9698111}, {"type": "node", "id": 10778953574, "lat": 40.6811006, "lon": -73.9690025}, {"type": "node", "id": 10778953575, "lat": 40.6808056, "lon": -73.9695443}, {"type": "node", "id": 10778953576, "lat": 40.6806353, "lon": -73.9696064}, {"type": "node", "id": 10778953577, "lat": 40.6804716, "lon": -73.9688255}, {"type": "node", "id": 10778953578, "lat": 40.6806375, "lon": -73.968765}, {"type": "node", "id": 10778953579, "lat": 40.6807325, "lon": -73.9690407}, {"type": "node", "id": 10778953580, "lat": 40.6810538, "lon": -73.968779}, {"type": "node", "id": 10778953581, "lat": 40.6805788, "lon": -73.9693371}, {"type": "node", "id": 10778953582, "lat": 40.6808727, "lon": -73.9698648}, {"type": "node", "id": 10778953583, "lat": 40.6812525, "lon": -73.9695557}, {"type": "node", "id": 10778953584, "lat": 40.6807651, "lon": -73.9702258}, {"type": "node", "id": 10997993461, "lat": 40.681556, "lon": -73.9656692, "tags": {"addr:housenumber": "847", "addr:postcode": "11238", "addr:street": "Atlantic Avenue", "amenity": "cafe", "cuisine": "coffee_shop", "name": "Burly Coffee", "opening_hours": "Mo-Th 07:00-16:00, Fr 07:00-18:00, Sa 08:00-18:00, Su 08:00-16:00", "website": "https://burlycoffee.com"}}, {"type": "node", "id": 11767388176, "lat": 40.6806498, "lon": -73.9644113}, {"type": "node", "id": 11787673928, "lat": 40.6807667, "lon": -73.963782, "tags": {"fax": "+1-718-302-6079", "name": "Horizon Construction", "office": "construction_company", "phone": "+1-718-302-6080", "website": "https://www.horizonconstructionny.com"}}, {"type": "node", "id": 12046257637, "lat": 40.6809684, "lon": -73.9678665}, {"type": "node", "id": 12046257638, "lat": 40.6815663, "lon": -73.9707347}, {"type": "node", "id": 12046257639, "lat": 40.6808162, "lon": -73.9704461}, {"type": "node", "id": 12046257640, "lat": 40.6808124, "lon": -73.9704359}, {"type": "node", "id": 12046257641, "lat": 40.6811086, "lon": -73.968524}, {"type": "node", "id": 12046257642, "lat": 40.6811173, "lon": -73.968531}, {"type": "node", "id": 12046257643, "lat": 40.6813999, "lon": -73.9698996}, {"type": "node", "id": 12046257644, "lat": 40.6814098, "lon": -73.9699395}, {"type": "node", "id": 13295028525, "lat": 40.6861138, "lon": -73.9658806}, {"type": "way", "id": 31974378, "nodes": [5912637779, 5912637778, 5912637780, 5912637775, 5912637781, 5912637803, 5912637782, 5912637773, 5912637783, 5912637776, 5912637784, 5912637774, 5912637785, 5912637777, 358262183, 358262182, 5912637788, 5912637791, 11767388176, 5912637779], "tags": {"ele": "26", "leisure": "park", "name": "Lowry Triangle", "wikidata": "Q49519987"}}, {"type": "way", "id": 248178930, "nodes": [2550153988, 2550154111, 2550154115, 2550154124, 2550153860, 2550153839, 2550153847, 2550153855, 2550153851, 2550153983, 2550153988], "tags": {"addr:housenumber": "510", "addr:postcode": "11238", "addr:street": "Waverly Avenue", "amenity": "school", "building": "school", "check_date": "2024-07-30", "fax": "+1-718-789-1649", "height": "23.7", "name": "Achievement First Endeavor Elementary", "nycdoitt:bin": "3057561", "phone": "+1-718-622-5994", "website": "https://www.achievementfirst.org/school/achievement-first-endeavor-elementary-school/"}}, {"type": "way", "id": 248178995, "nodes": [2550153239, 2550153244, 2550153256, 2550153343, 2550153338, 2550153323, 2550153312, 2550153239], "tags": {"addr:housenumber": "905", "addr:postcode": "11238", "addr:street": "Atlantic Avenue", "building": "yes", "height": "9.5", "name": "Premier Roofing", "nycdoitt:bin": "3057827", "office": "construction", "phone": "+1-718-638-3711"}}, {"type": "way", "id": 248179091, "nodes": [2550154738, 2550154756, 6412731574, 2550154761, 2550154758, 2550154759, 6670685135, 2550154734, 2550154733, 2550154740, 2550154738], "tags": {"addr:housenumber": "510", "addr:postcode": "11238", "addr:street": "Clermont Avenue", "amenity": "school", "building": "yes", "height": "12.4", "name": "Brooklyn School for Career Development", "nycdoitt:bin": "3057521", "phone": "+1-718-857-4646"}}, {"type": "way", "id": 250331116, "nodes": [2568093497, 2568093533, 2568093562, 2568093547, 2568093551, 2568093518, 2568093520, 2568093510, 2568093497], "tags": {"addr:housenumber": "481", "addr:postcode": "11238", "addr:street": "Washington Avenue", "building": "yes", "contact:facebook": "https://www.facebook.com/International-Evangelistic-Women-Workers-Inc-493248790745711/", "height": "12.1", "name": "International Evangelistic Women Workers", "nycdoitt:bin": "3056652", "office": "association"}}, {"type": "way", "id": 684466496, "nodes": [6412732711, 6412731568, 6513463318, 2550154756, 6412731574, 2550154761, 2550154758, 2550154759, 6412732709, 6412731570, 6412732710, 6412732711], "tags": {"addr:city": "Brooklyn", "addr:housenumber": "510", "addr:postcode": "11238", "addr:state": "NY", "addr:street": "Clermont Avenue", "addr:unit": "452", "amenity": "school", "name": "Brooklyn Technical High School Athletic Field", "website": "https://bths.edu/"}}, {"type": "way", "id": 1096880336, "nodes": [3414529660, 13295028525, 3414529659, 10043984274, 10043984275, 10043984277, 10043984276, 3204100599, 3414529660], "tags": {"amenity": "school", "name": "Public School 11"}}, {"type": "way", "id": 1300559671, "nodes": [5838586516, 12046257637, 12046257641, 12046257642, 12046257643, 12046257644, 12046257638, 5864324701, 5864324700, 5864324702, 5864324703, 5864324692, 5864324691, 5864324698, 5864324696, 5864324690, 12046257639, 12046257640, 10778953584, 1956618020, 10778953572, 10778953573, 10778953583, 10778953582, 10778953575, 10778953576, 10778953581, 10778953571, 10778953574, 10778953580, 10778953579, 1956618014, 10778953578, 10778953577, 5838586522, 5838586521, 5838586520, 5838586519, 5838586518, 5838586517, 5838586516], "tags": {"leisure": "park", "name": "Pacific Park"}}]}