{"version": 0.6, "generator": "Overpass API 0.7.62.8 e802775f", "osm3s": {"timestamp_osm_base": "2025-12-01T15:47:50Z", "copyright": "The data included in this document is from www.openstreetmap.org. The data is made available under ODbL."}, "elements": [{"type": "node", "id": 219659209, "lat": 40.6931657, "lon": -73.9743092}, {"type": "node", "id": 219659235, "lat": 40.6897682, "lon": -73.9734642}, {"type": "node", "id": 219659248, "lat": 40.6899034, "lon": -73.9771215}, {"type": "node", "id": 219659258, "lat": 40.6931657, "lon": -73.9775718}, {"type": "node", "id": 419364748, "lat": 40.6872881, "lon": -73.9753082, "tags": {"amenity": "cafe", "brand": "Blank Street Coffee", "brand:wikidata": "Q114792509", "cuisine": "coffee_shop", "drink:coffee": "yes", "drink:espresso": "yes", "name": "Blank Street Coffee", "opening_hours": "Mo-Fr 06:30-17:30, Sa-Su 07:00-17:00", "takeaway": "yes", "website": "https://www.blankstreet.com/locations/new-york/LDBX6YWQTJ180-lafayette-and-s-elliot-pl"}}, {"type": "node", "id": 1116977313, "lat": 40.6857561, "lon": -73.9735045, "tags": {"addr:housenumber": "710", "addr:street": "Fulton Street", "alt_name": "Die Stammkneipe", "amenity": "pub", "cuisine": "german", "diet:vegan": "yes", "drink:beer": "draught", "drink:liquor": "no", "drink:wine": "yes", "indoor_seating": "yes", "name": "DSK Brooklyn", "old_name": "Der Schwarze K\u00f6lner", "opening_hours": "Mo-Th 15:00-22:00; Fr-Su 12:00-22:00", "outdoor_seating": "yes", "phone": "+1-347-841-4495", "sport": "kicker", "toilets": "yes", "toilets:access": "customers", "website": "https://dsk-brooklyn.com", "wheelchair": "yes"}}, {"type": "node", "id": 1258945389, "lat": 40.6921309, "lon": -73.9774033}, {"type": "node", "id": 1258945404, "lat": 40.6912526, "lon": -73.9775311}, {"type": "node", "id": 1258945410, "lat": 40.6921456, "lon": -73.9774327}, {"type": "node", "id": 1258945455, "lat": 40.6898849, "lon": -73.973357}, {"type": "node", "id": 1258945576, "lat": 40.691723, "lon": -73.9773093}, {"type": "node", "id": 1258945585, "lat": 40.6916867, "lon": -73.9776084}, {"type": "node", "id": 1258945599, "lat": 40.6912645, "lon": -73.9774}, {"type": "node", "id": 1907676083, "lat": 40.6929036, "lon": -73.9741609}, {"type": "node", "id": 1907676085, "lat": 40.6932202, "lon": -73.9775133}, {"type": "node", "id": 1907676086, "lat": 40.6929254, "lon": -73.973963}, {"type": "node", "id": 1907676090, "lat": 40.6929562, "lon": -73.9742348}, {"type": "node", "id": 1907676092, "lat": 40.6930122, "lon": -73.9743134}, {"type": "node", "id": 1907676097, "lat": 40.6932772, "lon": -73.9773387}, {"type": "node", "id": 2018982002, "lat": 40.685963, "lon": -73.9716107}, {"type": "node", "id": 2018982003, "lat": 40.6858406, "lon": -73.9726898}, {"type": "node", "id": 2018982004, "lat": 40.68529, "lon": -73.9713981}, {"type": "node", "id": 2018986938, "lat": 40.6870449, "lon": -73.9773035}, {"type": "node", "id": 2549918806, "lat": 40.6894847, "lon": -73.9725415, "tags": {"addr:housenumber": "180", "addr:postcode": "11205", "addr:street": "DeKalb Avenue", "amenity": "cafe", "cuisine": "coffee_shop", "drink:coffee": "yes", "drink:espresso": "yes", "name": "Bittersweet", "outdoor_seating": "only", "takeaway": "yes"}}, {"type": "node", "id": 2568270469, "lat": 40.6859799, "lon": -73.9732185, "tags": {"addr:housenumber": "1", "addr:postcode": "11238", "addr:street": "Greene Avenue", "amenity": "restaurant", "cuisine": "korean", "drink:beer": "draught", "drink:liquor": "yes", "drink:wine": "yes", "indoor_seating": "yes", "name": "BOM with the Wind", "outdoor_seating": "no"}}, {"type": "node", "id": 2572920461, "lat": 40.6868666, "lon": -73.9787793}, {"type": "node", "id": 2572930729, "lat": 40.6874655, "lon": -73.9755218}, {"type": "node", "id": 2572930732, "lat": 40.6874732, "lon": -73.9754561}, {"type": "node", "id": 2572930738, "lat": 40.6874816, "lon": -73.9753842}, {"type": "node", "id": 2572930743, "lat": 40.6875059, "lon": -73.9751763}, {"type": "node", "id": 2572930771, "lat": 40.6875707, "lon": -73.975543}, {"type": "node", "id": 2572930777, "lat": 40.6875875, "lon": -73.9753996}, {"type": "node", "id": 2572930782, "lat": 40.6876111, "lon": -73.9751975}, {"type": "node", "id": 2572981704, "lat": 40.6866318, "lon": -73.9756587, "tags": {"addr:housenumber": "662", "addr:postcode": "11217", "addr:street": "Fulton Street", "amenity": "restaurant", "cuisine": "turkish;brunch", "drink:beer": "yes", "drink:coffee": "yes", "drink:liquor": "yes", "drink:wine": "yes", "fax": "+1-718-852-8784", "name": "Deniz", "opening_hours": "Mo-Th 11:00-23:00; Fr-Sa 11:00-23:00+; Su 11:00-23:00", "outdoor_seating": "sidewalk", "phone": "+1-718-852-6503", "website": "https://deniznyc.com/"}}, {"type": "node", "id": 2572981756, "lat": 40.6861865, "lon": -73.9737746, "tags": {"addr:housenumber": "773", "addr:postcode": "11217", "addr:street": "Fulton Street", "amenity": "restaurant", "bar": "yes", "cocktails": "yes", "cuisine": "french;bistro", "drink:beer": "draught", "drink:liquor": "yes", "drink:wine": "yes", "name": "Endswell", "outdoor_seating": "sidewalk", "website": "https://www.endswellbk.com"}}, {"type": "node", "id": 2572981801, "lat": 40.6869069, "lon": -73.9753966, "tags": {"addr:housenumber": "87", "addr:postcode": "11217", "addr:street": "South Elliott Place", "amenity": "restaurant", "cuisine": "caribbean", "name": "Island Shack", "phone": "+1-347-987-4832", "website": "https://islandshackcaribbean.com"}}, {"type": "node", "id": 2572981811, "lat": 40.6867383, "lon": -73.9771823, "tags": {"amenity": "school", "name": "Brooklyn Independent Middle School", "phone": "+1-646-930-1246", "website": "https://www.bkindependent.org"}}, {"type": "node", "id": 2572983442, "lat": 40.6866819, "lon": -73.9750822}, {"type": "node", "id": 2572983485, "lat": 40.6867324, "lon": -73.9752117}, {"type": "node", "id": 2572983488, "lat": 40.6867408, "lon": -73.975206}, {"type": "node", "id": 2572983549, "lat": 40.6867944, "lon": -73.9750064}, {"type": "node", "id": 2572983570, "lat": 40.6868269, "lon": -73.9749846}, {"type": "node", "id": 2572983612, "lat": 40.6868687, "lon": -73.9751199}, {"type": "node", "id": 3151639217, "lat": 40.6894824, "lon": -73.9732792, "tags": {"amenity": "restaurant", "cuisine": "american", "name": "Walters", "opening_hours": "Mo-Th 11:00-23:00; Fr 11:00-00:00; Sa 09:00-00:00; Su 09:00-22:00", "website": "https://www.waltersbrooklyn.com/"}}, {"type": "node", "id": 3154211509, "lat": 40.6872709, "lon": -73.9754546, "tags": {"addr:city": "Brooklyn", "addr:housenumber": "71", "addr:postcode": "11238", "addr:state": "NY", "addr:street": "Lafayette Avenue", "amenity": "pub", "contact:instagram": "https://www.instagram.com/fancyfreebk/", "cuisine": "american;pub", "drink:beer": "draught", "drink:liquor": "yes", "drink:wine": "yes", "name": "Fancy Free", "opening_hours": "Mo-Fr 15:00-23:00; Sa,Su 12:00-23:00", "outdoor_seating": "sidewalk", "phone": "+1-347-763-0024", "website": "https://www.fancyfreebk.com"}}, {"type": "node", "id": 3154231932, "lat": 40.6865517, "lon": -73.9746741, "tags": {"addr:housenumber": "753", "addr:postcode": "11217", "addr:street": "Fulton Street", "amenity": "restaurant", "cuisine": "italian", "indoor_seating": "yes", "name": "Ma Massa", "opening_hours": "We-Su 05:00-22:00", "outdoor_seating": "no"}}, {"type": "node", "id": 3154231933, "lat": 40.6865972, "lon": -73.9747886, "tags": {"addr:housenumber": "747", "addr:postcode": "11217", "addr:street": "Fulton Street", "amenity": "restaurant", "cuisine": "thai", "indoor_seating": "yes", "name": "Brooklyn Thai-ger", "outdoor_seating": "yes"}}, {"type": "node", "id": 3154231936, "lat": 40.6870703, "lon": -73.9747397, "tags": {"addr:housenumber": "80", "addr:postcode": "11217", "addr:street": "Lafayette Avenue", "alt_name": "Wild Boar", "amenity": "bar", "black_owned": "yes", "cuisine": "barbecue", "name": "Mo's Bar", "not:brand:wikidata": "Q17022303", "old_name": "Moe's Bar", "smoking": "no", "wikidata": "Q6889940"}}, {"type": "node", "id": 3154231939, "lat": 40.6863599, "lon": -73.9742242, "tags": {"amenity": "bar", "atm": "yes", "cuisine": "cuban", "disused:amenity": "restaurant", "indoor_seating": "yes", "name": "Habana Outpost", "outdoor_seating": "yes", "payment:cash": "only", "smoking": "no", "toilets": "yes", "website": "https://www.habanaoutpost.com/location/habana-outpost-brooklyn/"}}, {"type": "node", "id": 3154231943, "lat": 40.6860974, "lon": -73.9735627, "tags": {"addr:housenumber": "781", "addr:postcode": "11217", "addr:street": "Fulton Street", "amenity": "cafe", "cuisine": "coffee_shop;sandwich", "drink:beer": "draught", "drink:coffee": "yes", "drink:espresso": "yes", "drink:wine": "yes", "indoor_seating": "yes", "internet_access": "no", "name": "Hungry Ghost", "opening_hours": "Mo-Su 07:00-20:00", "outdoor_seating": "yes", "phone": "+1-718-797-3595", "smoking": "no", "toilets": "yes", "website": "https://www.hungryghostcoffee.com/location/hungry-ghost-fort-greene/"}}, {"type": "node", "id": 3154234527, "lat": 40.6872259, "lon": -73.9763661, "tags": {"addr:housenumber": "723", "addr:postcode": "11217", "addr:state": "NY", "addr:street": "Fulton Street", "amenity": "restaurant", "cuisine": "thai", "email": "info@sukhthainyc.com", "name": "Sukh", "opening_hours": "Mo-Su 12:00-22:00", "phone": "+1-347-494-1999", "website": "https://www.sukhnyc.com/"}}, {"type": "node", "id": 3154284867, "lat": 40.6865628, "lon": -73.9743101, "tags": {"amenity": "restaurant", "cuisine": "italian", "drink:wine": "yes", "name": "Fradei", "old_name": "Cafe Lafayette", "opening_hours": "Tu-Sa 17:30-23:00; Su 17:30-22:00"}}, {"type": "node", "id": 3154284869, "lat": 40.6866181, "lon": -73.9748413, "tags": {"addr:housenumber": "745", "addr:postcode": "11217", "addr:street": "Fulton Street", "amenity": "pub", "cuisine": "caribbean", "indoor_seating": "yes", "name": "Brooklyn Moon", "outdoor_seating": "yes", "phone": "+1-718-855-7149", "smoking": "no"}}, {"type": "node", "id": 3279444662, "lat": 40.6873648, "lon": -73.9773655}, {"type": "node", "id": 3279444665, "lat": 40.687111, "lon": -73.97673}, {"type": "node", "id": 3749834365, "lat": 40.6920672, "lon": -73.9773763}, {"type": "node", "id": 3749834366, "lat": 40.6921052, "lon": -73.9773295}, {"type": "node", "id": 3749834369, "lat": 40.6921334, "lon": -73.9773712}, {"type": "node", "id": 5521624443, "lat": 40.6862358, "lon": -73.978777}, {"type": "node", "id": 5521624444, "lat": 40.686451, "lon": -73.9785938}, {"type": "node", "id": 5521624445, "lat": 40.6865868, "lon": -73.9790467}, {"type": "node", "id": 5521674371, "lat": 40.6866264, "lon": -73.9786371}, {"type": "node", "id": 5521674378, "lat": 40.6869141, "lon": -73.9783595}, {"type": "node", "id": 5768346318, "lat": 40.6896146, "lon": -73.9758873, "tags": {"addr:city": "Brooklyn", "addr:state": "NY", "amenity": "restaurant", "name": "Caf\u00e9 Paulette"}}, {"type": "node", "id": 5782951777, "lat": 40.6844405, "lon": -73.9788828, "tags": {"addr:city": "Brooklyn", "addr:housenumber": "572", "addr:postcode": "11217", "addr:state": "NY", "addr:street": "Atlantic Avenue", "amenity": "cafe", "cafe": "board_game", "club": "board_games", "contact:instagram": "squarrelcafe", "diet:vegetarian": "no", "drink:coffee": "yes", "drink:espresso": "yes", "drink:tea": "yes", "name": "Squarrel Cafe", "opening_hours": "07:00-22:00", "phone": "+1-718-237-4286", "website": "https://squarrelcafe.com/"}}, {"type": "node", "id": 5866582853, "lat": 40.6870231, "lon": -73.9776703, "tags": {"amenity": "bar", "cuisine": "tapas", "drink:beer": "yes", "drink:sangria": "yes", "drink:wine": "yes", "name": "33"}}, {"type": "node", "id": 5866582854, "lat": 40.6869924, "lon": -73.9779035, "tags": {"amenity": "restaurant", "branch": "Fort Greene", "brand": "Tacombi", "brand:wikidata": "Q123165959", "cocktails": "yes", "cuisine": "mexican", "drink:beer": "yes", "drink:liquor": "yes", "drink:wine": "yes", "name": "Tacombi", "opening_hours": "Mo 11:00-21:00, Tu-We 11-222,Th-Sa 11:00-24:00, Su 11:00-21:00", "outdoor_seating": "yes", "phone": "+1-347-294-0647", "website": "https://www.tacombi.com"}}, {"type": "node", "id": 5866994006, "lat": 40.6866941, "lon": -73.9750326, "tags": {"amenity": "bar", "indoor_seating": "yes", "name": "Fritz", "opening_hours": "We,Th,Su 17:00-23:00; Fr,Sa 16:00-24:00", "outdoor_seating": "yes", "wheelchair": "yes"}}, {"type": "node", "id": 5902077880, "lat": 40.6894897, "lon": -73.9719922}, {"type": "node", "id": 5902077881, "lat": 40.6894558, "lon": -73.9712556}, {"type": "node", "id": 5902077882, "lat": 40.6888711, "lon": -73.9711301}, {"type": "node", "id": 5902077883, "lat": 40.6888227, "lon": -73.9715494}, {"type": "node", "id": 5902077884, "lat": 40.6890678, "lon": -73.9716012}, {"type": "node", "id": 5902078186, "lat": 40.6894425, "lon": -73.9712532}, {"type": "node", "id": 5902078187, "lat": 40.6892795, "lon": -73.9712189}, {"type": "node", "id": 5902078240, "lat": 40.6893636, "lon": -73.9719683}, {"type": "node", "id": 5902078255, "lat": 40.6894843, "lon": -73.9718757}, {"type": "node", "id": 5902078263, "lat": 40.6894661, "lon": -73.9714792}, {"type": "node", "id": 5902078265, "lat": 40.6891035, "lon": -73.9719191}, {"type": "node", "id": 5902078271, "lat": 40.6890588, "lon": -73.9716751}, {"type": "node", "id": 5902078272, "lat": 40.6890309, "lon": -73.9719054}, {"type": "node", "id": 5902078386, "lat": 40.689145, "lon": -73.971927, "tags": {"entrance": "yes"}}, {"type": "node", "id": 5934482219, "lat": 40.6855839, "lon": -73.972339}, {"type": "node", "id": 5934482220, "lat": 40.6858746, "lon": -73.9723905}, {"type": "node", "id": 5934482221, "lat": 40.6857881, "lon": -73.972703}, {"type": "node", "id": 5934482222, "lat": 40.6857344, "lon": -73.9727165}, {"type": "node", "id": 5934482223, "lat": 40.6859449, "lon": -73.971564}, {"type": "node", "id": 5934482224, "lat": 40.685259, "lon": -73.9714356}, {"type": "node", "id": 5934482225, "lat": 40.6859142, "lon": -73.9715241}, {"type": "node", "id": 5934482226, "lat": 40.6852493, "lon": -73.9715001}, {"type": "node", "id": 5934482227, "lat": 40.6852448, "lon": -73.9714815}, {"type": "node", "id": 5934482228, "lat": 40.6859218, "lon": -73.9715291}, {"type": "node", "id": 5934482229, "lat": 40.6859629, "lon": -73.9716}, {"type": "node", "id": 5934482230, "lat": 40.6858215, "lon": -73.9726946}, {"type": "node", "id": 5934482234, "lat": 40.6858685, "lon": -73.9724442}, {"type": "node", "id": 5934482235, "lat": 40.6858806, "lon": -73.9723371}, {"type": "node", "id": 5934482267, "lat": 40.6859593, "lon": -73.971589}, {"type": "node", "id": 5934482268, "lat": 40.6859299, "lon": -73.9715377}, {"type": "node", "id": 5934482273, "lat": 40.685246, "lon": -73.9714673}, {"type": "node", "id": 5934482277, "lat": 40.6855584, "lon": -73.972275}, {"type": "node", "id": 5934482278, "lat": 40.6856059, "lon": -73.9723941}, {"type": "node", "id": 5934482281, "lat": 40.6857652, "lon": -73.9727087}, {"type": "node", "id": 5934482493, "lat": 40.6852709, "lon": -73.9714065}, {"type": "node", "id": 5934482494, "lat": 40.6852787, "lon": -73.9713987}, {"type": "node", "id": 5934482516, "lat": 40.6856226, "lon": -73.9714652}, {"type": "node", "id": 5960201618, "lat": 40.6874926, "lon": -73.9764788, "tags": {"name": "Brooklyn Properties", "office": "estate_agent"}}, {"type": "node", "id": 5960201621, "lat": 40.6871803, "lon": -73.9762521, "tags": {"amenity": "cafe", "name": "Moka & Co", "opening_hours": "Mo-Th 07:00-24:00, Fr-Sa 07:00-02:00, Su 07:00-24:00", "website": "https://www.mokanco.com/locations/brooklyn-fort-greene"}}, {"type": "node", "id": 5980081417, "lat": 40.6860096, "lon": -73.9729658, "tags": {"name": "The Agency", "office": "estate_agent", "phone": "+1-347-410-8200", "website": "https://www.theagencyre.com"}}, {"type": "node", "id": 5987904386, "lat": 40.6894172, "lon": -73.9732745, "tags": {"amenity": "restaurant", "name": "Karasu", "opening_hours": "Su-Th 17:30-23:00; Fr-Sa 17:30-24:00"}}, {"type": "node", "id": 6389330763, "lat": 40.6873385, "lon": -73.9748808, "tags": {"amenity": "restaurant", "bar": "yes", "cuisine": "american", "drink:beer": "bottled", "drink:liquor": "no", "drink:wine": "yes", "level": "-1", "name": "The Quarter", "opening_hours": "Mo-We 16:00-24:00; Th-Fr 16:00-02:00; Sa 10:00-02:00; Su 10:00-24:00", "outdoor_seating": "garden", "phone": "+1-347-987-4012", "website": "https://www.quarterbk.com", "wheelchair": "no"}}, {"type": "node", "id": 7177751482, "lat": 40.6877614, "lon": -73.9785857, "tags": {"amenity": "pub", "cocktails": "yes", "cuisine": "american", "drink:beer": "draught", "drink:liquor": "yes", "drink:wine": "yes", "happy_hours": "Mo-Fr 16:00-19:00", "name": "Fulton Hall", "opening_hours": "Mo-Th 12:00-24:00; Fr-Sa 12:00-01:00; Su 12:00-24:00", "opening_hours:kitchen": "Mo-Su 12:00-23:00", "outdoor_seating": "yes", "phone": "+1-718-673-6740", "website": "https://fultonhall.com"}}, {"type": "node", "id": 7178176971, "lat": 40.6869883, "lon": -73.9783696}, {"type": "node", "id": 7178256995, "lat": 40.6869181, "lon": -73.9786569, "tags": {"addr:housenumber": "15", "addr:postcode": "11217", "addr:street": "Lafayette Avenue", "amenity": "cafe", "drink:beer": "bottled", "drink:coffee": "yes", "drink:espresso": "yes", "drink:liquor": "yes", "drink:wine": "yes", "level": "0", "name": "Pub Date", "opening_hours": "Mo 10:30-18:00; Tu-Sa 10:30-22:00; Su 10:30-21:00", "operator": "The Center for Fiction", "website": "https://centerforfiction.org/the-center/cafe-bar/"}}, {"type": "node", "id": 7178256996, "lat": 40.6869407, "lon": -73.9787908}, {"type": "node", "id": 8149327437, "lat": 40.6867593, "lon": -73.9769971, "tags": {"amenity": "school", "denomination": "seventh_day_adventist", "name": "Hanson Place Seventh-Day Adventist Elementary School", "phone": "+1-718-625-3030", "religion": "christian", "website": "https://www.hpsdaschool.org"}}, {"type": "node", "id": 8149346245, "lat": 40.6864984, "lon": -73.9771542, "tags": {"name": "Maagon C.P.A.", "office": "accountant", "phone": "+1-929-215-7258", "website": "https://www.maagoncpa.com"}}, {"type": "node", "id": 8274804922, "lat": 40.69326, "lon": -73.9774309}, {"type": "node", "id": 8274804923, "lat": 40.693037, "lon": -73.9776115}, {"type": "node", "id": 8274804924, "lat": 40.6921197, "lon": -73.977351}, {"type": "node", "id": 8274804925, "lat": 40.6931018, "lon": -73.9776049}, {"type": "node", "id": 8613887939, "lat": 40.6894802, "lon": -73.9723829, "tags": {"addr:housenumber": "184", "addr:postcode": "11217", "addr:street": "DeKalb Avenue", "amenity": "restaurant", "cuisine": "mediterranean", "indoor_seating": "yes", "name": "Miss Ada", "outdoor_seating": "yes", "website": "https://www.missadanyc.com"}}, {"type": "node", "id": 9512650838, "lat": 40.6860614, "lon": -73.9728186, "tags": {"name": "One Community", "office": "association", "phone": "+1-718-398-4242", "website": "https://www.onecommunitynyc.org"}}, {"type": "node", "id": 9514056835, "lat": 40.6860277, "lon": -73.9728119, "tags": {"fax": "+1-718-643-9111", "name": "Marcus Attorneys", "office": "lawyer", "phone": "+1-718-643-6555", "website": "https://www.marcusattorneys.com/"}}, {"type": "node", "id": 9625310236, "lat": 40.6896885, "lon": -73.9718297, "tags": {"amenity": "restaurant", "cocktails": "yes", "cuisine": "italian", "drink:beer": "yes", "drink:liquor": "yes", "drink:wine": "yes", "indoor_seating": "yes", "name": "Saraghina Caff\u00e9", "opening_hours": "Mo-Su 17:00-22:00", "outdoor_seating": "yes", "phone": "+1-718-327-4224", "website": "https://saraghinacaffe.com"}}, {"type": "node", "id": 9629550614, "lat": 40.687312, "lon": -73.9725117, "tags": {"amenity": "restaurant", "cocktails": "yes", "cuisine": "middle_eastern", "drink:beer": "yes", "drink:liquor": "yes", "drink:wine": "yes", "name": "Black Iris", "opening_hours": "Mo-Su 12:00-22:15", "outdoor_seating": "sidewalk;street", "phone": "+1-718-852-9800"}}, {"type": "node", "id": 9842564518, "lat": 40.6866724, "lon": -73.9777301, "tags": {"alt_name": "Lepercq Space", "amenity": "cafe", "name": "BAMcaf\u00e9", "operator": "Brooklyn Academy of Music", "phone": "+1-718-636-4100", "website": "https://www.bam.org/visit#Lepercq-Space/BAMcaf\u00e9"}}, {"type": "node", "id": 10902626274, "lat": 40.6871884, "lon": -73.9769239}, {"type": "node", "id": 10902626275, "lat": 40.6873224, "lon": -73.9772593}, {"type": "node", "id": 10902626296, "lat": 40.6870812, "lon": -73.9769885}, {"type": "node", "id": 10902626297, "lat": 40.6871651, "lon": -73.9768654}, {"type": "node", "id": 10902723713, "lat": 40.6862532, "lon": -73.9785232}, {"type": "node", "id": 10902723715, "lat": 40.6865695, "lon": -73.9786111}, {"type": "node", "id": 10902723716, "lat": 40.6865676, "lon": -73.9786279}, {"type": "node", "id": 10902723717, "lat": 40.6864542, "lon": -73.9785509}, {"type": "node", "id": 10902723742, "lat": 40.6865239, "lon": -73.9789984}, {"type": "node", "id": 10902723744, "lat": 40.6864529, "lon": -73.9785687}, {"type": "node", "id": 10902723748, "lat": 40.6865333, "lon": -73.9790056}, {"type": "node", "id": 10902723750, "lat": 40.686609, "lon": -73.9788173}, {"type": "node", "id": 11133182357, "lat": 40.6896675, "lon": -73.9777652, "tags": {"addr:city": "Brooklyn", "addr:housenumber": "118", "addr:postcode": "11217", "addr:state": "NY", "addr:street": "DeKalb Avenue", "amenity": "cafe", "check_date:opening_hours": "2025-10-28", "contact:instagram": "textbook.nyc", "indoor_seating": "yes", "name": "Text Book", "opening_hours": "07:30-19:00", "outdoor_seating": "yes", "phone": "+1-347-844-9123"}}, {"type": "node", "id": 11152084762, "lat": 40.6847907, "lon": -73.9775039, "tags": {"addr:city": "Brooklyn", "addr:housenumber": "139", "addr:postcode": "11217", "addr:state": "NY", "addr:street": "Flatbush Avenue", "amenity": "cafe", "branch": "Flatbush Avenue Atlantic Terminal", "brand": "Starbucks", "brand:wikidata": "Q37158", "cuisine": "coffee_shop", "level": "0", "name": "Starbucks", "official_name": "Starbucks Coffee", "opening_hours": "Mo-Su 05:30-20:00; Sa, Su 06:00-19:00", "phone": "+1 718-789-3418", "takeaway": "yes", "website": "https://www.starbucks.com/store-locator/store/12539/flatbush-ave-atlantic-terminal-139-flatbush-ave-brooklyn-ny-112171450-us"}}, {"type": "node", "id": 11152104482, "lat": 40.6849664, "lon": -73.9767341, "tags": {"amenity": "restaurant", "name": "Appelbee's"}}, {"type": "node", "id": 11201416134, "lat": 40.6850858, "lon": -73.9755305, "tags": {"addr:housenumber": "625", "addr:street": "Atlantic Avenue", "government": "transportation", "level": "2", "office": "government", "operator": "New York State Department of Motor Vehicles", "operator:short": "New York DMV", "operator:wikidata": "Q17109616"}}, {"type": "node", "id": 11215534001, "lat": 40.688026, "lon": -73.9784403}, {"type": "node", "id": 11215534002, "lat": 40.6884273, "lon": -73.9784975}, {"type": "node", "id": 11215534003, "lat": 40.6884187, "lon": -73.9786038}, {"type": "node", "id": 11215534004, "lat": 40.6880732, "lon": -73.9785578}, {"type": "node", "id": 12047933728, "lat": 40.6871086, "lon": -73.9767508}, {"type": "node", "id": 12047933729, "lat": 40.6871026, "lon": -73.9768027}, {"type": "node", "id": 12254052901, "lat": 40.689612, "lon": -73.9757378, "tags": {"addr:housenumber": "136", "addr:postcode": "11217", "addr:street": "DeKalb Avenue", "amenity": "bar", "name": "Petit Paulette"}}, {"type": "node", "id": 12602016571, "lat": 40.6896817, "lon": -73.9769631}, {"type": "node", "id": 12602016572, "lat": 40.6896526, "lon": -73.9761956}, {"type": "node", "id": 12602016573, "lat": 40.6882188, "lon": -73.975914}, {"type": "node", "id": 12602016574, "lat": 40.6881374, "lon": -73.9766446}, {"type": "node", "id": 12602306528, "lat": 40.6872052, "lon": -73.9759848, "tags": {"amenity": "restaurant", "cuisine": "seafood", "name": "Strange Delight", "opening_hours": "Mo-Th 11:30-15:30,17:00-21:30; Fr-Sa 11:30-15:30,17:00-22:30; Su 11:30-15:30,17:00-21:30", "website": "https://www.strangedelight.nyc"}}, {"type": "node", "id": 13265935943, "lat": 40.6896711, "lon": -73.9777776, "tags": {"amenity": "restaurant", "name": "Shoof Burger", "opening_hours": "Mo-Su 11:00-20:00"}}, {"type": "node", "id": 13315349562, "lat": 40.6894751, "lon": -73.971675}, {"type": "way", "id": 20512138, "nodes": [219659209, 1907676092, 1907676090, 1907676083, 1907676086, 1258945455, 219659235, 219659248, 1258945599, 1258945404, 1258945585, 1258945576, 3749834365, 3749834366, 8274804924, 3749834369, 1258945389, 1258945410, 8274804923, 8274804925, 219659258, 1907676085, 8274804922, 1907676097, 219659209], "tags": {"dog": "leashed", "dog:conditional": "unleashed @ 06:00-09:00,21:00-25:00", "leisure": "park", "name": "Fort Greene Park", "operator": "New York City Department of Parks and Recreation", "operator:short": "NYC Parks", "operator:type": "government", "operator:wikidata": "Q1894232", "website": "https://www.fortgreenepark.org", "wikidata": "Q5471253", "wikipedia": "en:Fort Greene Park"}}, {"type": "way", "id": 191313664, "nodes": [2018982003, 5934482234, 5934482220, 5934482235, 2018982002, 5934482229, 5934482267, 5934482223, 5934482268, 5934482228, 5934482225, 5934482516, 2018982004, 5934482494, 5934482493, 5934482224, 5934482273, 5934482227, 5934482226, 5934482277, 5934482219, 5934482278, 5934482222, 5934482281, 5934482221, 5934482230, 2018982003], "tags": {"check_date": "2025-11-01", "leisure": "park", "name": "Cuyler Gore Park", "opening_date": "2025-11-01", "operator": "New York City Department of Parks and Recreation", "operator:short": "NYC Parks", "operator:type": "public", "operator:wikidata": "Q1894232", "website": "https://www.nycgovparks.org/parks/cuyler-gore-park", "wikidata": "Q34821527"}}, {"type": "way", "id": 191314155, "nodes": [3279444662, 10902626275, 10902626274, 10902626297, 3279444665, 12047933728, 12047933729, 10902626296, 2018986938, 3279444662], "tags": {"addr:city": "Brooklyn", "addr:housenumber": "38", "addr:postcode": "11217", "addr:state": "NY", "addr:street": "Lafayette Avenue", "leisure": "park", "name": "Betty Carter Park", "old_name": "BAM Park", "operator": "New York City Department of Parks and Recreation", "operator:short": "NYC Parks", "operator:type": "public", "operator:wikidata": "Q1894232", "website": "https://www.nycgovparks.org/parks/betty-carter-park", "wikidata": "Q116203677"}}, {"type": "way", "id": 250969118, "nodes": [2572930729, 2572930771, 2572930777, 2572930782, 2572930743, 2572930738, 2572930732, 2572930729], "tags": {"addr:housenumber": "75", "addr:postcode": "11217", "addr:street": "South Elliott Place", "building": "yes", "check_date": "2024-10-30", "height": "11.6", "name": "40 Acres and a Mule Filmworks", "nycdoitt:bin": "3058774", "office": "company", "website": "https://www.40acres.com", "wikipedia": "en:40 Acres and a Mule Filmworks"}}, {"type": "way", "id": 250979461, "nodes": [2572983442, 2572983485, 2572983488, 2572983612, 2572983570, 2572983549, 2572983442], "tags": {"addr:city": "Brooklyn", "addr:housenumber": "733", "addr:postcode": "11217", "addr:street": "Fulton Street", "amenity": "restaurant", "building": "yes", "building:levels": "1", "cuisine": "german", "height": "4.4", "indoor_seating": "yes", "name": "Black Forest Brooklyn", "nycdoitt:bin": "3059297", "opening_hours": "Mo-Fr 12:00-24:00; Sa 10:00-24:00; Su 10:00-22:00", "outdoor_seating": "yes", "phone": "+1-718-935-0300", "website": "https://www.blackforestbrooklyn.com/"}}, {"type": "way", "id": 575425396, "nodes": [5521624443, 10902723742, 10902723748, 5521624445, 10902723750, 5521674371, 10902723716, 10902723715, 5521624444, 10902723744, 10902723717, 10902723713, 5521624443], "tags": {"access": "permissive", "leisure": "park", "name": "The Plaza At 300 Ashland", "operator": "300 Ashland Avenue"}}, {"type": "way", "id": 625093345, "nodes": [5902077880, 5902078255, 13315349562, 5902078263, 5902077881, 5902078186, 5902078187, 5902077882, 5902077883, 5902077884, 5902078271, 5902078272, 5902078265, 5902078386, 5902078240, 5902077880], "tags": {"elevation": "22", "gnis:feature_id": "2377263", "leisure": "park", "name": "Edmonds Playground", "website": "https://www.nycgovparks.org/parks/edmonds-playground/", "wikidata": "Q34827786"}}, {"type": "way", "id": 768957904, "nodes": [7178176971, 7178256996, 2572920461, 5521674378, 7178176971], "tags": {"addr:housenumber": "15", "addr:postcode": "11217", "addr:street": "Lafayette Avenue", "description": "The only nonprofit literary organization in the U.S. solely dedicated to celebrating fiction.", "email": "info@centerforfiction.org", "level": "0;1", "name": "The Center for Fiction Bookstore", "office": "association", "opening_hours": "Mo 10:30-18:00; Tu-Sa 10:30-22:00; Su 10:30-21:00", "phone": "+1-212-755-6710", "website": "https://www.centerforfiction.org"}}, {"type": "way", "id": 1210539676, "nodes": [11215534001, 11215534002, 11215534003, 11215534004, 11215534001], "tags": {"leisure": "park", "name": "Fort\u00e9 Plaza", "opening_hours": "24/7", "operator:type": "private", "ref:nycpops": "K020007"}}, {"type": "way", "id": 1361276415, "nodes": [12602016571, 12602016572, 12602016573, 12602016574, 12602016571], "tags": {"amenity": "school", "ele": "13", "fax": "+1-718-260-9245", "gnis:feature_id": "2082098", "grades": "9-12", "mascot": "Engineers", "name": "Brooklyn Technical High School", "phone": "+1-718-804-6400", "website": "https://bths.edu", "wikidata": "Q2737843"}}]}