{"version": 0.6, "generator": "Overpass API 0.7.62.8 e802775f", "osm3s": {"timestamp_osm_base": "2025-12-01T17:36:25Z", "copyright": "The data included in this document is from www.openstreetmap.org. The data is made available under ODbL."}, "elements": [{"type": "node", "id": 246859499, "lat": 40.710469, "lon": -74.014348}, {"type": "node", "id": 272194598, "lat": 40.7095497, "lon": -74.0116948}, {"type": "node", "id": 272194601, "lat": 40.7088871, "lon": -74.0109134, "tags": {"barrier": "kerb", "kerb": "lowered", "tactile_paving": "yes", "wheelchair": "yes"}}, {"type": "node", "id": 272194602, "lat": 40.7091543, "lon": -74.010684}, {"type": "node", "id": 480910122, "lat": 40.7099994, "lon": -74.0136144}, {"type": "node", "id": 480910126, "lat": 40.7096737, "lon": -74.0129631}, {"type": "node", "id": 793879917, "lat": 40.7100842, "lon": -74.0128136}, {"type": "node", "id": 888527171, "lat": 40.709558, "lon": -74.012778, "tags": {"amenity": "pub", "name": "O'Hara's Pub"}}, {"type": "node", "id": 895891344, "lat": 40.7127049, "lon": -74.0077176}, {"type": "node", "id": 895891352, "lat": 40.7130579, "lon": -74.00744}, {"type": "node", "id": 895891366, "lat": 40.7132618, "lon": -74.0078876}, {"type": "node", "id": 895891374, "lat": 40.7129286, "lon": -74.0082185}, {"type": "node", "id": 895891414, "lat": 40.7130621, "lon": -74.0080426}, {"type": "node", "id": 1431806493, "lat": 40.710786, "lon": -74.0142507}, {"type": "node", "id": 1695926392, "lat": 40.7088707, "lon": -74.0081885}, {"type": "node", "id": 1695926394, "lat": 40.7089315, "lon": -74.0081266}, {"type": "node", "id": 2011782281, "lat": 40.7082349, "lon": -74.0076153, "tags": {"addr:city": "New York", "addr:housenumber": "90", "addr:postcode": "10038", "addr:state": "NY", "addr:street": "William Street", "amenity": "cafe", "branch": "90 William Street", "cuisine": "coffee_shop", "delivery": "yes", "indoor_seating": "yes", "level": "0", "name": "BlueSpoon Coffee Co", "opening_hours": "Mo-Fr 07:00-16:00; Sa 08:00-15:00; Su off", "outdoor_seating": "yes", "phone": "+1 212-809-8880", "takeaway": "yes", "wheelchair": "yes"}}, {"type": "node", "id": 2047269475, "lat": 40.7101916, "lon": -74.0079702, "tags": {"addr:city": "New York", "addr:housenumber": "130", "addr:postcode": "10038", "addr:state": "NY", "addr:street": "Fulton Street", "amenity": "cafe", "branch": "Nassau & Fulton", "brand": "Starbucks", "brand:wikidata": "Q37158", "cuisine": "coffee_shop", "diet:vegan": "yes", "drink:soy_milk": "yes", "indoor_seating": "yes", "internet_access": "wlan", "internet_access:fee": "yes", "name": "Starbucks", "official_name": "Starbucks Coffee", "opening_hours": "Mo-Sa 06:00-19:00; Su 06:00-18:30", "outdoor_seating": "no", "phone": "+1 212-962-0439", "takeaway": "yes", "website": "https://www.starbucks.com/store-locator/store/10655/nassau-fulton-130-fulton-street-new-york-ny-100382504-us", "wheelchair": "yes"}}, {"type": "node", "id": 2183039959, "lat": 40.7089962, "lon": -74.0090796, "tags": {"addr:city": "New York", "addr:housenumber": "53", "addr:postcode": "10038", "addr:state": "NY", "addr:street": "Nassau Street", "amenity": "restaurant", "check_date:opening_hours": "2023-08-31", "cuisine": "indian", "indoor_seating": "yes", "name": "Raj's Indian Kitchen", "opening_hours:signed": "no", "outdoor_seating": "no", "phone": "+1-646-559-2322"}}, {"type": "node", "id": 2275856089, "lat": 40.7087251, "lon": -74.0103625, "tags": {"addr:housenumber": "140", "addr:street": "Broadway", "name": "Brown Brothers Harriman & Trust", "office": "company", "wheelchair": "yes"}}, {"type": "node", "id": 2348991691, "lat": 40.7135488, "lon": -74.0065782}, {"type": "node", "id": 2706005871, "lat": 40.7096869, "lon": -74.0139312, "tags": {"addr:city": "New York", "addr:housenumber": "136", "addr:postcode": "10006", "addr:state": "NY", "addr:street": "Washington Street", "amenity": "restaurant", "branch": "Steakhouse", "brand": "Morton's The Steakhouse", "brand:wikidata": "Q17022759", "check_date": "2023-02-23", "cuisine": "steak_house", "indoor_seating": "yes", "name": "Morton's The Steakhouse", "opening_hours": "Mo-Th 12:00-21:00; Fr-Sa 17:00-22:00; Su 16:00-21:00", "outdoor_seating": "no", "phone": "+1-212-608-0171", "website": "https://www.mortons.com/location/mortons-the-steakhouse-new-york-ny-world-trade-center/"}}, {"type": "node", "id": 2706005872, "lat": 40.7094546, "lon": -74.014076, "tags": {"addr:city": "New York", "addr:housenumber": "85", "addr:postcode": "10006", "addr:state": "NY", "addr:street": "West Street", "amenity": "restaurant", "check_date": "2023-02-23", "cuisine": "burger", "internet_access": "wlan", "internet_access:fee": "no", "name": "Bill's Bar and Burger", "opening_hours": "12:00-20:00", "phone": "+1-212-894-3800", "website": "https://www.billsbarandburger.com/location/bills-bar-and-burger-downtown-nyc/"}}, {"type": "node", "id": 2706009357, "lat": 40.709192, "lon": -74.0138424, "tags": {"addr:city": "New York", "addr:housenumber": "123", "addr:street": "Washington Street", "amenity": "restaurant", "check_date": "2023-02-23", "name": "Skinos"}}, {"type": "node", "id": 2808066365, "lat": 40.7129439, "lon": -74.0082063}, {"type": "node", "id": 2808066366, "lat": 40.7129822, "lon": -74.0081761}, {"type": "node", "id": 2808066371, "lat": 40.7130313, "lon": -74.0081374}, {"type": "node", "id": 2808066376, "lat": 40.7130857, "lon": -74.0080946}, {"type": "node", "id": 2808066385, "lat": 40.7132016, "lon": -74.0077548}, {"type": "node", "id": 2821289715, "lat": 40.7129231, "lon": -74.0071139, "tags": {"barrier": "gate"}}, {"type": "node", "id": 2823452295, "lat": 40.7117623, "lon": -74.0091837}, {"type": "node", "id": 2823452297, "lat": 40.7118727, "lon": -74.0094127}, {"type": "node", "id": 2823452401, "lat": 40.7119937, "lon": -74.0089911}, {"type": "node", "id": 2823452403, "lat": 40.7120003, "lon": -74.0090057}, {"type": "node", "id": 2823452409, "lat": 40.7120645, "lon": -74.0092531}, {"type": "node", "id": 2823452411, "lat": 40.7121042, "lon": -74.0092201}, {"type": "node", "id": 2824641540, "lat": 40.7088461, "lon": -74.012467}, {"type": "node", "id": 2824641541, "lat": 40.7088562, "lon": -74.0124081}, {"type": "node", "id": 2824641543, "lat": 40.708872, "lon": -74.0124479}, {"type": "node", "id": 2824641547, "lat": 40.7089288, "lon": -74.0126577}, {"type": "node", "id": 2824641551, "lat": 40.7089987, "lon": -74.0123068}, {"type": "node", "id": 2824641552, "lat": 40.7090116, "lon": -74.0123365}, {"type": "node", "id": 2824641554, "lat": 40.7090388, "lon": -74.0123161}, {"type": "node", "id": 2824641555, "lat": 40.7090518, "lon": -74.0125562}, {"type": "node", "id": 2824641556, "lat": 40.7090549, "lon": -74.0125633}, {"type": "node", "id": 2824641561, "lat": 40.7090784, "lon": -74.0122745}, {"type": "node", "id": 2824641564, "lat": 40.7090881, "lon": -74.0125189}, {"type": "node", "id": 2824641565, "lat": 40.7090914, "lon": -74.0125265}, {"type": "node", "id": 2824641569, "lat": 40.7091173, "lon": -74.012497}, {"type": "node", "id": 2824641576, "lat": 40.7091894, "lon": -74.0125281}, {"type": "node", "id": 2824641585, "lat": 40.7093112, "lon": -74.0124361}, {"type": "node", "id": 2824641586, "lat": 40.7093236, "lon": -74.0120892}, {"type": "node", "id": 2824641590, "lat": 40.7093741, "lon": -74.0125799}, {"type": "node", "id": 2824641596, "lat": 40.7093869, "lon": -74.0125703}, {"type": "node", "id": 2824641604, "lat": 40.7094975, "lon": -74.0124867}, {"type": "node", "id": 2824696370, "lat": 40.7112884, "lon": -74.0102748, "tags": {"addr:housenumber": "41", "addr:postcode": "10007", "addr:street": "Church Street", "amenity": "cafe", "name": "\u00c9picerie Boulud", "name:en": "\u00c9picerie Boulud"}}, {"type": "node", "id": 2824697561, "lat": 40.7089682, "lon": -74.0081766}, {"type": "node", "id": 2824697572, "lat": 40.7090436, "lon": -74.0082939}, {"type": "node", "id": 2824697586, "lat": 40.7090885, "lon": -74.0083437}, {"type": "node", "id": 2824697587, "lat": 40.7090941, "lon": -74.00795}, {"type": "node", "id": 2824697588, "lat": 40.7091329, "lon": -74.0080059}, {"type": "node", "id": 2824697701, "lat": 40.7092123, "lon": -74.0081188}, {"type": "node", "id": 2824697702, "lat": 40.7092472, "lon": -74.0081831}, {"type": "node", "id": 2825064871, "lat": 40.7092434, "lon": -74.0078826, "tags": {"addr:city": "New York", "addr:housenumber": "45", "addr:postcode": "10038", "addr:state": "NY", "addr:street": "John Street", "air_conditioning": "yes", "amenity": "cafe", "bar": "no", "branch": "Financial District", "cuisine": "coffee;sandwich;pastry", "delivery": "yes", "diet:gluten_free": "yes", "drive_through": "no", "email": "info@suitednyc.com", "indoor_seating": "yes", "level": "0", "name": "Suited", "opening_hours": "Mo-Fr 07:30-18:00; Sa-Su 08:30-17:00", "outdoor_seating": "yes", "payment:apple_pay": "yes", "payment:cash": "yes", "payment:credit_cards": "yes", "payment:debit_cards": "yes", "reservation": "no", "smoking": "no", "takeaway": "yes", "toilets": "yes", "website": "https://www.suitednyc.com"}}, {"type": "node", "id": 2897265318, "lat": 40.709679, "lon": -74.0083821, "tags": {"addr:housenumber": "71", "addr:postcode": "10038", "addr:street": "Nassau Street", "amenity": "cafe", "cuisine": "sandwich", "delivery": "yes", "indoor_seating": "yes", "name": "d Elici", "opening_hours": "Mo-Fr 07:00-16:00; Sa 07:30-16:00", "outdoor_seating": "no", "phone": "+1 212-587-5740", "takeaway": "yes", "website": "http://delicinyc.com", "wheelchair": "yes"}}, {"type": "node", "id": 2897270433, "lat": 40.7102382, "lon": -74.0106426, "tags": {"addr:housenumber": "22", "addr:street": "Cortlandt Street", "amenity": "cafe", "brand": "The Coffee Bean & Tea Leaf", "brand:wikidata": "Q1141384", "cuisine": "coffee_shop", "name": "The Coffee Bean & Tea Leaf", "takeaway": "yes"}}, {"type": "node", "id": 2897876736, "lat": 40.70932, "lon": -74.008734, "tags": {"addr:city": "New York", "addr:housenumber": "59", "addr:postcode": "10038", "addr:state": "NY", "addr:street": "Nassau Street", "amenity": "restaurant", "cuisine": "sushi;ramen", "name": "Otani", "name:en": "Otani", "name:ja": "\u5927\u8c37", "opening_hours": "Mo-Th 11:00-22:00;Fr-Sa 11:00-10:30;Su 12:00-22:00", "phone": "+1-212-732-9250", "wheelchair": "no"}}, {"type": "node", "id": 2897876738, "lat": 40.7099489, "lon": -74.0100671, "tags": {"addr:housenumber": "173", "addr:street": "Broadway", "air_conditioning": "yes", "amenity": "restaurant", "check_date": "2024-06-27", "cuisine": "japanese", "delivery": "yes", "name": "Bento Sushi", "opening_hours": "Mo-Fr 10:30-19:00; Sa 11:00-18:00; Su off", "outdoor_seating": "no", "payment:cash": "yes", "payment:credit_cards": "yes", "smoking": "no", "takeaway": "yes", "wheelchair": "yes"}}, {"type": "node", "id": 3637093539, "lat": 40.7120307, "lon": -74.0097553, "tags": {"addr:city": "New York", "addr:housenumber": "26", "addr:street": "Vesey Street", "amenity": "restaurant", "atm": "yes", "cuisine": "pizza", "indoor_seating": "yes", "internet_access": "wlan", "name": "Stage Door Deli", "outdoor_seating": "no", "phone": "+1-212-791-5252", "wheelchair": "yes"}}, {"type": "node", "id": 3737959221, "lat": 40.7084159, "lon": -74.0142036, "tags": {"addr:city": "New York", "addr:housenumber": "103", "addr:postcode": "10006", "addr:street": "Washington Street", "amenity": "restaurant", "name": "St. George Tavern", "opening_hours": "Su-Th 06:30-18:00; Fr-Sa 06:30-02:00", "phone": "+12122409868", "wheelchair": "limited"}}, {"type": "node", "id": 3748367336, "lat": 40.7091507, "lon": -74.008281}, {"type": "node", "id": 3762209179, "lat": 40.7092057, "lon": -74.0125158}, {"type": "node", "id": 3762209180, "lat": 40.7092512, "lon": -74.0124814}, {"type": "node", "id": 3762209186, "lat": 40.7094335, "lon": -74.0123404}, {"type": "node", "id": 3772831306, "lat": 40.708905, "lon": -74.0126029}, {"type": "node", "id": 3809526483, "lat": 40.711811, "lon": -74.0091432}, {"type": "node", "id": 3809526488, "lat": 40.711924, "lon": -74.0090492}, {"type": "node", "id": 3938479922, "lat": 40.712179, "lon": -74.008181, "tags": {"amenity": "cafe", "brand": "Starbucks", "brand:wikidata": "Q37158", "check_date": "2019-11-02", "cuisine": "coffee_shop", "name": "Starbucks", "official_name": "Starbucks Coffee", "takeaway": "yes", "wheelchair": "yes"}}, {"type": "node", "id": 3942249545, "lat": 40.7122331, "lon": -74.0057398, "tags": {"barrier": "gate"}}, {"type": "node", "id": 4140525190, "lat": 40.7097774, "lon": -74.0089148, "tags": {"addr:housenumber": "20", "addr:street": "John Street", "air_conditioning": "yes", "amenity": "restaurant", "bar": "no", "capacity": "16", "cuisine": "thai", "delivery": "yes", "highchair": "no", "indoor_seating": "yes", "microbrewery": "no", "name": "Aroy Dee Thai Kitchen", "opening_hours": "Mo-Su 11:00-21:15", "outdoor_seating": "no", "phone": "+1-212-528-9922", "smoking": "no", "takeaway": "yes", "toilets": "no", "website": "http://www.aroydeethaikitchen.com", "wheelchair": "no"}}, {"type": "node", "id": 4143863428, "lat": 40.7118045, "lon": -74.007671}, {"type": "node", "id": 4143863429, "lat": 40.7120511, "lon": -74.0078112}, {"type": "node", "id": 4143863430, "lat": 40.7119484, "lon": -74.0078125}, {"type": "node", "id": 4143863431, "lat": 40.7118406, "lon": -74.0077409}, {"type": "node", "id": 4143863432, "lat": 40.7118613, "lon": -74.0077619}, {"type": "node", "id": 4143863434, "lat": 40.7138147, "lon": -74.0057529}, {"type": "node", "id": 4143863435, "lat": 40.7118008, "lon": -74.0074803}, {"type": "node", "id": 4143863437, "lat": 40.713796, "lon": -74.005798}, {"type": "node", "id": 4143863438, "lat": 40.7119881, "lon": -74.0078218}, {"type": "node", "id": 4143863439, "lat": 40.711791, "lon": -74.0075887}, {"type": "node", "id": 4143863440, "lat": 40.7121662, "lon": -74.0077516}, {"type": "node", "id": 4143863442, "lat": 40.7119057, "lon": -74.0077911}, {"type": "node", "id": 4143863443, "lat": 40.7117902, "lon": -74.0075444}, {"type": "node", "id": 4143863444, "lat": 40.7133929, "lon": -74.0049077}, {"type": "node", "id": 4143863445, "lat": 40.7134559, "lon": -74.0049641}, {"type": "node", "id": 4143863446, "lat": 40.7139746, "lon": -74.0061814}, {"type": "node", "id": 4143863447, "lat": 40.712109, "lon": -74.0077897}, {"type": "node", "id": 4143863448, "lat": 40.7131395, "lon": -74.0043588}, {"type": "node", "id": 4143863449, "lat": 40.7123209, "lon": -74.0053793}, {"type": "node", "id": 4324282097, "lat": 40.7090297, "lon": -74.0114731, "tags": {"addr:housenumber": "115", "addr:postcode": "10006", "addr:state": "NY", "addr:street": "Broadway", "amenity": "pub", "name": "Trinity Place Bar and Restaurant", "opening_hours": "Mo-Fr 11:30-01:00"}}, {"type": "node", "id": 4402057799, "lat": 40.7121142, "lon": -74.0098166, "tags": {"addr:city": "New York", "addr:housenumber": "30", "addr:postcode": "10007", "addr:state": "NY", "addr:street": "Vesey Street", "contact:phone": "+1 212-267-2500", "contact:website": "http://www.braschlegal.com/", "name": "Braschlegal", "office": "lawyer"}}, {"type": "node", "id": 4680481185, "lat": 40.7081387, "lon": -74.010378, "tags": {"addr:city": "New York", "addr:floor": "31", "addr:housenumber": "120", "addr:postcode": "10271", "addr:state": "NY", "addr:street": "Broadway", "addr:unit": "31st Floor", "air_conditioning": "yes", "fax": "+1-212-720-3488", "government": "yes", "name": "New York City Department of City Planning", "office": "government", "operator": "City of New York", "operator:type": "government", "operator:wikidata": "Q3112559", "operator:wikipedia": "en:City of New York", "phone": "+1-212-720-3300", "website": "https://www1.nyc.gov/site/planning/index.page", "wikidata": "Q8354830", "wikipedia": "en:New York City Department of City Planning"}}, {"type": "node", "id": 4860132622, "lat": 40.7080709, "lon": -74.0137437, "tags": {"addr:housenumber": "94", "addr:postcode": "10006", "addr:street": "Greenwich Street", "amenity": "cafe", "check_date": "2023-02-23", "indoor_seating": "yes", "name": "Siena Bakehouse", "outdoor_seating": "no"}}, {"type": "node", "id": 4860141023, "lat": 40.7080225, "lon": -74.0143548, "tags": {"addr:postcode": "10006", "amenity": "restaurant", "name": "Sauce & Barrel", "opening_hours": "Mo-Fr 11:30-23:00; Sa 12:00-01:00", "phone": "+12124806800", "website": "https://www.sauceandbarrel.com/"}}, {"type": "node", "id": 4878838751, "lat": 40.7118822, "lon": -74.0077781}, {"type": "node", "id": 4900466360, "lat": 40.7125347, "lon": -74.0049248}, {"type": "node", "id": 4900466407, "lat": 40.7126132, "lon": -74.0048205}, {"type": "node", "id": 5047505367, "lat": 40.7104854, "lon": -74.0143552}, {"type": "node", "id": 5101542622, "lat": 40.7081578, "lon": -74.0139728, "tags": {"addr:housenumber": "16", "addr:postcode": "10006", "addr:street": "Rector Street", "amenity": "cafe"}}, {"type": "node", "id": 5126272537, "lat": 40.7130523, "lon": -74.0096369, "tags": {"addr:postcode": "10007", "amenity": "cafe", "brand": "Aroma Espresso Bar", "brand:wikidata": "Q2909872", "cuisine": "coffee_shop", "name": "Aroma Espresso Bar", "name:en": "Aroma Espresso Bar", "takeaway": "yes"}}, {"type": "node", "id": 5244657822, "lat": 40.7095698, "lon": -74.012718, "tags": {"amenity": "restaurant", "branch": "Financial District", "catering": "yes", "cuisine": "indian", "delivery": "yes", "diet:halal": "yes", "diet:vegetarian": "yes", "indoor_seating": "yes", "name": "Mughlai Indian Cuisine", "opening_hours": "Mo-Th 11:00-14:45, 17:00-21:45; Fr 11:00-14:45, 17:00-22:15; Sa 11:00-22:15; Su 11:00-21:45", "outdoor_seating": "no", "payment:cash": "yes", "payment:credit_cards": "yes", "phone": "+1-646-869-0300", "reservation": "yes", "smoking": "no", "takeaway": "yes", "toilets": "yes", "website": "https://mughlaicuisineny.com/"}}, {"type": "node", "id": 5383989328, "lat": 40.7091871, "lon": -74.0088819, "tags": {"addr:housenumber": "59", "addr:postcode": "10038", "addr:street": "Nassau Street", "air_conditioning": "no", "amenity": "restaurant", "bar": "no", "check_date": "2024-06-27", "cuisine": "italian", "delivery": "yes", "dish": "pizza", "highchair": "yes", "name": "Friendly Gourmet Pizza", "opening_hours": "Mo-Fr 06:30-18:00", "outdoor_seating": "yes", "payment:cash": "yes", "payment:credit_cards": "yes", "phone": "+1 212-791-1800", "takeaway": "yes", "website": "https://www.friendlypizzeria.com", "wheelchair": "yes"}}, {"type": "node", "id": 5383989329, "lat": 40.7110282, "lon": -74.0095711, "tags": {"addr:housenumber": "160", "addr:street": "Fulton Street", "amenity": "restaurant", "name": "Nobu Nobu"}}, {"type": "node", "id": 5383989510, "lat": 40.7102149, "lon": -74.0075111, "tags": {"addr:housenumber": "129", "addr:street": "Fulton Street", "name": "Coalition for the Homeless", "office": "ngo"}}, {"type": "node", "id": 5400495618, "lat": 40.7127376, "lon": -74.0085794, "tags": {"addr:housenumber": "22", "addr:street": "Park Place", "addr:zip": "10007", "amenity": "restaurant", "cuisine": "breakfast", "name": "B & Co", "seats": "yes", "toilets": "yes"}}, {"type": "node", "id": 5401978050, "lat": 40.7098472, "lon": -74.0080033, "tags": {"amenity": "restaurant", "check_date": "2023-10-12", "cuisine": "thai", "happy_hours": "Mo-Su 16:00-19:00", "name": "Imm"}}, {"type": "node", "id": 5520380022, "lat": 40.7133082, "lon": -74.0080416, "tags": {"addr:housenumber": "10", "addr:street": "Murray Street", "amenity": "restaurant", "cuisine": "indian", "name": "Aahar"}}, {"type": "node", "id": 5561000664, "lat": 40.7086517, "lon": -74.010158, "tags": {"addr:city": "New York", "addr:housenumber": "140", "addr:postcode": "10004", "addr:state": "NY", "addr:street": "Broadway", "addr:unit": "Suite 46", "contact:facebook": "https://www.facebook.com/LevoritzLawGroup/", "name": "The Levoritz Law Firm", "office": "lawyer", "phone": "+1-929-207-6637", "website": "https://levoritzlaw.com/"}}, {"type": "node", "id": 5725918582, "lat": 40.7106548, "lon": -74.0121277, "tags": {"addr:city": "New York", "addr:housenumber": "150", "addr:postcode": "10007", "addr:state": "NY", "addr:street": "Greenwich Street", "amenity": "cafe", "branch": "World Trade Center", "brand": "Blue Bottle Coffee", "brand:en": "Blue Bottle Coffee", "brand:ja": "\u30d6\u30eb\u30fc\u30dc\u30c8\u30eb\u30b3\u30fc\u30d2\u30fc", "brand:wikidata": "Q4928917", "check_date": "2025-08-08", "cuisine": "coffee_shop", "name": "Blue Bottle Coffee", "name:en": "Blue Bottle Coffee", "name:ja": "\u30d6\u30eb\u30fc\u30dc\u30c8\u30eb\u30b3\u30fc\u30d2\u30fc", "opening_hours": "Mo-Fr 07:00-19:00; Sa, Su 08:00-19:00; Nov Th[4] off; Dec 25 off", "takeaway": "yes", "website": "https://bluebottlecoffee.com/cafes/world-trade-center", "wheelchair": "yes"}}, {"type": "node", "id": 5799510957, "lat": 40.7109248, "lon": -74.0078117, "tags": {"addr:city": "New York", "addr:housenumber": "17", "addr:postcode": "10038", "addr:street": "Ann Street", "amenity": "restaurant", "cuisine": "italian", "indoor_seating": "yes", "name": "Sandwich House", "outdoor_seating": "no", "phone": "+1-212-566-6886", "wheelchair": "yes"}}, {"type": "node", "id": 5799511379, "lat": 40.7109559, "lon": -74.0078671, "tags": {"addr:city": "New York", "addr:housenumber": "15", "addr:postcode": "10038", "addr:street": "Ann Street", "amenity": "restaurant", "name": "Omar's Mediterranean Cuisine"}}, {"type": "node", "id": 5837162675, "lat": 40.7133225, "lon": -74.0111559, "tags": {"barrier": "kerb", "kerb": "lowered", "tactile_paving": "no", "wheelchair": "yes"}}, {"type": "node", "id": 5837162676, "lat": 40.712863, "lon": -74.0116744}, {"type": "node", "id": 5837162677, "lat": 40.7133618, "lon": -74.0111818}, {"type": "node", "id": 5837162678, "lat": 40.7135091, "lon": -74.011509}, {"type": "node", "id": 5837162679, "lat": 40.7128884, "lon": -74.0117338}, {"type": "node", "id": 5837162680, "lat": 40.7134934, "lon": -74.0115828}, {"type": "node", "id": 5978557997, "lat": 40.7095297, "lon": -74.0119738, "tags": {"addr:housenumber": "110", "addr:street": "Trinity Place", "amenity": "cafe", "name": "Lazzaro", "wheelchair": "yes"}}, {"type": "node", "id": 5978557998, "lat": 40.7094109, "lon": -74.0120305, "tags": {"addr:housenumber": "110", "addr:street": "Trinity Place", "amenity": "cafe", "check_date": "2025-07-15", "cuisine": "pizza", "indoor_seating": "yes", "name": "Hank\u2019s Pizza", "outdoor_seating": "yes", "payment:cash": "yes", "payment:credit_cards": "yes", "payment:debit_cards": "yes", "phone": "+12127964499", "wheelchair": "yes"}}, {"type": "node", "id": 5978558886, "lat": 40.7082492, "lon": -74.0101892, "tags": {"amenity": "cafe", "name": "Manon Cafe"}}, {"type": "node", "id": 5978745697, "lat": 40.7093537, "lon": -74.008, "tags": {"amenity": "restaurant", "cuisine": "mediterranean", "indoor_seating": "yes", "name": "Nish Nush", "outdoor_seating": "yes"}}, {"type": "node", "id": 5978795186, "lat": 40.7108219, "lon": -74.0076301, "tags": {"addr:city": "New York", "addr:housenumber": "21", "addr:street": "Ann Street", "amenity": "restaurant", "bar": "yes", "catering": "yes", "cuisine": "italian", "diet:gluten_free": "yes", "diet:vegan": "yes", "diet:vegetarian": "yes", "drink:beer": "yes", "drink:wine": "yes", "indoor_seating": "yes", "name": "Da Claudio", "opening_hours": "Mo-Th 11:30-15:00, 17:00-22:00; Fr-Sa 17:00-23:00; Su 17:00-22:00", "outdoor_seating": "yes", "takeaway": "yes", "website": "https://www.daclaudionyc.com/", "wheelchair": "yes"}}, {"type": "node", "id": 5980089186, "lat": 40.709609, "lon": -74.0093344, "tags": {"addr:city": "New York", "addr:housenumber": "9", "addr:postcode": "10038", "addr:state": "NY", "addr:street": "Maiden Lane", "air_conditioning": "yes", "amenity": "restaurant", "check_date": "2024-06-27", "cuisine": "coffee_shop;cafe;sandwich", "description": "Has at least 1 wall outlet to charge phone", "drive_through": "no", "highchair": "no", "indoor_seating": "yes", "internet_access": "yes", "internet_access:fee": "no", "name": "La Parisienne", "opening_hours": "Mo-Fr 07:30-19:30; Sa-Su 08:00-17:00", "outdoor_seating": "yes", "payment:cash": "yes", "payment:credit_cards": "yes", "reservation": "yes", "smoking": "no", "takeaway": "yes", "wheelchair": "yes"}}, {"type": "node", "id": 6179821278, "lat": 40.7099202, "lon": -74.0091218, "tags": {"addr:housenumber": "12", "addr:postcode": "10038", "addr:street": "John Street", "amenity": "cafe", "brand": "CoCo", "brand:wikidata": "Q65084369", "cuisine": "bubble_tea", "indoor_seating": "yes", "name": "CoCo Fresh Tea & Juice", "opening_hours": "Mo-Fr 10:00-22:00; Sa, Su 10:00-21:00", "outdoor_seating": "no", "phone": "+1-212-349-1800", "seats": "8", "short_name": "CoCo", "takeaway": "yes", "website": "http://en.coco-tea.com/store-locator/store/359", "wheelchair": "yes"}}, {"type": "node", "id": 6264476981, "lat": 40.7105042, "lon": -74.0091441, "tags": {"addr:housenumber": "200", "addr:postcode": "10038", "addr:street": "Fulton Street", "air_conditioning": "yes", "amenity": "cafe", "branch": "Fulton Center", "brand": "Gong Cha", "brand:wikidata": "Q5581670", "brand:zh": "\u8ca2\u8336", "cuisine": "bubble_tea", "int_name": "Gong Cha", "level": "0", "name": "Gong Cha", "name:zh": "\u8ca2\u8336", "opening_hours": "10:30-21:30", "takeaway": "yes", "toilets:wheelchair": "no", "website": "http://www.gongchausa.com/NY-Fulton-Center/", "wheelchair": "yes"}}, {"type": "node", "id": 6268489254, "lat": 40.7082737, "lon": -74.010834, "tags": {"addr:city": "New York", "addr:housenumber": "120", "addr:postcode": "10271", "addr:state": "NY", "addr:street": "Broadway", "addr:unit": "6th Fl.", "air_conditioning": "yes", "name": "Handel Architects", "office": "architect", "opening_hours": "Mo-Fr 09:00-18:00", "website": "https://handelarchitects.com"}}, {"type": "node", "id": 6408432085, "lat": 40.7119425, "lon": -74.0085786, "tags": {"addr:city": "New York", "addr:housenumber": "225", "addr:postcode": "10007", "addr:state": "NY", "addr:street": "Broadway", "addr:unit": "37th Floor", "name": "Law Offices of Bruce D Katz & Associates", "office": "lawyer", "opening_hours": "Mo-Fr 09:00-17:00", "phone": "+1-212-233-3434", "website": "https://brucedkatzlaw.com/"}}, {"type": "node", "id": 6417640366, "lat": 40.7101282, "lon": -74.0136388}, {"type": "node", "id": 6419225446, "lat": 40.7101821, "lon": -74.0137046}, {"type": "node", "id": 6419487813, "lat": 40.7100613, "lon": -74.0135855}, {"type": "node", "id": 6419487814, "lat": 40.7102987, "lon": -74.0139633}, {"type": "node", "id": 6419520969, "lat": 40.7098358, "lon": -74.0132328}, {"type": "node", "id": 6566728787, "lat": 40.7098464, "lon": -74.0090195, "tags": {"amenity": "restaurant", "indoor_seating": "yes", "name": "Go! Go! Curry", "outdoor_seating": "no"}}, {"type": "node", "id": 6566940485, "lat": 40.7091007, "lon": -74.0091471, "tags": {"amenity": "restaurant", "check_date:opening_hours": "2023-08-16", "indoor_seating": "yes", "name": "Kati Roll Company", "opening_hours:signed": "no", "outdoor_seating": "yes"}}, {"type": "node", "id": 6762730394, "lat": 40.7131141, "lon": -74.0043484}, {"type": "node", "id": 6762730395, "lat": 40.7131222, "lon": -74.0043472}, {"type": "node", "id": 7281331968, "lat": 40.7124569, "lon": -74.0050536}, {"type": "node", "id": 7373386553, "lat": 40.7129115, "lon": -74.0045395}, {"type": "node", "id": 7373386555, "lat": 40.7126796, "lon": -74.0047422}, {"type": "node", "id": 8262309110, "lat": 40.7124104, "lon": -74.0075447}, {"type": "node", "id": 8262309111, "lat": 40.7124808, "lon": -74.007483}, {"type": "node", "id": 8262309115, "lat": 40.7119101, "lon": -74.007036}, {"type": "node", "id": 8262309116, "lat": 40.7118227, "lon": -74.007718}, {"type": "node", "id": 8262309153, "lat": 40.7124347, "lon": -74.0075236}, {"type": "node", "id": 8262309166, "lat": 40.7124599, "lon": -74.0075012}, {"type": "node", "id": 8262309182, "lat": 40.7119177, "lon": -74.007002}, {"type": "node", "id": 8262309190, "lat": 40.7119551, "lon": -74.0068531}, {"type": "node", "id": 8262309192, "lat": 40.7128475, "lon": -74.0071796}, {"type": "node", "id": 8262309208, "lat": 40.712221, "lon": -74.0057864}, {"type": "node", "id": 8262309245, "lat": 40.7129453, "lon": -74.0045109}, {"type": "node", "id": 8262309324, "lat": 40.7131947, "lon": -74.0044829}, {"type": "node", "id": 8262936430, "lat": 40.7135085, "lon": -74.0115632, "tags": {"barrier": "kerb", "kerb": "lowered", "tactile_paving": "no", "wheelchair": "yes"}}, {"type": "node", "id": 8262936459, "lat": 40.7129067, "lon": -74.0117298, "tags": {"barrier": "kerb", "kerb": "lowered", "tactile_paving": "yes", "wheelchair": "yes"}}, {"type": "node", "id": 8262936477, "lat": 40.7133481, "lon": -74.0111606, "tags": {"barrier": "kerb", "kerb": "lowered", "tactile_paving": "no", "wheelchair": "yes"}}, {"type": "node", "id": 8262936482, "lat": 40.7128716, "lon": -74.0116639, "tags": {"barrier": "kerb", "kerb": "lowered", "tactile_paving": "yes", "wheelchair": "yes"}}, {"type": "node", "id": 8262936617, "lat": 40.7095801, "lon": -74.0116553, "tags": {"barrier": "kerb", "kerb": "lowered", "tactile_paving": "yes", "wheelchair": "yes"}}, {"type": "node", "id": 8262936618, "lat": 40.7093169, "lon": -74.0118366, "tags": {"barrier": "kerb", "kerb": "lowered", "tactile_paving": "yes", "wheelchair": "yes"}}, {"type": "node", "id": 8333736461, "lat": 40.7130755, "lon": -74.0083507, "tags": {"amenity": "restaurant", "name": "Little Italy Pizza"}}, {"type": "node", "id": 8333736462, "lat": 40.7126108, "lon": -74.008134, "tags": {"amenity": "bar", "name": "Five & Dime"}}, {"type": "node", "id": 8791888441, "lat": 40.7124137, "lon": -74.0104582, "tags": {"addr:housenumber": "90", "addr:postcode": "10008", "addr:street": "Church Street", "name": "Ester Digital", "office": "it", "opening_hours": "Mo-Fr 10:00-18:00", "website": "https://ester.co"}}, {"type": "node", "id": 8806749196, "lat": 40.7098346, "lon": -74.0091022, "tags": {"addr:city": "New York", "addr:housenumber": "12", "addr:postcode": "10038", "addr:street": "John Street", "contact:website": "https://cleaningexec.com/", "email": "support@cleaningexec.com", "name": "Cleaning Exec Cleaning Services", "office": "company", "phone": "+1-212-457-8699"}}, {"type": "node", "id": 8832734925, "lat": 40.7092166, "lon": -74.0141592, "tags": {"addr:city": "New York", "addr:housenumber": "15", "addr:postcode": "10006", "addr:state": "NY", "addr:street": "Carlisle Street", "amenity": "cafe", "branch": "Carlisle and Washington", "brand": "Starbucks", "brand:wikidata": "Q37158", "check_date": "2023-02-23", "cuisine": "coffee_shop", "name": "Starbucks", "official_name": "Starbucks Coffee", "phone": "+1 646-860-8615", "ref": "1017449", "takeaway": "yes", "website": "https://www.starbucks.com/store-locator/store/1017449/carlisle-and-washington-15-carlisle-st-new-york-ny-100061516-us"}}, {"type": "node", "id": 8861668918, "lat": 40.7132893, "lon": -74.0096484, "tags": {"amenity": "cafe", "name": "Salad Box"}}, {"type": "node", "id": 9120821898, "lat": 40.7088439, "lon": -74.0113831, "tags": {"addr:city": "New York", "addr:housenumber": "9", "addr:postcode": "10006", "addr:state": "NY", "addr:street": "Thames Street", "amenity": "restaurant", "cuisine": "pizza", "name": "Big Al's Chicago Style Pizza"}}, {"type": "node", "id": 9149294696, "lat": 40.7095464, "lon": -74.0092712, "tags": {"air_conditioning": "yes", "amenity": "restaurant", "bar": "yes", "check_date": "2024-06-27", "cuisine": "american", "indoor_seating": "yes", "name": "The Malt House", "outdoor_seating": "yes", "payment:cash": "yes", "payment:credit_cards": "yes", "reservation": "yes", "takeaway": "yes", "wheelchair": "yes"}}, {"type": "node", "id": 9286572691, "lat": 40.7095655, "lon": -74.0082984, "tags": {"addr:city": "New York", "addr:housenumber": "72", "addr:postcode": "10038", "addr:state": "NY", "addr:street": "Nassau Street", "amenity": "restaurant", "cuisine": "pizza", "indoor_seating": "no", "name": "2 Bros Pizza", "opening_hours": "Mo-We 10:30-01:00; Th-Sa 10:30-03:00; Su 10:30-19:30", "outdoor_seating": "no", "phone": "+1 917-699-7689", "takeaway": "only", "website": "https://www.twobrospizzaofnewyork.com/"}}, {"type": "node", "id": 9364517394, "lat": 40.7122452, "lon": -74.0056891}, {"type": "node", "id": 9368526986, "lat": 40.7119267, "lon": -74.0069662}, {"type": "node", "id": 9368527001, "lat": 40.7119445, "lon": -74.0068939}, {"type": "node", "id": 9368527037, "lat": 40.7117945, "lon": -74.0076313}, {"type": "node", "id": 9368527038, "lat": 40.7117944, "lon": -74.0075129}, {"type": "node", "id": 9368527040, "lat": 40.7121033, "lon": -74.0062575}, {"type": "node", "id": 9368527053, "lat": 40.7119643, "lon": -74.0068158}, {"type": "node", "id": 9368527055, "lat": 40.7121141, "lon": -74.0062171, "tags": {"barrier": "gate"}}, {"type": "node", "id": 9368527057, "lat": 40.7121994, "lon": -74.0058719}, {"type": "node", "id": 9368527059, "lat": 40.712124, "lon": -74.0061762}, {"type": "node", "id": 9368527060, "lat": 40.7127499, "lon": -74.0072578}, {"type": "node", "id": 9368527070, "lat": 40.7130583, "lon": -74.0069967}, {"type": "node", "id": 9368527105, "lat": 40.7131324, "lon": -74.0043508}, {"type": "node", "id": 9368823877, "lat": 40.7132573, "lon": -74.0046171}, {"type": "node", "id": 9368823879, "lat": 40.71342, "lon": -74.0049667}, {"type": "node", "id": 9368823880, "lat": 40.7134487, "lon": -74.0049567}, {"type": "node", "id": 9368823881, "lat": 40.7134337, "lon": -74.0049569}, {"type": "node", "id": 9368823882, "lat": 40.7134076, "lon": -74.0049401, "tags": {"barrier": "gate"}}, {"type": "node", "id": 9368823989, "lat": 40.7135227, "lon": -74.0066014}, {"type": "node", "id": 9368824069, "lat": 40.712296, "lon": -74.0054812}, {"type": "node", "id": 9368824118, "lat": 40.7131464, "lon": -74.0069218}, {"type": "node", "id": 9368824154, "lat": 40.7134486, "lon": -74.0066645}, {"type": "node", "id": 9369042307, "lat": 40.7128882, "lon": -74.0071442}, {"type": "node", "id": 9369042334, "lat": 40.7138097, "lon": -74.0057849}, {"type": "node", "id": 9369042335, "lat": 40.7138164, "lon": -74.005775}, {"type": "node", "id": 9369042336, "lat": 40.7138176, "lon": -74.005763}, {"type": "node", "id": 9369042338, "lat": 40.7138073, "lon": -74.0058232, "tags": {"barrier": "gate"}}, {"type": "node", "id": 9373577231, "lat": 40.7139677, "lon": -74.0062324}, {"type": "node", "id": 9373577232, "lat": 40.7139746, "lon": -74.0062227}, {"type": "node", "id": 9373577233, "lat": 40.7139781, "lon": -74.0061995}, {"type": "node", "id": 9373577234, "lat": 40.7139779, "lon": -74.0062111}, {"type": "node", "id": 9373577265, "lat": 40.7135712, "lon": -74.0065608}, {"type": "node", "id": 9373577271, "lat": 40.713819, "lon": -74.0058483}, {"type": "node", "id": 9373577272, "lat": 40.7137217, "lon": -74.0055484}, {"type": "node", "id": 9373577282, "lat": 40.7135481, "lon": -74.0051669}, {"type": "node", "id": 9373577320, "lat": 40.7134412, "lon": -74.0049547}, {"type": "node", "id": 9374424913, "lat": 40.7129565, "lon": -74.007085}, {"type": "node", "id": 9711419117, "lat": 40.709544, "lon": -74.0085841, "tags": {"amenity": "cafe", "name": "Healthy Green Juice Bar"}}, {"type": "node", "id": 9733053717, "lat": 40.709698, "lon": -74.009548, "tags": {"addr:housenumber": "3", "addr:street": "Maiden Lane", "air_conditioning": "yes", "amenity": "restaurant", "check_date": "2024-06-27", "cuisine": "vietnamese;rice_noodle", "delivery": "yes", "highchair": "no", "indoor_seating": "yes", "name": "Pho Maiden Lane", "opening_hours": "Mo-Sa 10:00-20:00; Su 10:00-18:00", "outdoor_seating": "no", "payment:cash": "yes", "payment:credit_cards": "yes", "phone": "+1 646-449-0247", "rice_noodle": "pho", "smoking": "no", "takeaway": "yes", "toilets": "no", "wheelchair": "yes"}}, {"type": "node", "id": 9771083990, "lat": 40.7084333, "lon": -74.0135562, "tags": {"addr:housenumber": "104", "addr:street": "Greenwich Street", "amenity": "restaurant", "check_date": "2023-02-23", "cuisine": "diner", "delivery": "yes", "indoor_seating": "yes", "name": "ZAZA", "opening_hours": "07:00-22:00", "outdoor_seating": "no", "phone": "+1 646-864-0040", "takeaway": "yes", "toilets:wheelchair": "yes", "wheelchair": "yes"}}, {"type": "node", "id": 10281405382, "lat": 40.7117738, "lon": -74.0116689, "tags": {"air_conditioning": "yes", "amenity": "cafe", "check_date": "2024-05-14", "indoor_seating": "yes", "level": "-2", "name": "\u00c9picerie Boulud", "opening_hours": "Mo-Fr 07:00-20:00; Sa,Su 08:00-20:00", "outdoor_seating": "no", "phone": "+2125959605", "smoking": "no", "wheelchair": "yes"}}, {"type": "node", "id": 10282960416, "lat": 40.7133013, "lon": -74.0111694}, {"type": "node", "id": 10282960417, "lat": 40.7133549, "lon": -74.0111692}, {"type": "node", "id": 10282960418, "lat": 40.7133384, "lon": -74.0111547}, {"type": "node", "id": 10282960419, "lat": 40.7133289, "lon": -74.0111547}, {"type": "node", "id": 10282960420, "lat": 40.7133109, "lon": -74.0111612}, {"type": "node", "id": 10282960434, "lat": 40.7128576, "lon": -74.0116943}, {"type": "node", "id": 10282960435, "lat": 40.7128566, "lon": -74.0116868}, {"type": "node", "id": 10282960436, "lat": 40.7128588, "lon": -74.0116802}, {"type": "node", "id": 10282960437, "lat": 40.7128729, "lon": -74.0117274}, {"type": "node", "id": 10282960438, "lat": 40.7128828, "lon": -74.0117348}, {"type": "node", "id": 10282960439, "lat": 40.7128776, "lon": -74.0117332}, {"type": "node", "id": 10282960440, "lat": 40.7134831, "lon": -74.0115882}, {"type": "node", "id": 10282960441, "lat": 40.713502, "lon": -74.0115744}, {"type": "node", "id": 10282960442, "lat": 40.7135126, "lon": -74.0115216}, {"type": "node", "id": 10282960443, "lat": 40.7135137, "lon": -74.011535, "tags": {"barrier": "kerb", "kerb": "lowered", "tactile_paving": "no", "wheelchair": "yes"}}, {"type": "node", "id": 10282960444, "lat": 40.7135123, "lon": -74.0115522}, {"type": "node", "id": 10282960492, "lat": 40.7131281, "lon": -74.0113755}, {"type": "node", "id": 10282960493, "lat": 40.713108, "lon": -74.011379}, {"type": "node", "id": 10282960494, "lat": 40.7131238, "lon": -74.0113777}, {"type": "node", "id": 10282960495, "lat": 40.7131129, "lon": -74.0113775}, {"type": "node", "id": 10290401161, "lat": 40.7095787, "lon": -74.0116227}, {"type": "node", "id": 10290401162, "lat": 40.7095701, "lon": -74.0116785}, {"type": "node", "id": 10290401163, "lat": 40.7095774, "lon": -74.0116677}, {"type": "node", "id": 10290401164, "lat": 40.7095813, "lon": -74.0116439}, {"type": "node", "id": 10290401165, "lat": 40.7095809, "lon": -74.0116333}, {"type": "node", "id": 10290401166, "lat": 40.7090991, "lon": -74.0106835}, {"type": "node", "id": 10290401167, "lat": 40.7091134, "lon": -74.0106746, "tags": {"barrier": "kerb", "kerb": "lowered", "tactile_paving": "yes", "wheelchair": "yes"}}, {"type": "node", "id": 10290401168, "lat": 40.7091447, "lon": -74.0106724}, {"type": "node", "id": 10290401169, "lat": 40.7091335, "lon": -74.0106682}, {"type": "node", "id": 10290401170, "lat": 40.7091235, "lon": -74.0106687}, {"type": "node", "id": 10290401171, "lat": 40.7088955, "lon": -74.0108539}, {"type": "node", "id": 10290401172, "lat": 40.7088822, "lon": -74.010898}, {"type": "node", "id": 10290401173, "lat": 40.7088815, "lon": -74.0108829}, {"type": "node", "id": 10290401174, "lat": 40.708886, "lon": -74.0108684}, {"type": "node", "id": 10290401177, "lat": 40.7093397, "lon": -74.0118364}, {"type": "node", "id": 10290401178, "lat": 40.7093013, "lon": -74.011824}, {"type": "node", "id": 10290401179, "lat": 40.7093269, "lon": -74.0118396}, {"type": "node", "id": 10290401180, "lat": 40.7093085, "lon": -74.011833}, {"type": "node", "id": 10290401193, "lat": 40.7091564, "lon": -74.0106886, "tags": {"barrier": "kerb", "kerb": "lowered", "tactile_paving": "yes", "wheelchair": "yes"}}, {"type": "node", "id": 10290401197, "lat": 40.7088913, "lon": -74.0108603, "tags": {"barrier": "kerb", "kerb": "lowered", "tactile_paving": "yes", "wheelchair": "yes"}}, {"type": "node", "id": 10619086494, "lat": 40.7130439, "lon": -74.01008, "tags": {"addr:city": "New York", "addr:housenumber": "75", "addr:postcode": "10007", "addr:state": "NY", "addr:street": "Barclay Street", "amenity": "restaurant", "contact:instagram": "https://instagram.com/itotribeca", "cuisine": "sushi", "email": "info@itotribeca.com", "name": "Ito", "opening_hours": "Tu-Sa 18:00-20:45", "reservation": "recommended", "website": "https://itotribeca.com/", "website:booking": "https://itotribeca.com/#reservations"}}, {"type": "node", "id": 10689045274, "lat": 40.7084835, "lon": -74.0135243, "tags": {"amenity": "cafe", "cuisine": "bubble_tea", "indoor_seating": "yes", "name": "Dragon Tea", "outdoor_seating": "yes"}}, {"type": "node", "id": 10689052120, "lat": 40.7085207, "lon": -74.0135093, "tags": {"amenity": "restaurant", "indoor_seating": "yes", "name": "Bao Bao Cafe", "outdoor_seating": "no"}}, {"type": "node", "id": 11084144532, "lat": 40.7097477, "lon": -74.0088749, "tags": {"amenity": "restaurant", "cuisine": "ramen", "indoor_seating": "yes", "name": "Kuu Ramen", "opening_hours": "Mo-Su 11:30-21:30", "outdoor_seating": "no"}}, {"type": "node", "id": 11084146197, "lat": 40.7094717, "lon": -74.0085899, "tags": {"addr:city": "New York", "addr:housenumber": "67", "addr:postcode": "10038", "addr:state": "NY", "addr:street": "Nassau Street", "amenity": "restaurant", "check_date:opening_hours": "2023-08-02", "cuisine": "sushi", "indoor_seating": "yes", "name": "Sushi & Co", "opening_hours:signed": "no", "outdoor_seating": "no", "phone": "+1-646-799-9911", "website": "https://www.sushinco.com/"}}, {"type": "node", "id": 11084164914, "lat": 40.7098633, "lon": -74.0086893, "tags": {"amenity": "bar", "name": "The Irish American", "sport": "billiards"}}, {"type": "node", "id": 11084168882, "lat": 40.7092141, "lon": -74.0088431, "tags": {"amenity": "cafe", "cuisine": "coffee_shop", "indoor_seating": "yes", "name": "Simpl Coffee Shop", "opening_hours": "Mo-Su 07:00-19:00", "outdoor_seating": "no"}}, {"type": "node", "id": 11119847161, "lat": 40.7096711, "lon": -74.0087599, "tags": {"addr:city": "New York", "addr:housenumber": "24", "addr:postcode": "10038", "addr:state": "NY", "addr:street": "John Street", "amenity": "cafe", "cuisine": "coffee_shop", "name": "Tutto Calcio Espresso Bar", "opening_hours": "Mo-Su 07:00-20:00", "outdoor_seating": "no", "phone": "+1-212-389-0254", "website": "https://www.instagram.com/tuttocalcioespressobar"}}, {"type": "node", "id": 11119879312, "lat": 40.7094844, "lon": -74.008186, "tags": {"amenity": "cafe", "brand": "Matto Espresso", "brand:wikidata": "Q122209496", "cuisine": "coffee_shop", "indoor_seating": "no", "name": "Matto Espresso", "outdoor_seating": "no", "takeaway": "only"}}, {"type": "node", "id": 11175682842, "lat": 40.7128293, "lon": -74.0093508, "tags": {"amenity": "restaurant", "indoor_seating": "yes", "name": "Cut by Wolfgang Puck", "outdoor_seating": "yes"}}, {"type": "node", "id": 11223060596, "lat": 40.7080354, "lon": -74.0105959, "tags": {"amenity": "cafe", "indoor_seating": "yes", "name": "Ashby's", "outdoor_seating": "no"}}, {"type": "node", "id": 11223076752, "lat": 40.7081186, "lon": -74.0111656, "tags": {"brand": "Charles Schwab", "brand:wikidata": "Q1066028", "name": "Charles Schwab", "office": "financial_advisor"}}, {"type": "node", "id": 11301575865, "lat": 40.7125031, "lon": -74.0123419, "tags": {"addr:city": "New York", "addr:housenumber": "251", "addr:postcode": "10007", "addr:state": "NY", "addr:street": "Fulton Street", "amenity": "restaurant", "cuisine": "american", "name": "Metropolis by Marcus Samuelsson", "phone": "+12122663018", "website": "https://www.metropolisbymarcus.com/?y_source=1_MTAxOTQ5MDcyMi03MTUtbG9jYXRpb24ud2Vic2l0ZQ%3D%3D"}}, {"type": "node", "id": 11365172080, "lat": 40.7092483, "lon": -74.0081689}, {"type": "node", "id": 11365172083, "lat": 40.7092333, "lon": -74.0081469, "tags": {"barrier": "gate"}}, {"type": "node", "id": 11365172084, "lat": 40.7092183, "lon": -74.0081272}, {"type": "node", "id": 11365172106, "lat": 40.7091251, "lon": -74.0079946, "tags": {"barrier": "gate"}}, {"type": "node", "id": 11365172108, "lat": 40.7091172, "lon": -74.0079833}, {"type": "node", "id": 11365172113, "lat": 40.7089031, "lon": -74.0082439}, {"type": "node", "id": 11415663148, "lat": 40.7096883, "lon": -74.0129586}, {"type": "node", "id": 11461129537, "lat": 40.712736, "lon": -74.0077871}, {"type": "node", "id": 11461129575, "lat": 40.7127124, "lon": -74.0077343}, {"type": "node", "id": 11629287173, "lat": 40.709189, "lon": -74.0078111, "tags": {"addr:city": "New York", "addr:housenumber": "45", "addr:postcode": "10038", "addr:state": "NY", "addr:street": "John Street", "amenity": "bar", "min_age": "21", "name": "Zizi's Wine Bar", "opening_hours": "Mo-Su 3:00-23:00"}}, {"type": "node", "id": 11659815869, "lat": 40.7109261, "lon": -74.0103462, "tags": {"addr:city": "New York", "addr:housenumber": "22", "addr:postcode": "10007", "addr:state": "NY", "addr:street": "Dey Street", "air_conditioning": "yes", "amenity": "cafe", "branch": "195 Broadway", "brand": "Starbucks", "brand:wikidata": "Q37158", "cuisine": "coffee_shop", "name": "Starbucks", "official_name": "Starbucks Coffee", "opening_hours": "Mo-Fr 05:30-19:30; Sa,Su 07:00-18:00", "outdoor_seating": "no", "phone": "+1 212-385-1104", "ref": "16209", "takeaway": "yes", "website": "https://www.starbucks.com/store-locator/store/16209/195-broadway-22-dey-street-new-york-ny-100073100-us"}}, {"type": "node", "id": 12050009362, "lat": 40.7086274, "lon": -74.010127, "tags": {"addr:city": "New York", "addr:housenumber": "140", "addr:postcode": "10005", "addr:state": "NY", "addr:street": "Broadway", "addr:unit": "46th Floor, PMB 300", "name": "NYC Injury Attorneys P.C.", "office": "lawyer", "opening_hours": "24/7", "phone": "+1-646-452-3663", "website": "https://nyc-injury-attorneys.com"}}, {"type": "node", "id": 12290540026, "lat": 40.7119725, "lon": -74.0085844, "tags": {"description": "Welcome to CineVerse Network, a platform for innovative entertainment experiences. We are committed to connecting the global user and creators through technological innovation and diverse content, and creating a diverse and interactive digital entertainme", "image": "https://www.cvn.top/wp-content/uploads/2024/10/535150d3-d0a8-4f5c-a7ca-c2e8facab801.png", "name": "CineVerse Network Company, Limited", "office": "yes", "website": "https://www.cvn.top/"}}, {"type": "node", "id": 12361291561, "lat": 40.7089279, "lon": -74.0123571, "tags": {"entrance": "yes"}}, {"type": "node", "id": 12361377540, "lat": 40.7091832, "lon": -74.0121953, "tags": {"entrance": "yes"}}, {"type": "node", "id": 12386824050, "lat": 40.7080429, "lon": -74.0141252, "tags": {"addr:city": "New York", "addr:housenumber": "19", "addr:postcode": "10006", "addr:state": "NY", "addr:street": "Rector Street", "amenity": "restaurant", "name": "REGULAR NYC", "opening_hours": "Mo-Fr 07:00-15:00; Sa-Su 07:00-16:00", "phone": "+19172612090", "website": "https://www.regular.nyc/"}}, {"type": "node", "id": 12480002393, "lat": 40.7087658, "lon": -74.0083225, "tags": {"addr:city": "New York", "addr:housenumber": "59", "addr:postcode": "10038", "addr:state": "NY", "addr:street": "Maiden Lane", "addr:unit": "6th floor", "contact:facebook": "https://www.facebook.com/ParkerWaichmanLLP/", "contact:instagram": "https://www.instagram.com/parkerwaichman/", "contact:linkedin": "https://www.linkedin.com/company/parker-waichman-llp", "contact:pinterest": "https://www.pinterest.com/parkerwaichman/", "contact:twitter": "https://x.com/parkerwaichman", "language:en": "yes", "name": "Parker Waichman LLP, Personal Injury Accident Attorneys", "office": "lawyer", "opening_hours": "24/7", "phone": "+1-212-267-6700", "website": "https://www.yourlawyer.com/new-york-city-personal-injury/", "year_of_construction": "1993"}}, {"type": "node", "id": 12809106019, "lat": 40.7130184, "lon": -74.0131518, "tags": {"addr:city": "New York", "addr:housenumber": "One World Trade Center", "addr:postcode": "10007", "addr:state": "NY", "addr:street": "West Street", "addr:unit": "85th Floor", "check_date": "2025-05-04", "check_date:currency:XBT": "2025-05-04", "currency:XBT": "yes", "name": "Involve Digital", "office": "advertising_agency", "opening_hours": "Mo-Fr 09:00-17:00", "payment:lightning": "yes", "payment:lightning_contactless": "no", "payment:onchain": "yes", "phone": "+1 929 474 0274", "website": "https://www.involvedigital.com"}}, {"type": "node", "id": 12871399676, "lat": 40.7122805, "lon": -74.0055445, "tags": {"barrier": "gate"}}, {"type": "node", "id": 12965535575, "lat": 40.7081048, "lon": -74.0104126, "tags": {"addr:city": "New York", "addr:floor": "31", "addr:housenumber": "120", "addr:postcode": "10271", "addr:state": "NY", "addr:street": "Broadway", "addr:unit": "31st Floor", "air_conditioning": "yes", "branch": "Manhattan", "fax": "+1-212-720-3488", "government": "yes", "name": "New York City Department of City Planning", "office": "government", "operator": "New York City Department of City Planning", "operator:type": "government", "operator:wikidata": "Q8354830", "phone": "+1-212-720-3480", "website": "https://www1.nyc.gov/site/planning/index.page", "wikipedia": "en:New York City Department of City Planning"}}, {"type": "node", "id": 12971476998, "lat": 40.7131082, "lon": -74.0082883, "tags": {"addr:city": "New York", "addr:housenumber": "11", "addr:postcode": "10007", "addr:state": "NY", "addr:street": "Park Place", "addr:unit": "Suite 1212", "air_conditioning": "yes", "email": "info@nycacc.org", "name": "Animal Care Centers of NYC", "office": "ngo", "phone": "+1-212-788-4000", "website": "https://www.nycacc.org/"}}, {"type": "node", "id": 13328290500, "lat": 40.7129533, "lon": -74.0132283, "tags": {"addr:city": "New York", "addr:housenumber": "One World Trade Center", "addr:postcode": "10007", "addr:state": "NY", "addr:street": "Fulton Street", "height": "541", "internet_access": "yes", "name": "Metalicana Corporation", "office": "company", "opening_hours": "Mo-Fr 09:00-17:00", "phone": "+1-646-814-3070", "wheelchair": "yes"}}, {"type": "way", "id": 22926662, "nodes": [1431806493, 793879917, 11415663148, 480910126, 6419520969, 480910122, 6419487813, 6417640366, 6419225446, 6419487814, 246859499, 5047505367, 1431806493], "tags": {"leisure": "park", "name": "Liberty Park", "wikidata": "Q16932670", "wikipedia": "en:Liberty Park"}}, {"type": "way", "id": 25026338, "nodes": [272194598, 10290401177, 10290401179, 8262936618, 10290401180, 10290401178, 272194601, 10290401172, 10290401173, 10290401174, 10290401197, 10290401171, 10290401166, 10290401167, 10290401170, 10290401169, 10290401168, 272194602, 10290401193, 10290401161, 10290401165, 10290401164, 8262936617, 10290401163, 10290401162, 272194598], "tags": {"leisure": "park", "name": "Zuccotti Park", "name:etymology:wikidata": "Q9012427", "name:ko": "\uc988\uce74\ud2f0 \uacf5\uc6d0", "old_name": "Liberty Plaza Park", "wikidata": "Q227659", "wikipedia": "en:Zuccotti Park"}}, {"type": "way", "id": 166839383, "nodes": [5837162675, 10282960419, 10282960418, 8262936477, 10282960417, 5837162677, 5837162678, 10282960442, 10282960443, 10282960444, 8262936430, 10282960441, 5837162680, 10282960440, 8262936459, 5837162679, 10282960438, 10282960439, 10282960437, 10282960434, 10282960435, 10282960436, 5837162676, 8262936482, 10282960493, 10282960495, 10282960494, 10282960492, 10282960416, 10282960420, 5837162675], "tags": {"addr:city": "New York", "addr:street": "Greenwich Street", "leisure": "park", "name": "Silverstein Family Park", "wikidata": "Q118612610"}}, {"type": "way", "id": 277904719, "nodes": [2823452401, 3809526488, 3809526483, 2823452295, 2823452297, 2823452409, 2823452411, 2823452403, 2823452401], "tags": {"addr:city": "New York", "addr:housenumber": "14", "addr:postcode": "10007", "addr:state": "NY", "addr:street": "Vesey Street", "building": "yes", "height": "26.6", "historic": "yes", "name": "New York County Lawyers Association", "nycdoitt:bin": "1001233", "office": "association", "wikidata": "Q8772027", "wikipedia": "en:New York County Lawyers' Association Building"}}, {"type": "way", "id": 277904770, "nodes": [2808066376, 895891414, 895891366, 2808066385, 895891352, 895891344, 11461129575, 11461129537, 895891374, 2808066365, 2808066366, 2808066371, 2808066376], "tags": {"addr:city": "New York", "addr:housenumber": "250", "addr:postcode": "10007", "addr:state": "NY", "addr:street": "Broadway", "architect": "Emery Roth & Sons", "architect:wikidata": "Q18672430", "building": "yes", "government": "legislative", "nycdoitt:bin": "1001408", "office": "government", "smoking": "no", "start_date": "1964"}}, {"type": "way", "id": 278033590, "nodes": [2824641604, 3762209186, 2824641586, 12361377540, 2824641561, 2824641576, 3762209179, 3762209180, 2824641585, 2824641590, 2824641596, 2824641604], "tags": {"addr:city": "New York", "addr:housenumber": "100", "addr:street": "Trinity Place", "amenity": "school", "building": "school", "building:levels": "10", "ele": "5", "gnis:feature_id": "2083910", "mascot": "Panthers", "name": "High School of Economics and Finance", "nycdoitt:bin": "1001037", "wikidata": "Q5756623"}}, {"type": "way", "id": 278033603, "nodes": [2824641547, 2824641556, 2824641555, 2824641565, 2824641564, 2824641569, 2824641554, 2824641552, 2824641551, 12361291561, 2824641541, 2824641543, 2824641540, 3772831306, 2824641547], "tags": {"addr:city": "New York", "addr:housenumber": "90", "addr:postcode": "10006", "addr:state": "NY", "addr:street": "Trinity Place", "amenity": "school", "building": "school", "ele": "5", "gnis:feature_id": "2083909", "height": "62.7", "mascot": "Panthers", "name": "Leadership and Public Service High School", "nycdoitt:bin": "1001035", "polling_station": "yes", "wikidata": "Q6508641"}}, {"type": "way", "id": 375369088, "nodes": [2824697588, 2824697561, 11365172113, 1695926392, 1695926394, 2824697587, 11365172108, 11365172106, 2824697588], "tags": {"leisure": "park", "opening_hours": "sunrise-sunset"}}, {"type": "way", "id": 375369089, "nodes": [2824697701, 11365172084, 11365172083, 11365172080, 2824697702, 3748367336, 2824697586, 2824697572, 2824697701], "tags": {"leisure": "park", "opening_hours": "sunrise-sunset"}}, {"type": "way", "id": 413055246, "nodes": [4143863442, 4143863430, 4143863438, 4143863429, 4143863447, 4143863440, 8262309110, 8262309153, 8262309166, 8262309111, 9368527060, 8262309192, 9369042307, 2821289715, 9374424913, 9368527070, 9368824118, 9368824154, 9368823989, 2348991691, 9373577265, 9373577231, 9373577232, 9373577234, 9373577233, 4143863446, 9373577271, 9369042338, 4143863437, 9369042334, 9369042335, 9369042336, 4143863434, 9373577272, 9373577282, 4143863445, 9368823880, 9373577320, 9368823881, 9368823879, 9368823882, 4143863444, 9368823877, 8262309324, 4143863448, 9368527105, 6762730395, 6762730394, 8262309245, 7373386553, 7373386555, 4900466407, 4900466360, 7281331968, 4143863449, 9368824069, 12871399676, 9364517394, 3942249545, 8262309208, 9368527057, 9368527059, 9368527055, 9368527040, 9368527053, 8262309190, 9368527001, 9368526986, 8262309182, 8262309115, 4143863435, 9368527038, 4143863443, 4143863439, 9368527037, 4143863428, 8262309116, 4143863431, 4143863432, 4878838751, 4143863442], "tags": {"addr:city": "New York", "addr:postcode": "10007", "addr:state": "NY", "leisure": "park", "name": "City Hall Park", "name:el": "\u03a0\u03ac\u03c1\u03ba\u03bf \u0394\u03b7\u03bc\u03b1\u03c1\u03c7\u03b5\u03af\u03bf\u03c5", "name:etymology:wikidata": "Q1065206", "smoking": "no", "website": "https://www.nycgovparks.org/parks/city-hall-park", "wikidata": "Q34817857"}}]}