{"version": 0.6, "generator": "Overpass API 0.7.62.8 e802775f", "osm3s": {"timestamp_osm_base": "2025-12-01T04:02:06Z", "copyright": "The data included in this document is from www.openstreetmap.org. The data is made available under ODbL."}, "elements": [{"type": "node", "id": 2543608515, "lat": 40.6924855, "lon": -73.8695467}, {"type": "node", "id": 2543608516, "lat": 40.6925936, "lon": -73.8690143}, {"type": "node", "id": 2543608517, "lat": 40.6926098, "lon": -73.8690209}, {"type": "node", "id": 2543608518, "lat": 40.6926308, "lon": -73.868857}, {"type": "node", "id": 2543608520, "lat": 40.6926414, "lon": -73.868812}, {"type": "node", "id": 2543608522, "lat": 40.6926576, "lon": -73.8688186}, {"type": "node", "id": 2543608533, "lat": 40.6927816, "lon": -73.8682935}, {"type": "node", "id": 2543608563, "lat": 40.6932359, "lon": -73.8698527}, {"type": "node", "id": 2543608565, "lat": 40.693357, "lon": -73.8685282}, {"type": "node", "id": 2543608568, "lat": 40.693532, "lon": -73.8685995}, {"type": "node", "id": 5346070474, "lat": 40.6898155, "lon": -73.8637009, "tags": {"addr:housenumber": "87-48", "addr:street": "78th Street", "amenity": "bar", "email": "loy@neirstavern.com", "name": "Neir's Tavern", "phone": "+1-718-296-0600", "website": "https://www.neirstavern.com/", "wikidata": "Q18749113"}}, {"type": "node", "id": 5397491708, "lat": 40.6915523, "lon": -73.8650505, "tags": {"addr:housenumber": "76-14", "addr:street": "Jamaica Avenue", "amenity": "restaurant", "name": "Bonao Chimi"}}, {"type": "node", "id": 5397493886, "lat": 40.6916475, "lon": -73.8657928, "tags": {"addr:housenumber": "75-19", "addr:street": "Jamaica Avenue", "amenity": "restaurant", "name": "Lane Pizzaria"}}, {"type": "node", "id": 5397495226, "lat": 40.6911961, "lon": -73.8671768, "tags": {"addr:housenumber": "74-22", "addr:street": "Jamaica Avenue", "amenity": "restaurant", "cuisine": "chinese", "name": "May May Kitchen"}}, {"type": "node", "id": 9678976667, "lat": 40.6913614, "lon": -73.866156, "tags": {"addr:city": "Woodhaven", "addr:housenumber": "75-08", "addr:postcode": "11421", "addr:state": "NY", "addr:street": "Jamaica Avenue", "amenity": "cafe", "cuisine": "bubble_tea", "internet_access": "yes", "name": "Pop Pot Noodle & Tea Spot", "opening_hours": "Mo-Su 12:00-21:00", "phone": "+1-718-296-2172", "website": "https://pop-pot-noodle-tea-spot-inc.square.site/"}}, {"type": "node", "id": 9701793395, "lat": 40.6912312, "lon": -73.8670299, "tags": {"addr:city": "Woodhaven", "addr:housenumber": "74-26", "addr:state": "NY", "addr:street": "Jamaica Avenue", "amenity": "restaurant", "name": "Chef Toribio", "opening_hours": "Mo-Sa 07:00-21:00", "phone": "+1 845-684-3360"}}, {"type": "way", "id": 247482347, "nodes": [2543608533, 2543608522, 2543608520, 2543608518, 2543608516, 2543608517, 2543608515, 2543608563, 2543608568, 2543608565, 2543608533], "tags": {"amenity": "school", "ele": "23", "name": "Franklin K Lane High School", "wikidata": "Q5491621"}}]}