{"version": 0.6, "generator": "Overpass API 0.7.62.8 e802775f", "osm3s": {"timestamp_osm_base": "2025-12-01T15:51:00Z", "copyright": "The data included in this document is from www.openstreetmap.org. The data is made available under ODbL."}, "elements": [{"type": "node", "id": 2569887992, "lat": 40.7202807, "lon": -73.8435844, "tags": {"addr:housenumber": "107-15", "addr:postcode": "11375", "addr:street": "71st Road", "amenity": "restaurant", "cuisine": "asian", "name": "Poke"}}, {"type": "node", "id": 2569888065, "lat": 40.719488, "lon": -73.8427055, "tags": {"addr:housenumber": "71-63", "addr:postcode": "11375", "addr:street": "Austin Street", "amenity": "restaurant", "cuisine": "pizza", "name": "Austin Street Pizza"}}, {"type": "node", "id": 2569888074, "lat": 40.7193908, "lon": -73.8424538, "tags": {"addr:housenumber": "72-01", "addr:postcode": "11375", "addr:street": "Austin Street", "amenity": "cafe", "check_date": "2024-04-28", "name": "Pink Forest"}}, {"type": "node", "id": 2569902274, "lat": 40.7215673, "lon": -73.8434614, "tags": {"addr:city": "Forest Hills", "addr:housenumber": "108-01", "addr:postcode": "11375", "addr:state": "NY", "addr:street": "Queens Boulevard", "amenity": "cafe", "branch": "Queens Boulevard & 71st Avenue", "brand": "Starbucks", "brand:wikidata": "Q37158", "cuisine": "coffee_shop", "name": "Starbucks", "official_name": "Starbucks Coffee", "phone": "+1 347-534-0009", "ref": "1029577", "takeaway": "yes", "website": "https://www.starbucks.com/store-locator/store/1029577/queens-blvd-71st-ave-108-01-queens-blvd-forest-hills-ny-113754887-us"}}, {"type": "node", "id": 2569928275, "lat": 40.7209307, "lon": -73.8454848, "tags": {"addr:housenumber": "107-16", "addr:postcode": "11375", "addr:street": "70th Road", "amenity": "restaurant", "branch": "Forest Hills", "cuisine": "asian;sushi", "delivery": "yes", "name": "MoCA Asian Bistro", "opening_hours": "Mo-Th 11:30-23:00; Fr, Sa 11:30-24:00; Su12:00-23:00", "phone": "+1 718-268-3333", "takeaway": "yes", "website": "https://mocaasianbistro.com"}}, {"type": "node", "id": 2569928276, "lat": 40.7207152, "lon": -73.8456147, "tags": {"addr:housenumber": "107-02", "addr:postcode": "11375", "addr:street": "70th Road", "amenity": "restaurant", "cuisine": "steak_house", "delivery": "yes", "email": "info@agednyc.com", "facebook": "https://www.facebook.com/agednyc", "fax": "+1 718-544-2990", "happy_hours": "Mo-Fr 16:00-19:00", "instagram": "https://www.instagram.com/agednyc", "level": "0", "name": "(aged.)", "opening_hours": "Mo-Fr 11:30-22:30; Sa 11:00-22:30; Su 11:00-22:00", "outdoor_seating": "yes", "phone": "+1 718-544-2433", "reservation": "yes", "takeaway": "yes", "twitter": "https://twitter.com/agednyc", "website": "https://www.agednyc.com"}}, {"type": "node", "id": 2689493083, "lat": 40.7227569, "lon": -73.8476266}, {"type": "node", "id": 2689493088, "lat": 40.7222706, "lon": -73.8474436}, {"type": "node", "id": 2689493094, "lat": 40.7226404, "lon": -73.8477639}, {"type": "node", "id": 2689493098, "lat": 40.7221062, "lon": -73.8470555}, {"type": "node", "id": 2689493125, "lat": 40.7217587, "lon": -73.8454497}, {"type": "node", "id": 2689493134, "lat": 40.7217864, "lon": -73.8454169}, {"type": "node", "id": 2689493137, "lat": 40.7223495, "lon": -73.8475434}, {"type": "node", "id": 2706035626, "lat": 40.7208592, "lon": -73.8455395, "tags": {"addr:housenumber": "107-10", "addr:postcode": "11375", "addr:street": "70th Road", "amenity": "restaurant", "cuisine": "nuevo_latino", "email": "cabanaqueens@gmail.com", "name": "Cabana Restaurant & Bar", "opening_hours": "Mo-Su 11:30-23:00", "outdoor_seating": "yes", "phone": "+1-718-263-3600", "takeaway": "yes", "website": "https://www.cabanarestaurant.com/"}}, {"type": "node", "id": 2706036434, "lat": 40.720986, "lon": -73.8454574, "tags": {"addr:housenumber": "107-18", "addr:postcode": "11375", "addr:street": "70th Road", "amenity": "restaurant", "cuisine": "thai", "delivery": "yes", "facebook": "https://www.facebook.com/bangkokcuisinenyc/", "name": "Bangkok Cuisine", "opening_hours": "Mo-Th, Su 11:30-16:00, 17:00-22:30; Fr, Sa 11:30-16:00, 17:00-23:00", "outdoor_seating": "yes", "phone": "+1 718-261-4005", "takeaway": "yes"}}, {"type": "node", "id": 2768881124, "lat": 40.7207758, "lon": -73.8432807, "tags": {"amenity": "restaurant", "branch": "Barbeque", "brand": "Mighty Quinn's", "brand:wikidata": "Q122209813", "cuisine": "barbecue", "name": "Mighty Quinn's"}}, {"type": "node", "id": 2768914083, "lat": 40.7209514, "lon": -73.8472921, "tags": {"addr:city": "Forest Hills", "addr:housenumber": "7000", "addr:postcode": "11375", "addr:state": "NY", "addr:street": "Austin Street", "amenity": "cafe", "bar": "no", "branch": "7000 Austin Street", "brand": "Starbucks", "brand:wikidata": "Q37158", "cuisine": "coffee_shop", "internet_access": "wlan", "level": "0", "name": "Starbucks", "official_name": "Starbucks Coffee", "phone": "+1 718-268-4719", "ref": "16733", "takeaway": "yes", "website": "https://www.starbucks.com/store-locator/store/16733/7000-austin-street-7000-austin-street-forest-hills-ny-113751022-us"}}, {"type": "node", "id": 4631993691, "lat": 40.7207741, "lon": -73.8446415, "tags": {"addr:city": "Forest Hills", "addr:housenumber": "107-19", "addr:postcode": "11375", "addr:state": "NY", "addr:street": "71st Avenue", "check_date": "2025-07-16", "fax": "+1-718-268-7382", "name": "Law Offices Of Donald Mastrodomenico, P.C.", "office": "lawyer", "phone": "+1-718-268-8111", "website": "https://www.mastrodomenicolaw.com/"}}, {"type": "node", "id": 5342137750, "lat": 40.7193565, "lon": -73.8423767, "tags": {"addr:city": "Forest Hills", "addr:housenumber": "72-05", "addr:postcode": "11375", "addr:state": "NY", "addr:street": "Austin Street", "amenity": "restaurant", "cuisine": "mexican", "email": "greatfood@5burrocafe.com", "level": "0", "name": "5 Burro Cafe", "phone": "+1-718-544-2984", "website": "https://5burrocafe.com"}}, {"type": "node", "id": 5344122640, "lat": 40.7197455, "lon": -73.8448734, "tags": {"addr:housenumber": "106-12", "addr:postcode": "11375", "addr:street": "71st Avenue", "amenity": "restaurant", "check_date": "2024-05-02", "cuisine": "mediterranean", "delivery": "yes", "diet:kosher": "yes", "email": "pahalzan1@gmail.com", "name": "Pahal Zan Kosher Falafel", "phone": "+1-718-793-7177", "takeaway": "yes", "website": "https://pahal-zan.com/"}}, {"type": "node", "id": 5445770147, "lat": 40.7197107, "lon": -73.8422459, "tags": {"addr:housenumber": "108-14", "addr:street": "72nd Avenue", "name": "The Austin Space", "office": "cooperative", "twitter": "https://twitter.com/theaustinspace?s=09"}}, {"type": "node", "id": 6909144450, "lat": 40.7193625, "lon": -73.8454685, "tags": {"addr:housenumber": "13", "addr:street": "Station Square", "amenity": "restaurant", "name": "Dirty Pierres Bistro"}}, {"type": "node", "id": 6909144453, "lat": 40.7190923, "lon": -73.8452223, "tags": {"amenity": "restaurant", "name": "Jade Eatery and Lounge"}}, {"type": "node", "id": 7644156524, "lat": 40.7237487, "lon": -73.8478999, "tags": {"addr:city": "Forest Hills", "addr:housenumber": "104-35", "addr:state": "NY", "addr:street": "Queens Boulevard", "name": "Contact Realty", "office": "estate_agent", "phone": "+1 718 459 5656"}}, {"type": "node", "id": 7644156528, "lat": 40.7237014, "lon": -73.8478716, "tags": {"addr:housenumber": "104-37", "addr:street": "Queens Boulevard", "amenity": "restaurant", "cuisine": "chinese", "name": "Great Wall", "phone": "+1 718 275 2255"}}, {"type": "node", "id": 8156130994, "lat": 40.7219826, "lon": -73.8458587, "tags": {"amenity": "bench", "armrest": "yes", "backrest": "yes", "seats": "12"}}, {"type": "node", "id": 8156130996, "lat": 40.7219908, "lon": -73.8458775}, {"type": "node", "id": 8539677604, "lat": 40.7221705, "lon": -73.8472653}, {"type": "node", "id": 8572666754, "lat": 40.7208783, "lon": -73.8455212, "tags": {"addr:housenumber": "107-12", "addr:postcode": "11375", "addr:street": "70th Road", "amenity": "restaurant", "branch": "Forest Hills", "cuisine": "korean", "delivery": "yes", "email": "info@kukukitchen.com", "name": "Kuku", "opening_hours": "Mo-Su 11:00-23:00", "outdoor_seating": "yes", "phone": "+1 718-268-8886", "reservation": "yes", "takeaway": "yes", "website": "https://eatkuku.com/forest-hills"}}, {"type": "node", "id": 8793340332, "lat": 40.7191595, "lon": -73.8424407, "tags": {"addr:housenumber": "72-06", "addr:street": "Austin Street", "amenity": "restaurant", "cuisine": "chinese", "name": "SpyC Cuisine", "opening_hours": "Tu-Th 11:30-22:00; Fr 11:30-22:30; Sa 12:00-22:30; Su 12:00-22:00", "phone": "+1 718 263 0357", "website": "http://www.spycny.com"}}, {"type": "node", "id": 8920693507, "lat": 40.7213253, "lon": -73.8444745, "tags": {"addr:housenumber": "107-50", "addr:street": "Queens Boulevard", "amenity": "restaurant", "cuisine": "asian", "delivery": "yes", "level": "0", "name": "JK Wings & Fish", "opening_hours": "11:00-22:00", "phone": "+1 718 880 2188"}}, {"type": "node", "id": 8934079631, "lat": 40.7211363, "lon": -73.8443577, "tags": {"addr:housenumber": "107-35", "addr:postcode": "11375", "addr:street": "71st Avenue", "amenity": "cafe", "name": "Tous Les Jours Cafe", "opening_hours": "Mo-Su 07:00-21:30", "phone": "+1 718 261 1005"}}, {"type": "node", "id": 8934083914, "lat": 40.7204211, "lon": -73.8451568, "tags": {"addr:city": "Forest Hills", "addr:state": "NY", "addr:street": "Austin Street", "amenity": "bar", "level": "1", "name": "The Billiard Company", "outdoor_seating": "no"}}, {"type": "node", "id": 9045408690, "lat": 40.719179, "lon": -73.8424983, "tags": {"addr:housenumber": "72-04", "addr:street": "Austin Street", "air_conditioning": "yes", "amenity": "restaurant", "level": "0", "name": "Austin House", "outdoor_seating": "no", "phone": "+1 718 544 2276", "smoking": "no", "wheelchair": "yes"}}, {"type": "node", "id": 9106019889, "lat": 40.7193449, "lon": -73.8423513, "tags": {"addr:city": "Forest Hills", "addr:housenumber": "72-07", "addr:postcode": "11375", "addr:state": "NY", "addr:street": "Austin Street", "amenity": "bar", "level": "0", "name": "Tap House", "opening_hours": "10:00-16:00", "website": "https://www.taphousequeens.com/"}}, {"type": "node", "id": 9742033446, "lat": 40.7208138, "lon": -73.8468607, "tags": {"amenity": "cafe", "brand": "Kung Fu Tea", "brand:wikidata": "Q66023886", "cuisine": "bubble_tea", "name": "Kung Fu Tea", "opening_hours": "Su-We 12:00-20:00; Th-Sa 12:00-20:30", "takeaway": "yes"}}, {"type": "node", "id": 10245833835, "lat": 40.7193032, "lon": -73.8428059, "tags": {"addr:housenumber": "71-60", "addr:street": "Austin Street", "amenity": "cafe", "name": "Red Piper", "phone": "+1 718 635 0245"}}, {"type": "node", "id": 10247859115, "lat": 40.7204247, "lon": -73.8458524, "tags": {"addr:city": "Forest Hills", "addr:state": "NY", "addr:street": "Austin Street", "alt_name": "Liberty Tax Service", "brand": "Liberty Tax", "brand:wikidata": "Q6541978", "level": "-1", "name": "Liberty Tax", "office": "tax_advisor", "opening_hours": "Mo-Th 10:30-18:00"}}, {"type": "node", "id": 10247859116, "lat": 40.7210062, "lon": -73.846629, "tags": {"amenity": "restaurant", "cuisine": "mexican", "level": "1", "name": "Coyote"}}, {"type": "node", "id": 10311562060, "lat": 40.7209649, "lon": -73.8440907, "tags": {"addr:city": "Forest Hills", "addr:housenumber": "107-28", "addr:postcode": "11375", "addr:state": "NY", "addr:street": "71st Avenue", "amenity": "cafe", "check_date": "2023-05-10", "name": "Gregory\u2019s Coffee", "outdoor_seating": "no"}}, {"type": "node", "id": 10311562062, "lat": 40.7212971, "lon": -73.8444135, "tags": {"addr:street": "Queens Boulevard", "amenity": "restaurant", "cuisine": "chinese", "level": "0", "name": "Nan Xiang Soup Dumplings"}}, {"type": "node", "id": 10593298154, "lat": 40.7191221, "lon": -73.8418458, "tags": {"addr:housenumber": "72-27", "addr:street": "Austin Street", "amenity": "restaurant", "name": "Rove"}}, {"type": "node", "id": 10593298156, "lat": 40.7192108, "lon": -73.8420413, "tags": {"addr:housenumber": "72-19", "addr:street": "Austin Street", "brand": "Charles Schwab", "brand:wikidata": "Q1066028", "name": "Charles Schwab", "office": "financial_advisor"}}, {"type": "node", "id": 10656640050, "lat": 40.7208886, "lon": -73.8463971, "tags": {"amenity": "restaurant", "cuisine": "indian", "level": "-1", "name": "Tikka N Talk"}}, {"type": "node", "id": 10656640052, "lat": 40.7206042, "lon": -73.8456744, "tags": {"addr:city": "Forest Hills", "addr:state": "NY", "addr:street": "Austin Street", "air_conditioning": "yes", "amenity": "restaurant", "bar": "no", "cuisine": "turkish", "delivery": "yes", "internet_access": "no", "level": "0", "name": "Oba", "outdoor_seating": "yes", "smoking": "outside", "takeaway": "yes", "toilets": "yes", "wheelchair": "yes"}}, {"type": "node", "id": 10656640055, "lat": 40.7201568, "lon": -73.8444757, "tags": {"addr:city": "Forest Hills", "addr:housenumber": "71-01", "addr:postcode": "11375", "addr:state": "NY", "addr:street": "Austin Street", "addr:unit": "201A", "email": "info@ARCdesignNYC.com", "level": "1", "name": "Arc Architecture and Design Studio", "office": "architect", "website": "http://www.arcdesignnyc.com/contact-us", "wheelchair": "no"}}, {"type": "node", "id": 10661660092, "lat": 40.720871, "lon": -73.8463425, "tags": {"amenity": "cafe", "level": "-1"}}, {"type": "node", "id": 10661660099, "lat": 40.7210298, "lon": -73.8467641, "tags": {"amenity": "restaurant", "cuisine": "greek", "level": "0", "name": "Agora"}}, {"type": "node", "id": 10661681105, "lat": 40.7208155, "lon": -73.8461764, "tags": {"amenity": "restaurant", "level": "0", "name": "T-Swirl Crepe"}}, {"type": "node", "id": 10679436534, "lat": 40.7199493, "lon": -73.8433764, "tags": {"amenity": "cafe", "name": "Coffee Shot"}}, {"type": "node", "id": 10692352314, "lat": 40.7215486, "lon": -73.8433973, "tags": {"brand": "RE/MAX", "brand:wikidata": "Q965845", "name": "RE/MAX", "office": "estate_agent"}}, {"type": "node", "id": 10739630729, "lat": 40.7195036, "lon": -73.8433025, "tags": {"addr:city": "Forest Hills", "addr:housenumber": "71-44", "addr:postcode": "11375", "addr:state": "NY", "addr:street": "Austin Street", "amenity": "restaurant", "cuisine": "japanese", "delivery": "yes", "fax": "+1 718 880 2710", "name": "Asushi", "opening_hours": "Tu-Su 11:30-21:00", "payment:american_express": "yes", "payment:discover_card": "yes", "payment:mastercard": "yes", "payment:visa": "yes", "phone": "+1 718 268 6010", "takeaway": "yes", "website": "https://www.asushiny.com"}}, {"type": "node", "id": 10739630730, "lat": 40.7195371, "lon": -73.8434042, "tags": {"addr:housenumber": "71-40", "addr:street": "Austin Street", "name": "Spectrum", "office": "telecommunication", "opening_hours": "Mo-Sa 10:00-20:00; Su 12:00-17:00"}}, {"type": "node", "id": 10739630732, "lat": 40.7196207, "lon": -73.8436321, "tags": {"addr:housenumber": "71-34", "addr:street": "Austin Street", "amenity": "restaurant", "cuisine": "ramen", "name": "Tamashii Ramen", "opening_hours": "Su-We 12:00-22:00; Th-Sa 12:00-23:00", "phone": "+1 718 261 0725"}}, {"type": "node", "id": 10739630734, "lat": 40.719628, "lon": -73.8436509, "tags": {"addr:city": "Forest Hills", "addr:housenumber": "71-34", "addr:postcode": "11375", "addr:state": "NY", "addr:street": "Austin Street", "addr:unit": "Fl 2", "name": "The New York Group - Advertising and Marketing Agency", "office": "advertising_agency"}}, {"type": "node", "id": 10739630735, "lat": 40.7197838, "lon": -73.8440372, "tags": {"addr:housenumber": "71-22", "addr:street": "Austin Street", "amenity": "restaurant", "branch": "Loncheria Del Bosque", "brand": "Tacombi", "brand:wikidata": "Q123165959", "cuisine": "mexican", "diet:vegetarian": "yes", "name": "Tacombi", "outdoor_seating": "yes", "wheelchair": "yes"}}, {"type": "node", "id": 10739815894, "lat": 40.7210824, "lon": -73.8477001, "tags": {"addr:housenumber": "70-00", "addr:street": "Austin Street", "addr:unit": "201", "name": "Elara Caring", "office": "employment_agency"}}, {"type": "node", "id": 10739815895, "lat": 40.7204096, "lon": -73.8458474, "tags": {"addr:city": "Forest Hills", "addr:state": "NY", "addr:street": "Austin Street", "level": "-1", "name": "Queens Community House Youth", "office": "employment_agency", "opening_hours": "Mo-Fr 09:00-17:00", "phone": "+1 347 571 0000", "website": "https://www.qchnyc.org"}}, {"type": "node", "id": 10739819917, "lat": 40.7210163, "lon": -73.8439082, "tags": {"addr:city": "Forest Hills", "addr:postcode": "11375", "addr:state": "NY", "addr:street": "Queens Boulevard", "addr:unit": "404", "name": "The Law Firm of Davidoff & Associates", "office": "lawyer", "opening_hours": "Mo-Fr 09:00-17:00", "phone": "+1 718 268 8800", "website": "https://www.lawfirmdavidoff.com"}}, {"type": "node", "id": 10739819926, "lat": 40.7192347, "lon": -73.8420951, "tags": {"addr:housenumber": "72-13", "addr:street": "Austin Street", "amenity": "restaurant", "cuisine": "mediterranean", "name": "718 Bar & Grill"}}, {"type": "node", "id": 10884411103, "lat": 40.7199365, "lon": -73.8451186, "tags": {"addr:city": "Forest Hills", "addr:postcode": "11375", "addr:state": "NY", "addr:street": "71st Avenue", "amenity": "restaurant", "cuisine": "american"}}, {"type": "node", "id": 11234002672, "lat": 40.7204581, "lon": -73.8425699, "tags": {"amenity": "restaurant", "cuisine": "ramen", "name": "Kyuramen"}}, {"type": "node", "id": 11605806659, "lat": 40.7192004, "lon": -73.8425548, "tags": {"addr:housenumber": "72-02", "addr:street": "Austin Street", "brand": "GEICO", "brand:wikidata": "Q1498689", "name": "GEICO", "office": "insurance"}}, {"type": "node", "id": 11605806660, "lat": 40.7191395, "lon": -73.842384, "tags": {"brand": "H&R Block", "brand:wikidata": "Q5627799", "name": "H&R Block", "office": "tax_advisor"}}, {"type": "node", "id": 11605806661, "lat": 40.7192765, "lon": -73.8428057, "tags": {"addr:housenumber": "71-58", "addr:street": "Austin Street", "level": "1", "name": "Frank Barnett", "office": "lawyer"}}, {"type": "node", "id": 11606228202, "lat": 40.7193386, "lon": -73.8415234, "tags": {"addr:housenumber": "109-15", "addr:street": "72nd Road", "amenity": "school", "name": "Austin Medical Assistant Training"}}, {"type": "node", "id": 12897785878, "lat": 40.7233609, "lon": -73.8411294, "tags": {"name": "Susan Pepitone Esq", "office": "lawyer"}}, {"type": "node", "id": 13005513693, "lat": 40.7209396, "lon": -73.8444931, "tags": {"addr:street": "71st Avenue", "amenity": "cafe", "name": "Azal Coffee"}}, {"type": "node", "id": 13006664399, "lat": 40.7217653, "lon": -73.8463013, "tags": {"amenity": "restaurant", "cuisine": "greek"}}, {"type": "node", "id": 13135876077, "lat": 40.7209878, "lon": -73.8462327, "tags": {"addr:city": "Forest Hills", "addr:housenumber": "70-13", "addr:postcode": "11375", "addr:state": "NY", "addr:street": "Austin Street", "amenity": "bar", "contact:facebook": "https://www.facebook.com/iykyk.lounge.bar", "email": "iykyklounge@gmail.com", "name": "IYKYK Forest Hills", "opening_hours": "Mo-Tu off; We, Th 17:00-02:00; Fr, Sa 17:00-03:00; Su 17:00-01:00", "phone": "+1 718 880 2338", "website": "https://www.iykykloungenyc.com/"}}, {"type": "node", "id": 13172639076, "lat": 40.7206313, "lon": -73.8464333, "tags": {"addr:city": "Forest Hills", "addr:housenumber": "70-20", "addr:postcode": "11375", "addr:state": "NY", "addr:street": "Austin Street", "amenity": "restaurant", "contact:facebook": "https://www.facebook.com/MojoFoHi", "cuisine": "spanish", "description": "Experience Latin America's vibrant flavors at Mojo Latin. We serve modern takes on traditional dishes , including empanadas, tacos, and ceviches, alongside signature entrees such as our Churras", "email": "info@mojolatin.com", "name": "Mojo Forest Hills", "opening_hours": "Mo-Th 12:00\u201323:00; Fr 12:00-01:00; Sa 11:00-01:00; Su 11:00-23:00", "phone": "+1 718-261-6162", "website": "https://www.mojolatin.com/"}}, {"type": "way", "id": 263324655, "nodes": [2689493094, 2689493083, 8156130996, 8156130994, 2689493134, 2689493125, 2689493098, 8539677604, 2689493088, 2689493137, 2689493094], "tags": {"leisure": "park", "name": "MacDonald Park", "operator": "New York City Department of Parks and Recreation", "operator:short": "NYC Parks", "operator:type": "public", "operator:wikidata": "Q1894232", "wikidata": "Q49520435"}}]}