{"version": 0.6, "generator": "Overpass API 0.7.62.8 e802775f", "osm3s": {"timestamp_osm_base": "2025-12-01T03:56:57Z", "copyright": "The data included in this document is from www.openstreetmap.org. The data is made available under ODbL."}, "elements": [{"type": "node", "id": 357620429, "lat": 40.7438889, "lon": -73.9822222, "tags": {"amenity": "school", "ele": "12", "gnis:feature_id": "2083088", "name": "Lexington Avenue Campus Touro College"}}, {"type": "node", "id": 402743563, "lat": 40.748491, "lon": -73.9865012}, {"type": "node", "id": 402743567, "lat": 40.7479255, "lon": -73.9851602}, {"type": "node", "id": 402743571, "lat": 40.7483931, "lon": -73.9848166}, {"type": "node", "id": 402743573, "lat": 40.7489585, "lon": -73.9861574}, {"type": "node", "id": 419366609, "lat": 40.7435659, "lon": -73.9799283, "tags": {"amenity": "bar", "drink:beer": "yes", "drink:cider": "yes", "drink:liquor": "no", "drink:wine": "no", "name": "Craft + Carry", "outdoor_seating": "sidewalk;street", "shop": "beverages"}}, {"type": "node", "id": 1297282272, "lat": 40.7449757, "lon": -73.9831065, "tags": {"amenity": "restaurant", "bar": "yes", "cocktails": "yes", "cuisine": "american", "drink:beer": "draught", "drink:liquor": "yes", "drink:wine": "yes", "name": "Pando Park", "opening_hours": "Mo-Th 11:00-24:00, Fr-Sa 11:00-02:00, Su 11:00-24:00", "website": "https://www.pandopubs.com/location/pando-park/"}}, {"type": "node", "id": 1416478552, "lat": 40.7459042, "lon": -73.9803026, "tags": {"addr:housenumber": "222", "addr:postcode": "10016", "addr:street": "Lexington Avenue", "amenity": "restaurant", "cuisine": "diner", "drink:beer": "yes", "drink:wine": "yes", "name": "Murry Hill Diner", "opening_hours": "Mo-Su 07:00-22:00", "website": "https://www.murrayhilldiner.com"}}, {"type": "node", "id": 1709979773, "lat": 40.7451284, "lon": -73.9854212}, {"type": "node", "id": 2081537413, "lat": 40.7474363, "lon": -73.9850203, "tags": {"addr:city": "New York", "addr:country": "US", "addr:housenumber": "525", "addr:postcode": "10016", "addr:state": "NY", "addr:street": "5th Avenue", "amenity": "restaurant", "brand": "Bonchon Chicken", "brand:wikidata": "Q4941248", "check_date": "2025-06-17", "cuisine": "chicken;korean;sushi", "name": "Bonchon Chicken"}}, {"type": "node", "id": 2081539634, "lat": 40.7471688, "lon": -73.9852137, "tags": {"addr:city": "New York", "addr:country": "US", "addr:housenumber": "319", "addr:postcode": "10016", "addr:state": "NY", "addr:street": "5th Avenue", "amenity": "restaurant", "cuisine": "chicken;korean", "name": "LOVE Korean BBQ", "phone": "+1-646-669-8147", "website": "https://lovekoreanbbq.com/"}}, {"type": "node", "id": 2129755928, "lat": 40.7435315, "lon": -73.9842167, "tags": {"amenity": "pub", "internet_access": "wlan", "internet_access:fee": "no", "name": "Churchill's Pub", "toilets:wheelchair": "yes", "wheelchair": "yes"}}, {"type": "node", "id": 2549933013, "lat": 40.7436191, "lon": -73.9798913, "tags": {"addr:housenumber": "442", "addr:postcode": "10016", "addr:street": "3rd Avenue", "amenity": "restaurant", "cuisine": "australian", "name": "Ruby's Cafe", "outdoor_seating": "sidewalk;street"}}, {"type": "node", "id": 2549933023, "lat": 40.7436918, "lon": -73.979838, "tags": {"addr:housenumber": "444", "addr:postcode": "10016", "addr:street": "3rd Avenue", "amenity": "restaurant", "cocktails": "yes", "cuisine": "middle_eastern", "diet:kosher": "yes", "drink:beer": "yes", "drink:liquor": "yes", "drink:wine": "yes", "indoor_seating": "yes", "name": "Hummus Kitchen", "outdoor_seating": "yes"}}, {"type": "node", "id": 2554250887, "lat": 40.7447614, "lon": -73.984989, "tags": {"addr:city": "New York", "addr:country": "US", "addr:housenumber": "9*9", "addr:postcode": "10016", "addr:state": "NY", "addr:street": "Madison Avenue", "name": "DG Interactive", "note": "A creative digital marketing agency specializing in web design, branding / logo design, online ads, brochures, and media.", "office": "company", "website": "https://dg-interactive.com/"}}, {"type": "node", "id": 2555580688, "lat": 40.7437268, "lon": -73.9814828, "tags": {"amenity": "cafe", "name": "Penelope", "website": "https://www.penelopenyc.com/"}}, {"type": "node", "id": 2706918539, "lat": 40.7443641, "lon": -73.9843792}, {"type": "node", "id": 2706918543, "lat": 40.744391, "lon": -73.984443}, {"type": "node", "id": 2706918556, "lat": 40.7444931, "lon": -73.9842853}, {"type": "node", "id": 2706918561, "lat": 40.74452, "lon": -73.9843492}, {"type": "node", "id": 2706939803, "lat": 40.745401, "lon": -73.9848544, "tags": {"addr:housenumber": "118", "addr:postcode": "10016", "addr:street": "Madison Avenue", "amenity": "restaurant", "name": "Nonono"}}, {"type": "node", "id": 2706939961, "lat": 40.7449817, "lon": -73.9851367}, {"type": "node", "id": 2706939976, "lat": 40.7450426, "lon": -73.9850925}, {"type": "node", "id": 2706939988, "lat": 40.7451069, "lon": -73.9854368}, {"type": "node", "id": 2706940001, "lat": 40.7451678, "lon": -73.9853926}, {"type": "node", "id": 2709306570, "lat": 40.746788, "lon": -73.9843691, "tags": {"addr:housenumber": "17", "addr:postcode": "10016", "addr:street": "East 32nd Street", "amenity": "restaurant", "cuisine": "asian", "name": "Donsbogam Original"}}, {"type": "node", "id": 2709306573, "lat": 40.7478237, "lon": -73.9835152, "tags": {"addr:housenumber": "180", "addr:postcode": "10016", "addr:street": "Madison Avenue", "addr:unit": "Suite 1100", "amenity": "university", "brand": "DeVry University", "brand:short": "DeVry", "brand:wikidata": "Q3298441", "name": "Devry College", "phone": "+1-212-312-4300", "short_name": "DeVry", "website": "https://www.devry.edu/about/campus-locations/new-york/manhattan.html"}}, {"type": "node", "id": 2709307219, "lat": 40.7473824, "lon": -73.9838892}, {"type": "node", "id": 2709307268, "lat": 40.7475452, "lon": -73.9836593}, {"type": "node", "id": 2709307464, "lat": 40.7485145, "lon": -73.9864839}, {"type": "node", "id": 2709307499, "lat": 40.748689, "lon": -73.9863554}, {"type": "node", "id": 2709307502, "lat": 40.7487301, "lon": -73.9863252}, {"type": "node", "id": 2709335786, "lat": 40.7452911, "lon": -73.9845959, "tags": {"addr:housenumber": "121", "addr:postcode": "10016", "addr:street": "Madison Avenue", "amenity": "cafe", "branch": "Nomad", "check_date": "2025-09-02", "craft": "caterer", "cuisine": "coffee_shop;breakfast;sandwich;salad", "delivery": "yes", "diet:vegetarian": "yes", "drink:beer": "yes", "drink:coffee": "yes", "drink:espresso": "yes", "drink:tea": "yes", "drink:wine": "yes", "name": "Slate Cafe", "opening_hours": "Mo-Fr 07:30-17:00; Sa-Su 08:00-17:00", "payment:cash": "yes", "payment:credit_cards": "yes", "payment:debit_cards": "yes", "phone": "+1-212-683-7800", "takeaway": "yes", "toilets": "yes", "website": "https://slatecafe.com", "wheelchair": "limited"}}, {"type": "node", "id": 2709335792, "lat": 40.7451962, "lon": -73.9811158, "tags": {"addr:housenumber": "128", "addr:postcode": "10016", "addr:street": "East 32nd Street", "name": "VFS Global", "office": "company", "website": "https://www.vfsglobal.com"}}, {"type": "node", "id": 2709335829, "lat": 40.7444593, "lon": -73.9813057, "tags": {"addr:housenumber": "178", "addr:postcode": "10016", "addr:street": "Lexington Avenue", "alt_name": "Vezzo Thin Crust Pizza", "amenity": "restaurant", "cuisine": "pizza", "name": "Vezzo", "opening_hours": "Mo-We 11:30-21:30; Th-Fr 11:30-22:00; Sa 12:00-22:00; Su 12:00-21:30", "phone": "+1-212-839-8300", "website": "https://www.nycthincrust.com/location/vezzo-thin-crust/"}}, {"type": "node", "id": 2709336290, "lat": 40.7450084, "lon": -73.9813013}, {"type": "node", "id": 2709336333, "lat": 40.7450754, "lon": -73.9815232}, {"type": "node", "id": 2709347075, "lat": 40.7453122, "lon": -73.9787228, "tags": {"addr:housenumber": "488", "addr:postcode": "10016", "addr:street": "3rd Avenue", "amenity": "restaurant", "bar": "yes", "branch": "New York City", "cocktails": "yes", "cuisine": "steak_house", "drink:beer": "yes", "drink:liquor": "yes", "drink:wine": "yes", "name": "Medium Rare", "opening_hours": "Mo-Th 17:00-22:00; Fr 17:00-23:00; Sa 10:30-23:00; Su 10:30-22:00; Dec 25 off", "outdoor_seating": "yes", "phone": "+1-212-257-7205", "website": "https://www.mediumrarerestaurant.com/nyc"}}, {"type": "node", "id": 2709415082, "lat": 40.7482758, "lon": -73.9823964, "tags": {"addr:housenumber": "199", "addr:postcode": "10016", "addr:street": "Madison Avenue", "amenity": "cafe", "contact:instagram": "ciniconyc", "cuisine": "coffee_shop", "name": "Cinico Coffee Company", "opening_hours": "Mo-Su 08:00-18:00", "outdoor_seating": "sidewalk", "phone": "+1 212-884-1566", "website": "https://www.cinicocoffee.com/", "website:menu": "https://www.cinicocoffee.com/menu"}}, {"type": "node", "id": 2709415260, "lat": 40.7479008, "lon": -73.9821195}, {"type": "node", "id": 2709415263, "lat": 40.7479172, "lon": -73.9821587}, {"type": "node", "id": 2709415267, "lat": 40.7479287, "lon": -73.9821504}, {"type": "node", "id": 2709415269, "lat": 40.7479398, "lon": -73.9821768}, {"type": "node", "id": 2709415282, "lat": 40.7481045, "lon": -73.9819716}, {"type": "node", "id": 2709415283, "lat": 40.7481321, "lon": -73.9820372}, {"type": "node", "id": 2709702614, "lat": 40.7480727, "lon": -73.9833098}, {"type": "node", "id": 2709702618, "lat": 40.7483075, "lon": -73.9831378}, {"type": "node", "id": 2709702622, "lat": 40.7484971, "lon": -73.9843119}, {"type": "node", "id": 2709702624, "lat": 40.7485406, "lon": -73.9829666}, {"type": "node", "id": 2709702651, "lat": 40.7489648, "lon": -73.9839698}, {"type": "node", "id": 2710842348, "lat": 40.7463185, "lon": -73.9790796}, {"type": "node", "id": 2710842374, "lat": 40.7464588, "lon": -73.9789772}, {"type": "node", "id": 2710842378, "lat": 40.7464955, "lon": -73.9795021}, {"type": "node", "id": 2710842384, "lat": 40.7465202, "lon": -73.9791235}, {"type": "node", "id": 2710842407, "lat": 40.7466362, "lon": -73.9793975}, {"type": "node", "id": 2710845397, "lat": 40.7469172, "lon": -73.9805077, "tags": {"addr:housenumber": "107", "addr:postcode": "10016", "addr:street": "East 34th Street", "amenity": "restaurant", "cuisine": "italian", "name": "Villa Berulia", "opening_hours": "Tu-Fr 11:30-22:00; Sa 16:00-22:00"}}, {"type": "node", "id": 2710867068, "lat": 40.7478376, "lon": -73.9788709, "tags": {"addr:city": "New York", "addr:country": "US", "addr:housenumber": "135", "addr:postcode": "10016", "addr:state": "NY", "addr:street": "East 36th Street", "alt_name": "UN Mission Namibia", "country": "NA", "diplomatic": "embassy", "email": "info@namibiaunmission.org", "embassy": "mission", "fax": "+1-212-85-1561", "name": "Permanent Mission of Namibia to the United Nations", "office": "diplomatic", "official_name": "Permanent Mission of the Republic of Namibia to the United Nations", "phone": "+1-212-685-2003", "target": "UN"}}, {"type": "node", "id": 2710867284, "lat": 40.7478908, "lon": -73.9790356}, {"type": "node", "id": 2710867286, "lat": 40.7479178, "lon": -73.979101}, {"type": "node", "id": 2710867287, "lat": 40.7479249, "lon": -73.979096}, {"type": "node", "id": 2710867306, "lat": 40.7480046, "lon": -73.9793031}, {"type": "node", "id": 2710867308, "lat": 40.7480164, "lon": -73.9789461}, {"type": "node", "id": 2710867309, "lat": 40.7480254, "lon": -73.9793538}, {"type": "node", "id": 2710867313, "lat": 40.7480434, "lon": -73.9790116}, {"type": "node", "id": 2710867338, "lat": 40.7481537, "lon": -73.979197}, {"type": "node", "id": 2710867345, "lat": 40.7481746, "lon": -73.9792476}, {"type": "node", "id": 2710867490, "lat": 40.7487181, "lon": -73.9804348}, {"type": "node", "id": 2710867497, "lat": 40.7487769, "lon": -73.9803928}, {"type": "node", "id": 2710867505, "lat": 40.7488138, "lon": -73.9806668}, {"type": "node", "id": 2710867518, "lat": 40.748854, "lon": -73.9807642}, {"type": "node", "id": 2710867520, "lat": 40.7488624, "lon": -73.9806327}, {"type": "node", "id": 2710867526, "lat": 40.7488728, "lon": -73.9806252}, {"type": "node", "id": 2710867531, "lat": 40.7488772, "lon": -73.9807043}, {"type": "node", "id": 2710867538, "lat": 40.7488886, "lon": -73.9806962}, {"type": "node", "id": 2710867541, "lat": 40.7488911, "lon": -73.9807378}, {"type": "node", "id": 2908865720, "lat": 40.7484088, "lon": -73.9830633}, {"type": "node", "id": 2908944819, "lat": 40.7475802, "lon": -73.9837423}, {"type": "node", "id": 3201166294, "lat": 40.7455377, "lon": -73.9794683, "tags": {"addr:housenumber": "153", "addr:postcode": "10016", "addr:street": "East 33rd Street", "amenity": "restaurant", "cuisine": "thai", "delivery": "yes", "diet:gluten_free": "yes", "name": "One Two Thai", "opening_hours": "Mo-Su 11:30-15:30,14:30-22:00", "phone": "+1-646-918-6144", "takeaway": "yes"}}, {"type": "node", "id": 3265464818, "lat": 40.746485, "lon": -73.9822904, "tags": {"addr:housenumber": "48", "addr:street": "East 33rd Street", "amenity": "cafe", "brand": "Gregorys Coffee", "brand:wikidata": "Q28229714", "cuisine": "coffee_shop", "internet_access": "wlan", "name": "Gregorys Coffee", "note": "lack of apostrophe in name is not a typo"}}, {"type": "node", "id": 3356089617, "lat": 40.7451081, "lon": -73.9842044, "tags": {"addr:housenumber": "29", "addr:street": "East 30th Street", "amenity": "restaurant", "brewery": "various", "cuisine": "irish;coffee", "happy_hours": "Mo-Su 15:00-20:00", "name": "The Crooked Knife", "opening_hours": "Mo-Su 11:00-04:00", "payment:cash": "yes", "payment:credit_cards": "yes", "phone": "+1-212-696-2593", "reservation": "yes", "takeaway": "yes", "toilets": "yes", "website": "http://www.thecrookedknife.com/"}}, {"type": "node", "id": 3356089618, "lat": 40.7449212, "lon": -73.9837645, "tags": {"amenity": "restaurant", "cuisine": "wine", "name": "Wine:30"}}, {"type": "node", "id": 3356089619, "lat": 40.7447556, "lon": -73.9839134, "tags": {"amenity": "school", "name": "Rebecca School", "wikidata": "Q7301904"}}, {"type": "node", "id": 3356089621, "lat": 40.7455156, "lon": -73.9847757, "tags": {"addr:city": "New York", "addr:housenumber": "120", "addr:postcode": "10016", "addr:state": "NY", "addr:street": "Madison Avenue", "amenity": "college", "name": "American Academy of Dramatic Arts", "phone": "+1-800-463-8990", "short_name": "AADA", "website": "https://www.aada.edu/campuses/new-york-campus-overview", "wikidata": "Q389336", "wikipedia": "en:American Academy of Dramatic Arts"}}, {"type": "node", "id": 3356089622, "lat": 40.7457391, "lon": -73.9846188, "tags": {"amenity": "restaurant", "atm": "yes", "cuisine": "pizza", "name": "Bella Napoli", "takeaway": "yes", "toilets": "yes"}}, {"type": "node", "id": 3775439864, "lat": 40.7445472, "lon": -73.9808994, "tags": {"addr:city": "New York", "addr:housenumber": "181", "addr:postcode": "10016", "addr:state": "NY", "addr:street": "Lexington Avenue", "amenity": "restaurant", "cuisine": "mediterranean", "diet:gluten_free": "yes", "diet:healthy": "yes", "diet:mediterranean": "yes", "diet:vegetarian": "yes", "name": "Leonetta", "opening_hours": "Mo-Su 09:00-21:00", "website": "https://www.leonettanyc.com/"}}, {"type": "node", "id": 3793130994, "lat": 40.7447183, "lon": -73.9790898, "tags": {"addr:housenumber": "472", "addr:postcode": "10016", "addr:street": "3rd Avenue", "amenity": "cafe", "brand": "Blank Street Coffee", "brand:wikidata": "Q114792509", "check_date": "2024-06-11", "cuisine": "coffee_shop", "name": "Blank Street Coffee", "takeaway": "yes", "toilets": "no"}}, {"type": "node", "id": 3793131884, "lat": 40.7454859, "lon": -73.9793446, "tags": {"amenity": "restaurant", "cuisine": "japanese", "name": "Omakase 33"}}, {"type": "node", "id": 3793131887, "lat": 40.7454071, "lon": -73.9791565, "tags": {"addr:city": "New York", "addr:housenumber": "163", "addr:postcode": "10016", "addr:street": "East 33rd Street", "amenity": "restaurant", "cuisine": "french", "drink:beer": "yes", "drink:wine": "yes", "name": "Le Parisien", "phone": "+1-212-889-5489", "website": "https://www.leparisiennyc.com", "wheelchair": "limited"}}, {"type": "node", "id": 3793131888, "lat": 40.745353, "lon": -73.9790274, "tags": {"amenity": "restaurant", "bar": "yes", "cocktails": "yes", "cuisine": "american", "drink:beer": "draught", "drink:liquor": "yes", "drink:wine": "yes", "name": "Cask", "outdoor_seating": "street", "website": "https://www.casknyc.com/"}}, {"type": "node", "id": 3793131889, "lat": 40.7453806, "lon": -73.9790932, "tags": {"amenity": "restaurant", "cuisine": "vietnamese;sushi", "drink:beer": "yes", "drink:sake": "yes", "drink:wine": "yes", "name": "Phoshime", "opening_hours": "Mo-Th 11:30-23:00; Fr-Sa 11:30-24:00; Su 11:30-23:00", "phone": "+1-917-815-1661", "website": "https://www.phoshime.com"}}, {"type": "node", "id": 3793131890, "lat": 40.7450755, "lon": -73.9789117, "tags": {"addr:housenumber": "164", "addr:postcode": "10016", "addr:street": "East 33rd Street", "amenity": "cafe", "brand": "Matto Espresso", "brand:wikidata": "Q122209496", "cuisine": "coffee_shop", "drink:coffee": "yes", "drink:espresso": "yes", "name": "Matto Espresso", "outdoor_seating": "sidewalk", "takeaway": "yes", "website": "https://www.matto.com"}}, {"type": "node", "id": 3793135522, "lat": 40.7451818, "lon": -73.9791899, "tags": {"addr:housenumber": "162", "addr:street": "East 33rd Street", "amenity": "restaurant", "bar": "yes", "branch": "Midtown East", "diet:kosher": "only", "drink:beer": "draught", "drink:coffee": "yes", "drink:espresso": "yes", "drink:liquor": "yes", "drink:wine": "yes", "name": "2nd Ave Deli", "opening_hours": "Mo-Su 11:00-20:00", "phone": "+1 212-689-9000", "website": "https://2ndavedeli.com"}}, {"type": "node", "id": 3808860462, "lat": 40.7460811, "lon": -73.9794459, "tags": {"amenity": "restaurant", "cuisine": "japanese", "delivery": "yes", "drink:beer": "yes", "drink:sake": "yes", "drink:wine": "yes", "name": "Shokudo", "opening_hours": "Mo-Sa 11:30-23:00; Su 11:30-22:00", "phone": "+1-646-678-3228", "takeaway": "yes", "website": "https://www.shokudonyc34.com"}}, {"type": "node", "id": 3822494061, "lat": 40.7473377, "lon": -73.984293, "tags": {"addr:city": "New York", "addr:housenumber": "14", "addr:postcode": "10016", "addr:state": "NY", "addr:street": "East 33rd Street", "amenity": "pub", "contact:phone": "+1 212 481 1586", "contact:website": "http://www.rattlenhumbarnyc.com/home", "name": "Rattle n Hum", "opening_hours": "Mo-Th 11:00-02:00; Fr-Su 11:00-04:00"}}, {"type": "node", "id": 3826926964, "lat": 40.7445423, "lon": -73.9834869, "tags": {"amenity": "restaurant", "brand": "California Pizza Kitchen", "brand:wikidata": "Q15109854", "cuisine": "pizza", "name": "California Pizza Kitchen", "short_name": "CPK", "website": "https://www.cpk.com/locations/park-avenue-south/"}}, {"type": "node", "id": 3847053090, "lat": 40.7439118, "lon": -73.9813418, "tags": {"amenity": "restaurant", "name": "Lallisse"}}, {"type": "node", "id": 3956950395, "lat": 40.7437478, "lon": -73.9790582, "tags": {"addr:housenumber": "201", "addr:postcode": "10016", "addr:street": "East 31st Street", "amenity": "cafe", "cocktails": "yes", "cuisine": "american;breakfast", "drink:beer": "draught", "drink:coffee": "yes", "drink:espresso": "yes", "drink:liquor": "yes", "drink:wine": "yes", "happy_hours": "Mo-Sa 16:00-18:00", "name": "Banter", "opening_hours": "Mo-Fr 08:00-23:00, Sa 08:00-21:00, Su 08:00-17:00", "website": "https://www.banternyc.com", "wheelchair": "yes"}}, {"type": "node", "id": 3966939347, "lat": 40.744603, "lon": -73.9854712, "tags": {"amenity": "restaurant", "name": "Milleseme", "wheelchair": "no"}}, {"type": "node", "id": 3970473673, "lat": 40.7439569, "lon": -73.9833596, "tags": {"amenity": "restaurant", "name": "Fresh & Co"}}, {"type": "node", "id": 4019329481, "lat": 40.7473241, "lon": -73.9837495}, {"type": "node", "id": 4114487389, "lat": 40.7443652, "lon": -73.9813808, "tags": {"alt_name": "Asia Sariku & Sushi", "amenity": "restaurant", "cuisine": "chinese;sushi;thai", "name": "Hong Kong Noodle Sariku Sushi", "opening_hours": "Mo-Su 11:00-22:00", "phone": "+1-212-689-1025"}}, {"type": "node", "id": 4167956349, "lat": 40.7462218, "lon": -73.9848538, "tags": {"addr:housenumber": "15", "addr:postcode": "10016", "addr:street": "East 31st Street", "amenity": "restaurant", "cuisine": "korean", "name": "Take31", "website": "http://www.mytake31.com"}}, {"type": "node", "id": 4167956350, "lat": 40.7461934, "lon": -73.9847787, "tags": {"addr:city": "New York", "addr:housenumber": "17", "addr:postcode": "10016", "addr:state": "NY", "addr:street": "East 31st Street", "amenity": "restaurant", "contact:instagram": "https://www.instagram.com/hernameishan", "cuisine": "korean", "name": "Her Name is Han", "opening_hours": "Mo-Su 12:00-14:30; Mo-Fr 17:30-23:00; Sa-Su 17:30-00:00", "phone": "+1 212-779-9990", "website": "https://www.hernameishan.com", "website:booking": "https://www.resy.com/cities/ny/her-name-is-han", "website:menu": "https://www.hernameishan.com/han-menu"}}, {"type": "node", "id": 4234840590, "lat": 40.7447024, "lon": -73.9811337, "tags": {"amenity": "restaurant", "cuisine": "indian;chinese", "name": "Spice Symphony", "opening_hours": "Mo-Th 11:00-14:45,17:00-21:45; Fr-Sa 11:00-14:45,17:00-22:00; Su 11:00-14:45,17:00-21:45", "phone": "+1-212-545-7742", "website": "https://spicesymphony.com"}}, {"type": "node", "id": 4262776953, "lat": 40.7475456, "lon": -73.9813305, "tags": {"addr:city": "New York", "addr:housenumber": "12", "addr:postcode": "10016", "addr:street": "Park Avenue", "amenity": "restaurant", "cocktails": "yes", "cuisine": "asian", "diet:vegan": "only", "drink:beer": "yes", "drink:liquor": "yes", "drink:sake": "yes", "drink:tea": "yes", "drink:wine": "yes", "name": "Franchia", "opening_hours": "Mo-Th 12:00-22:00; Fr 12:00-22:30; Sa 13:00-22:30; Su 17:00-21:30", "outdoor_seating": "street", "reservation": "recommended", "website": "https://www.franchia.com/"}}, {"type": "node", "id": 4288405518, "lat": 40.7442428, "lon": -73.9839881, "tags": {"amenity": "pub", "name": "Tavern29", "outdoor_seating": "yes", "website": "https://tavern29.com/"}}, {"type": "node", "id": 4454807339, "lat": 40.7465547, "lon": -73.9854766, "tags": {"addr:city": "New York", "addr:housenumber": "303", "addr:postcode": "10016", "addr:state": "NY", "addr:street": "5th Avenue", "addr:unit": "1807", "branch": "Midtown", "brand": "KidsThrive NYC", "name": "KidsThrive NYC", "office": "educational_institution", "phone": "+1 212-685-3266", "website": "https://www.kidsthrivenyc.com/"}}, {"type": "node", "id": 4502573289, "lat": 40.7467647, "lon": -73.9848226, "tags": {"addr:housenumber": "6", "addr:postcode": "10016", "addr:street": "East 32nd Street", "amenity": "restaurant", "cuisine": "japanese", "email": "info@ichiumi.com", "fax": "+1 212-725-1925", "name": "IchiUmi", "name:en": "Ichiumi Japanese Buffet", "opening_hours": "Mo-Su 11:45-15:30,16:00-22:00", "payment:american_express": "yes", "payment:discover_card": "yes", "payment:mastercard": "yes", "payment:visa": "yes", "phone": "+1 212-725-1333", "reservation": "yes", "website": "https://ichiumi.com/"}}, {"type": "node", "id": 4818137924, "lat": 40.7434433, "lon": -73.9800242, "tags": {"addr:housenumber": "432", "addr:postcode": "10016", "addr:street": "3rd Avenue", "amenity": "cafe", "branch": "Murray Hill", "drink:coffee": "yes", "drink:espresso": "yes", "email": "30thstreet@birchcoffee.com", "name": "Birch Coffee", "opening_hours": "Mo-Su 07:30-16:00", "phone": "+1-212-686-1444", "website": "http://birchcoffee.com/locations/murray-hill/"}}, {"type": "node", "id": 4847502523, "lat": 40.7472688, "lon": -73.9841528, "tags": {"addr:postcode": "10016", "amenity": "cafe", "name": "Captain's Cafe", "opening_hours": "Mo-Su 06:00-21:00", "phone": "+12127797191"}}, {"type": "node", "id": 4847529522, "lat": 40.7472167, "lon": -73.9841182, "tags": {"addr:postcode": "10016", "amenity": "pub", "cuisine": "irish", "name": "Nelly Spillanes", "opening_hours": "Mo-Su 11:00-16:00", "phone": "+12127929673", "website": "http://www.nellyspillanes.com"}}, {"type": "node", "id": 4875126273, "lat": 40.7469708, "lon": -73.9853055, "tags": {"addr:floor": "2", "addr:housenumber": "315", "addr:street": "5th Avenue", "amenity": "cafe", "name": "Ginseng Museum Cafe", "opening_hours": "Su-We 17:00-02:00; Th 17:00-03:00; Fr-Sa 17:00-04:00"}}, {"type": "node", "id": 4947761822, "lat": 40.7470756, "lon": -73.9850776, "tags": {"addr:housenumber": "1", "addr:street": "East 32nd Street", "amenity": "restaurant", "name": "Kang Ho Dong Baekjeong"}}, {"type": "node", "id": 5143907528, "lat": 40.7435141, "lon": -73.979963, "tags": {"amenity": "restaurant", "cuisine": "italian", "drink:beer": "yes", "drink:wine": "yes", "indoor_seating": "yes", "name": "Norma", "opening_hours": "Mo-Th 12:00-22:00; Fr-Sa 12:00-22:30; Su 12:00-22:00", "outdoor_seating": "yes", "phone": "+1-212-889-0600", "website": "https://normarestaurant.com"}}, {"type": "node", "id": 5189146499, "lat": 40.7483977, "lon": -73.9855536, "tags": {"addr:city": "New York", "addr:housenumber": "350", "addr:postcode": "10118", "addr:state": "NY", "addr:street": "5th Avenue", "amenity": "restaurant", "cuisine": "sushi", "delivery": "yes", "name": "Sushi teria", "opening_hours": "Mo-Fr 11:00-09:00"}}, {"type": "node", "id": 5190422779, "lat": 40.748323, "lon": -73.9855181, "tags": {"addr:city": "New York", "addr:housenumber": "350", "addr:postcode": "10001", "addr:state": "NY", "addr:street": "5th Avenue", "name": "Acronym", "office": "marketing", "phone": "+1-212-691-7051", "website": "acronym.com"}}, {"type": "node", "id": 5190646501, "lat": 40.7483489, "lon": -73.9855516, "tags": {"addr:city": "New York", "addr:housenumber": "350", "addr:postcode": "10016", "addr:state": "NY", "addr:street": "5th Avenue", "addr:unit": "#5300", "description": "literary agent", "fax": "+1-212-687-9109", "name": "Peter Lampack Agency", "office": "company", "phone": "+1-212-687-9106", "website": "https://www.peterlampackagency.com/"}}, {"type": "node", "id": 5590322294, "lat": 40.7446896, "lon": -73.9849333, "tags": {"addr:housenumber": "99", "addr:street": "Madison Avenue", "level": "15", "name": "ThoughtWorks", "office": "it", "opening_hours": "Mo-Fr 09:00-17:00", "phone": "+1-646-412-5200", "website": "https://www.thoughtworks.com/"}}, {"type": "node", "id": 5590346824, "lat": 40.744893, "lon": -73.9853026, "tags": {"addr:housenumber": "102", "addr:street": "Madison Avenue", "level": "7", "name": "Mondo", "office": "employment_agency", "opening_hours": "Mo-Fr 07:00-19:00", "phone": "+1-212-257-5111", "website": "https://www.mondo.com/"}}, {"type": "node", "id": 5590865478, "lat": 40.7450047, "lon": -73.9847089, "tags": {"addr:housenumber": "105", "addr:street": "Madison Avenue", "name": "Prosek", "office": "company", "opening_hours": "Mo-Fr 08:30-17:30", "phone": "+1-212-279-3115", "website": "https://www.prosek.com/"}}, {"type": "node", "id": 5762528453, "lat": 40.746628, "lon": -73.9820041, "tags": {"addr:housenumber": "4", "addr:postcode": "10016", "addr:street": "Park Avenue", "amenity": "restaurant", "name": "Wolfgang\u2019s Steakhouse", "opening_hours": "Mo-Su 12:00-22:30", "phone": "+12128893369", "website": "https://wolfgangssteakhouse.net/", "wikidata": "Q20979453"}}, {"type": "node", "id": 5821296207, "lat": 40.7453041, "lon": -73.9813538}, {"type": "node", "id": 5835370878, "lat": 40.7443756, "lon": -73.9843295, "tags": {"addr:housenumber": "37E", "addr:postcode": "10016", "addr:street": "East 29th Street", "amenity": "pub", "name": "Wolfe Tone's"}}, {"type": "node", "id": 5876444850, "lat": 40.7465581, "lon": -73.9814145, "tags": {"addr:city": "New York", "addr:housenumber": "3", "addr:postcode": "10016", "addr:state": "NY", "addr:street": "Park Avenue", "amenity": "cafe", "brand": "Le Pain Quotidien", "brand:wikidata": "Q2046903", "cuisine": "coffee_shop", "name": "Le Pain Quotidien", "opening_hours": "Mo-Fr 07:00-20:00; Sa-Su 08:00-18:00", "phone": "+1-212-779-2905", "takeaway": "yes", "website": "https://www.lepainquotidien.com/store/3-park-ave/"}}, {"type": "node", "id": 6013503383, "lat": 40.7466917, "lon": -73.9846896, "tags": {"addr:city": "New York", "addr:housenumber": "12", "addr:postcode": "10016", "addr:state": "NY", "addr:street": "East 32nd Street", "amenity": "restaurant", "cuisine": "korean", "diet:vegetarian": "yes", "name": "Hangawi", "opening_hours": "Mo-Fr 17:00-21:30; Sa, Su 13:00-21:30", "phone": "+1-212-213-0077", "website": "https://hangawirestaurant.com/"}}, {"type": "node", "id": 6347916313, "lat": 40.7463142, "lon": -73.9799924, "tags": {"addr:housenumber": "120", "addr:postcode": "10016", "addr:street": "East 34th Street", "amenity": "cafe", "cuisine": "bagel;breakfast;sandwich", "drink:coffee": "yes", "drink:espresso": "yes", "drink:tea": "yes", "name": "Utopia Bagels", "opening_hours": "Mo-Su 06:00-16:00", "phone": "+1-646-914-6981", "takeaway": "yes", "website": "https://www.utopiabagelsny.com/location/utopia-bagels-midtown/"}}, {"type": "node", "id": 6352784394, "lat": 40.7465244, "lon": -73.980481, "tags": {"addr:housenumber": "120", "addr:postcode": "10016", "addr:street": "East 34th Street", "amenity": "restaurant", "cuisine": "middle_eastern", "drink:coffee": "yes", "drink:tea": "yes", "fax": "+1-212-532-1119", "name": "Miraj Healthy Grill", "phone": "+1-212-696-2818", "website": "https://www.mirajhealthygrill.com"}}, {"type": "node", "id": 6356581985, "lat": 40.7442489, "lon": -73.9831707, "tags": {"amenity": "restaurant", "name": "Kame Ramen"}}, {"type": "node", "id": 6461971851, "lat": 40.7438954, "lon": -73.9850741, "tags": {"addr:housenumber": "27", "addr:postcode": "10016", "addr:street": "East 28th Street", "brand": "WeWork", "brand:wikidata": "Q19995004", "fee": "yes", "name": "WeWork", "office": "coworking"}}, {"type": "node", "id": 6462874433, "lat": 40.7438416, "lon": -73.9849909, "tags": {"amenity": "restaurant", "bar": "yes", "cocktails": "yes", "cuisine": "chinese;japanese", "delivery": "yes", "drink:beer": "yes", "drink:liquor": "yes", "drink:wine": "yes", "fax": "+1-212-685-1520", "happy_hours": "Mo-Th 16:00-20:00; Fr 16:00-21:00", "name": "Chef 28", "opening_hours": "Mo-Fr 11:30-22:30; Su 12:00-22:30", "phone": "+1-212-685-8871", "takeaway": "yes", "website": "https://www.chef28.com"}}, {"type": "node", "id": 6807878874, "lat": 40.7448906, "lon": -73.9836804, "tags": {"addr:housenumber": "43", "addr:street": "East 30th Street", "amenity": "restaurant", "cocktails": "yes", "contact:email": "masonjarnyc@gmail.com", "contact:facebook": "https://www.facebook.com/MasonJarNY/", "contact:instagram": "https://www.instagram.com/masonjarnyc/", "contact:twitter": "https://www.twitter.com/MasonJarNYC", "cuisine": "barbecue", "drink:beer": "yes", "name": "The Mason Jar", "opening_hours": "We 11:30-01:00; Th-Sa 11:30-02:00; Mo, Tu, Su 11:30-00:00", "phone": "+1 212-213-3587", "reservation": "yes", "website": "https://masonjarny.com/"}}, {"type": "node", "id": 6892589495, "lat": 40.7466715, "lon": -73.9855078, "tags": {"addr:city": "New York", "addr:housenumber": "307", "addr:postcode": "10016", "addr:state": "NY", "addr:street": "5th Avenue", "addr:unit": "Floor 9", "email": "contact@carto.com", "name": "CARTO", "office": "company", "phone": "+1-917-463-3232", "website": "http://carto.com"}}, {"type": "node", "id": 7040832634, "lat": 40.7483257, "lon": -73.9786657, "tags": {"denomination": "greek_orthodox", "fax": "+1-212-977-7784", "name": "Greek Orthodox Ladies Philoptochos Society", "office": "association", "phone": "+1-212-977-7770", "religion": "christian", "website": "https://www.philoptochos.org"}}, {"type": "node", "id": 7045713638, "lat": 40.7441961, "lon": -73.9832046, "tags": {"amenity": "bar", "cocktails": "yes", "drink:beer": "draught", "drink:liquor": "yes", "drink:wine": "yes", "name": "Desmond's Tavern", "toilets": "yes", "toilets:unisex": "no"}}, {"type": "node", "id": 7596986631, "lat": 40.7436985, "lon": -73.9845074, "tags": {"addr:city": "New York", "addr:housenumber": "43", "addr:postcode": "10016", "addr:state": "NY", "addr:street": "East 28th Street", "amenity": "restaurant", "cuisine": "korean", "email": "info@atoboynyc.com", "name": "Atoboy", "opening_hours": "17:00-21:00; Fr,Sa 17:00-22:00", "phone": "+1-646-476-7217", "website": "https://www.atoboynyc.com/"}}, {"type": "node", "id": 7951139837, "lat": 40.7472523, "lon": -73.9822072, "tags": {"addr:housenumber": "56", "addr:postcode": "10016", "addr:street": "East 34th Street", "alt_name": "Hamachi Sushi 34", "amenity": "restaurant", "cuisine": "japanese", "drink:beer": "yes", "drink:sake": "yes", "drink:wine": "yes", "happy_hours": "Mo-Fr 16:00-19:00, Sa-Su 17:00-18:00", "name": "Hamachi Sushi", "opening_hours": "Mo-Fr 11:00-22:00, Sa-Su 12:00-22:00", "phone": "+1-646-559-8800", "short_name": "Hamachi 34"}}, {"type": "node", "id": 7951139843, "lat": 40.7472278, "lon": -73.9821484, "tags": {"addr:housenumber": "58", "addr:street": "East 34th Street", "amenity": "pub", "cuisine": "pub", "name": "The Long Hall"}}, {"type": "node", "id": 8075078405, "lat": 40.7463158, "lon": -73.9824586, "tags": {"addr:city": "New York", "addr:housenumber": "2", "addr:postcode": "10016", "addr:state": "NY", "addr:street": "Park Avenue", "addr:unit": "300", "contact:email": "Blaine@specializeddis.com", "contact:facebook": "http://www.facebook.com/SpecializedDIS/?ref=br_rs", "contact:linkedin": "http://www.linkedin.com/in/blaine-lipkin-a104a612/", "contact:twitter": "http://twitter.com/blaine_lipkin", "contact:website": "https://specializeddisabilityinsurance.com/", "name": "Specialized Disability Insurance Services", "office": "insurance", "opening_hours": "Mo-Fr 08:00-22:00", "operator": "Blaine Lipkin", "phone": "+1-646-757-9043", "start_date": "2009"}}, {"type": "node", "id": 8455829693, "lat": 40.7452485, "lon": -73.9822953, "tags": {"addr:city": "New York", "addr:housenumber": "424", "addr:postcode": "10016", "addr:state": "NY", "addr:street": "Park Avenue South", "amenity": "cafe", "branch": "29th & Park", "brand": "Starbucks", "brand:wikidata": "Q37158", "cuisine": "coffee_shop", "name": "Starbucks", "official_name": "Starbucks Coffee", "phone": "+1 212-725-0637", "ref": "16206", "takeaway": "yes", "website": "https://www.starbucks.com/store-locator/store/16206/29th-park-424-park-avenue-south-new-york-ny-100168022-us"}}, {"type": "node", "id": 8482948063, "lat": 40.743599, "lon": -73.9819737, "tags": {"addr:city": "New York", "addr:housenumber": "148", "addr:postcode": "10016", "addr:street": "Lexington Avenue", "name": "Cardoza Law", "office": "lawyer", "operator": "Yeshiva University"}}, {"type": "node", "id": 8996587926, "lat": 40.7468478, "lon": -73.9850316, "tags": {"amenity": "restaurant", "cuisine": "asian", "name": "Bentos", "phone": "+1 646 684 4006", "website": "https://www.thebentos.com/"}}, {"type": "node", "id": 9015418871, "lat": 40.7467911, "lon": -73.9824398, "tags": {"amenity": "restaurant", "name": "The Ainsworth Midtown"}}, {"type": "node", "id": 9092875648, "lat": 40.746876, "lon": -73.9845761, "tags": {"addr:city": "New York", "addr:housenumber": "11", "addr:postcode": "10016", "addr:state": "NY", "addr:street": "East 32nd Street", "amenity": "restaurant", "cuisine": "korean", "name": "Bangia", "opening_hours": "Su-Th 18:00-01:00; Fr-Sa 18:00-03:30", "phone": "+1-212-679-6790", "website": "https://www.bangianyc.com/"}}, {"type": "node", "id": 9344481635, "lat": 40.7464093, "lon": -73.9792964, "tags": {"entrance": "yes"}}, {"type": "node", "id": 9659208992, "lat": 40.747152, "lon": -73.9819585, "tags": {"amenity": "restaurant", "cuisine": "indian", "name": "Masala King", "outdoor_seating": "sidewalk"}}, {"type": "node", "id": 9793798565, "lat": 40.7466986, "lon": -73.9855994, "tags": {"addr:city": "New York", "addr:housenumber": "307", "addr:postcode": "10016", "addr:state": "NY", "addr:street": "5th Avenue", "amenity": "restaurant", "cuisine": "korean;barbecue", "diet:meat": "yes", "name": "Let's Meat", "phone": "+12128890089", "website": "https://www.letsmeatnyc.com/"}}, {"type": "node", "id": 9809369680, "lat": 40.7475219, "lon": -73.9836042}, {"type": "node", "id": 9873034475, "lat": 40.7452397, "lon": -73.9793194, "tags": {"amenity": "bar", "cocktails": "yes", "drink:beer": "draught", "drink:liquor": "yes", "name": "Lucky Lyndon", "website": "https://www.luckylyndon.com"}}, {"type": "node", "id": 9929832547, "lat": 40.7483523, "lon": -73.9855953, "tags": {"addr:city": "New York", "addr:housenumber": "350", "addr:postcode": "10118", "addr:state": "NY", "addr:street": "5th Avenue", "addr:unit": "Suite 6705", "brand": "Morgan & Morgan", "brand:wikidata": "Q111597979", "name": "Morgan & Morgan", "office": "lawyer", "opening_hours": "24/7", "phone": "+1-212-738-6299", "website": "https://www.forthepeople.com/new-york/"}}, {"type": "node", "id": 10099252092, "lat": 40.7483318, "lon": -73.98533, "tags": {"addr:city": "New York", "addr:housenumber": "350", "addr:postcode": "10118", "addr:state": "NY", "addr:street": "5th Avenue", "addr:unit": "Suite 6705", "brand": "Morgan & Morgan", "brand:wikidata": "Q111597979", "name": "Morgan & Morgan", "office": "lawyer", "opening_hours": "24/7", "phone": "+1-212-738-6299", "website": "https://www.forthepeople.com/new-york/"}}, {"type": "node", "id": 10650625205, "lat": 40.7457045, "lon": -73.985371, "tags": {"addr:city": "New York", "addr:housenumber": "13", "addr:postcode": "10016", "addr:state": "NY", "addr:street": "East 30th Street", "amenity": "restaurant", "contact:instagram": "okdongsik", "cuisine": "korean", "email": "okdongsik@handhospitality.com", "level": "1", "name": "Okdongsik", "opening_hours": "Mo off; Tu-Su 11:00-14:30,17:00-21:00", "phone": "+1-929-237-8164", "reservation": "yes", "start_date": "2022-11", "website": "https://www.handhospitality.com/okdongsik", "website:booking": "https://resy.com/cities/ny/okdongsik"}}, {"type": "node", "id": 10694203546, "lat": 40.7470064, "lon": -73.9853791, "tags": {"addr:city": "New York", "addr:floor": "2", "addr:housenumber": "315", "addr:postcode": "10016", "addr:state": "NY", "addr:street": "5th Avenue", "amenity": "restaurant", "cuisine": "korean", "name": "Soju Haus", "phone": "+1-212-213-2177", "website": "https://www.sojuhaus.com/"}}, {"type": "node", "id": 10797237705, "lat": 40.7449381, "lon": -73.9831337, "tags": {"addr:city": "New York", "addr:housenumber": "450", "addr:postcode": "10016", "addr:state": "NY", "addr:street": "Park Avenue South", "amenity": "cafe", "branch": "Nomad NYC", "cuisine": "coffee_shop", "cutting": "breakfast;sandwich", "drink:beer": "yes", "drink:coffee": "yes", "drink:espresso": "yes", "drink:tea": "yes", "drink:wine": "yes", "name": "Felix Roasting Co.", "opening_hours": "Mo-Su 08:00-17:00", "start_date": "2018", "website": "https://felixroastingco.com/"}}, {"type": "node", "id": 11045286604, "lat": 40.7453194, "lon": -73.9795124, "tags": {"amenity": "cafe", "cuisine": "coffee_shop", "name": "Arvaci Ciffee", "opening_hours": "Mo-Su 07:00-17:00", "outdoor_seating": "yes"}}, {"type": "node", "id": 11308445380, "lat": 40.7436376, "lon": -73.9844334, "tags": {"addr:city": "New York", "addr:housenumber": "45", "addr:postcode": "10016", "addr:state": "NY", "addr:street": "East 28th Street", "amenity": "bar", "name": "The Churchill Tavern", "opening_hours": "Mo-Su 11:30-04:00", "website": "https://thechurchillny.com"}}, {"type": "node", "id": 11561127141, "lat": 40.7472727, "lon": -73.983147, "tags": {"addr:housenumber": "173", "addr:postcode": "10016", "addr:street": "Madison Avenue", "amenity": "restaurant", "check_date": "2024-01-28", "contact:instagram": "ravaghpersiangrill", "cuisine": "mediterranean;persian", "email": "info@ravaghrestaurants.com", "level": "0", "name": "Ravagh Persian Grill", "opening_hours": "Mo-Su 11:00-23:00", "payment:cash": "yes", "payment:mastercard": "yes", "payment:visa": "yes", "phone": "+1 212-696-0300", "website": "https://www.ravaghrestaurants.com"}}, {"type": "node", "id": 11750775768, "lat": 40.7434654, "lon": -73.9820481, "tags": {"addr:housenumber": "142", "addr:postcode": "10016", "addr:street": "Lexington Avenue", "name": "Ravi Batra Law Firm", "office": "lawyer", "phone": "+1-212-545-1993"}}, {"type": "node", "id": 11751648251, "lat": 40.7449876, "lon": -73.9813167}, {"type": "node", "id": 11751648252, "lat": 40.7452969, "lon": -73.9813176}, {"type": "node", "id": 11751648253, "lat": 40.7452907, "lon": -73.9813223}, {"type": "node", "id": 11751648254, "lat": 40.7452359, "lon": -73.9811742}, {"type": "node", "id": 11751648255, "lat": 40.7452297, "lon": -73.9811788}, {"type": "node", "id": 11751648256, "lat": 40.7452163, "lon": -73.9811473}, {"type": "node", "id": 11993608158, "lat": 40.7451031, "lon": -73.9810513, "tags": {"addr:city": "New York", "addr:country": "US", "addr:housenumber": "192", "addr:postcode": "10016", "addr:state": "NY", "addr:street": "Lexington Avenue", "addr:unit": "1004", "contact:email": "casting@donaldcasecasting.com", "contact:facebook": "Donald-Case-Casting-222390384490076", "contact:fax": "+1 212 889-4074", "contact:phone": "+1 212 889-6555", "contact:website": "https://donaldcasecasting.com", "name": "Donald Case Casting", "office": "company", "opening_hours": "Mo-Fr 09:00-18:00", "payment:american_express": "yes", "payment:cheque": "yes", "payment:discover_card": "yes", "payment:mastercard": "yes", "payment:visa": "yes"}}, {"type": "node", "id": 12470628921, "lat": 40.7448189, "lon": -73.9821539, "tags": {"alt_name": "Sahola Flowers and Coffee", "amenity": "cafe", "cuisine": "coffee_shop;sandwich", "drink:coffee": "yes", "drink:espresso": "yes", "drink:tea": "yes", "name": "Sahola Cofee Shop", "opening_hours": "Mo-Th 08:00-17:00, Fr 08:00-18:00, Sa-Su 09:00-18:00", "short_name": "Sahola Flower Cafe", "website": "https://saholaflowers.com/flower-cafe/"}}, {"type": "node", "id": 12470628924, "lat": 40.7446861, "lon": -73.9818352, "tags": {"alt_name": "\u00c7ka Ka Q\u00ebllu", "amenity": "restaurant", "branch": "New York", "cocktails": "yes", "cuisine": "albanian", "drink:beer": "yes", "drink:liquor": "yes", "drink:wine": "yes", "name": "\u00c7ka ka Qellue", "opening_hours": "Mo-Su 12:00-23:00", "phone": "+1-212-213-2082", "website": "https://ckakaqellue.com"}}, {"type": "node", "id": 12525411571, "lat": 40.7473756, "lon": -73.9830554, "tags": {"amenity": "restaurant", "cuisine": "chinese", "name": "Dao Dim Sum", "opening_hours": "Mo-Su 11:00-23:00", "opening_hours:kitchen": "Mo-Su 11:00-21:30", "phone": "+1-646-918-6189", "website": "https://www.daodimsum.com"}}, {"type": "node", "id": 12618446035, "lat": 40.7465469, "lon": -73.9849199, "tags": {"name": "Similar Web", "office": "company"}}, {"type": "node", "id": 12662597204, "lat": 40.7469733, "lon": -73.9853512, "tags": {"addr:housenumber": "315 3FL", "addr:postcode": "10016", "addr:street": "5th Avenue", "amenity": "restaurant", "contact:instagram": "nubiani.nyc", "cuisine": "korean", "email": "info@nubianinyc.com", "name": "Nubiani", "opening_hours": "Mo-We 12:00-23:00; Th 12:00-00:00; Fr-Sa 12:00-01:00; Su 12:00-23:00", "phone": "+1-917-623-0807", "website": "https://www.nubianinyc.com/", "website:menu": "https://www.nubianinyc.com/menu"}}, {"type": "node", "id": 12684331061, "lat": 40.7440307, "lon": -73.985331, "tags": {"addr:city": "New York", "addr:housenumber": "79", "addr:postcode": "10016", "addr:state": "NY", "addr:street": "Madison Avenue", "name": "Ottinger Employment Lawyers", "office": "lawyer", "opening_hours": "Mo-Fr 09:00-18:00", "phone": "+1-347-492-1904", "phone:US": "+1-866-866-0148", "start_date": "1999-01-01", "website": "https://www.ottingerlaw.com/"}}, {"type": "node", "id": 12918215850, "lat": 40.7434273, "lon": -73.9837129, "tags": {"amenity": "cafe", "check_date": "2025-06-15", "cuisine": "coffee_shop", "name": "Le caf\u00e9"}}, {"type": "node", "id": 12920061436, "lat": 40.7469566, "lon": -73.9791731}, {"type": "node", "id": 12920061437, "lat": 40.7466425, "lon": -73.9794028}, {"type": "node", "id": 12920061438, "lat": 40.7464764, "lon": -73.9790069}, {"type": "node", "id": 12920061439, "lat": 40.7467905, "lon": -73.9787773}, {"type": "node", "id": 13000003956, "lat": 40.7476688, "lon": -73.9823057, "tags": {"amenity": "restaurant", "cuisine": "seafood;pizza;eclectic", "diet:kosher": "yes", "drink:coffee": "yes", "drink:espresso": "yes", "name": "Tiberias", "opening_hours": "Mo-Th 12:00-02:00, Sa (sunset+01:00)-02:00, Su 12:00-02:00", "phone": "+1-212-481-4222", "website": "https://www.tiberiasnyc.com"}}, {"type": "node", "id": 13043042758, "lat": 40.7434574, "lon": -73.9846977, "tags": {"addr:housenumber": "44", "addr:postcode": "10016", "addr:street": "East 28th Street", "amenity": "restaurant", "bar": "yes", "branch": "Nomad", "cocktails": "yes", "cuisine": "italian", "delivery": "yes", "drink:beer": "yes", "drink:espresso": "yes", "drink:wine": "yes", "happy_hours": "Mo-Sa 17:00-19:00", "name": "Tarallucci e Vino", "opening_hours": "Mo-Th 17:00-22:30, Fr-Sa 17:00-23:00", "outdoor_seating": "yes", "phone": "+1-212-779-1100", "takeaway": "yes", "website": "https://www.taralluccievino.net/nomad"}}, {"type": "node", "id": 13130604920, "lat": 40.746167, "lon": -73.9843862, "tags": {"addr:city": "New York", "addr:housenumber": "136", "addr:postcode": "10016", "addr:street": "Madison Avenue", "description": "Customerization Inc. \u2014 Zoho Advanced Partner. Implementation and configuration of Zoho CRM and Zoho One, process automation, integration, and support for small and medium-sized businesses.", "logo": "https://www.customerization.ca/wp-content/uploads/2022/07/customerization_logo.svg", "name": "Customerization", "note": "Office in Canada: 545 North Rivermede Rd. Unit 201,Concord, Ontario L4K 4H1", "office": "it", "start_date": "2016", "website": "https://www.customerization.ca/"}}, {"type": "way", "id": 34633854, "nodes": [402743563, 402743567, 402743571, 402743573, 2709307502, 2709307499, 2709307464, 402743563], "tags": {"addr:city": "New York", "addr:housenumber": "350", "addr:postcode": "10118", "addr:state": "NY", "addr:street": "5th Avenue", "architect": "Shreve, Lamb & Harmon", "architect:wikidata": "Q5188433", "building": "office", "building:architecture": "art_deco", "building:colour": "beige", "building:levels": "102", "building:use": "office", "check_date": "2021-04-21", "construction_date": "1930-1931", "ele": "15", "gnis:feature_id": "949654", "height": "443.2", "heritage": "2", "heritage:operator": "nrhp", "landmark": "12", "name": "Empire State Building", "name:en": "Empire State Building", "name:es": "Edificio Empire State", "name:he": "\u05d1\u05e0\u05d9\u05d9\u05df \u05d0\u05de\u05e4\u05d9\u05d9\u05e8 \u05e1\u05d8\u05d9\u05d9\u05d8", "name:hi": "\u090f\u092e\u094d\u092a\u093e\u092f\u0930 \u0938\u094d\u091f\u0947\u091f \u092c\u093f\u0932\u094d\u0921\u093f\u0902\u0917", "name:ko": "\uc5e0\ud30c\uc774\uc5b4 \uc2a4\ud14c\uc774\ud2b8 \ube4c\ub529", "name:ru": "\u042d\u043c\u043f\u0430\u0439\u0440-\u0421\u0442\u0435\u0439\u0442-\u0411\u0438\u043b\u0434\u0438\u043d\u0433", "name:uk": "\u0415\u043c\u043f\u0430\u0439\u0440-\u0421\u0442\u0435\u0439\u0442-\u0411\u0456\u043b\u0434\u0456\u043d\u0433", "name:zh": "\u5e1d\u56fd\u5927\u53a6", "nycdoitt:bin": "1015862", "office": "yes", "opening_hours": "Mo-Su 08:00-02:00", "phone": "+1-212-736-3100", "start_date": "1931", "tourism": "attraction", "website": "https://www.esbnyc.com/explore", "wheelchair": "yes", "wikidata": "Q9188", "wikimedia_commons": "Category:Empire State Building", "wikipedia": "en:Empire State Building"}}, {"type": "way", "id": 265040081, "nodes": [2706918539, 2706918543, 2706918561, 2706918556, 2706918539], "tags": {"addr:city": "New York", "addr:country": "US", "addr:housenumber": "35", "addr:postcode": "10016", "addr:state": "NY", "addr:street": "East 29th Street", "alt_name": "UN Mission Moldova", "building": "yes", "country": "MD", "diplomatic": "embassy", "email": "unmoldova@mfa.gov.md", "embassy": "mission", "fax": "+1-212-447-4067", "height": "16.8", "name": "Permanent Mission of Moldova to the United Nations", "nycdoitt:bin": "1016930", "office": "diplomatic", "official_name": "Permanent Mission of the Republic of Moldova to the United Nations", "phone": "+1-212-447-1867", "target": "UN", "website": "https://rponuny.mfa.gov.md"}}, {"type": "way", "id": 265042463, "nodes": [2706939961, 2706939988, 1709979773, 2706940001, 2706939976, 2706939961], "tags": {"addr:city": "New York", "addr:housenumber": "110", "addr:postcode": "10016", "addr:state": "NY", "addr:street": "Madison Avenue", "amenity": "restaurant", "building": "yes", "building:colour": "#E1E7EB", "building:levels": "17", "building:material": "brick", "cuisine": "korean", "height": "46", "name": "on", "nycdoitt:bin": "1016940", "opening_hours": "12:00-14:15,18:00-23:00", "phone": "+1-917-261-4326", "roof:material": "concrete", "roof:shape": "flat", "website": "https://www.onnewyork.net/"}}, {"type": "way", "id": 265274832, "nodes": [2709415260, 2709415263, 2709415267, 2709415269, 2709415283, 2709415282, 2709415260], "tags": {"addr:housenumber": "22", "addr:postcode": "10016", "addr:street": "East 35th Street", "alt_name": "UN Mission Serbia", "building": "yes", "country": "RS", "diplomatic": "embassy", "ele": "17", "embassy": "mission", "gnis:feature_id": "2083179", "height": "19.8", "name": "Permanent Mission of Serbia to the UN", "name:en": "Permanent Mission of Serbia to the UN", "name:sr": "\u0421\u0442\u0430\u043b\u043d\u0430 \u043c\u0438\u0441\u0438\u0458\u0430 \u0421\u0440\u0431\u0438\u0458\u0435 \u043f\u0440\u0438 \u0423\u041d", "name:sr-Latn": "Stalna misija Srbije pri UN", "nycdoitt:bin": "1017113", "office": "diplomatic", "official_name": "Permanent Mission of the Republic of Serbia to the United Nations", "official_name:en": "Permanent Mission of the Republic of Serbia to the United Nations", "official_name:sr": "\u0421\u0442\u0430\u043b\u043d\u0430 \u043c\u0438\u0441\u0438\u0458\u0430 \u0420\u0435\u043f\u0443\u0431\u043b\u0438\u043a\u0435 \u0421\u0440\u0431\u0438\u0458\u0435 \u043f\u0440\u0438 \u0423\u0458\u0435\u0434\u0438\u045a\u0435\u043d\u0438\u043c \u043d\u0430\u0446\u0438\u0458\u0430\u043c\u0430", "official_name:sr-Latn": "Stalna misija Republike Srbije pri Ujedinjenim nacijama", "phone": "+1-646-490-7067", "target": "UN", "website": "http://www.serbia-un.mfa.gov.rs"}}, {"type": "way", "id": 265301695, "nodes": [2709702614, 2709702622, 2709702651, 2709702624, 2908865720, 2709702618, 2709702614], "tags": {"addr:city": "New York", "addr:housenumber": "365", "addr:postcode": "10016", "addr:state": "NY", "addr:street": "5th Avenue", "amenity": "university", "building": "yes", "building:colour": "#D5CCAB", "building:part": "yes", "ele": "16", "gnis:feature_id": "2083153", "height": "44.3", "name": "CUNY Graduate School and University Center", "nycdoitt:bin": "1017097", "operator": "City University of New York", "roof:colour": "#989380", "roof:material": "concrete", "roof:shape": "flat", "website": "https://www.gc.cuny.edu/", "wikidata": "Q1024543", "wikipedia": "en:CUNY Graduate Center"}}, {"type": "way", "id": 265417094, "nodes": [2710842374, 2710842348, 9344481635, 2710842378, 2710842407, 2710842384, 2710842374], "tags": {"addr:city": "New York", "addr:housenumber": "243", "addr:postcode": "10016", "addr:state": "NY", "addr:street": "Lexington Avenue", "building": "yes", "height": "66.3", "name": "Opus Dei Headquarters", "nycdoitt:bin": "1087628", "office": "religion"}}, {"type": "way", "id": 265419207, "nodes": [2710867306, 2710867309, 2710867345, 2710867338, 2710867306], "tags": {"addr:city": "New York", "addr:country": "US", "addr:housenumber": "119", "addr:postcode": "10016", "addr:state": "NY", "addr:street": "East 36th Street", "alt_name": "UN Mission Armenia", "building": "yes", "building:colour": "#858693", "building:levels": "4", "country": "AM", "diplomatic": "embassy", "email": "armenia@un.int", "embassy": "mission", "fax": "+1-212-686-3934", "height": "16.5", "name": "Permanent Mission of Armenia to the United Nations", "nycdoitt:bin": "1018943", "office": "diplomatic", "official_name": "Permanent Mission of the Republic of Armenia to the United Nations", "phone": "+1-212-686-9079", "roof:material": "concrete", "roof:shape": "flat", "target": "UN", "website": "https://un.mfa.am/en", "wikidata": "Q112300348"}}, {"type": "way", "id": 265419247, "nodes": [2710867284, 2710867286, 2710867287, 2710867313, 2710867308, 2710867284], "tags": {"addr:city": "New York", "addr:country": "US", "addr:housenumber": "129", "addr:postcode": "10016", "addr:state": "NY", "addr:street": "East 36th Street", "alt_name": "UN Mission Chad", "building": "yes", "building:levels": "5", "country": "TD", "diplomatic": "embassy", "email": "chadmission.un@gmail.com", "embassy": "mission", "fax": "+1-212-986-0152", "height": "16.7", "name": "Permanent Mission of Chad to the United Nations", "nycdoitt:bin": "1018948", "office": "diplomatic", "official_name": "Permanent Mission of the Republic of Chad to the United Nations", "phone": "+1-212-986-0980", "roof:material": "concrete", "roof:shape": "flat", "target": "UN"}}, {"type": "way", "id": 265419269, "nodes": [2710867497, 2710867490, 2710867505, 2710867518, 2710867541, 2710867531, 2710867538, 2710867520, 2710867526, 2710867497], "tags": {"addr:city": "New York", "addr:country": "US", "addr:housenumber": "46", "addr:postcode": "10016", "addr:state": "NY", "addr:street": "Park Avenue", "alt_name": "UN Mission El Salvador", "building": "yes", "building:colour": "#C7C9C1", "building:levels": "4", "country": "SV", "diplomatic": "embassy", "email": "elsalvador@un.int", "embassy": "mission", "fax": "+1-212-725-3467", "height": "16.1", "name": "Permanent Mission of El Salvador to the United Nations", "nycdoitt:bin": "1017183", "office": "diplomatic", "official_name": "Permanent Mission of the Republic of El Salvador to the United Nations", "phone": "+1-212-679-1616", "roof:material": "concrete", "roof:shape": "flat", "target": "UN"}}, {"type": "way", "id": 615618932, "nodes": [11751648252, 11751648254, 11751648255, 11751648256, 2709336290, 11751648251, 2709336333, 5821296207, 11751648253, 11751648252], "tags": {"addr:housenumber": "122", "addr:postcode": "10016", "addr:street": "East 32nd Street", "alt_name": "Korean Cultural Center New York", "amenity": "arts_centre", "building": "yes", "fixme": "tagged temporary BIN 1802251, check back for permanent BIN", "height": "36.6", "name": "Korean Cultural Center NY", "nycdoitt:bin": "1802251", "office": "diplomatic", "phone": "+1-212-759-9550", "short_name": "KCCNY", "website": "https://www.koreanculture.org"}}, {"type": "way", "id": 1068603579, "nodes": [2908944819, 2709307219, 4019329481, 9809369680, 2709307268, 2908944819], "tags": {"leisure": "park", "material": "brick", "surface": "paving_stones"}}, {"type": "way", "id": 1395826930, "nodes": [12920061436, 12920061437, 12920061438, 12920061439, 12920061436], "tags": {"amenity": "college", "ele": "16", "gnis:feature_id": "966369", "isced:2011:level": "bachelor", "name": "Stern College for Women", "operator": "Yeshiva University", "operator:type": "religious", "website": "https://www.yu.edu/stern", "wikidata": "Q7611511", "wikipedia": "en:Stern College for Women"}}]}