{"version": 0.6, "generator": "Overpass API 0.7.62.8 e802775f", "osm3s": {"timestamp_osm_base": "2025-12-01T15:39:43Z", "copyright": "The data included in this document is from www.openstreetmap.org. The data is made available under ODbL."}, "elements": [{"type": "node", "id": 357551778, "lat": 40.6971081, "lon": -73.9116987, "tags": {"amenity": "school", "ele": "15", "gnis:feature_id": "945328", "name": "Bushwick High School"}}, {"type": "node", "id": 357619376, "lat": 40.6972222, "lon": -73.9141667, "tags": {"amenity": "school", "ele": "12", "gnis:feature_id": "2082095", "name": "All Leadership Secondary School"}}, {"type": "node", "id": 357619392, "lat": 40.6968035, "lon": -73.9118129, "tags": {"amenity": "school", "ele": "15", "gnis:feature_id": "2082100", "name": "Bushwick High School for Social Justice", "wikidata": "Q5001596"}}, {"type": "node", "id": 357619396, "lat": 40.6969455, "lon": -73.9121377, "tags": {"amenity": "school", "ele": "15", "gnis:feature_id": "2082101", "name": "New York Harbor School"}}, {"type": "node", "id": 2568698068, "lat": 40.7009707, "lon": -73.9126662}, {"type": "node", "id": 2568698096, "lat": 40.7010077, "lon": -73.9127286}, {"type": "node", "id": 2568698113, "lat": 40.7010242, "lon": -73.9127117}, {"type": "node", "id": 2568698142, "lat": 40.7010497, "lon": -73.9127997}, {"type": "node", "id": 2568698157, "lat": 40.7010662, "lon": -73.9127828}, {"type": "node", "id": 2568698171, "lat": 40.7010864, "lon": -73.9128616}, {"type": "node", "id": 2568698176, "lat": 40.7010906, "lon": -73.9126738}, {"type": "node", "id": 2568698189, "lat": 40.7011136, "lon": -73.9127126}, {"type": "node", "id": 2568698210, "lat": 40.7011512, "lon": -73.9126119}, {"type": "node", "id": 2568698219, "lat": 40.7011742, "lon": -73.9126507}, {"type": "node", "id": 2568698221, "lat": 40.7011781, "lon": -73.9124542}, {"type": "node", "id": 2568698231, "lat": 40.7011969, "lon": -73.9125327}, {"type": "node", "id": 2568698235, "lat": 40.7012142, "lon": -73.912515}, {"type": "node", "id": 2568698249, "lat": 40.7012393, "lon": -73.9126042}, {"type": "node", "id": 2568698268, "lat": 40.7012579, "lon": -73.9125852}, {"type": "node", "id": 2568698274, "lat": 40.7012952, "lon": -73.9126482}, {"type": "node", "id": 4491464942, "lat": 40.7020502, "lon": -73.915897, "tags": {"addr:housenumber": "178", "addr:street": "Wyckoff Avenue", "amenity": "restaurant", "cuisine": "ecuadorian", "name": "La Gualacena"}}, {"type": "node", "id": 5365041384, "lat": 40.7009726, "lon": -73.9139612, "tags": {"addr:city": "Brooklyn", "addr:housenumber": "226", "addr:postcode": "11237", "addr:state": "NY", "addr:street": "Wyckoff Avenue", "amenity": "bar", "brewery": "various", "name": "Old Stanley's", "opening_hours": "Mo-Fr 14:00-28:00; Sa, Su 12:00-28:00", "payment:cash": "only", "phone": "+1-917-893-9344", "toilets": "yes", "website": "https://www.facebook.com/Oldstanleysbar/"}}, {"type": "node", "id": 5367390412, "lat": 40.701142, "lon": -73.9143303, "tags": {"addr:housenumber": "220", "addr:street": "Wyckoff Avenue", "amenity": "bar", "brewery": "yes", "diet:vegan": "limited", "diet:vegetarian": "yes", "name": "Talon Bar", "opening_hours": "Su 13:00-02:00; Mo-Th 16:00-02:00; Fr 16:00-04:00; Sa 13:00-04:00", "phone": "+1-718-366-3192", "sport": "billiards", "toilets": "yes", "toilets:unisex": "yes", "website": "https://www.talonbar.com/"}}, {"type": "node", "id": 5368845850, "lat": 40.700944, "lon": -73.9092337, "tags": {"addr:housenumber": "341", "addr:street": "Saint Nicholas Avenue", "amenity": "restaurant", "cuisine": "chinese", "name": "K&K Super Buffett", "opening_hours": "Su 11:00-22:30; Mo-Th 10:30-22:30; Fr, Sa 10:00-23:30", "phone": "+1-718-381-7111"}}, {"type": "node", "id": 5368863986, "lat": 40.7006224, "lon": -73.9095872, "tags": {"addr:city": "Ridgewood", "addr:housenumber": "341", "addr:state": "NY", "addr:street": "Saint Nicholas Avenue", "amenity": "restaurant", "contact:instagram": "elmanabarestauranteny", "craft": "caterer", "cuisine": "ecuadorian", "delivery": "yes", "drink:coffee": "yes", "drink:tea": "yes", "name": "El Manaba", "opening_hours": "Mo-Th, Su 09:00-24:00; Fr, Sa 09:00-27:30", "phone": "+1-347-227-7506", "reservation": "yes", "website": "https://elmanabarestaurante.com/", "wheelchair": "yes"}}, {"type": "node", "id": 5368882501, "lat": 40.69997, "lon": -73.9091561, "tags": {"addr:housenumber": "54-55", "addr:street": "Myrtle Avenue", "amenity": "restaurant", "cuisine": "caribbean", "name": "Caribe Star", "opening_hours": "Mo-Th, Su 08:00-21:00; Fr, Sa 11:00-22:00", "phone": "+1-718-386-0387"}}, {"type": "node", "id": 5413047959, "lat": 40.7018784, "lon": -73.9089122, "tags": {"addr:housenumber": "1701", "addr:street": "Palmetto Street", "amenity": "restaurant", "cuisine": "latin_american", "delivery": "yes", "name": "El Fogon Costeno", "opening_hours": "Mo-Su 10:00-22:00", "payment:credit_cards": "yes", "phone": "+1-718-456-2555", "takeaway": "yes", "website": "https://elfogoncostenoridgewood.com/"}}, {"type": "node", "id": 5413062984, "lat": 40.6990752, "lon": -73.9128412, "tags": {"addr:housenumber": "1529", "addr:street": "Gates Avenue", "amenity": "restaurant", "cuisine": "ecuadorian", "delivery": "yes", "drink:coffee": "yes", "name": "La Caleta", "opening_hours": "Mo-Su 10:00-20:00", "phone": "+1-718-418-8050", "takeaway": "yes"}}, {"type": "node", "id": 5419416497, "lat": 40.6996659, "lon": -73.9157869, "tags": {"addr:housenumber": "266", "addr:street": "Irving Avenue", "amenity": "bar", "name": "Merv's", "opening_hours": "Mo-Th 17:00-02:00; Fr 17:00-04:00; Sa 15:00-04:00; Su 13:00-02:00", "payment:credit_cards": "yes", "phone": "+1-347-715-4255", "sport": "billiards", "toilets": "yes", "website": "https://dromedarybar.com/"}}, {"type": "node", "id": 5504114321, "lat": 40.6994506, "lon": -73.9137484, "tags": {"addr:city": "Brooklyn", "addr:housenumber": "1541", "addr:postcode": "11237", "addr:state": "NY", "addr:street": "Myrtle Avenue", "amenity": "restaurant", "cuisine": "mexican", "delivery": "yes", "name": "Vaqueros", "phone": "+1-718-381-1042", "takeaway": "yes"}}, {"type": "node", "id": 5517243775, "lat": 40.700512, "lon": -73.9126039, "tags": {"addr:city": "Brooklyn", "addr:housenumber": "299", "addr:postcode": "11237", "addr:state": "NY", "addr:street": "Wyckoff Avenue", "amenity": "restaurant", "brewery": "various", "cuisine": "american;coffee;burger;bagel;sandwich;pastry", "delivery": "yes", "delivery:fee": "no", "diet:vegetarian": "yes", "internet_access": "no", "name": "The Bushwick Diner", "opening_hours": "24/7", "payment:cash": "yes", "payment:credit_cards": "yes", "phone": "+1-718-552-2455", "takeaway": "yes", "toilets": "yes", "toilets:access": "permissive", "toilets:unisex": "yes", "toilets:wheelchair": "yes", "website": "http://thebushwickbagelhousebrooklyn.com/", "wheelchair": "yes"}}, {"type": "node", "id": 5541522600, "lat": 40.6994051, "lon": -73.9140057, "tags": {"addr:housenumber": "1533", "addr:street": "Myrtle Avenue", "amenity": "cafe", "cuisine": "coffee;tea;coffee_shop;sandwich", "internet_access": "no", "name": "Mixtape Bushwick", "opening_hours": "Mo-Fr 07:30-17:30; Sa, Su 08:30-17:30", "outdoor_seating": "yes", "payment:cash": "yes", "payment:credit_cards": "yes", "phone": "+1-718-381-5248", "smoking": "outside", "website": "https://mixtapebushwick.com/", "wheelchair": "yes"}}, {"type": "node", "id": 5541527930, "lat": 40.7004765, "lon": -73.9130992, "tags": {"addr:housenumber": "250", "addr:street": "Wyckoff Avenue", "amenity": "restaurant", "cuisine": "mexican", "fireplace": "yes", "name": "Espuma Viannely Deli & Grocery", "opening_hours": "Mo-Fr 11:00-15:00; Sa, Su 09:00-15:00", "phone": "+1-718-497-3262", "reservation": "only", "takeaway": "yes", "website": "http://www.viannelybrooklyn.com/", "wheelchair": "yes"}}, {"type": "node", "id": 5541527963, "lat": 40.7008138, "lon": -73.9131054, "tags": {"addr:housenumber": "283", "addr:street": "Wyckoff Avenue", "amenity": "restaurant", "cuisine": "mexican", "delivery": "yes", "delivery:fee": "no", "name": "Mi Sueno", "opening_hours": "Sa 12:00-18:00", "phone": "+1-718-821-6072", "takeaway": "yes"}}, {"type": "node", "id": 5541534557, "lat": 40.7007776, "lon": -73.913023, "tags": {"addr:housenumber": "285", "addr:street": "Wyckoff Avenue", "amenity": "restaurant", "cuisine": "chicken;pizza;american;burger", "delivery": "yes", "name": "Place Fried Chicken", "opening_hours": "Mo-Su 11:00-23:45", "payment:cash": "yes", "payment:credit_cards": "yes", "phone": "+1-718-386-4137", "takeaway": "yes", "website": "http://placefriedchickenandpizza.com/"}}, {"type": "node", "id": 5542942108, "lat": 40.6998747, "lon": -73.9120877, "tags": {"addr:housenumber": "280", "addr:street": "Wyckoff Avenue", "name": "Opportunities for a Better Tomorrow", "office": "employment_agency", "opening_hours": "Mo-Th 09:00-17:00; Fr 09:00-12:00", "phone": "+1-718-381-3222", "website": "https://obtjobs.org/"}}, {"type": "node", "id": 5542976159, "lat": 40.6998162, "lon": -73.9112732, "tags": {"addr:city": "Ridgewood", "addr:housenumber": "329", "addr:postcode": "11385", "addr:state": "NY", "addr:street": "Wyckoff Avenue", "amenity": "cafe", "branch": "329 Wyckoff Avenue", "brand": "Starbucks", "brand:wikidata": "Q37158", "cuisine": "coffee_shop", "internet_access": "wlan", "name": "Starbucks", "official_name": "Starbucks Coffee", "opening_hours": "Mo-Th 06:00-21:00; Fr 06:00-22:00; Sa 06:30-22:00; Su 06:30-21:00", "payment:cash": "yes", "payment:contactless": "yes", "payment:credit_cards": "yes", "payment:debit_cards": "yes", "phone": "+1 347-668-5736", "takeaway": "yes", "toilets": "yes", "toilets:wheelchair": "yes", "website": "https://www.starbucks.com/store-locator/store/1013205/329-wyckoff-ave-329-wyckoff-ave-ridgewood-ny-113852753-us", "wheelchair": "yes"}}, {"type": "node", "id": 5542993927, "lat": 40.7002849, "lon": -73.9121187, "tags": {"addr:housenumber": "309", "addr:street": "Wyckoff Avenue", "name": "Ulmar Insurance Brokerage Corporation", "office": "insurance", "phone": "+1-718-366-0050"}}, {"type": "node", "id": 5550498111, "lat": 40.7012212, "lon": -73.9144979, "tags": {"addr:housenumber": "216", "addr:street": "Wyckoff Avenue", "amenity": "restaurant", "cuisine": "spanish;coffee;burger;chicken;sandwich", "delivery": "yes", "name": "D' Montazo", "opening_hours": "Mo-Su 08:00-23:00", "payment:cash": "yes", "payment:credit_cards": "yes", "phone": "+1-718-497-3978", "reservation": "yes", "takeaway": "yes", "website": "http://www.dmontazorestaurant.com/", "wheelchair": "yes"}}, {"type": "node", "id": 5550510680, "lat": 40.7009851, "lon": -73.9134037, "tags": {"addr:housenumber": "277", "addr:street": "Wyckoff Avenue", "amenity": "pub", "brewery": "various", "leisure": "dance", "name": "Elmekkah Bar and Grill", "opening_hours": "Mo-Th, Su 17:00-26:00; Fr, Sa 17:30-28:00", "payment:cash": "yes", "payment:credit_cards": "yes", "phone": "+1-917-518-3475", "reservation": "yes", "toilets": "yes"}}, {"type": "node", "id": 5550983600, "lat": 40.7010358, "lon": -73.9140703, "tags": {"addr:housenumber": "222", "addr:street": "Wyckoff Avenue", "amenity": "restaurant", "cuisine": "mexican", "delivery": "yes", "name": "Cholula Deli Corporation", "opening_hours": "Mo-Su 10:00-22:00", "payment:cash": "only", "phone": "+1-718-417-0941", "takeaway": "yes"}}, {"type": "node", "id": 5551028286, "lat": 40.7016268, "lon": -73.9121908, "tags": {"addr:housenumber": "438", "addr:street": "Grove Street", "amenity": "school", "denomination": "catholic", "fax": "+1-718-821-1079", "name": "St. Brigid Catholic Academy", "phone": "+1-718-821-1477", "religion": "christian", "website": "https://stbrigidca-brooklyn.org/"}}, {"type": "node", "id": 5567565860, "lat": 40.6995595, "lon": -73.9099204, "tags": {"addr:housenumber": "54-22", "addr:street": "Myrtle Avenue", "name": "Delgado Travel", "office": "travel_agent", "opening_hours": "Mo-Fr 07:00-18:30; Sa 07:00-17:00; Su 08:00-17:00", "phone": "+1-718-628-8500", "website": "https://www.delgadotravelusa.com/"}}, {"type": "node", "id": 5567722091, "lat": 40.6993556, "lon": -73.9117639, "tags": {"addr:housenumber": "15-46", "addr:street": "Myrtle Avenue", "amenity": "restaurant", "cuisine": "noodle;chinese;tea", "delivery": "yes", "diet:vegetarian": "yes", "name": "Lee's Restaurant", "opening_hours": "Mo-Su 11:30-24:00", "payment:cash": "only", "phone": "+1-718-366-0114", "takeaway": "yes"}}, {"type": "node", "id": 5567725628, "lat": 40.6993461, "lon": -73.9118597, "tags": {"addr:city": "Brooklyn", "addr:housenumber": "1544", "addr:state": "NY", "addr:street": "Myrtle Avenue", "amenity": "restaurant", "cuisine": "salvadoran", "name": "El Salvador", "opening_hours": "Mo-Fr 11:00-22:00; Sa, Su 10:00-23:30", "phone": "+1-718-628-0606", "takeaway": "yes", "wheelchair": "yes"}}, {"type": "node", "id": 5567728349, "lat": 40.6996383, "lon": -73.9123029, "tags": {"addr:housenumber": "1549", "addr:street": "Gates Avenue", "amenity": "restaurant", "brewery": "Heineken", "cuisine": "mexican", "name": "La Fogata", "opening_hours": "Mo-Su 13:00-04:00", "payment:cash": "yes", "payment:credit_cards": "yes", "phone": "+1-347-789-4989", "takeaway": "yes", "wheelchair": "no"}}, {"type": "node", "id": 5567745824, "lat": 40.7000847, "lon": -73.9124166, "tags": {"addr:housenumber": "266", "addr:street": "Wyckoff Avenue", "name": "DJL Delani Travel", "office": "travel_agent", "phone": "+1-718-366-1022"}}, {"type": "node", "id": 5569359562, "lat": 40.6988956, "lon": -73.9144565, "tags": {"addr:housenumber": "302", "addr:street": "Irving Avenue", "amenity": "bar", "brewery": "various", "name": "302 Bar Lounge", "sport": "yes", "toilets": "yes"}}, {"type": "node", "id": 5569400736, "lat": 40.6989949, "lon": -73.9145861, "tags": {"addr:housenumber": "298", "addr:street": "Irving Avenue", "amenity": "restaurant", "cuisine": "mexican;coffee", "delivery": "yes", "name": "Taqueria Acatlan", "opening_hours": "24/7", "payment:cash": "yes", "payment:credit_cards": "yes", "phone": "+1-718-456-2095", "takeaway": "yes"}}, {"type": "node", "id": 5569409533, "lat": 40.6990241, "lon": -73.9146459, "tags": {"addr:housenumber": "298", "addr:street": "Irving Avenue", "amenity": "restaurant", "cuisine": "pizza", "name": "Empire Slice Pizza", "phone": "+1-347-404-7945", "takeaway": "yes"}}, {"type": "node", "id": 5569441157, "lat": 40.6992727, "lon": -73.9151273, "tags": {"addr:housenumber": "1513", "addr:street": "Myrtle Avenue", "amenity": "restaurant", "cuisine": "mexican;burrito;tacos;coffee", "delivery": "yes", "diet:vegetarian": "yes", "name": "La Mesita", "opening_hours": "Mo-Su 11:30-21:00", "payment:cash": "yes", "payment:credit_cards": "yes", "phone": "+1-718-366-8700", "takeaway": "yes", "website": "https://lamesitany.com/"}}, {"type": "node", "id": 5640363107, "lat": 40.702123, "lon": -73.9093225, "tags": {"addr:housenumber": "17-02", "addr:street": "Gates Avenue", "amenity": "school", "name": "BM Pottery Studio NY", "phone": "+1-718-374-4867", "website": "http://bmpotterystudiony.com/"}}, {"type": "node", "id": 6032849402, "lat": 40.698458, "lon": -73.915865, "tags": {"addr:city": "Brooklyn", "addr:housenumber": "301", "addr:postcode": "11237", "addr:state": "NY", "addr:street": "Grove Street", "description": "Building the power of immigrant and working class communities to achieve dignity and justice.", "name": "Make the Road New York", "office": "ngo", "opening_hours": "Mo-Fr 09:30-19:30", "phone": "+1-718-418-7690", "website": "https://maketheroadny.org/"}}, {"type": "node", "id": 6035389442, "lat": 40.7012093, "lon": -73.9137747, "tags": {"addr:city": "Brooklyn", "addr:housenumber": "265", "addr:postcode": "11237", "addr:state": "NY", "addr:street": "Wyckoff Avenue", "name": "St. Brigid Immigration Services", "office": "yes", "opening_hours": "Mo-Fr 09:00-18:00; Sa-Su 10:00-15:00", "phone": "+1-929-210-0202", "website": "https://jamesjkellyimmigrationservices.webs.com"}}, {"type": "node", "id": 6339896148, "lat": 40.6991197, "lon": -73.91422, "tags": {"addr:housenumber": "1492", "addr:street": "Myrtle Avenue", "amenity": "restaurant", "branch": "Bushwick", "cuisine": "mexican;burger;sandwich", "delivery": "only", "name": "rico chimi", "opening_hours": "Mo-Th 11:30-26:00; Fr, Sa 11:30-29:30; Su 11:30-27:00", "phone": "+1-718-366-3777", "website": "https://www.ricochimi.com/"}}, {"type": "node", "id": 6684650957, "lat": 40.6968608, "lon": -73.91031, "tags": {"addr:housenumber": "409", "addr:street": "Irving Avenue", "amenity": "restaurant", "cuisine": "chinese", "delivery": "yes", "indoor_seating": "yes", "name": "New Chang Hong", "opening_hours": "Mo-Th 11:00-23:00; Fr, Sa 11:00-00:00; Su 12:00-23:00", "outdoor_seating": "no", "phone": "+1-718-821-5988", "website": "http://newchanghongny.com/"}}, {"type": "node", "id": 7126233336, "lat": 40.6991201, "lon": -73.9108004, "tags": {"addr:housenumber": "300", "addr:street": "Wyckoff Avenue", "brand": "H&R Block", "brand:wikidata": "Q5627799", "name": "H&R Block", "office": "tax_advisor", "opening_hours": "Mo-Fr 09:00-21:00; Sa 09:00-17:00; Su 10:00-16:00", "phone": "+1-718-821-7737", "toilets": "yes", "website": "https://www.hrblock.com/local-tax-offices/new-york/brooklyn/300-wyckoff-ave/30915"}}, {"type": "node", "id": 7126281830, "lat": 40.6979333, "lon": -73.9128115, "tags": {"addr:housenumber": "343", "addr:street": "Palmetto Street", "addr:unit": "3", "name": "LAHAF", "office": "company"}}, {"type": "node", "id": 7126337086, "lat": 40.6992088, "lon": -73.9123247, "tags": {"addr:housenumber": "1542", "addr:street": "Gates Avenue", "amenity": "restaurant", "craft": "caterer", "cuisine": "dominican", "delivery": "yes", "drink:coffee": "yes", "name": "Carrizal", "opening_hours": "Mo-Sa 07:00-23:00; Su 08:00-23:00", "phone": "+1-718-497-2222", "takeaway": "yes"}}, {"type": "node", "id": 7126529285, "lat": 40.6990214, "lon": -73.9128813, "tags": {"addr:housenumber": "1525", "addr:street": "Gates Avenue", "alt_name": "New York Titlan", "amenity": "restaurant", "cuisine": "mexican;sandwich;breakfast", "drink:coffee": "yes", "name": "NEWYORKTITLAN", "opening_hours": "Mo-Fr 09:00-16:00; Sa, Su 09:00-17:00", "phone": "+1-347-715-5387", "takeaway": "yes", "website": "https://newyorktitlan.myshopify.com/"}}, {"type": "node", "id": 8000899314, "lat": 40.6988812, "lon": -73.9091017, "tags": {"addr:housenumber": "16-12", "addr:street": "Madison Street", "amenity": "restaurant", "cuisine": "mexican", "delivery": "yes", "diet:vegan": "limited", "diet:vegetarian": "yes", "name": "Taqueria El Patron Mexican Grill", "opening_hours": "Mo-Th 12:00-22:00; Fr-Su 12:00-23:00", "outdoor_seating": "yes", "takeaway": "yes", "website": "https://www.taqueriaelpatrontogo.com/"}}, {"type": "node", "id": 8589599904, "lat": 40.6955045, "lon": -73.9116249}, {"type": "node", "id": 8589599912, "lat": 40.6964182, "lon": -73.9118684}, {"type": "node", "id": 8589606319, "lat": 40.6964344, "lon": -73.9127032}, {"type": "node", "id": 8589606342, "lat": 40.6958936, "lon": -73.9123041}, {"type": "node", "id": 8589606349, "lat": 40.6967825, "lon": -73.9115053}, {"type": "node", "id": 8589606356, "lat": 40.696238, "lon": -73.9123603}, {"type": "node", "id": 8589606362, "lat": 40.6960087, "lon": -73.9131274}, {"type": "node", "id": 8589606382, "lat": 40.6956666, "lon": -73.9125303}, {"type": "node", "id": 8589606387, "lat": 40.6963616, "lon": -73.9107707}, {"type": "node", "id": 8589606396, "lat": 40.6965321, "lon": -73.9120671}, {"type": "node", "id": 10024111241, "lat": 40.6992617, "lon": -73.9128696, "tags": {"addr:housenumber": "1524", "addr:postcode": "11237", "addr:street": "Myrtle Avenue", "amenity": "cafe", "cuisine": "french", "diet:vegan": "yes", "name": "L'imprimerie", "name:en": "L'imprimerie", "shop": "bakery"}}, {"type": "node", "id": 11141909156, "lat": 40.7004668, "lon": -73.9093259, "tags": {"addr:city": "Ridgewood", "addr:housenumber": "349", "addr:postcode": "11385", "addr:state": "NY", "addr:street": "Saint Nicholas Avenue", "amenity": "restaurant", "catering": "yes", "cuisine": "japanese;sushi;steak", "delivery": "yes", "drink:sake": "yes", "drink:wine": "yes", "name": "Miyama", "opening_date": "2023-08-25", "opening_hours": "Mo-Th 11:30-22:30; Fr-Sa 11:30-23:00; Su 12:00-22:00", "phone": "+1-917-909-0833", "reservation": "yes", "takeaway": "yes", "website": "https://www.miyamany.com", "website:orders": "https://order.mealkeyway.com/customer/release/index?mid=714a726a55337936435230617931544b314e485436673d3d#/main"}}, {"type": "node", "id": 11162257422, "lat": 40.7007283, "lon": -73.9112011, "tags": {"addr:city": "Brooklyn", "addr:housenumber": "1597", "addr:postcode": "11237", "addr:state": "NY", "addr:street": "Gates Avenue", "amenity": "cafe", "contact:instagram": "newworldnutrition", "name": "New World Nutrition", "opening_hours": "Mo-Su 06:00-21:00", "payment:american_express": "yes", "payment:apple_pay": "yes", "payment:cashapp": "yes", "payment:discover_card": "yes", "payment:google_pay": "yes", "payment:mastercard": "yes", "payment:visa": "yes", "shop": "health_food", "toilets": "yes", "toilets:access": "customers"}}, {"type": "node", "id": 11688261796, "lat": 40.7018667, "lon": -73.9124034, "tags": {"addr:city": "Brooklyn", "addr:housenumber": "280", "addr:postcode": "11237", "addr:state": "NY", "addr:street": "Saint Nicholas Avenue", "name": "On Homes NYC. Realty Corp.", "office": "estate_agent", "phone": "+1-718-366-3535;+1-917-299-0015"}}, {"type": "node", "id": 12601967787, "lat": 40.6972035, "lon": -73.9119544, "tags": {"amenity": "school", "mascot": "Tigers", "name": "Academy for Excellence in Leadership", "phone": "+1-718-381-7100"}}, {"type": "node", "id": 13311468092, "lat": 40.6959834, "lon": -73.9111477}, {"type": "node", "id": 13311490205, "lat": 40.6958293, "lon": -73.9113012}, {"type": "way", "id": 250426881, "nodes": [2568698231, 2568698235, 2568698221, 2568698068, 2568698096, 2568698113, 2568698157, 2568698142, 2568698171, 2568698274, 2568698268, 2568698249, 2568698231]}, {"type": "way", "id": 250426883, "nodes": [2568698176, 2568698210, 2568698219, 2568698189, 2568698176]}, {"type": "way", "id": 925546282, "nodes": [8589606362, 8589606319, 8589606356, 8589606396, 8589599912, 8589606349, 8589606387, 13311468092, 13311490205, 8589599904, 8589606342, 8589606382, 8589606362], "tags": {"ele": "14", "gnis:feature_id": "2377113", "leisure": "park", "name": "Bushwick Playground", "operator": "New York City Department of Parks and Recreation", "operator:short": "NYC Parks", "operator:type": "government", "operator:wikidata": "Q1894232", "website": "https://www.nycgovparks.org/parks/bushwick-playground_knickerbocker-ave", "wikidata": "Q34812938"}}, {"type": "relation", "id": 3364555, "members": [{"type": "way", "ref": 250426881, "role": "outer"}, {"type": "way", "ref": 250426883, "role": "inner"}], "tags": {"addr:housenumber": "406", "addr:postcode": "11237", "addr:street": "Grove Street", "amenity": "school", "building": "yes", "ele": "19", "gnis:feature_id": "963399", "height": "15.6", "name": "Saint Brigids School", "nycdoitt:bin": "3397530", "type": "multipolygon"}}]}