{"version": 0.6, "generator": "Overpass API 0.7.62.8 e802775f", "osm3s": {"timestamp_osm_base": "2025-12-01T17:05:52Z", "copyright": "The data included in this document is from www.openstreetmap.org. The data is made available under ODbL."}, "elements": [{"type": "node", "id": 357618189, "lat": 40.7544444, "lon": -73.9311111, "tags": {"amenity": "school", "ele": "12", "gnis:feature_id": "2080394", "name": "Queens Lutheran School"}}, {"type": "node", "id": 2852974377, "lat": 40.7529931, "lon": -73.9350892}, {"type": "node", "id": 2852974379, "lat": 40.7530017, "lon": -73.9351054}, {"type": "node", "id": 2852974387, "lat": 40.7530492, "lon": -73.9350376}, {"type": "node", "id": 2852974398, "lat": 40.7530783, "lon": -73.9352495}, {"type": "node", "id": 2852974407, "lat": 40.7531589, "lon": -73.9353899}, {"type": "node", "id": 2852974417, "lat": 40.7532114, "lon": -73.9353449}, {"type": "node", "id": 2853050591, "lat": 40.754026, "lon": -73.929788, "tags": {"addr:housenumber": "37-10", "addr:postcode": "11101", "addr:street": "33rd Street", "amenity": "restaurant", "cuisine": "seafood", "level": "0", "name": "Astoria Seafood", "opening_hours": "Tu-Sa 12:00-21:00", "outdoor_seating": "yes", "website": "https://www.astoriaseafoodnyc.com/"}}, {"type": "node", "id": 3862797058, "lat": 40.754429, "lon": -73.933859, "tags": {"addr:housenumber": "38-08", "addr:street": "29th Street", "amenity": "cafe", "name": "Our Coffee Shop"}}, {"type": "node", "id": 3862902958, "lat": 40.754568, "lon": -73.933774, "tags": {"amenity": "restaurant", "name": "Beija-flor"}}, {"type": "node", "id": 3862918057, "lat": 40.753669, "lon": -73.934503, "tags": {"addr:housenumber": "38-40", "addr:street": "29th Street", "amenity": "restaurant", "cuisine": "gastropub", "name": "DK PubLIC", "outdoor_seating": "yes"}}, {"type": "node", "id": 3865144960, "lat": 40.754423, "lon": -73.935709, "tags": {"amenity": "bar", "description": "Roof deck", "name": "Michael's Caf\u00e9 & Bar", "opening_hours": "Mo-Su 07:00-22:00"}}, {"type": "node", "id": 4311341790, "lat": 40.7533528, "lon": -73.9344179, "tags": {"addr:housenumber": "39-05", "addr:postcode": "11101", "addr:street": "29th Street", "amenity": "restaurant", "cuisine": "steak_house", "name": "Rio Grande Churrascaria", "opening_hours": "Mo-Su 07:00-10:00, 17:30-22:00", "phone": "+1-718-361-1707", "website": "http://www.riograndechurrascaria.com/site"}}, {"type": "node", "id": 10772011576, "lat": 40.7518414, "lon": -73.9292138, "tags": {"addr:city": "Long Island City", "addr:housenumber": "34-18", "addr:postcode": "11101", "addr:state": "NY", "addr:street": "Northern Boulevard", "consulate": "consulate_general", "country": "BD", "diplomatic": "consulate", "diplomatic:services:citizen_services": "yes", "name": "Consulate General of Bangladesh", "office": "diplomatic", "opening_hours": "Mo-Fr 09:30-17:30", "phone": "+1-212-599-6767", "target": "US", "website": "https://bdcgny.org"}}, {"type": "node", "id": 10772011578, "lat": 40.7518467, "lon": -73.9292784, "tags": {"addr:city": "Long Island City", "addr:housenumber": "34-18", "addr:postcode": "11101", "addr:state": "NY", "addr:street": "Northern Boulevard", "name": "Super Kickers Sport Corporation", "office": "company", "opening_hours": "Mo-Fr 09:00-14:00", "phone": "+1-888-439-1068", "website": "https://www.superkickers.com/"}}, {"type": "node", "id": 10772011579, "lat": 40.7518176, "lon": -73.9299677, "tags": {"addr:city": "Long Island City", "addr:housenumber": "3328", "addr:postcode": "11101", "addr:state": "NY", "addr:street": "Northern Boulevard", "government": "public_service", "name": "Queens Income Support Center", "note": "Entrance on One Honeywell Street\nThis center includes a Children's Corner, which provides supervision during limited hours.", "office": "government", "opening_hours": "Mo-Fr 08:30-17:00", "phone": "+1-718-752-3937", "website": "https://www.nyc.gov/site/hra/locations/snap-locations.page#queens"}}, {"type": "node", "id": 10772011581, "lat": 40.7515493, "lon": -73.9311473, "tags": {"addr:city": "Long Island City", "addr:housenumber": "1", "addr:postcode": "11101", "addr:state": "NY", "addr:street": "Honeywell Street", "addr:unit": "Floor 1", "name": "East River Job Center", "note": "Located in \nThe Center Building\n3300 Northern Blvd. \nQueens, NY 11101\n\nSome businesses have entrance on Honeywell  and separate address", "office": "employment_agency", "opening_hours": "Mo-Fr 08:30-17:00", "phone": "+1-718-784-2922", "website": "https://www.nyc.gov/site/hra/locations/job-locations-and-service-centers.page#queens"}}, {"type": "node", "id": 11278151796, "lat": 40.7546481, "lon": -73.9308065, "tags": {"government": "social_security", "name": "Social Security Administration", "office": "government", "operator": "Social Security Administration", "operator:short": "SSA", "operator:wikidata": "Q2824618"}}, {"type": "node", "id": 11289970313, "lat": 40.7534347, "lon": -73.9340652, "tags": {"amenity": "cafe", "name": "Artpresso Cafe"}}, {"type": "node", "id": 11481096478, "lat": 40.7527041, "lon": -73.9331668, "tags": {"addr:housenumber": "30-02", "addr:street": "39th Avenue", "amenity": "restaurant", "branch": "Long Island City", "contact:instagram": "silkykitchennyc", "cuisine": "Chinese; hunan", "indoor_seating": "yes", "internet_access": "wlan", "level": "0", "name": "Silky Kitchen", "opening_hours": "Mo-Su 11:00-20:45", "phone": "+1 845-617-6578", "takeaway": "yes", "website": "https://silkykitchen.com/", "wheelchair": "yes"}}, {"type": "node", "id": 11481294997, "lat": 40.7544429, "lon": -73.9335482, "tags": {"addr:housenumber": "38-01", "addr:street": "29th Street", "amenity": "restaurant", "cuisine": "mexican", "delivery": "yes", "name": "Cafe Xochimilco", "operational_status": "Mo, Tu 07:00-17:00; We 07:00-21:00; Th, Fr 07:00-10:00; Sa 08:00-22:00; Su 08:00-17:00", "takeaway": "yes", "website": "https://cafexochimilco.wixsite.com/cafexochimilco"}}, {"type": "node", "id": 12195636501, "lat": 40.7535922, "lon": -73.931946, "tags": {"addr:housenumber": "01", "addr:street": "38th Avenue", "amenity": "restaurant", "name": "Suzuki Shokudo", "opening_hours": "Mo-Sa 12:00-15:00, 17:00-21:30", "website": "https://www.suzukishokudo.com/"}}, {"type": "way", "id": 281330705, "nodes": [2852974387, 2852974377, 2852974379, 2852974398, 2852974407, 2852974417, 2852974387], "tags": {"addr:housenumber": "39-22", "addr:postcode": "11101", "addr:street": "29th Street", "leisure": "park", "name": "Windmill Community Garden"}}]}