{"version": 0.6, "generator": "Overpass API 0.7.62.8 e802775f", "osm3s": {"timestamp_osm_base": "2025-12-01T15:28:23Z", "copyright": "The data included in this document is from www.openstreetmap.org. The data is made available under ODbL."}, "elements": [{"type": "node", "id": 2552595826, "lat": 40.6218894, "lon": -74.0315305, "tags": {"addr:housenumber": "8801", "addr:postcode": "11209", "addr:street": "3rd Avenue", "amenity": "restaurant", "bar": "yes", "cocktails": "yes", "cuisine": "american;brunch", "drink:beer": "draught", "drink:liquor": "yes", "drink:wine": "yes", "name": "Cebu", "opening_hours": "Mo-Th 15:00-22:00; Fr 12:00-23:00; Sa 11:00-23:00; Su 11:00-22:00", "outdoor_seating": "sidewalk;street", "phone": "+1-718-492-5095", "website": "https://www.cebubrooklyn.com"}}, {"type": "node", "id": 2552595848, "lat": 40.6211082, "lon": -74.0292547, "tags": {"addr:housenumber": "8812", "addr:postcode": "11209", "addr:street": "4th Avenue", "amenity": "restaurant", "cuisine": "japanese", "name": "Arirang Hibachi Steakhouse"}}, {"type": "node", "id": 2552595860, "lat": 40.6215586, "lon": -74.0316757, "tags": {"addr:housenumber": "8817", "addr:postcode": "11209", "addr:street": "3rd Avenue", "name": "Brooklyn Realty Center", "office": "estate_agent", "phone": "+1-718-745-6969"}}, {"type": "node", "id": 2552595875, "lat": 40.6212293, "lon": -74.0318014, "tags": {"addr:city": "Brooklyn", "addr:housenumber": "8901", "addr:postcode": "11209", "addr:state": "NY", "addr:street": "3rd Avenue", "amenity": "cafe", "cuisine": "italian", "drink:coffee": "yes", "drink:espresso": "yes", "drink:wine": "yes", "name": "Panino Rustico", "outdoor_seating": "sidewalk", "phone": "+1-718-333-5144"}}, {"type": "node", "id": 2552595879, "lat": 40.6210655, "lon": -74.0318712, "tags": {"addr:housenumber": "8909", "addr:postcode": "11209", "addr:street": "3rd Avenue", "alt_name": "Edward Jones Investments", "branch": "Patrick Gilbride", "brand": "Edward Jones", "brand:wikidata": "Q5343830", "name": "Edward Jones", "office": "financial_advisor", "phone": "+1-718-833-0207", "website": "https://www.edwardjones.com/us-en/financial-advisor/patrick-gilbride"}}, {"type": "node", "id": 2552595887, "lat": 40.6205938, "lon": -74.03208}, {"type": "node", "id": 2552596773, "lat": 40.6205313, "lon": -74.031791}, {"type": "node", "id": 2552596775, "lat": 40.620528, "lon": -74.0317325}, {"type": "node", "id": 2552596778, "lat": 40.6205409, "lon": -74.031787}, {"type": "node", "id": 2552596789, "lat": 40.620575, "lon": -74.0320008}, {"type": "node", "id": 2552596792, "lat": 40.6205806, "lon": -74.0319985}, {"type": "node", "id": 2552596834, "lat": 40.6206976, "lon": -74.0316627}, {"type": "node", "id": 2552596838, "lat": 40.6207119, "lon": -74.0318043}, {"type": "node", "id": 2552596842, "lat": 40.6206167, "lon": -74.0320706, "tags": {"entrance": "main"}}, {"type": "node", "id": 2552596845, "lat": 40.620728, "lon": -74.0317906}, {"type": "node", "id": 2552596865, "lat": 40.620761, "lon": -74.0320111}, {"type": "node", "id": 2552596961, "lat": 40.621033, "lon": -74.0292697}, {"type": "node", "id": 2552596967, "lat": 40.6210445, "lon": -74.0300197}, {"type": "node", "id": 2552596989, "lat": 40.6211133, "lon": -74.0296166}, {"type": "node", "id": 2552597021, "lat": 40.621191, "lon": -74.0299609}, {"type": "node", "id": 2552604032, "lat": 40.6233882, "lon": -74.0283188, "tags": {"addr:city": "Brooklyn", "addr:housenumber": "8506", "addr:postcode": "11209", "addr:state": "NY", "addr:street": "4th Avenue", "brand": "H&R Block", "brand:wikidata": "Q5627799", "name": "H&R Block", "office": "tax_advisor", "opening_hours": "Mo-Fr 09:00-21:00; Sa 09:00-18:00; Su 09:00-17:00", "phone": "+1-718-434-4344"}}, {"type": "node", "id": 2552604038, "lat": 40.6233285, "lon": -74.0283434, "tags": {"addr:housenumber": "8508", "addr:postcode": "11209", "addr:street": "4th Avenue", "name": "Kumon", "office": "tutoring", "phone": "+1-718-759-1840"}}, {"type": "node", "id": 2552604045, "lat": 40.6232697, "lon": -74.0283677, "tags": {"addr:housenumber": "8510", "addr:postcode": "11209", "addr:street": "4th Avenue", "amenity": "restaurant", "delivery": "yes", "diet:halal": "yes", "diet:vegetarian": "yes", "name": "Top Thai", "opening_hours": "Mo-Su 11:30-22:00", "phone": "+1-718-333-5184", "takeaway": "yes", "website": "https://topthaibayridgetogo.com", "wheelchair": "yes"}}, {"type": "node", "id": 2552604050, "lat": 40.6232233, "lon": -74.0283868, "tags": {"addr:housenumber": "8512", "addr:postcode": "11209", "addr:street": "4th Avenue", "name": "New York National Guard Recruiting Office", "office": "military_recruitment", "opening_hours": "Mo-Th 09:00-19:00; Fr 09:00-18:00", "phone": "+1-347-213-1385"}}, {"type": "node", "id": 2552604069, "lat": 40.6231025, "lon": -74.0284366, "tags": {"addr:housenumber": "8516", "addr:postcode": "11209", "addr:street": "4th Avenue", "name": "Armed Forces Career Center", "office": "military_recruitment"}}, {"type": "node", "id": 2552604088, "lat": 40.6227094, "lon": -74.0286001, "tags": {"addr:housenumber": "8602", "addr:postcode": "11209", "addr:street": "4th Avenue", "amenity": "restaurant", "cuisine": "turkish", "name": "Ay Kebab", "phone": "+1 718 491 1300"}}, {"type": "node", "id": 2552604157, "lat": 40.6221917, "lon": -74.0317518, "tags": {"addr:housenumber": "8724", "addr:postcode": "11209", "addr:street": "3rd Avenue", "name": "Compass", "office": "estate_agent"}}, {"type": "node", "id": 2552613637, "lat": 40.6245173, "lon": -74.0278606, "tags": {"name": "Brown Harris Stevens", "office": "estate_agent"}}, {"type": "node", "id": 2552613642, "lat": 40.6249407, "lon": -74.0306363, "tags": {"addr:city": "Brooklyn", "addr:housenumber": "8402", "addr:postcode": "11209", "addr:state": "NY", "addr:street": "3rd Avenue", "amenity": "restaurant", "cuisine": "greek", "name": "King Souvlaki", "outdoor_seating": "street", "phone": "+1-718-333-5016", "website": "https://kingsouvlakiny.com"}}, {"type": "node", "id": 2552613665, "lat": 40.6236669, "lon": -74.0311429, "tags": {"addr:housenumber": "8530", "addr:postcode": "11209", "addr:street": "3rd Avenue", "alt_name": "Taste of Syria", "amenity": "restaurant", "branch": "Bay Ridge", "diet:halal": "yes", "drink:beer": "yes", "drink:liquor": "yes", "drink:wine": "yes", "happy_hours": "Tu-Fr 16:00-19:00", "name": "Laila", "opening_hours": "Tu 12:00-21:00, We-Th 12:00-22:00, Fr-Sa 12:00-23:00, Su 12:00-21:00", "outdoor_seating": "sidewalk", "phone": "+1-929-416-5295", "website": "https://bayridge.lailasi.com"}}, {"type": "node", "id": 2552613672, "lat": 40.6233179, "lon": -74.0312985, "tags": {"addr:city": "Brooklyn", "addr:housenumber": "8602", "addr:postcode": "11209", "addr:state": "NY", "addr:street": "3rd Avenue", "amenity": "restaurant", "bar": "yes", "cocktails": "yes", "cuisine": "american", "drink:liquor": "yes", "name": "The Corner", "opening_hours": "Tu-We 11:30-15:30,17:00-22:00; Th-Fr 11:30-15:30,17:00-23:00; Sa 11:00-15:30,17:00-23:00; Su 11:00-15:30,27-21", "phone": "+1-718-333-5757", "website": "https://www.thecornerbayridge.com"}}, {"type": "node", "id": 2552616289, "lat": 40.6251572, "lon": -74.0305534, "tags": {"addr:housenumber": "8320", "addr:postcode": "11209", "addr:street": "3rd Avenue", "amenity": "restaurant", "bar": "yes", "cocktails": "yes", "cuisine": "latin_american", "drink:beer": "yes", "drink:liquor": "yes", "drink:wine": "yes", "name": "Puertas", "opening_hours": "Mo-Tu 16:00-21:00; We-Fr 16:00-22:00; Sa 12:00-22:00; Su 12:00-21:00", "phone": "+1-347-492-0990", "website": "https://www.puertasrestaurant.com"}}, {"type": "node", "id": 2552836837, "lat": 40.6229652, "lon": -74.0280722, "tags": {"addr:housenumber": "8519", "addr:postcode": "11209", "addr:street": "4th Avenue", "office": "accountant"}}, {"type": "node", "id": 2552836843, "lat": 40.6228892, "lon": -74.0281046, "tags": {"addr:housenumber": "8521", "addr:postcode": "11209", "addr:street": "4th Avenue", "amenity": "restaurant", "cuisine": "lebanese", "name": "Karam", "wheelchair": "yes"}}, {"type": "node", "id": 2552838474, "lat": 40.6208499, "lon": -74.0260159}, {"type": "node", "id": 2552838516, "lat": 40.6209086, "lon": -74.0259654}, {"type": "node", "id": 2552838518, "lat": 40.620913, "lon": -74.0261199}, {"type": "node", "id": 2552838536, "lat": 40.6209396, "lon": -74.0260165}, {"type": "node", "id": 2552838541, "lat": 40.6209547, "lon": -74.0260035}, {"type": "node", "id": 2552838571, "lat": 40.6210152, "lon": -74.0259514}, {"type": "node", "id": 2552838575, "lat": 40.6210225, "lon": -74.025966}, {"type": "node", "id": 2552838588, "lat": 40.6210418, "lon": -74.0259286}, {"type": "node", "id": 2552838591, "lat": 40.6210491, "lon": -74.0259432}, {"type": "node", "id": 2552838628, "lat": 40.6211085, "lon": -74.0258712}, {"type": "node", "id": 2552838645, "lat": 40.6211406, "lon": -74.0259241}, {"type": "node", "id": 2552883690, "lat": 40.6237847, "lon": -74.0251405, "tags": {"addr:housenumber": "8226", "addr:postcode": "11209", "addr:street": "5th Avenue", "name": "NEC Insurance Brokerage", "office": "insurance", "opening_hours": "Mo-Th 09:00-17:30; Fr 09:00-17:00", "phone": "+1-718-238-6216"}}, {"type": "node", "id": 7038476782, "lat": 40.621205, "lon": -74.0287942, "tags": {"addr:housenumber": "8727", "addr:street": "4th Avenue", "amenity": "restaurant", "name": "El Malecon"}}, {"type": "node", "id": 7038476783, "lat": 40.6226002, "lon": -74.0286447, "tags": {"addr:housenumber": "8608", "addr:postcode": "11209", "addr:street": "4th Avenue", "amenity": "restaurant", "name": "86 Noodles"}}, {"type": "node", "id": 7038487786, "lat": 40.6222362, "lon": -74.0287935, "tags": {"addr:housenumber": "8626", "addr:postcode": "11209", "addr:street": "4th Avenue", "amenity": "cafe", "cuisine": "pastry;asian", "drink:coffee": "yes", "name": "Gigi\u2019s Bakery", "opening_hours": "Mo-Su 08:30-17:30", "phone": "+1-718-238-2865", "shop": "bakery"}}, {"type": "node", "id": 7038487790, "lat": 40.6208489, "lon": -74.0293437}, {"type": "node", "id": 7038487791, "lat": 40.6223913, "lon": -74.0287301, "tags": {"addr:housenumber": "8616", "addr:postcode": "11209", "addr:street": "4th Avenue", "amenity": "restaurant", "cuisine": "vietnamese", "name": "Pho Hoai Bay Ridge Restaurant", "phone": "+1-718-745-1640"}}, {"type": "node", "id": 7038487798, "lat": 40.6212691, "lon": -74.0299295}, {"type": "node", "id": 7038487800, "lat": 40.6212041, "lon": -74.0299556}, {"type": "node", "id": 7038487805, "lat": 40.6210087, "lon": -74.0300341}, {"type": "node", "id": 7038487806, "lat": 40.6223386, "lon": -74.0287516, "tags": {"addr:housenumber": "8618", "addr:postcode": "11209", "addr:street": "4th Avenue", "amenity": "restaurant", "cuisine": "japanese;sushi", "name": "Omiya", "opening_hours": "Mo-Fr 11:00-21:00; Sa-Su 11:30-21:00", "phone": "+1-718-748-1977", "website": "https://www.omiyasushi.net"}}, {"type": "node", "id": 7038487811, "lat": 40.6211543, "lon": -74.0292453, "tags": {"addr:housenumber": "8810", "addr:street": "4th Avenue", "amenity": "restaurant", "cuisine": "italian", "name": "Ponte Vecchio"}}, {"type": "node", "id": 7038487812, "lat": 40.6224961, "lon": -74.0286873, "tags": {"addr:housenumber": "8612", "addr:postcode": "11209", "addr:street": "4th Avenue", "amenity": "restaurant", "cuisine": "mexican", "delivery": "yes", "name": "Los Cantaros", "opening_hours": "Mo-Su 11:00-21:00", "phone": "+1-347-223-4031", "takeaway": "yes"}}, {"type": "node", "id": 7038487813, "lat": 40.6212273, "lon": -74.029749}, {"type": "node", "id": 7038487815, "lat": 40.6221296, "lon": -74.0284143, "tags": {"amenity": "restaurant", "cuisine": "pizza", "name": "Avanti\u2019s Pizzaria"}}, {"type": "node", "id": 7038487823, "lat": 40.6214515, "lon": -74.0294806}, {"type": "node", "id": 7045158376, "lat": 40.6228728, "lon": -74.0314813, "tags": {"addr:housenumber": "8622", "addr:postcode": "11209", "addr:street": "3rd Avenue", "amenity": "pub", "delivery": "yes", "dish": "burger;wings", "drink:beer": "yes", "name": "The Kettle Black", "opening_hours": "Mo, Tu 11:30-02:00; We, Th, Su 11:30-03:00; Fr, Sa 11:30-04:00", "opening_hours:kitchen": "Mo-Su 11:30-23:00", "phone": "+1 718-680-7862", "takeaway": "yes", "website": "https://www.kettleblackbar.com/"}}, {"type": "node", "id": 7254572555, "lat": 40.6229542, "lon": -74.0251386, "tags": {"addr:city": "Brooklyn", "addr:housenumber": "8321", "addr:postcode": "11209", "addr:state": "NY", "addr:street": "5th Avenue", "amenity": "restaurant", "cocktails": "yes", "cuisine": "mexican", "delivery": "yes", "drink:beer": "yes", "drink:liquor": "yes", "name": "Tequila", "opening_hours": "Mo-Th 10:00-22:00; Fr-Su 10:00-23:00", "outdoor_seating": "street", "phone": "+1-347-578-7461", "takeaway": "yes", "website": "https://tequilarestaurantny.com"}}, {"type": "node", "id": 7256357541, "lat": 40.6226289, "lon": -74.0316663, "tags": {"name": "Restorative Travel", "office": "travel_agent", "phone": "+1-718-745-2500", "website": "http://restorativetravel.com"}}, {"type": "node", "id": 7256357545, "lat": 40.6226154, "lon": -74.0315896, "tags": {"alt_name": "Jabco", "name": "Jabour Realty Coompany", "office": "estate_agent", "phone": "+1-718-748-1800"}}, {"type": "node", "id": 7808355546, "lat": 40.621825, "lon": -74.0319142, "tags": {"amenity": "cafe", "cuisine": "brunch", "name": "H\u00f4M", "opening_hours:kitchen": "Th-Su 10:00-16:00", "phone": "+1-718-238-4466", "shop": "gift", "website": "http://thehomstore.com"}}, {"type": "node", "id": 8984519636, "lat": 40.6214893, "lon": -74.0296437}, {"type": "node", "id": 9501839139, "lat": 40.6206829, "lon": -74.0266993, "tags": {"amenity": "bar", "name": "Lone Star", "outdoor_seating": "street"}}, {"type": "node", "id": 9538777032, "lat": 40.6242524, "lon": -74.0309062, "tags": {"addr:housenumber": "8502", "addr:postcode": "11209", "addr:street": "3rd Avenue", "alt_name": "Leo's Casa Calamari", "amenity": "restaurant", "cuisine": "pizza;italian", "delivery": "yes", "drink:beer": "yes", "drink:wine": "yes", "name": "Leo's", "opening_hours": "Mo-Su 10:00-23:00", "phone": "+1-718-921-1900", "takeaway": "yes", "website": "https://eatleospizza.com"}}, {"type": "node", "id": 9777821013, "lat": 40.6231911, "lon": -74.0313616, "tags": {"addr:city": "Brooklyn", "addr:housenumber": "8610", "addr:postcode": "11209", "addr:state": "NY", "addr:street": "3rd Avenue", "amenity": "cafe", "drink:coffee": "yes", "drink:espresso": "yes", "name": "Pegasus", "outdoor_seating": "yes", "phone": "+1-718-748-6977", "website": "https://pegasusbrooklyn.com/"}}, {"type": "node", "id": 9780522584, "lat": 40.6239282, "lon": -74.0310372, "tags": {"amenity": "restaurant", "bar": "yes", "cocktails": "yes", "cuisine": "chinese", "delivery": "yes", "diet:vegetarian": "yes", "drink:beer": "yes", "drink:liquor": "yes", "drink:wine": "yes", "name": "Red Bowl", "opening_hours": "Mo,We,Th 12:00-22:00; Fr,Sa 12:00-23:00; Su 12:00-22:00", "phone": "+1-718-307-2828", "takeaway": "yes", "website": "https://redbowlbayridge.com"}}, {"type": "node", "id": 10158422688, "lat": 40.6223483, "lon": -74.0316926, "tags": {"amenity": "restaurant", "cuisine": "indian", "delivery": "yes", "diet:halal": "yes", "diet:vegetarian": "yes", "drink:beer": "yes", "drink:coffee": "yes", "drink:tea": "yes", "drink:wine": "yes", "fax": "+1-718-491-2501", "name": "Bombay Grill", "opening_hours": "Mo-Th 12:00-22:30; Fr-Sa 12:00-23:00; Su 12:00-22:30", "phone": "+1-718-491-2500", "takeaway": "yes", "website": "https://eatbombaygrill.com"}}, {"type": "node", "id": 10198579965, "lat": 40.6229248, "lon": -74.031467, "tags": {"amenity": "restaurant", "cuisine": "italian", "name": "Brooklyn Roots"}}, {"type": "node", "id": 10198579966, "lat": 40.6217194, "lon": -74.0319429, "tags": {"amenity": "bar", "cuisine": "pub", "name": "Pippin's Pub", "opening_hours": "Mo-Su 12:00-22:00+", "phone": "+1-718-833-1183", "website": "https://www.pipinsbayridge.com"}}, {"type": "node", "id": 10202439493, "lat": 40.6244756, "lon": -74.0308274, "tags": {"addr:housenumber": "8424", "addr:postcode": "11209", "addr:street": "3rd Avenue", "alt_name": "Terina Supper Club", "amenity": "restaurant", "cocktails": "yes", "cuisine": "italian", "drink:beer": "yes", "drink:liquor": "yes", "drink:wine": "yes", "name": "Terina", "opening_hours": "We 17:00-23:00, Th 17:00-23:30, Fr 17:00-24:00, Sa 15:00-24:00, Su 15:00-22:00", "phone": "+1-718-619-1191", "website": "https://www.terinanyc.com"}}, {"type": "node", "id": 10202439494, "lat": 40.6245831, "lon": -74.0307832, "tags": {"name": "Strazzullo Law Firm", "office": "lawyer", "phone": "+1-800-476-9993", "website": "https://www.strazzullolaw.com"}}, {"type": "node", "id": 10202439495, "lat": 40.624637, "lon": -74.0307611, "tags": {"name": "Ben Bay Realty", "office": "estate_agent", "phone": "+1-718-238-6080", "website": "https://www.benbayre.com"}}, {"type": "node", "id": 10202439497, "lat": 40.6248162, "lon": -74.0306874, "tags": {"name": "Law Offices of Charles Emma", "office": "lawyer", "phone": "+1-718-232-3001"}}, {"type": "node", "id": 10202439498, "lat": 40.6248665, "lon": -74.0306667, "tags": {"amenity": "restaurant", "cuisine": "italian", "drink:beer": "yes", "drink:wine": "yes", "name": "Sofia", "outdoor_seating": "street"}}, {"type": "node", "id": 10202924641, "lat": 40.6252092, "lon": -74.0305303, "tags": {"alt_name": "Inaka Sushi", "amenity": "restaurant", "bar": "yes", "cuisine": "japanese;sushi", "delivery": "yes", "diet:gluten_free": "yes", "diet:vegetarian": "yes", "drink:beer": "yes", "drink:wine": "yes", "name": "Inaka Japanese Fusion", "opening_hours": "Mo-Fr 11:00-22:30, Sa-Su 12:00-22:30", "phone": "+1-718-836-0888", "takeaway": "yes", "website": "https://www.inaka83st.com"}}, {"type": "node", "id": 12247119188, "lat": 40.6209448, "lon": -74.0264932, "tags": {"alt_name": "Fok Noodles", "amenity": "restaurant", "cuisine": "hong_kong", "name": "E Noodle Cafe", "opening_hours": "Mo-We,Fr-Su 11:00-20:45", "phone": "+1-718-238-3303", "website": "https://www.enoodle.nyc"}}, {"type": "node", "id": 12247119193, "lat": 40.6208198, "lon": -74.0266037, "tags": {"amenity": "cafe", "drink:bubble_tea": "yes", "name": "Kung Fu Tea", "opening_hours": "Mo-Su 11:00-20:00", "phone": "+1-347-906-7261"}}, {"type": "node", "id": 12247307325, "lat": 40.6223993, "lon": -74.0316675, "tags": {"name": "Cocsia & Amaterdam", "office": "accountant"}}, {"type": "node", "id": 12247307326, "lat": 40.6222742, "lon": -74.0313738, "tags": {"name": "Patouki Interiors", "office": "interior_design", "phone": "+1-917-601-1777", "website": "https://patoukiinteriors.com"}}, {"type": "node", "id": 12247307330, "lat": 40.6229781, "lon": -74.0314319, "tags": {"amenity": "restaurant", "cuisine": "mexican", "name": "Ho' Brah", "opening_hours": "Mo-We 11:30-22:00, Th-Sa 11:30-23:00, Su 11:30-22:00"}}, {"type": "node", "id": 12247307333, "lat": 40.6224295, "lon": -74.0313094, "tags": {"name": "Fort Funding Corp.", "office": "financial", "phone": "+1-718-238-4055", "website": "https://www.fortfunding.com"}}, {"type": "node", "id": 12251081128, "lat": 40.6241395, "lon": -74.0309518, "tags": {"alt_name": "Keller Williams Realty Empire", "brand": "Keller Williams Realty", "brand:wikidata": "Q6385689", "name": "Keller Williams Realty", "office": "estate_agent", "phone": "+1-718-954-8400", "short_name": "KW Empire", "website": "https://www.kwempire.com"}}, {"type": "node", "id": 12251081130, "lat": 40.6237128, "lon": -74.0307893, "tags": {"addr:housenumber": "8523", "addr:postcode": "11209", "addr:street": "3rd Avenue", "amenity": "money_transfer", "name": "Genesis Express", "office": "logistics", "phone": "+1-929-292-2051"}}, {"type": "node", "id": 12251081131, "lat": 40.6238717, "lon": -74.0307238, "tags": {"name": "Intella Properties", "office": "estate_agent", "phone": "+1-718-333-5530"}}, {"type": "node", "id": 12251081136, "lat": 40.6239567, "lon": -74.0306888, "tags": {"addr:housenumber": "8511", "addr:postcode": "11209", "addr:street": "3rd Avenue", "amenity": "cafe", "cuisine": "breakfast;coffee_shop;mexican", "drink:coffee": "yes", "drink:espresso": "yes", "name": "Boca De Cielo"}}, {"type": "node", "id": 12251081140, "lat": 40.6241629, "lon": -74.0306037, "tags": {"addr:housenumber": "8501", "addr:postcode": "11209", "addr:street": "3rd Avenue", "amenity": "restaurant", "branch": "Bayridge", "cuisine": "palestinian", "delivery": "yes", "name": "Ayat", "phone": "+1-718-831-2585", "website": "https://www.ayatnyc.com/location/bayridge/"}}, {"type": "node", "id": 12724672318, "lat": 40.6230828, "lon": -74.031392, "tags": {"name": "Weichert Realtors", "office": "estate_agent"}}, {"type": "node", "id": 12724672322, "lat": 40.6230596, "lon": -74.0310532, "tags": {"amenity": "restaurant", "cuisine": "greek", "name": "Elia Restaurant", "phone": "+1-718-748-9891", "website": "https://www.eliarestaurant.com"}}, {"type": "node", "id": 12734209578, "lat": 40.6209733, "lon": -74.0256871, "tags": {"alt_name": "Sushi Hana", "amenity": "restaurant", "cuisine": "japanese;sushi", "delivery": "yes", "drink:beer": "yes", "drink:wine": "yes", "name": "Hana Japanese Restaurant", "opening_hours": "Mo-Th 11:30-21:30, Fr-Sa 11:30-22:00, Su 11:30-21:30", "phone": "+1-718-238-4513", "takeaway": "yes", "website": "https://www.hana86sushi.com"}}, {"type": "way", "id": 248468242, "nodes": [2552596845, 2552596834, 2552596775, 2552596778, 2552596773, 2552596792, 2552596789, 2552595887, 2552596842, 2552596865, 2552596838, 2552596845], "tags": {"addr:housenumber": "9011", "addr:postcode": "11209", "addr:street": "3rd Avenue", "amenity": "restaurant", "building": "yes", "cocktails": "yes", "cuisine": "diner", "drink:beer": "yes", "drink:coffee": "yes", "drink:liquor": "yes", "drink:wine": "yes", "height": "3.5", "name": "The Bridgeview Diner", "nycdoitt:bin": "3154546", "opening_hours": "Mo-Su 07:00-24:00", "phone": "+1-718-680-9818", "takeaway": "yes", "website": "https://www.bridgeviewdinerbrooklyn.com", "wheelchair": "yes"}}, {"type": "way", "id": 248507459, "nodes": [2552838588, 2552838591, 2552838575, 2552838571, 2552838541, 2552838536, 2552838516, 2552838474, 2552838518, 2552838645, 2552838628, 2552838588], "tags": {"addr:city": "Brooklyn", "addr:housenumber": "514", "addr:postcode": "11209", "addr:state": "NY", "addr:street": "86th Street", "amenity": "cafe", "branch": "514 86th St", "brand": "Starbucks", "brand:wikidata": "Q37158", "building": "yes", "cuisine": "coffee_shop", "height": "14.5", "name": "Starbucks", "nycdoitt:bin": "3153779", "official_name": "Starbucks Coffee", "phone": "+1 718-491-1340", "ref": "17881", "takeaway": "yes", "website": "https://www.starbucks.com/store-locator/store/17881/514-86th-st-514-86th-street-brooklyn-ny-112095211-us"}}, {"type": "way", "id": 753300174, "nodes": [8984519636, 7038487823, 2552596989, 2552596961, 7038487790, 7038487805, 2552596967, 2552597021, 7038487800, 7038487798, 7038487813, 8984519636], "tags": {"amenity": "school", "name": "PS 264"}}]}