{"version": 0.6, "generator": "Overpass API 0.7.62.8 e802775f", "osm3s": {"timestamp_osm_base": "2025-12-01T04:03:02Z", "copyright": "The data included in this document is from www.openstreetmap.org. The data is made available under ODbL."}, "elements": [{"type": "node", "id": 2847152898, "lat": 40.75569, "lon": -73.9418423, "tags": {"addr:housenumber": "13-01", "addr:postcode": "11101", "addr:street": "40th Avenue", "amenity": "restaurant", "delivery": "yes", "name": "Coffee Shop", "phone": "+1 718-784-7045"}}, {"type": "node", "id": 2847168441, "lat": 40.7550487, "lon": -73.9442587, "tags": {"addr:housenumber": "10-39", "addr:postcode": "11101", "addr:street": "41st Avenue", "amenity": "restaurant", "cuisine": "chinese", "name": "New Champion Wok"}}, {"type": "node", "id": 5346072195, "lat": 40.7518234, "lon": -73.9397888, "tags": {"addr:housenumber": "41-18", "addr:street": "Crescent Street", "brand": "H&R Block", "brand:wikidata": "Q5627799", "name": "H&R Block", "office": "tax_advisor", "phone": "+1-718-707-0295", "website": "https://www.hrblock.com/"}}, {"type": "node", "id": 5906828486, "lat": 40.7555356, "lon": -73.9412153, "tags": {"addr:housenumber": "39-44", "addr:postcode": "11101", "addr:street": "21st Street", "amenity": "restaurant", "cuisine": "indian", "name": "Lic Grill", "name:en": "Lic Grill"}}, {"type": "node", "id": 5906840087, "lat": 40.7554977, "lon": -73.9412472, "tags": {"amenity": "cafe", "name": "Oh! Bagels"}}, {"type": "node", "id": 5978556751, "lat": 40.7520777, "lon": -73.9405389, "tags": {"addr:housenumber": "41-26", "addr:street": "Crescent Street", "amenity": "bar", "name": "The Baroness"}}, {"type": "node", "id": 6689828325, "lat": 40.7526572, "lon": -73.9396832, "tags": {"addr:housenumber": "24-03", "addr:street": "41st Street", "amenity": "bar", "name": "The Huntress"}}, {"type": "node", "id": 7185483999, "lat": 40.7517891, "lon": -73.9438384, "tags": {"addr:housenumber": "21-02", "addr:street": "Queens Plaza South", "name": "Apex Technical School", "office": "employment_agency"}}, {"type": "node", "id": 11737247196, "lat": 40.7533337, "lon": -73.9401448, "tags": {"addr:housenumber": "40-33", "addr:street": "23rd Street", "amenity": "cafe", "indoor_seating": "yes", "name": "Joe Coffee", "opening_hours": "Mo-Su 07:00-17:00", "outdoor_seating": "yes"}}]}