{"version": 0.6, "generator": "Overpass API 0.7.62.8 e802775f", "osm3s": {"timestamp_osm_base": "2025-12-01T17:34:30Z", "copyright": "The data included in this document is from www.openstreetmap.org. The data is made available under ODbL."}, "elements": [{"type": "node", "id": 42523928, "lat": 40.6943772, "lon": -73.9851684}, {"type": "node", "id": 219763282, "lat": 40.6949502, "lon": -73.9906523}, {"type": "node", "id": 219763294, "lat": 40.6937316, "lon": -73.9903159}, {"type": "node", "id": 219763334, "lat": 40.6923452, "lon": -73.989152}, {"type": "node", "id": 219763348, "lat": 40.694855, "lon": -73.9890839}, {"type": "node", "id": 219763368, "lat": 40.6950242, "lon": -73.9902078}, {"type": "node", "id": 248606697, "lat": 40.6930561, "lon": -73.9891725}, {"type": "node", "id": 248606698, "lat": 40.6930719, "lon": -73.9897161}, {"type": "node", "id": 248606699, "lat": 40.6947354, "lon": -73.9896348}, {"type": "node", "id": 248606700, "lat": 40.6947213, "lon": -73.9890902}, {"type": "node", "id": 1693893363, "lat": 40.6930835, "lon": -73.986119}, {"type": "node", "id": 1693893369, "lat": 40.6930525, "lon": -73.9853496}, {"type": "node", "id": 1849248786, "lat": 40.6944049, "lon": -73.9861577}, {"type": "node", "id": 2019017484, "lat": 40.6943319, "lon": -73.9828669}, {"type": "node", "id": 2019017489, "lat": 40.6937746, "lon": -73.9831396}, {"type": "node", "id": 2019017495, "lat": 40.6937739, "lon": -73.9831027}, {"type": "node", "id": 2019017497, "lat": 40.6937515, "lon": -73.9829203}, {"type": "node", "id": 2494057261, "lat": 40.6900156, "lon": -73.9893526, "tags": {"addr:housenumber": "112", "addr:postcode": "11201", "addr:street": "Schermerhorn Street", "amenity": "school", "name": "Brooklyn Frontiers High School", "operator": "Good Shepherd Services", "phone": "+1-718-722-4727", "website": "https://www.brooklynfrontiers.org/", "wikidata": "Q7122483", "wikipedia": "en:Brooklyn Frontiers High School"}}, {"type": "node", "id": 2494254644, "lat": 40.691467, "lon": -73.987767, "tags": {"addr:city": "Brooklyn", "addr:housenumber": "372", "addr:postcode": "11201", "addr:state": "NY", "addr:street": "Fulton Street", "amenity": "restaurant", "cuisine": "american;steak_house;seafood", "indoor_seating": "yes", "name": "Gage & Tollner", "opening_hours": "17:00-22:00", "outdoor_seating": "no", "phone": "+1-347-689-3677", "website": "https://www.gageandtollner.com"}}, {"type": "node", "id": 2494254733, "lat": 40.6907988, "lon": -73.9884211}, {"type": "node", "id": 2494254735, "lat": 40.6908771, "lon": -73.9886258}, {"type": "node", "id": 2494254738, "lat": 40.691157, "lon": -73.9885817}, {"type": "node", "id": 2494254747, "lat": 40.6911043, "lon": -73.9882196}, {"type": "node", "id": 2494254749, "lat": 40.6911136, "lon": -73.9884697}, {"type": "node", "id": 2494254751, "lat": 40.6911434, "lon": -73.9885467}, {"type": "node", "id": 2494254754, "lat": 40.6911966, "lon": -73.9881587}, {"type": "node", "id": 2494254759, "lat": 40.6912403, "lon": -73.9887967}, {"type": "node", "id": 2494254762, "lat": 40.6912611, "lon": -73.9883275}, {"type": "node", "id": 2494254763, "lat": 40.6913016, "lon": -73.9884335}, {"type": "node", "id": 2494254764, "lat": 40.6913117, "lon": -73.9884268}, {"type": "node", "id": 2494254766, "lat": 40.6913727, "lon": -73.9885865}, {"type": "node", "id": 2494254767, "lat": 40.6913794, "lon": -73.988604}, {"type": "node", "id": 2494254853, "lat": 40.6926616, "lon": -73.9880895}, {"type": "node", "id": 2523619723, "lat": 40.6898682, "lon": -73.9903235}, {"type": "node", "id": 2523619728, "lat": 40.6901058, "lon": -73.9910651}, {"type": "node", "id": 2523619730, "lat": 40.6901128, "lon": -73.9901705}, {"type": "node", "id": 2523619824, "lat": 40.6903147, "lon": -73.9909517}, {"type": "node", "id": 2523619828, "lat": 40.6903283, "lon": -73.990952}, {"type": "node", "id": 2523619907, "lat": 40.6904351, "lon": -73.9909007}, {"type": "node", "id": 2550002802, "lat": 40.6896009, "lon": -73.9860383, "tags": {"branch": "Downtown Brooklyn", "fax": "+1-718-596-3012", "name": "R&G Brenner", "office": "tax_advisor", "opening_hours": "Mo-Fr 09:00-17:00", "phone": "+1-718-596-1188", "website": "https://www.rgbrenner.com/locations/brooklyn/downtown/"}}, {"type": "node", "id": 2550005814, "lat": 40.6914842, "lon": -73.9861564, "tags": {"addr:housenumber": "151", "addr:postcode": "11201", "addr:street": "Lawrence Street", "amenity": "college", "name": "ASA College", "phone": "+1-718-522-9073"}}, {"type": "node", "id": 2550005915, "lat": 40.6905044, "lon": -73.9845775, "tags": {"addr:housenumber": "519", "addr:postcode": "11201", "addr:street": "Fulton Street", "amenity": "restaurant", "cuisine": "caribbean", "name": "Imani Grill", "opening_hours": "Mo-Su 11:00-21:30", "phone": "+1-929-866-2979", "website": "https://www.imanigrill.nyc"}}, {"type": "node", "id": 2568316720, "lat": 40.6944608, "lon": -73.9831431, "tags": {"addr:housenumber": "327", "addr:postcode": "11201", "addr:street": "Gold Street", "amenity": "restaurant", "cocktails": "yes", "cuisine": "italian;brunch", "drink:beer": "draught", "drink:liquor": "yes", "drink:wine": "yes", "happy_hours": "Mo-Fr 16:00-19:00", "name": "Forno Rosso", "opening_hours": "Mo-Th 11:30-23:00; Fr-Sa 11:30-24:00; Su 11:30-23:00", "phone": "+1-718-451-3800", "website": "https://www.fornorosso.nyc/"}}, {"type": "node", "id": 2568316741, "lat": 40.6937652, "lon": -73.9829199}, {"type": "node", "id": 2568316748, "lat": 40.6938754, "lon": -73.9829138}, {"type": "node", "id": 2568316749, "lat": 40.6938762, "lon": -73.9829379}, {"type": "node", "id": 2568316783, "lat": 40.6941127, "lon": -73.982916}, {"type": "node", "id": 2568316784, "lat": 40.694113, "lon": -73.9829249}, {"type": "node", "id": 2568316795, "lat": 40.694222, "lon": -73.9828989}, {"type": "node", "id": 2568316796, "lat": 40.6942223, "lon": -73.98291}, {"type": "node", "id": 2568316804, "lat": 40.6943327, "lon": -73.9828928}, {"type": "node", "id": 2568316812, "lat": 40.6944172, "lon": -73.9828633}, {"type": "node", "id": 2568316813, "lat": 40.6944226, "lon": -73.9828631}, {"type": "node", "id": 2568316814, "lat": 40.6944303, "lon": -73.9831692}, {"type": "node", "id": 2568345400, "lat": 40.6929075, "lon": -73.985483}, {"type": "node", "id": 2568345402, "lat": 40.6929109, "lon": -73.9855742}, {"type": "node", "id": 2568345405, "lat": 40.6929311, "lon": -73.9853595}, {"type": "node", "id": 2568345406, "lat": 40.6929356, "lon": -73.9854812}, {"type": "node", "id": 2568345407, "lat": 40.692939, "lon": -73.9855724}, {"type": "node", "id": 2568345408, "lat": 40.692946, "lon": -73.9857605}, {"type": "node", "id": 2568345409, "lat": 40.6929597, "lon": -73.9861293}, {"type": "node", "id": 2568345411, "lat": 40.6929791, "lon": -73.9853564}, {"type": "node", "id": 2568345435, "lat": 40.6936211, "lon": -73.985319}, {"type": "node", "id": 2568345436, "lat": 40.6936451, "lon": -73.9860854}, {"type": "node", "id": 2568345481, "lat": 40.6950393, "lon": -73.9865614}, {"type": "node", "id": 2568345485, "lat": 40.6950587, "lon": -73.9865602}, {"type": "node", "id": 2568345487, "lat": 40.6948806, "lon": -73.9861244}, {"type": "node", "id": 2568345490, "lat": 40.6950917, "lon": -73.9861116}, {"type": "node", "id": 2568345494, "lat": 40.6951955, "lon": -73.9861053}, {"type": "node", "id": 2568345496, "lat": 40.6952032, "lon": -73.9865514}, {"type": "node", "id": 2568361433, "lat": 40.6941818, "lon": -73.9840224}, {"type": "node", "id": 2568361436, "lat": 40.6942065, "lon": -73.984703}, {"type": "node", "id": 2568361438, "lat": 40.6942158, "lon": -73.9850281}, {"type": "node", "id": 2568361440, "lat": 40.6942451, "lon": -73.9847261}, {"type": "node", "id": 2568361442, "lat": 40.6942516, "lon": -73.9850144}, {"type": "node", "id": 2568361444, "lat": 40.6942747, "lon": -73.984725}, {"type": "node", "id": 2568361446, "lat": 40.6943143, "lon": -73.9846829}, {"type": "node", "id": 2568361448, "lat": 40.6943145, "lon": -73.9847014}, {"type": "node", "id": 2568361450, "lat": 40.6943929, "lon": -73.9847203}, {"type": "node", "id": 2568361452, "lat": 40.6943995, "lon": -73.9850086}, {"type": "node", "id": 2568361454, "lat": 40.6944281, "lon": -73.9846811}, {"type": "node", "id": 2568361456, "lat": 40.6944308, "lon": -73.9849867}, {"type": "node", "id": 2568361463, "lat": 40.6947162, "lon": -73.9849242}, {"type": "node", "id": 2568361465, "lat": 40.6947167, "lon": -73.9849824}, {"type": "node", "id": 2568361471, "lat": 40.6947757, "lon": -73.9843145}, {"type": "node", "id": 2568361473, "lat": 40.6947985, "lon": -73.984923}, {"type": "node", "id": 2596227489, "lat": 40.69176, "lon": -73.9885471, "tags": {"addr:city": "Fulton Mall", "addr:housenumber": "348", "addr:postcode": "11201", "addr:state": "NY", "addr:street": "Fulton Street", "amenity": "cafe", "branch": "348 Fulton Street", "brand": "Starbucks", "brand:wikidata": "Q37158", "cuisine": "coffee_shop", "internet_access": "wlan", "internet_access:fee": "no", "name": "Starbucks", "official_name": "Starbucks Coffee", "opening_hours": "Mo-Fr 05:30-22:30; Sa-Su 06:00-21:30", "phone": "+1 718-488-1719", "ref": "89214", "takeaway": "yes", "website": "https://www.starbucks.com/store-locator/store/89214/348-fulton-street-348-fulton-street-brooklyn-ny-112015109-us"}}, {"type": "node", "id": 3670173276, "lat": 40.6941845, "lon": -73.9840981}, {"type": "node", "id": 3670173277, "lat": 40.6941866, "lon": -73.9841543}, {"type": "node", "id": 3670173278, "lat": 40.6941885, "lon": -73.984207}, {"type": "node", "id": 4416209989, "lat": 40.6914766, "lon": -73.9845457, "tags": {"amenity": "bar", "name": "Rooftop Bar"}}, {"type": "node", "id": 4491402090, "lat": 40.6941122, "lon": -73.9867868, "tags": {"addr:city": "Brooklyn", "addr:housenumber": "6", "addr:postcode": "11201", "addr:state": "NY", "addr:street": "Metro Tech, Poly Tech Institute", "amenity": "cafe", "branch": "6 Metro Tech at Jay Street", "brand": "Starbucks", "brand:wikidata": "Q37158", "cuisine": "coffee_shop", "internet_access": "wlan", "name": "Starbucks", "official_name": "Starbucks Coffee", "phone": "+1 718-522-2396", "ref": "17013", "takeaway": "yes", "website": "https://www.starbucks.com/store-locator/store/17013/6-metro-tech-at-jay-street-6-metro-tech-brooklyn-ny-112013840-us"}}, {"type": "node", "id": 4559289813, "lat": 40.6923695, "lon": -73.9878346, "tags": {"addr:housenumber": "25", "addr:postcode": "11201", "addr:street": "Willoughby Street", "atm": "yes", "description": "check cashing, bill pay, money orders, currency exchange, Western Union money wires", "money_transfer": "western_union", "money_transfer:website": "https://location.westernunion.com/us/ny/brooklyn/4945eea432df3a85d3d8594b7464c4e5", "name": "The Check Cashing Place", "office": "financial", "opening_hours": "24/7", "operator": "CFSC", "shop": "money_lender"}}, {"type": "node", "id": 4559289815, "lat": 40.6924303, "lon": -73.9884433, "tags": {"amenity": "cafe", "cuisine": "coffee_shop", "drink:coffee": "yes", "drink:espresso": "yes", "drink:tea": "yes", "name": "H Caf\u00e9"}}, {"type": "node", "id": 4559289816, "lat": 40.6924317, "lon": -73.9885461, "tags": {"addr:housenumber": "345", "addr:postcode": "11201", "addr:street": "Adams Street", "amenity": "restaurant", "brand": "CAVA", "brand:wikidata": "Q85751038", "cuisine": "mediterranean", "diet:vegan": "yes", "diet:vegetarian": "yes", "indoor_seating": "yes", "name": "CAVA", "opening_hours": "Mo-Su 10:45-22:00", "outdoor_seating": "yes", "phone": "+1-929-296-7809", "website": "https://cava.com", "wheelchair": "yes"}}, {"type": "node", "id": 4922165421, "lat": 40.6912596, "lon": -73.9842362, "tags": {"amenity": "pub", "cuisine": "american;breakfast", "name": "Brooklyn Brewhouse", "opening_hours": "Mo-Su 06:30-02:00", "opening_hours:kitchen": "Mo-Su 06:30-24:00", "phone": "+1-718-254-7813", "website": "http://brooklynbrewhouse.com"}}, {"type": "node", "id": 4978194634, "lat": 40.6937987, "lon": -73.986192}, {"type": "node", "id": 4978194636, "lat": 40.6937729, "lon": -73.985199}, {"type": "node", "id": 5009155037, "lat": 40.6949099, "lon": -73.9870407}, {"type": "node", "id": 5009155039, "lat": 40.6933, "lon": -73.9871148}, {"type": "node", "id": 5009155040, "lat": 40.6933255, "lon": -73.988063}, {"type": "node", "id": 5009155041, "lat": 40.6929822, "lon": -73.9880737}, {"type": "node", "id": 5009155042, "lat": 40.6929745, "lon": -73.9877164}, {"type": "node", "id": 5009155045, "lat": 40.6927984, "lon": -73.9874006}, {"type": "node", "id": 5009155047, "lat": 40.6929293, "lon": -73.9853407}, {"type": "node", "id": 5009155052, "lat": 40.6954249, "lon": -73.9860914}, {"type": "node", "id": 5009155053, "lat": 40.6954404, "lon": -73.986537}, {"type": "node", "id": 5009155054, "lat": 40.6948958, "lon": -73.9865701}, {"type": "node", "id": 5103598321, "lat": 40.6916784, "lon": -73.9861446, "tags": {"addr:housenumber": "141", "addr:postcode": "11201", "addr:street": "Lawrence Street", "amenity": "bar", "brewery": "Circa Brewing Co", "cuisine": "pizza", "diet:vegan": "limited", "diet:vegetarian": "yes", "internet_access:fee": "no", "name": "Circa Brewing Co.", "opening_hours": "Mo-Th 16:00-23:00; Fr 16:00-24:00; Sa 11:00-24:00; Su 11:00-22:00", "opening_hours:kitchen": "Mo-Th 16:00-22:00; Fr 16:00-23:00; Sa 11:00-23:00; Su 11:00-22:00", "outdoor_seating": "sidewalk;street", "phone": "+1-718-858-0055", "toilets": "yes", "toilets:access": "permissive", "toilets:unisex": "no", "toilets:wheelchair": "yes", "website": "https://www.circabrewing.co", "wheelchair": "yes"}}, {"type": "node", "id": 5754824463, "lat": 40.6942594, "lon": -73.9870689}, {"type": "node", "id": 5797335695, "lat": 40.6917299, "lon": -73.9864369, "tags": {"addr:housenumber": "148", "addr:street": "Lawrence Street", "air_conditioning": "yes", "amenity": "restaurant", "bar": "no", "check_date": "2024-03-14", "cuisine": "dumpling;shanghainese", "delivery": "yes", "diet:vegetarian": "yes", "highchair": "no", "microbrewery": "no", "name": "Nan Xiang Express Soup Dumplings", "outdoor_seating": "no", "payment:cash": "yes", "payment:credit_cards": "yes", "phone": "+1 929-250-2028", "smoking": "no", "takeaway": "yes", "toilets": "yes", "toilets:wheelchair": "yes", "website": "https://nanxiangexpress.com/", "wheelchair": "yes"}}, {"type": "node", "id": 5797335696, "lat": 40.6919532, "lon": -73.986422, "tags": {"amenity": "cafe", "drink:bubble_tea": "yes", "drink:coffee": "no", "drink:tea": "yes", "name": "M\u00f6ge Tee"}}, {"type": "node", "id": 5799937198, "lat": 40.6949989, "lon": -73.9906001}, {"type": "node", "id": 5799937201, "lat": 40.6937618, "lon": -73.9903165}, {"type": "node", "id": 6453371200, "lat": 40.6900019, "lon": -73.9870953, "tags": {"addr:city": "Brooklyn", "addr:housenumber": "180", "addr:postcode": "11201", "addr:state": "NY", "addr:street": "Livingston Street", "amenity": "restaurant", "branch": "Downtown Brooklyn", "brand": "Dallas BBQ", "brand:wikidata": "Q122209839", "cuisine": "barbecue", "name": "Dallas BBQ", "opening_hours": "Su-Th 11:00-23:00; Fr,Sa 11:00-24:00; ", "phone": "+1-718-643-5700", "website": "https://www.dallasbbq.com/downtown-brooklyn"}}, {"type": "node", "id": 6456450337, "lat": 40.689583, "lon": -73.9859909, "tags": {"addr:city": "Brooklyn", "addr:housenumber": "206", "addr:postcode": "11201", "addr:state": "NY", "addr:street": "Livingston Street", "amenity": "cafe", "cuisine": "poke", "name": "Poke Fan", "opening_hours": "Su-Fr 11:00-20:00", "phone": "+1-347-987-3007", "website": "https://www.pokefanonline.com/"}}, {"type": "node", "id": 6465804784, "lat": 40.6896561, "lon": -73.9873969, "tags": {"addr:housenumber": "159", "addr:postcode": "11201", "addr:street": "Schermerhorn Street", "branch": "Division of Human Resources", "name": "New York City Transit", "office": "government"}}, {"type": "node", "id": 6465804985, "lat": 40.6896286, "lon": -73.9882049, "tags": {"addr:housenumber": "71", "addr:postcode": "11201", "addr:street": "Smith Street", "amenity": "cafe", "cuisine": "coffee_shop;breakfast;health_food", "drink:coffee": "yes", "drink:espresso": "yes", "drink:tea": "yes", "name": "White Noise", "opening_hours": "Mo-Su 07:00-19:00", "toilets": "yes", "toilets:access": "customers"}}, {"type": "node", "id": 6543158309, "lat": 40.6938482, "lon": -73.9831905}, {"type": "node", "id": 6543158310, "lat": 40.6937557, "lon": -73.9831028}, {"type": "node", "id": 6556206307, "lat": 40.6895176, "lon": -73.9879408, "tags": {"addr:housenumber": "140", "addr:postcode": "11201", "addr:street": "Schermerhorn Street", "amenity": "restaurant", "bar": "yes", "cocktails": "yes", "cuisine": "american", "diet:gluten_free": "yes", "diet:vegetarian": "limited", "drink:beer": "draught", "drink:liquor": "yes", "drink:wine": "yes", "fax": "+1-718-228-9405", "level": "0", "name": "Black Walnut", "opening_hours": "Mo-Su 06:30-23:00", "phone": "+1-929-337-1280", "website": "https://www.blackwalnutnyc.com"}}, {"type": "node", "id": 6680633193, "lat": 40.6912513, "lon": -73.9831859, "tags": {"addr:city": "Brooklyn", "addr:floor": "4", "addr:housenumber": "445", "addr:postcode": "11201", "addr:state": "NY", "addr:street": "Albee Square", "amenity": "bar", "brewery": "yes", "check_date": "2024-04-19", "description": "Bar exhibiting a rare selection of waxwork sculptures featuring life-size wax figures.", "level": "3", "name": "House of Wax", "opening_hours": "Su-Th 16:00-24:00; Fr-Sa 16:00-26:00", "phone": "+1-718-513-2547", "website": "https://thehouseofwax.com"}}, {"type": "node", "id": 6896613952, "lat": 40.6905277, "lon": -73.9842727, "tags": {"addr:housenumber": "255", "addr:postcode": "11201", "addr:street": "Duffield Street", "description": "administrative offices, not a healthcare location", "name": "The Brooklyn Hospital Center", "office": "healthcare", "website": "https://www.tbh.org"}}, {"type": "node", "id": 6993160945, "lat": 40.6943919, "lon": -73.9856658}, {"type": "node", "id": 6993160950, "lat": 40.6935678, "lon": -73.9834485}, {"type": "node", "id": 6993160973, "lat": 40.6941782, "lon": -73.9837692}, {"type": "node", "id": 6993160974, "lat": 40.6942214, "lon": -73.9851762}, {"type": "node", "id": 6993160979, "lat": 40.6942375, "lon": -73.9861672}, {"type": "node", "id": 6993160980, "lat": 40.6942094, "lon": -73.9851768}, {"type": "node", "id": 7428857598, "lat": 40.6917241, "lon": -73.9901096}, {"type": "node", "id": 7561532120, "lat": 40.6923281, "lon": -73.9877437}, {"type": "node", "id": 7561532121, "lat": 40.6923234, "lon": -73.9874302}, {"type": "node", "id": 7561532122, "lat": 40.6927654, "lon": -73.9863466}, {"type": "node", "id": 7561532123, "lat": 40.6929643, "lon": -73.9863375}, {"type": "node", "id": 7561532124, "lat": 40.69362, "lon": -73.9853057}, {"type": "node", "id": 7730910956, "lat": 40.6927374, "lon": -73.9824146, "tags": {"name": "Jack Jaffa & Associates", "office": "company", "phone": "+1-718-855-6110", "website": "https://www.jackjaffa.com"}}, {"type": "node", "id": 7795039231, "lat": 40.6915053, "lon": -73.9864292, "tags": {"addr:city": "Brooklyn", "addr:housenumber": "156", "addr:postcode": "11201", "addr:state": "NY", "addr:street": "Lawrence Street", "amenity": "cafe", "brand": "Gong Cha", "brand:wikidata": "Q5581670", "brand:zh": "\u8ca2\u8336", "cuisine": "bubble_tea", "drink:bubble_tea": "yes", "drink:coffee": "no", "drink:tea": "yes", "int_name": "Gong Cha", "name": "Gong Cha", "name:zh": "\u8ca2\u8336", "opening_hours": "Mo-Fr 10:30-22:00; Sa-Su 11:00-22:00", "phone": "+1-917-909-1207", "takeaway": "yes", "website": "https://www.gongchausa.com"}}, {"type": "node", "id": 7795039234, "lat": 40.6920093, "lon": -73.9850009, "tags": {"addr:city": "Brooklyn", "addr:housenumber": "100", "addr:postcode": "11201", "addr:state": "NY", "addr:street": "Willoughby Street", "amenity": "cafe", "cuisine": "coffee_shop", "name": "Ava Brew", "opening_hours": "Mo-Su 07:00-19:00"}}, {"type": "node", "id": 7890935593, "lat": 40.6946918, "lon": -73.982965, "tags": {"name": "Tandon School of Engineering", "office": "university", "operator": "NYU"}}, {"type": "node", "id": 8837943948, "lat": 40.6954273, "lon": -73.9861597}, {"type": "node", "id": 9023863629, "lat": 40.691609, "lon": -73.9864343, "tags": {"addr:housenumber": "152", "addr:postcode": "11201", "addr:street": "Lawrence Street", "amenity": "restaurant", "cuisine": "chinese", "delivery": "yes", "name": "Lee's Villa", "not:brand:wikidata": "Q6512810", "phone": "+1-718-855-1818", "takeaway": "yes"}}, {"type": "node", "id": 9032759788, "lat": 40.6920144, "lon": -73.9869199, "tags": {"name": "Law Offices of David I. Pankin", "office": "lawyer", "phone": "+1-718-243-2444"}}, {"type": "node", "id": 9032759793, "lat": 40.6920308, "lon": -73.9870418, "tags": {"level": "1", "name": "J.D. Pantzis, C.P.A.", "office": "tax_advisor", "phone": "+1-718-858-9864"}}, {"type": "node", "id": 9130590701, "lat": 40.6906954, "lon": -73.9836225, "tags": {"addr:housenumber": "430", "addr:postcode": "11201", "addr:street": "Albee Square", "amenity": "restaurant", "bar": "yes", "cuisine": "cajun;seafood", "name": "Hook & Reel", "opening_hours": "Mo-Th 12:00-22:30; Fr-Sa 12:00-24:00; Su 12:30-22:00", "phone": "+1-929-397-0031", "website": "https://hookreel.com/location/albeesquarebrooklyn/"}}, {"type": "node", "id": 9135361054, "lat": 40.6920289, "lon": -73.9842254}, {"type": "node", "id": 9193984158, "lat": 40.6920619, "lon": -73.9854432, "tags": {"alt_name": "Brooklyn Prospect Charter School", "amenity": "school", "name": "Brooklyn Prospect Downtown Elementary School", "phone": "+1-718-722-7634", "website": "https://www.brooklynprospect.org/our-schools/downtown-elementary/"}}, {"type": "node", "id": 9293681958, "lat": 40.6910754, "lon": -73.9841989, "tags": {"addr:city": "Brooklyn", "addr:housenumber": "1", "addr:postcode": "11201", "addr:state": "NY", "addr:street": "Willoughby Square", "addr:unit": "7th Floor", "name": "FXCollaborative Architects LLP", "office": "architect", "phone": "+1 212 627 1700", "website": "https://www.fxcollaborative.com/"}}, {"type": "node", "id": 9571394577, "lat": 40.6914251, "lon": -73.9837148}, {"type": "node", "id": 9571394578, "lat": 40.6913411, "lon": -73.9835465}, {"type": "node", "id": 9571394582, "lat": 40.6920042, "lon": -73.9835189}, {"type": "node", "id": 9571471965, "lat": 40.6922957, "lon": -73.9899246}, {"type": "node", "id": 9571471966, "lat": 40.6922468, "lon": -73.9896267}, {"type": "node", "id": 9571471967, "lat": 40.6921318, "lon": -73.9893148}, {"type": "node", "id": 9571471970, "lat": 40.6922728, "lon": -73.9897854}, {"type": "node", "id": 9571471971, "lat": 40.6922664, "lon": -73.9897463}, {"type": "node", "id": 9793717854, "lat": 40.6928795, "lon": -73.982411, "tags": {"name": "ABC Safety Group", "office": "company", "phone": "+1-718-307-8133", "website": "https://www.abcsafetygroup.com"}}, {"type": "node", "id": 9808520836, "lat": 40.6938125, "lon": -73.9828875, "tags": {"alt_name": "Compilation Coffee Roasters", "amenity": "cafe", "name": "Compilation Coffee", "opening_hours": "Mo-Fr 07:00-17:00; Sa-Su 08:00-17:00", "phone": "+1-347-422-0271", "website": "https://shop.compilationcoffee.com"}}, {"type": "node", "id": 10022840760, "lat": 40.6949557, "lon": -73.9890393, "tags": {"barrier": "kerb", "kerb": "lowered", "tactile_paving": "yes", "wheelchair": "yes"}}, {"type": "node", "id": 10022840761, "lat": 40.6949973, "lon": -73.989078, "tags": {"barrier": "kerb", "kerb": "lowered", "tactile_paving": "yes", "wheelchair": "yes"}}, {"type": "node", "id": 10109662185, "lat": 40.6925226, "lon": -73.9883377, "tags": {"amenity": "bar", "name": "Hana Lounge"}}, {"type": "node", "id": 10112378651, "lat": 40.6935927, "lon": -73.9858169, "tags": {"addr:housenumber": "2", "addr:postcode": "11201", "addr:street": "Metrotech Center", "air_conditioning": "yes", "amenity": "cafe", "branch": "MetroTech Center", "brand": "Blank Street Coffee", "brand:wikidata": "Q114792509", "check_date": "2025-10-19", "cuisine": "coffee_shop", "delivery": "yes", "drink:coffee": "yes", "drink:espresso": "yes", "drink:tea": "yes", "drive_through": "no", "name": "Blank Street Coffee", "opening_hours": "Mo-Fr 06:30-17:30; Sa-Su 07:00-16:30", "outdoor_seating": "yes", "payment:cash": "yes", "payment:credit_cards": "yes", "payment:debit_cards": "yes", "smoking": "no", "takeaway": "yes", "website": "https://www.blankstreet.com/en-US/locations/new-york/L0ZQGWDTP9ZSJ-metrotech-center"}}, {"type": "node", "id": 10112378652, "lat": 40.6922251, "lon": -73.9839231, "tags": {"name": "JPMorgan Chase & Co", "office": "company"}}, {"type": "node", "id": 10156034599, "lat": 40.6948445, "lon": -73.9851455}, {"type": "node", "id": 10651869821, "lat": 40.6919072, "lon": -73.9828819, "tags": {"addr:housenumber": "136", "addr:postcode": "11201", "addr:street": "Willoughby Street", "amenity": "cafe", "brand": "Gong Cha", "brand:wikidata": "Q5581670", "brand:zh": "\u8ca2\u8336", "cuisine": "bubble_tea", "drink:bubble_tea": "yes", "drink:tea": "yes", "int_name": "Gong Cha", "name": "Gong Cha", "name:zh": "\u8ca2\u8336", "opening_hours": "Mo-Fr 10:30-21:00; Sa-Su 11:00-21:00", "phone": "+1-917-909-1207", "takeaway": "yes", "website": "https://gongchausa.com/new-york-brooklyn/"}}, {"type": "node", "id": 10651869823, "lat": 40.691805, "lon": -73.9832786, "tags": {"addr:housenumber": "405", "addr:postcode": "11201", "addr:street": "Gold Street", "amenity": "school", "name": "BASIS Independent Brooklyn Lower", "phone": "+1-929-295-5124", "website": "https://brooklyn.basisindependent.com"}}, {"type": "node", "id": 10695150094, "lat": 40.6914599, "lon": -73.982586, "tags": {"amenity": "cafe", "cuisine": "coffee_shop", "drink:coffee": "yes", "drink:espresso": "yes", "level": "0", "name": "Cafe d'Avignon", "takeaway": "only", "website": "https://www.cafedavignon.com/location/cafe-davignon-dekalb-market-hall-brooklyn/"}}, {"type": "node", "id": 10735099763, "lat": 40.6923011, "lon": -73.9891639, "tags": {"barrier": "kerb", "kerb": "lowered", "tactile_paving": "yes"}}, {"type": "node", "id": 10735099764, "lat": 40.6922791, "lon": -73.9892092, "tags": {"barrier": "kerb", "kerb": "lowered", "tactile_paving": "yes"}}, {"type": "node", "id": 10735099778, "lat": 40.6926315, "lon": -73.9907759, "tags": {"barrier": "kerb", "kerb": "lowered", "tactile_paving": "yes"}}, {"type": "node", "id": 10735099792, "lat": 40.6931049, "lon": -73.9906112, "tags": {"barrier": "kerb", "kerb": "lowered", "tactile_paving": "yes", "wheelchair": "yes"}}, {"type": "node", "id": 10735099793, "lat": 40.6929646, "lon": -73.9906793, "tags": {"barrier": "kerb", "kerb": "lowered", "tactile_paving": "yes"}}, {"type": "node", "id": 10735099801, "lat": 40.6938546, "lon": -73.9903402, "tags": {"barrier": "kerb", "kerb": "lowered", "tactile_paving": "yes"}}, {"type": "node", "id": 10735099805, "lat": 40.6945491, "lon": -73.9905302, "tags": {"barrier": "kerb", "kerb": "lowered", "tactile_paving": "yes"}}, {"type": "node", "id": 10735099808, "lat": 40.6947112, "lon": -73.990581, "tags": {"barrier": "kerb", "kerb": "lowered", "tactile_paving": "yes", "wheelchair": "yes"}}, {"type": "node", "id": 10735099831, "lat": 40.6950171, "lon": -73.9900237, "tags": {"barrier": "kerb", "kerb": "lowered", "tactile_paving": "yes", "wheelchair": "yes"}}, {"type": "node", "id": 10735099832, "lat": 40.6949873, "lon": -73.9906343, "tags": {"barrier": "kerb", "kerb": "lowered", "tactile_paving": "yes", "wheelchair": "yes"}}, {"type": "node", "id": 10751347219, "lat": 40.6912182, "lon": -73.9895581}, {"type": "node", "id": 10751347220, "lat": 40.6914055, "lon": -73.9902639}, {"type": "node", "id": 10751347221, "lat": 40.6920323, "lon": -73.9900046}, {"type": "node", "id": 10751376188, "lat": 40.692218, "lon": -73.9939148}, {"type": "node", "id": 10751376189, "lat": 40.6921254, "lon": -73.9935712}, {"type": "node", "id": 10751376190, "lat": 40.6919874, "lon": -73.9936325}, {"type": "node", "id": 10751376191, "lat": 40.6920832, "lon": -73.9939869}, {"type": "node", "id": 10751379469, "lat": 40.6903835, "lon": -73.9907164}, {"type": "node", "id": 10751379470, "lat": 40.6903152, "lon": -73.990751}, {"type": "node", "id": 10754611536, "lat": 40.6916022, "lon": -73.986184}, {"type": "node", "id": 10754611537, "lat": 40.6915891, "lon": -73.9858051}, {"type": "node", "id": 10754611538, "lat": 40.6914549, "lon": -73.985812}, {"type": "node", "id": 10754611539, "lat": 40.6914625, "lon": -73.9861907}, {"type": "node", "id": 10754611540, "lat": 40.6925528, "lon": -73.9861395}, {"type": "node", "id": 10754611541, "lat": 40.6925472, "lon": -73.9859353}, {"type": "node", "id": 10754611542, "lat": 40.6922744, "lon": -73.9859516}, {"type": "node", "id": 10754611543, "lat": 40.6922816, "lon": -73.9861269}, {"type": "node", "id": 10754611544, "lat": 40.6922959, "lon": -73.9861469}, {"type": "node", "id": 10754611545, "lat": 40.6923116, "lon": -73.9861544}, {"type": "node", "id": 10754611546, "lat": 40.6923554, "lon": -73.9881057}, {"type": "node", "id": 10754611547, "lat": 40.6923504, "lon": -73.9879486}, {"type": "node", "id": 10754611548, "lat": 40.692657, "lon": -73.9879324}, {"type": "node", "id": 10817712250, "lat": 40.6920015, "lon": -73.9847858, "tags": {"addr:city": "Brooklyn", "addr:housenumber": "102", "addr:postcode": "11201", "addr:state": "NY", "addr:street": "Willoughby Street", "amenity": "restaurant", "cuisine": "salad;sandwich", "indoor_seating": "yes", "name": "Everytable", "opening_hours": "Mo-Su 07:00-19:00", "outdoor_seating": "yes", "phone": "+1-646-222-9334", "website": "https://everytable.com/"}}, {"type": "node", "id": 11492713480, "lat": 40.6916033, "lon": -73.9888725, "tags": {"amenity": "restaurant", "cuisine": "barbecue", "name": "Mighty Quinn's BBQ", "opening_hours": "Mo-Fr 11:00-21:00; Sa-Su 12:00-21:00", "phone": "+1-718-971-2139", "website": "https://order.mightyquinnsbbq.com/location/1-boerum-place/"}}, {"type": "node", "id": 11731175326, "lat": 40.6949167, "lon": -73.9890409}, {"type": "node", "id": 11731175327, "lat": 40.6949075, "lon": -73.9890436}, {"type": "node", "id": 11731175328, "lat": 40.6948646, "lon": -73.9890801}, {"type": "node", "id": 11731175329, "lat": 40.6949968, "lon": -73.9890689}, {"type": "node", "id": 11731175330, "lat": 40.6949696, "lon": -73.9890378}, {"type": "node", "id": 11731175331, "lat": 40.6949919, "lon": -73.9890533}, {"type": "node", "id": 11731175332, "lat": 40.6949833, "lon": -73.9890426}, {"type": "node", "id": 11731175333, "lat": 40.6949995, "lon": -73.9891441}, {"type": "node", "id": 11731175334, "lat": 40.6949979, "lon": -73.9891573}, {"type": "node", "id": 11731175335, "lat": 40.6949881, "lon": -73.9891876}, {"type": "node", "id": 11731175336, "lat": 40.694986, "lon": -73.9892011}, {"type": "node", "id": 11731175337, "lat": 40.6950214, "lon": -73.990289}, {"type": "node", "id": 11731175338, "lat": 40.6949943, "lon": -73.990619}, {"type": "node", "id": 11731175339, "lat": 40.6949766, "lon": -73.9906472}, {"type": "node", "id": 11731175340, "lat": 40.6949652, "lon": -73.990653}, {"type": "node", "id": 11731175341, "lat": 40.6939245, "lon": -73.9903377}, {"type": "node", "id": 11731175342, "lat": 40.6938733, "lon": -73.9903455}, {"type": "node", "id": 11731175344, "lat": 40.6938843, "lon": -73.9903446}, {"type": "node", "id": 11731175345, "lat": 40.693893, "lon": -73.9903404}, {"type": "node", "id": 11731175346, "lat": 40.6939109, "lon": -73.9903348}, {"type": "node", "id": 11731175347, "lat": 40.6939028, "lon": -73.9903354}, {"type": "node", "id": 11731175348, "lat": 40.6938275, "lon": -73.9903315}, {"type": "node", "id": 11731175349, "lat": 40.6937923, "lon": -73.990321}, {"type": "node", "id": 11731175350, "lat": 40.6936879, "lon": -73.9903229}, {"type": "node", "id": 11731175351, "lat": 40.6936457, "lon": -73.9903413}, {"type": "node", "id": 11731175352, "lat": 40.6936122, "lon": -73.9903571}, {"type": "node", "id": 11731175353, "lat": 40.6936014, "lon": -73.9903623}, {"type": "node", "id": 11731175354, "lat": 40.6935807, "lon": -73.9903623}, {"type": "node", "id": 11731175355, "lat": 40.6935895, "lon": -73.990365}, {"type": "node", "id": 11731175356, "lat": 40.6935332, "lon": -73.990357}, {"type": "node", "id": 11731175357, "lat": 40.6935689, "lon": -73.9903558}, {"type": "node", "id": 11731175358, "lat": 40.693557, "lon": -73.990353}, {"type": "node", "id": 11731175359, "lat": 40.6935449, "lon": -73.9903532}, {"type": "node", "id": 11731175360, "lat": 40.6932469, "lon": -73.990494}, {"type": "node", "id": 11731175361, "lat": 40.693196, "lon": -73.9905688}, {"type": "node", "id": 11731175362, "lat": 40.6932049, "lon": -73.9905624}, {"type": "node", "id": 11731175363, "lat": 40.6932126, "lon": -73.9905518}, {"type": "node", "id": 11731175364, "lat": 40.6932356, "lon": -73.9905021}, {"type": "node", "id": 11731175365, "lat": 40.6932267, "lon": -73.9905143}, {"type": "node", "id": 11731175366, "lat": 40.6932197, "lon": -73.9905337}, {"type": "node", "id": 11731175367, "lat": 40.6927761, "lon": -73.9907692}, {"type": "node", "id": 11731175368, "lat": 40.692643, "lon": -73.9907836}, {"type": "node", "id": 11731181969, "lat": 40.6926634, "lon": -73.9907926}, {"type": "node", "id": 11731181970, "lat": 40.6926856, "lon": -73.9907961}, {"type": "node", "id": 11731181971, "lat": 40.6927064, "lon": -73.9907957}, {"type": "node", "id": 11731181972, "lat": 40.6927283, "lon": -73.9907922}, {"type": "node", "id": 11731181973, "lat": 40.6927522, "lon": -73.9907815}, {"type": "node", "id": 11731181974, "lat": 40.69256, "lon": -73.9906487}, {"type": "node", "id": 11731181975, "lat": 40.6926134, "lon": -73.9907607}, {"type": "node", "id": 11731181976, "lat": 40.6925909, "lon": -73.9907322}, {"type": "node", "id": 11731181977, "lat": 40.6925675, "lon": -73.9906817}, {"type": "node", "id": 11731181978, "lat": 40.6925778, "lon": -73.9907083}, {"type": "node", "id": 11731181979, "lat": 40.6924561, "lon": -73.9899483}, {"type": "node", "id": 11731181980, "lat": 40.6924352, "lon": -73.9898153}, {"type": "node", "id": 11731181981, "lat": 40.6924199, "lon": -73.9897342}, {"type": "node", "id": 11731181982, "lat": 40.692417, "lon": -73.9896764}, {"type": "node", "id": 11731181983, "lat": 40.6924187, "lon": -73.9896933}, {"type": "node", "id": 11731181984, "lat": 40.6924183, "lon": -73.9897156}, {"type": "node", "id": 11731181985, "lat": 40.6923791, "lon": -73.9894745}, {"type": "node", "id": 11731181986, "lat": 40.6923682, "lon": -73.989436}, {"type": "node", "id": 11731181987, "lat": 40.6923514, "lon": -73.9893865}, {"type": "node", "id": 11731181988, "lat": 40.6923283, "lon": -73.9893314}, {"type": "node", "id": 11731181989, "lat": 40.6923061, "lon": -73.9892857}, {"type": "node", "id": 11731181990, "lat": 40.6922905, "lon": -73.9892554}, {"type": "node", "id": 11731181991, "lat": 40.6922835, "lon": -73.9892372}, {"type": "node", "id": 11731181992, "lat": 40.69228, "lon": -73.9892208}, {"type": "node", "id": 11731181993, "lat": 40.6922931, "lon": -73.9891707}, {"type": "node", "id": 11731181994, "lat": 40.6922797, "lon": -73.9891958}, {"type": "node", "id": 11731181995, "lat": 40.6922867, "lon": -73.9891778}, {"type": "node", "id": 11731181996, "lat": 40.6922825, "lon": -73.9891856}, {"type": "node", "id": 11731181997, "lat": 40.6923124, "lon": -73.9891587}, {"type": "node", "id": 11731181998, "lat": 40.6923285, "lon": -73.9891545}, {"type": "node", "id": 11731181999, "lat": 40.6924104, "lon": -73.9891445}, {"type": "node", "id": 11731182000, "lat": 40.6924801, "lon": -73.9891411}, {"type": "node", "id": 11731182001, "lat": 40.6925682, "lon": -73.9891406}, {"type": "node", "id": 11731182002, "lat": 40.6929734, "lon": -73.989173}, {"type": "node", "id": 11731182003, "lat": 40.6928392, "lon": -73.989164}, {"type": "node", "id": 11731182004, "lat": 40.6926977, "lon": -73.9891474}, {"type": "node", "id": 11735687136, "lat": 40.6930572, "lon": -73.9892135}, {"type": "node", "id": 11735687309, "lat": 40.6937693, "lon": -73.989682}, {"type": "node", "id": 11735687310, "lat": 40.6936892, "lon": -73.9896863}, {"type": "node", "id": 11735687312, "lat": 40.6937878, "lon": -73.9896811}, {"type": "node", "id": 11735687316, "lat": 40.6937787, "lon": -73.9896816}, {"type": "node", "id": 11735687325, "lat": 40.6940318, "lon": -73.9896692}, {"type": "node", "id": 11735687328, "lat": 40.6940518, "lon": -73.9896682}, {"type": "node", "id": 11735687329, "lat": 40.6941307, "lon": -73.9896644}, {"type": "node", "id": 11735687331, "lat": 40.6940417, "lon": -73.9896687}, {"type": "node", "id": 11735687337, "lat": 40.6939104, "lon": -73.9896751}, {"type": "node", "id": 11735687366, "lat": 40.6936815, "lon": -73.9896867}, {"type": "node", "id": 11736092443, "lat": 40.695023, "lon": -73.9901762, "tags": {"barrier": "kerb", "kerb": "lowered", "tactile_paving": "yes", "wheelchair": "yes"}}, {"type": "node", "id": 11736092476, "lat": 40.695024, "lon": -73.9902026}, {"type": "node", "id": 11736092477, "lat": 40.6941583, "lon": -73.9904098}, {"type": "node", "id": 11736092568, "lat": 40.6941405, "lon": -73.9896639}, {"type": "node", "id": 11736092582, "lat": 40.6950163, "lon": -73.9900021}, {"type": "node", "id": 11736092583, "lat": 40.6927005, "lon": -73.9891477}, {"type": "node", "id": 11736092588, "lat": 40.6947375, "lon": -73.9890894}, {"type": "node", "id": 11736092589, "lat": 40.6923754, "lon": -73.9894615}, {"type": "node", "id": 11783969920, "lat": 40.689538, "lon": -73.9851519, "tags": {"addr:housenumber": "217", "addr:postcode": "11201", "addr:street": "Livingston Street", "amenity": "cafe", "cuisine": "coffee_shop", "name": "Jack's Stir Brew Coffee", "opening_hours": "Mo-Fr 07:00-16:00; Sa-Su 08:00-16:00"}}, {"type": "node", "id": 12294824399, "lat": 40.6913449, "lon": -73.9836639}, {"type": "node", "id": 12294824400, "lat": 40.6914411, "lon": -73.9842557}, {"type": "node", "id": 12480632412, "lat": 40.6914216, "lon": -73.9828851, "tags": {"amenity": "restaurant", "brand": "Fogo de Ch\u00e3o", "brand:wikidata": "Q5464133", "cuisine": "brazilian;steak_house", "level": "0", "name": "Fogo de Ch\u00e3o"}}, {"type": "node", "id": 12563374901, "lat": 40.6913475, "lon": -73.9850419, "tags": {"addr:city": "Brooklyn", "addr:housenumber": "397", "addr:postcode": "11201", "addr:state": "NY", "addr:street": "Bridge Street", "contact:instagram": "recursecenter", "contact:linkedin": "https://www.linkedin.com/company/recurse-center/", "contact:twitter": "recursecenter", "name": "Recurse Center", "office": "educational_institution", "website": "https://www.recurse.com/", "wikidata": "Q27919546", "wikipedia": "en:Recurse Center"}}, {"type": "node", "id": 13111159320, "lat": 40.691377, "lon": -73.9836843}, {"type": "node", "id": 13111159322, "lat": 40.6914338, "lon": -73.9840081}, {"type": "node", "id": 13240118778, "lat": 40.6930255, "lon": -73.9867348, "tags": {"addr:city": "Brooklyn", "addr:housenumber": "15", "addr:postcode": "11201", "addr:state": "NY", "addr:street": "Metrotech Center", "addr:unit": "7", "check_date": "2025-10-18", "email": "Gilmerlawfirmpllc@gmail.com", "name": "The Gilmer Law Firm, PLLC", "office": "lawyer", "opening_hours": "Mo-Sa 09:00-17:00", "phone": "+1-718-864-2011", "start_date": "2002-09-04", "website": "https://gilmerlegal.com/"}}, {"type": "way", "id": 20517264, "nodes": [219763294, 11731175350, 11731175351, 11731175352, 11731175353, 11731175355, 11731175354, 11731175357, 11731175358, 11731175359, 11731175356, 11731175360, 11731175364, 11731175365, 11731175366, 11731175363, 11731175362, 11731175361, 10735099792, 10735099793, 11731175367, 11731181973, 11731181972, 11731181971, 11731181970, 11731181969, 11731175368, 10735099778, 11731181975, 11731181976, 11731181978, 11731181977, 11731181974, 11731181979, 11731181980, 11731181981, 11731181984, 11731181983, 11731181982, 11731181985, 11736092589, 11731181986, 11731181987, 11731181988, 11731181989, 11731181990, 11731181991, 11731181992, 10735099764, 11731181994, 11731181996, 11731181995, 11731181993, 10735099763, 11731181997, 11731181998, 219763334, 11731181999, 11731182000, 11731182001, 11731182004, 11736092583, 11731182003, 11731182002, 248606697, 11735687136, 248606698, 11735687366, 11735687310, 11735687309, 11735687316, 11735687312, 11735687337, 11735687325, 11735687331, 11735687328, 11735687329, 11736092568, 248606699, 248606700, 11736092588, 219763348, 11731175328, 11731175327, 11731175326, 10022840760, 11731175330, 11731175332, 11731175331, 11731175329, 10022840761, 11731175333, 11731175334, 11731175335, 11731175336, 11736092582, 10735099831, 11736092443, 11736092476, 219763368, 11731175337, 5799937198, 11731175338, 10735099832, 11731175339, 11731175340, 219763282, 10735099808, 10735099805, 11736092477, 11731175341, 11731175346, 11731175347, 11731175345, 11731175344, 11731175342, 10735099801, 11731175348, 11731175349, 5799937201, 219763294], "tags": {"addr:city": "Brooklyn", "addr:postcode": "11201", "addr:state": "NY", "addr:street": "Johnson Street", "leisure": "park", "name": "Columbus Park", "opening_hours": "06:00-25:00", "operator": "New York City Department of Parks and Recreation", "operator:short": "NYC Parks", "operator:type": "public", "operator:wikidata": "Q1894232", "wikidata": "Q42389569", "wikipedia": "en:Columbus Park (Brooklyn)"}}, {"type": "way", "id": 174220810, "nodes": [1849248786, 6993160979, 4978194634, 4978194636, 6993160980, 6993160974, 42523928, 6993160945, 1849248786], "tags": {"alt_name": "Metrotech Commons", "leisure": "park", "name": "Brooklyn Commons", "operator": "Brookfield Properties", "operator:type": "private", "operator:wikidata": "Q4974584", "website": "https://brooklyncommons.com/"}}, {"type": "way", "id": 191317112, "nodes": [2019017489, 6543158309, 2568316814, 2568316813, 2568316812, 2019017484, 2568316804, 2568316795, 2568316796, 2568316783, 2568316784, 2568316749, 2568316748, 2568316741, 2019017497, 6543158310, 2019017495, 2019017489], "tags": {"leisure": "park"}}, {"type": "way", "id": 241846073, "nodes": [2494254764, 2494254763, 2494254762, 2494254754, 2494254747, 2494254733, 2494254735, 2494254749, 2494254751, 2494254738, 2494254759, 2494254767, 2494254766, 2494254764], "tags": {"addr:housenumber": "131", "addr:postcode": "11201", "addr:street": "Livingston Street", "alt_name": "New York City Board of Education", "building": "yes", "height": "24.1", "name": "New York City Department of Education", "nycdoitt:bin": "3000420", "office": "government"}}, {"type": "way", "id": 250369751, "nodes": [2568345405, 2568345406, 2568345400, 2568345402, 2568345407, 2568345408, 2568345409, 1693893363, 2568345436, 2568345435, 1693893369, 2568345411, 2568345405], "tags": {"addr:city": "Brooklyn", "addr:housenumber": "2", "addr:postcode": "11201", "addr:state": "NY", "addr:street": "MetroTech", "building": "yes", "height": "57.5", "layer": "1", "name": "2 MetroTech Center", "nycdoitt:bin": "3255603", "office": "yes"}}, {"type": "way", "id": 250372636, "nodes": [2568361436, 2568361448, 2568361446, 2568361454, 2568361456, 2568361465, 2568361463, 2568361473, 2568361471, 2568361433, 3670173276, 3670173277, 3670173278, 2568361436], "tags": {"addr:city": "Brooklyn", "addr:housenumber": "15", "addr:postcode": "11201", "addr:state": "NY", "addr:street": "Metrotech Center", "alt_name": "15 MetroTech Center", "amenity": "university", "building": "school", "height": "40.1", "nycdoitt:bin": "3058187"}}, {"type": "way", "id": 250372685, "nodes": [2568361440, 2568361442, 2568361452, 2568361450, 2568361444, 2568361440], "tags": {"amenity": "university", "building": "school", "height": "12.4", "name": "Wunsch Building", "nycdoitt:bin": "3058185", "wikidata": "Q8039268"}}, {"type": "way", "id": 512264724, "nodes": [5009155037, 5754824463, 5009155039, 5009155040, 5009155041, 5009155042, 7561532120, 7561532121, 5009155045, 7561532122, 7561532123, 5009155047, 7561532124, 6993160950, 6993160973, 2568361433, 3670173276, 3670173277, 3670173278, 2568361436, 2568361438, 6993160974, 42523928, 10156034599, 2568345487, 2568345490, 2568345494, 5009155052, 8837943948, 5009155053, 2568345496, 2568345485, 2568345481, 5009155054, 5009155037], "tags": {"amenity": "university", "name": "New York University - Brooklyn campus", "wheelchair": "yes"}}, {"type": "way", "id": 1039404269, "nodes": [9135361054, 12294824400, 13111159322, 9571394577, 13111159320, 12294824399, 9571394578, 9571394582, 9135361054], "tags": {"alt_name": "Abolitionist Place Park", "leisure": "park", "name": "Abolitionist Place", "operator": "New York City Economic Development Corporation", "website": "https://edc.nyc/project/abolitionist-place"}}, {"type": "way", "id": 1156112557, "nodes": [9571471965, 9571471970, 9571471971, 9571471966, 9571471967, 10751347219, 10751347220, 7428857598, 10751347221, 9571471965], "tags": {"addr:city": "Brooklyn", "addr:housenumber": "250", "addr:postcode": "11201", "addr:state": "NY", "addr:street": "Joralemon Street", "amenity": "college", "name": "Brooklyn Law School", "website": "https://www.brooklaw.edu/en/Maps-Directions-Parking"}}, {"type": "way", "id": 1156114230, "nodes": [2523619907, 10751379469, 10751379470, 2523619730, 2523619723, 2523619728, 2523619824, 2523619828, 2523619907], "tags": {"amenity": "college"}}, {"type": "way", "id": 1156115255, "nodes": [10751376188, 10751376189, 10751376190, 10751376191, 10751376188], "tags": {"addr:city": "Brooklyn", "addr:housenumber": "148-150", "addr:postcode": "11201", "addr:state": "NY", "addr:street": "Clinton Street", "amenity": "college", "name": "Brooklyn Law School Residence Halls", "website": "https://www.brooklaw.edu/en/Maps-Directions-Parking"}}, {"type": "way", "id": 1156467669, "nodes": [10754611536, 10754611537, 10754611538, 10754611539, 10754611536]}, {"type": "way", "id": 1156467670, "nodes": [10754611540, 10754611541, 10754611542, 10754611543, 10754611544, 10754611545, 10754611540]}, {"type": "way", "id": 1156467671, "nodes": [2494254853, 10754611546, 10754611547, 10754611548, 2494254853]}, {"type": "relation", "id": 15626924, "members": [{"type": "way", "ref": 1156112557, "role": "outer"}, {"type": "way", "ref": 1156114230, "role": "outer"}, {"type": "way", "ref": 1156115255, "role": "outer"}], "tags": {"addr:city": "Brooklyn", "addr:housenumber": "250", "addr:postcode": "11201", "addr:state": "NY", "addr:street": "Joralemon Street", "amenity": "college", "name": "Brooklyn Law School", "type": "multipolygon", "website": "https://www.brooklaw.edu/en/Maps-Directions-Parking", "wikidata": "Q1812600", "wikipedia": "en:Brooklyn Law School"}}, {"type": "relation", "id": 15631129, "members": [{"type": "way", "ref": 1156467671, "role": "outer"}, {"type": "way", "ref": 1156467670, "role": "outer"}, {"type": "way", "ref": 1156467669, "role": "outer"}], "tags": {"addr:city": "Brooklyn", "addr:housenumber": "151", "addr:postcode": "11201", "addr:state": "NY", "addr:street": "Lawrence Street", "amenity": "college", "name": "ASA College", "type": "multipolygon", "wikidata": "Q4654066", "wikipedia": "en:ASA College"}}]}