{"version": 0.6, "generator": "Overpass API 0.7.62.8 e802775f", "osm3s": {"timestamp_osm_base": "2025-12-01T16:01:21Z", "copyright": "The data included in this document is from www.openstreetmap.org. The data is made available under ODbL."}, "elements": [{"type": "node", "id": 2339792469, "lat": 40.7946577, "lon": -73.947675}, {"type": "node", "id": 2339792477, "lat": 40.7948856, "lon": -73.9467848}, {"type": "node", "id": 2339792479, "lat": 40.7944265, "lon": -73.9471224}, {"type": "node", "id": 2339792485, "lat": 40.795118, "lon": -73.9473389}, {"type": "node", "id": 2340002605, "lat": 40.7931783, "lon": -73.9428482}, {"type": "node", "id": 2340002607, "lat": 40.7925887, "lon": -73.9422932}, {"type": "node", "id": 2340002609, "lat": 40.7927321, "lon": -73.9436141}, {"type": "node", "id": 2340002610, "lat": 40.7933212, "lon": -73.9431834}, {"type": "node", "id": 2340002613, "lat": 40.7929082, "lon": -73.9430451}, {"type": "node", "id": 2340002615, "lat": 40.7919951, "lon": -73.941652}, {"type": "node", "id": 2340002617, "lat": 40.7923541, "lon": -73.9424462}, {"type": "node", "id": 2340002620, "lat": 40.7919158, "lon": -73.9417064}, {"type": "node", "id": 2762327893, "lat": 40.7929592, "lon": -73.9455878, "tags": {"addr:housenumber": "1711", "addr:postcode": "10029", "addr:street": "Lexington Avenue", "amenity": "restaurant", "contact:facebook": "EHBottlingCo", "contact:instagram": "eastharlembottlingco", "delivery": "12:00-21:00", "name": "East Harlem Bottling Co", "opening_hours": "Mo-Fr 11:30-00:00; Sa, Su 11:00-00:00", "phone": "+1 646-922-7705"}}, {"type": "node", "id": 2762327901, "lat": 40.793587, "lon": -73.9451239, "tags": {"addr:housenumber": "1735", "addr:postcode": "10029", "addr:street": "Lexington Avenue", "amenity": "restaurant", "cuisine": "mexican", "name": "Jaguar"}}, {"type": "node", "id": 2762328154, "lat": 40.7920554, "lon": -73.9416618}, {"type": "node", "id": 2762328417, "lat": 40.7923135, "lon": -73.9422736}, {"type": "node", "id": 2762328433, "lat": 40.7923303, "lon": -73.9414473}, {"type": "node", "id": 2762328439, "lat": 40.7923342, "lon": -73.9414566}, {"type": "node", "id": 2762328629, "lat": 40.7925099, "lon": -73.9413151}, {"type": "node", "id": 2762328664, "lat": 40.7925406, "lon": -73.9421065}, {"type": "node", "id": 2762328674, "lat": 40.7925457, "lon": -73.9414}, {"type": "node", "id": 2762328683, "lat": 40.7925545, "lon": -73.9413935}, {"type": "node", "id": 2762328784, "lat": 40.7926495, "lon": -73.9416414}, {"type": "node", "id": 2762328788, "lat": 40.7926568, "lon": -73.941636}, {"type": "node", "id": 2762328807, "lat": 40.7926791, "lon": -73.9417672}, {"type": "node", "id": 2762328831, "lat": 40.792697, "lon": -73.9417541}, {"type": "node", "id": 2762328834, "lat": 40.7926993, "lon": -73.9424828}, {"type": "node", "id": 2762328880, "lat": 40.7927496, "lon": -73.9424458}, {"type": "node", "id": 2762329059, "lat": 40.7929515, "lon": -73.9429246}, {"type": "node", "id": 2762329186, "lat": 40.7931162, "lon": -73.9428034}, {"type": "node", "id": 2762329307, "lat": 40.793322, "lon": -73.9415099}, {"type": "node", "id": 2762329345, "lat": 40.7933543, "lon": -73.9426691}, {"type": "node", "id": 2762329376, "lat": 40.7934235, "lon": -73.9414344}, {"type": "node", "id": 2762329675, "lat": 40.7938389, "lon": -73.9423425}, {"type": "node", "id": 2762395091, "lat": 40.7956148, "lon": -73.9441535}, {"type": "node", "id": 2762395186, "lat": 40.7957217, "lon": -73.9440756}, {"type": "node", "id": 2762395220, "lat": 40.7958265, "lon": -73.9443244}, {"type": "node", "id": 2762395237, "lat": 40.7959048, "lon": -73.9448422}, {"type": "node", "id": 2762395242, "lat": 40.7959063, "lon": -73.9445131}, {"type": "node", "id": 2762395245, "lat": 40.7959105, "lon": -73.9448381}, {"type": "node", "id": 2762395262, "lat": 40.7959578, "lon": -73.9442286}, {"type": "node", "id": 2762395267, "lat": 40.7959897, "lon": -73.9450263}, {"type": "node", "id": 2762395270, "lat": 40.7960109, "lon": -73.9447617}, {"type": "node", "id": 2762395272, "lat": 40.7960295, "lon": -73.9449301}, {"type": "node", "id": 2762395279, "lat": 40.7960374, "lon": -73.9444176}, {"type": "node", "id": 2762395284, "lat": 40.7960511, "lon": -73.9449816}, {"type": "node", "id": 2762395299, "lat": 40.7960962, "lon": -73.9446777}, {"type": "node", "id": 2762395304, "lat": 40.7961032, "lon": -73.9446944}, {"type": "node", "id": 2762395310, "lat": 40.7961089, "lon": -73.9446684}, {"type": "node", "id": 2762395316, "lat": 40.7961159, "lon": -73.9446851}, {"type": "node", "id": 2762395320, "lat": 40.7961302, "lon": -73.9446186}, {"type": "node", "id": 2762395323, "lat": 40.7961483, "lon": -73.9446615}, {"type": "node", "id": 2762395360, "lat": 40.7962839, "lon": -73.9444468}, {"type": "node", "id": 2762395365, "lat": 40.7963031, "lon": -73.9444926}, {"type": "node", "id": 2762395368, "lat": 40.7963494, "lon": -73.9443991}, {"type": "node", "id": 2762395370, "lat": 40.7963812, "lon": -73.9446737}, {"type": "node", "id": 2762395373, "lat": 40.7964015, "lon": -73.944722}, {"type": "node", "id": 2762395377, "lat": 40.7964657, "lon": -73.9446752}, {"type": "node", "id": 6071905708, "lat": 40.7940663, "lon": -73.9430902, "tags": {"addr:housenumber": "2000", "addr:postcode": "10029", "addr:street": "3rd Avenue", "amenity": "restaurant", "cuisine": "caribbean", "name": "El Chevere Cuchifritos", "payment:cash": "yes", "payment:credit_cards": "yes", "phone": "+1 212-427-3952", "takeaway": "yes"}}, {"type": "node", "id": 6206711584, "lat": 40.7952819, "lon": -73.9452985, "tags": {"addr:housenumber": "123", "addr:street": "East 110th Street", "amenity": "restaurant", "cuisine": "mexican", "name": "El Paso", "phone": "+1-212-831-9831", "website": "https://elpasony.com/"}}, {"type": "node", "id": 6206712391, "lat": 40.7928702, "lon": -73.9410205, "tags": {"addr:housenumber": "2127", "addr:street": "2nd Avenue", "amenity": "cafe", "cuisine": "sandwich", "name": "Raspberry Deli & Grocery", "opening_hours": "Mo-Fr 06:00-15:30; Sa 06:00-12:00; Su 06:30-14:30", "payment:american_express": "yes", "payment:cash": "yes", "payment:contactless": "yes", "payment:discover_card": "yes", "payment:mastercard": "yes", "payment:visa": "yes", "phone": "+1 212-860-2615", "seats": "9", "takeaway": "yes"}}, {"type": "node", "id": 6918665902, "lat": 40.793597, "lon": -73.9425188}, {"type": "node", "id": 6918665903, "lat": 40.7932076, "lon": -73.9415952}, {"type": "node", "id": 6918665904, "lat": 40.7928075, "lon": -73.9413908}, {"type": "node", "id": 6918665905, "lat": 40.7934536, "lon": -73.941412}, {"type": "node", "id": 6918665906, "lat": 40.7930445, "lon": -73.9412215}, {"type": "node", "id": 7447541789, "lat": 40.7924379, "lon": -73.945947, "tags": {"office": "lawyer"}}, {"type": "node", "id": 7609989955, "lat": 40.7931128, "lon": -73.9408588, "tags": {"amenity": "restaurant", "cuisine": "chinese", "name": "No Pork Kitchen"}}, {"type": "node", "id": 7609989957, "lat": 40.7934903, "lon": -73.9409967, "tags": {"addr:housenumber": "251", "addr:street": "East 110th Street", "amenity": "restaurant", "name": "Tastings NYC"}}, {"type": "node", "id": 7777321725, "lat": 40.7920854, "lon": -73.9418585}, {"type": "node", "id": 7777321745, "lat": 40.7923757, "lon": -73.9424553}, {"type": "node", "id": 7777321772, "lat": 40.7921034, "lon": -73.9418479}, {"type": "node", "id": 8796922053, "lat": 40.7949369, "lon": -73.9469063}, {"type": "node", "id": 8796922080, "lat": 40.7944749, "lon": -73.9472407}, {"type": "node", "id": 9081441806, "lat": 40.7934257, "lon": -73.9408572, "tags": {"addr:housenumber": "255", "addr:postcode": "10029", "addr:street": "East 110th Street", "amenity": "restaurant", "cuisine": "mexican", "delivery": "yes", "facebook": "quesadillasdonamaty", "instagram": "quesadillasdonamaty", "name": "Quesadillas Do\u00f1a Mary", "opening_hours": "11:00-23:00", "phone": "+1 917-265-8733", "takeaway": "yes", "website": "https://www.quesadillasdonamaty.com"}}, {"type": "node", "id": 9408965066, "lat": 40.7944947, "lon": -73.9472877, "tags": {"barrier": "gate"}}, {"type": "node", "id": 9408965068, "lat": 40.7947938, "lon": -73.947575}, {"type": "node", "id": 9408965072, "lat": 40.7945079, "lon": -73.9473191}, {"type": "node", "id": 9408965075, "lat": 40.794621, "lon": -73.9469823, "tags": {"barrier": "gate"}}, {"type": "node", "id": 9408965081, "lat": 40.7950476, "lon": -73.9471696, "tags": {"barrier": "gate"}}, {"type": "node", "id": 9726158585, "lat": 40.7937413, "lon": -73.9450054, "tags": {"addr:housenumber": "1743", "addr:postcode": "10029", "addr:street": "Lexington Avenue", "amenity": "restaurant", "cuisine": "mexican", "delivery": "yes", "fax": "+1 212-828-6522", "name": "Taqueria Guadalupe", "phone": "+1 212-828-6520", "takeaway": "yes", "wheelchair": "no"}}, {"type": "node", "id": 11949145282, "lat": 40.795647, "lon": -73.94413}, {"type": "node", "id": 11949145283, "lat": 40.7956876, "lon": -73.9441004}, {"type": "node", "id": 12605171178, "lat": 40.7925094, "lon": -73.9474093, "tags": {"amenity": "school", "denomination": "catholic", "grades": "9-12", "mascot": "Lions", "name": "Cristo Rey New York High School", "religion": "christian"}}, {"type": "way", "id": 225171034, "nodes": [2339792485, 9408965081, 8796922053, 2339792477, 9408965075, 2339792479, 8796922080, 9408965066, 9408965072, 2339792469, 9408965068, 2339792485], "tags": {"barrier": "fence", "fence_type": "chain_link", "leisure": "park", "name": "Peter Minuit Playground", "website": "https://www.nycgovparks.org/parks/peter-minuit-playground/", "wikidata": "Q49541703"}}, {"type": "way", "id": 225189513, "nodes": [2340002605, 2340002610, 2340002609, 2340002620, 2340002615, 7777321725, 7777321772, 2340002617, 7777321745, 2340002607, 2340002613, 2340002605], "tags": {"leisure": "park", "name": "Poor Richard's Playground"}}, {"type": "way", "id": 271277663, "nodes": [2762328807, 2762328831, 2762328784, 2762328788, 2762328683, 2762328674, 2762328629, 2762328433, 2762328439, 2762328154, 2762328417, 2762328664, 2762328834, 2762328880, 2762329059, 2762329186, 2762328807], "tags": {"addr:housenumber": "240", "addr:postcode": "10029", "addr:street": "East 109th Street", "amenity": "school", "building": "school", "building:levels": "6", "ele": "5", "gnis:feature_id": "961275", "height": "17.4", "name": "Esperanza Preparatory Academy", "nycdoitt:bin": "1052433", "website": "https://epaschool.org/"}}, {"type": "way", "id": 271281551, "nodes": [2762395360, 2762395365, 2762395320, 2762395323, 2762395316, 2762395310, 2762395299, 2762395304, 2762395270, 2762395242, 2762395279, 2762395262, 2762395220, 2762395186, 11949145283, 11949145282, 2762395091, 2762395237, 2762395245, 2762395267, 2762395284, 2762395272, 2762395370, 2762395373, 2762395377, 2762395368, 2762395360], "tags": {"addr:housenumber": "141", "addr:postcode": "10029", "addr:street": "East 111th Street", "amenity": "school", "building": "yes", "ele": "5", "gnis:feature_id": "954236", "height": "27.1", "name": "Public School 101", "nycdoitt:bin": "1081346"}}, {"type": "way", "id": 738918540, "nodes": [2762329675, 6918665905, 2762329376, 2762329307, 6918665903, 6918665906, 6918665904, 2762329345, 6918665902, 2762329675], "tags": {"addr:postcode": "10029", "amenity": "school", "name": "Public School 83"}}]}