{"version": 0.6, "generator": "Overpass API 0.7.62.8 e802775f", "osm3s": {"timestamp_osm_base": "2025-12-01T15:57:15Z", "copyright": "The data included in this document is from www.openstreetmap.org. The data is made available under ODbL."}, "elements": [{"type": "node", "id": 5395616071, "lat": 40.6927757, "lon": -73.8579102, "tags": {"addr:housenumber": "86-07", "addr:street": "Jamaica Avenue", "name": "James F. Rooney, Esq.", "office": "lawyer"}}, {"type": "node", "id": 5397482648, "lat": 40.6926352, "lon": -73.8587959, "tags": {"addr:city": "Woodhaven", "addr:housenumber": "85-07", "addr:postcode": "11421", "addr:state": "NY", "addr:street": "Jamaica Avenue", "amenity": "restaurant", "cuisine": "pizza", "delivery": "yes", "name": "Sal's Pizzeria", "opening_hours": "Su-Th 11:00-20:45, Fr-Sa 11:00-22:00", "phone": "+1-718-441-2606", "website": "https://www.salspizzeriaofwoodhaven.com/"}}, {"type": "node", "id": 5397489397, "lat": 40.6926396, "lon": -73.8586976, "tags": {"addr:housenumber": "85-09", "addr:street": "Jamaica Avenue", "amenity": "restaurant", "cuisine": "sushi", "name": "U-Me Sushi", "phone": "+1-718-849-6868", "website": "https://umesushiqueens.com/"}}, {"type": "node", "id": 5397491891, "lat": 40.6921248, "lon": -73.8629567, "tags": {"addr:housenumber": "79-09", "addr:street": "Jamaica Avenue", "amenity": "restaurant", "cuisine": "chinese", "name": "King Wok Chinese Food"}}, {"type": "node", "id": 5397491902, "lat": 40.6923545, "lon": -73.8598367, "tags": {"addr:housenumber": "84-28", "addr:street": "Jamaica Avenue", "amenity": "restaurant", "cuisine": "mexican;latin_american", "name": "El Puerto Mexicano"}}, {"type": "node", "id": 5397491987, "lat": 40.6924717, "lon": -73.8605633, "tags": {"addr:housenumber": "84-07", "addr:street": "Jamaica Avenue", "amenity": "restaurant", "cuisine": "pizza", "name": "La Nostra Pizzeria Restaurant"}}, {"type": "node", "id": 5397493889, "lat": 40.6923758, "lon": -73.8613298, "tags": {"addr:housenumber": "80-29", "addr:street": "Jamaica Avenue", "amenity": "restaurant", "name": "Francy Restaurant"}}, {"type": "node", "id": 5397494622, "lat": 40.692276, "lon": -73.8619976, "tags": {"addr:housenumber": "80-11", "addr:street": "Jamaica Avenue", "amenity": "restaurant", "cuisine": "chinese", "name": "Shanghai Kitchen"}}, {"type": "node", "id": 5397494633, "lat": 40.6926843, "lon": -73.8579455, "tags": {"addr:housenumber": "86-0", "addr:street": "Jamaica Avenue", "amenity": "restaurant", "cuisine": "thai", "name": "Thailand Kitchen"}}, {"type": "node", "id": 5397494976, "lat": 40.6924705, "lon": -73.8582321, "tags": {"addr:housenumber": "85-22", "addr:street": "Jamaica Avenue", "amenity": "restaurant", "name": "The New Pops"}}, {"type": "node", "id": 5397495843, "lat": 40.6924532, "lon": -73.8606762, "tags": {"addr:housenumber": "84-01B", "addr:street": "Jamaica Avenue", "name": "WBID/Greater Woodhaven Development Corp.", "office": "ngo"}}, {"type": "node", "id": 5397496089, "lat": 40.6927412, "lon": -73.8570225, "tags": {"addr:housenumber": "87-09", "addr:street": "Jamaica Avenue", "name": "Woodhaven Multiservices", "office": "estate_agent"}}, {"type": "node", "id": 5397496094, "lat": 40.6923121, "lon": -73.8600818, "tags": {"addr:housenumber": "84-20B", "addr:street": "Jamaica Avenue", "name": "Woodhaven Residents' Block Association", "office": "association"}}, {"type": "node", "id": 9678961472, "lat": 40.6918603, "lon": -73.8631715, "tags": {"addr:city": "Woodhaven", "addr:housenumber": "79-02", "addr:postcode": "11421", "addr:state": "NY", "addr:street": "Jamaica Avenue", "name": "Fray Tax Corp.", "office": "tax_advisor", "opening_hours": "Mo-Fr 09:45-18:45", "phone": "+1-718-296-4899"}}, {"type": "node", "id": 10609301659, "lat": 40.6945842, "lon": -73.8597737}, {"type": "node", "id": 10609301660, "lat": 40.6940005, "lon": -73.8595994}, {"type": "node", "id": 10609301661, "lat": 40.6938947, "lon": -73.8602632}, {"type": "node", "id": 10609301662, "lat": 40.6944774, "lon": -73.8604738}, {"type": "node", "id": 10900413252, "lat": 40.6921828, "lon": -73.8625683, "tags": {"addr:housenumber": "79-19", "addr:postcode": "11421", "addr:street": "Jamaica Avenue", "amenity": "pub", "name": "Geordie's Joint", "phone": "+1-718-296-9682", "website": "https://geordies-joint.business.site"}}, {"type": "node", "id": 13041668014, "lat": 40.692588, "lon": -73.8601455, "tags": {"amenity": "restaurant", "name": "Mistura Peruana"}}, {"type": "way", "id": 1138178813, "nodes": [10609301662, 10609301661, 10609301660, 10609301659, 10609301662], "tags": {"amenity": "school"}}]}