{"version": 0.6, "generator": "Overpass API 0.7.62.8 e802775f", "osm3s": {"timestamp_osm_base": "2025-12-01T17:26:16Z", "copyright": "The data included in this document is from www.openstreetmap.org. The data is made available under ODbL."}, "elements": [{"type": "node", "id": 2552638748, "lat": 40.5746661, "lon": -73.9797719}, {"type": "node", "id": 2552638750, "lat": 40.5746682, "lon": -73.9798539}, {"type": "node", "id": 2552638770, "lat": 40.574724, "lon": -73.9797694}, {"type": "node", "id": 2552638772, "lat": 40.5747261, "lon": -73.9798514}, {"type": "node", "id": 2552762223, "lat": 40.5756371, "lon": -73.9832269, "tags": {"amenity": "restaurant", "bar": "yes", "cuisine": "caribbean", "name": "Footprints", "phone": "+1 718-265-2530"}}, {"type": "node", "id": 2552762776, "lat": 40.5757214, "lon": -73.9800212}, {"type": "node", "id": 2552762777, "lat": 40.5757238, "lon": -73.9801563}, {"type": "node", "id": 2552762801, "lat": 40.5759177, "lon": -73.9800203}, {"type": "node", "id": 2552762806, "lat": 40.5759354, "lon": -73.9801512}, {"type": "node", "id": 2552762807, "lat": 40.5759353, "lon": -73.9800194}, {"type": "node", "id": 2552763060, "lat": 40.5767073, "lon": -73.9822575}, {"type": "node", "id": 2552763064, "lat": 40.5767117, "lon": -73.9822181}, {"type": "node", "id": 2552763065, "lat": 40.5767125, "lon": -73.98221}, {"type": "node", "id": 2552763143, "lat": 40.5767883, "lon": -73.9822729}, {"type": "node", "id": 2552763149, "lat": 40.5767936, "lon": -73.9822254}, {"type": "node", "id": 2552764696, "lat": 40.5786816, "lon": -73.9838122}, {"type": "node", "id": 2552764702, "lat": 40.5786886, "lon": -73.9837523}, {"type": "node", "id": 2552764764, "lat": 40.5787391, "lon": -73.9837624}, {"type": "node", "id": 2552764787, "lat": 40.5787547, "lon": -73.9837656}, {"type": "node", "id": 2552764827, "lat": 40.5788177, "lon": -73.9837782}, {"type": "node", "id": 2552764844, "lat": 40.5788501, "lon": -73.9837847}, {"type": "node", "id": 2552764867, "lat": 40.5789126, "lon": -73.9838587}, {"type": "node", "id": 2552764869, "lat": 40.5789196, "lon": -73.9837987}, {"type": "node", "id": 2716385228, "lat": 40.575098, "lon": -73.9835495}, {"type": "node", "id": 2716385230, "lat": 40.5749629, "lon": -73.9848867}, {"type": "node", "id": 2716385231, "lat": 40.5748591, "lon": -73.9848703}, {"type": "node", "id": 2716385232, "lat": 40.5748091, "lon": -73.9850613}, {"type": "node", "id": 2716385233, "lat": 40.5741124, "lon": -73.9847319}, {"type": "node", "id": 2716385235, "lat": 40.5740986, "lon": -73.9847797}, {"type": "node", "id": 2716385236, "lat": 40.5739347, "lon": -73.984699}, {"type": "node", "id": 2716385237, "lat": 40.573951, "lon": -73.9846414}, {"type": "node", "id": 2716385238, "lat": 40.5737996, "lon": -73.9845656}, {"type": "node", "id": 2716385250, "lat": 40.5736708, "lon": -73.9842544}, {"type": "node", "id": 2716385251, "lat": 40.5736408, "lon": -73.9835001}, {"type": "node", "id": 2716385252, "lat": 40.5737821, "lon": -73.9832432}, {"type": "node", "id": 2716385253, "lat": 40.5739247, "lon": -73.983095}, {"type": "node", "id": 2716385255, "lat": 40.5746702, "lon": -73.9832202}, {"type": "node", "id": 2716385257, "lat": 40.5747591, "lon": -73.9835804}, {"type": "node", "id": 2716385258, "lat": 40.5747841, "lon": -73.9833009}, {"type": "node", "id": 2716385260, "lat": 40.5746723, "lon": -73.9832797}, {"type": "node", "id": 2716385261, "lat": 40.5738165, "lon": -73.9845014}, {"type": "node", "id": 2716385262, "lat": 40.5735819, "lon": -73.9843894}, {"type": "node", "id": 2716385263, "lat": 40.5736094, "lon": -73.9842297}, {"type": "node", "id": 3794233594, "lat": 40.573648, "lon": -73.983487}, {"type": "node", "id": 3911978871, "lat": 40.5758254, "lon": -73.9775686}, {"type": "node", "id": 3911978872, "lat": 40.5760242, "lon": -73.9795301}, {"type": "node", "id": 4080312832, "lat": 40.5748963, "lon": -73.9804635, "tags": {"addr:housenumber": "1221", "addr:postcode": "11224", "addr:state": "NY", "addr:street": "Bowery Street", "amenity": "restaurant", "check_date": "2024-11-24", "contact:phone": "+1 929-254-9072", "contact:website": "https://donazitamex.com/", "cuisine": "mexican", "delivery": "yes", "name": "Do\u00f1a Zita", "opening_hours": "Tu-Su 12:00-22:00;Mo off", "takeaway": "yes"}}, {"type": "node", "id": 4080312834, "lat": 40.574932, "lon": -73.9788905}, {"type": "node", "id": 4080312835, "lat": 40.5747727, "lon": -73.9789105}, {"type": "node", "id": 4080312836, "lat": 40.5748052, "lon": -73.9793073}, {"type": "node", "id": 4080312837, "lat": 40.5749591, "lon": -73.9792873}, {"type": "node", "id": 4813805532, "lat": 40.5749582, "lon": -73.9839665, "tags": {"addr:city": "Brooklyn", "addr:housenumber": "1904", "addr:postcode": "11224", "addr:state": "NY", "addr:street": "Surf Avenue", "amenity": "bar", "check_date": "2024-05-31", "name": "The Coney Island Sandbar", "payment:cash": "yes", "payment:credit_cards": "yes", "wheelchair": "yes"}}, {"type": "node", "id": 5035203421, "lat": 40.5764063, "lon": -73.9823799, "tags": {"addr:city": "Brooklyn", "addr:housenumber": "2911", "addr:postcode": "11224", "addr:state": "NY", "addr:street": "West 15th Street", "air_conditioning": "yes", "amenity": "restaurant", "bar": "yes", "check_date": "2025-03-30", "check_date:opening_hours": "2021-03-09", "cocktails": "yes", "cuisine": "italian", "delivery": "yes", "drink:beer": "draught", "drink:liquor": "yes", "drink:wine": "yes", "email": "info@gargiulos.com", "fax": "+1-718-714-5833", "name": "Gargiulo's", "opening_hours": "Mo,We-Th 12:00-21:30; Tu off; Fr-Sa 12:00-22:30; Su 12:00-21:00", "outdoor_seating": "yes", "payment:cash": "yes", "payment:credit_cards": "yes", "phone": "+1-718-266-4891", "reservation": "yes", "smoking": "no", "takeaway": "yes", "toilets": "yes", "website": "https://gargiulos.com", "wheelchair": "yes", "wikidata": "Q5523190"}}, {"type": "node", "id": 5463208875, "lat": 40.5774123, "lon": -73.9828905, "tags": {"addr:city": "Brooklyn", "addr:housenumber": "2872", "addr:state": "NY", "addr:street": "West 15th Street", "name": "NYS Senator Diane J Savino", "office": "government", "phone": "+1-718-333-0311"}}, {"type": "node", "id": 7588061286, "lat": 40.5758344, "lon": -73.9774386}, {"type": "node", "id": 7588061287, "lat": 40.5759591, "lon": -73.9774404}, {"type": "node", "id": 7588061288, "lat": 40.5764521, "lon": -73.9779978}, {"type": "node", "id": 7588061289, "lat": 40.5764656, "lon": -73.9781034}, {"type": "node", "id": 7588061290, "lat": 40.5761592, "lon": -73.9785628}, {"type": "node", "id": 7588061291, "lat": 40.5764443, "lon": -73.9789026}, {"type": "node", "id": 7588061292, "lat": 40.5761157, "lon": -73.9794053}, {"type": "node", "id": 7588061293, "lat": 40.5761295, "lon": -73.9795168}, {"type": "node", "id": 8396299930, "lat": 40.5758727, "lon": -73.9783632}, {"type": "node", "id": 8396299931, "lat": 40.5758254, "lon": -73.9779364}, {"type": "node", "id": 8396299932, "lat": 40.5758181, "lon": -73.9777525}, {"type": "node", "id": 8605336315, "lat": 40.5760993, "lon": -73.9795206, "tags": {"barrier": "gate"}}, {"type": "node", "id": 9212756290, "lat": 40.5757418, "lon": -73.9803192, "tags": {"addr:city": "Brooklyn", "addr:housenumber": "1217", "addr:postcode": "11224", "addr:state": "NY", "addr:street": "Surf Avenue", "air_conditioning": "yes", "amenity": "restaurant", "bar": "yes", "check_date": "2023-06-10", "cuisine": "seafood;cajun", "delivery": "yes", "name": "Hook and Reel", "opening_hours": "Mo-Th 12:00-22:30; Fr-Sa 12:00-23:30; Su 12:00-23:00", "outdoor_seating": "yes", "payment:cash": "yes", "payment:contactless": "yes", "payment:credit_cards": "yes", "payment:debit_cards": "yes", "phone": "+1-718-684-5533", "reservation": "yes", "smoking": "no", "takeaway": "yes", "toilets": "yes", "toilets:wheelchair": "yes", "website": "https://hookreel.com/location/coneyisland/", "wheelchair": "yes"}}, {"type": "node", "id": 9384260901, "lat": 40.574703, "lon": -73.9808684}, {"type": "node", "id": 9384315643, "lat": 40.5747624, "lon": -73.9807728}, {"type": "node", "id": 9384315644, "lat": 40.5747449, "lon": -73.9800688}, {"type": "node", "id": 9384315645, "lat": 40.5747122, "lon": -73.9800696}, {"type": "node", "id": 9384315646, "lat": 40.5747098, "lon": -73.9799556}, {"type": "node", "id": 9384315647, "lat": 40.5747432, "lon": -73.9799548}, {"type": "node", "id": 9384315648, "lat": 40.5747611, "lon": -73.9808705}, {"type": "node", "id": 9384315649, "lat": 40.5747036, "lon": -73.9808375}, {"type": "node", "id": 9384315650, "lat": 40.5747617, "lon": -73.9808396}, {"type": "node", "id": 9384315651, "lat": 40.574737, "lon": -73.9807723}, {"type": "node", "id": 9384315652, "lat": 40.5747363, "lon": -73.9808387}, {"type": "node", "id": 9393413606, "lat": 40.574668, "lon": -73.9798467}, {"type": "node", "id": 9811490178, "lat": 40.5757368, "lon": -73.9799289, "tags": {"addr:housenumber": "1205", "addr:street": "Surf Avenue", "air_conditioning": "yes", "amenity": "bar", "brewery": "yes", "check_date": "2025-05-05", "contact:facebook": "https://www.facebook.com/thereddoorsbg/", "contact:instagram": "https://www.instagram.com/thereddoorsbg", "email": "thereddoorsbar1205@gmail.com", "name": "The Red Doors Bar & Grill", "outdoor_seating": "yes", "payment:contactless": "yes", "payment:credit_cards": "yes", "phone": "+1 718-872-7177", "smoking": "outside", "source": "survey;local knowledge", "wheelchair": "yes"}}, {"type": "node", "id": 9811490179, "lat": 40.5757436, "lon": -73.9804567, "tags": {"addr:city": "Brooklyn", "addr:floor": "2", "addr:housenumber": "1223", "addr:postcode": "11224", "addr:state": "NY", "addr:street": "Surf Avenue", "air_conditioning": "yes", "amenity": "restaurant", "check_date": "2025-05-15", "cuisine": "seafood", "delivery": "yes", "level": "1", "name": "Crab House Brooklyn", "opening_hours": "Mo-Th 16:00-21:30; Fr 16:00-22:00; Sa 12:30-22:00; Su 12:30-21:30", "outdoor_seating": "no", "payment:contactless": "yes", "payment:credit_cards": "yes", "phone": "+1 347-462-1934", "reservation": "yes", "smoking": "no", "source": "survey;local knowledge", "takeaway": "yes", "toilets": "yes", "website": "https://crabhousebk.com/"}}, {"type": "node", "id": 9811490180, "lat": 40.5753652, "lon": -73.9797964, "tags": {"addr:city": "Brooklyn", "addr:housenumber": "1208", "addr:postcode": "11224", "addr:state": "NY", "addr:street": "Surf Avenue", "air_conditioning": "yes", "amenity": "bar", "check_date": "2025-02-10", "min_age": "21", "name": "The Freak Bar", "outdoor_seating": "no", "payment:contactless": "yes", "payment:credit_cards": "yes", "source": "survey;local knowledge"}}, {"type": "node", "id": 9811576285, "lat": 40.575331, "lon": -73.9820617, "tags": {"air_conditioning": "no", "amenity": "restaurant", "bar": "yes", "brewery": "yes", "check_date": "2022-06-11", "cuisine": "seafood", "diet:meat": "yes", "highchair": "no", "name": "Pete's Clam Stop", "outdoor_seating": "yes", "reservation": "no", "source": "survey;local knowledge", "start_date": "1975", "takeaway": "yes", "wheelchair": "yes"}}, {"type": "node", "id": 9811756182, "lat": 40.5756425, "lon": -73.9781561, "tags": {"addr:city": "Brooklyn", "addr:housenumber": "1005", "addr:postcode": "11224", "addr:state": "NY", "addr:street": "Surf Avenue", "air_conditioning": "yes", "amenity": "restaurant", "bar": "yes", "check_date": "2025-08-22", "contact:facebook": "https://www.facebook.com/RARE-Italy-Restaurant-Lobster-Steak-61574680933695/", "cuisine": "seafood;italian;mexican;european;burger", "delivery": "yes", "email": "Restarauntsophia62@gmail.com", "name": "Rare", "outdoor_seating": "yes", "payment:cash": "yes", "payment:credit_cards": "yes", "payment:debit_cards": "yes", "phone": "+1-917-924-1818", "reservation": "yes", "smoking": "no", "source": "survey;local knowledge", "start_date": "2025", "takeaway": "yes", "toilets": "yes"}}, {"type": "node", "id": 9811756183, "lat": 40.5756358, "lon": -73.9780451, "tags": {"addr:city": "Brooklyn", "addr:floor": "G", "addr:housenumber": "1003", "addr:postcode": "11224", "addr:state": "NY", "addr:street": "Surf Avenue", "air_conditioning": "yes", "amenity": "restaurant", "check_date": "2025-08-22", "cuisine": "asian;chinese;japanese", "delivery": "yes", "email": "taoxitaoxi2025@gmail.com", "level": "0", "name": "TaoXi", "opening_hours": "Mo-Th 11:30-15:30,17:00-21:30; Fr,Sa 11:30-22:30; Su 12:00-21:30", "outdoor_seating": "no", "payment:credit_cards": "yes", "payment:debit_cards": "yes", "phone": "+1-718-975-0400", "smoking": "no", "start_date": "2025", "takeaway": "yes", "website": "https://www.taoxiasianrestaurant.com/", "website:menu": "https://pos.chowbus.com/online-ordering/store/Taoxi/22111"}}, {"type": "node", "id": 9890815852, "lat": 40.5739472, "lon": -73.9830988}, {"type": "node", "id": 10900163586, "lat": 40.5783492, "lon": -73.9802029}, {"type": "node", "id": 10900163587, "lat": 40.5783067, "lon": -73.9805638}, {"type": "node", "id": 10900163588, "lat": 40.5777226, "lon": -73.9808904}, {"type": "node", "id": 10900163589, "lat": 40.5785386, "lon": -73.981056}, {"type": "node", "id": 10900163590, "lat": 40.578615, "lon": -73.9798751}, {"type": "node", "id": 10900163591, "lat": 40.5785753, "lon": -73.9802431}, {"type": "node", "id": 10900163592, "lat": 40.5786722, "lon": -73.9798856}, {"type": "node", "id": 10900163593, "lat": 40.5777711, "lon": -73.9804642}, {"type": "node", "id": 10935388065, "lat": 40.5757405, "lon": -73.9802188, "tags": {"addr:city": "Brooklyn", "addr:housenumber": "1217", "addr:postcode": "11224", "addr:state": "NY", "addr:street": "Surf Avenue", "air_conditioning": "yes", "amenity": "restaurant", "check_date": "2023-06-10", "contact:facebook": "kpotbbqandhotpot", "contact:instagram": "kpotbbqandhotpot", "cuisine": "barbecue;korean", "delivery": "yes", "email": "info@thekpot.com", "name": "Kpot Korean BBQ & Hot Pot", "opening_hours": "Mo-Th 12:30-23:00; Fr-Su 12:30-24:00", "outdoor_seating": "yes", "payment:cash": "yes", "payment:contactless": "yes", "payment:credit_cards": "yes", "payment:debit_cards": "yes", "phone": "+1-718-684-5533", "reservation": "yes", "smoking": "no", "takeaway": "yes", "toilets": "yes", "toilets:wheelchair": "yes", "website": "https://thekpot.com/location/coney-island-surf-ave/", "wheelchair": "yes"}}, {"type": "node", "id": 10972297741, "lat": 40.5756952, "lon": -73.9790297, "tags": {"addr:city": "Brooklyn", "addr:housenumber": "1019", "addr:postcode": "11224", "addr:state": "NY", "addr:street": "Surf Avenue", "air_conditioning": "yes", "amenity": "restaurant", "brand": "IHOP", "brand:wikidata": "Q1185675", "check_date": "2025-08-22", "cuisine": "breakfast;pancake", "delivery": "yes", "dog": "no", "highchair": "no", "name": "IHOP", "opening_hours": "Mo-Sa 07:00-22:00", "outdoor_seating": "yes", "payment:cards": "yes", "payment:cash": "yes", "payment:credit_cards": "yes", "payment:ebt": "yes", "payment:qr_code": "no", "phone": "+1-718-676-7220", "reservation": "yes", "smoking": "no", "takeaway": "yes", "toilets": "yes", "toilets:wheelchair": "yes", "website": "https://www.ihop.com/en/restaurants-brooklyn-ny/1019-surf-ave-2132", "wheelchair": "yes"}}, {"type": "node", "id": 11030368694, "lat": 40.5769318, "lon": -73.9801202, "tags": {"addr:city": "Brooklyn", "addr:housenumber": "2896", "addr:postcode": "11224", "addr:state": "NY", "addr:street": "West 12th Street", "amenity": "cafe", "check_date": "2023-07-06", "cuisine": "ukrainian;russian", "delivery": "yes", "name": "Caf\u00e9 Dacha", "opening_hours": "Mo-Fr 12:15-21:00; Sa-Su 10:15-21:00", "payment:credit_cards": "yes", "payment:debit_cards": "yes", "phone": "+1-347-240-7362"}}, {"type": "node", "id": 11380776516, "lat": 40.5783222, "lon": -73.9810121}, {"type": "node", "id": 11759154599, "lat": 40.5756663, "lon": -73.9785503, "tags": {"addr:housenumber": "1039", "addr:postcode": "11224", "addr:street": "Surf Avenue", "air_conditioning": "yes", "amenity": "bar", "check_date": "2025-10-26", "contact:instagram": "https://www.instagram.com/buck_itbar", "email": "Buckitbar@gmail.com", "indoor_seating": "yes", "name": "Buck-!t Sports Bar & Latin Grill", "outdoor_seating": "sidewalk", "payment:credit_cards": "yes", "payment:debit_cards": "yes", "phone": "+1 347-374-2157", "smoking": "outside", "website": "https://buck-it-bar.com/", "wheelchair": "yes"}}, {"type": "node", "id": 12352232848, "lat": 40.576268, "lon": -73.9786925}, {"type": "node", "id": 12352232850, "lat": 40.5763817, "lon": -73.9789984}, {"type": "node", "id": 12352246903, "lat": 40.5781736, "lon": -73.980539}, {"type": "node", "id": 12352246904, "lat": 40.5781211, "lon": -73.9809713}, {"type": "node", "id": 12999534846, "lat": 40.5748304, "lon": -73.9849798}, {"type": "node", "id": 12999534868, "lat": 40.5749743, "lon": -73.9847736}, {"type": "node", "id": 13294919085, "lat": 40.5761261, "lon": -73.9793893}, {"type": "node", "id": 13306603141, "lat": 40.5757087, "lon": -73.9825937, "tags": {"addr:housenumber": "1515", "addr:street": "Surf Avenue", "amenity": "cafe", "check_date": "2025-11-15", "name": "Milk+Honey Coffee+Kitchen", "payment:cash": "yes", "payment:credit_cards": "yes", "payment:debit_cards": "yes"}}, {"type": "way", "id": 248474785, "nodes": [2552638748, 9393413606, 2552638750, 2552638772, 2552638770, 2552638748], "tags": {"amenity": "restaurant", "building": "yes", "building:levels": "1", "check_date": "2025-02-10", "height": "3.0", "name": "Tropical Shack", "nycdoitt:bin": "3245143"}}, {"type": "way", "id": 248495797, "nodes": [2552762776, 2552762777, 2552762806, 2552762807, 2552762801, 2552762776], "tags": {"addr:city": "Brooklyn", "addr:housenumber": "1215", "addr:postcode": "11224", "addr:state": "NY", "addr:street": "Surf Avenue", "air_conditioning": "yes", "amenity": "restaurant", "bar": "yes", "building": "retail", "building:levels": "1", "check_date": "2025-11-15", "contact:facebook": "https://www.facebook.com/100091208118170", "contact:instagram": "https://www.instagram.com/teuranyc", "cuisine": "italian", "delivery": "yes", "email": "info@teuranyc.com", "height": "5.1", "highchair": "no", "name": "Teura Il Ponte", "nycdoitt:bin": "3196561", "opening_hours": "11:30-23:00", "payment:cash": "yes", "payment:credit_cards": "yes", "payment:debit_cards": "yes", "phone": "+1 347-312-7772", "reservation": "yes", "roof:shape": "flat", "smoking": "no", "takeaway": "yes", "toilets": "yes", "toilets:wheelchair": "yes", "website": "https://teuranyc.com/", "wheelchair": "yes"}}, {"type": "way", "id": 248495853, "nodes": [2552764702, 2552764696, 2552764867, 2552764869, 2552764844, 2552764827, 2552764787, 2552764764, 2552764702], "tags": {"addr:city": "Brooklyn", "addr:housenumber": "1524", "addr:postcode": "11224", "addr:state": "NY", "addr:street": "Neptune Avenue", "amenity": "restaurant", "building": "yes", "check_date": "2023-03-22", "cuisine": "pizza", "dog": "no", "height": "3.7", "name": "Totonno's Pizzeria Napolitana", "nycdoitt:bin": "3189087", "opening_hours": "Mo-We off; Th-Su 12:00-19:30", "outdoor_seating": "no", "payment:cash": "yes", "payment:credit_cards": "yes", "phone": "+1-718-372-8606", "smoking": "no", "takeaway": "only", "toilets": "no", "website": "https://www.totonnosconeyisland.com", "wikidata": "Q7828399", "wikipedia": "en:Totonno's"}}, {"type": "way", "id": 248496472, "nodes": [2552763060, 2552763143, 2552763149, 2552763065, 2552763064, 2552763060], "tags": {"addr:housenumber": "1418", "addr:postcode": "11224", "addr:street": "Mermaid Avenue", "amenity": "restaurant", "building": "retail", "building:levels": "1", "check_date": "2025-05-15", "cuisine": "asian;vietnamese;chinese;bubble_tea", "delivery": "yes", "height": "3.9", "highchair": "no", "name": "Chow Time", "nycdoitt:bin": "3189615", "opening_hours": "Mo-Sa 10:45-20:45; Su off", "outdoor_seating": "no", "payment:cash": "yes", "payment:credit_cards": "yes", "phone": "+1 347-713-1560", "reservation": "no", "roof:levels": "0", "roof:shape": "flat", "smoking": "no", "takeaway": "yes", "website": "https://www.newchowtime.com/", "wheelchair": "yes"}}, {"type": "way", "id": 266063817, "nodes": [2716385263, 2716385262, 2716385261, 2716385238, 2716385237, 2716385236, 2716385235, 2716385233, 2716385232, 12999534846, 2716385231, 2716385230, 12999534868, 2716385228, 2716385257, 2716385258, 2716385260, 2716385255, 9890815852, 2716385253, 2716385252, 3794233594, 2716385251, 2716385250, 2716385263], "tags": {"check_date": "2024-11-08", "leisure": "stadium", "name": "Maimonides Park", "sport": "baseball", "team": "Brooklyn Cyclones", "wheelchair": "yes", "wikidata": "Q6715011", "wikipedia": "en:Maimonides Park"}}, {"type": "way", "id": 405892196, "nodes": [4080312834, 4080312835, 4080312836, 4080312837, 4080312834], "tags": {"amenity": "restaurant", "building": "yes", "check_date": "2025-03-01", "name": "Margarita Island"}}, {"type": "way", "id": 812393706, "nodes": [7588061286, 7588061287, 7588061288, 7588061289, 7588061290, 12352232848, 7588061291, 12352232850, 13294919085, 7588061292, 7588061293, 8605336315, 3911978872, 8396299930, 8396299931, 8396299932, 3911978871, 7588061286], "tags": {"access": "yes", "leisure": "park", "name": "Luna Playground", "operator": "New York City Department of Parks and Recreation", "operator:short": "NYC Parks", "operator:type": "government", "operator:wikidata": "Q1894232", "surface": "asphalt", "website": "https://www.nycgovparks.org/parks/luna-park/"}}, {"type": "way", "id": 1017417534, "nodes": [9384315644, 9384315645, 9384315646, 9384315647, 9384315644], "tags": {"amenity": "restaurant", "building": "yes", "name": "El Carrito RoJo"}}, {"type": "way", "id": 1017417535, "nodes": [9384315648, 9384260901, 9384315649, 9384315652, 9384315650, 9384315648], "tags": {"amenity": "restaurant", "building": "yes"}}, {"type": "way", "id": 1017417536, "nodes": [9384315650, 9384315643, 9384315651, 9384315652, 9384315650], "tags": {"amenity": "restaurant", "building": "yes"}}, {"type": "way", "id": 1173141187, "nodes": [10900163590, 10900163592, 10900163589, 11380776516, 12352246904, 10900163588, 10900163593, 12352246903, 10900163587, 10900163586, 10900163591, 10900163590], "tags": {"leisure": "park", "name": "Neptune Playground", "operator": "New York City Department of Parks and Recreation", "operator:short": "NYC Parks", "operator:type": "government", "operator:wikidata": "Q1894232", "website": "https://www.nycgovparks.org/parks/neptune-playground/"}}]}