{"version": 0.6, "generator": "Overpass API 0.7.62.8 e802775f", "osm3s": {"timestamp_osm_base": "2025-12-01T16:41:15Z", "copyright": "The data included in this document is from www.openstreetmap.org. The data is made available under ODbL."}, "elements": [{"type": "node", "id": 357565063, "lat": 40.7234356, "lon": -73.9540269, "tags": {"amenity": "school", "ele": "4", "gnis:feature_id": "953064", "name": "Holy Family School"}}, {"type": "node", "id": 370212415, "lat": 40.7199293, "lon": -73.9531818}, {"type": "node", "id": 370212416, "lat": 40.719809, "lon": -73.9533069}, {"type": "node", "id": 370212417, "lat": 40.7196975, "lon": -73.9531297}, {"type": "node", "id": 370427020, "lat": 40.7223336, "lon": -73.9548428}, {"type": "node", "id": 370427026, "lat": 40.721661, "lon": -73.9537558}, {"type": "node", "id": 370427035, "lat": 40.7207237, "lon": -73.9547699}, {"type": "node", "id": 370427061, "lat": 40.7206102, "lon": -73.9545932}, {"type": "node", "id": 370427068, "lat": 40.7199077, "lon": -73.9534977}, {"type": "node", "id": 370427080, "lat": 40.720519, "lon": -73.9527967}, {"type": "node", "id": 370427087, "lat": 40.7215516, "lon": -73.9507079}, {"type": "node", "id": 370427093, "lat": 40.7204625, "lon": -73.9525448}, {"type": "node", "id": 370427099, "lat": 40.7188867, "lon": -73.9522881}, {"type": "node", "id": 370427106, "lat": 40.719074, "lon": -73.9503157}, {"type": "node", "id": 370427113, "lat": 40.7202402, "lon": -73.9528589}, {"type": "node", "id": 370427120, "lat": 40.7194478, "lon": -73.9526673}, {"type": "node", "id": 370427136, "lat": 40.7220518, "lon": -73.9498967}, {"type": "node", "id": 370427144, "lat": 40.7212518, "lon": -73.9489836}, {"type": "node", "id": 370427151, "lat": 40.7192364, "lon": -73.9486541}, {"type": "node", "id": 370427157, "lat": 40.7190998, "lon": -73.9500855}, {"type": "node", "id": 370427168, "lat": 40.7216844, "lon": -73.9505096}, {"type": "node", "id": 1709314941, "lat": 40.7220401, "lon": -73.9498833, "tags": {"barrier": "kerb", "tactile_paving": "no", "wheelchair": "no"}}, {"type": "node", "id": 1709314958, "lat": 40.720814, "lon": -73.9489154}, {"type": "node", "id": 1865211623, "lat": 40.7224661, "lon": -73.9488216, "tags": {"addr:housenumber": "277", "addr:street": "Driggs Avenue", "amenity": "cafe", "check_date": "2023-12-05", "cuisine": "coffee_shop", "name": "Uro Cafe"}}, {"type": "node", "id": 2275484420, "lat": 40.724188, "lon": -73.9511746, "tags": {"addr:housenumber": "645", "addr:street": "Manhattan Avenue", "amenity": "restaurant", "branch": "Greenpoint", "check_date": "2024-06-10", "cocktails": "yes", "cuisine": "mexican", "delivery": "yes", "drink:beer": "draught", "drink:liquor": "yes", "drink:wine": "yes", "email": "greenpoint@calexico.com", "level": "0", "name": "Calexico", "opening_hours": "11:30-22:00", "phone": "+1 347-763-2129", "smoking": "no", "takeaway": "yes", "website": "https://www.calexico.com/location/greenpoint/"}}, {"type": "node", "id": 2386724778, "lat": 40.7231678, "lon": -73.9529485, "tags": {"addr:city": "Brooklyn", "addr:housenumber": "33", "addr:postcode": "11222", "addr:street": "Nassau Avenue", "name": "The Yard", "office": "coworking", "website": "https://theyard.com/locations/new-york/coworking-office-space-greenpoint/"}}, {"type": "node", "id": 2548042168, "lat": 40.721549, "lon": -73.9493221}, {"type": "node", "id": 2548042173, "lat": 40.7217285, "lon": -73.9507894}, {"type": "node", "id": 2548053395, "lat": 40.7207718, "lon": -73.9489088}, {"type": "node", "id": 2842613025, "lat": 40.7252852, "lon": -73.9514807, "tags": {"addr:housenumber": "694", "addr:postcode": "11222", "addr:street": "Manhattan Avenue", "amenity": "restaurant", "cuisine": "asian", "name": "Ramen, Fried Rice and Noodles"}}, {"type": "node", "id": 2842613026, "lat": 40.7253695, "lon": -73.9515334, "tags": {"addr:city": "Brooklyn", "addr:housenumber": "698", "addr:postcode": "11222", "addr:state": "NY", "addr:street": "Manhattan Avenue", "amenity": "cafe", "cuisine": "coffee_shop;columbian", "name": "Pueblo Querido Coffee Roasters Cafe de Colombia", "outdoor_seating": "no", "phone": "+19296551302"}}, {"type": "node", "id": 2842613040, "lat": 40.7229766, "lon": -73.950475, "tags": {"amenity": "cafe", "bar": "yes", "cocktails": "yes", "cuisine": "sandwich;pastry", "drink:beer": "draught", "drink:coffee": "yes", "drink:espresso": "yes", "drink:liquor": "yes", "drink:tea": "yes", "drink:wine": "yes", "internet_access": "wlan", "name": "Hide & Seek", "outdoor_seating": "sidewalk", "phone": "+1-917-909-0670"}}, {"type": "node", "id": 2842613049, "lat": 40.7240368, "lon": -73.9503056, "tags": {"addr:housenumber": "97", "addr:postcode": "11222", "addr:street": "Nassau Avenue", "amenity": "pub", "cuisine": "pub", "happy_hours": "Mo-Fr 17:00-19:00", "microbrewery": "yes", "name": "Keg & Lantern", "opening_hours": "Mo-Th 11:00-02:00, Fr-Sa 11:00-04:00, Su 11:00-02:00", "phone": "+1-718-389-5050", "website": "https://www.kegandlanternbrooklyn.com/location/the-keg-and-lantern-greenpoint/"}}, {"type": "node", "id": 2842613053, "lat": 40.7252458, "lon": -73.9517659, "tags": {"addr:city": "Brooklyn", "addr:country": "US", "addr:housenumber": "695", "addr:postcode": "11222", "addr:state": "NY", "addr:street": "Manhattan Avenue", "amenity": "restaurant", "internet_access": "wlan", "internet_access:fee": "no", "name": "Manhattan Triple Decker Restaurant", "toilets": "yes", "toilets:unisex": "yes", "website": "http://www.manhattanthreedecker.com/"}}, {"type": "node", "id": 2842613054, "lat": 40.7238537, "lon": -73.9510984, "tags": {"addr:city": "Brooklyn", "addr:country": "US", "addr:housenumber": "1", "addr:postcode": "11222", "addr:state": "NY", "addr:street": "Bedford Avenue", "amenity": "restaurant", "cuisine": "regional", "name": "Nights and Weekends", "website": "http://nightsandweekendsny.com/"}}, {"type": "node", "id": 2842613077, "lat": 40.7222947, "lon": -73.9498364}, {"type": "node", "id": 2842613083, "lat": 40.7223883, "lon": -73.9498845}, {"type": "node", "id": 2842613084, "lat": 40.7223915, "lon": -73.9496347}, {"type": "node", "id": 2842613086, "lat": 40.7224107, "lon": -73.9496455}, {"type": "node", "id": 2842613088, "lat": 40.7224185, "lon": -73.9496217}, {"type": "node", "id": 2842613090, "lat": 40.7224402, "lon": -73.9496621}, {"type": "node", "id": 2842613091, "lat": 40.7224479, "lon": -73.9496383}, {"type": "node", "id": 2842613093, "lat": 40.7224583, "lon": -73.9496721}, {"type": "node", "id": 2842613403, "lat": 40.7229913, "lon": -73.9506747}, {"type": "node", "id": 2842613407, "lat": 40.7235576, "lon": -73.9508866, "tags": {"addr:city": "Brooklyn", "addr:housenumber": "621", "addr:postcode": "11222", "addr:state": "NY", "addr:street": "Manhattan Avenue", "amenity": "bar", "cocktails": "yes", "cuisine": "japanese", "drink:beer": "yes", "drink:liquor": "yes", "drink:sake": "yes", "drink:wine": "yes", "email": "info@hiddenpearlbk.com", "name": "The Hidden Pearl", "opening_hours": "Mo-Th 17:00-22:00; Fr-Sa 17:00-23:00", "phone": "+1-718-383-3291", "website": "https://www.hiddenpearlbk.com"}}, {"type": "node", "id": 2842613431, "lat": 40.7230399, "lon": -73.9507025}, {"type": "node", "id": 2842613435, "lat": 40.7230497, "lon": -73.9504971}, {"type": "node", "id": 2842613460, "lat": 40.7230983, "lon": -73.9505249}, {"type": "node", "id": 2842613641, "lat": 40.7232478, "lon": -73.9509645}, {"type": "node", "id": 2842613677, "lat": 40.7233122, "lon": -73.9510013}, {"type": "node", "id": 2842613686, "lat": 40.7233293, "lon": -73.9509493}, {"type": "node", "id": 2842613700, "lat": 40.7233457, "lon": -73.9506665}, {"type": "node", "id": 2842613711, "lat": 40.7233757, "lon": -73.9509759}, {"type": "node", "id": 2842613718, "lat": 40.7233893, "lon": -73.9509345}, {"type": "node", "id": 2842613730, "lat": 40.7234101, "lon": -73.9507033}, {"type": "node", "id": 2842613732, "lat": 40.7234125, "lon": -73.9511187}, {"type": "node", "id": 2842613737, "lat": 40.7234288, "lon": -73.951069}, {"type": "node", "id": 2842613744, "lat": 40.7234426, "lon": -73.950965}, {"type": "node", "id": 2842613750, "lat": 40.7234566, "lon": -73.9507299}, {"type": "node", "id": 2842613781, "lat": 40.7235098, "lon": -73.9507604}, {"type": "node", "id": 2842613799, "lat": 40.7235455, "lon": -73.9511949}, {"type": "node", "id": 2842613908, "lat": 40.7235618, "lon": -73.9511452}, {"type": "node", "id": 2842613968, "lat": 40.7236291, "lon": -73.9508551, "tags": {"addr:housenumber": "623", "addr:postcode": "11222", "addr:street": "Manhattan Avenue", "amenity": "bar", "name": "Idle Mind Tavern"}}, {"type": "node", "id": 2842614361, "lat": 40.7240095, "lon": -73.949225}, {"type": "node", "id": 2842614371, "lat": 40.7240178, "lon": -73.9491998}, {"type": "node", "id": 2842614379, "lat": 40.7240306, "lon": -73.9492699}, {"type": "node", "id": 2842614385, "lat": 40.7240397, "lon": -73.9492421}, {"type": "node", "id": 2842614393, "lat": 40.7240538, "lon": -73.9490898}, {"type": "node", "id": 2842614602, "lat": 40.7240639, "lon": -73.949059}, {"type": "node", "id": 2842614616, "lat": 40.7240941, "lon": -73.9490761}, {"type": "node", "id": 2842614622, "lat": 40.7241026, "lon": -73.9490501}, {"type": "node", "id": 2842614650, "lat": 40.7241612, "lon": -73.9493438}, {"type": "node", "id": 2842614659, "lat": 40.7241785, "lon": -73.9492908}, {"type": "node", "id": 2842614674, "lat": 40.7242098, "lon": -73.9491781}, {"type": "node", "id": 2842614681, "lat": 40.7242284, "lon": -73.9491213}, {"type": "node", "id": 2842615244, "lat": 40.7249505, "lon": -73.9518003}, {"type": "node", "id": 2842615255, "lat": 40.7249706, "lon": -73.9517397}, {"type": "node", "id": 2842615269, "lat": 40.725011, "lon": -73.9516178}, {"type": "node", "id": 2842615270, "lat": 40.7250111, "lon": -73.951835}, {"type": "node", "id": 2842615290, "lat": 40.7250716, "lon": -73.9516526}, {"type": "node", "id": 2842759640, "lat": 40.7247766, "lon": -73.9480559}, {"type": "node", "id": 2842759641, "lat": 40.724806, "lon": -73.9479702}, {"type": "node", "id": 2842759651, "lat": 40.724974, "lon": -73.9480662}, {"type": "node", "id": 2842759657, "lat": 40.7250103, "lon": -73.9481863}, {"type": "node", "id": 2842759662, "lat": 40.7250371, "lon": -73.9481052}, {"type": "node", "id": 2842829028, "lat": 40.7257771, "lon": -73.951074, "tags": {"addr:housenumber": "105", "addr:postcode": "11222", "addr:street": "Norman Avenue", "amenity": "restaurant", "check_date": "2024-06-10", "contact:instagram": "https://www.instagram.com/gatorbk", "cuisine": "american", "name": "Gator", "opening_hours": "Mo,We-Fr 17:30-22:00; Tu off; Sa 11:00-16:00, 17:30-22:00; Su 11:00-16:00, 17:30-21:00", "phone": "+1 718-500-4868", "website": "https://www.gatorbk.com/"}}, {"type": "node", "id": 2842829077, "lat": 40.7255996, "lon": -73.9517047, "tags": {"addr:housenumber": "700", "addr:postcode": "11222", "addr:street": "Manhattan Avenue", "amenity": "restaurant", "cuisine": "diner", "name": "Lite Bites", "phone": "+1-917-793-5776"}}, {"type": "node", "id": 2842830714, "lat": 40.7244511, "lon": -73.9490389}, {"type": "node", "id": 2842830720, "lat": 40.7244719, "lon": -73.9489804}, {"type": "node", "id": 2842830751, "lat": 40.7245871, "lon": -73.9490481}, {"type": "node", "id": 2842830787, "lat": 40.7246633, "lon": -73.949093}, {"type": "node", "id": 2842830807, "lat": 40.7246925, "lon": -73.9491729}, {"type": "node", "id": 2842830808, "lat": 40.7246943, "lon": -73.9491739}, {"type": "node", "id": 2842830817, "lat": 40.7247109, "lon": -73.9489531}, {"type": "node", "id": 2842830833, "lat": 40.7247563, "lon": -73.9489888}, {"type": "node", "id": 2842830835, "lat": 40.724759, "lon": -73.948981}, {"type": "node", "id": 2842832949, "lat": 40.7272131, "lon": -73.9514932}, {"type": "node", "id": 2842832965, "lat": 40.7272431, "lon": -73.9514029}, {"type": "node", "id": 2842833212, "lat": 40.7273568, "lon": -73.9515756}, {"type": "node", "id": 2842833228, "lat": 40.7273867, "lon": -73.9514853}, {"type": "node", "id": 2842861216, "lat": 40.7232306, "lon": -73.9527481, "tags": {"addr:city": "Brooklyn", "addr:housenumber": "33", "addr:postcode": "11222", "addr:state": "NY", "addr:street": "Nassau Avenue", "amenity": "bar", "internet_access": "wlan", "name": "Spritzenhaus", "opening_hours": "Mo-We 16:00-04:00; Th-Su 12:00-04:00", "phone": "+1 347 987-4632", "website": "https://www.spritzenhaus33.com/"}}, {"type": "node", "id": 2842861227, "lat": 40.7233679, "lon": -73.9523393, "tags": {"addr:housenumber": "55", "addr:postcode": "11222", "addr:street": "Nassau Avenue", "amenity": "restaurant", "cuisine": "french;japanese", "name": "Yuu", "phone": "+1-347-422-0270", "website": "https://www.yuunewyork.com/restaurantyuu/"}}, {"type": "node", "id": 3362058453, "lat": 40.7242493, "lon": -73.9496569, "tags": {"addr:city": "Brooklyn", "addr:housenumber": "107", "addr:postcode": "11222", "addr:state": "NY", "addr:street": "Nassau Avenue", "name": "Vigo Centrum Obslugi Klienta", "office": "employment_agency", "phone": "+1-718-360-2328"}}, {"type": "node", "id": 3699353881, "lat": 40.7216822, "lon": -73.9536996}, {"type": "node", "id": 3699353882, "lat": 40.7226938, "lon": -73.9526545}, {"type": "node", "id": 3699353883, "lat": 40.7229483, "lon": -73.9530274}, {"type": "node", "id": 3699353884, "lat": 40.7223481, "lon": -73.9548205}, {"type": "node", "id": 3865279483, "lat": 40.7194459, "lon": -73.9527297}, {"type": "node", "id": 3865279484, "lat": 40.7194891, "lon": -73.9526212}, {"type": "node", "id": 3865279485, "lat": 40.7196744, "lon": -73.9530931}, {"type": "node", "id": 3865279488, "lat": 40.719718, "lon": -73.9526589}, {"type": "node", "id": 3865279493, "lat": 40.7199615, "lon": -73.9531487}, {"type": "node", "id": 3865279494, "lat": 40.7199883, "lon": -73.9527032}, {"type": "node", "id": 3865279495, "lat": 40.7202233, "lon": -73.9527406}, {"type": "node", "id": 3865279496, "lat": 40.7202523, "lon": -73.9527921}, {"type": "node", "id": 3957456405, "lat": 40.7265415, "lon": -73.9480403, "tags": {"amenity": "bar", "name": "Connie O's Pub", "sport": "billiards"}}, {"type": "node", "id": 4827096321, "lat": 40.7237111, "lon": -73.9512503, "tags": {"addr:street": "Bedford Avenue", "amenity": "bar", "name": "one bedford"}}, {"type": "node", "id": 5057349221, "lat": 40.7236421, "lon": -73.9505661, "tags": {"amenity": "restaurant", "cuisine": "japanese", "name": "Sapporo Ichiban", "phone": "+17183899697"}}, {"type": "node", "id": 5057358322, "lat": 40.7247372, "lon": -73.951192, "tags": {"amenity": "restaurant", "cuisine": "mexican", "name": "Taqueria La Norte\u00f1a"}}, {"type": "node", "id": 5087340721, "lat": 40.7237585, "lon": -73.9515147, "tags": {"amenity": "restaurant", "cuisine": "italian", "name": "Forma", "opening_hours": "Mo-Su 12:00-22:00"}}, {"type": "node", "id": 5087340722, "lat": 40.724099, "lon": -73.9508426, "tags": {"amenity": "restaurant", "brand": "Wasabi", "brand:wikidata": "Q23891278", "cuisine": "japanese", "name": "Wasabi", "name:en": "Wasabi"}}, {"type": "node", "id": 5087340921, "lat": 40.7246703, "lon": -73.9511656, "tags": {"addr:housenumber": "664", "addr:street": "Manhattan Avenue", "amenity": "cafe", "name": "Bot Bar", "old_name": "Cherry Point"}}, {"type": "node", "id": 5087395922, "lat": 40.7257346, "lon": -73.9516885, "tags": {"addr:city": "Brooklyn", "addr:housenumber": "706", "addr:postcode": "11222", "addr:state": "NY", "addr:street": "Manhattan Avenue", "amenity": "bar", "name": "Lake Street", "website": "https://www.instagram.com/lakestbrooklyn"}}, {"type": "node", "id": 5093178523, "lat": 40.7243304, "lon": -73.9508047, "tags": {"amenity": "bar", "name": "Bulbap Grill", "name:en": "Bilbao Grill"}}, {"type": "node", "id": 5123299921, "lat": 40.7239127, "lon": -73.9510094, "tags": {"addr:city": "Brooklyn", "addr:housenumber": "631", "addr:postcode": "11222", "addr:state": "NY", "addr:street": "Manhattan Avenue", "amenity": "restaurant", "cuisine": "bagel;sandwich;deli", "name": "Frankel's Delicatessen and Appetizing", "phone": "+1-718-389-2302", "website": "https://www.frankelsdelicatessen.com"}}, {"type": "node", "id": 5449764621, "lat": 40.7243013, "lon": -73.9488166, "tags": {"amenity": "restaurant", "check_date": "2024-06-10", "cuisine": "polish", "name": "Pyza", "payment:cards": "no", "payment:cash": "yes", "payment:credit_cards": "no", "payment:debit_cards": "no"}}, {"type": "node", "id": 5912294977, "lat": 40.7241894, "lon": -73.9491942, "tags": {"name": "Marcin Muszynski, Esq", "office": "lawyer", "phone": "+1 718-389-7580", "website": "https://www.mmlegalnet.com"}}, {"type": "node", "id": 5978556769, "lat": 40.7223584, "lon": -73.9501246, "tags": {"addr:street": "Manhattan Avenue", "amenity": "cafe", "cuisine": "coffee_shop", "name": "Cotter Barber"}}, {"type": "node", "id": 5978556770, "lat": 40.7230585, "lon": -73.9502459, "tags": {"amenity": "cafe", "name": "Charlotte Patisserie", "opening_hours": "Mo-Sa 08:00-18:00, Su 09:00-18:00"}}, {"type": "node", "id": 5978837386, "lat": 40.7234561, "lon": -73.9514323, "tags": {"addr:city": "Brooklyn", "addr:housenumber": "66", "addr:postcode": "11222", "addr:state": "NY", "addr:street": "Nassau Avenue", "amenity": "cafe", "branch": "Nassau Avenue & Lorimer St", "brand": "Starbucks", "brand:wikidata": "Q37158", "cuisine": "coffee_shop", "internet_access": "wlan", "name": "Starbucks", "official_name": "Starbucks Coffee", "opening_hours": "Mo-Su 06:00-20:00", "phone": "+1 718-383-3750", "takeaway": "yes", "website": "https://www.starbucks.com/store-locator/store/1021871/nassau-ave-lorimer-st-66-nassau-ave-brooklyn-ny-112223105-us"}}, {"type": "node", "id": 6141565385, "lat": 40.7234589, "lon": -73.9520947, "tags": {"addr:postcode": "11222", "amenity": "restaurant", "cuisine": "japanese;sushi", "email": "amamibk@gmail.com", "name": "Amami", "name:de": "Amami Bar Restaurant", "name:en": "Amami Bar Restaurant", "opening_hours": "Su-Th 12:00-23:00; Fr-Sa 12:00-24:00", "phone": "+1-917-909-1568", "website": "https://amamibk.com/"}}, {"type": "node", "id": 6925229785, "lat": 40.7245177, "lon": -73.9513799, "tags": {"amenity": "restaurant", "cuisine": "italian", "name": "Scalino", "opening_hours": "Mo-Th 12:00-21:30; Fr-Sa 12:00-22:30", "phone": "+1-718-389-8600", "website": "https://scalinogpny.com"}}, {"type": "node", "id": 6935867744, "lat": 40.7233923, "lon": -73.9504292, "tags": {"addr:housenumber": "610", "addr:street": "Manhattan Avenue", "name": "Belvedere", "office": "estate_agent"}}, {"type": "node", "id": 6935867753, "lat": 40.7234617, "lon": -73.9504744, "tags": {"addr:housenumber": "614", "addr:street": "Manhattan Avenue", "amenity": "restaurant", "cuisine": "thai", "name": "Baoburg"}}, {"type": "node", "id": 6977990058, "lat": 40.7267202, "lon": -73.952316, "tags": {"name": "Brooklyn Ports Realty", "office": "estate_agent"}}, {"type": "node", "id": 7039222846, "lat": 40.7230006, "lon": -73.9502167, "tags": {"addr:housenumber": "592", "addr:street": "Manhattan Avenue", "amenity": "restaurant", "cuisine": "polish", "name": "Pierozek", "opening_hours": "Mo-Sa 12:00-22:00; Su 12:00-20:00", "phone": "+1 718 576 3866", "website": "https://www.pierozekbrooklyn.com/"}}, {"type": "node", "id": 7040480785, "lat": 40.7249803, "lon": -73.9516152, "tags": {"addr:housenumber": "681", "addr:street": "Manhattan Avenue", "amenity": "restaurant", "cuisine": "thai", "name": "Boon Thai"}}, {"type": "node", "id": 7243548686, "lat": 40.7232721, "lon": -73.9507783, "tags": {"amenity": "cafe", "name": "Anima Mundi"}}, {"type": "node", "id": 9278349050, "lat": 40.7235765, "lon": -73.9508233, "tags": {"amenity": "restaurant", "cocktails": "yes", "cuisine": "japanese;ramen", "drink:beer": "yes", "drink:liquor": "yes", "drink:sake": "yes", "drink:wine": "yes", "name": "Wanpaku", "opening_hours": "Mo-Th 12:00-15:30,17:00-22:00; Fr 12:00-15:30,17:00-22:30; Sa 12:00-22:30; Su 12:00-22:00", "phone": "+1-718-383-3139", "website": "https://www.wanpakubk.com"}}, {"type": "node", "id": 9789343571, "lat": 40.7215052, "lon": -73.9506886}, {"type": "node", "id": 9789343572, "lat": 40.7215344, "lon": -73.9507593}, {"type": "node", "id": 9789402820, "lat": 40.7233443, "lon": -73.9516823}, {"type": "node", "id": 10074094104, "lat": 40.7262824, "lon": -73.9546913, "tags": {"amenity": "restaurant", "cuisine": "japanese", "name": "Acre", "opening_hours": "Mo-Su 08:00-17:00", "outdoor_seating": "yes", "phone": "+1-718-954-9074", "website": "https://www.acrenyc.com/"}}, {"type": "node", "id": 10541952810, "lat": 40.7212095, "lon": -73.9512915}, {"type": "node", "id": 10568669415, "lat": 40.7204291, "lon": -73.9529422}, {"type": "node", "id": 10568669416, "lat": 40.7216633, "lon": -73.9535015}, {"type": "node", "id": 10657973358, "lat": 40.7241881, "lon": -73.9508843, "tags": {"addr:city": "Brooklyn", "addr:housenumber": "640", "addr:postcode": "11222", "addr:state": "NY", "addr:street": "Manhattan Avenue", "amenity": "restaurant", "cuisine": "pizza", "name": "Upside Pizza", "opening_hours": "Su-We 11:00-22:00; Th 11:00-01:00; Fr-Sa 11:00-03:00", "phone": "+1 347-689-2931", "website": "https:;//www.upsidepizza.com"}}, {"type": "node", "id": 10951864281, "lat": 40.7245655, "lon": -73.9514078, "tags": {"brand": "Allstate", "brand:wikidata": "Q2645636", "name": "Allstate", "office": "insurance"}}, {"type": "node", "id": 10951864283, "lat": 40.7244757, "lon": -73.9513516, "tags": {"office": "lawyer"}}, {"type": "node", "id": 10981491236, "lat": 40.7246234, "lon": -73.9478226, "tags": {"addr:housenumber": "138", "addr:street": "Nassau Avenue", "amenity": "restaurant", "check_date": "2024-06-10", "name": "Jucy Lucy", "opening_hours": "Mo-Tu 16:00-23:00; We-Th 16:00-24:00; Fr-Sa 16:00-01:00; Su 15:00-23:00", "outdoor_seating": "yes", "phone": "+1 347-763-2602", "website": "https://jucylucygreenpoint.com/"}}, {"type": "node", "id": 11264964167, "lat": 40.7230226, "lon": -73.9505013, "tags": {"addr:housenumber": "595", "addr:postcode": "11222", "addr:street": "Manhattan Avenue", "air_conditioning": "yes", "amenity": "restaurant", "bar": "yes", "check_date": "2024-03-05", "cuisine": "chinese", "description": "Sichuan Chinese Food", "diet:chicken": "yes", "diet:dairy_free": "yes", "diet:fish": "yes", "diet:healthy": "yes", "diet:lactose_free": "yes", "diet:meat": "yes", "diet:pescetarian": "yes", "diet:seafood": "yes", "diet:vegan": "yes", "diet:vegetarian": "yes", "email": "Service@breezebk.com", "name": "Breeze", "name:en": "Breeze", "opening_hours": "Mo-Th,Su 12:00-15:00,16:30-21:00; Fr-Sa 12:00-22:30", "outdoor_seating": "no", "payment:cash": "yes", "payment:credit_cards": "yes", "payment:mastercard": "yes", "payment:visa": "yes", "phone": "+1 212-718-0797", "reservation": "recommended", "smoking": "no", "takeaway": "yes", "toilets": "yes", "website": "https://www.breezebk.com", "wheelchair": "yes"}}, {"type": "node", "id": 11294399142, "lat": 40.7268441, "lon": -73.9523876, "tags": {"amenity": "restaurant", "cuisine": "ramen", "name": "Ramen Spot"}}, {"type": "node", "id": 11517820569, "lat": 40.7248795, "lon": -73.9512955, "tags": {"addr:city": "Brooklyn", "addr:housenumber": "674", "addr:postcode": "11222", "addr:state": "NY", "addr:street": "Manhattan Avenue", "amenity": "bar", "email": "hello@eavesdrop.nyc", "name": "Eavesdrop", "opening_hours": "Su 14:00-01:00; Mo-Th 17:00-01:00; Fr 17:00-02:00; Sa 14:00-02:00", "website": "https://www.eavesdrop.nyc"}}, {"type": "node", "id": 11695867777, "lat": 40.7235334, "lon": -73.9518146, "tags": {"addr:city": "Brooklyn", "addr:housenumber": "905", "addr:postcode": "11222", "addr:state": "NY", "addr:street": "Lorimer Street", "amenity": "bar", "check_date": "2024-03-05", "name": "Ray's", "opening_hours": "Mo-Th 16:00-01:00; Fr-Sa 12:00-02:00; Su 12:00-01:00", "website": "https://www.raysbarnyc.com"}}, {"type": "node", "id": 11749014713, "lat": 40.7202414, "lon": -73.9488201, "tags": {"grounded": "yes", "highway": "street_lamp"}}, {"type": "node", "id": 11827116643, "lat": 40.7229754, "lon": -73.9535642, "tags": {"addr:city": "Brooklyn", "addr:housenumber": "29", "addr:postcode": "11222", "addr:state": "NY", "addr:street": "Nassau Avenue", "amenity": "school", "name": "Ardor School", "website": "https://www.ardorschool.com"}}, {"type": "node", "id": 12047655753, "lat": 40.7249302, "lon": -73.9512899, "tags": {"addr:city": "Brooklyn", "addr:housenumber": "676", "addr:postcode": "11222", "addr:state": "NY", "addr:street": "Manhattan Avenue", "amenity": "restaurant", "contact:instagram": "sweetieskchicken", "cuisine": "korean;fried_chicken", "delivery": "yes", "name": "Sweetie\u2019s K-Chicken", "name:en": "Sweetie\u2019s K-Chicken", "name:ko": "\uc2a4\uc704\ud2f0\uc2a4", "opening_hours": "Mo-Th 12:00-22:00;Fr-Sa 12:00-24:00;Su 13:00-20:00", "payment:american_express": "yes", "payment:apple_pay": "yes", "payment:contactless": "yes", "payment:discover_card": "yes", "payment:mastercard": "yes", "payment:visa": "yes", "phone": "+1-347-696-9834", "website": "https://www.sweetiesbk.com/", "website:menu": "https://www.sweetiesbk.com/menu-2"}}, {"type": "node", "id": 12047723586, "lat": 40.7232072, "lon": -73.9506159, "tags": {"addr:city": "Brooklyn", "addr:housenumber": "603", "addr:postcode": "11222", "addr:state": "NY", "addr:street": "Manhattan Avenue", "amenity": "restaurant", "cuisine": "sichuan", "name": "M\u00e1L\u00e0 Project", "name:en": "M\u00e1l\u00e0 Project", "name:zh": "\u9ebb\u8fa3\u8ba1\u5212", "website": "https://www.malaproject.com/", "website:menu": "https://www.malaproject.com/menu/dinner"}}, {"type": "node", "id": 12085785778, "lat": 40.7230138, "lon": -73.952829}, {"type": "node", "id": 12085785781, "lat": 40.7230817, "lon": -73.9526249}, {"type": "node", "id": 12085785783, "lat": 40.7231343, "lon": -73.9524667}, {"type": "node", "id": 12085785795, "lat": 40.7229894, "lon": -73.9523289}, {"type": "node", "id": 12085785800, "lat": 40.7227977, "lon": -73.9525421}, {"type": "node", "id": 12085785810, "lat": 40.7232623, "lon": -73.9520424}, {"type": "node", "id": 12085785811, "lat": 40.723276, "lon": -73.9520461}, {"type": "node", "id": 12085785815, "lat": 40.7231414, "lon": -73.9524434}, {"type": "node", "id": 12085785824, "lat": 40.7229999, "lon": -73.9523173}, {"type": "node", "id": 12085785831, "lat": 40.7227683, "lon": -73.9525724}, {"type": "node", "id": 12085785840, "lat": 40.7230006, "lon": -73.9528696}, {"type": "node", "id": 12089235427, "lat": 40.7219601, "lon": -73.9552963}, {"type": "node", "id": 12089235429, "lat": 40.7222946, "lon": -73.9549316}, {"type": "node", "id": 12089235430, "lat": 40.7223311, "lon": -73.9548598}, {"type": "node", "id": 12089235435, "lat": 40.7219356, "lon": -73.9553249}, {"type": "node", "id": 12089235436, "lat": 40.721873, "lon": -73.9553908}, {"type": "node", "id": 12089235437, "lat": 40.7218484, "lon": -73.9554151}, {"type": "node", "id": 12089235440, "lat": 40.72147, "lon": -73.9558215}, {"type": "node", "id": 12089235443, "lat": 40.7217227, "lon": -73.9538545}, {"type": "node", "id": 12089235444, "lat": 40.7223001, "lon": -73.9547892}, {"type": "node", "id": 12089235447, "lat": 40.7216933, "lon": -73.953807}, {"type": "node", "id": 12089235453, "lat": 40.7210128, "lon": -73.9552339}, {"type": "node", "id": 12089235458, "lat": 40.7214155, "lon": -73.9558801}, {"type": "node", "id": 12096336751, "lat": 40.7231379, "lon": -73.9524546, "tags": {"access": "no", "barrier": "gate", "bicycle": "yes", "foot": "yes", "horse": "no", "locked": "no", "motor_vehicle": "no", "wheelchair": "yes"}}, {"type": "node", "id": 12096336752, "lat": 40.723009, "lon": -73.9528442, "tags": {"access": "no", "barrier": "gate", "bicycle": "no", "foot": "no", "horse": "no", "motor_vehicle": "no", "wheelchair": "no"}}, {"type": "node", "id": 12096336753, "lat": 40.7227823, "lon": -73.952558, "tags": {"access": "no", "barrier": "gate", "bicycle": "no", "foot": "no", "horse": "no", "motor_vehicle": "no", "wheelchair": "no"}}, {"type": "node", "id": 12099611900, "lat": 40.7199293, "lon": -73.9526935}, {"type": "node", "id": 12099716501, "lat": 40.7197814, "lon": -73.9526693}, {"type": "node", "id": 12111226444, "lat": 40.7200588, "lon": -73.952479}, {"type": "node", "id": 12111226445, "lat": 40.7204298, "lon": -73.9525395}, {"type": "node", "id": 12111226449, "lat": 40.7197796, "lon": -73.9524336}, {"type": "node", "id": 12111226455, "lat": 40.7200145, "lon": -73.9524718}, {"type": "node", "id": 12111226456, "lat": 40.7189644, "lon": -73.9523008}, {"type": "node", "id": 12111226466, "lat": 40.7197389, "lon": -73.9524269}, {"type": "node", "id": 12111226470, "lat": 40.7188973, "lon": -73.9521769}, {"type": "node", "id": 12111226483, "lat": 40.7190716, "lon": -73.9503413}, {"type": "node", "id": 12111226489, "lat": 40.7191234, "lon": -73.9503233}, {"type": "node", "id": 12111226490, "lat": 40.7194996, "lon": -73.950381}, {"type": "node", "id": 12111226493, "lat": 40.719547, "lon": -73.9503882}, {"type": "node", "id": 12111226500, "lat": 40.7206263, "lon": -73.9505538}, {"type": "node", "id": 12111595853, "lat": 40.7206719, "lon": -73.9505608}, {"type": "node", "id": 12111595854, "lat": 40.7215287, "lon": -73.9506984}, {"type": "node", "id": 12111595884, "lat": 40.7204976, "lon": -73.9524859}, {"type": "node", "id": 12111595885, "lat": 40.7212903, "lon": -73.9511591}, {"type": "node", "id": 12115376621, "lat": 40.7216711, "lon": -73.9505074}, {"type": "node", "id": 12115376622, "lat": 40.7207089, "lon": -73.9503495}, {"type": "node", "id": 12115376623, "lat": 40.7206474, "lon": -73.9503394}, {"type": "node", "id": 12115376628, "lat": 40.7202271, "lon": -73.9502705}, {"type": "node", "id": 12115376631, "lat": 40.7195696, "lon": -73.9501626}, {"type": "node", "id": 12115376636, "lat": 40.7199871, "lon": -73.9502311}, {"type": "node", "id": 12115376640, "lat": 40.7191748, "lon": -73.9492992}, {"type": "node", "id": 12115376641, "lat": 40.7195133, "lon": -73.9501534}, {"type": "node", "id": 12115376680, "lat": 40.7191805, "lon": -73.9492394}, {"type": "node", "id": 12115376687, "lat": 40.7196713, "lon": -73.9487259}, {"type": "node", "id": 12115376688, "lat": 40.7197, "lon": -73.9487307}, {"type": "node", "id": 12115376693, "lat": 40.7199768, "lon": -73.9487764}, {"type": "node", "id": 12115473760, "lat": 40.7208366, "lon": -73.9489189}, {"type": "node", "id": 12115473768, "lat": 40.721563, "lon": -73.9493381}, {"type": "node", "id": 12115473769, "lat": 40.7217252, "lon": -73.9504415}, {"type": "node", "id": 12115473770, "lat": 40.7215933, "lon": -73.9493727}, {"type": "node", "id": 12120440898, "lat": 40.7218196, "lon": -73.9507993}, {"type": "node", "id": 12120478907, "lat": 40.7223686, "lon": -73.9511229}, {"type": "node", "id": 12120478908, "lat": 40.7224241, "lon": -73.9511499}, {"type": "node", "id": 12120478915, "lat": 40.7232285, "lon": -73.9516161}, {"type": "node", "id": 12120603799, "lat": 40.7232563, "lon": -73.9517821}, {"type": "node", "id": 12120615111, "lat": 40.7217016, "lon": -73.953457}, {"type": "node", "id": 12120615120, "lat": 40.7206551, "lon": -73.9545467}, {"type": "node", "id": 12120615121, "lat": 40.7199395, "lon": -73.9535476}, {"type": "node", "id": 12120615126, "lat": 40.7205928, "lon": -73.9545661}, {"type": "node", "id": 12120615127, "lat": 40.7199587, "lon": -73.9534447}, {"type": "node", "id": 12120615132, "lat": 40.7205422, "lon": -73.9527583}, {"type": "node", "id": 12120615133, "lat": 40.7205799, "lon": -73.9526961}, {"type": "node", "id": 12120615145, "lat": 40.7217008, "lon": -73.9508354}, {"type": "node", "id": 12230584104, "lat": 40.724764, "lon": -73.953571, "tags": {"addr:city": "Brooklyn", "addr:housenumber": "46", "addr:postcode": "11222", "addr:state": "NY", "addr:street": "Norman Ave ", "amenity": "restaurant", "name": "Nura", "opening_hours": "DINNER | TUES-SAT 5:30-10:30, SUN 5:00-9:00BRUNCH | SAT & SUN 11:00-2:30", "website": "https://www.nurabk.com/"}}, {"type": "node", "id": 12398830774, "lat": 40.7236676, "lon": -73.951612, "tags": {"addr:housenumber": "18", "addr:postcode": "11222", "addr:street": "Bedford Avenue", "amenity": "restaurant", "bar": "yes", "cuisine": "american", "name": "Five Leaves", "opening_hours": "Su-Th 08:00-23:00; Fr-Sa 08:00-24:00", "phone": "+1-718-383-5345", "website": "https://fiveleavesny.com/"}}, {"type": "node", "id": 12398830781, "lat": 40.7250461, "lon": -73.9513749, "tags": {"name": "Greenpoint Insurance Brokerage", "office": "insurance", "phone": "+1-718-383-0306"}}, {"type": "node", "id": 12398830782, "lat": 40.7235997, "lon": -73.9528525, "tags": {"addr:housenumber": "67", "addr:postcode": "11222", "addr:street": "Guernsey Street", "name": "Invi Air", "office": "company", "phone": "+1-917-909-0343", "website": "https://inviair.com"}}, {"type": "node", "id": 12730434023, "lat": 40.7245388, "lon": -73.9533898, "tags": {"addr:city": "Brooklyn", "addr:housenumber": "95", "addr:postcode": "11222", "addr:state": "NY", "addr:street": "Guernsey Street", "amenity": "restaurant", "cuisine": "japanese", "email": "uzuki.ny@gmail.com", "name": "Uzuki", "opening_hours": "Mo-Fr 11:45-16:00, 17:00-22:00; Sa 12:00-16:00,17:00-22:00; Su 12:00-16:00,17:00-20:30", "phone": "+1 917-563-3888", "website": "https://www.uzuki-ny.com"}}, {"type": "node", "id": 12730434024, "lat": 40.7262762, "lon": -73.9520758, "tags": {"addr:city": "Brooklyn", "addr:housenumber": "732", "addr:postcode": "11222", "addr:state": "NY", "addr:street": "Manhattan Avenue", "amenity": "bar", "email": "twinsloungenyc@gmail.com", "name": "Twins Lounge", "opening_hours": "Su-Th 16:00-03:00; Fr-Sa 15:00-04:00", "website": "https://www.instagram.com/twinsloungenyc"}}, {"type": "node", "id": 12730434028, "lat": 40.7244434, "lon": -73.9484547, "tags": {"addr:city": "Brooklyn", "addr:housenumber": "126A", "addr:postcode": "11222", "addr:state": "NY", "addr:street": "Nassau Avenue", "amenity": "bar", "name": "Lise & Vito", "opening_hours": "Mo-We 17:00-01:00; Th-Fr 16:00-02:00; Sa 14:00-02:00; Su 14:00-01:00", "website": "https://www.liseandvito.com"}}, {"type": "way", "id": 32888938, "nodes": [370427020, 12089235444, 12089235443, 12089235447, 370427026, 370427035, 12089235453, 12089235458, 12089235440, 12089235437, 12089235436, 12089235435, 12089235427, 12089235429, 12089235430, 370427020]}, {"type": "way", "id": 32888940, "nodes": [12120603799, 12120615111, 10568669416, 12120615120, 370427061, 12120615126, 12120615121, 370427068, 12120615127, 10568669415, 370427080, 12120615132, 12120615133, 12120615145, 2548042173, 12120440898, 12120478907, 12120478908, 12120478915, 9789402820, 12120603799]}, {"type": "way", "id": 32888942, "nodes": [370427087, 9789343572, 12111595885, 10541952810, 12111595884, 370427093, 12111226445, 12111226444, 12111226455, 12111226449, 12111226466, 12111226456, 370427099, 12111226470, 12111226483, 370427106, 12111226489, 12111226490, 12111226493, 12111226500, 12111595853, 9789343571, 12111595854, 370427087]}, {"type": "way", "id": 32888943, "nodes": [370427113, 3865279496, 3865279495, 3865279494, 12099611900, 12099716501, 3865279488, 3865279484, 370427120, 3865279483, 3865279485, 370212417, 370212416, 370212415, 3865279493, 370427113]}, {"type": "way", "id": 32888945, "nodes": [370427136, 1709314941, 12115473770, 12115473768, 2548042168, 370427144, 12115473760, 1709314958, 2548053395, 11749014713, 12115376693, 12115376688, 12115376687, 370427151, 12115376680, 12115376640, 370427157, 12115376641, 12115376631, 12115376636, 12115376628, 12115376623, 12115376622, 12115376621, 370427168, 12115473769, 370427136]}, {"type": "way", "id": 280081156, "nodes": [2842614361, 2842614385, 2842614379, 2842614650, 2842614659, 2842614371, 2842614361], "tags": {"addr:city": "Brooklyn", "addr:housenumber": "110B", "addr:postcode": "11222", "addr:state": "NY", "addr:street": "Nassau Avenue", "amenity": "restaurant", "building": "yes", "height": "11.0", "name": "Kestane Kebab", "nycdoitt:bin": "3066773", "phone": "+1-718-349-8601", "website": "http://www.kestanekebapny.com/"}}, {"type": "way", "id": 280081408, "nodes": [2842613403, 2842613431, 2842613460, 2842613435, 2842613403], "tags": {"addr:housenumber": "597", "addr:postcode": "11222", "addr:street": "Manhattan Avenue", "air_conditioning": "yes", "amenity": "bar", "brewery": "yes", "building": "yes", "check_date": "2022-11-04", "height": "9.4", "microbrewery": "no", "name": "A Bar", "nycdoitt:bin": "3066714", "outdoor_seating": "yes", "payment:cash": "yes", "payment:credit_cards": "yes", "payment:mastercard": "yes", "payment:visa": "yes", "phone": "+1 347-687-4703", "smoking": "outside", "wheelchair": "no"}}, {"type": "way", "id": 280081426, "nodes": [2842613641, 2842613677, 2842613686, 2842613730, 2842613700, 2842613641], "tags": {"addr:city": "Brooklyn", "addr:housenumber": "611", "addr:postcode": "11222", "addr:state": "NY", "addr:street": "Manhattan Avenue", "amenity": "restaurant", "building": "yes", "cuisine": "chinese", "height": "9.6", "name": "Fortune Cookies", "nycdoitt:bin": "3330175", "phone": "+1-718-389-7103"}}, {"type": "way", "id": 280081430, "nodes": [2842613686, 2842613711, 2842613718, 2842613750, 2842613730, 2842613686], "tags": {"addr:city": "Brooklyn", "addr:housenumber": "615", "addr:postcode": "11222", "addr:state": "NY", "addr:street": "Manhattan Avenue", "amenity": "bar", "building": "yes", "contact:phone": "+1-718-389-6034", "contact:twitter": "@torst_nyc", "contact:website": "https://www.torstnyc.com", "craft_beer": "yes", "email": "info@torstnyc.com", "height": "11.9", "name": "T\u00f8rst", "nycdoitt:bin": "3066710", "opening_hours": "Mo-Fr 15:00-24:00; Fr-Sa 12:00-01:00; Su 12:00-24:00"}}, {"type": "way", "id": 280081433, "nodes": [2842613718, 2842613744, 2842613781, 2842613750, 2842613718], "tags": {"addr:city": "Brooklyn", "addr:housenumber": "617", "addr:postcode": "11222", "addr:state": "NY", "addr:street": "Manhattan Avenue", "amenity": "restaurant", "building": "yes", "cuisine": "thai", "delivery": "yes", "height": "11.0", "name": "Amarin Cafe", "nycdoitt:bin": "3066709", "phone": "+1-718-349-2788", "takeaway": "yes"}}, {"type": "way", "id": 280081506, "nodes": [2842615244, 2842615270, 2842615290, 2842615269, 2842615255, 2842615244], "tags": {"addr:housenumber": "685", "addr:postcode": "11222", "addr:street": "Manhattan Avenue", "amenity": "restaurant", "building": "yes", "diet:vegan": "yes", "height": "12.3", "name": "Vegan QuickBites by Next Stop Vegan", "nycdoitt:bin": "3066032", "phone": "+19179091584"}}, {"type": "way", "id": 280081522, "nodes": [2842613732, 2842613799, 2842613908, 2842613737, 2842613732], "tags": {"addr:city": "Brooklyn", "addr:housenumber": "76", "addr:postcode": "11222", "addr:state": "NY", "addr:street": "Nassau Avenue", "building": "yes", "height": "11.5", "nycdoitt:bin": "3066704", "office": "insurance", "phone": "+1-718-389-6699"}}, {"type": "way", "id": 280081671, "nodes": [2842614674, 2842614681, 2842614622, 2842614616, 2842614602, 2842614393, 2842614674], "tags": {"addr:city": "Brooklyn", "addr:housenumber": "114", "addr:postcode": "11222", "addr:state": "NY", "addr:street": "Nassau Avenue", "amenity": "restaurant", "building": "yes", "height": "12.1", "name": "Greenpoint Fish & Lobster Co", "nycdoitt:bin": "3066776", "website": "https://greenpointfish.com/"}}, {"type": "way", "id": 280081685, "nodes": [2842613093, 2842613090, 2842613091, 2842613088, 2842613086, 2842613084, 2842613077, 2842613083, 2842613093], "tags": {"addr:city": "Brooklyn", "addr:housenumber": "560", "addr:postcode": "11222", "addr:state": "NY", "addr:street": "Manhattan Avenue", "amenity": "restaurant", "building": "yes", "height": "11.8", "name": "Bar Bruno", "nycdoitt:bin": "3066749"}}, {"type": "way", "id": 280100302, "nodes": [2842759641, 2842759640, 2842759657, 2842759662, 2842759651, 2842759641], "tags": {"addr:city": "Brooklyn", "addr:housenumber": "139", "addr:postcode": "11222", "addr:state": "NY", "addr:street": "Nassau Avenue", "amenity": "restaurant", "building": "yes", "check_date": "2024-06-10", "cuisine": "portuguese", "height": "4.8", "name": "Raizes Churrascaria", "nycdoitt:bin": "3066255", "opening_hours": "Mo-Th 12:00-23:00; Fr-Sa 12:00-24:00; Su 12:00-22:00", "phone": "+1 718-389-0088", "website": "https://raizesgreenpoint.com/"}}, {"type": "way", "id": 280115144, "nodes": [2842832949, 2842833212, 2842833228, 2842832965, 2842832949], "tags": {"addr:housenumber": "124", "addr:postcode": "11222", "addr:street": "Meserole Avenue", "amenity": "restaurant", "building": "yes", "height": "12.7", "nycdoitt:bin": "3065665"}}, {"type": "way", "id": 280115171, "nodes": [2842830714, 2842830807, 2842830808, 2842830833, 2842830835, 2842830817, 2842830787, 2842830751, 2842830720, 2842830714], "tags": {"addr:city": "Brooklyn", "addr:housenumber": "119", "addr:postcode": "11222", "addr:state": "NY", "addr:street": "Nassau Avenue", "amenity": "restaurant", "building": "yes", "cuisine": "steak_house", "height": "15.3", "name": "Amber Steak House", "nycdoitt:bin": "3066205", "phone": "+1-718-389-0088", "website": "http://ambersteak.com"}}, {"type": "way", "id": 365937086, "nodes": [3699353881, 3699353882, 3699353883, 3699353884, 3699353881], "tags": {"amenity": "school", "check_date": "2024-03-09", "name": "Automotive High School"}}, {"type": "way", "id": 365937095, "nodes": [3699353883, 12085785840, 12096336752, 12085785778, 12085785781, 12085785783, 12096336751, 12085785815, 12085785811, 12085785810, 12085785824, 12085785795, 12085785800, 12096336753, 12085785831, 3699353882, 3699353883], "tags": {"ele": "4", "gnis:feature_id": "2377260", "leisure": "park", "name": "Father Popieluszko Square", "opening_hours": "06:00-21:00", "wikidata": "Q49488595"}}, {"type": "relation", "id": 13902286, "members": [{"type": "way", "ref": 32888945, "role": "outer"}, {"type": "way", "ref": 32888942, "role": "outer"}, {"type": "way", "ref": 32888940, "role": "outer"}, {"type": "way", "ref": 32888938, "role": "outer"}, {"type": "way", "ref": 32888943, "role": "outer"}], "tags": {"addr:city": "Brooklyn", "addr:state": "NY", "ele": "4", "gnis:feature_id": "956729", "leisure": "park", "name": "McCarren Park", "name:etymology:wikidata": "Q7146625", "operator": "New York City Department of Parks and Recreation", "operator:short": "NYC Parks", "operator:type": "government", "operator:wikidata": "Q1894232", "type": "multipolygon", "website": "https://www.nycgovparks.org/parks/mccarren-park/", "wikidata": "Q6800173", "wikipedia": "en:McCarren Park"}}]}