{"version": 0.6, "generator": "Overpass API 0.7.62.8 e802775f", "osm3s": {"timestamp_osm_base": "2025-12-01T17:10:00Z", "copyright": "The data included in this document is from www.openstreetmap.org. The data is made available under ODbL."}, "elements": [{"type": "node", "id": 662433328, "lat": 40.7219891, "lon": -73.9924423, "tags": {"addr:city": "New York", "addr:country": "US", "addr:postcode": "10002", "addr:street": "Freeman Alley", "amenity": "restaurant", "cocktails": "yes", "cuisine": "american", "drink:beer": "yes", "drink:liquor": "yes", "drink:wine": "yes", "name": "Freemans", "opening_hours": "Mo-Th 11:00-23:00; Fr 11:00-02:00; Sa 10:00-02:00; Su 10:00-23:00", "opening_hours:kitchen": "Mo-Th 11:00-23:00; Fr 11:00-01:00; Sa 10:00-01:00; Su 10:00-23:00", "phone": "+1-212-420-0012", "website": "https://www.freemansrestaurant.com"}}, {"type": "node", "id": 886175538, "lat": 40.7254073, "lon": -73.9923897, "tags": {"addr:housenumber": "1", "addr:street": "Bleecker Street", "amenity": "cafe", "branch": "Bleecker Street", "brand": "Think Coffee", "brand:wikidata": "Q122209740", "cuisine": "coffee_shop", "drink:coffee": "yes", "drink:tea": "yes", "drink:wine": "yes", "internet_access": "no", "name": "Think Coffee", "opening_hours": "Mo-Fr 06:30-19:00; Sa,Su 07:00-19:00", "outdoor_seating": "sidewalk", "takeaway": "yes", "toilets": "yes", "toilets:wheelchair": "yes", "website": "https://www.thinkcoffee.com/", "wheelchair": "yes"}}, {"type": "node", "id": 1270769390, "lat": 40.7231123, "lon": -73.9882648}, {"type": "node", "id": 1270769392, "lat": 40.7230122, "lon": -73.9882739}, {"type": "node", "id": 1270769397, "lat": 40.722756, "lon": -73.9874399}, {"type": "node", "id": 1270769399, "lat": 40.7227708, "lon": -73.9874329}, {"type": "node", "id": 1915398676, "lat": 40.7223431, "lon": -73.987353, "tags": {"addr:city": "New York", "addr:housenumber": "205", "addr:postcode": "10002", "addr:state": "NY", "addr:street": "East Houston Street", "alt_name": "Katz's of New York City", "amenity": "restaurant", "contact:facebook": "https://www.facebook.com/katzsdeli", "contact:instagram": "https://www.instagram.com/katzsdeli/", "contact:twitter": "https://twitter.com/KatzsDeli", "cuisine": "deli", "diet:kosher": "yes", "name": "Katz's Delicatessen", "opening_hours": "Mo-Th 08:00-22:15; Fr 08:00-24:00; Sa 00:00-24:00; Su 00:00-22:15", "payment:cash": "yes", "payment:credit_cards": "yes", "phone": "+1-212-254-2246", "reservation": "yes", "short_name": "Katz's Deli", "website": "https://www.katzsdelicatessen.com", "wikidata": "Q2611788", "wikipedia": "en:Katz's Delicatessen"}}, {"type": "node", "id": 1918039862, "lat": 40.7170404, "lon": -73.9942561}, {"type": "node", "id": 1918039865, "lat": 40.7232698, "lon": -73.9904488}, {"type": "node", "id": 1918039866, "lat": 40.7158437, "lon": -73.9945658}, {"type": "node", "id": 1918039867, "lat": 40.7158293, "lon": -73.9943951}, {"type": "node", "id": 1918039870, "lat": 40.7160345, "lon": -73.9947458}, {"type": "node", "id": 1918039874, "lat": 40.7199978, "lon": -73.9921286}, {"type": "node", "id": 1918039899, "lat": 40.7158262, "lon": -73.994497}, {"type": "node", "id": 1918039900, "lat": 40.7234317, "lon": -73.9909873}, {"type": "node", "id": 1918039908, "lat": 40.715869, "lon": -73.9946257}, {"type": "node", "id": 1918039910, "lat": 40.7160747, "lon": -73.9947448}, {"type": "node", "id": 1918039912, "lat": 40.7158641, "lon": -73.9942938}, {"type": "node", "id": 1918039915, "lat": 40.7195671, "lon": -73.9923379}, {"type": "node", "id": 1918039929, "lat": 40.7168825, "lon": -73.9937515}, {"type": "node", "id": 1918039936, "lat": 40.7159106, "lon": -73.9946874}, {"type": "node", "id": 1919602938, "lat": 40.7235092, "lon": -73.9913293, "tags": {"amenity": "cafe", "brand": "La Colombe Coffee Roasters", "brand:wikidata": "Q23461663", "cuisine": "coffee_shop", "drink:coffee": "yes", "drink:espresso": "yes", "drink:tea": "yes", "name": "La Colombe Coffee Roasters", "short_name": "La Colombe", "takeaway": "yes"}}, {"type": "node", "id": 2244654779, "lat": 40.7216511, "lon": -73.988822, "tags": {"addr:city": "New York", "addr:country": "US", "addr:housenumber": "84", "addr:state": "NY", "addr:street": "Stanton Street", "amenity": "bar", "indoor_seating": "yes", "name": "82 Stanton", "outdoor_seating": "yes", "source": "+1 212-982-8895", "wikidata": "Q16901513", "wikipedia": "en:The Meatball Shop"}}, {"type": "node", "id": 2244694465, "lat": 40.7224339, "lon": -73.9899014, "tags": {"addr:city": "New York", "addr:country": "US", "addr:housenumber": "235", "addr:state": "NY", "addr:street": "Eldridge Street", "amenity": "bar", "name": "bOb Bar", "opening_hours": "We-Sa 19:00-04:00; Su 19:00-02:00", "payment:credit_cards": "yes", "phone": "+1-212-529-1807", "source": "+1 212-529-1807", "toilets": "yes", "website": "https://www.bobbarnyc.com/"}}, {"type": "node", "id": 2486570141, "lat": 40.7231858, "lon": -73.9901312, "tags": {"addr:housenumber": "137", "addr:postcode": "10002", "addr:street": "East Houston Street", "amenity": "cafe", "check_date": "2024-11-22", "delivery": "yes", "dish": "knish", "name": "Yonah Shimmel Knish Bakery", "opening_hours": "Mo-Su 09:30-19:00", "phone": "+1-212-477-2858", "website": "http://www.knishery.com", "wikidata": "Q8054887", "wikipedia": "en:Yonah Schimmel's Knish Bakery"}}, {"type": "node", "id": 2546985590, "lat": 40.7258624, "lon": -73.9898947, "tags": {"addr:housenumber": "57", "addr:postcode": "10003", "addr:street": "2nd Avenue", "amenity": "cafe", "cuisine": "coffee_shop;sandwich", "drink:coffee": "yes", "drink:espresso": "yes", "drink:tea": "yes", "name": "Kona Coffee and Company", "outdoor_seating": "sidewalk"}}, {"type": "node", "id": 2546985593, "lat": 40.7259382, "lon": -73.989838, "tags": {"addr:housenumber": "59", "addr:postcode": "10003", "addr:street": "2nd Avenue", "alt_name": "Dim Sum Sam", "amenity": "restaurant", "contact:instagram": "https://www.instagram.com/dimsumpalace/", "cuisine": "chinese", "name": "Dim Sum Palace", "opening_hours": "Mo-Fr 11:30-24:00, 0:00- 1:30; Sa-Su 10:30-24:00, 0:00- 1:30", "website": "https://www.dimsumpalace.com"}}, {"type": "node", "id": 2547000514, "lat": 40.7253406, "lon": -73.9918998, "tags": {"amenity": "restaurant", "check_date": "2023-10-05", "cuisine": "japanese", "name": "Kissaki", "opening_hours": "Mo-Th 18:00-22:00; Fr 17:30-22:30; Sa 12:00-14:00,17:30-22:30; Su 12:00-14:00,18:00-22:00", "outdoor_seating": "yes", "phone": "+1-917-960-7989", "website": "https://explorekissaki.com"}}, {"type": "node", "id": 2547041086, "lat": 40.7225241, "lon": -73.9934347, "tags": {"addr:city": "New York", "addr:housenumber": "1", "addr:postcode": "10012", "addr:state": "NY", "addr:street": "Prince Street", "alt_name": "PlantShed Cafe", "amenity": "cafe", "branch": "Prince Street", "drink:coffee": "yes", "drink:espresso": "yes", "name": "PlantShed", "opening_hours": "Mo-Su 08:00-19:00 \"cafe\"||Mo-Su 09:00-19:00 \"shop\"", "phone": "+1-212-662-4400", "shop": "garden_centre", "website": "https://www.plantshed.com/retail-prince-st"}}, {"type": "node", "id": 2547054885, "lat": 40.7256046, "lon": -73.98962, "tags": {"amenity": "cafe", "brand": "The Bean", "brand:wikidata": "Q122209700", "check_date": "2024-11-11", "cuisine": "coffee_shop", "diet:vegan": "yes", "drink:coffee": "yes", "drink:espresso": "yes", "drink:tea": "yes", "indoor_seating": "yes", "internet_access": "wlan", "internet_access:fee": "no", "name": "The Bean", "opening_hours": "Mo-Su 07:00-21:00", "outdoor_seating": "no", "phone": "+1-917-262-0929", "takeaway": "yes", "website": "https://www.thebean.nyc"}}, {"type": "node", "id": 2547054897, "lat": 40.7257664, "lon": -73.9895015, "tags": {"addr:housenumber": "60", "addr:postcode": "10003", "addr:street": "2nd Avenue", "alt_name": "La Hormiga Negra", "amenity": "restaurant", "cocktails": "yes", "cuisine": "mexican", "drink:beer": "yes", "drink:liquor": "yes", "drink:wine": "yes", "happy_hours": "Tu-Su 16:00-19:00", "indoor_seating": "yes", "name": "The Black Ant", "name:es": "La Hormiga Negra", "opening_hours": "Tu-Th 16:00-23:00; Fr 16:00-24:00; Sa 11:00-15:30,16:00-24:00; Su 11:00-15:30,16:00-24:00", "outdoor_seating": "yes", "phone": "+1-212-598-0300", "website": "https://www.theblackantnyc.com"}}, {"type": "node", "id": 2547055454, "lat": 40.7255591, "lon": -73.9877133}, {"type": "node", "id": 2547055503, "lat": 40.7256074, "lon": -73.9876783}, {"type": "node", "id": 2547055520, "lat": 40.7256249, "lon": -73.9876657}, {"type": "node", "id": 2547055535, "lat": 40.725646, "lon": -73.9876504}, {"type": "node", "id": 2547055567, "lat": 40.7256977, "lon": -73.987613}, {"type": "node", "id": 2547055574, "lat": 40.7257121, "lon": -73.9876025}, {"type": "node", "id": 2547055585, "lat": 40.7257251, "lon": -73.9881095}, {"type": "node", "id": 2547055595, "lat": 40.725758, "lon": -73.9875694}, {"type": "node", "id": 2547055629, "lat": 40.725829, "lon": -73.9883497}, {"type": "node", "id": 2547055660, "lat": 40.7258666, "lon": -73.9894282, "tags": {"alt_name": "Bastard Burgers", "amenity": "bar", "check_date": "2024-05-18", "cuisine": "burger", "diet:vegan": "yes", "drink:beer": "draught", "drink:wine": "yes", "indoor_seating": "yes", "name": "Bronx Brewery", "opening_hours": "Mo-Th 16:00-23:00; Fr 16:00-24:00; Sa 12:00-24:00; Su 12:00-23:00", "opening_hours:kitchen": "Mo-Th 16:00-22:00; Fr 16:00-23:00; Sa 12:00-23:00; Su 12:00-22:00", "outdoor_seating": "yes", "website": "https://thebronxbrewery.com/breweries-in-manhattan/", "wheelchair": "yes"}}, {"type": "node", "id": 2547055665, "lat": 40.7259038, "lon": -73.9882955}, {"type": "node", "id": 2547055699, "lat": 40.7259666, "lon": -73.9882501}, {"type": "node", "id": 2547055714, "lat": 40.7260196, "lon": -73.9882117}, {"type": "node", "id": 2547055770, "lat": 40.7262118, "lon": -73.9884383}, {"type": "node", "id": 2547055782, "lat": 40.7262602, "lon": -73.9884033}, {"type": "node", "id": 2547055806, "lat": 40.7263575, "lon": -73.9883328}, {"type": "node", "id": 2547684104, "lat": 40.7212215, "lon": -73.9924426, "tags": {"amenity": "bar", "cocktails": "yes", "cuisine": "snack", "drink:beer": "yes", "drink:liquor": "yes", "name": "Ray's", "opening_hours": "Mo-Fr 17:00-02:00, Sa-Su 13:00-02:00", "outdoor_seating": "sidewalk;street", "sport": "billiards", "website": "https://www.raysbarnyc.com/location/les/"}}, {"type": "node", "id": 2550007703, "lat": 40.724302, "lon": -73.9912261, "tags": {"amenity": "cafe", "drink:espresso": "yes", "drink:juice": "yes", "healthcare": "alternative", "name": "Kollectiv", "phone": "+1-212-228-5909", "website": "https://kollectivnyc.com"}}, {"type": "node", "id": 2550007819, "lat": 40.723522, "lon": -73.9896995}, {"type": "node", "id": 2550007820, "lat": 40.7235612, "lon": -73.9898317}, {"type": "node", "id": 2550007837, "lat": 40.7238392, "lon": -73.9904125}, {"type": "node", "id": 2550007856, "lat": 40.7239781, "lon": -73.9903384}, {"type": "node", "id": 2550007861, "lat": 40.7240118, "lon": -73.9904191}, {"type": "node", "id": 2550785035, "lat": 40.7241058, "lon": -73.9861451}, {"type": "node", "id": 2550785098, "lat": 40.724303, "lon": -73.9866154}, {"type": "node", "id": 2550785166, "lat": 40.7245671, "lon": -73.985811}, {"type": "node", "id": 2550785217, "lat": 40.7247652, "lon": -73.9862834}, {"type": "node", "id": 2554956999, "lat": 40.721688, "lon": -73.9902567}, {"type": "node", "id": 2554957011, "lat": 40.7217319, "lon": -73.9904041}, {"type": "node", "id": 2554957015, "lat": 40.7217446, "lon": -73.9902268}, {"type": "node", "id": 2554957020, "lat": 40.7217637, "lon": -73.9903887}, {"type": "node", "id": 2554957025, "lat": 40.7217667, "lon": -73.9902991}, {"type": "node", "id": 2554957028, "lat": 40.7217797, "lon": -73.9902923}, {"type": "node", "id": 2554957030, "lat": 40.7218028, "lon": -73.990368}, {"type": "node", "id": 2555126634, "lat": 40.7228647, "lon": -73.9890918, "tags": {"addr:city": "New York", "addr:housenumber": "159", "addr:postcode": "10002", "addr:state": "NY", "addr:street": "East Houston Street", "amenity": "bar", "check_date": "2024-11-06", "min_age": "21", "name": "Two Doors Down", "website": "https://twodoorsdown.nyc"}}, {"type": "node", "id": 2555126652, "lat": 40.7221, "lon": -73.9883133, "tags": {"addr:city": "New York", "addr:housenumber": "187", "addr:postcode": "10002", "addr:state": "NY", "addr:street": "Orchard Street", "amenity": "bar", "brewery": "yes;various", "min_age": "21", "name": "Baby Grand LES", "opening_hours": "17:00-02:00"}}, {"type": "node", "id": 2555126662, "lat": 40.721622, "lon": -73.9887536, "tags": {"addr:housenumber": "82", "addr:postcode": "10002", "addr:street": "Stanton Street", "amenity": "bar", "indoor_seating": "yes", "name": "8282", "outdoor_seating": "yes"}}, {"type": "node", "id": 2555128944, "lat": 40.7235492, "lon": -73.9880373, "tags": {"addr:housenumber": "20", "addr:postcode": "10009", "addr:street": "1st Avenue", "amenity": "restaurant", "cuisine": "vietnamese", "name": "V-Nam Cafe", "opening_hours": "Mo-Su 12:00-22:00", "phone": "+1-212-780-6020", "website": "https://vnamcafe.com/"}}, {"type": "node", "id": 2555128954, "lat": 40.7232525, "lon": -73.9881492, "tags": {"addr:city": "New York", "addr:housenumber": "76", "addr:postcode": "10009", "addr:state": "NY", "addr:street": "East 1st Street", "amenity": "bar", "name": "One and One", "opening_hours": "Mo-Su 13:00-23:00", "sport": "billiards"}}, {"type": "node", "id": 2555129236, "lat": 40.7231533, "lon": -73.9879295}, {"type": "node", "id": 2555129241, "lat": 40.7231911, "lon": -73.9880192}, {"type": "node", "id": 2555129243, "lat": 40.7232043, "lon": -73.9880506}, {"type": "node", "id": 2555129252, "lat": 40.723261, "lon": -73.9879683}, {"type": "node", "id": 2555129253, "lat": 40.7232622, "lon": -73.9880085}, {"type": "node", "id": 2555129255, "lat": 40.7232742, "lon": -73.9879998}, {"type": "node", "id": 2555129256, "lat": 40.7232792, "lon": -73.9878378}, {"type": "node", "id": 2555129281, "lat": 40.7234212, "lon": -73.9877191}, {"type": "node", "id": 2567547059, "lat": 40.7213285, "lon": -73.9883827, "tags": {"addr:housenumber": "95", "addr:postcode": "10002", "addr:street": "Stanton Street", "amenity": "bar", "name": "Arlene's Grocery", "name:en": "Arlene's Grocery", "opening_hours": "Mo-Fr 16:00-04:00; Sa, Su 14:00-04:00", "phone": "+1-212-358-1633", "website": "https://arlenesgrocery.net/", "wheelchair": "yes", "wikidata": "Q4792130"}}, {"type": "node", "id": 2567547328, "lat": 40.7209053, "lon": -73.9861978}, {"type": "node", "id": 2567547370, "lat": 40.7210629, "lon": -73.9867215}, {"type": "node", "id": 2567547461, "lat": 40.7214405, "lon": -73.9859173}, {"type": "node", "id": 2567547531, "lat": 40.7215983, "lon": -73.986441}, {"type": "node", "id": 3064399843, "lat": 40.7237147, "lon": -73.9883625, "tags": {"addr:city": "New York", "addr:housenumber": "25", "addr:postcode": "10009", "addr:state": "NY", "addr:street": "1st Avenue", "amenity": "restaurant", "check_date": "2024-11-06", "cuisine": "indian", "diet:vegan": "yes", "diet:vegetarian": "yes", "level": "0", "name": "Divya\u2019s Kitchen", "opening_hours": "Mo-Fr 12:00-22:00; Sa-Su 11:30-22:00", "phone": "+1-212-477-4834", "website": "https://divyas.com", "wheelchair": "yes"}}, {"type": "node", "id": 3120728232, "lat": 40.7197291, "lon": -73.9928863}, {"type": "node", "id": 3120728233, "lat": 40.7201562, "lon": -73.9926643}, {"type": "node", "id": 3120728234, "lat": 40.7180709, "lon": -73.9931071}, {"type": "node", "id": 3120728235, "lat": 40.7178461, "lon": -73.9932455}, {"type": "node", "id": 3120728236, "lat": 40.718233, "lon": -73.9936557}, {"type": "node", "id": 3120728237, "lat": 40.7180068, "lon": -73.9937652}, {"type": "node", "id": 3120728258, "lat": 40.7158437, "lon": -73.9943397}, {"type": "node", "id": 3120728259, "lat": 40.7158234, "lon": -73.994447}, {"type": "node", "id": 3120728282, "lat": 40.7200343, "lon": -73.992253}, {"type": "node", "id": 3120728291, "lat": 40.7201189, "lon": -73.9925357}, {"type": "node", "id": 3120728297, "lat": 40.7196898, "lon": -73.9927534}, {"type": "node", "id": 3120728298, "lat": 40.7196118, "lon": -73.9924892}, {"type": "node", "id": 3314278204, "lat": 40.7231556, "lon": -73.9887505}, {"type": "node", "id": 3314278205, "lat": 40.7232775, "lon": -73.9886634}, {"type": "node", "id": 3314278206, "lat": 40.7236789, "lon": -73.9896168}, {"type": "node", "id": 3314278207, "lat": 40.7234902, "lon": -73.9898617}, {"type": "node", "id": 3583839637, "lat": 40.7209937, "lon": -73.9910102, "tags": {"addr:city": "New York", "addr:housenumber": "42", "addr:postcode": "10002", "addr:state": "NY", "addr:street": "Rivington Street", "amenity": "restaurant", "bar": "wine_bar", "cuisine": "french", "drink:beer": "draught", "drink:wine": "yes", "email": "info@jadisnyc.com", "happy_hours": "Mo-Sa 17:00-19:00", "name": "Jadis Wine Bar", "opening_hours": "Mo 17:00-00:00; Tu-Th 17:00-01:00; Fr, Sa 17:00-02:00", "outdoor_seating": "sidewalk", "phone": "+1-212-254-1675", "reservation": "yes", "website": "https://jadisnyc.com"}}, {"type": "node", "id": 3608052274, "lat": 40.7235847, "lon": -73.9884552, "tags": {"addr:city": "New York", "addr:housenumber": "19", "addr:postcode": "10003", "addr:state": "NY", "addr:street": "1st Avenue", "amenity": "restaurant", "cuisine": "italian;pizza", "delivery": "yes", "diet:vegan": "yes", "diet:vegetarian": "yes", "email": "reservations@frankcares.com", "name": "Lil' Frankies", "opening_hours": "Mo-Th 11:00-02:00; Fr-Sa 11:00-04:00; Su 11:00-02:00", "payment:cash": "only", "phone": "+1-212-420-4900", "takeaway": "yes", "website": "https://www.lilfrankies.com/"}}, {"type": "node", "id": 3819787827, "lat": 40.7243345, "lon": -73.9880064, "tags": {"addr:housenumber": "41", "addr:street": "1st Avenue", "amenity": "bar", "check_date": "2024-07-17", "contact:email": "dbafirstavenue@gmail.com", "drink:beer": "yes", "drink:wine": "yes", "happy_hours": "Mo-Fr 12:00-21:00", "name": "d.b.a.", "opening_hours:signed": "no", "outdoor_seating": "yes", "phone": "+1 212-475-5097", "website": "https://www.facebook.com/dbaeastvillage"}}, {"type": "node", "id": 3888194452, "lat": 40.7244268, "lon": -73.9915125, "tags": {"addr:housenumber": "13", "addr:postcode": "10003", "addr:street": "East 1st Street", "amenity": "restaurant", "cuisine": "indian", "name": "Baar Baar", "opening_hours": "Mo-Su 16:30-22:00", "outdoor_seating": "yes", "phone": "+1-212-228-1200", "takeaway": "yes", "website": "https://baarbaarnyc.com"}}, {"type": "node", "id": 4035932299, "lat": 40.7159962, "lon": -73.9947365}, {"type": "node", "id": 4113171309, "lat": 40.7254779, "lon": -73.9870799, "tags": {"addr:housenumber": "71", "addr:postcode": "10003", "addr:street": "1st Avenue", "amenity": "restaurant", "cuisine": "thai", "drink:beer": "yes", "drink:wine": "yes", "name": "The Sabieng Thai", "phone": "+1-212-253-2742", "website": "https://www.sabiengthai.com"}}, {"type": "node", "id": 4160710889, "lat": 40.7233979, "lon": -73.9880093, "tags": {"amenity": "bar", "name": "Lydia's"}}, {"type": "node", "id": 4210170310, "lat": 40.721278, "lon": -73.9890275, "tags": {"addr:city": "New York", "addr:housenumber": "170", "addr:postcode": "10002", "addr:state": "NY", "addr:street": "Allen Street", "amenity": "restaurant", "branch": "Manhattan", "contact:twitter": "https://twitter.com/MrTakaRamen", "cuisine": "ramen;japanese", "diet:vegan": "yes", "drink:beer": "yes", "drink:sake": "yes", "name": "Mr. Taka Ramen", "opening_hours": "Mo-Su 12:00-23:00", "phone": "+1-212-254-1508", "takeaway": "yes", "website": "http://www.mrtakaramen.net"}}, {"type": "node", "id": 4317608790, "lat": 40.7224046, "lon": -73.9885699, "tags": {"amenity": "restaurant", "cuisine": "italian", "happy_hours": "Mo-Su 16:00-18:00", "name": "Fossetta", "opening_hours": "Mo-Th 10:00-15:35,16:00-21:30, Fr-Sa 10:00-15:35,16:00-22:30, Su 10:00-15:35,16:00-21:30", "opening_hours:kitchen": "Mo-Th 10:00-15:35,17:00-21:30, Fr-Sa 10:00-15:35,17:00-22:30, Su 10:00-15:35,17:00-21:30", "phone": "+1-646-430-1249", "website": "https://fossetta-nyc.com"}}, {"type": "node", "id": 4350412730, "lat": 40.7228717, "lon": -73.9891827, "tags": {"addr:housenumber": "157", "addr:street": "East Houston St", "amenity": "restaurant", "description": "Taperia Latina", "name": "Macondo", "phone": "+12124739900", "website": "www.macondonyc.com"}}, {"type": "node", "id": 4475036592, "lat": 40.7218111, "lon": -73.9882321, "tags": {"addr:postcode": "10002", "amenity": "bar", "indoor_seating": "yes", "name": "Mr Purple", "opening_hours": "We 11:00-03:00; Th-Sa 11:00-04:00; Su-Tu 11:00-02:00", "outdoor_seating": "yes", "phone": "+1-212-237-1790", "website": "https://www.mrpurplenyc.com/"}}, {"type": "node", "id": 4502539299, "lat": 40.725969, "lon": -73.9880765}, {"type": "node", "id": 4502539300, "lat": 40.7260602, "lon": -73.988183}, {"type": "node", "id": 4502539301, "lat": 40.7261982, "lon": -73.9879092}, {"type": "node", "id": 4502539302, "lat": 40.726176, "lon": -73.9884639}, {"type": "node", "id": 4502539351, "lat": 40.7257939, "lon": -73.9876557}, {"type": "node", "id": 4504872489, "lat": 40.722836, "lon": -73.9889877, "tags": {"addr:city": "New York", "addr:housenumber": "205", "addr:street": "Allen Street", "amenity": "restaurant", "check_date": "2024-11-06", "contact:instagram": "kisarestaurant", "cuisine": "korean", "name": "Kisa", "name:ko": "\uae30\uc0ac\uc2dd\ub2f9", "opening_hours": "Tu-Su 11:00-14:30, 17:00-22:30; Mo 05:00-22:30", "website": "https://kisaus.com"}}, {"type": "node", "id": 4513631498, "lat": 40.7227486, "lon": -73.9890819, "tags": {"addr:housenumber": "205", "addr:postcode": "10014", "addr:street": "Allen Street", "amenity": "cafe", "branch": "Lower East Side", "name": "ViVi Bubble Tea", "opening_hours": "Mo-Su 11:00-23:00", "payment:credit_cards": "no", "phone": "+1 646-651-7779", "website": "https://www.vivibubbletea.com/location_content.php?l=14"}}, {"type": "node", "id": 4561457047, "lat": 40.721434, "lon": -73.9858967}, {"type": "node", "id": 4561457049, "lat": 40.7216069, "lon": -73.9864684}, {"type": "node", "id": 4561457050, "lat": 40.7218536, "lon": -73.9856758}, {"type": "node", "id": 4561457052, "lat": 40.7220265, "lon": -73.9862475}, {"type": "node", "id": 4745476137, "lat": 40.7213361, "lon": -73.9928125, "tags": {"addr:housenumber": "7", "addr:street": "Rivington Street", "amenity": "restaurant", "bar": "yes", "cuisine": "german", "name": "Loreley Beer Garden", "opening_hours": "Mo-Tu 17:00-24:00, We 17:00-01:00, Th 17:00-02:00, Fr-Sa 12:00-04:00, Su 12:00-24:00", "outdoor_seating": "yes", "phone": "+1-212-253-7077", "website": "https://www.loreleynyc.com/"}}, {"type": "node", "id": 4745482625, "lat": 40.7234427, "lon": -73.992596, "tags": {"amenity": "restaurant", "bar": "yes", "cuisine": "chinese", "diet:vegan": "yes", "name": "Spicy Moon", "opening_hours": "Mo-Su 11:30-22:00", "phone": "+1-646-398-8856", "website": "https://www.spicymoonnyc.com"}}, {"type": "node", "id": 4773391724, "lat": 40.7212197, "lon": -73.9880769, "tags": {"amenity": "restaurant", "name": "Stanton Social", "name:en": "Stanton Social", "wheelchair": "yes"}}, {"type": "node", "id": 4848258122, "lat": 40.7247851, "lon": -73.9914333, "tags": {"amenity": "restaurant", "name": "Momofuku Ko", "name:en": "Momofuku Ko", "opening_hours": "Tu-Sa 16:00-20:30", "wheelchair": "yes"}}, {"type": "node", "id": 4848258522, "lat": 40.7249654, "lon": -73.9925829, "tags": {"addr:housenumber": "310", "addr:postcode": "10012", "addr:street": "Bowery", "amenity": "bar", "check_date": "2024-11-05", "cocktails": "yes", "cuisine": "pizza", "drink:beer": "draught", "drink:liquor": "yes", "drink:wine": "yes", "name": "310 Bowery Bar", "opening_hours": "Tu-Th 17:00-02:00; Fr 17:00-04:00; Sa 12:00-04:00; Su 12:00-24:00", "opening_hours:signed": "no", "phone": "+1-917-409-3036", "website": "https://www.310bowery.nyc"}}, {"type": "node", "id": 4851671822, "lat": 40.723084, "lon": -73.9897897, "tags": {"addr:housenumber": "145", "addr:postcode": "10002", "addr:street": "East Houston Street", "amenity": "bar", "brewery": "finback;allagash;evil_twin;founders;guinness;harpoon;lagunitas;westbrook", "check_date": "2024-11-22", "happy_hours": "Mo-Fr 11:00-18:00", "indoor_seating": "yes", "internet_access": "wlan", "internet_access:ssid": "Fools Gold Guest", "lunch": "Mo-Su 11:00-16:00", "name": "Fools Gold", "opening_hours": "Mo-Su 11:00-04:00", "outdoor_seating": "yes", "payment:credit_cards": "yes", "payment:debit_cards": "yes", "phone": "+1-212-673-2337", "toilets": "yes", "toilets:access": "permissive", "toilets:unisex": "yes", "toilets:wheelchair": "yes", "website": "https://www.foolsgoldnyc.com/", "wheelchair": "yes"}}, {"type": "node", "id": 4947115422, "lat": 40.7223438, "lon": -73.9900895, "tags": {"amenity": "restaurant", "name": "Spaghetti Incident", "name:en": "Spaghetti Incident", "website": "https://www.spaghettiincidentnyc.com/"}}, {"type": "node", "id": 5123314121, "lat": 40.7257657, "lon": -73.9926595, "tags": {"addr:housenumber": "53", "addr:street": "Bond Street", "amenity": "restaurant", "name": "Mile End Deli"}}, {"type": "node", "id": 5359963421, "lat": 40.7225047, "lon": -73.9890976, "tags": {"addr:housenumber": "201", "addr:street": "Allen Street", "amenity": "restaurant", "name": "Yokoya"}}, {"type": "node", "id": 5401946285, "lat": 40.7250635, "lon": -73.9873946, "tags": {"amenity": "restaurant", "cuisine": "mexican", "name": "Al Horno", "opening_hours": "Mo-Fr 09:15-21:30; Sa-Su 10:15-21:30", "opening_hours:signed": "no", "website": "https://www.alhornoleanmexicankitchen.com/"}}, {"type": "node", "id": 5446733056, "lat": 40.7259518, "lon": -73.9891412, "tags": {"addr:city": "New York", "addr:housenumber": "86", "addr:postcode": "10003", "addr:state": "NY", "addr:street": "East 4th Street", "amenity": "bar", "name": "The Boiler Room", "opening_hours": "Mo-Su 16:00-04:00", "sport": "billiards", "toilets": "yes", "website": "https://www.theboilerroomnyc.com/", "wheelchair": "yes"}}, {"type": "node", "id": 5446855821, "lat": 40.7254343, "lon": -73.9902504, "tags": {"addr:city": "New York", "addr:housenumber": "47", "addr:postcode": "10003", "addr:state": "NY", "addr:street": "2nd Avenue", "amenity": "bar", "drink:wine": "yes", "name": "Sauced", "opening_hours": "Mo-Th 17:00-24:00; Fr 16:00-26:00; Sa 15:00-26:00; Su 15:00-24:00", "phone": "+13476956286", "website": "https://www.saucedbklyn.com"}}, {"type": "node", "id": 5455462001, "lat": 40.7231918, "lon": -73.9880142, "tags": {"addr:city": "New York", "addr:housenumber": "78", "addr:postcode": "10009", "addr:state": "NY", "addr:street": "East 1st Street", "amenity": "restaurant", "cuisine": "tibetan", "diet:vegan": "yes", "name": "Cafe Himalaya", "opening_hours:signed": "no", "phone": "+1 212-358-0160", "website": "https://cafehimalaya.weebly.com/"}}, {"type": "node", "id": 5463758239, "lat": 40.7217163, "lon": -73.9931901, "tags": {"addr:housenumber": "217", "addr:street": "Bowery", "amenity": "bar", "name": "Katra Lounge", "opening_hours": "Th-Sa 17:00-04:00; Su 12:00-04:00; Tu 17:00-02:00; We 17:00-00:00", "phone": "+1-212-620-3033", "reservation": "recommended", "website": "https://www.katranyc.com/"}}, {"type": "node", "id": 5547626023, "lat": 40.7245658, "lon": -73.9918599, "tags": {"addr:housenumber": "9", "addr:postcode": "10003", "addr:street": "East 1st Street", "amenity": "restaurant", "cuisine": "steak_house", "name": "Bowery Meat Company", "opening_hours": "Tu-Sa 16:00-22:00", "outdoor_seating": "yes", "website": "https://www.bowerymeatcompany.com"}}, {"type": "node", "id": 5585374466, "lat": 40.7216695, "lon": -73.9873956, "tags": {"addr:city": "New York", "addr:housenumber": "176", "addr:postcode": "10002", "addr:state": "NY", "addr:street": "Ludlow Street", "amenity": "cafe", "cuisine": "coffee_shop", "drink:beer": "yes", "drink:coffee": "yes", "internet_access": "wlan", "internet_access:fee": "no", "internet_access:ssid": "LUDLOW COFFEE SUPPLY", "name": "Ludlow Coffee Supply", "opening_hours": "Mo-Su 07:00-23:00", "opening_hours:signed": "no", "payment:cash": "yes", "payment:credit_cards": "yes", "phone": "+1-917-472-7632", "takeaway": "yes", "toilets": "yes", "toilets:access": "permissive", "toilets:unisex": "yes", "toilets:wheelchair": "yes", "website": "https://www.ludlowcoffeesupply.com/", "wheelchair": "yes"}}, {"type": "node", "id": 5615998343, "lat": 40.7249227, "lon": -73.9906582, "tags": {"addr:housenumber": "29", "addr:street": "East 2nd Street", "amenity": "restaurant", "check_date": "2024-07-17", "contact:email": "info@rosiesnyc.com", "contact:facebook": "rosiesnyc", "contact:instagram": "rosiesnyc", "contact:phone": "+1-212-335-0114", "contact:website": "https://rosiesnyc.com", "cuisine": "mexican", "delivery": "yes", "name": "Rosie's", "opening_hours": "Tu-Th 17:00-23:00; Fr 16:00-23:00; Sa 11:00-23:00; Su 11:00-22:00", "outdoor_seating": "street", "reservation": "yes", "takeaway": "yes"}}, {"type": "node", "id": 5632288423, "lat": 40.723034, "lon": -73.9920355, "tags": {"amenity": "bar", "name": "Roof Top at Public"}}, {"type": "node", "id": 5726883078, "lat": 40.7219414, "lon": -73.987541, "tags": {"addr:city": "New York", "addr:housenumber": "177", "addr:street": "Ludlow Street", "amenity": "restaurant", "check_date": "2024-12-01", "cuisine": "japanese", "name": "BBF"}}, {"type": "node", "id": 5726883079, "lat": 40.7218756, "lon": -73.9875758, "tags": {"amenity": "restaurant", "bar": "yes", "cocktails": "yes", "cuisine": "italian", "drink:beer": "bottled", "drink:coffee": "yes", "drink:espresso": "yes", "drink:liquor": "yes", "drink:wine": "yes", "name": "Taverna Di Bacco", "outdoor_seating": "garden", "phone": "+1 212 477 0077"}}, {"type": "node", "id": 5726897054, "lat": 40.7220477, "lon": -73.9880873, "tags": {"amenity": "restaurant", "bar": "yes", "cuisine": "french", "drink:wine": "yes", "name": "Le French Diner", "phone": "+1 212 777 1577", "website": "http://lefrenchdiner.com"}}, {"type": "node", "id": 5947869885, "lat": 40.7219208, "lon": -73.9887501, "tags": {"addr:postcode": "10002", "addr:street": "Allen Street", "alt_name": "Subtext", "amenity": "cafe", "disused:amenity": "fast_food", "name": "Dialogue", "opening_hours": "Mo-Fr 06:00-17:00, Sa-Su 07:00-17:00", "website": "https://www.dialogue.nyc"}}, {"type": "node", "id": 5978837401, "lat": 40.7225302, "lon": -73.9892293, "tags": {"addr:housenumber": "201", "addr:street": "Allen Street", "amenity": "restaurant", "name": "NYC Falafel Co"}}, {"type": "node", "id": 6222189346, "lat": 40.7254448, "lon": -73.9926303, "tags": {"addr:housenumber": "3", "addr:postcode": "10012", "addr:street": "Bleecker Street", "amenity": "bar", "check_date": "2024-11-05", "cocktails": "yes", "description": "bar with basement dance floor and event space", "drink:beer": "draught", "drink:liquor": "yes", "drink:wine": "served", "name": "Von", "opening_hours": "Mo-Tu 16:00-02:00+; We-Sa 16:00-04:00; Su 16:00-02:00+", "phone": "+1-212-473-3039", "toilets": "yes", "toilets:unisex": "yes", "website": "https://vonbar.com"}}, {"type": "node", "id": 6222190782, "lat": 40.7254629, "lon": -73.9927069, "tags": {"addr:housenumber": "5", "addr:street": "Bleecker Street", "amenity": "restaurant", "check_date": "2024-11-05", "cuisine": "korean", "name": "C as in Charlie", "opening_hours:signed": "no", "wheelchair": "yes"}}, {"type": "node", "id": 6234635908, "lat": 40.7223303, "lon": -73.9927703, "tags": {"addr:city": "New York", "addr:housenumber": "235", "addr:postcode": "10002", "addr:state": "NY", "addr:street": "Bowery", "description": "A non-profit organization and museum for Internet art, housed in the New Museum.", "email": "info@rhizome.org", "name": "Rhizome", "office": "association", "operator": "Zachary Kaplan", "phone": "+1-646-552-2313", "website": "https://rhizome.org", "wikipedia": "en:Rhizome (organization)"}}, {"type": "node", "id": 6236943852, "lat": 40.7208818, "lon": -73.9898439, "tags": {"addr:city": "New York", "addr:housenumber": "151", "addr:postcode": "10002", "addr:state": "NY", "addr:street": "Allen Street", "amenity": "cafe", "cuisine": "coffee_shop", "name": "Kabisera", "opening_hours": "Mo-Fr 07:30-20:00; Sa-Su 08:30-20:00", "phone": "+1-929-920-8250", "website": "https://www.kabisera.com/"}}, {"type": "node", "id": 6236943854, "lat": 40.7210247, "lon": -73.9897308, "tags": {"addr:city": "New York", "addr:housenumber": "157", "addr:postcode": "10002", "addr:state": "NY", "addr:street": "Allen Street", "amenity": "bar", "description": "Serves hundreds of whiskeys and other liquors in a lean space with stand-up and sit-down bars.", "name": "Copper & Oak", "opening_hours": "Mo-Sa 17:00-01:00; Su 14:00-22:00", "phone": "+1-212-460-5546", "website": "https://copperandoak.com", "wheelchair": "yes"}}, {"type": "node", "id": 6236943855, "lat": 40.7211839, "lon": -73.9896938, "tags": {"addr:city": "New York", "addr:housenumber": "163", "addr:postcode": "10002", "addr:state": "NY", "addr:street": "Allen Street", "amenity": "restaurant", "cocktails": "yes", "cuisine": "korean", "description": "Contemporary Korean bar and restaurant serving cocktails and party-friendly fare in a sleek space.", "drink:coffee": "served", "drink:wine": "served", "name": "Ms. Yoo", "opening_hours": "Mo-Sa 17:00-02:00", "phone": "+1-917-261-2490", "reservation": "yes", "toilets:wheelchair": "yes", "website": "https://ms-yoo.com", "wheelchair": "yes"}}, {"type": "node", "id": 6330061749, "lat": 40.7179257, "lon": -73.9935069}, {"type": "node", "id": 6330518817, "lat": 40.7159505, "lon": -73.9947159}, {"type": "node", "id": 6356964285, "lat": 40.7209969, "lon": -73.9886406, "tags": {"amenity": "restaurant", "name": "DIU Tea"}}, {"type": "node", "id": 6371534686, "lat": 40.7257417, "lon": -73.991767, "tags": {"addr:housenumber": "327", "addr:street": "Bowery", "amenity": "bar", "check_date": "2024-11-11", "name": "The Bowery Electric", "opening_hours:signed": "no", "website": "https://www.theboweryelectric.com/"}}, {"type": "node", "id": 6407882846, "lat": 40.7260386, "lon": -73.9897726, "tags": {"addr:housenumber": "65", "addr:street": "2nd Avenue", "amenity": "restaurant", "bar": "yes", "cocktails": "yes", "contact:instagram": "https://www.instagram.com/barverdenyc/", "cuisine": "mexican", "diet:vegan": "only", "drink:beer": "draught", "drink:coffee": "yes", "drink:liquor": "yes", "drink:wine": "yes", "name": "Bar Verde", "opening_hours": "Mo-Su 12:00-23:00", "operator": "Matthew Kenney", "outdoor_seating": "yes", "phone": "+1-212-777-6965", "takeaway": "yes", "website": "https://barverdenyc.com/"}}, {"type": "node", "id": 6446504050, "lat": 40.7239312, "lon": -73.9908185}, {"type": "node", "id": 6446504054, "lat": 40.7237746, "lon": -73.9908117}, {"type": "node", "id": 6446504056, "lat": 40.7238846, "lon": -73.9908177}, {"type": "node", "id": 6499655685, "lat": 40.7215656, "lon": -73.9885854, "tags": {"amenity": "restaurant", "contact:facebook": "zazzyspizza", "contact:phone": "+1 212 542 0177", "cuisine": "pizza", "indoor_seating": "yes", "name": "Zazzy's Pizza", "outdoor_seating": "yes", "website": "https://zazzys.com/"}}, {"type": "node", "id": 6622185985, "lat": 40.7258235, "lon": -73.9929943, "tags": {"amenity": "restaurant", "name": "il Buco"}}, {"type": "node", "id": 6781557916, "lat": 40.7235788, "lon": -73.9901532, "tags": {"barrier": "gate"}}, {"type": "node", "id": 6902874803, "lat": 40.7220111, "lon": -73.9924309, "tags": {"addr:postcode": "10002", "addr:street": "Freeman Alley", "amenity": "bar", "cocktails": "yes", "cuisine": "eclectic;seafood", "description": "small upstaris cocktail bar accessed through Freemans restaurant", "drink:beer": "yes", "drink:liquor": "yes", "drink:wine": "yes", "level": "1", "name": "Banzarbar", "opening_hours": "Mo-Th 18:00-24:00; Fr-Sa 18:00-02:00; Su 18:00-24:00", "opening_hours:kitchen": "Mo-Su 18:00-23:00", "operator": "Freeman's", "phone": "+1-212-420-0012", "website": "https://www.banzarbar.com"}}, {"type": "node", "id": 6910698799, "lat": 40.7214223, "lon": -73.9877903, "tags": {"addr:housenumber": "161", "addr:street": "Ludlow Street", "amenity": "restaurant", "check_date:opening_hours": "2025-04-10", "name": "Revival", "opening_hours:signed": "no"}}, {"type": "node", "id": 6910698803, "lat": 40.7213951, "lon": -73.9880234, "tags": {"amenity": "cafe", "cuisine": "pastry;sandwich", "drink:coffee": "yes", "drink:espresso": "yes", "drink:tea": "yes", "name": "Bonsai Kakigori", "opening_hours": "Mo-Th 11:00-22:00; Fr-Sa 11:00-21:00; Su 11:00-22:00", "website": "https://www.bonsaikakigori.com/100-stanton-st"}}, {"type": "node", "id": 7087039285, "lat": 40.7217167, "lon": -73.9884995, "tags": {"addr:housenumber": "175", "addr:street": "Orchard Street", "air_conditioning": "yes", "amenity": "restaurant", "check_date": "2023-06-29", "contact:instagram": "https://www.instagram.com/unapizzanapoletana", "cuisine": "pizza", "delivery": "no", "email": "INFO@UNAPIZZA.COM", "name": "Una Pizza Napoletana", "opening_hours": "Mo-We,Su off; Th-Sa 17:00-21:15", "payment:credit_cards": "yes", "payment:debit_cards": "yes", "phone": "+1 646-476-4457", "reservation": "recommended", "takeaway": "no", "toilets": "yes", "website": "https://unapizza.com/"}}, {"type": "node", "id": 7097867541, "lat": 40.7213153, "lon": -73.9884871, "tags": {"amenity": "pub", "contact:instagram": "hairofthedognyc", "name": "Hair of the dog", "website": "https://www.hairofthedognyc.com/"}}, {"type": "node", "id": 7097867545, "lat": 40.7215883, "lon": -73.9883313, "tags": {"amenity": "bar", "name": "The Skinny Bar"}}, {"type": "node", "id": 7097867546, "lat": 40.7225587, "lon": -73.988108, "tags": {"addr:housenumber": "183", "addr:street": "East Houston Street", "amenity": "restaurant", "cuisine": "turkish", "name": "Ankara #3", "opening_hours": "Mo-Th, Su 11:00-00:00; Fr, Sa 11:00-03:00", "phone": "+1 212-473-1212"}}, {"type": "node", "id": 7125925887, "lat": 40.7217365, "lon": -73.987391, "tags": {"addr:housenumber": "178", "addr:postcode": "10002", "addr:street": "Ludlow Street", "amenity": "restaurant", "cocktails": "yes", "cuisine": "american;soul_food", "drink:beer": "draught", "drink:liquor": "yes", "drink:wine": "yes", "name": "Sweet Chick", "opening_hours": "Mo-Fr 11:00-02:00; Sa-Su 10:00-02:00", "phone": "+1-646-657-0233", "website": "https://www.sweetchick.com/location/lower-east-side-sweet-chick/"}}, {"type": "node", "id": 7132071087, "lat": 40.7178223, "lon": -73.9932409}, {"type": "node", "id": 7132071088, "lat": 40.7167195, "lon": -73.9938653}, {"type": "node", "id": 7132071090, "lat": 40.7222885, "lon": -73.9914868}, {"type": "node", "id": 7132071091, "lat": 40.7196743, "lon": -73.9927008}, {"type": "node", "id": 7132071092, "lat": 40.721149, "lon": -73.9916046}, {"type": "node", "id": 7132071093, "lat": 40.7224562, "lon": -73.9914521}, {"type": "node", "id": 7132071094, "lat": 40.720127, "lon": -73.9925635}, {"type": "node", "id": 7132071095, "lat": 40.7204638, "lon": -73.9923902}, {"type": "node", "id": 7132071096, "lat": 40.7224474, "lon": -73.9914227}, {"type": "node", "id": 7132071098, "lat": 40.7204136, "lon": -73.9924963}, {"type": "node", "id": 7132071100, "lat": 40.7200289, "lon": -73.9922346}, {"type": "node", "id": 7132071102, "lat": 40.7160875, "lon": -73.9941317}, {"type": "node", "id": 7132071105, "lat": 40.7159345, "lon": -73.9942083}, {"type": "node", "id": 7132071106, "lat": 40.7221659, "lon": -73.9910953}, {"type": "node", "id": 7132071107, "lat": 40.7161017, "lon": -73.9941796}, {"type": "node", "id": 7132071109, "lat": 40.7232809, "lon": -73.9904856}, {"type": "node", "id": 7132071111, "lat": 40.7212755, "lon": -73.9920272}, {"type": "node", "id": 7132071112, "lat": 40.7210463, "lon": -73.9916569}, {"type": "node", "id": 7132071113, "lat": 40.7234219, "lon": -73.9909548}, {"type": "node", "id": 7132071114, "lat": 40.7224674, "lon": -73.9914892}, {"type": "node", "id": 7132071115, "lat": 40.7196261, "lon": -73.9925377}, {"type": "node", "id": 7132071119, "lat": 40.7202473, "lon": -73.9919939}, {"type": "node", "id": 7132071120, "lat": 40.7202702, "lon": -73.9920678}, {"type": "node", "id": 7132071122, "lat": 40.7202597, "lon": -73.9920339}, {"type": "node", "id": 7132071123, "lat": 40.7223491, "lon": -73.9909209}, {"type": "node", "id": 7132071125, "lat": 40.7211745, "lon": -73.9920805}, {"type": "node", "id": 7132071126, "lat": 40.7162251, "lon": -73.9941207}, {"type": "node", "id": 7132071128, "lat": 40.7158855, "lon": -73.9942585}, {"type": "node", "id": 7132071129, "lat": 40.7167337, "lon": -73.9938243}, {"type": "node", "id": 7132071130, "lat": 40.7223697, "lon": -73.9909916}, {"type": "node", "id": 7132071131, "lat": 40.720048, "lon": -73.9922989}, {"type": "node", "id": 7132071133, "lat": 40.7204225, "lon": -73.9925276}, {"type": "node", "id": 7132071135, "lat": 40.7203934, "lon": -73.9924258}, {"type": "node", "id": 7132071137, "lat": 40.7168699, "lon": -73.9937267}, {"type": "node", "id": 7132071139, "lat": 40.7201085, "lon": -73.9925009}, {"type": "node", "id": 7132071141, "lat": 40.7159161, "lon": -73.9942223}, {"type": "node", "id": 7132071144, "lat": 40.7223602, "lon": -73.990959}, {"type": "node", "id": 7132071145, "lat": 40.7204805, "lon": -73.9924443}, {"type": "node", "id": 7237689588, "lat": 40.7259556, "lon": -73.9867236, "tags": {"addr:city": "New York", "addr:housenumber": "83", "addr:postcode": "10009", "addr:state": "NY", "addr:street": "1st Avenue", "amenity": "restaurant", "check_date": "2025-07-09", "cocktails": "yes", "cuisine": "pizza;burger", "drink:beer": "yes", "drink:wine": "yes", "internet_access": "no", "name": "Emmy Squared", "opening_hours": "Mo-We 15:00-23:00, Th-Fr 11:00-23:00, Sa 10:00-23:00, Su 10:00-22:00", "phone": "+1-917-463-3737", "website": "https://www.emmysquaredpizza.com/location/east-village-new-york/"}}, {"type": "node", "id": 7243408476, "lat": 40.7256687, "lon": -73.991784, "tags": {"addr:city": "New York", "addr:housenumber": "325", "addr:postcode": "10003", "addr:state": "NY", "addr:street": "Bowery", "amenity": "restaurant", "check_date": "2024-11-11", "cuisine": "italian;pasta", "name": "Bar Primi", "opening_hours": "Mo-Tu 12:00-22:00; We-Fr 12:00-23:00; Sa 11:00-15:00,17:00-23:00; Su 11:00-15:00,17:00-22:00", "outdoor_seating": "sidewalk", "website": "https://www.barprimi.com/"}}, {"type": "node", "id": 8530354116, "lat": 40.7252756, "lon": -73.9875315, "tags": {"addr:housenumber": "128", "addr:street": "East 4th Street", "amenity": "restaurant", "check_date": "2024-11-08", "cuisine": "vietnamese", "name": "N\u00f3n L\u00e1", "opening_hours": "Mo-Su 12:00-21:00", "opening_hours:signed": "no"}}, {"type": "node", "id": 8587042213, "lat": 40.726, "lon": -73.9921869, "tags": {"amenity": "restaurant", "bar": "yes", "cocktails": "yes", "cuisine": "mexican;spanish", "drink:liquor": "yes", "drink:wine": "yes", "name": "Casa Bond", "phone": "+1-917-639-3009", "website": "https://www.casabondnoho.com"}}, {"type": "node", "id": 9054635034, "lat": 40.7251224, "lon": -73.9905271, "tags": {"addr:housenumber": "34", "addr:postcode": "10003", "addr:street": "East 2nd Street", "amenity": "restaurant", "bar": "yes", "cocktails": "yes", "cuisine": "russian", "drink:beer": "yes", "drink:liquor": "yes", "drink:wine": "yes", "facebook": "AnywayCafeNYC", "live_music": "yes", "name": "Anyway Cafe", "opening_hours": "Mo-Su 15:00-02:00", "outdoor_seating": "sidewalk;street", "phone": "+1-212-533-3412", "website": "https://www.anywaycafe.com/east-village/"}}, {"type": "node", "id": 9064064217, "lat": 40.7234822, "lon": -73.9886664, "tags": {"addr:city": "New York", "addr:housenumber": "72", "addr:street": "East 1st Street", "amenity": "cafe", "check_date": "2024-11-06", "fixme": "add opening_hours", "name": "The Lazy Llama Coffee Bar", "outdoor_seating": "yes"}}, {"type": "node", "id": 9505710292, "lat": 40.7246444, "lon": -73.9932411, "tags": {"amenity": "bar", "name": "Tom & Jerry"}}, {"type": "node", "id": 9578260090, "lat": 40.7259911, "lon": -73.9898144, "tags": {"amenity": "pub", "cocktails": "yes", "cuisine": "pub;brunch", "drink:beer": "draught", "drink:liquor": "yes", "drink:wine": "yes", "happy_hours": "Mo-Fr 15:00-20:00", "name": "The Gray Mare"}}, {"type": "node", "id": 9578260093, "lat": 40.7246493, "lon": -73.9907779, "tags": {"amenity": "bar", "cocktails": "yes", "cuisine": "seafood;charcuterie;snack", "drink:liquor": "yes", "drink:wine": "yes", "name": "Sweet Linda", "opening_hours": "Tu-We 17:30-24:00, Th 17:30-01:00, Fr-Sa 17:30-01:30, Su 17:30-22:30", "phone": "+1-929-494-1794", "website": "https://sweetlindanyc.com"}}, {"type": "node", "id": 9630440537, "lat": 40.7210014, "lon": -73.9911028, "tags": {"amenity": "cafe", "drink:coffee": "no", "drink:tea": "yes", "name": "The Hideout Chai Bar"}}, {"type": "node", "id": 9630440538, "lat": 40.7210181, "lon": -73.9911646, "tags": {"description": "food delivery hub", "name": "Racer", "office": "logistics"}}, {"type": "node", "id": 9652667219, "lat": 40.7207983, "lon": -73.9866677, "tags": {"amenity": "restaurant", "cuisine": "pizza", "name": "Stanton Street Pizza"}}, {"type": "node", "id": 9659603357, "lat": 40.7247677, "lon": -73.9926478, "tags": {"addr:city": "New York", "addr:housenumber": "304", "addr:street": "Bowery", "amenity": "pub", "cocktails": "yes", "cuisine": "pub", "drink:beer": "draught", "drink:liquor": "yes", "drink:wine": "yes", "name": "Slainte", "opening_hours": "Mo-Tu 12:00-01:00; We 12:00-02:00; Th-Sa 12:00-03:00; Su 12:00-01:00", "outdoor_seating": "sidewalk;street", "phone": "+1-212-253-7030", "website": "https://slaintenbarnyc.com"}}, {"type": "node", "id": 9798846090, "lat": 40.7237093, "lon": -73.9879228, "tags": {"addr:city": "New York", "addr:housenumber": "26", "addr:state": "NY", "addr:street": "1st Avenue", "amenity": "restaurant", "check_date": "2024-07-17", "cuisine": "pizza", "name": "Little Gio's Pizza"}}, {"type": "node", "id": 9844215587, "lat": 40.7226604, "lon": -73.9883801, "tags": {"addr:city": "New York", "addr:housenumber": "177", "addr:postcode": "10002", "addr:state": "NY", "addr:street": "East Houston Street", "amenity": "restaurant", "atm": "yes", "cuisine": "pizza", "name": "$1.50 Pizza", "phone": "+1 917-388-3999"}}, {"type": "node", "id": 9932842241, "lat": 40.7237534, "lon": -73.9905383}, {"type": "node", "id": 9932842242, "lat": 40.7237275, "lon": -73.9904721}, {"type": "node", "id": 9932842267, "lat": 40.7232039, "lon": -73.9889103}, {"type": "node", "id": 9932842268, "lat": 40.7232226, "lon": -73.9888996}, {"type": "node", "id": 9932842269, "lat": 40.7231994, "lon": -73.9888189}, {"type": "node", "id": 9932842270, "lat": 40.7231775, "lon": -73.9888283}, {"type": "node", "id": 9932842288, "lat": 40.723515, "lon": -73.9898512}, {"type": "node", "id": 9932846554, "lat": 40.7229256, "lon": -73.9873815}, {"type": "node", "id": 9932846555, "lat": 40.7230524, "lon": -73.9872908}, {"type": "node", "id": 9932846556, "lat": 40.7230611, "lon": -73.9872655}, {"type": "node", "id": 9932846557, "lat": 40.723168, "lon": -73.9871845}, {"type": "node", "id": 9932846560, "lat": 40.7233911, "lon": -73.987641}, {"type": "node", "id": 9936456392, "lat": 40.7263737, "lon": -73.9883211}, {"type": "node", "id": 9936456393, "lat": 40.7262052, "lon": -73.9884431}, {"type": "node", "id": 9951392572, "lat": 40.7209252, "lon": -73.9862641}, {"type": "node", "id": 9951392573, "lat": 40.7210466, "lon": -73.9866675}, {"type": "node", "id": 9978637389, "lat": 40.7258327, "lon": -73.9902044, "tags": {"addr:housenumber": "29", "addr:postcode": "10003", "addr:street": "East 3rd Street", "amenity": "bar", "check_date": "2024-11-11", "cocktails": "yes", "cuisine": "pizza", "drink:beer": "draught", "drink:liquor": "yes", "drink:wine": "yes", "name": "Whiskey Town", "phone": "+1-212-505-7344"}}, {"type": "node", "id": 10115105161, "lat": 40.7212764, "lon": -73.9934281, "tags": {"amenity": "bar", "name": "Champagne Problems", "opening_hours": "Tu-We 17:00-01:00, Th 17:00-02:00, Fr 17:00-03:00, Sa 11:00-03:00, Su 11:00-01:00", "website": "https://champagneproblemsnyc.com"}}, {"type": "node", "id": 10136611576, "lat": 40.717934, "lon": -73.9935335}, {"type": "node", "id": 10136611577, "lat": 40.717908, "lon": -73.9934493}, {"type": "node", "id": 10224157727, "lat": 40.7244056, "lon": -73.9922194, "tags": {"addr:housenumber": "299", "addr:postcode": "10003", "addr:street": "Bowery", "amenity": "restaurant", "bar": "yes", "cocktails": "yes", "cuisine": "mexican", "drink:liquor": "yes", "name": "Ixta", "opening_hours": "Mo-We 17:00-22:00; Th 17:00-23:00; Fr 17:00-24:00; Sa 11:30-15:00,17:00-24:00; Su 11:30-15:00,17:00-22:00", "outdoor_seating": "sidewalk", "phone": "+1-917-732-4982", "website": "https://ixtanyc.com"}}, {"type": "node", "id": 10270861222, "lat": 40.7211098, "lon": -73.9934939, "tags": {"amenity": "restaurant", "bar": "yes", "cocktails": "yes", "cuisine": "italian;pizza;brunch", "drink:beer": "draught", "drink:liquor": "yes", "drink:wine": "yes", "name": "Ainslie Bowery", "opening_hours": "We-Th 17:00-24:00, Fr 17:00-04:00, Sa 11:00-04:00, Su 12:00-22:00", "phone": "+1-646-360-2194", "website": "https://ainsliebowery.com"}}, {"type": "node", "id": 10585010030, "lat": 40.7260378, "lon": -73.9866634, "tags": {"addr:city": "New York", "addr:housenumber": "85", "addr:street": "1st Avenue", "amenity": "restaurant", "check_date": "2025-07-09", "cuisine": "indian", "name": "Fomo Momo"}}, {"type": "node", "id": 10647547450, "lat": 40.7159608, "lon": -73.9947208}, {"type": "node", "id": 10647547451, "lat": 40.7160313, "lon": -73.994745}, {"type": "node", "id": 10647547452, "lat": 40.716844, "lon": -73.9943599}, {"type": "node", "id": 10647547474, "lat": 40.7159412, "lon": -73.9947093}, {"type": "node", "id": 10647611701, "lat": 40.7168751, "lon": -73.9943435}, {"type": "node", "id": 10647611702, "lat": 40.7170314, "lon": -73.9942609}, {"type": "node", "id": 10647611703, "lat": 40.7169309, "lon": -73.994314}, {"type": "node", "id": 10689604902, "lat": 40.7249699, "lon": -73.9931218, "tags": {"alt_name": "Raga Partners", "name": "David B. Heller", "office": "company", "website": "https://dbh.io"}}, {"type": "node", "id": 10719556921, "lat": 40.7254822, "lon": -73.9880334, "tags": {"alt_name": "Mono Mono", "amenity": "restaurant", "check_date": "2024-11-08", "cocktails": "yes", "cuisine": "korean", "drink:coffee": "yes", "drink:wine": "yes", "name": "Monomono", "opening_hours": "Su-Th 12:00-23:00; Fr-Sa 12:00-00:00", "phone": "+1-917-285-5034", "website": "https://www.monomonony.com", "website:menu": "https://qrco.de/monomono"}}, {"type": "node", "id": 10757735011, "lat": 40.7226537, "lon": -73.9928275, "tags": {"amenity": "bar", "drink:beer": "yes", "drink:liquor": "yes", "drink:wine": "yes", "name": "Bar Veloce", "opening_hours": "Mo-Th 16:00-24:00, Fr-Sa 16:00-01:00; Su 16:00-24:00", "theme": "wine_bar", "website": "https://www.winebarveloce.com"}}, {"type": "node", "id": 10780303885, "lat": 40.7221103, "lon": -73.9880747, "tags": {"addr:city": "New York", "addr:housenumber": "190", "addr:postcode": "10002", "addr:state": "NY", "addr:street": "Orchard Street", "amenity": "restaurant", "cuisine": "middle_eastern", "name": "Sami & Susu", "phone": "+16465592856", "website": "https://www.samiandsusu.com/"}}, {"type": "node", "id": 11036037905, "lat": 40.7230597, "lon": -73.9897166, "tags": {"addr:housenumber": "147", "addr:street": "East Houston Street", "amenity": "restaurant", "check_date": "2024-11-22", "cuisine": "pizza", "name": "Pizza Loves Sauce"}}, {"type": "node", "id": 11077357980, "lat": 40.7238435, "lon": -73.9908155, "tags": {"barrier": "gate"}}, {"type": "node", "id": 11196521509, "lat": 40.7225587, "lon": -73.9884993, "tags": {"amenity": "cafe", "name": "Beloved Caf\u00e9 & Resto"}}, {"type": "node", "id": 11476892967, "lat": 40.7225243, "lon": -73.9929563, "tags": {"amenity": "restaurant", "cuisine": "greek", "name": "Karvouna Mezze", "opening_hours": "Mo-Su 11:00-22:00", "phone": "+1-212-388-0052", "website": "https://www.karvounamezze.com"}}, {"type": "node", "id": 11558613469, "lat": 40.7237527, "lon": -73.9892869, "tags": {"addr:city": "New York", "addr:housenumber": "58", "addr:postcode": "10003", "addr:state": "NY", "addr:street": "East 1st Street", "air_conditioning": "yes", "amenity": "restaurant", "bar": "yes", "catering": "yes", "check_date": "2025-05-25", "cuisine": "thai", "delivery": "yes", "drink:beer": "yes", "drink:liquor": "yes", "drink:wine": "yes", "name": "MayRee", "opening_hours": "Mo-Fr 12:00-16:00, 17:00-22:00; Sa-Su 12:00-22:30", "outdoor_seating": "yes", "payment:cash": "yes", "payment:credit_cards": "yes", "phone": "+1-929-989-6213", "smoking": "no", "takeaway": "yes", "website": "https://www.mayreenyc.com/", "wheelchair": "yes"}}, {"type": "node", "id": 11761689742, "lat": 40.7233551, "lon": -73.9881657, "tags": {"addr:housenumber": "14", "addr:street": "Allen Street", "amenity": "cafe", "name": "Lucien"}}, {"type": "node", "id": 11971148916, "lat": 40.7231677, "lon": -73.9879418, "tags": {"addr:housenumber": "78", "addr:street": "East 1st Street", "amenity": "restaurant", "check_date": "2024-06-10", "cuisine": "thai", "name": "Chomp Chomp"}}, {"type": "node", "id": 12055649675, "lat": 40.7246991, "lon": -73.9932247, "tags": {"addr:city": "New York", "addr:housenumber": "290", "addr:postcode": "10012", "addr:street": "Elizabeth Street", "amenity": "cafe", "cocktails": "yes", "cuisine": "italian;french;breakfast;pastry", "drink:beer": "yes", "drink:coffee": "yes", "drink:espresso": "yes", "drink:liquor": "yes", "drink:tea": "yes", "drink:wine": "yes", "name": "Raf's", "opening_hours": "Tu-Su 09:00-14:00,17:00-22:00+", "website": "https://rafsnewyork.com"}}, {"type": "node", "id": 12164546318, "lat": 40.7216965, "lon": -73.9902826}, {"type": "node", "id": 12254980775, "lat": 40.7217666, "lon": -73.9921781, "tags": {"amenity": "cafe", "drink:tea": "yes", "name": "The Dutchess Tea House"}}, {"type": "node", "id": 12319900971, "lat": 40.7235041, "lon": -73.9885185, "tags": {"addr:city": "New York", "addr:housenumber": "15", "addr:street": "First Ave", "amenity": "bar", "check_date": "2024-11-06", "name": "La Linea", "opening_hours": "Su-Tu 17:00-02:00; We-Sa 15:00-04:00", "website": "https://lalinealounge.com"}}, {"type": "node", "id": 12319914323, "lat": 40.7236297, "lon": -73.9884264, "tags": {"addr:city": "New York", "addr:housenumber": "21", "addr:street": "First Ave", "amenity": "restaurant", "check_date": "2024-11-06", "name": "Lil Frankie\u2019s Grocery", "note": "this appears distinct from lil frankie\u2019s next door", "website": "https://lilfrankiesgrocery.com"}}, {"type": "node", "id": 12319918269, "lat": 40.7234538, "lon": -73.9885506, "tags": {"addr:city": "New York", "addr:housenumber": "13", "addr:street": "1st Avenue", "amenity": "bar", "check_date": "2024-11-06", "name": "Superbueno", "note": "they also have a substantial food menu", "opening_hours": "Mo-Th 16:00-02:00 Fri-Sun 14:00-02:00", "website": "https://superbuenonyc.com"}}, {"type": "node", "id": 12324373160, "lat": 40.7256107, "lon": -73.9883555, "tags": {"addr:housenumber": "108", "addr:street": "East 4th Street", "amenity": "restaurant", "cuisine": "french;korean", "name": "Soogil"}}, {"type": "node", "id": 12324410335, "lat": 40.7255807, "lon": -73.9882731, "tags": {"addr:housenumber": "108", "addr:street": "East 4th Street", "amenity": "restaurant", "check_date": "2024-11-08", "cuisine": "japanese", "name": "Benemon"}}, {"type": "node", "id": 12365486436, "lat": 40.7224569, "lon": -73.9921311, "tags": {"addr:city": "New York", "addr:housenumber": "17", "addr:street": "Stanton Street", "amenity": "bar", "check_date": "2024-11-22", "name": "Bonnie Vee"}}, {"type": "node", "id": 12365498908, "lat": 40.7225386, "lon": -73.9924913, "tags": {"addr:city": "New York", "addr:housenumber": "9", "addr:street": "Stanton Street", "amenity": "restaurant", "check_date": "2024-11-22", "cuisine": "italian", "name": "Forsythia"}}, {"type": "node", "id": 12389242645, "lat": 40.7218109, "lon": -73.9875935, "tags": {"addr:city": "New York", "addr:housenumber": "173", "addr:street": "Ludlow Street", "amenity": "restaurant", "check_date": "2024-12-01", "cuisine": "italian", "name": "Tre"}}, {"type": "node", "id": 12389243039, "lat": 40.7212805, "lon": -73.9875664, "tags": {"addr:city": "New York", "addr:housenumber": "108", "addr:street": "Stanton Street", "amenity": "bar", "check_date": "2024-12-01", "name": "Chinato"}}, {"type": "node", "id": 12389258451, "lat": 40.7209735, "lon": -73.9880154, "tags": {"addr:city": "New York", "addr:housenumber": "157", "addr:street": "Ludlow Street", "amenity": "bar", "check_date": "2024-12-01", "name": "Apartment 5"}}, {"type": "node", "id": 12389271511, "lat": 40.7236601, "lon": -73.9879533, "tags": {"addr:city": "New York", "addr:housenumber": "24", "addr:street": "1st Avenue", "amenity": "restaurant", "check_date": "2024-12-01", "cuisine": "indian", "name": "Bungalow"}}, {"type": "node", "id": 12623548203, "lat": 40.7235315, "lon": -73.9887809, "tags": {"addr:city": "New York", "addr:housenumber": "70", "addr:street": "East 1st Street", "amenity": "cafe", "check_date": "2025-02-27", "cuisine": "coffee_shop;empanada", "name": "Cafe La Fe"}}, {"type": "node", "id": 12632002031, "lat": 40.725374, "lon": -73.9872473, "tags": {"addr:city": "New York", "addr:housenumber": "67", "addr:postcode": "10003", "addr:state": "NY", "addr:street": "1st Avenue", "air_conditioning": "yes", "amenity": "restaurant", "bar": "yes", "cuisine": "asian;japanese", "min_age": "21", "name": "Batsu", "opening_hours": "tu-sa 19:00-00:00", "website": "https://www.batsulive.com/new-york/"}}, {"type": "node", "id": 12739827416, "lat": 40.7259999, "lon": -73.9925835, "tags": {"addr:city": "New York", "addr:housenumber": "54", "addr:postcode": "10012", "addr:state": "NY", "addr:street": "Bond Street", "amenity": "cafe", "contact:instagram": "https://www.instagram.com/12.matcha", "email": "info@12matcha.com", "name": "12 Matcha", "opening_hours": "We-Su 08:30-16:00", "website": "https://www.12matcha.com/"}}, {"type": "node", "id": 13129731186, "lat": 40.7225191, "lon": -73.9929312, "tags": {"addr:city": "New York", "addr:housenumber": "241", "addr:postcode": "10002", "addr:state": "NY", "addr:street": "Bowery", "amenity": "bar", "name": "Wilka's Sports Bar"}}, {"type": "node", "id": 13276407496, "lat": 40.7213716, "lon": -73.9929319, "tags": {"amenity": "cafe", "name": "Embriago Coffee"}}, {"type": "way", "id": 25160079, "nodes": [1918039874, 7132071119, 7132071122, 7132071120, 7132071112, 7132071092, 7132071106, 7132071130, 7132071144, 7132071123, 1918039865, 7132071109, 7132071113, 1918039900, 7132071114, 7132071093, 7132071096, 7132071090, 7132071111, 7132071125, 7132071145, 7132071095, 7132071135, 7132071098, 7132071133, 3120728233, 7132071094, 3120728291, 7132071139, 7132071131, 3120728282, 7132071100, 1918039874]}, {"type": "way", "id": 111563947, "nodes": [1270769397, 1270769399, 1270769390, 1270769392, 1270769397], "tags": {"ele": "10", "gnis:feature_id": "2080614", "leisure": "park", "name": "Peretz Square", "name:etymology:wikidata": "Q425644", "website": "https://www.nycgovparks.org/parks/M123/highlights/6509", "wikidata": "Q7167902", "wikipedia": "en:Peretz Square"}}, {"type": "way", "id": 248757328, "nodes": [2554957025, 2554957015, 2554956999, 12164546318, 2554957011, 2554957020, 2554957030, 2554957028, 2554957025], "tags": {"addr:city": "New York", "addr:housenumber": "217", "addr:postcode": "10002", "addr:state": "NY", "addr:street": "Eldridge Street", "amenity": "restaurant", "building": "commercial", "building:levels": "1", "cuisine": "sushi", "height": "4.9", "name": "Sushi On Jones", "nycdoitt:bin": "1082525", "opening_hours": "Tu-Th 17:00-22:00; Fr-Sa 17:00-23:00", "website": "https://www.sushionjones.com/location/sushi-on-jones-les/"}}, {"type": "way", "id": 248772644, "nodes": [2555129241, 2555129243, 2555129253, 2555129255, 2555129252, 2555129241], "tags": {"addr:housenumber": "76 1/2", "addr:postcode": "10009", "addr:street": "East 1st Street", "amenity": "restaurant", "building": "apartments", "building:levels": "1", "height": "4.4", "nycdoitt:bin": "1083473"}}, {"type": "way", "id": 307027671, "nodes": [3120728236, 3120728234, 1918039915, 3120728298, 7132071115, 7132071091, 3120728297, 3120728232, 3120728236]}, {"type": "way", "id": 307027673, "nodes": [3120728237, 1918039862, 10647611702, 10647611703, 10647611701, 10647547452, 1918039910, 1918039870, 10647547451, 4035932299, 10647547450, 6330518817, 10647547474, 1918039936, 1918039908, 1918039866, 1918039899, 3120728259, 1918039867, 3120728258, 1918039912, 7132071128, 7132071141, 7132071105, 7132071102, 7132071107, 7132071126, 7132071088, 7132071129, 1918039929, 7132071137, 7132071087, 3120728235, 10136611577, 6330061749, 10136611576, 3120728237], "tags": {"material": "brick"}}, {"type": "way", "id": 324750157, "nodes": [3314278204, 3314278205, 3314278206, 2550007819, 2550007820, 9932842288, 3314278207, 9932842267, 9932842268, 9932842269, 9932842270, 3314278204], "tags": {"leisure": "park", "name": "First Park", "wikidata": "Q49489401"}}, {"type": "way", "id": 453531406, "nodes": [2547055595, 4502539351, 4502539299, 4502539301, 9936456392, 2547055806, 2547055782, 2547055770, 9936456393, 4502539302, 4502539300, 2547055714, 2547055699, 2547055665, 2547055629, 2547055585, 2547055454, 2547055503, 2547055520, 2547055535, 2547055567, 2547055574, 2547055595], "tags": {"addr:city": "New York", "addr:housenumber": "113", "addr:postcode": "10003", "addr:street": "East 4th Street", "amenity": "school", "name": "Manhattan School for Career Development"}}, {"type": "way", "id": 460504395, "nodes": [4561457052, 4561457049, 2567547531, 2567547370, 9951392573, 9951392572, 2567547328, 2567547461, 4561457047, 4561457050, 4561457052], "tags": {"addr:city": "New York", "addr:housenumber": "166", "addr:postcode": "10002", "addr:street": "Essex Street", "alt_name": "Public School 20", "amenity": "school", "name": "Anna Silver School", "short_name": "P.S. 20"}}, {"type": "way", "id": 687661469, "nodes": [6446504050, 9932842241, 2550007861, 2550007856, 2550007837, 9932842242, 2550007820, 9932842288, 3314278207, 6781557916, 6446504054, 11077357980, 6446504056, 6446504050], "tags": {"leisure": "park", "name": "First Street Green Cultural Park"}}, {"type": "way", "id": 1083911850, "nodes": [2555129236, 9932846554, 9932846555, 9932846556, 9932846557, 9932846560, 2555129281, 2555129256, 2555129236], "tags": {"leisure": "park"}}, {"type": "way", "id": 1290906211, "nodes": [2550785217, 2550785166, 2550785035, 2550785098, 2550785217], "tags": {"amenity": "school", "name": "Public School 63"}}, {"type": "relation", "id": 4099553, "members": [{"type": "way", "ref": 25160079, "role": "outer"}, {"type": "way", "ref": 307027671, "role": "outer"}, {"type": "way", "ref": 307027673, "role": "outer"}], "tags": {"ele": "12", "gnis:feature_id": "964477", "leisure": "park", "name": "Sara D. Roosevelt Park", "name:etymology:wikidata": "Q4994309", "type": "multipolygon", "website": "https://www.nycgovparks.org/parks/sara-d-roosevelt-park", "wikidata": "Q7421605", "wikipedia": "en:Sara D. Roosevelt Park"}}]}