{"version": 0.6, "generator": "Overpass API 0.7.62.8 e802775f", "osm3s": {"timestamp_osm_base": "2025-12-01T15:26:13Z", "copyright": "The data included in this document is from www.openstreetmap.org. The data is made available under ODbL."}, "elements": [{"type": "node", "id": 245509615, "lat": 40.7345985, "lon": -73.9899813}, {"type": "node", "id": 245509616, "lat": 40.7349999, "lon": -73.9900313}, {"type": "node", "id": 245509617, "lat": 40.7352631, "lon": -73.9899845}, {"type": "node", "id": 368043657, "lat": 40.7375904, "lon": -73.9937182, "tags": {"addr:state": "NY", "ele": "11", "gnis:feature_id": "2083035", "name": "Center for Jewish History", "office": "association", "source": "USGS Geonames", "wikidata": "Q5059727", "wikipedia": "en:Center for Jewish History"}}, {"type": "node", "id": 419366238, "lat": 40.7372018, "lon": -73.9925353, "tags": {"amenity": "bicycle_parking", "capacity": "5", "cityracks.housenum": "8", "cityracks.large": "1", "cityracks.rackid": "1969", "cityracks.small": "0", "cityracks.street": "E 16th St"}}, {"type": "node", "id": 761550844, "lat": 40.7362396, "lon": -73.9887389, "tags": {"amenity": "college", "name": "New York Film Academy", "wikidata": "Q1006950", "wikipedia": "en:New York Film Academy"}}, {"type": "node", "id": 1251605741, "lat": 40.7352717, "lon": -73.9901225}, {"type": "node", "id": 1251605761, "lat": 40.7349086, "lon": -73.9908311}, {"type": "node", "id": 1251605764, "lat": 40.7364036, "lon": -73.9892977}, {"type": "node", "id": 1251605792, "lat": 40.735246, "lon": -73.9916213}, {"type": "node", "id": 1251605813, "lat": 40.7365918, "lon": -73.9893752}, {"type": "node", "id": 1251605819, "lat": 40.7349717, "lon": -73.9905707}, {"type": "node", "id": 1251605838, "lat": 40.736503, "lon": -73.9892856}, {"type": "node", "id": 1251605840, "lat": 40.7361022, "lon": -73.9895175, "tags": {"barrier": "kerb", "kerb": "lowered", "tactile_paving": "yes"}}, {"type": "node", "id": 1251605878, "lat": 40.7354481, "lon": -73.9899938, "tags": {"barrier": "kerb", "kerb": "lowered"}}, {"type": "node", "id": 1251605898, "lat": 40.735054, "lon": -73.9904147}, {"type": "node", "id": 1251605900, "lat": 40.7351534, "lon": -73.9902569}, {"type": "node", "id": 1883739637, "lat": 40.7375482, "lon": -73.991104, "tags": {"addr:city": "New York", "addr:housenumber": "15", "addr:postcode": "10003", "addr:state": "NY", "addr:street": "East 17th Street", "amenity": "restaurant", "cuisine": "thai", "delivery": "yes", "email": "info@lautnyc.com", "name": "Laut", "opening_hours": "Mo-Fr 11:30-22:30; Sa 14:00-22:30; Su 13:00-22:00", "outdoor_seating": "no", "phone": "+1 212-206-8989", "smoking": "no", "takeaway": "yes", "website": "https://www.lautnyc.com/", "wheelchair": "yes"}}, {"type": "node", "id": 2259028668, "lat": 40.7367924, "lon": -73.9922363, "tags": {"addr:housenumber": "6", "addr:street": "East 16th Street", "amenity": "university", "name": "The New School"}}, {"type": "node", "id": 2279533265, "lat": 40.7332351, "lon": -73.9874295}, {"type": "node", "id": 2501572681, "lat": 40.7369154, "lon": -73.9920567, "tags": {"addr:city": "New York", "addr:housenumber": "10", "addr:postcode": "10003", "addr:state": "NY", "addr:street": "East 16th Street", "amenity": "restaurant", "cuisine": "american;burger", "drink:beer": "yes", "drink:coffee": "yes", "internet_access": "wlan", "internet_access:fee": "no", "name": "Chat n Chew", "opening_hours": "Mo-Fr 08:00-22:00; Sa, Su 09:00-22:00", "outdoor_seating": "yes", "phone": "+1-212-243-1616", "toilets": "yes", "toilets:unisex": "yes", "toilets:wheelchair": "no", "website": "https://chatnchewnyc.com/", "wheelchair": "no"}}, {"type": "node", "id": 2547193326, "lat": 40.7342526, "lon": -73.9923138, "tags": {"addr:housenumber": "111", "addr:postcode": "10003", "addr:street": "University Place", "amenity": "cafe", "cuisine": "coffee_shop", "name": "Starbucks"}}, {"type": "node", "id": 2547193376, "lat": 40.733256, "lon": -73.9914891, "tags": {"addr:housenumber": "48", "addr:postcode": "10003", "addr:street": "East 12th Street", "amenity": "restaurant", "cuisine": "continental", "drink:espresso": "yes", "indoor_seating": "yes", "name": "Leon's", "opening_hours": "Mo-Fr 08:00-22:00, Sa-Su 10:00-22:00", "phone": "+1-646-410-2703", "toilets": "yes", "toilets:access": "customers", "toilets:unisex": "yes", "website": "https://www.leonsnyc.com"}}, {"type": "node", "id": 2547200395, "lat": 40.7343881, "lon": -73.9910564, "tags": {"addr:city": "New York", "addr:housenumber": "841", "addr:postcode": "10003", "addr:state": "NY", "addr:street": "Broadway", "amenity": "cafe", "branch": "Union Square", "brand": "Max Brenner", "brand:wikidata": "Q955687", "cuisine": "chocolate", "delivery": "yes", "email": "USQreservations@maxbrenner.com", "name": "Max Brenner", "name:en": "Max Brenner", "name:he": "\u05de\u05e7\u05e1 \u05d1\u05e8\u05e0\u05e8", "opening_hours": "Mo-We 10:00-23:00; Th-Sa 10:00-24:00; Su 10:00-23:00", "outdoor_seating": "no", "payment:american_express": "yes", "payment:cash": "yes", "payment:discover_card": "yes", "payment:jcb": "yes", "payment:mastercard": "yes", "payment:visa": "yes", "phone": "+1-646-467-8803", "reservation": "yes", "takeaway": "yes", "website": "https://maxbrenner.com/pages/union-square-nyc"}}, {"type": "node", "id": 2547200402, "lat": 40.7350879, "lon": -73.9933063, "tags": {"addr:city": "New York", "addr:housenumber": "9", "addr:postcode": "10003", "addr:street": "East 13th Street", "amenity": "cafe", "branch": "Union Square", "brand": "Joe Coffee Company", "cuisine": "pastry", "drink:coffee": "yes", "drink:tea": "yes", "internet_access": "wlan", "internet_access:fee": "no", "name": "Joe Coffee Company", "opening_hours": "Mo-Th 07:00-20:00; Fr-Su 07:00-18:30", "phone": "+1 212-924-3300", "takeaway": "yes", "toilets": "yes", "website": "http://www.joenewyork.com/locations/union-square/", "wheelchair": "no"}}, {"type": "node", "id": 2547200478, "lat": 40.7351174, "lon": -73.9934403}, {"type": "node", "id": 2547200489, "lat": 40.7353146, "lon": -73.9939103}, {"type": "node", "id": 2547200491, "lat": 40.7353612, "lon": -73.9932635}, {"type": "node", "id": 2547200492, "lat": 40.7353704, "lon": -73.9932855}, {"type": "node", "id": 2547200497, "lat": 40.7356273, "lon": -73.9930991}, {"type": "node", "id": 2547200498, "lat": 40.7358152, "lon": -73.9935472}, {"type": "node", "id": 2547205697, "lat": 40.7329807, "lon": -73.9876127}, {"type": "node", "id": 2547205708, "lat": 40.733064, "lon": -73.9875528}, {"type": "node", "id": 2547205711, "lat": 40.7330821, "lon": -73.987852}, {"type": "node", "id": 2547205729, "lat": 40.7331109, "lon": -73.9876636}, {"type": "node", "id": 2547205745, "lat": 40.7331649, "lon": -73.987791}, {"type": "node", "id": 2547205761, "lat": 40.7331928, "lon": -73.9876036}, {"type": "node", "id": 2547205765, "lat": 40.7332113, "lon": -73.9876473}, {"type": "node", "id": 2547208990, "lat": 40.7343063, "lon": -73.9926464, "tags": {"addr:housenumber": "110", "addr:postcode": "10003", "addr:street": "University Place", "amenity": "restaurant", "cuisine": "japanese;teriyaki", "name": "Glaze Teriyaki", "opening_hours": "Su-Th 11:30-21:00; Fr-Sa 12:00-21:00", "website": "https://glaze.com"}}, {"type": "node", "id": 2547208994, "lat": 40.7342725, "lon": -73.99338, "tags": {"addr:housenumber": "15", "addr:postcode": "10003", "addr:street": "East 12th Street", "amenity": "restaurant", "cuisine": "american", "happy_hours": "Tu-Sa 17:30-18:30", "name": "Villanelle", "opening_hours": "Tu-Sa 12:00-15:00,17:30-22:00", "phone": "+1-212-989-2474", "website": "https://www.villanellenyc.com"}}, {"type": "node", "id": 2547208995, "lat": 40.7341274, "lon": -73.9935455, "tags": {"addr:housenumber": "16", "addr:postcode": "10003", "addr:street": "East 12th Street", "name": "Mirador", "office": "estate_agent", "phone": "+1-646-787-3013", "website": "https://www.miradorrealestate.com"}}, {"type": "node", "id": 2547209021, "lat": 40.7336934, "lon": -73.9931603, "tags": {"addr:housenumber": "88", "addr:postcode": "10003", "addr:street": "University Place", "amenity": "restaurant", "cuisine": "thai", "name": "Pranakhon", "phone": "+1 212 786 6789", "website": "https://www.pranakhonnyc.com/"}}, {"type": "node", "id": 2555135956, "lat": 40.7367779, "lon": -73.9910723, "tags": {"addr:housenumber": "21", "addr:postcode": "10003", "addr:street": "East 16th Street", "alt_name": "Tsuru Tan Ton", "amenity": "restaurant", "bar": "yes", "cocktails": "yes", "cuisine": "japanese", "drink:beer": "yes", "drink:liquor": "yes", "drink:wine": "yes", "name": "TsuruTonTan", "opening_hours": "Mo-Th 12:00-15:00,17:00-22:30; Fr 12:00-15:00,17:00-23:00; Sa 12:00-22:30; Su 12:00-21:30", "website": "https://www.tsurutontan.com"}}, {"type": "node", "id": 2555135992, "lat": 40.7370624, "lon": -73.9905341, "tags": {"addr:housenumber": "41", "addr:postcode": "10003", "addr:street": "Union Square West", "name": "ADB AGENCY", "office": "company", "website": "adbagency.com"}}, {"type": "node", "id": 2555136200, "lat": 40.7375526, "lon": -73.9893182}, {"type": "node", "id": 2555136225, "lat": 40.7376512, "lon": -73.9895505}, {"type": "node", "id": 2555136238, "lat": 40.7377153, "lon": -73.9897017}, {"type": "node", "id": 2555136244, "lat": 40.7377416, "lon": -73.9891796}, {"type": "node", "id": 2555136257, "lat": 40.7378075, "lon": -73.9893351}, {"type": "node", "id": 2555136264, "lat": 40.737834, "lon": -73.9893156}, {"type": "node", "id": 2555136266, "lat": 40.737838, "lon": -73.989325}, {"type": "node", "id": 2555136275, "lat": 40.7378666, "lon": -73.9893925}, {"type": "node", "id": 2555136280, "lat": 40.7378878, "lon": -73.9894422}, {"type": "node", "id": 2555136284, "lat": 40.7378971, "lon": -73.9895684}, {"type": "node", "id": 2555136291, "lat": 40.7379337, "lon": -73.9895415}, {"type": "node", "id": 2555136293, "lat": 40.7379447, "lon": -73.9895674}, {"type": "node", "id": 2555136295, "lat": 40.7379554, "lon": -73.9893801}, {"type": "node", "id": 2555136296, "lat": 40.7379594, "lon": -73.9893897}, {"type": "node", "id": 2555136297, "lat": 40.7379617, "lon": -73.9895549}, {"type": "node", "id": 2555136322, "lat": 40.7380801, "lon": -73.9892886}, {"type": "node", "id": 2555136324, "lat": 40.7380858, "lon": -73.9893021}, {"type": "node", "id": 2555136330, "lat": 40.738111, "lon": -73.9892837}, {"type": "node", "id": 2555136345, "lat": 40.7381634, "lon": -73.989407}, {"type": "node", "id": 2555137420, "lat": 40.7364478, "lon": -73.9909744, "tags": {"addr:housenumber": "29", "addr:postcode": "10003", "addr:street": "Union Square West", "amenity": "cafe", "cuisine": "coffee_shop", "drink:coffee": "yes", "drink:espresso": "yes", "name": "Joe Coffee", "opening_hours": "Mo-Su 11:00-19:00", "website": "https://joecoffeecompany.com/locations/union-square-west/"}}, {"type": "node", "id": 2555137454, "lat": 40.735872, "lon": -73.9921626}, {"type": "node", "id": 2555137482, "lat": 40.7361152, "lon": -73.9919842}, {"type": "node", "id": 2555137483, "lat": 40.7361281, "lon": -73.9927004}, {"type": "node", "id": 2555137502, "lat": 40.7363486, "lon": -73.9925386}, {"type": "node", "id": 2555137529, "lat": 40.7366596, "lon": -73.992059}, {"type": "node", "id": 2555137532, "lat": 40.7366776, "lon": -73.9921031}, {"type": "node", "id": 2555137567, "lat": 40.7369044, "lon": -73.991885}, {"type": "node", "id": 2555137568, "lat": 40.7369111, "lon": -73.9918803}, {"type": "node", "id": 2555137570, "lat": 40.7369365, "lon": -73.9927273}, {"type": "node", "id": 2562374842, "lat": 40.7375364, "lon": -73.9880227, "tags": {"addr:housenumber": "233", "addr:postcode": "10003", "addr:street": "Park Avenue South", "amenity": "restaurant", "cuisine": "seafood", "level": "0", "name": "Oceans", "phone": "+1-212-209-1055", "website": "https://oceansnewyork.com"}}, {"type": "node", "id": 2562375020, "lat": 40.736101, "lon": -73.9876995}, {"type": "node", "id": 2562375024, "lat": 40.7361311, "lon": -73.9877708}, {"type": "node", "id": 2562375025, "lat": 40.7361342, "lon": -73.9877686}, {"type": "node", "id": 2562375027, "lat": 40.7361663, "lon": -73.987652}, {"type": "node", "id": 2562375031, "lat": 40.7361805, "lon": -73.9876858}, {"type": "node", "id": 2562375036, "lat": 40.7361963, "lon": -73.9877233}, {"type": "node", "id": 2704022017, "lat": 40.7350205, "lon": -73.9878029, "tags": {"amenity": "school", "check_date": "2024-03-28", "fax": "+1-212-439-8705", "name": "Goethe Institut", "name:de": "Goethe Institut", "name:en": "Goethe Institute", "phone": "+1-212-439-8700", "website:de": "https://www.goethe.de/ins/us/de/sta/ney.html", "website:en": "https://www.goethe.de/ins/us/en/sta/ney.html"}}, {"type": "node", "id": 2704034126, "lat": 40.7358748, "lon": -73.98712, "tags": {"addr:city": "New York", "addr:housenumber": "125", "addr:postcode": "10003", "addr:state": "NY", "addr:street": "East 17th Street", "amenity": "bar", "name": "Bar Jam\u00f3n", "opening_hours": "Mo-Fr 17:00-2:00; Sa,Su 12:00-2:00", "website": "https://casamononyc.com"}}, {"type": "node", "id": 2704034237, "lat": 40.7359257, "lon": -73.9871655, "tags": {"addr:city": "New York", "addr:housenumber": "52", "addr:postcode": "10003", "addr:state": "NY", "addr:street": "Irving Place", "amenity": "restaurant", "cuisine": "tapas;spanish", "name": "Casa Mono", "name:en": "Casa Mono", "opening_hours": "Su-Tu 12:00-23:00; We-Sa 12:00-00:00", "opening_hours:signed": "no", "outdoor_seating": "no", "phone": "+1-212-253-2773", "website": "https://casamononyc.com"}}, {"type": "node", "id": 2710177862, "lat": 40.7362844, "lon": -73.9936689, "tags": {"addr:city": "New York", "addr:housenumber": "90", "addr:postcode": "10011", "addr:street": "5th Avenue", "amenity": "university", "name": "Student Study Center", "operator": "The New School"}}, {"type": "node", "id": 2855927779, "lat": 40.7361054, "lon": -73.992717}, {"type": "node", "id": 2998996502, "lat": 40.737266, "lon": -73.9909599, "tags": {"amenity": "restaurant", "cuisine": "middle_eastern", "name": "Rainbow Falafel & Shawarma", "phone": "+1-212-691-8641"}}, {"type": "node", "id": 2999006567, "lat": 40.7373666, "lon": -73.9906671, "tags": {"addr:city": "New York", "addr:housenumber": "25", "addr:postcode": "10003", "addr:street": "East 17th Street", "amenity": "restaurant", "name": "Chloe's Soft Serve Fruit Co.", "phone": "+1-212-675-0550", "website": "https://www.chloesfruit.com/"}}, {"type": "node", "id": 3131828039, "lat": 40.7348845, "lon": -73.9885442, "tags": {"addr:housenumber": "119", "addr:street": "East 15th Street", "amenity": "pub", "brewery": "Guinness;Stella Artois", "name": "The Headless Horseman", "opening_hours": "We 16:00-01:00; Sa 12:00-03:00; Su 12:00-23:00; Mo, Tu 16:00-00:00; Th 16:00-02:00; Fr 16:00-03:00", "payment:cash": "yes", "payment:credit_cards": "yes", "payment:debit_cards": "yes", "phone": "+1-212-777-5101", "smoking": "no", "toilets": "yes", "toilets:access": "permissive", "toilets:unisex": "no", "website": "http://headlesshorsemannyc.com/", "wheelchair": "yes"}}, {"type": "node", "id": 3238681550, "lat": 40.7332999, "lon": -73.9875824}, {"type": "node", "id": 3497534420, "lat": 40.7331382, "lon": -73.9932569, "tags": {"addr:city": "New York", "addr:housenumber": "75", "addr:postcode": "10003", "addr:state": "NY", "addr:street": "University Place", "amenity": "restaurant", "cuisine": "pizza", "name": "SIM\u00d2 PIZZA"}}, {"type": "node", "id": 3497534425, "lat": 40.7332225, "lon": -73.9936043, "tags": {"addr:city": "New York", "addr:housenumber": "72", "addr:postcode": "10003", "addr:state": "NY", "addr:street": "University Place", "amenity": "restaurant", "name": "Blossom", "opening_hours": "Mo-Su 11:30-21:00"}}, {"type": "node", "id": 3497534427, "lat": 40.7331707, "lon": -73.9936418, "tags": {"addr:city": "New York", "addr:housenumber": "70", "addr:postcode": "10003", "addr:state": "NY", "addr:street": "University Place", "amenity": "bar", "name": "Reservoir", "opening_hours": "Mo-Fr 15:00-23:00; Sa,Su 12:00-23:00"}}, {"type": "node", "id": 3543467340, "lat": 40.7333256, "lon": -73.9930451, "tags": {"addr:city": "New York", "addr:housenumber": "41", "addr:postcode": "10003", "addr:state": "NY", "addr:street": "East 11th Street", "name": "Lounge Lizard", "office": "it", "website": "https://www.loungelizard.com/"}}, {"type": "node", "id": 3588549121, "lat": 40.7379106, "lon": -73.987753, "tags": {"addr:housenumber": "239", "addr:postcode": "10003", "addr:street": "Park Avenue South", "amenity": "restaurant", "cuisine": "american", "fax": "+1-212-598-5834", "level": "0", "name": "Big Daddy's Diner", "opening_hours": "Mo-Th 08:00-12:00; Fr-Sa 08:00-05:00; Su 08:00-23:00", "phone": "+1-212-477-1500", "source": "survey", "website": "https://www.bigdaddysnyc.com/"}}, {"type": "node", "id": 3670742443, "lat": 40.7348665, "lon": -73.9900176}, {"type": "node", "id": 3670742466, "lat": 40.7349746, "lon": -73.9903562}, {"type": "node", "id": 3804413327, "lat": 40.7357502, "lon": -73.9935221}, {"type": "node", "id": 3804413328, "lat": 40.7356093, "lon": -73.9931997}, {"type": "node", "id": 3804413329, "lat": 40.7352401, "lon": -73.993439}, {"type": "node", "id": 3804413330, "lat": 40.7353948, "lon": -73.9937928}, {"type": "node", "id": 3869752135, "lat": 40.7370022, "lon": -73.9896034, "tags": {"amenity": "cafe", "brand": "Starbucks", "brand:wikidata": "Q37158", "check_date": "2021-04-26", "cuisine": "coffee_shop", "name": "Starbucks", "official_name": "Starbucks Coffee", "opening_hours:signed": "no", "takeaway": "yes"}}, {"type": "node", "id": 3875000773, "lat": 40.7370157, "lon": -73.9902837, "tags": {"barrier": "kerb", "kerb": "lowered"}}, {"type": "node", "id": 4285056098, "lat": 40.7349007, "lon": -73.9908054, "tags": {"barrier": "kerb", "kerb": "lowered", "kerb:height": "2.54 cm", "note": "Ramp Width: 150 cm Ramp Slope: 2.54 cm;Ramp Width: 150 cm", "tactile_paving": "no", "wheelchair": "limited"}}, {"type": "node", "id": 4427616693, "lat": 40.7343278, "lon": -73.9921829, "tags": {"addr:housenumber": "113", "addr:postcode": "10003", "addr:street": "University Place", "amenity": "restaurant", "brand": "P.F. Chang's", "brand:wikidata": "Q5360181", "cuisine": "asian", "name": "P.F. Chang's", "official_name": "P.F. Chang's China Bistro", "opening_hours": "Su-Th 11:00-22:00; Fr,Sa 11:00-23:00"}}, {"type": "node", "id": 4475172517, "lat": 40.7350302, "lon": -73.993152, "tags": {"addr:city": "New York", "addr:housenumber": "13", "addr:postcode": "10003", "addr:state": "NY", "addr:street": "East 13th Street", "amenity": "restaurant", "cuisine": "american", "delivery": "no", "name": "Corkbuzz", "opening_hours": "Su-Th 16:00-00:00; Fr-Sa 16:00-02:00", "phone": "+1 646 873 6071", "smoking": "no", "website": "https://www.corkbuzz.com/"}}, {"type": "node", "id": 4557584378, "lat": 40.7376427, "lon": -73.9912505, "tags": {"addr:city": "New York", "addr:housenumber": "11", "addr:postcode": "10003", "addr:state": "NY", "addr:street": "East 17th Street", "amenity": "restaurant", "cuisine": "soup", "delivery": "no", "ele": "1", "name": "Hale and Hearty Soups", "opening_hours": "Mo-Su 10:00-20:00", "phone": "+1 212 675 6611", "smoking": "no", "takeaway": "yes", "website": "https://www.haleandhearty.com/"}}, {"type": "node", "id": 4579828838, "lat": 40.7349097, "lon": -73.9906946}, {"type": "node", "id": 4579828840, "lat": 40.7365211, "lon": -73.989295, "tags": {"barrier": "kerb", "kerb": "lowered"}}, {"type": "node", "id": 4579828845, "lat": 40.7351685, "lon": -73.9914422}, {"type": "node", "id": 4579828847, "lat": 40.7356356, "lon": -73.9913654}, {"type": "node", "id": 4637936849, "lat": 40.7360901, "lon": -73.9874452, "tags": {"addr:city": "New York", "addr:housenumber": "53", "addr:postcode": "10003", "addr:state": "NY", "addr:street": "Irving Place", "amenity": "restaurant", "bar": "wine_bar", "cocktails": "yes", "cuisine": "mediterranean;continental", "delivery": "no", "drink:beer": "yes", "drink:liquor": "yes", "drink:wine": "yes", "internet_access": "wlan", "name": "Pierre Loti", "opening_hours": "Mo-Fr 15:00-23:00; Sa-Su 14:00-23:00", "outdoor_seating": "yes", "phone": "+1-212-777-5684", "smoking": "no", "takeaway": "no", "website": "https://pierrelotiwinebar.com/"}}, {"type": "node", "id": 4651010148, "lat": 40.734646, "lon": -73.9927932, "tags": {"addr:city": "New York", "addr:housenumber": "30", "addr:postcode": "10003", "addr:street": "East 13th Street", "amenity": "restaurant", "cuisine": "middle_eastern", "name": "Taboonette", "opening_hours": "Mo-Su 10:00-22:00", "phone": "+1-212-510-7881", "website": "https://taboonette.com/"}}, {"type": "node", "id": 4681739598, "lat": 40.7375383, "lon": -73.9892094, "tags": {"addr:postcode": "10003", "amenity": "bar", "cuisine": "american", "name": "Old Town Bar", "wikidata": "Q7085265"}}, {"type": "node", "id": 4759906014, "lat": 40.7353781, "lon": -73.993334}, {"type": "node", "id": 4759906015, "lat": 40.7354429, "lon": -73.9934824}, {"type": "node", "id": 4759906016, "lat": 40.7355348, "lon": -73.9934124}, {"type": "node", "id": 4759906017, "lat": 40.7354836, "lon": -73.9932954}, {"type": "node", "id": 4835494858, "lat": 40.7374263, "lon": -73.9921437, "tags": {"addr:city": "New York", "addr:housenumber": "89", "addr:postcode": "10003", "addr:state": "NY", "addr:street": "5th Avenue", "email": "info@ownertimecharters.com", "level": "7", "name": "Owner Time Charters", "office": "company", "opening_hours": "24/7", "phone": "+1-954-290-1084", "smoking": "outside", "source": "Business Owner", "website": "https://ownertimecharters.com/", "wheelchair": "yes"}}, {"type": "node", "id": 4922311233, "lat": 40.7351434, "lon": -73.9897998, "tags": {"amenity": "cafe", "brand": "Starbucks", "brand:wikidata": "Q37158", "contact:website": "https://www.starbucks.com/store-locator/store/16211/union-square-east-10-union-square-east-new-york-ny-100033314-us", "cuisine": "coffee_shop", "name": "Starbucks", "official_name": "Starbucks Coffee", "takeaway": "yes"}}, {"type": "node", "id": 4947722221, "lat": 40.7383894, "lon": -73.988414, "tags": {"addr:housenumber": "42", "addr:postcode": "10003", "addr:street": "East 20th Street", "amenity": "restaurant", "contact:facebook": "https://www.facebook.com/GrammercyTavern", "contact:instagram": "https://www.instagram.com/gramercytavern", "contact:twitter": "https://twitter.com/GramercyTavern", "cuisine": "american", "delivery": "yes", "name": "Gramercy Tavern", "opening_hours": "Su-Th 11:30-23:00; Fr, Sa 11:30-24:00", "opening_hours:kitchen": "Mo-Th, Su 11:30-14:00, 17:00-21:45; Fr, Sa 11:30-14:00, 17:00-22:30", "operator": "Union Square Hospitality Group", "phone": "+1 212-477-0777", "reservation": "yes", "stars": "1", "website": "https://www.gramercytavern.com/", "wikidata": "Q5593638", "wikipedia": "en:Gramercy Tavern"}}, {"type": "node", "id": 4998806123, "lat": 40.7337655, "lon": -73.9911602, "tags": {"name": "Halstead Property", "office": "estate_agent"}}, {"type": "node", "id": 5148103561, "lat": 40.7365848, "lon": -73.9906886, "tags": {"barrier": "kerb", "kerb": "lowered"}}, {"type": "node", "id": 5148103567, "lat": 40.7364543, "lon": -73.9907614, "tags": {"barrier": "kerb", "kerb": "lowered"}}, {"type": "node", "id": 5148103571, "lat": 40.7359297, "lon": -73.9911578, "tags": {"barrier": "kerb", "kerb": "lowered"}}, {"type": "node", "id": 5193578002, "lat": 40.7334964, "lon": -73.9915121, "tags": {"amenity": "restaurant", "cuisine": "asian", "name": "Shuko", "opening_hours": "Mo-Su 16:30-21:00"}}, {"type": "node", "id": 5209395821, "lat": 40.7381171, "lon": -73.9886874, "tags": {"addr:housenumber": "43", "addr:street": "East 19th Street", "amenity": "restaurant", "name": "Craft"}}, {"type": "node", "id": 5265747977, "lat": 40.7377464, "lon": -73.9915574, "tags": {"addr:housenumber": "5", "addr:street": "East 17th Street", "amenity": "restaurant", "name": "Union Fare"}}, {"type": "node", "id": 5265753026, "lat": 40.7375784, "lon": -73.9911901, "tags": {"addr:housenumber": "13", "addr:street": "East 17th Street", "amenity": "bar", "cuisine": "irish", "name": "Lillie's"}}, {"type": "node", "id": 5620520170, "lat": 40.7346858, "lon": -73.9886233, "tags": {"addr:housenumber": "118", "addr:street": "East 15th Street", "amenity": "bar", "happy_hours": "Mo-Fr 12:00-19:00", "internet_access": "wlan", "internet_access:ssid": "-Sidebar WiFi-", "name": "SideBAR", "opening_hours": "Mo-Tu,Su 12:00-24:00; We 12:00-01:00; Th 12:00-02:00; Fr-Sa 12:00-04:00", "outdoor_seating": "yes", "payment:cash": "yes", "payment:credit_cards": "yes", "phone": "+1-212-677-2900", "reservation": "yes", "toilets": "yes", "website": "https://www.sidebarny.com/", "wheelchair": "yes"}}, {"type": "node", "id": 5726008201, "lat": 40.7340809, "lon": -73.9924617, "tags": {"addr:housenumber": "101", "addr:postcode": "10003", "addr:street": "University Place", "amenity": "cafe", "branch": "University Place", "brand": "Blue Bottle Coffee", "brand:en": "Blue Bottle Coffee", "brand:ja": "\u30d6\u30eb\u30fc\u30dc\u30c8\u30eb\u30b3\u30fc\u30d2\u30fc", "brand:wikidata": "Q4928917", "cuisine": "coffee_shop", "name": "Blue Bottle Coffee", "name:en": "Blue Bottle Coffee", "name:it": "Blue Bottle", "name:ja": "\u30d6\u30eb\u30fc\u30dc\u30c8\u30eb\u30b3\u30fc\u30d2\u30fc", "opening_hours": "Mo-Fr 07:00-18:00; Sa-Su 08:30-17:00; Jan 01 off; Nov Th[4] off; Dec 25 off", "takeaway": "yes", "toilets": "yes", "toilets:access": "customers", "toilets:disposal": "flush", "toilets:position": "seated", "toilets:wheelchair": "yes", "website": "https://bluebottlecoffee.com/cafes/university-place"}}, {"type": "node", "id": 5752611173, "lat": 40.7337512, "lon": -73.9931307, "tags": {"addr:housenumber": "90", "addr:postcode": "10003", "addr:street": "University Place", "amenity": "restaurant", "branch": "Union Square", "cuisine": "sandwich;burger;salad", "delivery": "yes", "diet:vegetarian": "yes", "drink:beer": "draught", "drink:tea": "yes", "drink:wine": "yes", "happy_hours": "Mo-Fr 16:00-18:00", "internet_access": "wlan", "internet_access:fee": "no", "name": "The Grey Dog", "opening_hours": "Mo-Su 08:00-21:00", "opening_hours:signed": "no", "payment:cash": "yes", "payment:debit_cards": "yes", "payment:visa": "yes", "phone": "+1-212-966-1060", "takeaway": "yes", "toilets": "yes", "toilets:access": "permissive", "toilets:unisex": "yes", "website": "https://www.thegreydog.com/location/the-grey-dog-union-square/", "wheelchair": "yes"}}, {"type": "node", "id": 5757237337, "lat": 40.7376051, "lon": -73.9875777, "tags": {"addr:city": "New York", "addr:housenumber": "103", "addr:postcode": "10003", "addr:state": "NY", "addr:street": "East 19th Street", "amenity": "cafe", "cuisine": "coffee_shop", "name": "Daily Provisions", "phone": "+1-646-503-4440", "website": "https://www.dailyprovisionsnyc.com/"}}, {"type": "node", "id": 5824798471, "lat": 40.7366611, "lon": -73.9913319, "tags": {"addr:city": "New York", "addr:housenumber": "28", "addr:postcode": "10003", "addr:state": "NY", "addr:street": "East 16th Street", "amenity": "bar", "cocktails": "yes", "cuisine": "mexican", "delivery": "yes", "drink:beer": "yes", "drink:liquor": "yes", "drink:wine": "yes", "drive_through": "no", "name": "Flats Fix", "outdoor_seating": "yes", "phone": "+1-914-435-0515", "takeaway": "yes", "website": "https://www.flatsfix.com/location/union-square/"}}, {"type": "node", "id": 5866143628, "lat": 40.7367294, "lon": -73.9873227, "tags": {"addr:city": "New York", "addr:housenumber": "123", "addr:postcode": "10003", "addr:state": "NY", "addr:street": "East 18th Street", "amenity": "restaurant", "bar": "yes", "cuisine": "italian", "name": "Paul & Jimmy's Ristorante", "not:brand:wikidata": "Q3370417", "opening_hours": "Tu 12:00-22:00; We-Fr 12:00-23:00; Sa 13:00-23:00; Su 13:00-22:00", "outdoor_seating": "sidewalk;street", "phone": "+1-212-475-9540", "website": "https://www.paulandjimmys.com/"}}, {"type": "node", "id": 5866143629, "lat": 40.7367842, "lon": -73.9874574, "tags": {"addr:city": "New York", "addr:housenumber": "119", "addr:postcode": "10003", "addr:state": "NY", "addr:street": "East 18th Street", "amenity": "restaurant", "bar": "yes", "cuisine": "tex-mex", "delivery": "yes", "drive_through": "no", "email": "unionsquare@javelinatexmex.com", "level": "0", "name": "Javelina", "opening_hours": "Mo-Th 11:00-15:00,17:00-22:00; Fr 11:00-15:00,17:00-23:00; Sa 11:00-16:00,17:00-23:00; Su 11:00-16:00,17:00-21:00", "phone": "+1-212-539-0202", "takeaway": "yes", "website": "https://www.javelinatexmex.com/location/javelina-union-square/"}}, {"type": "node", "id": 6032479080, "lat": 40.7336295, "lon": -73.9932341, "tags": {"addr:housenumber": "86", "addr:postcode": "10003", "addr:street": "University Place", "amenity": "restaurant", "check_date": "2022-10-01", "cocktails": "yes", "cuisine": "mexican", "delivery": "yes", "drink:beer": "yes", "name": "El Cantinero", "opening_hours": "Mo-Th, Su 11:30-24:00; Fr, Sa 11:30-04:00", "payment:american_express": "yes", "payment:credit_cards": "yes", "payment:debit_cards": "yes", "payment:mastercard": "yes", "payment:visa": "yes", "phone": "+1 212-255-9378", "website": "http://elcantineronyc.com", "wheelchair": "no"}}, {"type": "node", "id": 6221183785, "lat": 40.7347592, "lon": -73.9925643, "tags": {"amenity": "cafe", "name": "Nutella caf\u00e9"}}, {"type": "node", "id": 6278117442, "lat": 40.7380991, "lon": -73.9876326, "tags": {"addr:housenumber": "249", "addr:postcode": "10003", "addr:street": "Park Avenue South", "amenity": "restaurant", "cocktails": "yes", "contact:facebook": "https://www.facebook.com/LExpressNYC/", "contact:instagram": "https://www.instagram.com/lexpressnyc", "cuisine": "french", "delivery": "yes", "indoor_seating": "yes", "level": "0", "name": "L'Express", "opening_hours": "24/7", "outdoor_seating": "yes", "phone": "+1 212-254-5858", "reservation": "yes", "website": "https://lexpressnyc.com"}}, {"type": "node", "id": 6397263568, "lat": 40.7349714, "lon": -73.9876825, "tags": {"addr:city": "New York", "addr:housenumber": "30", "addr:postcode": "10003", "addr:state": "NY", "addr:street": "Irving Place", "level": "11", "name": "Innovid", "office": "company", "phone": "+1-212-966-7555"}}, {"type": "node", "id": 6582979385, "lat": 40.7368428, "lon": -73.9906883, "tags": {"addr:housenumber": "35", "addr:postcode": "10003", "addr:street": "Union Square West", "amenity": "restaurant", "bar": "yes", "check_date": "2024-01-18", "cocktails": "yes", "cuisine": "korean", "drink:beer": "draught", "drink:liquor": "yes", "drink:wine": "yes", "happy_hours": "Mo-Su 16:00-18:00", "name": "Barn Joo", "opening_hours": "Mo-We 12:00-22:00; Th-Sa 12:00-23:00; Su 12:00-22:00", "outdoor_seating": "sidewalk", "phone": "+1-646-398-9663"}}, {"type": "node", "id": 6612404170, "lat": 40.735804, "lon": -73.9926767, "tags": {"amenity": "cafe", "check_date": "2024-06-10", "cuisine": "cafe", "level": "0", "name": "Le Caf\u00e9 coffee", "opening_hours:signed": "no", "outdoor_seating": "yes", "takeaway": "yes", "toilets": "no", "wheelchair": "yes"}}, {"type": "node", "id": 6621617751, "lat": 40.7347019, "lon": -73.9929545, "tags": {"amenity": "cafe", "cuisine": "cacao", "level": "0", "name": "Blue stripes", "outdoor_seating": "yes", "smoking": "no", "takeaway": "yes", "toilets": "yes", "toilets:access": "customers", "toilets:disposal": "flush", "toilets:position": "seated", "toilets:wheelchair": "yes", "website": "https://www.bluestripes.com", "wheelchair": "yes"}}, {"type": "node", "id": 6817950285, "lat": 40.7376211, "lon": -73.9899652, "tags": {"amenity": "restaurant", "name": "Juice Generation"}}, {"type": "node", "id": 6853619386, "lat": 40.7364946, "lon": -73.9930574, "tags": {"amenity": "bar", "name": "Skylark"}}, {"type": "node", "id": 7047617885, "lat": 40.7361389, "lon": -73.9874097, "tags": {"addr:housenumber": "55", "addr:postcode": "10003", "addr:street": "Irving Place", "amenity": "bar", "name": "Dear Irving", "opening_hours": "Mo-We 17:00-25:00; Th-Fr 17:00-26:00; Sa 16:00-26:00; Su 16:00-25:00", "reservation": "yes", "website": "https://www.dearirving.com", "website:booking": "https://resy.com/cities/ny/dear-irving-gramercy"}}, {"type": "node", "id": 7181886293, "lat": 40.7347904, "lon": -73.9905721, "tags": {"barrier": "kerb", "kerb": "lowered", "note": "Ramp Width: 112 cm Ramp Slope: 5.8 cm", "tactile_paving": "no", "wheelchair": "limited"}}, {"type": "node", "id": 7181886294, "lat": 40.7348282, "lon": -73.9905865, "tags": {"barrier": "kerb", "kerb": "lowered", "note": "Ramp Width: 114 cm Ramp Slope: 5.1 cm", "tactile_paving": "no", "wheelchair": "limited"}}, {"type": "node", "id": 7181886296, "lat": 40.7348964, "lon": -73.9907299, "tags": {"barrier": "kerb", "kerb": "lowered", "note": "Ramp Width: 147 cm Ramp Slope: 3.8 cm", "tactile_paving": "yes"}}, {"type": "node", "id": 7295634301, "lat": 40.736925, "lon": -73.991869}, {"type": "node", "id": 7360048870, "lat": 40.7382829, "lon": -73.9880343, "tags": {"addr:housenumber": "250", "addr:postcode": "10003", "addr:street": "Park Avenue South", "amenity": "restaurant", "cuisine": "mediterranean", "level": "0", "name": "Barbounia", "phone": "+1-212-995-0242", "website": "https://barbounia.com"}}, {"type": "node", "id": 7360048871, "lat": 40.7379953, "lon": -73.9876977, "tags": {"addr:housenumber": "245", "addr:postcode": "10003", "addr:street": "Park Avenue South", "amenity": "restaurant", "cuisine": "seafood", "level": "0", "name": "Farmers & the Fish", "phone": "+1-646-798-6151", "website": "https://www.farmerandthefishnyc.com"}}, {"type": "node", "id": 7360048872, "lat": 40.7378703, "lon": -73.9877775, "tags": {"addr:housenumber": "239", "addr:postcode": "10003", "addr:street": "Park Avenue South", "amenity": "restaurant", "cuisine": "sushi", "level": "0", "name": "MoMo", "phone": "+1-212-677-7001", "website": "https://momonyc.com/"}}, {"type": "node", "id": 7360048873, "lat": 40.7377576, "lon": -73.9878579, "tags": {"addr:housenumber": "235", "addr:postcode": "10003", "addr:street": "Park Avenue South", "amenity": "cafe", "level": "0", "name": "Union Square Cafe", "phone": "+1-212-243-4020", "website": "https://www.unionsquarecafe.com"}}, {"type": "node", "id": 7360048875, "lat": 40.7373226, "lon": -73.9881724, "tags": {"addr:housenumber": "225", "addr:postcode": "10003", "addr:street": "Park Avenue South", "amenity": "restaurant", "cuisine": "french", "level": "0", "name": "Boucherie", "phone": "+1-212-353-0200", "website": "http://boucherie.nyc/"}}, {"type": "node", "id": 7360048881, "lat": 40.7365859, "lon": -73.9887196, "tags": {"addr:housenumber": "201", "addr:postcode": "10003", "addr:street": "Park Avenue South", "amenity": "restaurant", "bar": "yes", "cuisine": "american", "level": "0", "name": "Irvington", "opening_hours:signed": "no", "phone": "+1-212-677-0425", "website": "https://www.irvingtonnyc.com"}}, {"type": "node", "id": 7844677285, "lat": 40.7372559, "lon": -73.9910466, "tags": {"amenity": "restaurant", "cuisine": "poke", "name": "Poke Bowl", "opening_hours": "Mo-Sa 11:00-22:00; Su 11:00-20:00", "website": "https://pokebowlny.com/locations/union-square/"}}, {"type": "node", "id": 8310246242, "lat": 40.7352225, "lon": -73.9915708, "tags": {"barrier": "kerb", "kerb": "lowered", "tactile_paving": "no"}}, {"type": "node", "id": 8310246243, "lat": 40.7352969, "lon": -73.9916171, "tags": {"barrier": "kerb", "kerb": "lowered", "tactile_paving": "no"}}, {"type": "node", "id": 8310246262, "lat": 40.735972, "lon": -73.9896137, "tags": {"barrier": "kerb", "kerb": "lowered"}}, {"type": "node", "id": 8310246267, "lat": 40.7353395, "lon": -73.9900726, "tags": {"barrier": "kerb", "kerb": "lowered", "tactile_paving": "yes"}}, {"type": "node", "id": 8310246270, "lat": 40.7369309, "lon": -73.9901782}, {"type": "node", "id": 8310246271, "lat": 40.7369622, "lon": -73.9902333}, {"type": "node", "id": 8310246272, "lat": 40.7369885, "lon": -73.9902622}, {"type": "node", "id": 8310246273, "lat": 40.7370481, "lon": -73.9903519}, {"type": "node", "id": 8310246274, "lat": 40.7370548, "lon": -73.9903352}, {"type": "node", "id": 8310246275, "lat": 40.7370548, "lon": -73.9903194}, {"type": "node", "id": 8310246276, "lat": 40.7370356, "lon": -73.9902973}, {"type": "node", "id": 8310246280, "lat": 40.7363709, "lon": -73.9908391}, {"type": "node", "id": 8310246392, "lat": 40.7370425, "lon": -73.9903573, "tags": {"barrier": "kerb", "kerb": "lowered"}}, {"type": "node", "id": 8569045548, "lat": 40.7345791, "lon": -73.9899916, "tags": {"barrier": "kerb", "kerb": "lowered", "tactile_paving": "yes"}}, {"type": "node", "id": 8569045552, "lat": 40.7345629, "lon": -73.9900266, "tags": {"barrier": "kerb", "kerb": "lowered"}}, {"type": "node", "id": 8569045553, "lat": 40.7345642, "lon": -73.9900078}, {"type": "node", "id": 8569045568, "lat": 40.7358395, "lon": -73.9912234, "tags": {"barrier": "kerb", "kerb": "lowered"}}, {"type": "node", "id": 8569045580, "lat": 40.7348546, "lon": -73.9905777}, {"type": "node", "id": 8569045602, "lat": 40.7350701, "lon": -73.9900331}, {"type": "node", "id": 8569045605, "lat": 40.73521, "lon": -73.9899952}, {"type": "node", "id": 8569045606, "lat": 40.7352569, "lon": -73.98997}, {"type": "node", "id": 8569048121, "lat": 40.7351343, "lon": -73.9900216}, {"type": "node", "id": 8569048128, "lat": 40.7350746, "lon": -73.9901929}, {"type": "node", "id": 8569048149, "lat": 40.7351745, "lon": -73.9900696}, {"type": "node", "id": 8569048153, "lat": 40.7345657, "lon": -73.9900419}, {"type": "node", "id": 8902260459, "lat": 40.7362888, "lon": -73.991817, "tags": {"addr:city": "New York", "addr:housenumber": "21", "addr:postcode": "10003", "addr:state": "NY", "addr:street": "East 15th Street", "amenity": "restaurant", "cuisine": "poke;bubble_tea", "internet_access:fee": "no", "name": "Pokeworks", "opening_hours": "10:30-21:00", "phone": "+1-646-609-8848", "website": "https://pokeworks.com/"}}, {"type": "node", "id": 8902290376, "lat": 40.7362386, "lon": -73.9917531, "tags": {"addr:housenumber": "15", "addr:street": "East 15th Street", "amenity": "bar", "level": "0", "name": "Park Bar", "outdoor_seating": "yes"}}, {"type": "node", "id": 8937352335, "lat": 40.7349885, "lon": -73.9936244, "tags": {"addr:full": "13th Street. 47 W 13th St, New York, NY 10011, USA", "name": "Tutors Umbrella", "office": "company", "website": "https://www.tutorsumbrella.com/"}}, {"type": "node", "id": 9140853417, "lat": 40.7359676, "lon": -73.9940291, "tags": {"amenity": "restaurant", "check_date": "2024-06-10", "name": "Champion Pizza"}}, {"type": "node", "id": 9345848066, "lat": 40.7375739, "lon": -73.9927295, "tags": {"addr:city": "New York", "addr:housenumber": "110", "addr:postcode": "10011", "addr:state": "NY", "addr:street": "5th Avenue", "name": "Columbia Vitolo Team at Compass", "office": "estate_agent", "opening_hours": "Mo-Fr 08:00-19:00; Su 09:00-18:00", "phone": "+1-212-941-7670", "website": "https://www.columbiavitoloteam.com"}}, {"type": "node", "id": 9709984690, "lat": 40.7336744, "lon": -73.9883102, "tags": {"amenity": "restaurant", "name": "Farook's Halal Cart"}}, {"type": "node", "id": 9848992562, "lat": 40.7332657, "lon": -73.9929743, "tags": {"addr:city": "New York", "addr:housenumber": "41", "addr:postcode": "10003", "addr:state": "NY", "addr:street": "East 11th Street", "amenity": "restaurant", "diet:gluten_free": "yes", "diet:vegan": "only", "name": "Peacefood", "phone": "+1-212-979-2288", "shop": "pastry", "website": "https://www.peacefoodnyc.com/"}}, {"type": "node", "id": 10174519057, "lat": 40.7348679, "lon": -73.9905618}, {"type": "node", "id": 10174519058, "lat": 40.7348381, "lon": -73.9905844}, {"type": "node", "id": 10174519059, "lat": 40.7347997, "lon": -73.9905826}, {"type": "node", "id": 10174519060, "lat": 40.7348146, "lon": -73.990588}, {"type": "node", "id": 10174519061, "lat": 40.7352638, "lon": -73.9899799}, {"type": "node", "id": 10174519062, "lat": 40.7352626, "lon": -73.9899753, "tags": {"barrier": "kerb", "kerb": "raised", "tactile_paving": "yes"}}, {"type": "node", "id": 10174519063, "lat": 40.7352599, "lon": -73.9899713}, {"type": "node", "id": 10174519064, "lat": 40.7352175, "lon": -73.990024}, {"type": "node", "id": 10174519065, "lat": 40.7351193, "lon": -73.9901329}, {"type": "node", "id": 10174519066, "lat": 40.7350253, "lon": -73.9902651}, {"type": "node", "id": 10174523970, "lat": 40.7349303, "lon": -73.9904415}, {"type": "node", "id": 10174523979, "lat": 40.7352778, "lon": -73.9916305}, {"type": "node", "id": 10174523980, "lat": 40.7352659, "lon": -73.9916334}, {"type": "node", "id": 10174523981, "lat": 40.7352539, "lon": -73.9916313}, {"type": "node", "id": 10174523988, "lat": 40.7350634, "lon": -73.9911982}, {"type": "node", "id": 10174523989, "lat": 40.7350956, "lon": -73.9912119}, {"type": "node", "id": 10174523990, "lat": 40.735177, "lon": -73.991399}, {"type": "node", "id": 10174523991, "lat": 40.7348956, "lon": -73.9907829}, {"type": "node", "id": 10174523992, "lat": 40.7348939, "lon": -73.9907533}, {"type": "node", "id": 10174524164, "lat": 40.7363976, "lon": -73.9908047}, {"type": "node", "id": 10174524165, "lat": 40.7363785, "lon": -73.9908314}, {"type": "node", "id": 10174524166, "lat": 40.7363883, "lon": -73.9908141}, {"type": "node", "id": 10174524194, "lat": 40.7351029, "lon": -73.9903317}, {"type": "node", "id": 10174524195, "lat": 40.7352085, "lon": -73.9901884}, {"type": "node", "id": 10174524310, "lat": 40.7370512, "lon": -73.9903073}, {"type": "node", "id": 10174524311, "lat": 40.7370443, "lon": -73.9903018}, {"type": "node", "id": 10174524312, "lat": 40.7370525, "lon": -73.9903438}, {"type": "node", "id": 10174524734, "lat": 40.736472, "lon": -73.9892796}, {"type": "node", "id": 10174524735, "lat": 40.7364224, "lon": -73.9892889}, {"type": "node", "id": 10174524736, "lat": 40.7364485, "lon": -73.9892807}, {"type": "node", "id": 10174524737, "lat": 40.7365757, "lon": -73.9893462}, {"type": "node", "id": 10174524738, "lat": 40.7365397, "lon": -73.9893085}, {"type": "node", "id": 10174524739, "lat": 40.7365577, "lon": -73.9893236}, {"type": "node", "id": 10174832596, "lat": 40.736573, "lon": -73.9903443}, {"type": "node", "id": 10174832597, "lat": 40.7365583, "lon": -73.9903082}, {"type": "node", "id": 10174832598, "lat": 40.73652, "lon": -73.9903353}, {"type": "node", "id": 10174832599, "lat": 40.7365347, "lon": -73.9903714}, {"type": "node", "id": 10174832612, "lat": 40.736532, "lon": -73.9903646}, {"type": "node", "id": 10174832613, "lat": 40.7365691, "lon": -73.9903349}, {"type": "node", "id": 10174832644, "lat": 40.736536, "lon": -73.9906998}, {"type": "node", "id": 10174832645, "lat": 40.7365737, "lon": -73.9906927}, {"type": "node", "id": 10174832646, "lat": 40.736549, "lon": -73.9906955}, {"type": "node", "id": 10558408063, "lat": 40.7345239, "lon": -73.9919739, "tags": {"amenity": "bar", "level": "3", "name": "13"}}, {"type": "node", "id": 10585445259, "lat": 40.7358652, "lon": -73.9876113, "tags": {"addr:housenumber": "122", "addr:postcode": "10003", "addr:street": "East 17th Street", "amenity": "restaurant", "cuisine": "japanese", "delivery": "yes", "name": "Yama", "opening_hours": "Mo-Th 17:00-21:00; Fr-Sa 17:00-22:00", "outdoor_seating": "street", "phone": "+1-212-475-0969", "takeaway": "yes", "website": "https://springtail-rhombus-2bch.squarespace.com"}}, {"type": "node", "id": 10598513286, "lat": 40.7377801, "lon": -73.9886747, "tags": {"addr:city": "New York", "addr:housenumber": "228", "addr:postcode": "10003", "addr:state": "NY", "addr:street": "Park Ave South", "addr:unit": "79525", "name": "Novilla Net", "office": "company", "phone": "+18328154704", "website": "https://www.novilla.net"}}, {"type": "node", "id": 10695864090, "lat": 40.7374343, "lon": -73.9903996, "tags": {"addr:city": "New York", "addr:housenumber": "861", "addr:postcode": "10003", "addr:state": "NY", "addr:street": "Broadway", "amenity": "cafe", "check_date": "2025-04-20", "cuisine": "dessert;chocolate;ice_cream", "name": "Venchi", "website": "https://us.venchi.com/store/broadway"}}, {"type": "node", "id": 10923081782, "lat": 40.7337972, "lon": -73.989668, "tags": {"addr:housenumber": "143", "addr:postcode": "10003", "addr:street": "4th Avenue", "amenity": "restaurant", "branch": "Union Square", "brand": "CAVA", "brand:wikidata": "Q85751038", "cuisine": "mediterranean", "level": "0", "name": "CAVA", "opening_hours": "Mo-Su 10:45-22:00", "phone": "+1-646-688-5067", "website": "https://cava.com/locations/union-square-ny"}}, {"type": "node", "id": 10923174175, "lat": 40.7338591, "lon": -73.9896639, "tags": {"addr:housenumber": "145", "addr:postcode": "10003", "addr:street": "4th Avenue", "amenity": "cafe", "branch": "Union Square", "name": "Le Caf\u00e9 Coffee"}}, {"type": "node", "id": 11241986539, "lat": 40.7367558, "lon": -73.9873901, "tags": {"name": "Options Group", "office": "company", "phone": "+1-212-982-0900", "website": "https://www.optionsgroup.com"}}, {"type": "node", "id": 11241986543, "lat": 40.7368581, "lon": -73.987637, "tags": {"addr:housenumber": "115", "addr:postcode": "10003", "addr:street": "East 18th Street", "alt_name": "Gupshup Bombay House", "amenity": "restaurant", "cuisine": "indian", "name": "Gupshup", "opening_hours": "Mo-We 17:00-22:00; Th 17:00-23:00; Fr-Sa 11:30-15:30,16:30-23:00; Su 11:30-15:30,16:30-22:00", "outdoor_seating": "street", "phone": "+1-212-518-7313", "website": "https://www.gupshupnyc.com"}}, {"type": "node", "id": 11258926651, "lat": 40.7339533, "lon": -73.9931568, "tags": {"addr:city": "New York", "addr:housenumber": "28", "addr:postcode": "10003", "addr:state": "NY", "addr:street": "East 12th Street", "amenity": "restaurant", "cuisine": "mexican", "name": "Dorado", "phone": "+1 212 627 0900", "website": "https://www.doradotacos.com/"}}, {"type": "node", "id": 11258926652, "lat": 40.7339291, "lon": -73.9930929, "tags": {"addr:city": "New York", "addr:housenumber": "28", "addr:postcode": "10003", "addr:state": "NY", "addr:street": "East 12th Street", "amenity": "restaurant", "cuisine": "cuban", "name": "Sophie's Cuban Cuisine", "phone": "+1 646 398 7481", "website": "https://www.sophiescuban.com"}}, {"type": "node", "id": 11258947744, "lat": 40.7340101, "lon": -73.9932822, "tags": {"addr:city": "New York", "addr:housenumber": "24", "addr:postcode": "10003", "addr:state": "NY", "addr:street": "East 12th Street", "amenity": "restaurant", "cuisine": "chicken", "name": "Fields Good Chicken", "opening_hours": "Mo-Su 11:00-21:00", "phone": "+1 646 895 6831", "website": "https://www.fieldsgoodchicken.com"}}, {"type": "node", "id": 11347087420, "lat": 40.7343055, "lon": -73.9934609, "tags": {"amenity": "restaurant", "bar": "yes", "cocktails": "yes", "name": "Strip House", "opening_hours": "Mo 16:00-21:00; Tu-Th 16:00-22:00; Fr-Sa 16:00-23:00; Su 16:00-21:00", "opening_hours:signed": "no", "phone": "+1-212 328-0000", "website": "https://www.striphouse.com/location/striphouse-downtown/", "wikidata": "Q7624069", "wikipedia": "en:Strip House"}}, {"type": "node", "id": 11380488215, "lat": 40.7338012, "lon": -73.9930834, "tags": {"addr:housenumber": "90", "addr:postcode": "10003", "addr:street": "University Place", "amenity": "restaurant", "cuisine": "japanese", "name": "Japonica", "opening_hours": "Mo-Su 12:00-22:00", "phone": "+1 212 243 7752", "website": "https://japonicanyc.com/"}}, {"type": "node", "id": 11476841566, "lat": 40.7350479, "lon": -73.9932044, "tags": {"addr:city": "New York", "addr:housenumber": "11", "addr:postcode": "10003", "addr:state": "NY", "addr:street": "East 13th Street", "amenity": "restaurant", "cuisine": "mediterranean", "delivery": "no", "name": "Reyna", "phone": "+1 917 259 1300", "website": "https://www.reynanewyork.com/"}}, {"type": "node", "id": 11509837680, "lat": 40.7366142, "lon": -73.9912191, "tags": {"addr:housenumber": "32", "addr:postcode": "10003", "addr:street": "East 16th Street", "amenity": "restaurant", "cuisine": "southern;chicken", "drink:beer": "yes", "drink:liquor": "yes", "drink:wine": "yes", "name": "Sweet Chick", "opening_hours": "Mo-Th 10:00-21:00; Fr 10:00-22:00; Sa 09:00-22:00", "takeaway": "yes", "website": "https://www.sweetchick.com/location/union-square/"}}, {"type": "node", "id": 11528299370, "lat": 40.735545, "lon": -73.9882133, "tags": {"addr:housenumber": "109", "addr:street": "East 16th Street", "check_date": "2024-01-18", "government": "administrative", "level": "0", "name": "NYC Human Resources Administration", "office": "government", "wheelchair": "yes"}}, {"type": "node", "id": 11746463839, "lat": 40.7349796, "lon": -73.993027, "tags": {"addr:city": "New York", "addr:housenumber": "17", "addr:postcode": "10003", "addr:state": "NY", "addr:street": "East 13th Street", "amenity": "bar", "email": "hello@singlishnyc.com", "name": "Singlish", "opening_hours": "Tu-Su 17:30-24:00", "phone": "+16466092633", "website": "https://singlishnyc.com"}}, {"type": "node", "id": 11748179935, "lat": 40.7360524, "lon": -73.9874848, "tags": {"addr:city": "New York", "addr:housenumber": "51", "addr:postcode": "10003", "addr:state": "NY", "addr:street": "Irving Place", "amenity": "restaurant", "cuisine": "italian", "email": "info@lamericana-nyc.com", "name": "L\u2019Americana", "opening_hours": "Mo-Sa 17:00-24:00", "reservation:website": "https://resy.com/cities/ny/lamericana", "website": "https://www.lamericana-nyc.com"}}, {"type": "node", "id": 12072440227, "lat": 40.735303, "lon": -73.9916126}, {"type": "node", "id": 12075553434, "lat": 40.7367304, "lon": -73.9897035, "tags": {"barrier": "kerb", "kerb": "lowered"}}, {"type": "node", "id": 12200487947, "lat": 40.7335751, "lon": -73.9897, "tags": {"addr:city": "New York", "addr:housenumber": "133", "addr:postcode": "10003", "addr:state": "NY", "addr:street": "4th Avenue", "amenity": "cafe", "branch": "Union Square", "contact:instagram": "lovemiusa", "cuisine": "bubble_tea", "name": "Love Mi Yogurt", "phone": "+1-646-767-9868", "website": "https://www.lovemiusa.com/"}}, {"type": "node", "id": 12331073196, "lat": 40.7379164, "lon": -73.9883261, "tags": {"amenity": "cafe", "brand": "Starbucks", "brand:wikidata": "Q37158", "cuisine": "coffee_shop", "drink:coffee": "yes", "drink:espresso": "yes", "drink:tea": "yes", "name": "Starbucks", "official_name": "Starbucks Coffee", "opening_hours": "Mo-Fr 05:30-18:30, Sa-Su 07:00-18:30", "takeaway": "yes"}}, {"type": "node", "id": 12373675569, "lat": 40.736072, "lon": -73.9918636, "tags": {"addr:city": "New York", "addr:housenumber": "15", "addr:postcode": "10003", "addr:state": "NY", "addr:street": "Union Square West", "amenity": "restaurant", "cuisine": "french;spanish", "delivery": "yes", "diet:kosher": "yes", "diet:vegan": "yes", "diet:vegetarian": "yes", "name": "Le Basque French Vegan Restaurant", "opening_hours": "Mo-Th 16:30-22:30; Fr 16:30-23:30; Sa 11:30-23:30; Su 11:30-22:30", "phone": "+1 212 457 6261", "takeaway": "yes", "website": "https://lebasquenyc.com/", "wikidata": "Q136351787"}}, {"type": "node", "id": 12432067901, "lat": 40.7376627, "lon": -73.991342, "tags": {"addr:postcode": "10003", "amenity": "restaurant", "contact:instagram": "pastaeaternyc", "cuisine": "italian", "email": "info@pasta-eater.com", "name": "Pasta Eater", "opening_hours": "Mo-Fr 11:30-23:00; Sa-Su 11:30-22:00", "phone": "+12126275910", "website": "https://pasta-eater.com/"}}, {"type": "node", "id": 12450362420, "lat": 40.7345717, "lon": -73.9878085, "tags": {"amenity": "pub", "cocktails": "yes", "cuisine": "pub", "drink:beer": "draught", "drink:liquor": "yes", "drink:wine": "yes", "name": "Shades of Green"}}, {"type": "node", "id": 12662645402, "lat": 40.733396, "lon": -73.9930049, "tags": {"addr:housenumber": "81", "addr:postcode": "10003", "addr:street": "University Place", "amenity": "restaurant", "contact:facebook": "VillageTaverna", "contact:instagram": "villagetaverna", "contact:twitter": "village_taverna", "cuisine": "greek", "name": "Village Taverna", "opening_hours": "Mo-Su 11:00-23:00", "phone": "+1-212-982-3457", "website": "https://www.villagetaverna.com", "website:menu": "https://www.villagetaverna.com/phone/menus.html"}}, {"type": "node", "id": 12709183134, "lat": 40.7341459, "lon": -73.9923988, "tags": {"addr:housenumber": "107", "addr:postcode": "10003", "addr:street": "University Place", "amenity": "cafe", "cuisine": "breakfast;sandwich", "name": "NewsBar", "opening_hours": "Mo-Fr 06:30-18:00, Sa 07:30-17:00", "outdoor_seating": "sidewalk", "phone": "+1-212-353-1246", "website": "https://www.newsbarny.com"}}, {"type": "node", "id": 12773041767, "lat": 40.7346739, "lon": -73.9909928, "tags": {"amenity": "cafe", "name": "Capital One Caf\u00e9"}}, {"type": "node", "id": 12893601984, "lat": 40.7356607, "lon": -73.9923922, "tags": {"addr:city": "New York", "addr:housenumber": "7", "addr:postcode": "10003", "addr:state": "NY", "addr:street": "East 14th Street", "amenity": "cafe", "cuisine": "bubble_tea", "name": "Jooy Tea Shoppe", "phone": "+1-212-381-6193", "website": "https://www.jooyteashoppe.com/"}}, {"type": "node", "id": 13043042757, "lat": 40.7381477, "lon": -73.9906882, "tags": {"amenity": "restaurant", "bar": "yes", "branch": "Union Square", "cocktails": "yes", "cuisine": "italian;breakfast", "delivery": "yes", "drink:beer": "yes", "drink:espresso": "yes", "drink:wine": "yes", "happy_hours": "Mo-Su 16:00-18:00", "name": "Tarallucci e Vino", "opening_hours": "Mo-Th 08:00-22:30, Sa 09:00-23:00, Su 11:00-22:30", "outdoor_seating": "yes", "phone": "+1-212-228-5400", "takeaway": "yes", "website": "https://www.taralluccievino.net/union-square-location"}}, {"type": "node", "id": 13043042759, "lat": 40.738039, "lon": -73.9886026, "tags": {"amenity": "restaurant", "bar": "yes", "cocktails": "yes", "cuisine": "italian", "delivery": "yes", "drink:beer": "yes", "drink:wine": "yes", "happy_hours": "Mo-Sa 17:00-18:30", "name": "Vallata", "opening_hours": "Mo 17:00-21:00; Tu-Th 11:30-15:00, 17:00-21:00, Fr-Sa 11:30-15:00, 17:00-21:30", "outdoor_seating": "sidewalk", "phone": "+1-212-461-4300", "takeaway": "yes"}}, {"type": "node", "id": 13094686852, "lat": 40.7361017, "lon": -73.9890842, "tags": {"amenity": "restaurant", "name": "pizazz"}}, {"type": "node", "id": 13107985270, "lat": 40.735567, "lon": -73.9893851, "tags": {"addr:city": "New York", "addr:housenumber": "32", "addr:postcode": "10003", "addr:state": "NY", "addr:street": "Union Square East", "amenity": "cafe", "branch": "Union Square", "brand": "FIFTYLAN", "cuisine": "bubble_tea", "name": "FIFTYLAN"}}, {"type": "node", "id": 13166891301, "lat": 40.7332959, "lon": -73.9916085, "tags": {"amenity": "restaurant", "name": "Ribalta"}}, {"type": "way", "id": 22819463, "nodes": [7181886293, 8569048153, 8569045552, 8569045553, 8569045548, 245509615, 3670742443, 245509616, 8569045602, 8569048121, 8569045605, 8569045606, 10174519063, 10174519062, 10174519061, 245509617, 10174519064, 8569048149, 10174519065, 8569048128, 10174519066, 3670742466, 10174523970, 10174519057, 8569045580, 10174519058, 7181886294, 10174519060, 10174519059, 7181886293]}, {"type": "way", "id": 109294057, "nodes": [8310246392, 8310246273, 10174524312, 8310246274, 8310246275, 10174524310, 10174524311, 8310246276, 3875000773, 8310246272, 8310246271, 8310246270, 12075553434, 1251605813], "tags": {"ref:nrhp": "97001678", "wikidata": "Q110007"}}, {"type": "way", "id": 247862297, "nodes": [2547200492, 2547200491, 2547200478, 2547200489, 2547200498, 2547200497, 2547200492], "tags": {"amenity": "university", "internet_access": "yes", "name": "Parsons School of Design", "website": "https://www.newschool.edu/parsons/"}}, {"type": "way", "id": 247862492, "nodes": [2547205708, 2547205697, 2547205711, 2547205745, 2547205729, 2547205708], "tags": {"addr:city": "New York", "addr:housenumber": "114", "addr:postcode": "10003", "addr:street": "3rd Avenue", "amenity": "cafe", "atm": "yes", "building": "yes", "building:colour": "#6F4E40", "building:levels": "2", "building:material": "brick", "cuisine": "bagel;sandwich", "drink:coffee": "yes", "drink:smoothie": "yes", "height": "6.6", "name": "Bagel Belly", "nycdoitt:bin": "1009080", "opening_hours": "Mo-Th 06:30-15:30; Fr 06:30-16:00; Sa 07:00-16:00; Su 08:00-15:30", "outdoor_seating": "garden", "phone": "+1-212-353-2299", "roof:material": "concrete", "roof:shape": "flat", "website": "https://www.bagelbelly.com", "wheelchair": "yes"}}, {"type": "way", "id": 247862527, "nodes": [2547205761, 2547205765, 3238681550, 2279533265, 2547205708, 2547205729, 2547205761], "tags": {"addr:city": "New York", "addr:housenumber": "150", "addr:postcode": "10003", "addr:street": "East 14th Street", "amenity": "restaurant", "building": "yes", "building:colour": "#F7F8FA", "building:levels": "1", "cuisine": "korean;barbecue", "height": "4.4", "name": "Gen Korean BBQ House", "nycdoitt:bin": "1080124", "opening_hours": "Mo-Th, Su 11:00-00:00; Fr, Sa 11:00-02:00", "roof:material": "concrete", "roof:shape": "flat", "website": "https://www.genkoreanbbq.com/", "wheelchair": "yes"}}, {"type": "way", "id": 248773549, "nodes": [2555136264, 2555136257, 2555136244, 2555136200, 2555136225, 2555136275, 2555136266, 2555136264], "tags": {"addr:city": "New York", "addr:housenumber": "37", "addr:postcode": "10003", "addr:street": "East 18th Street", "building": "yes", "height": "45.8", "name": "Dstillery", "nycdoitt:bin": "1016148", "office": "company", "source": "Personal knowledge", "website": "https://www.dstillery.com/"}}, {"type": "way", "id": 248773603, "nodes": [2555136324, 2555136322, 2555136295, 2555136296, 2555136280, 2555136275, 2555136225, 2555136238, 2555136284, 2555136291, 2555136293, 2555136297, 2555136345, 2555136330, 2555136324], "tags": {"addr:housenumber": "35", "addr:postcode": "10003", "addr:street": "East 18th Street", "amenity": "restaurant", "building": "yes", "height": "31.6", "name": "ABC Kitchen", "nycdoitt:bin": "1080754"}}, {"type": "way", "id": 248773786, "nodes": [2555137454, 2855927779, 2555137483, 2555137502, 2555137482, 2555137454], "tags": {"addr:housenumber": "10", "addr:postcode": "10003", "addr:street": "East 15th Street", "amenity": "school", "building": "school", "fax": "+1-212-524-4365", "height": "10.2", "name": "The Clinton School", "nycdoitt:bin": "1016067", "phone": "+1-212-524-4360", "website": "https://theclintonschool.net"}}, {"type": "way", "id": 249657332, "nodes": [2562375027, 2562375020, 2562375024, 2562375025, 2562375036, 2562375031, 2562375027], "tags": {"addr:city": "New York", "addr:housenumber": "121", "addr:postcode": "10003", "addr:state": "NY", "addr:street": "East 17th Street", "amenity": "restaurant", "building": "yes", "cuisine": "american", "height": "6.9", "name": "The House", "nycdoitt:bin": "1082518", "opening_hours": "Mo 16:30-23:00; Tu-Fr 12:00-15:30,16:30-23:00; Sa 11:00-15:30,16:30-00:00; Su 11:00-15:30,16:30-23:00", "outdoor_seating": "yes", "phone": "+1-212-353-2121", "website": "http://hospitalityholdings.com/#/establishments/the_house"}}, {"type": "way", "id": 377077898, "nodes": [3804413327, 3804413328, 4759906017, 4759906016, 4759906015, 4759906014, 3804413329, 3804413330, 3804413327], "tags": {"addr:city": "New York", "addr:housenumber": "65", "addr:street": "5th Avenue", "amenity": "university", "building": "yes", "check_date": "2024-05-16", "height": "70", "internet_access": "wlan", "internet_access:fee": "no", "name": "The New School University Center", "nycdoitt:bin": "1088879", "operator": "The New School", "start_date": "2013", "toilets": "yes", "toilets:wheelchair": "yes", "wheelchair": "yes"}}, {"type": "way", "id": 781432807, "nodes": [419366238, 7295634301, 2555137568, 2555137567, 2555137529, 2555137532, 2555137570, 419366238], "tags": {"amenity": "university", "name": "The New School"}}, {"type": "way", "id": 1112132856, "nodes": [1251605840, 8310246262, 1251605878, 8310246267, 1251605741, 10174524195, 1251605900, 10174524194, 1251605898, 1251605819, 4579828838, 7181886296, 10174523992, 10174523991, 4285056098, 1251605761, 10174523988, 10174523989, 10174523990, 4579828845, 8310246242, 1251605792, 10174523981, 10174523980, 10174523979, 8310246243], "tags": {"ref:nrhp": "97001678", "wikidata": "Q110007"}}, {"type": "way", "id": 1112132881, "nodes": [8310246243, 12072440227, 4579828847, 8569045568, 5148103571, 8310246280, 10174524165, 10174524166, 10174524164, 5148103567, 10174832644, 10174832646, 10174832645, 5148103561, 8310246392], "tags": {"ref:nrhp": "97001678", "wikidata": "Q110007"}}, {"type": "way", "id": 1112132948, "nodes": [1251605813, 10174524737, 10174524739, 10174524738, 4579828840, 1251605838, 10174524734, 10174524736, 10174524735, 1251605764, 1251605840], "tags": {"ref:nrhp": "97001678", "wikidata": "Q110007"}}, {"type": "way", "id": 1112170141, "nodes": [10174832596, 10174832613, 10174832597, 10174832598, 10174832612, 10174832599, 10174832596], "tags": {"amenity": "cafe", "building": "yes", "check_date": "2024-01-18", "name": "Springbone", "opening_hours": "Mo-Fr 08:00-19:00; Sa 09:00-19:00; Su 09:00-16:00", "payment:cash": "yes", "payment:mastercard": "yes", "payment:visa": "yes", "website": "https://springbone.com", "wheelchair": "yes"}}, {"type": "relation", "id": 7095444, "members": [{"type": "way", "ref": 1112132881, "role": "outer"}, {"type": "way", "ref": 109294057, "role": "outer"}, {"type": "way", "ref": 1112132948, "role": "outer"}, {"type": "way", "ref": 1112132856, "role": "outer"}, {"type": "way", "ref": 22819463, "role": "outer"}], "tags": {"addr:city": "New York", "addr:housenumber": "201", "addr:postcode": "10003", "addr:state": "NY", "addr:street": "Park Avenue South", "description": "1", "leisure": "park", "name": "Union Square Park", "name:ja": "\u30e6\u30cb\u30aa\u30f3\u30b9\u30af\u30a8\u30a2\u516c\u5712", "name:ko": "\uc720\ub2c8\uc628 \uc2a4\ud018\uc5b4 \uacf5\uc6d0", "name:ru": "\u042e\u043d\u0438\u043e\u043d-\u0441\u043a\u0432\u0435\u0440", "operator": "New York City Department of Parks and Recreation", "operator:short": "NYC Parks", "operator:type": "government", "operator:wikidata": "Q1894232", "type": "multipolygon", "website": "https://www.nycgovparks.org/parks/union-square-park", "wikidata": "Q110007", "wikipedia": "en:Union Square, Manhattan"}}]}