{"version": 0.6, "generator": "Overpass API 0.7.62.8 e802775f", "osm3s": {"timestamp_osm_base": "2025-12-01T16:05:29Z", "copyright": "The data included in this document is from www.openstreetmap.org. The data is made available under ODbL."}, "elements": [{"type": "node", "id": 269458734, "lat": 40.7511643, "lon": -73.9936021}, {"type": "node", "id": 1241329531, "lat": 40.7469974, "lon": -73.9956547}, {"type": "node", "id": 1241329532, "lat": 40.7472345, "lon": -73.993548}, {"type": "node", "id": 1241329534, "lat": 40.747833, "lon": -73.9964099}, {"type": "node", "id": 1241329535, "lat": 40.7482947, "lon": -73.9960749}, {"type": "node", "id": 1241329536, "lat": 40.7473981, "lon": -73.9953673}, {"type": "node", "id": 1241329538, "lat": 40.7461235, "lon": -73.9943645}, {"type": "node", "id": 1514352926, "lat": 40.7505755, "lon": -73.9927027}, {"type": "node", "id": 1514352949, "lat": 40.7502639, "lon": -73.9941512}, {"type": "node", "id": 1514352954, "lat": 40.7507739, "lon": -73.9926697}, {"type": "node", "id": 1514352956, "lat": 40.7502778, "lon": -73.9942695}, {"type": "node", "id": 1514352957, "lat": 40.7499658, "lon": -73.9929785}, {"type": "node", "id": 1514352960, "lat": 40.7499393, "lon": -73.9933898}, {"type": "node", "id": 1514352962, "lat": 40.7502619, "lon": -73.9942614}, {"type": "node", "id": 1514352963, "lat": 40.7499923, "lon": -73.99379}, {"type": "node", "id": 1514352965, "lat": 40.7504083, "lon": -73.9926039}, {"type": "node", "id": 1514352976, "lat": 40.7511242, "lon": -73.9937966}, {"type": "node", "id": 1514352978, "lat": 40.7505002, "lon": -73.9926989}, {"type": "node", "id": 1514352985, "lat": 40.7499368, "lon": -73.9934809}, {"type": "node", "id": 1514352989, "lat": 40.7504152, "lon": -73.9943169}, {"type": "node", "id": 1514352992, "lat": 40.749915, "lon": -73.9931276}, {"type": "node", "id": 1514352994, "lat": 40.750562, "lon": -73.9944193}, {"type": "node", "id": 1514352996, "lat": 40.7507748, "lon": -73.9927794}, {"type": "node", "id": 1514352998, "lat": 40.7503177, "lon": -73.9926797}, {"type": "node", "id": 1514353006, "lat": 40.7510539, "lon": -73.9931809}, {"type": "node", "id": 1514353009, "lat": 40.7510771, "lon": -73.993276}, {"type": "node", "id": 1514353012, "lat": 40.7500514, "lon": -73.9929144}, {"type": "node", "id": 1514353015, "lat": 40.7504139, "lon": -73.9926503}, {"type": "node", "id": 1514353017, "lat": 40.750624, "lon": -73.9926101}, {"type": "node", "id": 1514353021, "lat": 40.7510924, "lon": -73.9935322}, {"type": "node", "id": 1514353041, "lat": 40.750128, "lon": -73.9940308}, {"type": "node", "id": 1514353048, "lat": 40.7505244, "lon": -73.9943324}, {"type": "node", "id": 1514353051, "lat": 40.7500331, "lon": -73.9930406}, {"type": "node", "id": 1514353053, "lat": 40.7502061, "lon": -73.9927467}, {"type": "node", "id": 1514353055, "lat": 40.75003, "lon": -73.9938791}, {"type": "node", "id": 1514353058, "lat": 40.7500756, "lon": -73.9939597}, {"type": "node", "id": 1514353060, "lat": 40.7510948, "lon": -73.9938845}, {"type": "node", "id": 1514353062, "lat": 40.7510909, "lon": -73.9933748, "tags": {"entrance": "yes", "name": "Entrance D"}}, {"type": "node", "id": 1514353064, "lat": 40.7501084, "lon": -73.992839}, {"type": "node", "id": 1514353066, "lat": 40.749946, "lon": -73.9935996}, {"type": "node", "id": 1514353072, "lat": 40.7511133, "lon": -73.9940187}, {"type": "node", "id": 1514353074, "lat": 40.7500114, "lon": -73.9930874}, {"type": "node", "id": 1514353075, "lat": 40.750499, "lon": -73.9925924}, {"type": "node", "id": 1514353079, "lat": 40.7498726, "lon": -73.9933246}, {"type": "node", "id": 1514353085, "lat": 40.7509357, "lon": -73.9929368}, {"type": "node", "id": 1514353087, "lat": 40.7510233, "lon": -73.9930953}, {"type": "node", "id": 1514353088, "lat": 40.7504515, "lon": -73.9943249}, {"type": "node", "id": 1514353089, "lat": 40.7499644, "lon": -73.9936968}, {"type": "node", "id": 1514353091, "lat": 40.749994, "lon": -73.9931313}, {"type": "node", "id": 1514353098, "lat": 40.7510947, "lon": -73.9934669}, {"type": "node", "id": 1514353100, "lat": 40.7500254, "lon": -73.9928862}, {"type": "node", "id": 1514353102, "lat": 40.7502535, "lon": -73.9927148}, {"type": "node", "id": 1514353104, "lat": 40.7509807, "lon": -73.9930074}, {"type": "node", "id": 1514353108, "lat": 40.7501882, "lon": -73.9940933}, {"type": "node", "id": 1514353109, "lat": 40.7508158, "lon": -73.9928093}, {"type": "node", "id": 1514353110, "lat": 40.7510766, "lon": -73.993927}, {"type": "node", "id": 2307164608, "lat": 40.7468389, "lon": -73.9933857, "tags": {"amenity": "cafe", "name": "GiGi Cafe", "source": "survey"}}, {"type": "node", "id": 2307164619, "lat": 40.7446263, "lon": -73.9907963}, {"type": "node", "id": 2307164621, "lat": 40.7448876, "lon": -73.9906696}, {"type": "node", "id": 2307164625, "lat": 40.7445802, "lon": -73.9906883}, {"type": "node", "id": 2307164626, "lat": 40.7460666, "lon": -73.9902685, "tags": {"addr:housenumber": "816", "addr:postcode": "10001", "addr:street": "Avenue Of The Americas", "amenity": "restaurant", "bar": "yes", "cocktails": "yes", "cuisine": "korean", "drink:beer": "draught", "drink:liquor": "yes", "drink:wine": "yes", "name": "Barn Joo Nomad", "outdoor_seating": "yes", "phone": "+1-917-409-1637", "website": "https://www.barnjoonomad.com"}}, {"type": "node", "id": 2307164627, "lat": 40.7448694, "lon": -73.990624}, {"type": "node", "id": 2307167700, "lat": 40.7468975, "lon": -73.9922271, "tags": {"addr:city": "New York", "addr:country": "US", "addr:housenumber": "139", "addr:state": "NY", "addr:street": "West 28th Street", "amenity": "restaurant", "cuisine": "sushi", "name": "Izumi", "source": "survey", "website": "http://www.izumisushiny.com/"}}, {"type": "node", "id": 2377128194, "lat": 40.74969, "lon": -73.99502, "tags": {"addr:city": "New York", "addr:country": "US", "addr:housenumber": "402", "addr:postcode": "10001", "addr:state": "NY", "addr:street": "8th Avenue", "amenity": "pub", "microbrewery": "no", "name": "The Molly Wee Pub", "takeaway": "yes", "website": "http://themollywee.com/", "wheelchair": "yes"}}, {"type": "node", "id": 2377128195, "lat": 40.749067, "lon": -73.995471, "tags": {"addr:city": "New York", "addr:country": "US", "addr:housenumber": "382", "addr:postcode": "10001", "addr:state": "NY", "addr:street": "8th Avenue", "amenity": "restaurant", "cuisine": "greek", "drive_in": "no", "email": "unclenicksrestaurant@gmail.com", "microbrewery": "no", "name": "Uncle Nick's Restaurant", "opening_hours": "Mo-Su 11:30-23:00", "outdoor_seating": "no", "smoking": "no", "takeaway": "yes", "website": "https://www.unclenicksgreekcuisine.com/", "wheelchair": "yes"}}, {"type": "node", "id": 2380045819, "lat": 40.7485183, "lon": -73.9921139, "tags": {"addr:city": "New York", "addr:country": "US", "addr:floor": "5", "addr:housenumber": "363", "addr:postcode": "10001", "addr:state": "NY", "addr:street": "7th Avenue", "level": "4", "name": "Nesenoff & Miltenberg LLP", "office": "lawyer", "phone": "+1 212-736-4500", "website": "https://nmllplaw.com/"}}, {"type": "node", "id": 2407447314, "lat": 40.7499096, "lon": -73.99538, "tags": {"addr:city": "New York", "addr:housenumber": "407", "addr:postcode": "10001", "addr:street": "8th Avenue", "amenity": "bar", "check_date": "2024-03-11", "name": "Tempest Bar", "phone": "+1 212-643-1502", "website": "www.tempestbarnyc.com"}}, {"type": "node", "id": 2549953088, "lat": 40.7445195, "lon": -73.9904827, "tags": {"addr:housenumber": "37", "addr:postcode": "10001", "addr:street": "West 26th Street", "amenity": "bar", "cuisine": "american;continental", "diet:gluten_free": "yes", "diet:vegan": "yes", "diet:vegetarian": "yes", "live_music": "yes", "name": "The Flatiron Room", "opening_hours": "Mo-Fr 16:00-02:00; Sa 17:00-02:00; Su 17:00-24:00", "operator": "Goodnight Group", "phone": "+1-212-725-3860", "website": "https://www.theflatironroom.com"}}, {"type": "node", "id": 2549953101, "lat": 40.7451365, "lon": -73.9900429, "tags": {"addr:housenumber": "45", "addr:postcode": "10001", "addr:street": "West 27th Street", "amenity": "bar", "name": "Oscar Wilde"}}, {"type": "node", "id": 2549953397, "lat": 40.7448191, "lon": -73.9904807}, {"type": "node", "id": 2549953424, "lat": 40.7448297, "lon": -73.9905042}, {"type": "node", "id": 2549953465, "lat": 40.7450531, "lon": -73.9903138}, {"type": "node", "id": 2549960961, "lat": 40.7453942, "lon": -73.9912033, "tags": {"addr:city": "New York", "addr:housenumber": "793", "addr:postcode": "10001", "addr:state": "NY", "addr:street": "6th Avenue", "air_conditioning": "yes", "amenity": "restaurant", "cuisine": "korean", "name": "Hee Korean BBQ Grill"}}, {"type": "node", "id": 2549961563, "lat": 40.7453231, "lon": -73.992431}, {"type": "node", "id": 2549961619, "lat": 40.7454294, "lon": -73.9923536}, {"type": "node", "id": 2549961626, "lat": 40.7454402, "lon": -73.992709}, {"type": "node", "id": 2549961631, "lat": 40.7454471, "lon": -73.9923955}, {"type": "node", "id": 2549961646, "lat": 40.7455455, "lon": -73.9923238}, {"type": "node", "id": 2549961668, "lat": 40.745645, "lon": -73.9925599}, {"type": "node", "id": 2626236856, "lat": 40.7445509, "lon": -73.9905594, "tags": {"addr:city": "New York", "addr:housenumber": "43", "addr:postcode": "10010", "addr:street": "West 26th Street", "amenity": "bar", "name": "Grey Bar & Restaurant", "opening_hours": "12:00 - 2:00", "phone": "+1-212-532-2643", "website": "https://www.greybarnyc.com/"}}, {"type": "node", "id": 2634318928, "lat": 40.7450623, "lon": -73.9903368}, {"type": "node", "id": 2634398946, "lat": 40.7452192, "lon": -73.9908474, "tags": {"addr:city": "New York", "addr:housenumber": "776", "addr:postcode": "10001", "addr:state": "NY", "addr:street": "Avenue of the Americas", "amenity": "cafe", "branch": "27th & 6th", "brand": "Starbucks", "brand:wikidata": "Q37158", "cuisine": "coffee_shop", "name": "Starbucks", "official_name": "Starbucks Coffee", "phone": "+1 212-481-1856", "takeaway": "yes", "website": "https://www.starbucks.com/store-locator/store/11291/27th-6th-776-avenue-of-the-americas-new-york-ny-100016354-u"}}, {"type": "node", "id": 2703104212, "lat": 40.7473052, "lon": -73.9967923, "tags": {"addr:city": "New York", "addr:housenumber": "322", "addr:postcode": "10001", "addr:state": "NY", "addr:street": "8th Avenue", "addr:unit": "802", "description": "Affirmative professional mental health services for the lesbian, gay, bisexual, and transgender communities.", "email": "info@ihitherapy.org", "name": "Institute for Human Identity Therapy Center", "office": "therapist", "opening_hours": "Mo-Th 10:00-21:00; Fr 12:00-19:00", "phone": "+1 212-243-2830", "website": "https://www.ihitherapy.org"}}, {"type": "node", "id": 2703104327, "lat": 40.7463777, "lon": -73.9949636}, {"type": "node", "id": 2703104389, "lat": 40.7466301, "lon": -73.9947798}, {"type": "node", "id": 2703424235, "lat": 40.7494986, "lon": -73.993225, "tags": {"addr:housenumber": "220", "addr:postcode": "10001", "addr:street": "West 31st Street", "amenity": "bar", "name": "Tracks"}}, {"type": "node", "id": 2703424308, "lat": 40.7482815, "lon": -73.992821, "tags": {"addr:housenumber": "352", "addr:postcode": "10001", "addr:street": "7th Avenue", "amenity": "bar", "name": "Mustang Harry's"}}, {"type": "node", "id": 2703449228, "lat": 40.7483872, "lon": -73.990094, "tags": {"addr:city": "New York", "addr:housenumber": "119", "addr:postcode": "10001", "addr:state": "NY", "addr:street": "West 31st Street", "amenity": "university", "check_date": "2025-10-16", "name": "CUNY School of Professional Studies", "operator": "City University of New York"}}, {"type": "node", "id": 2703449252, "lat": 40.7483929, "lon": -73.9906659, "tags": {"addr:city": "New York", "addr:housenumber": "132", "addr:postcode": "10001", "addr:state": "NY", "addr:street": "West 31st Street", "amenity": "restaurant", "contact:facebook": "http://www.facebook.com/penn6nyc", "cuisine": "american", "diet:gluten_free": "yes", "name": "Pennsylvania 6", "opening_hours": "Mo-Fr 11:30-24:00; Sa-Su 10:00-24:00", "outdoor_seating": "yes", "payments": "MasterCard\u00a0\u00a0Amex\u00a0\u00a0Cash\u00a0\u00a0Visa\u00a0\u00a0Discover", "phone": "+1-212-727-3666", "reservation": "yes", "website": "https://pennsylvania6nyc.com"}}, {"type": "node", "id": 2703449303, "lat": 40.7488386, "lon": -73.9919696, "tags": {"addr:housenumber": "371", "addr:postcode": "10001", "addr:street": "7th Avenue", "amenity": "restaurant", "cuisine": "american", "name": "Niles NYC", "opening_hours": "Tu,We 12:00-21:00; Th,Fr 12:00-22:00; Sa 16:00-22:00", "website": "https://www.nilesnyc.com/"}}, {"type": "node", "id": 2870201889, "lat": 40.7498806, "lon": -73.9932583}, {"type": "node", "id": 2870201890, "lat": 40.7498957, "lon": -73.9931907}, {"type": "node", "id": 2870201891, "lat": 40.7499889, "lon": -73.9929348}, {"type": "node", "id": 2870201894, "lat": 40.7504623, "lon": -73.9925931}, {"type": "node", "id": 2870201899, "lat": 40.750667, "lon": -73.9926177}, {"type": "node", "id": 2870202801, "lat": 40.7507445, "lon": -73.9926499}, {"type": "node", "id": 3008612564, "lat": 40.745629, "lon": -73.9937463, "tags": {"addr:city": "New York", "addr:country": "US", "addr:housenumber": "152", "addr:postcode": "10001", "addr:state": "NY", "addr:street": "West 26th Street", "amenity": "restaurant", "cuisine": "burger", "name": "Rare Bar and Grill"}}, {"type": "node", "id": 3246839596, "lat": 40.7493007, "lon": -73.9941316, "tags": {"addr:housenumber": "247", "addr:street": "West 30th Street", "amenity": "bar", "food": "yes", "name": "American Whiskey", "whisky": "yes"}}, {"type": "node", "id": 3262342837, "lat": 40.7511312, "lon": -73.9937713}, {"type": "node", "id": 3262342838, "lat": 40.7511596, "lon": -73.9936372}, {"type": "node", "id": 3262342839, "lat": 40.7511518, "lon": -73.9936802}, {"type": "node", "id": 3264422314, "lat": 40.7469335, "lon": -73.9933215, "tags": {"addr:city": "New York", "addr:housenumber": "315", "addr:postcode": "10001", "addr:state": "NY", "addr:street": "7th Avenue", "amenity": "cafe", "branch": "28th & 7th", "brand": "Starbucks", "brand:wikidata": "Q37158", "cuisine": "coffee_shop", "drink:coffee": "yes", "internet_access:wlan": "yes", "name": "Starbucks", "official_name": "Starbucks Coffee", "opening_hours": "Mo-Sa 06:00-21:00; Su 06:00-20:30", "phone": "+1 646-336-6462", "takeaway": "yes", "website": "https://www.starbucks.com/store-locator/store/18290/28th-7th-315-seventh-avenue-new-york-ny-100016005-us"}}, {"type": "node", "id": 3507260980, "lat": 40.7484876, "lon": -73.9922019, "tags": {"addr:housenumber": "363", "addr:postcode": "10001", "addr:street": "7th Avenue", "amenity": "restaurant", "diet:gluten_free": "yes", "diet:vegan": "yes", "diet:vegetarian": "yes", "level": "0", "name": "fresh&co", "opening_hours": "Mo-Fr 06:00-21:00; Sa, Su 07:00-20:30", "phone": "+1 212-333-7374", "takeaway": "yes", "website": "https://www.freshandco.com/"}}, {"type": "node", "id": 4236711150, "lat": 40.7450974, "lon": -73.9947013, "tags": {"addr:city": "New York", "addr:housenumber": "257", "addr:postcode": "10001", "addr:state": "NY", "addr:street": "7th Avenue", "amenity": "restaurant", "cuisine": "italian", "delivery": "yes", "level": "1", "name": "Bella Napoli", "phone": "+1 212-675-4050", "takeaway": "yes", "website": "http://bellanapoli.com/7ave/7-avenue.html"}}, {"type": "node", "id": 4442836595, "lat": 40.7455323, "lon": -73.9943777, "tags": {"addr:city": "New York", "addr:housenumber": "275", "addr:postcode": "10001", "addr:state": "NY", "addr:street": "7th Avenue", "amenity": "cafe", "branch": "Chelsea", "contact:facebook": "https://www.facebook.com/sevengramscaffe", "cuisine": "coffee_shop", "drink:coffee": "yes", "drink:espresso": "yes", "email": "info@sevengramscaffe.com", "internet_access": "yes", "name": "Seven Grams Caffe", "opening_hours": "Mo-Fr 07:00-19:00; Sa-Su 08:00-19:00", "phone": "+1 212-727-1777", "smoking": "no", "website": "https://www.sevengramscaffe.com"}}, {"type": "node", "id": 4591231254, "lat": 40.7452909, "lon": -73.9903934, "tags": {"addr:city": "New York", "addr:housenumber": "55", "addr:postcode": "10001", "addr:state": "NY", "addr:street": "West 27th Street", "amenity": "restaurant", "cuisine": "new_american", "name": "Mulberry & Vine", "opening_hours": "Mo-Th 11:00-21:00; Fr-Sa 11:00-20:00", "outdoor_seating": "no", "phone": "+1 212 252 8468", "smoking": "no", "takeaway": "yes", "website": "https://www.mulberryandvine.com/"}}, {"type": "node", "id": 4680472389, "lat": 40.7447503, "lon": -73.993589, "tags": {"amenity": "bar", "internet_access": "wlan", "name": "Smithfield Hall", "name:en": "Smithfield Hall"}}, {"type": "node", "id": 4680778157, "lat": 40.7490571, "lon": -73.994194, "tags": {"addr:housenumber": "236", "addr:postcode": "10001", "addr:street": "West 30th Street", "name": "Blippar", "office": "company", "website": "https://blippar.com"}}, {"type": "node", "id": 4815675028, "lat": 40.7445513, "lon": -73.9929939, "tags": {"addr:housenumber": "124", "addr:postcode": "10001", "addr:street": "West 25th Street", "amenity": "restaurant", "contact:facebook": "http://www.facebook.com/johnysluncheonettenyc", "contact:twitter": "http://twitter.com/sloppyjohny", "cuisine": "diner", "delivery": "yes", "drink:coffee": "yes", "drink:tea": "yes", "name": "Johny's Luncheonette", "opening_hours": "Mo-Fr 07:30-17:00; Sa, Su 08:30-16:00", "payment:american_express": "yes", "payment:discover_card": "yes", "payment:mastercard": "yes", "payment:visa": "yes", "phone": "+1 212-243-6230", "website": "https://johnysluncheonette.com/"}}, {"type": "node", "id": 4815932752, "lat": 40.7456493, "lon": -73.9942855, "tags": {"addr:city": "New York", "addr:housenumber": "275", "addr:postcode": "10001", "addr:state": "NY", "addr:street": "7th Avenue", "name": "Classpass", "office": "technology", "smoking": "no", "website": "https://classpass.com/"}}, {"type": "node", "id": 4867750466, "lat": 40.7481685, "lon": -73.9929081, "tags": {"addr:housenumber": "350", "addr:postcode": "10001", "addr:street": "7th Avenue", "addr:unit": "Suite 1201", "amenity": "school", "email": "Info@internationalwinecenter.com", "name": "International Wine Center (IWC)", "name:es": "Centro internacional de Vinos (IWC)", "opening_hours": "Mo-Fr 08:30-18:00", "operator": "WSET", "phone": "+1 212-239-3055", "website": "https://internationalwinecenter.com/"}}, {"type": "node", "id": 5057454028, "lat": 40.7452574, "lon": -73.9903235, "tags": {"addr:housenumber": "49", "addr:street": "West 27th Street", "name": "Code Academy HQ", "office": "it"}}, {"type": "node", "id": 5087640510, "lat": 40.7511412, "lon": -73.9937317, "tags": {"entrance": "yes", "level": "0"}}, {"type": "node", "id": 5400492993, "lat": 40.7466178, "lon": -73.9921722, "tags": {"addr:housenumber": "136", "addr:street": "West 28th Street", "amenity": "restaurant", "cuisine": "japanese", "name": "Ajisen Ramen", "phone": "+1-646-638-0888"}}, {"type": "node", "id": 5612407421, "lat": 40.7481126, "lon": -73.9911219, "tags": {"amenity": "bar", "name": "Deweys pub"}}, {"type": "node", "id": 5734944621, "lat": 40.7452186, "lon": -73.9902413, "tags": {"addr:housenumber": "49", "addr:street": "West 27th Street", "amenity": "cafe", "cuisine": "coffee_shop", "indoor_seating": "yes", "name": "Patent Coffee", "outdoor_seating": "no"}}, {"type": "node", "id": 5806583255, "lat": 40.7452323, "lon": -73.9902152, "tags": {"amenity": "bar", "indoor_seating": "yes", "name": "Patent Pending", "outdoor_seating": "no"}}, {"type": "node", "id": 5815748397, "lat": 40.7481269, "lon": -73.9932265, "tags": {"addr:housenumber": "205", "addr:street": "West 29th Street", "amenity": "restaurant", "cuisine": "indian", "delivery": "yes", "diet:vegetarian": "yes", "email": "swagatindian205@gmail.com", "name": "Swagat", "opening_hours": "Mo-Su 11:00-21:30", "phone": "+1-212-967-7373", "takeaway": "yes", "website": "https://swagatindianfood.com/"}}, {"type": "node", "id": 5815748398, "lat": 40.7472543, "lon": -73.9918207, "tags": {"addr:housenumber": "138", "addr:street": "West 29th Street", "amenity": "bar", "cocktails": "yes", "drink:beer": "yes", "drink:liquor": "yes", "drink:wine": "yes", "name": "Pioneers Bar NYC", "opening_hours": "Su 13:00-01:00; Mo-Sa 13:00-02:00", "phone": "+1-212-714-2222", "sport": "billiards;pinball", "toilets": "yes", "website": "https://www.pioneersbar.com/", "wheelchair": "yes"}}, {"type": "node", "id": 5889807164, "lat": 40.7482623, "lon": -73.9916309, "tags": {"addr:city": "New York", "addr:housenumber": "145", "addr:postcode": "10001", "addr:state": "NY", "addr:street": "West 30th Street", "admin_level": "4", "government": "transportation", "name": "New York State Department of Motor Vehicles License Express", "office": "government", "opening_hours": "Mo-Fr 08:30-16:00", "operator": "New York State Department of Motor Vehicles", "operator:short": "NYSDMV", "operator:wikidata": "Q17109616", "operator:wikipedia": "en:New York State Department of Motor Vehicles", "short_name": "DMV License Express", "website": "https://dmv.ny.gov/office/license-express"}}, {"type": "node", "id": 6007303592, "lat": 40.7486997, "lon": -73.9957832, "tags": {"addr:city": "New York", "addr:country": "US", "addr:housenumber": "370", "addr:postcode": "10001", "addr:state": "NY", "addr:street": "8th Avenue", "amenity": "restaurant", "cuisine": "asian", "name": "Hoa Cafe"}}, {"type": "node", "id": 6250176401, "lat": 40.745206, "lon": -73.9946116, "tags": {"addr:housenumber": "261", "addr:postcode": "10001", "addr:street": "7th Avenue", "amenity": "cafe", "branch": "Chelsea", "contact:facebook": "https://www.facebook.com/Variety-Coffee-Roasters-2000912436802356/", "cuisine": "coffee_shop", "drink:coffee": "yes", "drink:espresso": "yes", "drink:tea": "yes", "name": "Variety Coffee Roasters", "opening_hours": "Mo-Su 07:00-21:00", "phone": "+1 917-409-0106", "website": "https://varietycoffeeroasters.com", "wheelchair": "no"}}, {"type": "node", "id": 6322560905, "lat": 40.7479698, "lon": -73.9924704, "tags": {"addr:housenumber": "345", "addr:postcode": "10001", "addr:street": "7th Avenue", "addr:unit": "Floor 21", "name": "Lightman Law Firm", "office": "lawyer", "opening_hours": "Mo-Fr 09:00-18:00", "payment:american_express": "yes", "payment:cash": "yes", "payment:cheque": "yes", "payment:mastercard": "yes", "payment:paypal": "yes", "payment:visa": "yes", "phone": "+1-212-643-0985", "website": "https://lightmanimmigration.com"}}, {"type": "node", "id": 6332834384, "lat": 40.748997, "lon": -73.9942568, "tags": {"addr:housenumber": "236", "addr:postcode": "10001", "addr:street": "West 30th Street", "addr:unit": "#5-R", "name": "Law Offices of Paul Share", "office": "lawyer", "phone": "+1-212-643-0700", "website": "https://www.sharelawfirm.com"}}, {"type": "node", "id": 6375303885, "lat": 40.7464637, "lon": -73.9909625, "tags": {"addr:street": "West 28th Street", "amenity": "bar", "name": "The Fleur Room", "website": "http://moxy-hotels.marriott.com/nyc/chelsea/the-fleur-room/"}}, {"type": "node", "id": 6407832772, "lat": 40.7458591, "lon": -73.9936087, "tags": {"amenity": "bar", "cocktails": "yes", "cuisine": "pizza;snack", "description": "piano bar featuring live-accompaniment karaoke", "drink:beer": "draught", "drink:liquor": "yes", "drink:wine": "yes", "happy_hours": "Mo-Fr 17:00-19:00", "live_music": "yes", "name": "Sid Gold's Request Room", "phone": "+1-212-229-1948", "website": "https://sidgolds.com"}}, {"type": "node", "id": 6916949630, "lat": 40.7474576, "lon": -73.9917001, "tags": {"addr:housenumber": "143", "addr:street": "West 29th Street", "amenity": "cafe", "contact:email": "info@hanamizukiny.com", "cuisine": "japanese", "drink:beer": "yes", "drink:coffee": "yes", "drink:sake": "yes", "drink:tea": "yes", "drink:wine": "yes", "name": "Hanamizuki", "opening_hours": "Mo-Fr 11:00-21:00; Sa 11:00-18:00", "phone": "+1 212-965-5533", "website": "https://www.hanamizukiny.com/"}}, {"type": "node", "id": 7080440667, "lat": 40.7484534, "lon": -73.9927079, "tags": {"addr:housenumber": "360", "amenity": "restaurant", "branch": "7th Ave. @ 30th St.", "check_date": "2025-10-16", "cuisine": "pizza", "delivery": "yes", "drink:beer": "bottled", "fax": "+1 212-235-1118", "level": "0", "name": "Bravo Pizza", "not:brand:wikidata": "Q64055574", "opening_hours": "Mo-We 11:00-01:00; Th-Sa 11:00-03:00; Su 11:30-11:00", "payment:cash": "yes", "payment:mastercard": "yes", "payment:visa": "yes", "phone": "+1 212-235-1114", "takeaway": "yes", "website": "https://www.bravopizzany.com"}}, {"type": "node", "id": 7125928685, "lat": 40.7483305, "lon": -73.9905021, "tags": {"addr:city": "New York", "addr:housenumber": "132", "addr:postcode": "10002", "addr:state": "NY", "addr:street": "West 31st Street", "amenity": "restaurant", "branch": "Herald Square", "contact:facebook": "https://www.facebook.com/friedmansny", "contact:instagram": "https://www.instagram.com/friedmansnyc", "cuisine": "american", "delivery": "yes", "name": "Friedman\u2019s", "opening_hours": "08:30-21:00", "outdoor_seating": "no", "phone": "+1 212-971-9400", "reservation": "no", "takeaway": "yes", "website": "https://www.friedmansrestaurant.com/location/herald-square-friedmans-restaurant", "website:booking": "https://www.opentable.com/r/friedmans-31st-st-new-york", "website:menu": "https://www.friedmansrestaurant.com/herald-square-menus"}}, {"type": "node", "id": 7606819247, "lat": 40.7487963, "lon": -73.9953989, "tags": {"addr:city": "New York", "addr:housenumber": "254", "addr:postcode": "10001", "addr:street": "West 29th Street", "alt_name": "RLI", "internet_access": "wlan", "level": "1", "name": "Royal Learning Institute", "office": "educational_institution", "phone": "+1-212-795-0500", "website": "https://www.rli.edu/"}}, {"type": "node", "id": 7653745268, "lat": 40.7476165, "lon": -73.9933167, "tags": {"addr:housenumber": "328", "addr:postcode": "10001", "addr:street": "7th Avenue", "amenity": "pub", "name": "Triple Crown", "outdoor_seating": "yes"}}, {"type": "node", "id": 7653745273, "lat": 40.748746, "lon": -73.9952843, "tags": {"addr:housenumber": "252", "addr:postcode": "10001", "addr:street": "West 29th Street", "amenity": "restaurant", "name": "Haymaker"}}, {"type": "node", "id": 7653745278, "lat": 40.7483337, "lon": -73.9937884, "tags": {"addr:housenumber": "221", "addr:postcode": "10001", "addr:street": "West 29th Street", "amenity": "cafe", "name": "Ninth Street Espresso"}}, {"type": "node", "id": 7700401455, "lat": 40.7493415, "lon": -73.995763, "tags": {"addr:housenumber": "389", "addr:street": "8th Avenue", "amenity": "restaurant", "name": "Walters"}}, {"type": "node", "id": 7700401457, "lat": 40.7494967, "lon": -73.9956416, "tags": {"addr:housenumber": "393", "addr:postcode": "10001", "addr:street": "8th Avenue", "amenity": "restaurant", "cuisine": "chinese"}}, {"type": "node", "id": 7700401461, "lat": 40.7490376, "lon": -73.9902532, "tags": {"addr:street": "West 32nd Street", "amenity": "restaurant", "cuisine": "indian", "diet:vegan": "no", "diet:vegetarian": "yes", "name": "Rowdy Rooster Indian Fried Chicken"}}, {"type": "node", "id": 8062644086, "lat": 40.7472473, "lon": -73.9967689, "tags": {"addr:city": "New York", "addr:housenumber": "322", "addr:postcode": "10001", "addr:state": "NY", "addr:street": "8th Avenue", "addr:unit": "5", "name": "Sam Schwartz", "office": "company", "phone": "+1 212 598 9010", "website": "https://www.samschwartz.com"}}, {"type": "node", "id": 8262309023, "lat": 40.7508206, "lon": -73.9942574}, {"type": "node", "id": 8355860496, "lat": 40.7483096, "lon": -73.9904415, "tags": {"addr:city": "New York", "addr:housenumber": "132", "addr:postcode": "10002", "addr:state": "NY", "addr:street": "West 31st Street", "amenity": "restaurant", "branch": "Midtown", "contact:facebook": "https://www.facebook.com/ichiranny/", "cuisine": "ramen", "delivery": "no", "description": "Classic Tonkotsu Ramen Shop", "description:en": "Classic Tonkotsu Ramen Shop", "description:ja": "\u5929\u7136\u3068\u3093\u3053\u3064\u30e9\u30fc\u30e1\u30f3\u5c02\u9580\u5e97", "name": "Ichiran", "name:en": "Ichiran", "name:ja": "\u4e00\u862d", "opening_hours": "Mo-Th 11:00-22:00; Fr-Su 11:00-23:00", "outdoor_seating": "no", "payment:cash": "yes", "payment:contactless": "yes", "payment:credit_cards": "yes", "payment:debit_cards": "yes", "phone": "+1-212-465-0701", "reservation": "no", "takeaway": "yes", "website": "https://www.ichiranusa.com/location/ichiran-midtown/", "website:menu": "https://www.ichiranusa.com/menu/"}}, {"type": "node", "id": 8614943073, "lat": 40.7470484, "lon": -73.9931695, "tags": {"addr:housenumber": "162", "addr:postcode": "10001", "addr:street": "West 28th Street", "amenity": "bar", "name": "La Noxe", "website": "https://www.lanoxenyc.com/"}}, {"type": "node", "id": 8615466792, "lat": 40.7487921, "lon": -73.9957069, "tags": {"amenity": "restaurant", "cuisine": "pizza", "name": "BJ Pizza&Deli", "shop": "deli"}}, {"type": "node", "id": 9073581712, "lat": 40.7480339, "lon": -73.9936795, "tags": {"addr:city": "New York", "addr:housenumber": "210", "addr:postcode": "10001", "addr:state": "NY", "addr:street": "West 29th Street", "addr:unit": "6th Floor", "contact:facebook": "http://www.facebook.com/amp3pr", "contact:instagram": "http://www.instagram.com/amp3pr", "contact:linkedin": "http://www.linkedin.com/company/amp3-public-relations", "contact:twitter": "http://twitter.com/amp3pr", "email": "marketing@amp3pr.com", "fax": "+1-866-514-8249", "name": "AMP3 Public Relations", "office": "advertising_agency", "opening_hours": "Mo-Fr 09:00-18:00", "phone": "+1-212-677-2929", "website": "https://amp3pr.com"}}, {"type": "node", "id": 9413881793, "lat": 40.7508797, "lon": -73.9928685}, {"type": "node", "id": 9413881794, "lat": 40.7507062, "lon": -73.9926309}, {"type": "node", "id": 9413881795, "lat": 40.7501567, "lon": -73.9927885}, {"type": "node", "id": 9413881796, "lat": 40.7500807, "lon": -73.9928709}, {"type": "node", "id": 9413881797, "lat": 40.7501334, "lon": -73.9928123}, {"type": "node", "id": 9413881798, "lat": 40.750182, "lon": -73.9927658}, {"type": "node", "id": 9413881799, "lat": 40.7503637, "lon": -73.9926626}, {"type": "node", "id": 9413881800, "lat": 40.7502851, "lon": -73.9926967}, {"type": "node", "id": 9413881801, "lat": 40.7502299, "lon": -73.9927295}, {"type": "node", "id": 9413881802, "lat": 40.7500063, "lon": -73.9929093}, {"type": "node", "id": 9413881803, "lat": 40.7503661, "lon": -73.9943035}, {"type": "node", "id": 9413881804, "lat": 40.7503206, "lon": -73.9942876}, {"type": "node", "id": 9413881805, "lat": 40.7505014, "lon": -73.9943323}, {"type": "node", "id": 9413881806, "lat": 40.7506336, "lon": -73.9943679}, {"type": "node", "id": 9413881807, "lat": 40.7510433, "lon": -73.9940674}, {"type": "node", "id": 9413881808, "lat": 40.7508866, "lon": -73.994208}, {"type": "node", "id": 9413881809, "lat": 40.7509454, "lon": -73.9941618}, {"type": "node", "id": 9413881810, "lat": 40.7509943, "lon": -73.9941161}, {"type": "node", "id": 9413881811, "lat": 40.7507752, "lon": -73.9942884}, {"type": "node", "id": 9413881812, "lat": 40.750728, "lon": -73.9943175}, {"type": "node", "id": 9413881813, "lat": 40.7506802, "lon": -73.9943438}, {"type": "node", "id": 9413881816, "lat": 40.7511111, "lon": -73.9938405}, {"type": "node", "id": 9413881873, "lat": 40.7511293, "lon": -73.9937781}, {"type": "node", "id": 9413881876, "lat": 40.7511618, "lon": -73.9936205}, {"type": "node", "id": 9413881877, "lat": 40.7503989, "lon": -73.9943125}, {"type": "node", "id": 9413881887, "lat": 40.7503404, "lon": -73.9942946, "tags": {"entrance": "yes", "level": "0"}}, {"type": "node", "id": 9414461036, "lat": 40.7498872, "lon": -73.9932285}, {"type": "node", "id": 9414461048, "lat": 40.7500113, "lon": -73.9938348, "tags": {"entrance": "yes"}}, {"type": "node", "id": 9414461049, "lat": 40.7502243, "lon": -73.9941209, "tags": {"entrance": "yes", "name": "Entrance A"}}, {"type": "node", "id": 9414461051, "lat": 40.7504783, "lon": -73.9943289, "tags": {"entrance": "yes", "name": "Entrance B"}}, {"type": "node", "id": 9414461053, "lat": 40.7511008, "lon": -73.9938683, "tags": {"entrance": "yes", "name": "Entrance C"}}, {"type": "node", "id": 9414461099, "lat": 40.7507326, "lon": -73.992644}, {"type": "node", "id": 9419005603, "lat": 40.7498949, "lon": -73.9931941}, {"type": "node", "id": 9419131122, "lat": 40.750701, "lon": -73.9926292}, {"type": "node", "id": 9864762117, "lat": 40.7479801, "lon": -73.9900333, "tags": {"addr:city": "New York", "addr:housenumber": "855", "addr:postcode": "10001", "addr:state": "NY", "addr:street": "6th Avenue", "brand": "Nike", "brand:wikidata": "Q483915", "name": "Nike New York Headquarters", "office": "company", "start_date": "2017", "website": "https://jobs.nike.com/nyc"}}, {"type": "node", "id": 10170994751, "lat": 40.7451293, "lon": -73.9904976}, {"type": "node", "id": 10271227981, "lat": 40.745547, "lon": -73.994143, "tags": {"addr:city": "New York", "addr:housenumber": "275", "addr:postcode": "10001", "addr:state": "NY", "addr:street": "7th Avenue", "addr:unit": "2002", "fixme": "Clarify where 275 Seventh Ave is.", "level": "19", "name": "Epam", "office": "it", "phone": "+1 267 759 9000", "website": "https://www.epam.com/"}}, {"type": "node", "id": 11005206217, "lat": 40.7459284, "lon": -73.992669, "tags": {"addr:city": "New York", "addr:housenumber": "132", "addr:postcode": "10001", "addr:state": "NY", "addr:street": "West 27th Street", "amenity": "restaurant", "cuisine": "american", "dog": "outside", "name": "The Wilson", "opening_hours": "Mo-Su 07:00-22:00", "phone": "+12125292671", "website": "https://thewilsonnyc.com/"}}, {"type": "node", "id": 11063640164, "lat": 40.7449953, "lon": -73.9934531, "tags": {"name": "Gloss VFX", "office": "it"}}, {"type": "node", "id": 11229897237, "lat": 40.7452552, "lon": -73.9902833, "tags": {"addr:housenumber": "49", "addr:postcode": "10001", "addr:street": "West 27th Street", "amenity": "bar", "contact:instagram": "seeyamanana", "name": "Seeyama\u00f1ana", "opening_hours": "Su-We 11:00-00:00; Th-Sa 11:00-02:00", "phone": "+1 917-374-1682", "website": "https://www.seeyamanananyc.com/"}}, {"type": "node", "id": 11345588157, "lat": 40.7474506, "lon": -73.9966833, "tags": {"amenity": "restaurant", "cuisine": "ramen", "name": "Kame", "website": "https://www.kamenyc.com/"}}, {"type": "node", "id": 11765725968, "lat": 40.7449385, "lon": -73.9932512, "tags": {"addr:city": "New York", "addr:floor": "7", "addr:housenumber": "133", "addr:postcode": "10001", "addr:state": "NY", "addr:street": "West 25th Street", "name": "DeSantis Breindel", "office": "advertising_agency", "opening_hours": "Mo-Fr 09:00-18:00", "phone": "+1 212-994-7680", "website": "https://www.desantisbreindel.com/"}}, {"type": "node", "id": 11842298772, "lat": 40.7470428, "lon": -73.9964446, "tags": {"amenity": "restaurant", "name": "Hey Yuet"}}, {"type": "node", "id": 12235107075, "lat": 40.7474883, "lon": -73.9923022, "tags": {"amenity": "restaurant", "cuisine": "korean", "name": "Loopy's", "opening_hours": "Mo-Th 11:00-21:00, Fr 11:00-22:00, Sa-Su 12:00-21:00", "phone": "+1-212-381-0060", "website": "https://www.loopyseatery.com"}}, {"type": "node", "id": 12235107077, "lat": 40.7474645, "lon": -73.9922458, "tags": {"amenity": "restaurant", "cuisine": "asian;sushi", "name": "New M & J", "opening_hours": "Mo-Fr 11:00-21:45, Su 12:00-21:45", "phone": "+1-212-533-6888", "website": "https://www.mjasiancuisinenyc.com"}}, {"type": "node", "id": 12241733433, "lat": 40.7462639, "lon": -73.9938221, "tags": {"addr:city": "New York", "addr:housenumber": "291", "addr:postcode": "10001", "addr:state": "NY", "addr:street": "7th Avenue", "amenity": "restaurant", "cuisine": "chinese;japanese", "name": "Emperor Dumpling"}}, {"type": "node", "id": 12249202528, "lat": 40.7479876, "lon": -73.9915765, "tags": {"addr:housenumber": "140", "addr:postcode": "10001", "addr:street": "West 30th Street", "amenity": "restaurant", "bar": "yes", "cocktails": "yes", "cuisine": "asian", "drink:beer": "yes", "drink:liquor": "yes", "drink:wine": "yes", "happy_hours": "Mo-Fr 16:00-18:00", "name": "Piggyback", "opening_hours": "Mo 17:00-21:00; Tu-Th 11:30-14:30,17:00-21:00; Fr 11:30-14:30,17:00-22:00; Sa 11:00-15:00,17:00-22:00; Su 11:00-15:00", "phone": "+1-212-239-0570", "website": "https://www.piggybacknyc.com"}}, {"type": "node", "id": 12526669807, "lat": 40.7476794, "lon": -73.9927573, "tags": {"amenity": "cafe", "brand": "Le Pain Quotidien", "cuisine": "coffee_shop", "name": "Le Pain Quotidien", "takeaway": "yes"}}, {"type": "node", "id": 12616827011, "lat": 40.7455565, "lon": -73.9964516, "tags": {"amenity": "school", "mascot": "Falcons", "mascot:name": "Mikey the Falcon", "name": "High School of Fashion Industries"}}, {"type": "node", "id": 12679936180, "lat": 40.7454773, "lon": -73.9916409, "tags": {"addr:city": "New York", "addr:postcode": "10001", "addr:state": "NY", "addr:street": "1178 Broadway, 3rd Floor, #112", "description": "D'Andrea Law PLLC provides dedicated employment law services to individuals and small business owners throughout New York City. Attorney Theresa D'Andrea has over a decade of experience and has successfully litigated and resolved thousands of cases in New", "name": "D'Andrea Law PLLC", "office": "lawyer", "opening_hours": "Monday to Friday: 10:00 AM - 6:00 PM", "phone": "+1 201-255-7905", "website": "https://www.lawdandrea.com/"}}, {"type": "node", "id": 12919378793, "lat": 40.7493643, "lon": -73.9940728, "tags": {"addr:city": "New York", "addr:housenumber": "247W", "addr:postcode": "10001", "addr:state": "NY", "addr:street": "30th Street", "addr:unit": "9F", "name": "BiteUnite Cooking Classes NYC", "office": "educational_institution", "opening_hours": "Mo-Sa 11:00-22:00", "phone": "+1-212-643-5450", "website": "https://www.biteunite.com/"}}, {"type": "node", "id": 13107965005, "lat": 40.7449435, "lon": -73.9942824, "tags": {"addr:city": "New York", "addr:housenumber": "160", "addr:postcode": "10001", "addr:state": "NY", "addr:street": "West 25th Street", "amenity": "bar", "name": "The Rose", "website": "https://www.thechelseannewyork.com/cocktail-bars-chelsea-nyc"}}, {"type": "way", "id": 108159980, "nodes": [1241329531, 1241329536, 1241329534, 1241329535, 1241329532, 1241329538, 2703104327, 2703104389, 1241329531], "tags": {"addr:city": "New York", "addr:state": "NY", "amenity": "university", "ele": "8", "gnis:feature_id": "2083029", "mascot": "Tigers", "name": "Fashion Institute of Technology", "operator": "State University of New York", "operator:type": "government", "operator:wikidata": "Q1140241", "phone": "+1-212-217-7999", "polling_station": "yes", "religion": "none", "short_name": "FIT", "source": "bing & campus map", "website": "https://www.fitnyc.edu", "wikidata": "Q844999", "wikipedia": "en:Fashion Institute of Technology"}}, {"type": "way", "id": 138141251, "nodes": [1514352994, 1514353048, 9413881805, 9414461051, 1514353088, 1514352989, 9413881877, 9413881803, 9413881887, 9413881804, 1514352956, 1514352962, 1514352949, 9414461049, 1514353108, 1514353041, 1514353058, 1514353055, 9414461048, 1514352963, 1514353089, 1514353066, 1514352985, 1514352960, 1514353079, 2870201889, 9414461036, 9419005603, 2870201890, 1514352992, 1514353091, 1514353074, 1514353051, 1514352957, 2870201891, 9413881802, 1514353100, 1514353012, 9413881796, 1514353064, 9413881797, 9413881795, 9413881798, 1514353053, 9413881801, 1514353102, 9413881800, 1514352998, 9413881799, 1514353015, 1514352965, 2870201894, 1514353075, 1514352978, 1514352926, 1514353017, 2870201899, 9419131122, 9413881794, 9414461099, 2870202801, 1514352954, 1514352996, 1514353109, 9413881793, 1514353085, 1514353104, 1514353087, 1514353006, 1514353009, 1514353062, 1514353098, 1514353021, 269458734, 9413881876, 3262342838, 3262342839, 5087640510, 3262342837, 9413881873, 1514352976, 9413881816, 9414461053, 1514353060, 1514353110, 1514353072, 9413881807, 9413881810, 9413881809, 9413881808, 8262309023, 9413881811, 9413881812, 9413881813, 9413881806, 1514352994], "tags": {"addr:city": "New York", "addr:housenumber": "4", "addr:postcode": "10001", "addr:state": "NY", "addr:street": "Pennsylvania Plaza", "alt_name": "The Garden", "building": "yes", "ele": "11", "gnis:feature_id": "956262", "leisure": "stadium", "name": "Madison Square Garden", "name:en": "Madison Square Garden", "name:ja": "\u30de\u30c7\u30a3\u30bd\u30f3\u30fb\u30b9\u30af\u30a8\u30a2\u30fb\u30ac\u30fc\u30c7\u30f3", "name:ru": "\u041c\u0435\u0434\u0438\u0441\u043e\u043d-\u0441\u043a\u0432\u0435\u0440-\u0433\u0430\u0440\u0434\u0435\u043d", "name:uk": "\u041c\u0435\u0434\u0456\u0441\u043e\u043d-\u0441\u043a\u0432\u0435\u0440-\u0433\u0430\u0440\u0434\u0435\u043d", "name:zh": "\u9ea6\u8fea\u900a\u5e7f\u573a\u82b1\u56ed", "phone": "+1-212-465-6741", "short_name": "MSG", "sport": "multi", "start_date": "1968", "team": "New York Rangers", "team_2": "New York Knicks", "tourism": "attraction", "website": "http://www.thegarden.com/", "wheelchair": "limited", "wikidata": "Q186125", "wikipedia": "en:Madison Square Garden"}}, {"type": "way", "id": 221674463, "nodes": [10170994751, 2307164621, 2307164627, 2307164619, 2307164625, 2549953424, 2634318928, 10170994751], "tags": {"access": "yes", "area": "yes", "leisure": "park", "opening_hours": "07:00-20:30", "wheelchair": "yes"}}, {"type": "way", "id": 248143749, "nodes": [2549953397, 2549953424, 2634318928, 2549953465, 2549953397], "tags": {"addr:city": "New York", "addr:housenumber": "48", "addr:postcode": "10001", "addr:street": "West 27th Street", "amenity": "cafe", "building": "yes", "cuisine": "thai;dessert;tea", "height": "46.7", "name": "nuar", "nycdoitt:bin": "1015665", "opening_hours": "Mo-Su 10:30-21:00", "outdoor_seating": "yes"}}, {"type": "way", "id": 248144059, "nodes": [2549961668, 2549961646, 2549961631, 2549961619, 2549961563, 2549961626, 2549961668], "tags": {"addr:city": "New York", "addr:housenumber": "127", "addr:postcode": "10001", "addr:state": "NY", "addr:street": "West 26th Street", "amenity": "restaurant", "building": "yes", "cuisine": "bar", "height": "46.4", "name": "Black Door", "nycdoitt:bin": "1015037", "opening_hours": "Mo-Fr 16:00-04:00; Sa 08:00-04:00", "website": "https://blackdoornyc.com/"}}]}