{"version": 0.6, "generator": "Overpass API 0.7.62.8 e802775f", "osm3s": {"timestamp_osm_base": "2025-12-01T15:43:45Z", "copyright": "The data included in this document is from www.openstreetmap.org. The data is made available under ODbL."}, "elements": [{"type": "node", "id": 357580277, "lat": 40.779268, "lon": -73.9562492, "tags": {"amenity": "school", "ele": "27", "gnis:feature_id": "961668", "name": "Public School 37"}}, {"type": "node", "id": 357625187, "lat": 40.7788889, "lon": -73.9572222, "tags": {"amenity": "school", "ele": "28", "gnis:feature_id": "2104352", "mascot": "Rams", "name": "Ramaz School", "religion": "jewish", "wikidata": "Q7289144"}}, {"type": "node", "id": 1020359759, "lat": 40.780542, "lon": -73.954568, "tags": {"addr:housenumber": "1309", "addr:postcode": "10128", "addr:street": "Lexington Avenue", "amenity": "cafe", "branch": "Carnegie Hill", "brand": "Le Pain Quotidien", "brand:wikidata": "Q2046903", "cuisine": "coffee_shop", "delivery": "yes", "name": "Le Pain Quotidien", "opening_hours": "Mo-Fr 07:00-19:00; Sa, Su 07:30-19:00", "phone": "+1 212-203-0802", "takeaway": "yes", "website": "https://www.lepainquotidien.com/us/en/locations/carnegie_hill/1309-lexington-ave"}}, {"type": "node", "id": 2620513899, "lat": 40.7774839, "lon": -73.9552436, "tags": {"addr:city": "New York", "addr:country": "US", "addr:housenumber": "1488", "addr:postcode": "10028", "addr:state": "NY", "addr:street": "3rd Avenue", "addr:unit": "A", "amenity": "cafe", "branch": "84th & Third", "brand": "Starbucks", "brand:wikidata": "Q37158", "cuisine": "coffee_shop", "internet_access": "wlan", "internet_access:fee": "no", "level": "0", "name": "Starbucks", "official_name": "Starbucks Coffee", "opening_hours": "Mo-Fr 06:00-19:00; Sa, Su 06:30-18:30", "phone": "+1 212-744-7458", "takeaway": "yes", "toilets": "yes", "website": "https://www.starbucks.com/store-locator/store/12330/84th-third-1488-third-avenue-a-new-york-ny-100281967-us", "wheelchair": "yes"}}, {"type": "node", "id": 2620513907, "lat": 40.7794817, "lon": -73.9537572, "tags": {"addr:city": "New York", "addr:country": "US", "addr:housenumber": "1542", "addr:postcode": "10128", "addr:state": "NY", "addr:street": "3rd Avenue", "amenity": "cafe", "branch": "87th & Third", "brand": "Starbucks", "brand:wikidata": "Q37158", "cuisine": "coffee_shop", "internet_access": "wlan", "internet_access:fee": "no", "level": "0", "name": "Starbucks", "official_name": "Starbucks Coffee", "opening_hours": "Mo-Fr 05:00-21:00; Sa, Su 06:00-20:30", "phone": "+1 212-369-2949", "takeaway": "yes", "toilets": "yes", "toilets:access": "yes", "website": "https://www.starbucks.com/store-locator/store/1006781/87th-third-1542-third-avenue-new-york-ny-100282110-us"}}, {"type": "node", "id": 2724082968, "lat": 40.7771749, "lon": -73.9524957, "tags": {"addr:housenumber": "1633", "addr:postcode": "10028", "addr:street": "2nd Avenue", "amenity": "restaurant", "check_date": "2025-08-06", "cuisine": "diner", "delivery": "yes", "happy_hours": "16:00-21:00", "level": "0", "name": "Gracie's Diner", "opening_hours": "24/7", "outdoor_seating": "yes", "payment:american_express": "yes", "payment:cash": "yes", "payment:discover_card": "yes", "payment:mastercard": "yes", "payment:visa": "yes", "phone": "+1 212-879-9425", "takeaway": "yes", "website": "https://www.gracieson2nd.com", "wheelchair": "yes"}}, {"type": "node", "id": 2724095352, "lat": 40.7792828, "lon": -73.9532328, "tags": {"addr:housenumber": "200", "addr:postcode": "10028", "addr:street": "East 87th Street", "amenity": "school", "name": "The Dalton School Physical Education Center"}}, {"type": "node", "id": 2724095355, "lat": 40.7785582, "lon": -73.9529641, "tags": {"addr:housenumber": "217", "addr:postcode": "10028", "addr:street": "East 86th Street", "amenity": "restaurant", "cuisine": "pizza", "delivery": "yes", "level": "0", "name": "Mimi's Pizza", "opening_hours": "Mo-Th 10:00-22:00; Fr, Sa 10:00-01:45;Su 10:00-21:30", "phone": "+1 212-249-8111", "takeaway": "yes", "website": "https://www.ordermimispizza.com"}}, {"type": "node", "id": 2724113139, "lat": 40.7813175, "lon": -73.9523876, "tags": {"addr:housenumber": "1600", "addr:postcode": "10028", "addr:street": "3rd Avenue", "amenity": "restaurant", "contact:email": "info@catchnchop.com", "contact:facebook": "340474495815273", "contact:instagram": "catchnchop", "cuisine": "steak; seafood", "level": "0", "name": "Catch n' Chop", "opening_hours": "Tu-Th 16:00-00:00; Fr, Sa 11:00-01:00; Su 11:00-00:00", "phone": "+1 646-707-0103", "reservation": "yes", "reservation:website": "https://www.opentable.com/r/catch-n-chop-new-york", "website": "https://catchnchop.com/"}}, {"type": "node", "id": 2724181868, "lat": 40.7773842, "lon": -73.9552806, "tags": {"addr:housenumber": "1486", "addr:postcode": "10028", "addr:street": "3rd Avenue", "amenity": "cafe", "branch": "E 84th St", "cuisine": "juice", "level": "0", "name": "Juice Generation", "opening_hours": "Mo-Sa 07:00-20:00; Su 08:00-20:00", "website": "https://www.juicegeneration.com/locations/e-84-st", "wheelchair": "yes"}}, {"type": "node", "id": 2724212862, "lat": 40.7775102, "lon": -73.9572158, "tags": {"addr:housenumber": "1226", "addr:postcode": "10028", "addr:street": "Lexington Avenue", "amenity": "restaurant", "cuisine": "diner", "email": "lexingtoncandy@aol.com", "instagram": "lexingtoncandyshop.com", "name": "Lexington Candy Shop", "opening_hours": "Mo-Fr 07:00-19:00; Sa 08:00-19:00; Su 08:00-18:00", "phone": "+1 212-288-0057", "start_date": "1925", "twitter": "lexingtoncandy", "website": "https://www.lexingtoncandyshop.com/"}}, {"type": "node", "id": 2724232183, "lat": 40.7787743, "lon": -73.9562897, "tags": {"addr:housenumber": "1260", "addr:postcode": "10028", "addr:street": "Lexington Avenue", "amenity": "restaurant", "branch": "1260 Lexington Ave", "brand": "fresh&co", "cuisine": "health_food;american", "delivery": "yes", "diet:gluten_free": "yes", "diet:vegan": "yes", "diet:vegetarian": "yes", "name": "fresh&co", "opening_hours": "Mo-Fr 11:00-19:00", "phone": "+1 212-953-7374", "takeaway": "yes", "website": "https://freshandco.com"}}, {"type": "node", "id": 2724232543, "lat": 40.7792121, "lon": -73.9587726}, {"type": "node", "id": 2724232596, "lat": 40.77931, "lon": -73.9586602}, {"type": "node", "id": 2724232599, "lat": 40.7793232, "lon": -73.9586915}, {"type": "node", "id": 2724232631, "lat": 40.7793921, "lon": -73.959199}, {"type": "node", "id": 2724232643, "lat": 40.7794063, "lon": -73.9591886}, {"type": "node", "id": 2724232663, "lat": 40.7794188, "lon": -73.9585807}, {"type": "node", "id": 2724232753, "lat": 40.7795111, "lon": -73.9585311}, {"type": "node", "id": 2724232756, "lat": 40.7795147, "lon": -73.9591091}, {"type": "node", "id": 2724232764, "lat": 40.7795179, "lon": -73.9585262}, {"type": "node", "id": 2724232769, "lat": 40.7795274, "lon": -73.9591392}, {"type": "node", "id": 2724232831, "lat": 40.7796074, "lon": -73.9590805}, {"type": "node", "id": 2724232868, "lat": 40.7796811, "lon": -73.9584069}, {"type": "node", "id": 2724232878, "lat": 40.7796947, "lon": -73.958397}, {"type": "node", "id": 2724232936, "lat": 40.7798292, "lon": -73.9590286}, {"type": "node", "id": 2724232960, "lat": 40.7799293, "lon": -73.9589554}, {"type": "node", "id": 2724236509, "lat": 40.7802154, "lon": -73.9548959, "tags": {"addr:housenumber": "1293", "addr:postcode": "10128", "addr:street": "Lexington Avenue", "amenity": "restaurant", "contact:email": "info@bocadocafenyc.com", "contact:facebook": "BocadoNYC", "contact:instagram": "bocado_nyc", "contact:phone": "+1 212-289-9004", "contact:twitter": "bocadocafenyc", "contact:website": "http://www.bacadocafenyc.com", "cuisine": "american", "delivery": "yes", "name": "Bocado Cafe", "name:en": "Bacado", "opening_hours": "Su-Th 08:30-23:00; Fr-Sa 08:00-23:30", "reservation": "yes"}}, {"type": "node", "id": 3448911320, "lat": 40.7777126, "lon": -73.9570936, "tags": {"addr:housenumber": "1228", "addr:postcode": "10028", "addr:street": "Lexington Avenue", "amenity": "cafe", "cuisine": "bagel", "name": "Tal Bagels", "opening_hours": "05:30-20:00", "phone": "+1-212-247-6811", "website": "https://www.talbagelsny.com"}}, {"type": "node", "id": 3451042735, "lat": 40.7768188, "lon": -73.9569853, "tags": {"addr:city": "New York", "addr:housenumber": "151", "addr:postcode": "10028", "addr:state": "NY", "addr:street": "East 82nd Street", "amenity": "restaurant", "cuisine": "italian", "name": "The Simone", "note": "Outdoor seating available, with approx. capacity of 4-6", "opening_hours": "Mo-Th 18:00-21:30; Fr-Sa 18:00-22:30", "website": "http://www.thesimonerestaurant.com/", "wheelchair": "no"}}, {"type": "node", "id": 3451054422, "lat": 40.7771504, "lon": -73.9571264, "tags": {"addr:city": "New York", "addr:housenumber": "1219", "addr:postcode": "10028", "addr:state": "NY", "addr:street": "Lexington Avenue", "amenity": "restaurant", "cuisine": "italian", "instagram": "losterianyc", "name": "L'Osteria", "opening_hours": "12:00-22:00", "phone": "+1 646-524-6294", "website": "https://www.losterianyc.com"}}, {"type": "node", "id": 3451094409, "lat": 40.7770648, "lon": -73.9556075, "tags": {"addr:city": "New York", "addr:housenumber": "175", "addr:postcode": "10028", "addr:state": "NY", "addr:street": "East 83rd Street", "amenity": "restaurant", "cocktails": "yes", "cuisine": "indian", "delivery": "yes", "drink:beer": "bottled", "drink:wine": "served", "email": "info@tandooroven.com", "fax": "+1 212-988-1537", "name": "Tandoor Oven", "note": "Offers catering service No outdoor seating", "opening_hours": "Tu-Th, Su 12:00-22:00; Fr, Sa 12:00-22:30", "outdoor_seating": "no", "phone": "+1 212-628-3000", "reservation": "yes", "website": "https://www.tandooroven.com/", "wheelchair": "yes"}}, {"type": "node", "id": 5090743953, "lat": 40.7786181, "lon": -73.9559843, "tags": {"addr:city": "New York", "addr:housenumber": "1261", "addr:postcode": "10028", "addr:state": "NY", "addr:street": "Lexington Avenue", "amenity": "cafe", "branch": "85th & Lexington", "brand": "Starbucks", "brand:wikidata": "Q37158", "cuisine": "coffee_shop", "name": "Starbucks", "official_name": "Starbucks Coffee", "opening_hours": "Mo-Fr 05:00-21:00; Sa, Su 05:30-20:30", "phone": "+1 212-879-1764", "takeaway": "yes", "website": "https://www.starbucks.com/store-locator/store/10249/85th-lexington-1261-lexington-avenue-new-york-ny-100282001-us"}}, {"type": "node", "id": 5614271261, "lat": 40.7803566, "lon": -73.9531066, "tags": {"addr:housenumber": "1570", "addr:street": "3rd Avenue", "amenity": "restaurant", "cuisine": "chinese", "delivery": "yes", "fax": "+1 212-828-8655", "level": "0", "name": "Wok 88", "opening_hours": "Mo-Th 11:30-23:00; Fr 11:30-23:30; Sa 12:00-23:30; Su 12:00-23:00", "phone": "+1 212-828-8688", "takeaway": "yes", "toilets": "yes", "toilets:access": "customers", "website": "https://www.wok88inc.com/", "wheelchair": "assisted"}}, {"type": "node", "id": 5801848000, "lat": 40.7781312, "lon": -73.9567486, "tags": {"addr:housenumber": "1244", "addr:postcode": "10028", "addr:street": "Lexington Avenue", "amenity": "restaurant", "cuisine": "thai", "delivery": "yes", "name": "Thai @ Lex", "opening_hours": "Mo-Fr 11:30-22:00; Sa 12:00-22:00", "phone": "+1 212-288-6060", "takeaway": "yes", "website": "https://www.thaiatlex.com"}}, {"type": "node", "id": 5868596706, "lat": 40.7803846, "lon": -73.9533857, "tags": {"addr:city": "New York", "addr:housenumber": "171", "addr:postcode": "10128", "addr:state": "NY", "addr:street": "East 88th Street", "amenity": "cafe", "branch": "Upper Upper East", "check_date:opening_hours": "2025-07-22", "contact:email": "88thstreet@birchcoffee.com", "drink:coffee": "yes", "drink:tea": "yes", "name": "Birch Coffee", "opening_hours": "07:30-16:00", "phone": "+1 212-646-1444", "website": "https://shop.birchcoffee.com/pages/visit"}}, {"type": "node", "id": 5868658667, "lat": 40.7807678, "lon": -73.9523027, "tags": {"addr:housenumber": "1585", "addr:street": "3rd Avenue", "amenity": "cafe", "cuisine": "bagel", "delivery": "yes", "level": "0", "name": "Bagels & More", "payment:american_express": "yes", "payment:cash": "yes", "payment:discover_card": "yes", "payment:mastercard": "yes", "payment:unionpay": "yes", "payment:visa": "yes", "phone": "+1 212-348-4395", "takeaway": "yes", "website": "https://bagelsandmore3rdave.com"}}, {"type": "node", "id": 5879671792, "lat": 40.7770924, "lon": -73.9525379, "tags": {"addr:housenumber": "1631", "addr:postcode": "10028", "addr:street": "2nd Avenue", "alt_name": "Andre's Cafe", "amenity": "restaurant", "cuisine": "hungarian", "delivery": "yes", "drink:wine": "served", "name": "Budapest Caf\u00e9 & Restaurant", "opening_hours": "Mo-Su 08:00-21:00", "phone": "+1 212-327-1105", "takeaway": "yes", "website": "https://budapest-cafe.business.site"}}, {"type": "node", "id": 5879680238, "lat": 40.7770415, "lon": -73.9525966, "tags": {"addr:housenumber": "1629", "addr:street": "2nd Avenue", "amenity": "bar", "cocktails": "yes", "contact:instagram": "https://www.instagram.com/ethylsalcohol.nyc", "drink:beer": "bottled;draught", "drink:wine": "served", "email": "ethyls.alcohol@gmail.com", "name": "Ethyl's Alcohol & Food", "opening_hours": "Mo-Fr 16:00-04:00; Sa, Su 15:00-04:00", "phone": "+1 212-300-4132", "website": "http://ethylsalcohol.com"}}, {"type": "node", "id": 5907398054, "lat": 40.7775557, "lon": -73.9522212, "tags": {"addr:housenumber": "1647", "addr:postcode": "10028", "addr:street": "2nd Avenue", "amenity": "restaurant", "cocktails": "yes", "drink:beer": "yes", "name": "The Supply House", "opening_hours": "Mo, Tu 17:00-00:00; We 17:00-01:00; Th 16:00-02:00; Fr 16:00-03:00; Sa 11:30-03:00; Su 11:30-00:00", "phone": "+1 646-861-3585", "website": "https://www.thesupplyhousenyc.com/"}}, {"type": "node", "id": 5907398185, "lat": 40.7774392, "lon": -73.952309, "tags": {"addr:housenumber": "1643", "addr:postcode": "10028", "addr:street": "2nd Avenue", "amenity": "restaurant", "cuisine": "italian;tuscan", "delivery": "yes", "name": "Tiramisu", "opening_hours": "Mo-Su 12:00-22:00", "outdoor_seating": "yes", "phone": "+1-212-988-9780", "website": "https://tiramisunyc.com"}}, {"type": "node", "id": 5932754534, "lat": 40.7792964, "lon": -73.9533764, "tags": {"addr:city": "New York", "addr:housenumber": "1535", "addr:postcode": "10028", "addr:state": "NY", "addr:street": "3rd Avenue", "amenity": "cafe", "branch": "87th & 3rd", "brand": "Le Pain Quotidien", "brand:wikidata": "Q2046903", "cuisine": "coffee_shop", "delivery": "yes", "level": "0", "name": "Le Pain Quotidien", "opening_hours": "Mo-Fr 06:30-19:00; Sa,Su 07:30-19:00", "phone": "+1 332-910-6856", "shop": "bakery", "takeaway": "yes", "website": "https://www.lepainquotidien.com/us/en/locations/3004:%2087_&_3rd/1535-3rd-avenue"}}, {"type": "node", "id": 5978557700, "lat": 40.7779571, "lon": -73.9562606, "tags": {"addr:housenumber": "146", "addr:postcode": "10028", "addr:street": "East 84th Street", "amenity": "restaurant", "cocktails": "yes", "contact:facebook": "https://www.facebook.com/Nicolas-Restaurant-1395420657454582/", "cuisine": "italian", "fax": "+1 212-772-7564", "name": "Nicola\u2019s", "opening_hours": "17:00-24:00", "payment:american_express": "yes", "payment:cash": "yes", "payment:mastercard": "yes", "payment:visa": "yes", "phone": "+1 212-249-9850", "website": "http://nicolasrestaurantnyc.com/"}}, {"type": "node", "id": 6006060909, "lat": 40.7791537, "lon": -73.9535112, "tags": {"addr:housenumber": "1535", "addr:postcode": "10028", "addr:street": "3rd Avenue", "amenity": "restaurant", "cuisine": "mediterranean", "indoor_seating": "yes", "level": "0", "name": "Cava", "takeaway": "yes", "wheelchair": "yes"}}, {"type": "node", "id": 6051280588, "lat": 40.7811481, "lon": -73.9525139, "tags": {"addr:housenumber": "1596", "addr:postcode": "10128", "addr:street": "3rd Avenue", "amenity": "restaurant", "branch": "Upper East Side", "cuisine": "japanese", "dish": "ramen", "name": "Naruto Ramen", "opening_hours": "Mo-Su 12:00-22:45", "phone": "+1 212-289-7803", "website": "https://narutoramenex.com/upper-east-side/"}}, {"type": "node", "id": 6174050007, "lat": 40.7778783, "lon": -73.9541391, "tags": {"addr:housenumber": "206", "addr:street": "East 85th Street", "amenity": "restaurant", "cocktails": "yes", "contact:instagram": "https://www.instagram.com/jacques_brasserie", "contact:twitter": "https://twitter.com/jacques_nyc", "cuisine": "french", "delivery": "yes", "drink:beer": "served", "drink:wine": "served", "happy_hours": "Mo-Fr 16:00-17:30", "name": "Jacques Brasserie", "opening_hours": "Mo-Th 12:00-23:00; Fr 12:00-24:00; Sa 11:30-15:30, 16:00-24:00; Su 11:30-23:00", "outdoor_seating": "yes", "phone": "+1 212-327-2272", "reservation": "yes", "takeaway": "yes", "website": "https://www.jacquesbrasserie.com"}}, {"type": "node", "id": 6228622528, "lat": 40.7818145, "lon": -73.9520354, "tags": {"addr:housenumber": "1614", "addr:postcode": "10128", "addr:street": "3rd Avenue", "amenity": "restaurant", "contact:instagram": "http://instagram.com/kaiawinebar", "contact:twitter": "https://twitter.com/KaiaWinebar", "cuisine": "south_african", "delivery": "yes", "drink:beer": "yes", "drink:cocktail": "yes", "drink:wine": "yes", "email": "suzaan@kaiawinebar.com", "happy_hours": "16:00-19:00", "name": "Kaia Wine Bar", "opening_hours": "Mo 16:00-22:00; Tu,We 16:00-23:00; Th 16:00-23:30; Fr 16:00-24:00; Sa 14:00-00:30, Su 12:00-22:00", "phone": "+1 212-722-0490", "takeaway": "yes", "toilets": "yes", "toilets:wheelchair": "no", "website": "https://www.kaiawinebar.com"}}, {"type": "node", "id": 6250062022, "lat": 40.7788421, "lon": -73.9558617, "tags": {"addr:housenumber": "1269", "addr:postcode": "10028", "addr:street": "Lexington Avenue", "air_conditioning": "yes", "amenity": "cafe", "branch": "Upper East Side", "contact:facebook": "https://www.facebook.com/Variety-Coffee-Roasters-153079282054688/", "cuisine": "coffee_shop", "drink:coffee": "yes", "drink:espresso": "yes", "drink:tea": "yes", "indoor_seating": "yes", "internet_access": "yes", "internet_access:fee": "no", "name": "Variety Coffee Roasters", "opening_hours": "07:00-21:00", "outdoor_seating": "yes", "phone": "+1 212-289-2104", "takeaway": "yes", "toilets": "yes", "toilets:access": "permissive", "toilets:wheelchair": "no", "website": "https://varietycoffeeroasters.com"}}, {"type": "node", "id": 6725433358, "lat": 40.7786166, "lon": -73.9530659, "tags": {"addr:housenumber": "215", "addr:postcode": "10028", "addr:street": "East 86th Street", "amenity": "restaurant", "branch": "Upper East Side", "cuisine": "mediterranean", "delivery": "yes", "email": "contact@hummusandpitas.com", "fax": "+1 212-937-3553", "level": "0", "name": "The Hummus & Pita Co.", "opening_hours": "Mo-Sa 11:00-22:00; Su 11:00-21:00", "phone": "+1 646-944-4500", "takeaway": "yes", "website": "https://www.hummusandpitas.com/"}}, {"type": "node", "id": 6781739945, "lat": 40.7786314, "lon": -73.9564131, "tags": {"addr:housenumber": "1254", "addr:street": "Lexington Avenue", "amenity": "bar", "contact:facebook": "https://www.facebook.com/pages/Carlow-East/118044641542044", "contact:twitter": "https://www.twitter.com/carloweast", "drink:beer": "yes", "name": "Carlow East", "phone": "+1 212-744-6397", "sport": "billiards", "website": "https://www.carloweastbar.com"}}, {"type": "node", "id": 6979980085, "lat": 40.7770944, "lon": -73.9571567, "tags": {"addr:housenumber": "1217", "addr:street": "Lexington Avenue", "amenity": "restaurant", "branch": "Upper East Side", "contact:instagram": "https://www.instagram.com/sabaspizza/", "cuisine": "pizza;italian", "delivery": "yes", "diet:kosher": "yes", "email": "sabaspizzany@gmail.com", "name": "Saba's Pizza", "opening_hours": "Su-Th 11:00-19:45; Fr 11:00-17:30", "phone": "+1 212-987-9130", "takeaway": "yes", "website": "https://www.sabaspizzanyc.com/"}}, {"type": "node", "id": 6979980086, "lat": 40.778314, "lon": -73.9566244, "tags": {"amenity": "restaurant", "cuisine": "pizza", "delivery": "yes", "name": "Famous Famiglia Pizzeria", "phone": "+1 212-737-7777", "takeaway": "yes"}}, {"type": "node", "id": 7097336604, "lat": 40.7778228, "lon": -73.9539994, "tags": {"email": "robert@eberhartmgmt.com", "fax": "+1 212-734-8449", "level": "1", "name": "Robert Eberhart Real Estate", "office": "estate_agent", "opening_hours": "Mo-Fr 09:00-17:00; PH off", "operator": "Robert C. Eberhart", "owner": "Robert C. Eberhart", "phone": "+1 212-734-3272", "website": "https://www.eberhartmgmt.com", "wheelchair": "no"}}, {"type": "node", "id": 7278595729, "lat": 40.7780696, "lon": -73.9560043, "tags": {"addr:city": "New York", "addr:housenumber": "155", "addr:postcode": "10028", "addr:state": "NY", "addr:street": "East 84th Street", "amenity": "restaurant", "contact:email": "homekitchen84@gmail,com", "contact:instagram": "homekitchennyc", "cuisine": "comfort_food", "delivery": "yes", "name": "Home Kitchen", "opening_hours": "Mo-Su 11:30-22:00", "phone": "+1 646-838-5102", "takeaway": "yes", "website": "https://www.homekitchennyc.com/"}}, {"type": "node", "id": 8410114663, "lat": 40.7812501, "lon": -73.9524521, "tags": {"addr:housenumber": "1598", "addr:postcode": "10128", "addr:street": "3rd Avenue", "amenity": "restaurant", "contact:email": "thaihotboxnyc@gmail.com", "contact:facebook": "Thai-Hot-Box-100296591954819", "contact:instagram": "thaihotboxnyc", "contact:phone": "+1 917-409-1641", "contact:website": "https://www.thaihotbox.com", "cuisine": "thai", "delivery": "yes", "level": "0", "name": "Thai Hot Box", "opening_hours": "Mo-Su 11:30-21:00", "takeaway": "yes", "wheelchair": "yes"}}, {"type": "node", "id": 8819045747, "lat": 40.7806652, "lon": -73.9528593, "tags": {"addr:housenumber": "1580", "addr:street": "3rd Avenue", "amenity": "restaurant", "cocktails": "yes", "contact:facebook": "sienathirdave", "contact:instagram": "siena_cafe", "cuisine": "italian", "delivery": "yes", "drink:beer": "served", "drink:wine": "served", "level": "0", "name": "Siena Cafe", "opening_hours": "11:00-02:00", "opening_hours:kitchen": "Mo-Fr 11:00-24:00; Sa, Su 11:00-22:00", "phone": "+1 212-410-5588", "takeaway": "yes", "website": "https://www.sienacafe.com/"}}, {"type": "node", "id": 9029130044, "lat": 40.7771126, "lon": -73.9537128, "tags": {"addr:housenumber": "229", "addr:street": "East 84th Street", "amenity": "pub", "cocktails": "yes", "contact:facebook": "TrinityPub", "contact:instagram": "trinitypubnyc", "cuisine": "irish", "drink:beer": "bottled; draught", "drink:wine": "served", "name": "Trinity Pub", "opening_hours": "Mo-Su 12:00-04:00", "outdoor_seating": "street", "phone": "+1 212-327-4450", "website": "https://trinitypubny.com/"}}, {"type": "node", "id": 9029130047, "lat": 40.7770447, "lon": -73.9535563, "tags": {"addr:housenumber": "235", "addr:postcode": "10028", "addr:street": "East 84th Street", "name": "Manhattan Flats", "office": "estate_agent", "phone": "+1-212-570-0000"}}, {"type": "node", "id": 9029130048, "lat": 40.777176, "lon": -73.9544995, "tags": {"disused:website": "http://www.eba.nyc", "name": "Emmerman, Boyle & Associates", "office": "tax_advisor", "phone": "+1-212-249-2525"}}, {"type": "node", "id": 9029130049, "lat": 40.7770063, "lon": -73.9534632, "tags": {"addr:housenumber": "235", "addr:street": "East 84th Street", "amenity": "bar", "cocktails": "yes", "drink:beer": "bottled", "email": "info@brandyspianobar.com", "facebook": "Brandys-Piano-Bar-279949132051489", "happy_hours": "16:00-20:30", "instagram": "brandyspianobar", "name": "Brandy's Piano Bar", "opening_hours": "16:00-04:00", "outdoor_seating": "street", "phone": "+1 212-744-4949", "reservation": "no", "website": "https://brandyspianobar.com"}}, {"type": "node", "id": 9312819779, "lat": 40.781057, "lon": -73.9525772, "tags": {"addr:city": "New York", "addr:housenumber": "1592", "addr:postcode": "10128", "addr:state": "NY", "addr:street": "3rd Avenue", "amenity": "cafe", "branch": "Upper East Side", "drink:coffee": "served", "level": "0", "name": "Marathon Coffee", "opening_hours": "Mo-Th 07:00-16:30; Fr 07:00-18:00; Sa, Su 07:30-18:00", "takeaway": "yes", "website": "https://www.marathon.coffee/", "wheelchair": "no"}}, {"type": "node", "id": 9448907812, "lat": 40.779167, "lon": -73.9560063, "tags": {"addr:city": "New York", "addr:housenumber": "1270", "addr:postcode": "10028", "addr:state": "NY", "addr:street": "Lexington Avenue", "amenity": "cafe", "brand": "Paris Baguette", "brand:wikidata": "Q62605260", "name": "Paris Baguette", "opening_hours": "Mo-Su 07:00-21:00", "shop": "bakery"}}, {"type": "node", "id": 9579458320, "lat": 40.780315, "lon": -73.9531563, "tags": {"addr:housenumber": "1568", "addr:postcode": "10128", "addr:street": "3rd Avenue", "amenity": "restaurant", "contact:instagram": "yasouvlakinyc", "cuisine": "greek", "delivery": "yes", "drink:beer": "bottled; draught", "drink:wine": "served", "email": "yasouvlakinyc@gmail.com", "level": "0", "name": "Yasouvlaki", "opening_hours": "Mo-Th 11:30-21:30; Fr, Sa 11:30-22:00; Su 11:30-21:30", "phone": "+1 929-551-1010", "reservation": "yes", "takeaway": "yes", "website": "https://yasouvlakinyc.com", "wheelchair": "yes"}}, {"type": "node", "id": 9579615886, "lat": 40.7803272, "lon": -73.9526335, "tags": {"addr:housenumber": "1575", "addr:postcode": "10128", "addr:street": "3rd Avenue", "amenity": "restaurant", "cocktails": "yes", "cuisine": "japanese;sushi", "delivery": "yes", "drink:beer": "bottled", "drink:wine": "served", "level": "0", "name": "Ooki Sushi", "opening_hours": "11:30-22:00", "phone": "+1 212-828-3388", "takeaway": "yes", "website": "http://ookisushi.us"}}, {"type": "node", "id": 9596938816, "lat": 40.7809445, "lon": -73.954711, "tags": {"addr:housenumber": "1324", "addr:street": "Lexington Avenue", "amenity": "cafe", "delivery": "yes", "name": "Tal Bagels", "opening_hours": "Mo-Sa 07:00-17:00; Su 07:00-16:00", "phone": "+1 646-850-0133", "takeaway": "yes"}}, {"type": "node", "id": 9683497137, "lat": 40.7771173, "lon": -73.9525218, "tags": {"addr:housenumber": "1631", "addr:street": "2nd Avenue", "amenity": "cafe", "contact:instagram": "carolinesdonuts", "cuisine": "donut", "level": "0", "name": "Caroline's Donuts", "opening_hours": "Mo-Th 13:00-18:00; Fr-Su 10:00-18:00", "outdoor_seating": "yes", "takeaway": "yes", "website": "https://www.carolinesdonuts.com", "wheelchair": "assisted"}}, {"type": "node", "id": 9683526577, "lat": 40.776803, "lon": -73.9527507, "tags": {"addr:housenumber": "1621", "addr:street": "2nd Avenue", "amenity": "restaurant", "name": "Elio's"}}, {"type": "node", "id": 9990686101, "lat": 40.7800539, "lon": -73.9526184}, {"type": "node", "id": 9990686102, "lat": 40.7799973, "lon": -73.952479}, {"type": "node", "id": 9990686103, "lat": 40.78017, "lon": -73.952357}, {"type": "node", "id": 9990686104, "lat": 40.780142, "lon": -73.9524968}, {"type": "node", "id": 9990686106, "lat": 40.7801478, "lon": -73.9525111}, {"type": "node", "id": 9990686107, "lat": 40.7802038, "lon": -73.9524404}, {"type": "node", "id": 9990686108, "lat": 40.7801665, "lon": -73.9524666}, {"type": "node", "id": 9990686109, "lat": 40.7801705, "lon": -73.9524765}, {"type": "node", "id": 9990686110, "lat": 40.7801207, "lon": -73.9525521}, {"type": "node", "id": 9990686111, "lat": 40.7800895, "lon": -73.9525933}, {"type": "node", "id": 9990686112, "lat": 40.7800363, "lon": -73.9525755, "tags": {"barrier": "gate"}}, {"type": "node", "id": 9990686113, "lat": 40.7801138, "lon": -73.9525351}, {"type": "node", "id": 9990686115, "lat": 40.7800834, "lon": -73.9525784}, {"type": "node", "id": 10010270931, "lat": 40.778152, "lon": -73.9567392, "tags": {"addr:housenumber": "1246", "addr:postcode": "10029", "addr:street": "Lexington Avenue", "amenity": "cafe", "level": "0", "name": "Dear Coffee"}}, {"type": "node", "id": 10096271927, "lat": 40.776869, "lon": -73.9526966, "tags": {"addr:housenumber": "1623", "addr:postcode": "10028", "addr:street": "2nd Avenue", "amenity": "restaurant", "branch": "Upper East Side", "cuisine": "chinese", "dish": "dumpling", "name": "Vanessa's Dumpling House", "opening_hours": "Mo-Su 12:00-22:00", "phone": "+1 917-261-2780", "website": "https://vanessas.com/"}}, {"type": "node", "id": 10573807982, "lat": 40.7779736, "lon": -73.9543705, "tags": {"addr:housenumber": "1505", "addr:street": "3rd Avenue", "amenity": "restaurant", "delivery": "yes", "name": "Giacomo's Pizza", "opening_hours": "Mo-Th, Su 10:00-01:00; Fr, Sa 10:00-02:00", "phone": "+1 646-719-1177", "toilets": "customers", "website": "https://www.giacomospizzarestaurant.com/"}}, {"type": "node", "id": 10695825227, "lat": 40.7777807, "lon": -73.9549893, "tags": {"amenity": "restaurant", "cuisine": "italian", "name": "Serafina Restaurant ", "opening_hours": "closed", "website": "https://cafeserafinany.com/"}}, {"type": "node", "id": 10777014284, "lat": 40.7805459, "lon": -73.952953, "tags": {"addr:housenumber": "1574", "addr:postcode": "10128", "addr:street": "3rd Avenue", "amenity": "restaurant", "cocktails": "yes", "cuisine": "japanese;sushi", "drink:beer": "yes", "level": "0", "name": "Sushi Goda", "opening_hours": "Mo-Sa 17:00-22:00"}}, {"type": "node", "id": 10777014287, "lat": 40.780003, "lon": -73.9533458, "tags": {"addr:housenumber": "1562", "addr:postcode": "10128", "addr:street": "3rd Avenue", "amenity": "restaurant", "cuisine": "pizza", "delivery": "yes", "level": "0", "name": "Original Roma Pizza", "opening_hours": "Su-Th 10:00-02:00; Fr, Sa 10:00-04:00", "phone": "+1 212-369-3455", "takeaway": "yes", "website": "https://slicelife.com/restaurants/ny/new-york/10128/original-roma-pizza/menu", "wheelchair": "yes"}}, {"type": "node", "id": 11170767864, "lat": 40.777737, "lon": -73.9549659}, {"type": "node", "id": 11170767865, "lat": 40.7776346, "lon": -73.9550422}, {"type": "node", "id": 11170767866, "lat": 40.7777463, "lon": -73.9553095}, {"type": "node", "id": 11170767867, "lat": 40.7778507, "lon": -73.9552378}, {"type": "node", "id": 11281910248, "lat": 40.7801272, "lon": -73.9553231, "tags": {"addr:housenumber": "1280", "addr:postcode": "10028", "addr:street": "Lexington Avenue", "amenity": "cafe", "branch": "Upper East Side", "brand": "Ole & Steen", "brand:wikidata": "Q12323572", "contact:email": "gm.1280lexington@lagkagehuset.dk", "internet_access": "wlan", "internet_access:fee": "no", "level": "0", "name": "Ole & Steen", "opening_hours": "Mo-Fr 07:00-19:00; Sa, Su 08:00-19:00", "shop": "bakery", "takeaway": "yes", "website": "https://oleandsteen.us/stores"}}, {"type": "node", "id": 12643796883, "lat": 40.7796429, "lon": -73.9591649}, {"type": "way", "id": 1090764362, "nodes": [9990686101, 9990686111, 9990686115, 9990686110, 9990686113, 9990686106, 9990686104, 9990686109, 9990686108, 9990686107, 9990686103, 9990686102, 9990686112, 9990686101], "tags": {"leisure": "park", "opening_hours": "08:00-20:00"}}, {"type": "way", "id": 1205355316, "nodes": [11170767864, 11170767865, 11170767866, 11170767867, 11170767864], "tags": {"access": "yes", "addr:city": "New York", "addr:housenumber": "171", "addr:postcode": "10028", "addr:state": "NY", "addr:street": "East 84th Street", "leisure": "park", "name": "Evans Tower Plaza", "opening_hours": "24/7", "website": "https://apops.mas.org/pops/m080039/"}}, {"type": "way", "id": 1365359330, "nodes": [2724232631, 2724232543, 2724232599, 2724232596, 2724232663, 2724232753, 2724232764, 2724232868, 2724232878, 2724232960, 2724232936, 12643796883, 2724232831, 2724232769, 2724232756, 2724232643, 2724232631], "tags": {"addr:city": "New York", "addr:housenumber": "55", "addr:postcode": "10028", "addr:state": "NY", "addr:street": "East 84th Street", "amenity": "school", "description": "Regis High School is a private Jesuit university-preparatory school for Roman Catholic young men located on Manhattan's Upper East Side. Annual class enrollment is limited to approximately 135 male students.", "ele": "29", "gnis:feature_id": "2084000", "mascot": "Owls", "name": "Regis High School", "wikidata": "Q7309331"}}]}