{"version": 0.6, "generator": "Overpass API 0.7.62.8 e802775f", "osm3s": {"timestamp_osm_base": "2025-12-01T15:23:15Z", "copyright": "The data included in this document is from www.openstreetmap.org. The data is made available under ODbL."}, "elements": [{"type": "node", "id": 357621448, "lat": 40.805, "lon": -73.9344444, "tags": {"amenity": "school", "ele": "3", "gnis:feature_id": "2083907", "name": "King's Academy"}}, {"type": "node", "id": 357621575, "lat": 40.8055116, "lon": -73.9355127, "tags": {"amenity": "school", "ele": "4", "gnis:feature_id": "2083939", "name": "Public School M030 Hernandez / Hughes"}}, {"type": "node", "id": 357648593, "lat": 40.8058249, "lon": -73.9354993, "tags": {"amenity": "school", "ele": "4", "gnis:feature_id": "2493089", "name": "Public School M138"}}, {"type": "node", "id": 1332843431, "lat": 40.8067446, "lon": -73.9337398}, {"type": "node", "id": 1332843432, "lat": 40.8066922, "lon": -73.9336422}, {"type": "node", "id": 1332843478, "lat": 40.8056686, "lon": -73.9326938}, {"type": "node", "id": 1332843531, "lat": 40.8064523, "lon": -73.9349147}, {"type": "node", "id": 1332843541, "lat": 40.8063711, "lon": -73.9357783}, {"type": "node", "id": 1332843551, "lat": 40.8060345, "lon": -73.9350101}, {"type": "node", "id": 1332843559, "lat": 40.8066912, "lon": -73.9340207}, {"type": "node", "id": 1332843598, "lat": 40.8065664, "lon": -73.9348224}, {"type": "node", "id": 1332843625, "lat": 40.8068033, "lon": -73.935487}, {"type": "node", "id": 1332843627, "lat": 40.8067653, "lon": -73.9338407}, {"type": "node", "id": 1332843659, "lat": 40.8051864, "lon": -73.933017}, {"type": "node", "id": 1332843756, "lat": 40.8059301, "lon": -73.9346314}, {"type": "node", "id": 1332843834, "lat": 40.8058594, "lon": -73.9345928}, {"type": "node", "id": 1332843878, "lat": 40.8067491, "lon": -73.9339319}, {"type": "node", "id": 1332843904, "lat": 40.8066269, "lon": -73.9350434}, {"type": "node", "id": 1332843946, "lat": 40.8063634, "lon": -73.9349565}, {"type": "node", "id": 1332843947, "lat": 40.8062334, "lon": -73.9349887}, {"type": "node", "id": 2339512719, "lat": 40.8022065, "lon": -73.9380389}, {"type": "node", "id": 2339512720, "lat": 40.8024321, "lon": -73.9379288}, {"type": "node", "id": 2339512723, "lat": 40.8023855, "lon": -73.9384792}, {"type": "node", "id": 2339512725, "lat": 40.8027307, "lon": -73.9377925}, {"type": "node", "id": 2339512729, "lat": 40.8028722, "lon": -73.9381263}, {"type": "node", "id": 2339512747, "lat": 40.8026231, "lon": -73.9377872}, {"type": "node", "id": 2339512750, "lat": 40.8025306, "lon": -73.9383749}, {"type": "node", "id": 2339512753, "lat": 40.8024157, "lon": -73.9378887}, {"type": "node", "id": 2339512755, "lat": 40.8025601, "lon": -73.9383537}, {"type": "node", "id": 2339527547, "lat": 40.8025514, "lon": -73.9349551}, {"type": "node", "id": 2339527555, "lat": 40.8026904, "lon": -73.9352959}, {"type": "node", "id": 2339527556, "lat": 40.80293, "lon": -73.9351252}, {"type": "node", "id": 2339527558, "lat": 40.8027909, "lon": -73.9347845}, {"type": "node", "id": 2339813955, "lat": 40.8059242, "lon": -73.9346516}, {"type": "node", "id": 2339813956, "lat": 40.8060623, "lon": -73.9347401}, {"type": "node", "id": 2339813957, "lat": 40.8066429, "lon": -73.9343726}, {"type": "node", "id": 2339813958, "lat": 40.8064517, "lon": -73.9346675}, {"type": "node", "id": 2339813959, "lat": 40.8066713, "lon": -73.9341098}, {"type": "node", "id": 2339813960, "lat": 40.8062876, "lon": -73.9347347}, {"type": "node", "id": 2339813961, "lat": 40.8065491, "lon": -73.9345334}, {"type": "node", "id": 2339813962, "lat": 40.8067262, "lon": -73.93415}, {"type": "node", "id": 2339815845, "lat": 40.8070652, "lon": -73.9339918}, {"type": "node", "id": 2339815846, "lat": 40.8071363, "lon": -73.9340374}, {"type": "node", "id": 2339815847, "lat": 40.8075545, "lon": -73.9347642}, {"type": "node", "id": 2339815849, "lat": 40.8071058, "lon": -73.9351397}, {"type": "node", "id": 2339815851, "lat": 40.806986, "lon": -73.9351049}, {"type": "node", "id": 2339815852, "lat": 40.8068825, "lon": -73.9350566}, {"type": "node", "id": 2339815853, "lat": 40.8074875, "lon": -73.9349118}, {"type": "node", "id": 2339815855, "lat": 40.8068232, "lon": -73.9345602}, {"type": "node", "id": 2339815856, "lat": 40.8067932, "lon": -73.9349225}, {"type": "node", "id": 2339815857, "lat": 40.8067708, "lon": -73.934732}, {"type": "node", "id": 2339815858, "lat": 40.8073616, "lon": -73.9350217}, {"type": "node", "id": 2339815859, "lat": 40.8075464, "lon": -73.9344531}, {"type": "node", "id": 2339815860, "lat": 40.8074875, "lon": -73.9343297}, {"type": "node", "id": 2339815861, "lat": 40.8072439, "lon": -73.9350995}, {"type": "node", "id": 2339815862, "lat": 40.8075764, "lon": -73.9346166}, {"type": "node", "id": 2765549885, "lat": 40.8015727, "lon": -73.9351046, "tags": {"addr:city": "New York", "addr:housenumber": "240", "addr:postcode": "10035", "addr:state": "NY", "addr:street": "East 123rd Street", "amenity": "school", "description": "Charter School", "email": "hpes_info@democracyprep.org", "fax": "+1-212-876-9926", "name": "Democracy Prep Public Schools", "phone": "+1 212-876-9953", "website": "http://hpes.democracyprep.org/"}}, {"type": "node", "id": 2765578597, "lat": 40.8042398, "lon": -73.9366149, "tags": {"addr:housenumber": "159", "addr:postcode": "10035", "addr:street": "East 125th Street", "admin_level": "4", "branch": "Harlem", "government": "transportation", "name": "New York State Department of Motor Vehicles", "office": "government", "opening_hours": "Mo-We, Fr 08:30-16:00; Th 10:00-18:00", "operator": "New York State Department of Motor Vehicles", "operator:short": "New York DMV", "operator:wikidata": "Q17109616", "operator:wikipedia": "en:New York State Department of Motor Vehicles", "phone": "+1 212-645-5550", "short_name": "DMV", "website": "https://dmv.ny.gov/office/harlem"}}, {"type": "node", "id": 2765606735, "lat": 40.8055295, "lon": -73.9327889}, {"type": "node", "id": 2883793318, "lat": 40.8039697, "lon": -73.9360191, "tags": {"addr:city": "New York", "addr:housenumber": "175", "addr:postcode": "10035", "addr:state": "NY", "addr:street": "East 125th Street", "name": "The Salvation Army Corps Community Center", "office": "ngo"}}, {"type": "node", "id": 3661038140, "lat": 40.8055163, "lon": -73.9405433, "tags": {"addr:city": "New York", "addr:housenumber": "52", "addr:postcode": "10035", "addr:state": "NY", "addr:street": "East 125th Street", "amenity": "restaurant", "contact:instagram": "https://www.instagram.com/uptownvegnyc/", "cuisine": "american", "diet:vegan": "yes", "diet:vegetarian": "yes", "name": "Uptown Veg", "opening_hours": "Su-Sa 10:00-20:00", "phone": "+1-212-987-2660", "website": "https://uptownvegnyc.com/"}}, {"type": "node", "id": 3661038142, "lat": 40.8056675, "lon": -73.9409175, "tags": {"name": "R&G Brenner Income Tax", "office": "accountant"}}, {"type": "node", "id": 5972697424, "lat": 40.8035129, "lon": -73.9378803, "tags": {"addr:housenumber": "2027", "addr:street": "Lexington Avenue", "amenity": "restaurant", "name": "The Famous Jimbo's Hamburgers Palace"}}, {"type": "node", "id": 6680604284, "lat": 40.80563, "lon": -73.9399632, "tags": {"addr:housenumber": "63", "addr:street": "West 125th Street", "amenity": "restaurant", "cuisine": "caribbean", "name": "Daps Caribbean Cuisine"}}, {"type": "node", "id": 6680630085, "lat": 40.8055541, "lon": -73.939802, "tags": {"addr:housenumber": "69", "addr:street": "West 125th Street", "government": "yes", "name": "2nd Avenue Subway Community Office", "office": "government"}}, {"type": "node", "id": 10570579768, "lat": 40.8061731, "lon": -73.9404894, "tags": {"amenity": "restaurant", "cuisine": "japanese", "name": "Charlie's Place", "phone": "+1 212-410-0277"}}, {"type": "node", "id": 11255243806, "lat": 40.8037045, "lon": -73.9354025, "tags": {"amenity": "restaurant", "name": "Teriyaki Madness"}}, {"type": "node", "id": 11610701050, "lat": 40.8053513, "lon": -73.9379238, "tags": {"addr:city": "New York", "addr:housenumber": "106", "addr:postcode": "10035", "addr:state": "NY", "addr:street": "East 126th Street", "alt_name": "OnPoint NYC", "email": "info@onpointnyc.org", "name": "OnPoint NYC East Harlem Drop-In Center", "office": "association", "opening_hours": "Mo-Fr 07:30-20:00; Sa-Su 10:30-18:00", "operator": "OnPoint NYC", "phone": "+1-212-828-8464", "website": "https://onpointnyc.org/"}}, {"type": "way", "id": 118524660, "nodes": [1332843625, 1332843541, 1332843551, 1332843947, 1332843946, 1332843531, 1332843598, 1332843904, 1332843625], "tags": {"ele": "5", "gnis:feature_id": "2500805", "leisure": "park", "name": "Alice Kornegay Triangle", "ref": "M208A", "source": "Bing", "website": "https://www.nycgovparks.org/parks/alice-kornegay-triangle", "wikidata": "Q34802391"}}, {"type": "way", "id": 118524700, "nodes": [1332843659, 1332843834, 1332843756, 1332843559, 1332843878, 1332843627, 1332843431, 1332843432, 1332843478, 2765606735, 1332843659], "tags": {"ele": "2", "gnis:feature_id": "2500806", "leisure": "park", "name": "Harlem River Park", "ref": "M208D", "website": "https://www.nycgovparks.org/parks/harlem-river-park/", "wikidata": "Q49498000"}}, {"type": "way", "id": 225132539, "nodes": [2339512723, 2339512750, 2339512755, 2339512729, 2339512725, 2339512747, 2339512720, 2339512753, 2339512719, 2339512723], "tags": {"alt_name": "McNair Park", "leisure": "park", "name": "Dr. Ronald E. McNair Playground", "ref": "B044", "website": "https://www.nycgovparks.org/parks/dr-ronald-mcnair-park", "wikidata": "Q34848332"}}, {"type": "way", "id": 225134048, "nodes": [2339527555, 2339527556, 2339527558, 2339527547, 2339527555], "tags": {"leisure": "park", "name": "Detective Omar Edwards Park", "source": "http://www.nycgovparks.org/parks/", "website": "https://www.nycgovparks.org/parks/detective-omar-edwards-park"}}, {"type": "way", "id": 225173496, "nodes": [2339813962, 2339813959, 2339813955, 2339813956, 2339813960, 2339813958, 2339813961, 2339813957, 2339813962], "tags": {"leisure": "park"}}, {"type": "way", "id": 225173799, "nodes": [2339815846, 2339815860, 2339815859, 2339815862, 2339815847, 2339815853, 2339815858, 2339815861, 2339815849, 2339815851, 2339815852, 2339815856, 2339815857, 2339815855, 2339815845, 2339815846], "tags": {"leisure": "park", "name": "Each One Teach One", "ref": "M208B", "website": "https://www.nycgovparks.org/parks/each-one-teach-one/"}}]}