{"version": 0.6, "generator": "Overpass API 0.7.62.8 e802775f", "osm3s": {"timestamp_osm_base": "2025-12-01T17:32:30Z", "copyright": "The data included in this document is from www.openstreetmap.org. The data is made available under ODbL."}, "elements": [{"type": "node", "id": 357581092, "lat": 40.7458133, "lon": -73.8799939}, {"type": "node", "id": 357628913, "lat": 40.7482547, "lon": -73.8764698}, {"type": "node", "id": 2570074503, "lat": 40.750291, "lon": -73.8801425}, {"type": "node", "id": 2570074505, "lat": 40.750328, "lon": -73.8797926}, {"type": "node", "id": 2570074540, "lat": 40.7505576, "lon": -73.8801915}, {"type": "node", "id": 2570074547, "lat": 40.7505946, "lon": -73.8798416}, {"type": "node", "id": 2570081298, "lat": 40.7486017, "lon": -73.8766606, "tags": {"addr:housenumber": "37-72", "addr:postcode": "11372", "addr:street": "90th Street", "amenity": "restaurant", "cuisine": "italian", "name": "La Peque\u00f1a"}}, {"type": "node", "id": 2570094571, "lat": 40.7482456, "lon": -73.8796042, "tags": {"addr:city": "Jackson Heights", "addr:housenumber": "86-13", "addr:postcode": "11372", "addr:state": "NY", "addr:street": "Roosevelt Avenue", "amenity": "restaurant", "cuisine": "colombian", "name": "Pollos Mario"}}, {"type": "node", "id": 2570188181, "lat": 40.7456027, "lon": -73.8795118}, {"type": "node", "id": 2570188208, "lat": 40.7456739, "lon": -73.879675}, {"type": "node", "id": 2570188215, "lat": 40.7457025, "lon": -73.8797405}, {"type": "node", "id": 2570188235, "lat": 40.7457584, "lon": -73.8793932}, {"type": "node", "id": 2570188272, "lat": 40.745906, "lon": -73.879269}, {"type": "node", "id": 2570188324, "lat": 40.7460663, "lon": -73.8791471}, {"type": "node", "id": 2570188388, "lat": 40.7461403, "lon": -73.8793167}, {"type": "node", "id": 2570188411, "lat": 40.7461686, "lon": -73.8793815}, {"type": "node", "id": 2570188494, "lat": 40.7462802, "lon": -73.8796372}, {"type": "node", "id": 2884066470, "lat": 40.7485278, "lon": -73.874226, "tags": {"addr:city": "Queens", "addr:housenumber": "92-10", "addr:postcode": "11372", "addr:state": "NY", "addr:street": "Roosevelt Avenue", "name": "Make the Road", "office": "ngo"}}, {"type": "node", "id": 3705280797, "lat": 40.7483308, "lon": -73.8766358}, {"type": "node", "id": 3705280798, "lat": 40.7483521, "lon": -73.8764124}, {"type": "node", "id": 5166815323, "lat": 40.7483609, "lon": -73.8750842, "tags": {"amenity": "restaurant", "cuisine": "mexican", "name": "Tia Julia"}}, {"type": "node", "id": 7747349696, "lat": 40.7488879, "lon": -73.8764441, "tags": {"addr:housenumber": "37-57", "addr:postcode": "11372", "addr:street": "90th Street", "amenity": "restaurant", "cuisine": "mexican", "name": "Tacos Al Suadero"}}, {"type": "node", "id": 7828100400, "lat": 40.7505737, "lon": -73.877688, "tags": {"addr:city": "Jackson Heights", "addr:housenumber": "89-01", "addr:postcode": "11372", "addr:state": "NY", "addr:street": "37th Avenue", "amenity": "restaurant", "cuisine": "colombian;spanish", "name": "La Gata Galosa", "opening_hours": "24/7", "phone": "+1-718-651-0788"}}, {"type": "node", "id": 8547528142, "lat": 40.7461782, "lon": -73.8799005}, {"type": "node", "id": 8547528145, "lat": 40.7462879, "lon": -73.879817}, {"type": "node", "id": 8547528146, "lat": 40.7460902, "lon": -73.8799675}, {"type": "node", "id": 8547528173, "lat": 40.7459099, "lon": -73.8792779}, {"type": "node", "id": 8547528174, "lat": 40.7463493, "lon": -73.8797703}, {"type": "node", "id": 8547528175, "lat": 40.7458737, "lon": -73.8801323}, {"type": "node", "id": 8547528176, "lat": 40.7462885, "lon": -73.879631}, {"type": "node", "id": 11829075745, "lat": 40.7500769, "lon": -73.8801079, "tags": {"addr:city": "Jackson Heights", "addr:housenumber": "86-12", "addr:postcode": "11372", "addr:state": "NY", "addr:street": "37th Avenue", "amenity": "restaurant", "cuisine": "sushi;japanese", "name": "New Tomo Japanese Cuisine"}}, {"type": "node", "id": 12020666510, "lat": 40.7489845, "lon": -73.8764612, "tags": {"name": "Office Plaza", "office": "yes"}}, {"type": "node", "id": 12180773327, "lat": 40.7484378, "lon": -73.8781082, "tags": {"amenity": "restaurant", "cuisine": "mexican;seafood", "name": "Mariscos El Submarino"}}, {"type": "way", "id": 250583708, "nodes": [2570074503, 2570074540, 2570074547, 2570074505, 2570074503], "tags": {"addr:city": "Jackson Heights", "addr:housenumber": "86-15", "addr:postcode": "11372", "addr:state": "NY", "addr:street": "37th Avenue", "alt_name": "Fire Fighter Christopher A. Santora School", "amenity": "school", "building": "school", "fax": "+1-718-429-3484", "grades": "PK;0-2", "height": "22.8", "name": "Public School Q222", "nycdoitt:bin": "4035854", "operator": "New York City Department of Education", "operator:short": "NYC Public Schools", "operator:type": "public", "operator:wikidata": "Q408230", "phone": "+1-718-429-2563", "ref": "Q222", "short_name": "P.S. Q222", "website": "https://www.schools.nyc.gov/schools/Q222", "wheelchair": "yes"}}, {"type": "way", "id": 366535373, "nodes": [357628913, 3705280797, 3705280798, 357628913], "tags": {"ele": "18", "gnis:feature_id": "2352526", "leisure": "park", "name": "Triangle 90", "wikidata": "Q49571917"}}, {"type": "way", "id": 920617924, "nodes": [8547528174, 8547528145, 8547528142, 8547528146, 8547528175, 357581092, 2570188215, 2570188208, 2570188181, 2570188235, 8547528173, 2570188272, 2570188324, 2570188388, 2570188411, 2570188494, 8547528176, 8547528174], "tags": {"addr:housenumber": "85-28", "addr:postcode": "11373", "addr:street": "Britton Avenue", "alt_name": "Public School 89;P.S. 89Q;Public School 89 Queens", "amenity": "school", "ele": "19", "gnis:feature_id": "961900", "name": "Public School 89 Elmhurst", "official_name": "Elmhurst Elementary School", "operator": "New York City Department of Education", "operator:short": "NYC Public Schools", "operator:type": "public", "operator:wikidata": "Q408230", "ref": "Q89", "short_name": "P.S. 89", "website": "https://www.ps89q.org/"}}]}