{"version": 0.6, "generator": "Overpass API 0.7.62.8 e802775f", "osm3s": {"timestamp_osm_base": "2025-12-01T15:54:09Z", "copyright": "The data included in this document is from www.openstreetmap.org. The data is made available under ODbL."}, "elements": [{"type": "node", "id": 2568784668, "lat": 40.7003347, "lon": -73.9052907, "tags": {"addr:city": "Ridgewood", "addr:housenumber": "56-23", "addr:postcode": "11385", "addr:state": "NY", "addr:street": "Myrtle Avenue", "amenity": "cafe", "cuisine": "bubble_tea;snack", "name": "UCrew", "phone": "+1-347-223-4899", "website": "https://www.ucrewnyc.com/"}}, {"type": "node", "id": 5343780578, "lat": 40.704576, "lon": -73.9109461, "tags": {"addr:city": "Ridgewood", "addr:housenumber": "564", "addr:postcode": "11385", "addr:state": "NY", "addr:street": "Seneca Avenue", "amenity": "bar", "atm": "yes", "contact:facebook": "https://www.facebook.com/MilosYardNYC", "diet:vegan": "yes", "diet:vegetarian": "yes", "internet_access": "wlan", "internet_access:ssid": "Milo's Yard", "name": "Milo's Yard", "opening_hours": "Mo-Fr 16:00-28:00; Sa, Su 14:00-28:00", "outdoor_seating": "yes", "payment:cash": "yes", "payment:credit_cards": "yes", "payment:debit_cards": "yes", "phone": "+1-347-987-4535", "smoking": "no", "smoking:outside": "yes", "sport": "pinball", "toilets": "yes", "toilets:access": "permissive", "toilets:number": "2", "toilets:unisex": "yes", "toilets:wheelchair": "yes", "website": "http://www.milosyard.nyc/"}}, {"type": "node", "id": 5343780580, "lat": 40.7010715, "lon": -73.9080839, "tags": {"addr:city": "Ridgewood", "addr:housenumber": "1684", "addr:postcode": "11385", "addr:state": "NY", "addr:street": "Woodbine Street", "amenity": "bar", "brewery": "various", "capacity": "64", "cocktails": "yes", "contact:facebook": "https://www.facebook.com/TheBadOldDays", "drink:beer": "yes", "drink:liquor": "yes", "drink:wine": "yes", "email": "info@thebadolddays.com", "happy_hours": "Su-Sa 14:00-20:00", "internet_access": "wlan", "internet_access:ssid": "TBOD_Secure", "name": "The Bad Old Days", "opening_hours": "Su 14:00-02:00; Mo-Sa 14:00-04:00", "opening_hours:url": "https://thebadolddays.com/contact/", "operator": "Sonja Lutnicki", "outdoor_seating": "sidewalk", "payment:american_express": "no", "payment:cash": "yes", "payment:discover_card": "yes", "payment:mastercard": "yes", "payment:visa": "yes", "phone": "+1-347-696-0612", "smoking": "outside", "toilets": "yes", "toilets:access": "permissive", "toilets:number": "2", "toilets:unisex": "yes", "toilets:wheelchair": "no", "website": "https://thebadolddays.com/", "wheelchair": "no"}}, {"type": "node", "id": 5343985152, "lat": 40.7020423, "lon": -73.9066086, "tags": {"addr:city": "Ridgewood", "addr:housenumber": "758", "addr:postcode": "11385", "addr:state": "NY", "addr:street": "Seneca Avenue", "amenity": "restaurant", "atm": "yes", "brewery": "Montauk;Bushwick Brewery;", "cuisine": "nepalese", "delivery": "yes", "drink:beer": "yes", "drink:coffee": "yes", "drink:wine": "yes", "email": "whileinkathmandu@gmail.com", "internet_access": "wlan", "internet_access:fee": "no", "internet_access:ssid": "KathmanduWIFI", "name": "While In Kathmandu", "opening_hours": "Fr-Su 08:00-23:00; Mo-Th 12:00-23:00", "outdoor_seating": "backyard", "payment:cash": "only", "phone": "+1-718-386-3416", "smoking": "no", "takeaway": "yes", "toilets": "yes", "toilets:access": "customers", "toilets:number": "2", "toilets:unisex": "yes", "toilets:wheelchair": "yes", "wheelchair": "limited"}}, {"type": "node", "id": 5364870801, "lat": 40.7013348, "lon": -73.9049929, "tags": {"addr:city": "Ridgewood", "addr:housenumber": "811", "addr:postcode": "11385", "addr:state": "NY", "addr:street": "Seneca Avenue", "amenity": "restaurant", "cocktails": "yes", "cuisine": "mexican;salad;soup;chicken", "delivery": "yes", "delivery:fee": "no", "drink:beer": "served", "drink:liquor": "yes", "drink:wine": "served", "email": "hungryburrito1@gmail.com", "fax": "+1-347-529-4057", "happy_hours": "Mo-Su 16:00-18:00", "internet_access": "wlan", "internet_access:ssid": "HUNGRYBURRITO", "name": "Hungry Burrito", "opening_hours": "Mo-Th 12:00-23:00; Fr 12:00-23:30; Sa 10:00-23:30; Su 10:00-23:00", "opening_hours:signed": "no", "outdoor_seating": "no", "payment:american_express": "yes", "payment:cash": "yes", "payment:discover_card": "yes", "payment:mastercard": "yes", "payment:visa": "yes", "phone": "+1-718-885-8080", "takeaway": "yes", "toilets": "yes", "toilets:unisex": "no", "toilets:wheelchair": "yes", "wheelchair": "yes"}}, {"type": "node", "id": 5368787741, "lat": 40.7017554, "lon": -73.9061681, "tags": {"addr:housenumber": "778", "addr:street": "Seneca Avenue", "amenity": "cafe", "cuisine": "coffee_shop;pastry;bagel", "diet:vegan": "yes", "internet_access": "wlan", "internet_access:ssid": "Milk & Pull Guest", "name": "Milk & Pull", "opening_hours": "Su 08:00-18:00; Mo-Fr 07:00-19:00; Sa 08:00-19:00", "outdoor_seating": "yes", "payment:cash": "yes", "payment:credit_cards": "yes", "payment:debit_cards": "yes", "phone": "+1-718-821-1155", "toilets": "yes", "toilets:access": "permissive", "toilets:unisex": "yes", "toilets:wheelchair": "no", "website": "https://www.milkandpull.com/", "wheelchair": "no"}}, {"type": "node", "id": 5368845850, "lat": 40.700944, "lon": -73.9092337, "tags": {"addr:housenumber": "341", "addr:street": "Saint Nicholas Avenue", "amenity": "restaurant", "cuisine": "chinese", "name": "K&K Super Buffett", "opening_hours": "Su 11:00-22:30; Mo-Th 10:30-22:30; Fr, Sa 10:00-23:30", "phone": "+1-718-381-7111"}}, {"type": "node", "id": 5368863986, "lat": 40.7006224, "lon": -73.9095872, "tags": {"addr:city": "Ridgewood", "addr:housenumber": "341", "addr:state": "NY", "addr:street": "Saint Nicholas Avenue", "amenity": "restaurant", "contact:instagram": "elmanabarestauranteny", "craft": "caterer", "cuisine": "ecuadorian", "delivery": "yes", "drink:coffee": "yes", "drink:tea": "yes", "name": "El Manaba", "opening_hours": "Mo-Th, Su 09:00-24:00; Fr, Sa 09:00-27:30", "phone": "+1-347-227-7506", "reservation": "yes", "website": "https://elmanabarestaurante.com/", "wheelchair": "yes"}}, {"type": "node", "id": 5370668223, "lat": 40.7053606, "lon": -73.90377}, {"type": "node", "id": 5370668225, "lat": 40.7044457, "lon": -73.9038202}, {"type": "node", "id": 5370668226, "lat": 40.7050307, "lon": -73.9032094}, {"type": "node", "id": 5370668239, "lat": 40.7040886, "lon": -73.9041545}, {"type": "node", "id": 5370668242, "lat": 40.7044222, "lon": -73.9047101}, {"type": "node", "id": 5404019801, "lat": 40.7041724, "lon": -73.9073249, "tags": {"addr:housenumber": "675", "addr:street": "Onderdonk Avenue", "amenity": "restaurant", "catering": "yes", "cuisine": "pizza;italian", "delivery:min_payment": "16", "diet:vegetarian": "yes", "drink:beer": "yes", "drink:wine": "yes", "name": "Julie's Pizzeria", "opening_hours": "Mo-Sa 11:00-22:30, Su 12:00-22:30", "payment:american_express": "yes", "payment:debit_cards": "yes", "payment:mastercard": "yes", "payment:visa": "yes", "phone": "+1-347-916-1959", "takeaway": "yes", "website": "https://juliespizzerianyc.com"}}, {"type": "node", "id": 5404054421, "lat": 40.7045358, "lon": -73.9108564, "tags": {"addr:housenumber": "566", "addr:street": "Seneca Avenue", "amenity": "restaurant", "atm": "yes", "cuisine": "mexican;burrito;tacos;nachos;burger", "delivery": "yes", "delivery:fee": "no", "delivery:min_payment": "10", "diet:vegan": "yes", "diet:vegetarian": "yes", "name": "Guadalajara De Dia 2", "opening_hours": "Mo-Su 10:00-21:30", "opening_hours:signed": "no", "outdoor_seating": "no", "payment:cash": "yes", "payment:credit_cards:min_payment": "10", "payment:debit_cards": "yes", "payment:mastercard": "yes", "payment:visa": "yes", "phone": "+1-718-456-3698", "takeaway": "yes", "toilets": "yes", "toilets:access": "permissive", "toilets:unisex": "yes", "website": "https://guadalajaradedia2ridgewood.com/", "wheelchair": "yes"}}, {"type": "node", "id": 5413047959, "lat": 40.7018784, "lon": -73.9089122, "tags": {"addr:housenumber": "1701", "addr:street": "Palmetto Street", "amenity": "restaurant", "cuisine": "latin_american", "delivery": "yes", "name": "El Fogon Costeno", "opening_hours": "Mo-Su 10:00-22:00", "payment:credit_cards": "yes", "phone": "+1-718-456-2555", "takeaway": "yes", "website": "https://elfogoncostenoridgewood.com/"}}, {"type": "node", "id": 5415312366, "lat": 40.7046661, "lon": -73.9079742, "tags": {"addr:housenumber": "651", "addr:street": "Onderdonk Avenue", "amenity": "restaurant", "name": "La Canoa"}}, {"type": "node", "id": 5415312726, "lat": 40.7032471, "lon": -73.9093323, "tags": {"addr:housenumber": "17-38", "addr:street": "Linden Street", "amenity": "school", "name": "Minnie's Family Daycare"}}, {"type": "node", "id": 5417209191, "lat": 40.7003999, "lon": -73.9055896, "tags": {"addr:city": "Ridgewood", "addr:housenumber": "1715", "addr:postcode": "11385", "addr:state": "NY", "addr:street": "Cornelia Street", "amenity": "restaurant", "cuisine": "dominican", "delivery": "yes", "diet:vegetarian": "yes", "name": "La Flor Del Paraiso", "opening_hours": "Mo-Su 11:00-23:00", "payment:credit_cards": "yes", "phone": "+1-718-381-2970", "takeaway": "yes", "website": "https://laflordelparaisony.com/", "wheelchair": "no"}}, {"type": "node", "id": 5427743460, "lat": 40.7032433, "lon": -73.9057617, "tags": {"addr:housenumber": "753", "addr:street": "Onderdonk Avenue", "amenity": "school", "name": "Supermoon Community Art Space", "website": "https://supermoomartspace.com"}}, {"type": "node", "id": 5471038017, "lat": 40.7047765, "lon": -73.9107447, "tags": {"addr:housenumber": "563", "addr:street": "Seneca Avenue", "amenity": "restaurant", "cuisine": "chinese", "delivery": "yes", "name": "Jim's China King", "opening_hours": "Su 12:00-23:00; Mo-Sa 11:00-23:00", "payment:credit_cards": "yes", "phone": "+1-718-418-1288", "takeaway": "yes", "website": "http://www.jimschinaking.com/"}}, {"type": "node", "id": 5471046230, "lat": 40.7043021, "lon": -73.9104974, "tags": {"addr:housenumber": "580", "addr:street": "Seneca Avenue", "amenity": "restaurant", "name": "Delcias Sucuenas", "opening_hours:signed": "no"}}, {"type": "node", "id": 5529262382, "lat": 40.7016552, "lon": -73.9059862, "tags": {"addr:housenumber": "778", "addr:street": "Seneca Avenue", "amenity": "restaurant", "cuisine": "mexican;coffee", "delivery": "yes", "name": "New Mexico Place II", "opening_hours": "Mo-Th, Su 13:00-23:00; Fr, Sa 13:00-24:00", "payment:cash": "yes", "payment:credit_cards": "yes", "phone": "+1-347-987-3581", "takeaway": "yes", "website": "http://newmexicoplaceii.com/"}}, {"type": "node", "id": 5529401043, "lat": 40.7030354, "lon": -73.9083439, "tags": {"addr:city": "Ridgewood", "addr:housenumber": "678", "addr:state": "NY", "addr:street": "Seneca Avenue", "amenity": "restaurant", "cuisine": "venezuelan", "delivery": "yes", "name": "Cachapas y Mas", "opening_hours": "Mo-Th, Su 11:00-23:00; Fr, Sa 11:00-29:00", "payment:cash": "yes", "payment:credit_cards": "yes", "phone": "+1-347-721-3767", "takeaway": "yes"}}, {"type": "node", "id": 5529406034, "lat": 40.7033316, "lon": -73.908163, "tags": {"addr:housenumber": "675", "addr:street": "Seneca Avenue", "amenity": "bar", "check_date": "2025-10-24", "name": "Tequila Time", "opening_hours": "Mo-Th 20:00-02:00; Fr-Su 20:00-04:00", "payment:cash": "only", "phone": "+1-347-689-2793", "toilets": "yes", "wheelchair": "yes"}}, {"type": "node", "id": 5531175035, "lat": 40.7029932, "lon": -73.9076846, "tags": {"addr:housenumber": "689", "addr:street": "Seneca Avenue", "amenity": "restaurant", "cuisine": "dominican;coffee", "delivery": "yes", "name": "Jorge's", "opening_hours": "Mo-Su 07:30-24:00", "payment:cash": "yes", "payment:credit_cards": "yes", "phone": "+1-718-456-3900", "takeaway": "yes", "wheelchair": "no"}}, {"type": "node", "id": 5531185014, "lat": 40.7030612, "lon": -73.9078624, "tags": {"addr:housenumber": "685", "addr:street": "Seneca Avenue", "amenity": "cafe", "drink:juice": "only", "name": "#1 Natural Juice Bar", "opening_hours": "Mo-Sa 06:00-20:00", "payment:cash": "yes", "payment:contactless": "yes", "payment:credit_cards": "yes", "payment:debit_cards": "yes", "phone": "+1-347-956-5161", "wheelchair": "yes"}}, {"type": "node", "id": 5531208932, "lat": 40.7032549, "lon": -73.9086975, "tags": {"addr:city": "Ridgewood", "addr:housenumber": "666", "addr:postcode": "11385", "addr:state": "NY", "addr:street": "Seneca Avenue", "amenity": "restaurant", "cuisine": "ecuadorian", "delivery": "yes", "name": "Ambato", "payment:american_express": "yes", "payment:diners_club": "yes", "payment:discover_card": "yes", "payment:jcb": "yes", "payment:mastercard": "yes", "payment:unionpay": "yes", "payment:visa": "yes", "phone": "+1-718-366-1737;+1-347-987-3108"}}, {"type": "node", "id": 5531226108, "lat": 40.7041125, "lon": -73.9096158, "tags": {"addr:housenumber": "603", "addr:street": "Seneca Avenue", "amenity": "bar", "check_date": "2025-10-24", "name": "Seneca Fiesta Corporation", "phone": "+1-718-366-6011"}}, {"type": "node", "id": 5531246020, "lat": 40.7041863, "lon": -73.9102744, "tags": {"addr:housenumber": "586", "addr:street": "Seneca Avenue", "email": "booking@fenixcarservice.com", "name": "Fenix Car Service", "office": "company", "phone": "+1-718-821-2121", "website": "http://www.fenixcarservice.com/"}}, {"type": "node", "id": 5540387100, "lat": 40.7009593, "lon": -73.9073672, "tags": {"addr:housenumber": "17-01", "addr:street": "Madison Street", "amenity": "school", "name": "Robco Kid Care", "opening_hours": "Mo-Fr 08:00-18:00; Sa, Su 10:00-16:00", "phone": "+1-347-219-6866"}}, {"type": "node", "id": 5540447973, "lat": 40.7001331, "lon": -73.9072579, "tags": {"addr:housenumber": "55-37", "addr:street": "Myrtle Avenue", "amenity": "restaurant", "craft": "caterer", "cuisine": "colombian;coffee;chicken", "delivery": "yes", "name": "Rico Pollo 1 Ridgewood", "opening_hours": "Mo-Su 08:00-23:00", "payment:cash": "only", "phone": "+1-718-497-1000", "takeaway": "yes", "website": "http://www.ricopollorestaurant.com/", "wheelchair": "yes"}}, {"type": "node", "id": 5540454525, "lat": 40.7000974, "lon": -73.9074002, "tags": {"addr:city": "Ridgewood", "addr:housenumber": "55-33", "addr:postcode": "11385", "addr:state": "NY", "addr:street": "Myrtle Avenue", "amenity": "restaurant", "cuisine": "peruvian", "drink:liquor": "yes", "name": "Cantina 33", "opening_hours": "Mo-We, Su 17:00-23:00; Th-Sa 17:00-24:00", "phone": "+1-347-916-1511", "takeaway": "yes", "wheelchair": "yes"}}, {"type": "node", "id": 5540465914, "lat": 40.700074, "lon": -73.9077575, "tags": {"addr:housenumber": "55-21", "addr:street": "Myrtle Avenue", "amenity": "restaurant", "cuisine": "colombian", "delivery": "yes", "name": "El Monta\u00f1ero", "opening_hours": "Mo-Th, Su 06:00-22:00; Fr, Sa 06:00-23:00", "payment:cash": "yes", "payment:credit_cards": "yes", "phone": "+1-718-366-0400", "takeaway": "yes", "wheelchair": "yes"}}, {"type": "node", "id": 5540568923, "lat": 40.700076, "lon": -73.907828, "tags": {"addr:housenumber": "55-19", "addr:street": "Myrtle Avenue", "amenity": "restaurant", "cuisine": "coffee;mexican", "delivery": "yes", "name": "Coyote Bohemio", "opening_hours": "Mo-Su 12:30-23:00", "payment:cash": "yes", "payment:credit_cards": "yes", "phone": "+1-718-386-8616", "takeaway": "yes", "website": "http://www.coyotebohemio.com/", "wheelchair": "yes"}}, {"type": "node", "id": 5541240618, "lat": 40.7002664, "lon": -73.906164, "tags": {"addr:housenumber": "56-01", "addr:street": "Myrtle Avenue", "amenity": "restaurant", "craft": "caterer", "cuisine": "pizza;sandwich", "delivery": "Mo-Su 11:00-23:00", "diet:vegan": "yes", "diet:vegetarian": "yes", "name": "San Remo", "opening_hours": "Su-Th 11:00-22:00; Fr-Sa 11:00-23:00", "opening_hours:signed": "no", "payment:cash": "yes", "payment:credit_cards": "yes", "payment:debit_cards": "yes", "phone": "+1-718-497-1903", "takeaway": "yes", "website": "https://www.sanremopizza.com/", "wheelchair": "yes"}}, {"type": "node", "id": 5557054100, "lat": 40.7048678, "lon": -73.905392, "tags": {"addr:housenumber": "701", "addr:street": "Woodward Avenue", "name": "Target Exterminating, Inc.", "office": "company", "opening_hours": "Mo-Su 09:00-17:00", "payment:credit_cards": "yes", "payment:debit_cards": "yes", "phone": "+1-347-756-7480", "website": "https://www.ridgewoodpestcontrol.com/"}}, {"type": "node", "id": 5640363107, "lat": 40.702123, "lon": -73.9093225, "tags": {"addr:housenumber": "17-02", "addr:street": "Gates Avenue", "amenity": "school", "name": "BM Pottery Studio NY", "phone": "+1-718-374-4867", "website": "http://bmpotterystudiony.com/"}}, {"type": "node", "id": 5721784935, "lat": 40.7042564, "lon": -73.9104377, "tags": {"addr:housenumber": "582", "addr:street": "Seneca Avenue", "amenity": "bar", "brewery": "various", "cocktails": "yes", "cuisine": "american;burger;sandwich", "drink:beer": "yes", "drink:liquor": "yes", "happy_hours": "Mo-Su 13:00-19:00", "internet_access": "wlan", "internet_access:fee": "no", "name": "The Seneca", "opening_hours": "Mo-Th 16:00-25:00; Fr 16:00-26:00; Sa 10:00-26:00; Su 10:00-24:00", "phone": "+1-347-599-0010", "toilets": "yes", "toilets:access": "permissive", "toilets:unisex": "yes", "toilets:wheelchair": "yes", "website": "http://thesenecanyc.com/", "wheelchair": "yes"}}, {"type": "node", "id": 5810746758, "lat": 40.7050758, "lon": -73.9062739, "tags": {"addr:city": "Ridgewood", "addr:housenumber": "678", "addr:postcode": "11385", "addr:state": "NY", "addr:street": "Woodward Avenue", "amenity": "bar", "atm": "yes", "cocktails": "yes", "contact:facebook": "flyingfoxtavern", "contact:instagram": "flyingfoxtavern", "diet:vegan": "limited", "diet:vegetarian": "yes", "drink:beer": "yes", "drink:liquor": "yes", "drink:wine": "yes", "name": "Flying Fox Tavern", "opening_hours": "We-Su 17:00-00:00; Mo-Tu off", "phone": "+1 718-673-6384", "toilets": "yes", "toilets:access": "permissive", "toilets:unisex": "yes"}}, {"type": "node", "id": 5874439929, "lat": 40.7027119, "lon": -73.907272, "tags": {"addr:housenumber": "709", "addr:street": "Seneca Avenue", "amenity": "cafe", "drink:coffee": "yes", "name": "Cafe M Seneca", "opening_hours": "Mo-Sa 06:30-20:30; Su 07:30-20:30", "phone": "+1-646-949-1811", "takeaway": "yes", "website": "https://cafem-coffeeshop.business.site/"}}, {"type": "node", "id": 6361314207, "lat": 40.7033386, "lon": -73.9074043, "tags": {"addr:city": "Ridgewood", "addr:housenumber": "1819", "addr:postcode": "11385", "addr:state": "NY", "addr:street": "Palmetto Street", "amenity": "restaurant", "cuisine": "indian", "delivery": "yes", "delivery:fee": "no", "delivery:min_payment": "10", "diet:pescetarian": "yes", "diet:vegan": "yes", "diet:vegetarian": "yes", "email": "garammasalany@gmail.com", "name": "Bhojan Indian Food", "opening_hours": "11:30-21:45", "payment:american_express": "yes", "payment:discover_card": "yes", "payment:mastercard": "yes", "payment:visa": "yes", "phone": "+1-718-576-3200"}}, {"type": "node", "id": 6476902282, "lat": 40.7012367, "lon": -73.9047883, "tags": {"addr:housenumber": "819", "addr:street": "Seneca Avenue", "amenity": "restaurant", "craft": "caterer", "cuisine": "ecuadorian", "delivery": "yes", "drink:coffee": "yes", "name": "M&S Nice Bakery and Restaurant", "opening_hours": "Mo-Su 08:00-22:00", "opening_hours:signed": "no", "phone": "+1-718-576-3625", "takeaway": "yes"}}, {"type": "node", "id": 6679254459, "lat": 40.7015425, "lon": -73.9052425, "tags": {"addr:city": "Ridgewood", "addr:housenumber": "801", "addr:postcode": "11385", "addr:state": "NY", "addr:street": "Seneca Avenue", "amenity": "bar", "atm": "yes", "brewery": "Bell's", "cocktails": "yes", "drink:beer": "yes", "indoor_seating": "yes", "internet_access": "no", "name": "Beaucoup at Bar Freda", "opening_hours": "Mo-Fr 17:00-28:00; Sa, Su 14:00-28:00", "outdoor_seating": "no", "payment:cash": "only", "phone": "+1-267-481-0677", "toilets": "yes", "toilets:unisex": "yes", "toilets:wheelchair": "yes", "wheelchair": "yes"}}, {"type": "node", "id": 7204685441, "lat": 40.7019067, "lon": -73.9064015, "tags": {"addr:housenumber": "766", "addr:street": "Seneca Avenue", "amenity": "restaurant", "cuisine": "mexican;tacos", "diet:vegetarian": "yes", "name": "Las Chilangas"}}, {"type": "node", "id": 10035107459, "lat": 40.7006181, "lon": -73.9073488, "tags": {"addr:housenumber": "16-80", "addr:street": "Madison Street", "amenity": "bar", "brewery": "various", "cocktails": "yes", "cuisine": "empanada", "name": "BierWax Queens", "outdoor_seating": "sidewalk", "toilets": "yes", "toilets:unisex": "yes", "toilets:wheelchair": "yes", "website": "https://www.bierwaxqueens.com/", "wheelchair": "yes"}}, {"type": "node", "id": 10238102608, "lat": 40.7031584, "lon": -73.911078, "tags": {"addr:housenumber": "1711", "addr:postcode": "11385", "addr:street": "Grove Street", "alt_name": "\u30de\u30de\u3088\u3057 Mini Mart", "amenity": "restaurant", "contact:instagram": "minimartnyc", "cuisine": "japanese;sandwich", "diet:vegan": "yes", "name": "Mama Yoshi Mini Mart", "opening_hours": "We-Fr 11:00-19:00;Sa 12:00-16:00", "outdoor_seating": "yes"}}, {"type": "node", "id": 11141909156, "lat": 40.7004668, "lon": -73.9093259, "tags": {"addr:city": "Ridgewood", "addr:housenumber": "349", "addr:postcode": "11385", "addr:state": "NY", "addr:street": "Saint Nicholas Avenue", "amenity": "restaurant", "catering": "yes", "cuisine": "japanese;sushi;steak", "delivery": "yes", "drink:sake": "yes", "drink:wine": "yes", "name": "Miyama", "opening_date": "2023-08-25", "opening_hours": "Mo-Th 11:30-22:30; Fr-Sa 11:30-23:00; Su 12:00-22:00", "phone": "+1-917-909-0833", "reservation": "yes", "takeaway": "yes", "website": "https://www.miyamany.com", "website:orders": "https://order.mealkeyway.com/customer/release/index?mid=714a726a55337936435230617931544b314e485436673d3d#/main"}}, {"type": "node", "id": 11162257422, "lat": 40.7007283, "lon": -73.9112011, "tags": {"addr:city": "Brooklyn", "addr:housenumber": "1597", "addr:postcode": "11237", "addr:state": "NY", "addr:street": "Gates Avenue", "amenity": "cafe", "contact:instagram": "newworldnutrition", "name": "New World Nutrition", "opening_hours": "Mo-Su 06:00-21:00", "payment:american_express": "yes", "payment:apple_pay": "yes", "payment:cashapp": "yes", "payment:discover_card": "yes", "payment:google_pay": "yes", "payment:mastercard": "yes", "payment:visa": "yes", "shop": "health_food", "toilets": "yes", "toilets:access": "customers"}}, {"type": "node", "id": 11310320970, "lat": 40.7033537, "lon": -73.908869, "tags": {"addr:city": "Ridgewood", "addr:housenumber": "660", "addr:postcode": "11385", "addr:state": "NY", "addr:street": "Seneca Avenue", "amenity": "cafe", "name": "NY Nutrition", "phone": "+1-917-420-2548", "shop": "health_food"}}, {"type": "node", "id": 11398489250, "lat": 40.7054411, "lon": -73.9099455, "tags": {"addr:city": "Ridgewood", "addr:housenumber": "566", "addr:postcode": "11385", "addr:state": "NY", "addr:street": "Onderdonk Avenue", "amenity": "restaurant", "name": "Abracadabra Magic Diner", "opening_date": "2023-12-08", "opening_hours": "07:00-16:00", "website": "https://www.abracadabramagicfood.com/"}}, {"type": "node", "id": 11751853080, "lat": 40.7048196, "lon": -73.9058328, "tags": {"addr:city": "Ridgewood", "addr:housenumber": "690", "addr:postcode": "11385", "addr:state": "NY", "addr:street": "Woodward Avenue", "amenity": "restaurant", "cuisine": "italian;pizza", "name": "Decades", "opening_hours": "Su-Th 17:00-22:00; Fr-Sa 17:00-23:00"}}, {"type": "node", "id": 13099256108, "lat": 40.7031703, "lon": -73.9080468, "tags": {"addr:housenumber": "6-81", "addr:street": "Seneca Avenue", "amenity": "bar", "name": "Seneca Bar", "sport": "billiards"}}, {"type": "node", "id": 13326816928, "lat": 40.7045908, "lon": -73.9036685}, {"type": "node", "id": 13326816929, "lat": 40.7044025, "lon": -73.9038645}, {"type": "way", "id": 556805908, "nodes": [5370668239, 5370668242, 5370668223, 5370668226, 13326816928, 5370668225, 13326816929, 5370668239], "tags": {"ele": "30", "gnis:feature_id": "2352610", "leisure": "park", "name": "Rosemary's Playground", "operator": "New York City Department of Parks and Recreation", "operator:short": "NYC Parks", "operator:type": "government", "operator:wikidata": "Q1894232", "wikidata": "Q34858901"}}]}