{"version": 0.6, "generator": "Overpass API 0.7.62.8 e802775f", "osm3s": {"timestamp_osm_base": "2025-12-01T15:54:09Z", "copyright": "The data included in this document is from www.openstreetmap.org. The data is made available under ODbL."}, "elements": [{"type": "node", "id": 357621626, "lat": 40.7185361, "lon": -73.9984892, "tags": {"amenity": "school", "ele": "6", "gnis:feature_id": "2083951", "name": "Public School 130"}}, {"type": "node", "id": 1487407044, "lat": 40.7208901, "lon": -74.0003925, "tags": {"addr:city": "New York", "addr:housenumber": "462", "addr:street": "Broadway", "amenity": "restaurant", "cuisine": "french", "name": "L'Ecole Restaurant"}}, {"type": "node", "id": 2547241630, "lat": 40.7214887, "lon": -73.9988518, "tags": {"addr:city": "New York", "addr:housenumber": "39 1/2", "addr:postcode": "10012", "addr:street": "Crosby Street", "amenity": "restaurant", "bar": "yes", "cuisine": "french;breakfast", "drink:beer": "yes", "drink:wine": "yes", "name": "Champers Social Club", "opening_hours": "Mo-Th 10:00-22:00, Fr-Sa 10:00-24:00, Su 10:00-22:00", "outdoor_seating": "yes", "website": "https://champerssocialclub.com"}}, {"type": "node", "id": 2547245925, "lat": 40.7198788, "lon": -73.9990016, "tags": {"addr:housenumber": "155", "addr:postcode": "10013", "addr:street": "Grand Street", "amenity": "restaurant", "cocktails": "yes", "cuisine": "seafood", "drink:beer": "yes", "drink:liquor": "yes", "drink:wine": "yes", "name": "Ed's Lobster Bar", "opening_hours": "Mo-Th 11:00-22:30; Fr 11:00-23:30; Sa 10:30-23:00; Su 10:30-21:30", "phone": "+1-212-343-3236", "website": "https://www.lobsterbarnyc.com/location/new-york-city/"}}, {"type": "node", "id": 2547466260, "lat": 40.719827, "lon": -73.9994807, "tags": {"addr:housenumber": "158", "addr:postcode": "10013", "addr:street": "Lafayette Street", "amenity": "bar", "name": "The Ship", "opening_hours": "Mo-We 18:00-01:00; Th-Sa 18:00-03:00"}}, {"type": "node", "id": 2547466432, "lat": 40.720326, "lon": -73.9994183}, {"type": "node", "id": 2547466453, "lat": 40.7204742, "lon": -73.9988613}, {"type": "node", "id": 2547466479, "lat": 40.7205876, "lon": -73.9990943}, {"type": "node", "id": 2547466482, "lat": 40.7205891, "lon": -73.9991953}, {"type": "node", "id": 2555098016, "lat": 40.7188891, "lon": -73.9990644, "tags": {"addr:city": "New York", "addr:housenumber": "202", "addr:postcode": "10013", "addr:state": "NY", "addr:street": "Centre Street", "amenity": "restaurant", "cuisine": "chinese", "diet:non-vegetarian": "yes", "name": "Jing Fong", "name:zh": "\u91d1\u8c50", "opening_hours": "Mo-Su 10:30-21:00", "phone": "+1-212-964-5256", "website": "https://jingfongny.com/"}}, {"type": "node", "id": 2555120465, "lat": 40.7218498, "lon": -74.0008229, "tags": {"addr:city": "New York", "addr:housenumber": "54", "addr:postcode": "10013", "addr:street": "Mercer Street", "amenity": "cafe", "internet_access": "yes", "internet_access:fee": "no", "name": "Bibliotheque Cafe & Winebar", "opening_hours": "Mo-Su 10:00-22:00", "shop": "books", "website": "https://www.bibliothequenyc.com/"}}, {"type": "node", "id": 2555120982, "lat": 40.7215756, "lon": -74.0012837}, {"type": "node", "id": 2555120992, "lat": 40.7216319, "lon": -74.0012361}, {"type": "node", "id": 2555121001, "lat": 40.7216489, "lon": -74.0014333}, {"type": "node", "id": 2555121005, "lat": 40.7217084, "lon": -74.0015547}, {"type": "node", "id": 2555121010, "lat": 40.7217231, "lon": -74.0015847}, {"type": "node", "id": 2555121017, "lat": 40.7217739, "lon": -74.0015259}, {"type": "node", "id": 2555121020, "lat": 40.7217794, "lon": -74.0015371}, {"type": "node", "id": 2562442598, "lat": 40.7213965, "lon": -74.0043967, "tags": {"addr:city": "New York", "addr:housenumber": "375", "addr:postcode": "10013", "addr:street": "Canal Street", "amenity": "restaurant", "cuisine": "italian_pizza", "name": "Lucia Pizza", "opening_hours": "Mo-Su 11:00-22:00", "phone": "+1 917 965-2900"}}, {"type": "node", "id": 2562444073, "lat": 40.7223738, "lon": -74.0048547}, {"type": "node", "id": 2562444074, "lat": 40.7224756, "lon": -74.0050791}, {"type": "node", "id": 2563930242, "lat": 40.7185032, "lon": -74.0048891, "tags": {"addr:housenumber": "275", "addr:postcode": "10013", "addr:street": "Church Street", "amenity": "restaurant", "contact:website": "http://www.damikele.com/", "cuisine": "italian", "height": "16.3", "name": "Da Mikele", "nycdoitt:bin": "1001926", "opening_hours": "Mo-Th 12:00-23:00; Fr, Sa 12:00-00:00; Su 12:00-22:30", "payment:cash": "yes", "payment:credit_cards": "yes", "phone": "+1-212-925-8800", "reservation": "yes", "takeaway": "yes", "website": "http://luzzosgroup.com/about-us-damikele", "wheelchair": "yes"}}, {"type": "node", "id": 2563930327, "lat": 40.7184787, "lon": -74.0024786, "tags": {"addr:city": "New York", "addr:housenumber": "396", "addr:postcode": "10013", "addr:state": "NY", "addr:street": "Broadway", "amenity": "cafe", "brand": "Blue Bottle Coffee", "brand:en": "Blue Bottle Coffee", "brand:ja": "\u30d6\u30eb\u30fc\u30dc\u30c8\u30eb\u30b3\u30fc\u30d2\u30fc", "brand:wikidata": "Q4928917", "cuisine": "coffee_shop", "name": "Blue Bottle Coffee", "name:en": "Blue Bottle Coffee", "name:ja": "\u30d6\u30eb\u30fc\u30dc\u30c8\u30eb\u30b3\u30fc\u30d2\u30fc", "opening_hours": "Mo-Th 08:00-16:00; Fr 07:00-17:00; Sa,Su 08:00-17:00", "opening_hours:covid19": "closed", "phone": "+1-510-653-3394", "takeaway": "yes", "website": "https://bluebottlecoffee.com/cafes/the-walker"}}, {"type": "node", "id": 2563985399, "lat": 40.7174105, "lon": -73.99854, "tags": {"addr:housenumber": "105", "addr:postcode": "10013", "addr:street": "Mulberry Street", "amenity": "restaurant", "cuisine": "italian", "name": "Sapori", "outdoor_seating": "yes"}}, {"type": "node", "id": 2563986220, "lat": 40.7188128, "lon": -73.9995074, "tags": {"addr:housenumber": "1", "addr:postcode": "10013", "addr:street": "Howard Street", "amenity": "restaurant", "bar": "yes", "cocktails": "yes", "cuisine": "diner", "drink:beer": "draught", "drink:coffee": "yes", "drink:espresso": "yes", "drink:liquor": "yes", "drink:wine": "yes", "happy_hours": "Mo-Sa 15:00-19:00", "name": "Nickel & Diner", "opening_hours": "Mo-Su 08:00-22:00+", "opening_hours:kitchen": "Mo-Fr 08:30-22:00; Sa-Su 09:30-22:00", "outdoor_seating": "sidewalk", "phone": "+1-646-870-6100", "website": "https://www.nickelanddiner.com"}}, {"type": "node", "id": 2565708091, "lat": 40.7210007, "lon": -74.0044453, "tags": {"addr:city": "New York", "addr:housenumber": "378", "addr:street": "Canal Street", "amenity": "cafe", "indoor_seating": "yes", "name": "Caff\u00e9 Bene", "outdoor_seating": "no"}}, {"type": "node", "id": 2565708226, "lat": 40.72064, "lon": -74.00497, "tags": {"addr:housenumber": "1", "addr:postcode": "10013", "addr:street": "Lispenard Street", "amenity": "pub", "building:levels": "3", "contact:phone": "+1 212 2269943", "contact:website": "http://nancywhiskeypub.com/", "name": "Nancy's Whiskey Pub"}}, {"type": "node", "id": 2565708227, "lat": 40.7207599, "lon": -74.0048947, "tags": {"addr:housenumber": "281", "addr:postcode": "10013", "addr:street": "West Broadway", "amenity": "restaurant", "building:levels": "2", "contact:facebook": "https://www.facebook.com/pages/Pepolino-Restaurant/121762131167356", "contact:instagram": "https://www.instagram.com/pepolinorestaurant", "cuisine": "italian", "name": "Pepolino", "opening_hours": "Su-Th 12:00-23:00; Fr, Sa 12:00-24:00", "phone": "+1 212-966-9983", "reservation": "yes", "website": "https://www.pepolino.com"}}, {"type": "node", "id": 2895824214, "lat": 40.7170471, "lon": -74.0008921}, {"type": "node", "id": 2895824215, "lat": 40.7171282, "lon": -74.0010543}, {"type": "node", "id": 2895824216, "lat": 40.7172637, "lon": -74.0007224}, {"type": "node", "id": 2895824219, "lat": 40.717312, "lon": -74.0008684}, {"type": "node", "id": 2895824220, "lat": 40.7173256, "lon": -74.0008576}, {"type": "node", "id": 2895824221, "lat": 40.7173313, "lon": -74.0009106}, {"type": "node", "id": 2897876739, "lat": 40.7184521, "lon": -74.0049427, "tags": {"addr:housenumber": "273", "addr:street": "Church Street", "amenity": "pub", "name": "Souths", "official_name": "Souths Bar and Restaurant"}}, {"type": "node", "id": 4560493914, "lat": 40.7186763, "lon": -74.0012084, "tags": {"addr:housenumber": "266", "addr:postcode": "10013", "addr:street": "Canal Street", "amenity": "restaurant", "cuisine": "chinese", "name": "August Gatherings"}}, {"type": "node", "id": 4676469045, "lat": 40.7201773, "lon": -73.9991128, "tags": {"barrier": "gate"}}, {"type": "node", "id": 4676469046, "lat": 40.7206229, "lon": -73.9991667}, {"type": "node", "id": 4755831441, "lat": 40.7212663, "lon": -74.0005133, "tags": {"addr:city": "New York", "addr:country": "US", "addr:housenumber": "471", "addr:postcode": "10013", "addr:state": "NY", "addr:street": "Broadway", "addr:suburb": "Manhattan", "amenity": "cafe", "brand": "Think Coffee", "brand:wikidata": "Q122209740", "cuisine": "coffee_shop", "name": "Think Coffee", "opening_hours": "Mo-Fr 07:30-19:00; Sa, Su 08:00-19:00", "takeaway": "yes"}}, {"type": "node", "id": 5164012821, "lat": 40.7206703, "lon": -74.0048609, "tags": {"amenity": "restaurant", "cuisine": "japanese", "name": "Tataki"}}, {"type": "node", "id": 5175559548, "lat": 40.7214704, "lon": -74.0013728, "tags": {"addr:housenumber": "41", "addr:street": "Mercer Street", "amenity": "restaurant", "name": "Antique Garage"}}, {"type": "node", "id": 5193469080, "lat": 40.7190849, "lon": -74.0001395, "tags": {"addr:housenumber": "138", "addr:postcode": "10013", "addr:street": "Lafayette Street", "amenity": "restaurant", "cocktails": "yes", "cuisine": "french", "drink:beer": "yes", "drink:liquor": "yes", "drink:wine": "yes", "name": "Le Coucou", "opening_hours": "Mo-Sa 17:00-23:00; Su 17:00-22:00", "phone": "+1-212-271-4252", "website": "https://lecoucou.com"}}, {"type": "node", "id": 5227511227, "lat": 40.7189298, "lon": -74.0045309, "tags": {"addr:city": "New York", "addr:housenumber": "34", "addr:postcode": "10013", "addr:state": "NY", "addr:street": "White Street", "amenity": "restaurant", "cuisine": "italian", "name": "Petrarca Cucina e Vino"}}, {"type": "node", "id": 5227527424, "lat": 40.7198938, "lon": -74.0038297, "tags": {"addr:city": "New York", "addr:housenumber": "319", "addr:postcode": "10013", "addr:state": "NY", "addr:street": "Church Street", "air_conditioning": "yes", "amenity": "cafe", "bar": "no", "brand": "La Colombe Coffee Roasters", "brand:wikidata": "Q23461663", "check_date": "2023-02-23", "cuisine": "coffee_shop", "internet_access": "no", "name": "La Colombe Coffee Roasters", "opening_hours": "07:30-18:30", "outdoor_seating": "no", "payment:american_express": "yes", "payment:credit_cards": "yes", "payment:discover_card": "yes", "payment:mastercard": "yes", "payment:visa": "yes", "short_name": "La Colombe", "takeaway": "yes", "wheelchair": "no"}}, {"type": "node", "id": 5243561820, "lat": 40.719947, "lon": -73.9985925, "tags": {"addr:housenumber": "158", "addr:street": "Grand Street", "amenity": "restaurant", "cuisine": "diner;breakfast;american;greek;burger", "name": "Landmark Coffee Shop & Pancake House", "phone": "+1 212-334-0040"}}, {"type": "node", "id": 5415649562, "lat": 40.719848, "lon": -74.0049417, "tags": {"amenity": "cafe", "brand": "Starbucks", "brand:wikidata": "Q37158", "contact:website": "https://www.starbucks.com/store-locator/store/1007714/6th-ave-at-walker-street-32-avenue-of-the-americas-new-york-ny-100132473-us", "cuisine": "coffee_shop", "name": "Starbucks", "official_name": "Starbucks Coffee", "takeaway": "yes"}}, {"type": "node", "id": 5592631079, "lat": 40.7191151, "lon": -74.0032838, "tags": {"addr:housenumber": "52", "addr:street": "Walker Street", "amenity": "pub", "brewery": "various", "level": "0", "name": "M1-5 Bar and Lounge", "opening_hours": "Mo, Tu 16:00-00:00; We-Fr 04:00-04:00; Sa 19:00-04:00", "payment:cash": "yes", "payment:cheque": "yes", "payment:contactless": "yes", "payment:credit_cards": "yes", "phone": "+1-212-965-1701", "reservation": "yes", "sport": "yes", "toilets": "yes", "website": "https://m1-5.com/", "wheelchair": "yes"}}, {"type": "node", "id": 5756089925, "lat": 40.7189834, "lon": -74.0009997, "tags": {"amenity": "cafe", "cuisine": "coffee_shop", "drink:coffee": "yes", "drink:espresso": "yes", "drink:tea": "yes", "level": "0", "name": "Dreamers Coffee", "opening_hours": "Fr-Su 10:00-19:00"}}, {"type": "node", "id": 5804847954, "lat": 40.7202866, "lon": -74.0055156}, {"type": "node", "id": 5804847955, "lat": 40.7199779, "lon": -74.0053446}, {"type": "node", "id": 5804847957, "lat": 40.7203181, "lon": -74.0061171}, {"type": "node", "id": 5804847960, "lat": 40.7203332, "lon": -74.0054065}, {"type": "node", "id": 5804847961, "lat": 40.7199957, "lon": -74.0052855}, {"type": "node", "id": 5903115786, "lat": 40.7222091, "lon": -74.0036238, "tags": {"addr:city": "New York", "addr:housenumber": "55", "addr:postcode": "10013", "addr:street": "Grand Street", "amenity": "restaurant", "contact:email": "info@papatzul.com", "contact:website": "https://papatzul.com/#", "cuisine": "mexican", "name": "Papatzu Mexican Restaurant", "opening_hours": "Mo-Su 12:00-23:00", "wheelchair": "no"}}, {"type": "node", "id": 5934767188, "lat": 40.7180742, "lon": -74.0003269, "tags": {"amenity": "restaurant", "cuisine": "chinese", "level": "0", "name": "East Season Restaurant House", "opening_hours": "Mo-Su 08:30-21:00", "payment:american_express": "yes", "payment:cash": "yes", "payment:discover_card": "yes", "payment:mastercard": "yes", "payment:visa": "yes", "phone": "+1-917-261-6266", "toilets": "yes", "toilets:access": "customers", "wheelchair": "yes"}}, {"type": "node", "id": 5934969278, "lat": 40.7201601, "lon": -73.9995971, "tags": {"amenity": "restaurant", "cuisine": "thai", "drink:beer": "yes", "drink:liquor": "yes", "drink:wine": "yes", "indoor_seating": "yes", "name": "Soho Thai", "outdoor_seating": "yes", "phone": "+1-212-966-8916"}}, {"type": "node", "id": 6006276987, "lat": 40.7202527, "lon": -73.9983375, "tags": {"addr:housenumber": "239", "addr:street": "Centre Street", "amenity": "cafe", "branch": "Soho", "cuisine": "pastry", "delivery": "yes", "level": "0", "name": "Maman", "opening_hours": "Mo-Fr 07:30-18:00; Sa-Su 08:00-18:00", "outdoor_seating": "yes", "phone": "+1 212-226-0700", "takeaway": "yes", "website": "https://www.mamannyc.com/maman-soho/"}}, {"type": "node", "id": 6044339377, "lat": 40.7186713, "lon": -74.0005149, "tags": {"addr:housenumber": "120C", "addr:postcode": "10013", "addr:street": "Lafayette Street", "amenity": "cafe", "cuisine": "coffee_shop", "drink:coffee": "yes", "drink:espresso": "yes", "drink:tea": "yes", "level": "0", "name": "Kaigo Coffee Room", "opening_hours": "Mo-Fr 08:00-16:00; Sa-Su 09:00-16:00", "phone": "+1-646-504-5353", "short_name": "Kaigo", "website": "https://kaigocoffee.com"}}, {"type": "node", "id": 6206842885, "lat": 40.7176717, "lon": -73.9983849, "tags": {"addr:housenumber": "115", "addr:postcode": "10013", "addr:street": "Mulberry Street", "amenity": "restaurant", "check_date": "2023-11-24", "cuisine": "italian", "name": "Jose Luis"}}, {"type": "node", "id": 6218981265, "lat": 40.7174288, "lon": -74.0000467, "tags": {"addr:housenumber": "121", "addr:postcode": "10013", "addr:street": "Walker Street", "name": "Law Offices of Edward J Cuccia", "office": "lawyer"}}, {"type": "node", "id": 6218981266, "lat": 40.717447, "lon": -74.0000988, "tags": {"addr:housenumber": "121", "addr:postcode": "10013", "addr:street": "Walker Street", "name": "Edward J Cuccia Real Estate", "office": "estate_agent"}}, {"type": "node", "id": 6218981269, "lat": 40.71729, "lon": -73.9996503, "tags": {"addr:housenumber": "131", "addr:postcode": "10013", "addr:street": "Walker Street", "amenity": "cafe", "drink:coffee": "yes", "drink:tea": "yes", "name": "Sweets Bakery", "shop": "pastry"}}, {"type": "node", "id": 6252179316, "lat": 40.7201178, "lon": -74.0036225, "tags": {"addr:housenumber": "325", "addr:postcode": "10003", "addr:street": "Church Street", "amenity": "restaurant", "branch": "Tribeca", "cocktails": "yes", "cuisine": "italian", "delivery": "yes", "dish": "pizza", "drink:beer": "yes", "drink:coffee": "yes", "drink:wine": "yes", "fax": "+1 212-226-2447", "name": "Saluggi's", "opening_hours": "Mo-Th 11:00-22:00; Fr, Sa 11:00-23:00; Su 12:00-22:00", "phone": "+1 212-226-7900", "takeaway": "yes", "website": "http://www.saluggis.com/saluggis-tribeca-the-original"}}, {"type": "node", "id": 6258099099, "lat": 40.7193126, "lon": -74.0042535, "tags": {"addr:housenumber": "31", "addr:street": "Walker Street", "alt_name": "Anejo Tribeca", "amenity": "restaurant", "indoor_seating": "yes", "name": "A\u00f1ejo Tribeca", "outdoor_seating": "yes", "short_name": "A\u00f1ejo"}}, {"type": "node", "id": 6261876005, "lat": 40.717196, "lon": -73.9993781, "tags": {"addr:housenumber": "220", "addr:street": "Canal Street", "amenity": "restaurant", "cuisine": "chinese", "name": "Sun Sai Gai Restaurant", "name:zh": "\u65b0\u4e16\u754c\u8336\u9910\u5ef3"}}, {"type": "node", "id": 6261902981, "lat": 40.7189373, "lon": -74.0020369, "tags": {"addr:housenumber": "408", "addr:street": "Broadway", "brand": "WeWork", "brand:wikidata": "Q19995004", "fee": "yes", "level": "1", "name": "WeWork", "office": "coworking"}}, {"type": "node", "id": 6597691422, "lat": 40.7187899, "lon": -74.0026198, "tags": {"addr:city": "New York", "addr:housenumber": "381", "addr:postcode": "10013", "addr:state": "NY", "addr:street": "Broadway", "amenity": "restaurant", "cuisine": "pizza", "name": "Joey Pepperoni\u2019s Pizza", "not:brand:wikidata": "Q24191943", "website": "https://signsfm.com"}}, {"type": "node", "id": 6903042182, "lat": 40.7178852, "lon": -74.0002468, "tags": {"addr:housenumber": "153", "addr:street": "Centre Street", "addr:unit": "D", "amenity": "cafe", "check_date": "2024-06-17", "contact:instagram": "springcafenyc", "cuisine": "asian;burger", "diet:vegan": "only", "name": "Spring Cafe", "opening_hours": "Mo-Su 10:30-19:30", "payment:cash": "yes", "payment:contactless": "yes", "payment:credit_cards": "yes", "phone": "+1 212-226-9669", "seats": "9", "takeaway": "yes", "website": "https://springcafenyc.com/"}}, {"type": "node", "id": 6919152917, "lat": 40.7180421, "lon": -74.0019638, "tags": {"addr:housenumber": "33", "addr:postcode": "10013", "addr:street": "Cortlandt Alley", "amenity": "restaurant", "bar": "yes", "cocktails": "yes", "cuisine": "american", "drink:beer": "draught", "drink:liquor": "yes", "drink:wine": "yes", "name": "Au Cheval Diner", "opening_hours": "Mo-We 12:00-23:00; Th-Fr 12:00-24:00; Sa 11:00-24:00; Su 11:00-22:00", "website": "https://auchevaldiner.com/new-york/"}}, {"type": "node", "id": 6919152919, "lat": 40.7180129, "lon": -74.0019883, "tags": {"addr:housenumber": "33", "addr:postcode": "10013", "addr:street": "Cortlandt Alley", "amenity": "cafe", "drink:coffee": "yes", "drink:espresso": "yes", "drink:tea": "yes", "name": "Sawada Coffee", "opening_hours": "Mo-Fr 08:00-16:00; Sa-Su 10:00-16:00", "website": "https://sawadacoffee.com/new-york/"}}, {"type": "node", "id": 7049620585, "lat": 40.7191934, "lon": -74.000084, "tags": {"addr:housenumber": "11", "addr:postcode": "10013", "addr:street": "Howard Street", "amenity": "bar", "name": "The Blonde"}}, {"type": "node", "id": 7052629733, "lat": 40.7177378, "lon": -74.0000133, "tags": {"amenity": "cafe", "brand": "Kung Fu Tea", "brand:wikidata": "Q66023886", "cuisine": "bubble_tea", "name": "Kung Fu Tea", "takeaway": "yes"}}, {"type": "node", "id": 7120041756, "lat": 40.7174375, "lon": -74.0006234, "tags": {"addr:housenumber": "139", "addr:postcode": "10013", "addr:street": "Centre Street", "name": "Empire BlueCross BlueShield", "office": "insurance", "opening_hours": "Mo-Fr 09:00-18:00; Sa 09:00-18:30", "phone": "+1-212-791-1400"}}, {"type": "node", "id": 7162418888, "lat": 40.7205314, "lon": -74.0003765, "tags": {"amenity": "restaurant", "diet:vegan": "yes", "name": "Le Botaniste", "wheelchair": "yes"}}, {"type": "node", "id": 7975003159, "lat": 40.7202081, "lon": -74.0021478, "tags": {"addr:city": "New York", "addr:housenumber": "53", "addr:postcode": "10013", "addr:state": "NY", "addr:street": "Howard Street", "air_conditioning": "yes", "amenity": "cafe", "contact:instagram": "lamerceriecafe", "cuisine": "french", "delivery": "yes", "email": "LAMERCERIE.INFO@STARR-RESTAURANT.COM", "name": "La Mercerie", "opening_hours": "Mo-Fr 12:00-15:30, 16:30-22:00; Sa 11:00-15:30, 16:30-22:00; Su 11:00-15:30, 16:30-21:00", "outdoor_seating": "yes", "payment:american_express": "yes", "payment:cash": "yes", "payment:discover_card": "yes", "payment:mastercard": "yes", "payment:visa": "yes", "phone": "+1-212-852-9097", "reservation": "required", "smoking": "no", "takeaway": "yes", "toilets": "yes", "toilets:disposal": "flush", "toilets:handwashing": "yes", "toilets:wheelchair": "yes", "website": "https://www.lamerceriecafe.com/", "wheelchair": "yes"}}, {"type": "node", "id": 8151656721, "lat": 40.7176091, "lon": -73.9984198, "tags": {"addr:housenumber": "113", "addr:postcode": "10013", "addr:street": "Mulberry Street", "amenity": "restaurant", "cuisine": "pizza", "name": "Manolo's Pizza", "outdoor_seating": "yes"}}, {"type": "node", "id": 8304498276, "lat": 40.7202445, "lon": -74.0052647}, {"type": "node", "id": 8333740837, "lat": 40.7173742, "lon": -73.9997709, "tags": {"amenity": "restaurant", "name": "Kingwuu"}}, {"type": "node", "id": 8333740840, "lat": 40.7200227, "lon": -74.0034996, "tags": {"amenity": "restaurant", "name": "HUMBLE FISH"}}, {"type": "node", "id": 8333740841, "lat": 40.7197223, "lon": -74.0039458, "tags": {"amenity": "restaurant", "indoor_seating": "yes", "name": "Antique Garage", "outdoor_seating": "yes"}}, {"type": "node", "id": 8333740842, "lat": 40.719643, "lon": -74.0040209, "tags": {"amenity": "restaurant", "name": "Macao"}}, {"type": "node", "id": 8622510722, "lat": 40.7199835, "lon": -73.9985488, "tags": {"addr:housenumber": "227", "addr:street": "Centre Street", "amenity": "restaurant", "cuisine": "thai", "indoor_seating": "yes", "name": "Lan Larb Chiang Mai", "outdoor_seating": "yes", "phone": "+1 646-895-9264"}}, {"type": "node", "id": 8622598771, "lat": 40.7197342, "lon": -73.9991471, "tags": {"addr:city": "New York", "addr:housenumber": "157", "addr:postcode": "10013", "addr:state": "NY", "addr:street": "Lafayette", "amenity": "cafe", "branch": "157 Lafayette", "brand": "Starbucks", "brand:wikidata": "Q37158", "cuisine": "coffee_shop", "drink:coffee": "yes", "name": "Starbucks", "official_name": "Starbucks Coffee", "opening_hours": "Mo-Su 07:00-18:00", "phone": "+1 646-838-4269", "takeaway": "yes", "website": "https://www.starbucks.com/store-locator/store/1021634/157-lafayette-157-lafayette-street-new-york-ny-10013-us"}}, {"type": "node", "id": 8644312717, "lat": 40.719358, "lon": -74.0049418, "tags": {"amenity": "restaurant", "name": "Jack\u2019s Stir Brew Coffee", "not:brand:wikidata": "Q6110826"}}, {"type": "node", "id": 8750573619, "lat": 40.7180873, "lon": -74.001073, "tags": {"addr:city": "New York", "addr:housenumber": "106", "addr:postcode": "10013", "addr:state": "NY", "addr:street": "Lafayette Street", "amenity": "cafe", "brand": "Heytea", "brand:en": "Heytea", "brand:wikidata": "Q60875376", "brand:zh": "\u559c\u8336", "cuisine": "bubble_tea", "name": "Heytea", "name:en": "Heytea", "name:zh": "\u559c\u8336", "opening_hours": "Mo-Su 11:00-21:00", "phone": "+1 9173882011", "source": "survey", "takeaway": "yes"}}, {"type": "node", "id": 9174977864, "lat": 40.7216296, "lon": -74.0047353, "tags": {"addr:city": "New York", "addr:housenumber": "383", "addr:postcode": "10013", "addr:state": "NY", "addr:street": "Canal Street", "amenity": "restaurant", "cuisine": "pizza", "delivery": "yes", "name": "$1.50 Fresh Pizza", "opening_hours": "Mo-Su 10:00-04:30", "payment:cash": "only", "phone": "+1 212-966-1110", "website": "https://www.150freshpizza.com/"}}, {"type": "node", "id": 9411604725, "lat": 40.7219313, "lon": -74.0039657, "tags": {"addr:city": "New York", "addr:country": "US", "addr:housenumber": "323", "addr:postcode": "10013", "addr:state": "NY", "addr:street": "West Broadway", "amenity": "restaurant", "cocktails": "yes", "contact:instagram": "https://www.instagram.com/mamo_nyc", "cuisine": "italian", "drink:wine": "served", "email": "info@mamonyc.com", "name": "MAMO", "opening_hours": "Mo 12:00-15:30, 17:30-22:00; Tu 12:00-15:30, 17:30-22:30; We, Th 12:00-15:30, 17:30-23:00; Fr 12:00-15:30, 17:30-23:30; Sa 11:30-16:00, 17:30-23:30; Su 11:30-16:00, 17:30-22:00", "outdoor_seating": "yes", "phone": "+1 646-964-4641", "reservation": "yes", "website": "https://www.mamonyc.com"}}, {"type": "node", "id": 9543907017, "lat": 40.7190696, "lon": -74.0007786, "tags": {"amenity": "restaurant", "name": "Joe's Steam Rice Roll"}}, {"type": "node", "id": 9826455127, "lat": 40.7180009, "lon": -73.9989068, "tags": {"addr:city": "New York", "addr:housenumber": "121", "addr:postcode": "10013", "addr:state": "NY", "addr:street": "Baxter Street", "air_conditioning": "yes", "amenity": "cafe", "check_date": "2025-02-05", "name": "Spongies Cafe"}}, {"type": "node", "id": 9826455128, "lat": 40.7179543, "lon": -73.9991906, "tags": {"addr:city": "New York", "addr:housenumber": "118", "addr:postcode": "10013", "addr:state": "NY", "addr:street": "Baxter Street", "amenity": "cafe", "name": "Kam Hing Coffee Shop"}}, {"type": "node", "id": 9826534634, "lat": 40.7182323, "lon": -73.9984263, "tags": {"addr:city": "New York", "addr:housenumber": "190", "addr:postcode": "10013", "addr:state": "NY", "addr:street": "Hester Street", "amenity": "restaurant", "cuisine": "chinese", "diet:healthy": "yes", "diet:meat": "yes", "diet:vegetarian": "yes", "name": "May Wah Fast Food", "name:yue-Hant": "\u7f8e\u83ef", "opening_hours": "09:00-20:00", "phone": "+1-212-925-6428", "website": "maywahfastfoodnyc.com"}}, {"type": "node", "id": 9910666323, "lat": 40.7202958, "lon": -73.9993563, "tags": {"barrier": "gate"}}, {"type": "node", "id": 9910666325, "lat": 40.7203136, "lon": -73.9989973, "tags": {"barrier": "gate"}}, {"type": "node", "id": 9910684158, "lat": 40.7202413, "lon": -73.9992442, "tags": {"barrier": "gate"}}, {"type": "node", "id": 9910684789, "lat": 40.7202052, "lon": -73.9991701}, {"type": "node", "id": 9910692579, "lat": 40.7202819, "lon": -73.9993277}, {"type": "node", "id": 9910692580, "lat": 40.7202548, "lon": -73.999272}, {"type": "node", "id": 9910692581, "lat": 40.7202445, "lon": -73.9992508}, {"type": "node", "id": 9910692582, "lat": 40.7202267, "lon": -73.9992144}, {"type": "node", "id": 9910692583, "lat": 40.7201921, "lon": -73.9991431}, {"type": "node", "id": 9910692584, "lat": 40.7201966, "lon": -73.9990965}, {"type": "node", "id": 9910692585, "lat": 40.7202964, "lon": -73.999012}, {"type": "node", "id": 9910692586, "lat": 40.7203315, "lon": -73.9989821}, {"type": "node", "id": 9910692619, "lat": 40.7203133, "lon": -73.9993923}, {"type": "node", "id": 10077663950, "lat": 40.7192738, "lon": -74.0048357, "tags": {"addr:city": "New York", "addr:housenumber": "2", "addr:postcode": "10013", "addr:state": "NY", "addr:street": "6th Avenue", "addr:unit": "Cellar Level", "amenity": "bar", "description": "The subterranean jazz club, with its vaulted ceilings and exposed brick walls, was modeled after the bo\u00eetes of Paris. The venue consists of two cocktail bars, open dining space & a stage for live performances.", "email": "info@thedjangonyc.com", "min_age": "18", "name": "The Django", "opening_hours": "Mo-Su 19:00-2:00", "phone": "+1-212-519-6649", "website": "https://www.thedjangonyc.com/"}}, {"type": "node", "id": 10090538380, "lat": 40.7221836, "lon": -74.0035553, "tags": {"amenity": "bar", "contact:facebook": "https://www.facebook.com/toadhallgrand/", "name": "Toad Hall", "sport": "billiards"}}, {"type": "node", "id": 10090538383, "lat": 40.7211027, "lon": -74.0039693, "tags": {"amenity": "cafe", "contact:facebook": "matchaful", "name": "Matchaful", "website": "https://www.bematchaful.com/"}}, {"type": "node", "id": 10992506374, "lat": 40.7187036, "lon": -74.000104, "tags": {"addr:city": "New York", "addr:housenumber": "123", "addr:postcode": "10013", "addr:state": "NY", "addr:street": "Lafayette Street", "name": "Bowery Capital", "office": "financial", "opening_hours": "Mo-Fr 09:00-17:00", "website": "https://bowerycap.com/"}}, {"type": "node", "id": 11074226307, "lat": 40.7176803, "lon": -74.0000521, "tags": {"addr:housenumber": "109B", "addr:street": "Lafayette Street", "amenity": "restaurant", "cuisine": "pizza", "name": "NY 99 Cents Pizza"}}, {"type": "node", "id": 11317570687, "lat": 40.7225028, "lon": -74.0051432}, {"type": "node", "id": 11317570688, "lat": 40.7222433, "lon": -74.0052506}, {"type": "node", "id": 11317570689, "lat": 40.7222265, "lon": -74.0052524}, {"type": "node", "id": 11317570690, "lat": 40.7222161, "lon": -74.0052481}, {"type": "node", "id": 11317570691, "lat": 40.7222045, "lon": -74.0052346}, {"type": "node", "id": 11317570692, "lat": 40.7221018, "lon": -74.005088}, {"type": "node", "id": 11317570693, "lat": 40.7220964, "lon": -74.0050723}, {"type": "node", "id": 11317570694, "lat": 40.7220957, "lon": -74.0050552}, {"type": "node", "id": 11317570695, "lat": 40.7221011, "lon": -74.0050402}, {"type": "node", "id": 11317570696, "lat": 40.722108, "lon": -74.0050268}, {"type": "node", "id": 11317570697, "lat": 40.7221208, "lon": -74.0050152}, {"type": "node", "id": 11317570698, "lat": 40.7223557, "lon": -74.0048152}, {"type": "node", "id": 11317570699, "lat": 40.7223659, "lon": -74.0048374}, {"type": "node", "id": 11317570709, "lat": 40.7222011, "lon": -74.0052298, "tags": {"barrier": "kerb", "kerb": "lowered", "tactile_paving": "yes", "wheelchair": "yes"}}, {"type": "node", "id": 11317570710, "lat": 40.7224895, "lon": -74.0051119}, {"type": "node", "id": 11447971796, "lat": 40.7198136, "lon": -73.9990736, "tags": {"addr:housenumber": "161", "addr:postcode": "10013", "addr:street": "Lafayette Street", "amenity": "bar", "disused:website": "http://www.161lafayette.com", "karaoke": "yes", "name": "161 Lafayette", "opening_hours": "Mo 17:00-24:00, Tu-We 17:00-02:00, Th 17:00-02:00, Fr-Sa 14:00-04:00, Su 14:00-24:00", "website": "https://www.161lafayettebar.com"}}, {"type": "node", "id": 11492801286, "lat": 40.720455, "lon": -74.0053104, "tags": {"barrier": "kerb", "kerb": "lowered", "tactile_paving": "yes", "wheelchair": "yes"}}, {"type": "node", "id": 11492801294, "lat": 40.7204484, "lon": -74.0052757, "tags": {"barrier": "kerb", "kerb": "lowered", "tactile_paving": "yes", "wheelchair": "yes"}}, {"type": "node", "id": 11493357418, "lat": 40.7202896, "lon": -74.0054845}, {"type": "node", "id": 11493357419, "lat": 40.7202999, "lon": -74.005453}, {"type": "node", "id": 11493357420, "lat": 40.7203144, "lon": -74.0054284}, {"type": "node", "id": 11493357421, "lat": 40.7203456, "lon": -74.0061075}, {"type": "node", "id": 11493357422, "lat": 40.7203457, "lon": -74.0061202}, {"type": "node", "id": 11493357423, "lat": 40.720325, "lon": -74.0061302}, {"type": "node", "id": 11493357424, "lat": 40.7203318, "lon": -74.006136}, {"type": "node", "id": 11493357425, "lat": 40.7203385, "lon": -74.0061364}, {"type": "node", "id": 11493357426, "lat": 40.7203434, "lon": -74.0061308}, {"type": "node", "id": 11493357427, "lat": 40.7202795, "lon": -74.0052641}, {"type": "node", "id": 11493357428, "lat": 40.7203534, "lon": -74.0052688}, {"type": "node", "id": 11493357429, "lat": 40.7204772, "lon": -74.0052862}, {"type": "node", "id": 11493357430, "lat": 40.7204668, "lon": -74.0053023}, {"type": "node", "id": 11493357431, "lat": 40.7204731, "lon": -74.0052968}, {"type": "node", "id": 11493357432, "lat": 40.7204761, "lon": -74.0052921}, {"type": "node", "id": 11493357433, "lat": 40.7204748, "lon": -74.0052803}, {"type": "node", "id": 11493357434, "lat": 40.7204677, "lon": -74.0052767}, {"type": "node", "id": 11493357441, "lat": 40.7202968, "lon": -74.0056167, "tags": {"barrier": "kerb", "kerb": "lowered", "tactile_paving": "yes", "wheelchair": "yes"}}, {"type": "node", "id": 11493357451, "lat": 40.7201466, "lon": -74.0057278, "tags": {"barrier": "kerb", "kerb": "lowered", "tactile_paving": "yes", "wheelchair": "yes"}}, {"type": "node", "id": 11493357457, "lat": 40.7200574, "lon": -74.0055251, "tags": {"barrier": "kerb", "kerb": "lowered", "tactile_paving": "yes", "wheelchair": "yes"}}, {"type": "node", "id": 11493357459, "lat": 40.7199711, "lon": -74.0053252, "tags": {"barrier": "kerb", "kerb": "lowered", "tactile_paving": "yes", "wheelchair": "yes"}}, {"type": "node", "id": 11493357460, "lat": 40.7199689, "lon": -74.0053108}, {"type": "node", "id": 11493357461, "lat": 40.7199856, "lon": -74.0052874}, {"type": "node", "id": 11493357462, "lat": 40.7199751, "lon": -74.0052939, "tags": {"barrier": "kerb", "kerb": "lowered", "tactile_paving": "yes", "wheelchair": "yes"}}, {"type": "node", "id": 11493357463, "lat": 40.7199712, "lon": -74.0052996}, {"type": "node", "id": 11493357464, "lat": 40.7199796, "lon": -74.0052902}, {"type": "node", "id": 11493402621, "lat": 40.7202889, "lon": -74.0055381}, {"type": "node", "id": 11674345070, "lat": 40.7202273, "lon": -73.998709, "tags": {"addr:housenumber": "177", "addr:postcode": "10013", "addr:street": "Lafayette Street", "amenity": "restaurant", "cocktails": "yes", "cuisine": "sushi", "drink:sake": "yes", "drink:wine": "yes", "name": "SushiDelic", "theme": "kawaii", "website": "https://www.sushidelic.net"}}, {"type": "node", "id": 11674345072, "lat": 40.7201134, "lon": -73.9988044, "tags": {"addr:city": "New York", "addr:housenumber": "177", "addr:postcode": "10013", "addr:state": "NY", "addr:street": "Lafayette Street", "amenity": "cafe", "cuisine": "breakfast;sandwich", "drink:coffee": "yes", "drink:espresso": "yes", "drink:tea": "yes", "name": "Butler", "opening_hours": "Mo-Fr 07:00-17:30; Sa-Su 08:00-17:30", "phone": "+1-646-912-9264", "website": "https://www.butler-nyc.com"}}, {"type": "node", "id": 12097569302, "lat": 40.7216106, "lon": -74.004245, "tags": {"addr:city": "New York", "addr:housenumber": "301", "addr:postcode": "10013", "addr:street": "West Broadway", "amenity": "restaurant", "cuisine": "coffee_shop", "name": "Lucia Alimentari", "opening_hours": "Mo-Su 07:00-22:00"}}, {"type": "node", "id": 12259319359, "lat": 40.7220958, "lon": -74.0042287, "tags": {"addr:city": "New York", "addr:housenumber": "320", "addr:postcode": "10013", "addr:state": "NY", "addr:street": "West Broadway", "amenity": "restaurant", "name": "Soho Diner", "opening_hours": "Mo-Su 07:00+", "phone": "+1 212-965-3011", "website": "https://www.sohodinernyc.com/"}}, {"type": "node", "id": 12762556567, "lat": 40.71976, "lon": -73.9999039, "tags": {"addr:city": "New York", "addr:housenumber": "9", "addr:postcode": "10013", "addr:state": "NY", "addr:street": "Crosby Street", "air_conditioning": "yes", "amenity": "restaurant", "bar": "yes", "cuisine": "american", "email": "nomofb@nomosoho.com", "name": "NoMo Kitchen", "opening_hours": "Mo-Th 06:30-22:00, Fr 06:30-23:00, Sa 09:00-23:00, Su 09:00-16:00", "outdoor_seating": "yes", "payment:american_express": "yes", "payment:credit_cards": "yes", "payment:debit_cards": "yes", "payment:mastercard": "yes", "payment:visa": "yes", "phone": "+1 646 218 6449", "reservation": "yes", "smoking": "no", "takeaway": "yes", "website": "https://www.nomosoho.com/nomo-soho-kitchen", "website:menu": "https://www.nomosoho.com/menu", "wheelchair": "yes"}}, {"type": "node", "id": 13025144996, "lat": 40.7178223, "lon": -74.0005398, "tags": {"addr:housenumber": "98", "addr:postcode": "10013", "addr:street": "Walker Street", "name": "DHL", "office": "courier"}}, {"type": "node", "id": 13078664901, "lat": 40.7185633, "lon": -74.004808, "tags": {"addr:housenumber": "277", "addr:postcode": "10013", "addr:street": "Church Street", "amenity": "bar", "cuisine": "japanese", "name": "Sake Bar Shigure", "opening_hours": "Mo-Sa 12:00-01:00", "phone": "+1 212-965-0200"}}, {"type": "way", "id": 248771057, "nodes": [2555120992, 2555120982, 2555121001, 2555121005, 2555121010, 2555121020, 2555121017, 2555120992], "tags": {"addr:city": "New York", "addr:housenumber": "45", "addr:postcode": "10013", "addr:street": "Mercer Street", "amenity": "restaurant", "bar": "yes", "building": "yes", "cuisine": "pizza;burger;pancake", "height": "18.2", "name": "Odd Sister", "nycdoitt:bin": "1079899", "opening_hours": "11:00-24:00", "phone": "+1 212-966-9288", "website": "https://oddsisternyc.com"}}, {"type": "way", "id": 285940930, "nodes": [2895824216, 2895824214, 2895824215, 2895824221, 2895824219, 2895824220, 2895824216], "tags": {"addr:city": "New York", "addr:housenumber": "137", "addr:state": "NY", "addr:street": "Centre Street", "architect": "Schwartz & Gross", "architect:wikidata": "Q7433166", "building": "yes", "height": "35.3", "name": "Excelsior Building", "nycdoitt:bin": "1002358", "office": "government", "operator": "New York City Department of Citywide Administrative Services", "operator:type": "government", "smoking": "no", "start_date": "1911", "website": "https://www1.nyc.gov/site/dcas/business/dcasmanagedbuildings/excelsior-building.page"}}, {"type": "way", "id": 473565702, "nodes": [2547466432, 9910692619, 9910666323, 9910692579, 9910692580, 9910692581, 9910684158, 9910692582, 9910684789, 9910692583, 4676469045, 9910692584, 9910692585, 9910666325, 9910692586, 2547466453, 2547466479, 4676469046, 2547466482, 2547466432], "tags": {"addr:city": "New York", "addr:postcode": "10013", "addr:state": "NY", "leisure": "park", "name": "Rapkin-Gayle Plaza", "opening_hours": "Mo-Su 06:00-22:00", "operator": "New York City Department of Parks and Recreation", "operator:short": "NYC Parks", "operator:type": "government", "operator:wikidata": "Q1894232", "website": "https://www.nycgovparks.org/parks/M413"}}, {"type": "way", "id": 613509792, "nodes": [11493357462, 11493357464, 11493357461, 5804847961, 8304498276, 11493357427, 11493357428, 11492801294, 11493357434, 11493357433, 11493357429, 11493357432, 11493357431, 11493357430, 11492801286, 5804847960, 11493357420, 11493357419, 11493357418, 5804847954, 11493402621, 11493357441, 11493357421, 11493357422, 11493357426, 11493357425, 11493357424, 11493357423, 5804847957, 11493357451, 11493357457, 5804847955, 11493357459, 11493357460, 11493357463, 11493357462], "tags": {"addr:city": "New York", "addr:state": "NY", "dog": "leashed", "ele": "3", "gnis:feature_id": "2500760", "leisure": "park", "name": "Tribeca Park", "opening_hours": "Mo-Su 06:00-01:00", "operator": "New York City Department of Parks and Recreation", "operator:short": "NYC Parks", "operator:type": "government", "operator:wikidata": "Q1894232", "smoking": "no", "source": "bing", "start_date": "1810", "website": "https://www.nycgovparks.org/parks/tribeca-park", "wikidata": "Q49572010"}}, {"type": "way", "id": 1221100069, "nodes": [2562444074, 11317570710, 11317570687, 11317570688, 11317570689, 11317570690, 11317570691, 11317570709, 11317570692, 11317570693, 11317570694, 11317570695, 11317570696, 11317570697, 11317570698, 11317570699, 2562444073, 2562444074], "tags": {"addr:city": "New York", "addr:postcode": "10013", "addr:state": "NY", "addr:street": "Thompson Street", "leisure": "park", "name": "Grand Canal Court", "opening_hours": "closed", "operator": "New York City Department of Parks and Recreation", "operator:short": "NYC Parks", "operator:type": "government", "operator:wikidata": "Q1894232"}}]}