{"version": 0.6, "generator": "Overpass API 0.7.62.8 e802775f", "osm3s": {"timestamp_osm_base": "2025-12-01T16:00:12Z", "copyright": "The data included in this document is from www.openstreetmap.org. The data is made available under ODbL."}, "elements": [{"type": "node", "id": 1241260186, "lat": 40.7223632, "lon": -74.0057752}, {"type": "node", "id": 1241260208, "lat": 40.722119, "lon": -74.0055232}, {"type": "node", "id": 1241260209, "lat": 40.7229625, "lon": -74.0052678}, {"type": "node", "id": 1861646903, "lat": 40.7242486, "lon": -74.0033107, "tags": {"amenity": "restaurant", "cuisine": "french", "name": "Vin et Fleur", "wheelchair": "yes"}}, {"type": "node", "id": 1883462420, "lat": 40.7232955, "lon": -74.0037222, "tags": {"addr:housenumber": "15", "addr:postcode": "10013", "addr:street": "Watts Street", "amenity": "restaurant", "indoor_seating": "yes", "name": "Maison Close", "outdoor_seating": "yes"}}, {"type": "node", "id": 2351282630, "lat": 40.7231111, "lon": -74.0029527, "tags": {"addr:housenumber": "363", "addr:postcode": "10013", "addr:street": "West Broadway", "alt_name": "Kenn\u2019s Broome Street Bar", "amenity": "bar", "cocktails": "yes", "contact:facebook": "Kenns-Broome-Street-Bar-189607137742744", "contact:instagram": "broomestreetbar", "contact:phone": "+1 212-925-2806", "drink:beer": "draught", "indoor_seating": "yes", "level": "0", "name": "Broome Street Bar", "opening_hours": "Mo-Th, Su 11:00-01:30; Fr, Sa 11:00-14:30", "outdoor_seating": "yes", "toilets": "yes", "wheelchair": "yes"}}, {"type": "node", "id": 2477507989, "lat": 40.7229469, "lon": -74.0053861}, {"type": "node", "id": 2477507993, "lat": 40.723016, "lon": -74.006067}, {"type": "node", "id": 2477507994, "lat": 40.7224132, "lon": -74.0058372}, {"type": "node", "id": 2477507996, "lat": 40.7226208, "lon": -74.0061366}, {"type": "node", "id": 2477560537, "lat": 40.7254238, "lon": -74.0045001}, {"type": "node", "id": 2477560547, "lat": 40.7253745, "lon": -74.00426}, {"type": "node", "id": 2477560549, "lat": 40.7244657, "lon": -74.0046197}, {"type": "node", "id": 2477560551, "lat": 40.7244708, "lon": -74.0046441}, {"type": "node", "id": 2547224143, "lat": 40.7235754, "lon": -74.0032596}, {"type": "node", "id": 2547224153, "lat": 40.7236057, "lon": -74.0033217}, {"type": "node", "id": 2547224174, "lat": 40.7236888, "lon": -74.0031642}, {"type": "node", "id": 2547224178, "lat": 40.7237191, "lon": -74.0032263}, {"type": "node", "id": 2562442598, "lat": 40.7213965, "lon": -74.0043967, "tags": {"addr:city": "New York", "addr:housenumber": "375", "addr:postcode": "10013", "addr:street": "Canal Street", "amenity": "restaurant", "cuisine": "italian_pizza", "name": "Lucia Pizza", "opening_hours": "Mo-Su 11:00-22:00", "phone": "+1 917 965-2900"}}, {"type": "node", "id": 2562444051, "lat": 40.7244662, "lon": -74.0056631, "tags": {"addr:housenumber": "558", "addr:postcode": "10013", "addr:street": "Broome Street", "amenity": "restaurant", "cuisine": "fondue", "name": "Taureau", "opening_hours": "Mo-Th 16:00-22:00, Fr-Sa 16:00-23:00, Su 16:00-22:00", "phone": "+1-212-228-2222", "website": "https://taureaunyc.com"}}, {"type": "node", "id": 2562444073, "lat": 40.7223738, "lon": -74.0048547}, {"type": "node", "id": 2562444074, "lat": 40.7224756, "lon": -74.0050791}, {"type": "node", "id": 2565708091, "lat": 40.7210007, "lon": -74.0044453, "tags": {"addr:city": "New York", "addr:housenumber": "378", "addr:street": "Canal Street", "amenity": "cafe", "indoor_seating": "yes", "name": "Caff\u00e9 Bene", "outdoor_seating": "no"}}, {"type": "node", "id": 2565708226, "lat": 40.72064, "lon": -74.00497, "tags": {"addr:housenumber": "1", "addr:postcode": "10013", "addr:street": "Lispenard Street", "amenity": "pub", "building:levels": "3", "contact:phone": "+1 212 2269943", "contact:website": "http://nancywhiskeypub.com/", "name": "Nancy's Whiskey Pub"}}, {"type": "node", "id": 2565708227, "lat": 40.7207599, "lon": -74.0048947, "tags": {"addr:housenumber": "281", "addr:postcode": "10013", "addr:street": "West Broadway", "amenity": "restaurant", "building:levels": "2", "contact:facebook": "https://www.facebook.com/pages/Pepolino-Restaurant/121762131167356", "contact:instagram": "https://www.instagram.com/pepolinorestaurant", "cuisine": "italian", "name": "Pepolino", "opening_hours": "Su-Th 12:00-23:00; Fr, Sa 12:00-24:00", "phone": "+1 212-966-9983", "reservation": "yes", "website": "https://www.pepolino.com"}}, {"type": "node", "id": 2757780163, "lat": 40.7244951, "lon": -74.0076618}, {"type": "node", "id": 2757780164, "lat": 40.7240083, "lon": -74.0077456}, {"type": "node", "id": 2757780165, "lat": 40.7239719, "lon": -74.0077227}, {"type": "node", "id": 2757780166, "lat": 40.724086, "lon": -74.007551}, {"type": "node", "id": 2757780167, "lat": 40.7241115, "lon": -74.007555}, {"type": "node", "id": 2757780168, "lat": 40.7242314, "lon": -74.0073632}, {"type": "node", "id": 2757780169, "lat": 40.7243513, "lon": -74.0072268}, {"type": "node", "id": 2757780170, "lat": 40.7244052, "lon": -74.0071951}, {"type": "node", "id": 2757780171, "lat": 40.7244457, "lon": -74.0072327}, {"type": "node", "id": 2757780172, "lat": 40.7244696, "lon": -74.0073059}, {"type": "node", "id": 2892746201, "lat": 40.723743, "lon": -74.004462, "tags": {"addr:housenumber": "112", "addr:street": "6th Avenue", "amenity": "bar", "contact:instagram": "bisoubarnyc", "contact:tiktok": "bisouwinebar", "cuisine": "french", "name": "Bisou Wine Bar", "opening_hours": "Mo-Th, Su 17:00-00:00; Fr, Sa 17:00-01:00", "reservation": "yes", "reservation:website": "https://resy.com/cities/ny/bisou", "website": "https://bisoubarnyc.com/"}}, {"type": "node", "id": 3358631412, "lat": 40.7242727, "lon": -74.0068777}, {"type": "node", "id": 3358631413, "lat": 40.724155, "lon": -74.0067609}, {"type": "node", "id": 3358631414, "lat": 40.7240161, "lon": -74.0065683}, {"type": "node", "id": 3358631415, "lat": 40.7239338, "lon": -74.0063967}, {"type": "node", "id": 3358631416, "lat": 40.7238993, "lon": -74.0062939}, {"type": "node", "id": 3358631417, "lat": 40.7239223, "lon": -74.0062204}, {"type": "node", "id": 3358631418, "lat": 40.7242842, "lon": -74.0061783}, {"type": "node", "id": 3358631419, "lat": 40.7242231, "lon": -74.0062706}, {"type": "node", "id": 3358631420, "lat": 40.7241939, "lon": -74.0064492}, {"type": "node", "id": 3358631421, "lat": 40.7241966, "lon": -74.0065916}, {"type": "node", "id": 3358631422, "lat": 40.7242293, "lon": -74.0067516}, {"type": "node", "id": 3358631423, "lat": 40.7242736, "lon": -74.0061456}, {"type": "node", "id": 3358631424, "lat": 40.7239825, "lon": -74.0061865}, {"type": "node", "id": 3358631687, "lat": 40.7244311, "lon": -74.0068228}, {"type": "node", "id": 3358631688, "lat": 40.7243912, "lon": -74.0068485}, {"type": "node", "id": 3358631689, "lat": 40.7243452, "lon": -74.0067959}, {"type": "node", "id": 3358631690, "lat": 40.7242842, "lon": -74.0066617}, {"type": "node", "id": 3358631691, "lat": 40.7242771, "lon": -74.0065146}, {"type": "node", "id": 3358631692, "lat": 40.7242948, "lon": -74.0063908}, {"type": "node", "id": 3358631893, "lat": 40.724355, "lon": -74.0062928}, {"type": "node", "id": 3358631894, "lat": 40.7243833, "lon": -74.0062846}, {"type": "node", "id": 3925063780, "lat": 40.725171, "lon": -74.00295, "tags": {"addr:city": "New York", "addr:floor": "0", "addr:housenumber": "189", "addr:postcode": "10012", "addr:street": "Spring Street", "amenity": "cafe", "check_date": "2023-04-20", "delivery": "yes", "email": "info@dominiqueansel.com", "facebook": "Dominique.Ansel.Bakery", "fax": "+1 917-591-2330", "instagram": "DominiqueAnsel", "internet_access": "wlan", "internet_access:fee": "no", "name": "Dominique Ansel Bakery", "opening_hours": "Su 09:00-19:00; Mo-Sa 08:00-19:00", "outdoor_seating": "yes", "payment:credit_cards": "yes", "payment:debit_cards": "yes", "payment:mastercard": "yes", "payment:visa": "yes", "phone": "+1 212-219-2773", "reservation": "no", "shop": "bakery", "takeaway": "yes", "twitter": "DominiqueAnsel", "website": "https://www.dominiqueanselny.com", "wheelchair": "yes"}}, {"type": "node", "id": 4326134893, "lat": 40.7211681, "lon": -74.0097607, "tags": {"addr:city": "New York", "addr:housenumber": "409", "addr:street": "Greenwich Street", "amenity": "restaurant", "name": "Wolfgang's Steakhouse"}}, {"type": "node", "id": 4406319594, "lat": 40.7238705, "lon": -74.004215, "tags": {"addr:housenumber": "529", "addr:postcode": "10013", "addr:street": "Broome Street", "amenity": "restaurant", "branch": "SoHo", "contact:email": "events@blacktapnyc.com", "contact:facebook": "blacktapnyc", "contact:instagram": "blacktapnyc", "contact:twitter": "blacktapnyc", "cuisine": "burger;american", "delivery": "yes", "name": "Black Tap", "opening_hours": "Su 11:00-22:00; Mo-Th 12:00-22:00,Fr, Sa 11:00-24:00,Su 11:00-00:00", "phone": "+1 917-639-3089", "takeaway": "yes", "website": "https://blacktap.com/location/soho/"}}, {"type": "node", "id": 4426826294, "lat": 40.725453, "lon": -74.0030128, "tags": {"amenity": "restaurant", "cuisine": "american;barbecue;fine_dining", "name": "Blue Ribbon Brassiere", "opening_hours": "Mo-Su 16:00-04:00", "phone": "+1 212-274-0404", "website": "https://www.blueribbonbrasserie.com/"}}, {"type": "node", "id": 4461051681, "lat": 40.7234132, "lon": -74.0032224}, {"type": "node", "id": 4461051682, "lat": 40.7234279, "lon": -74.0032139}, {"type": "node", "id": 4461051683, "lat": 40.7236346, "lon": -74.0036078}, {"type": "node", "id": 4461051684, "lat": 40.7234996, "lon": -74.0037218}, {"type": "node", "id": 4462798731, "lat": 40.7253962, "lon": -74.0034071, "tags": {"addr:city": "New York", "addr:housenumber": "203", "addr:postcode": "10012", "addr:state": "NY", "addr:street": "Spring Street", "amenity": "pub", "name": "Soho Room", "opening_hours": "Mo-Th 11:00-02:00; Fr-Sa 11:00-03:00; Su 12:00-01:00", "owner": "Louis Raiolo", "payment:american_express": "yes", "payment:cash": "yes", "payment:discover_card": "yes", "payment:mastercard": "yes", "payment:visa": "yes", "phone": "+1-212-334-3855", "website": "https://www.sohoroomnyc.com/", "wheelchair": "no"}}, {"type": "node", "id": 4468394389, "lat": 40.7244709, "lon": -74.0057117, "tags": {"addr:housenumber": "558", "addr:postcode": "10013", "addr:street": "Broome Street", "amenity": "restaurant", "cuisine": "french", "name": "La Sir\u00e8ne", "opening_hours": "Mo-Th 16:00-22:00, Fr-Sa 16:00-23:15, Su 16:00-22:00", "phone": "+1-212-925-3061", "website": "https://lasirenenyc.com", "wheelchair": "yes"}}, {"type": "node", "id": 4561126589, "lat": 40.7227812, "lon": -74.0048748, "tags": {"amenity": "restaurant", "internet_access": "wlan", "name": "David Burke Kitchen", "name:en": "David Burke Kitchen", "phone": "+1-212-201-9119"}}, {"type": "node", "id": 4739221813, "lat": 40.7204523, "lon": -74.0087431, "tags": {"addr:city": "Tribeca", "addr:street": "Beach Street", "amenity": "restaurant", "cuisine": "pizza", "name": "Locande"}}, {"type": "node", "id": 4751507921, "lat": 40.723681, "lon": -74.0045295, "tags": {"addr:housenumber": "110", "addr:postcode": "10013", "addr:street": "6th Avenue", "amenity": "restaurant", "cocktails": "yes", "contact:email": "lupeskitchen4@gmail.com", "contact:facebook": "LupesKitchen", "contact:instagram": "lupesnyc", "cuisine": "mexican", "delivery": "yes", "name": "lupe's East L.A. Kitchen", "opening_hours": "Tu 12:00-23:00; We-Fr 12:00-24:00; Sa 11:00-11:30; Su 11:00-23:00", "phone": "+1 212-966-1326", "reservation": "yes", "takeaway": "yes", "website": "https://lupeskitchen.com/"}}, {"type": "node", "id": 4890418801, "lat": 40.7222331, "lon": -74.0062452}, {"type": "node", "id": 4890418810, "lat": 40.7217847, "lon": -74.0055001}, {"type": "node", "id": 4890419523, "lat": 40.7223591, "lon": -74.0061831}, {"type": "node", "id": 4890419524, "lat": 40.7218601, "lon": -74.0062895}, {"type": "node", "id": 4953706821, "lat": 40.7254542, "lon": -74.0047415, "tags": {"addr:city": "New York", "addr:housenumber": "234", "addr:postcode": "10013", "addr:state": "NY", "addr:street": "Spring Street", "air_conditioning": "yes", "amenity": "restaurant", "bar": "yes", "contact:email": "info@altroparadiso.com", "contact:instagram": "altroparadiso", "cuisine": "italian", "level": "0", "name": "Altro Paradiso", "opening_hours": "Su 12:00-22:00; Mo-Sa 12:00-22:30", "outdoor_seating": "yes", "reservation": "yes", "reservation:website": "https://resy.com/cities/ny/altro-paradiso", "smoking": "no", "website": "https://altroparadiso.com/", "wheelchair": "yes"}}, {"type": "node", "id": 5087629622, "lat": 40.7230548, "lon": -74.0078313, "tags": {"addr:city": "New York", "addr:housenumber": "200", "addr:street": "Hudson Street", "amenity": "school", "name": "Arrojo Cosmetology School"}}, {"type": "node", "id": 5164012821, "lat": 40.7206703, "lon": -74.0048609, "tags": {"amenity": "restaurant", "cuisine": "japanese", "name": "Tataki"}}, {"type": "node", "id": 5353031436, "lat": 40.7237641, "lon": -74.0028162, "tags": {"addr:housenumber": "380", "addr:street": "West Broadway", "description": "Not open to the public.", "name": "The Adolph & Esther Gottlieb Foundation", "office": "government", "website": "https://gottliebfoundation.org"}}, {"type": "node", "id": 5515156304, "lat": 40.723831, "lon": -74.0033719, "tags": {"addr:housenumber": "54", "addr:postcode": "10012", "addr:street": "Thompson Street", "amenity": "restaurant", "cuisine": "mediterranean", "happy_hours": "Mo-Fr 16:30-18:30", "internet_access": "wlan", "internet_access:ssid": "PeraSoho-guest", "name": "Pera SoHo", "opening_hours": "Mo-Tu 16:30-21:30; We-Fr 12:00-22:30; Sa 10:30-23:00; Su 10:30-21:30", "outdoor_seating": "yes", "payment:credit_cards": "yes", "payment:debit_cards": "yes", "phone": "+1-212-878-6305", "reservation": "yes", "toilets": "yes", "toilets:wheelchair": "yes", "website": "https://www.pera-soho.com", "wheelchair": "yes"}}, {"type": "node", "id": 5515185730, "lat": 40.7239715, "lon": -74.003139, "tags": {"addr:housenumber": "60", "addr:street": "Thompson Street", "amenity": "bar", "email": "events@mercerstreethospitality.com", "name": "The Gordon Bar", "opening_hours": "Mo-Su 17:00-02:00", "payment:credit_cards": "yes", "phone": "+1-212-219-3200", "toilets": "yes", "website": "https://www.thegordonbar.com/"}}, {"type": "node", "id": 5515196277, "lat": 40.7239998, "lon": -74.0031136, "tags": {"addr:housenumber": "60", "addr:street": "Thompson Street", "amenity": "restaurant", "cuisine": "italian;coffee", "diet:vegetarian": "yes", "email": "info@sessantanyc.com", "lunch": "Mo-Su 11:00-17:00", "name": "Sessanta", "opening_hours": "Mo-We, Su 07:00-22:00; Th-Sa 07:00-23:00", "payment:credit_cards": "yes", "phone": "+1-212-219-8119", "reservation": "yes", "takeaway": "yes", "website": "https://www.sessantanyc.com/", "wheelchair": "yes"}}, {"type": "node", "id": 5515220109, "lat": 40.7235403, "lon": -74.0031561, "tags": {"addr:housenumber": "510", "addr:postcode": "10013", "addr:street": "Broome Street", "amenity": "restaurant", "cocktails": "yes", "cuisine": "italian", "drink:beer": "yes", "drink:liquor": "yes", "drink:wine": "yes", "email": "info@aurorasoho.com", "name": "Aurora SoHo", "opening_hours": "Mo-Th 12:00-23:00; Fr 12:00-23:30; Sa 11:00-23:30; Su 11:00-22:30", "payment:credit_cards": "yes", "phone": "+1-212-334-9020", "reservation": "recommended", "takeaway": "yes", "website": "https://www.aurorasoho.com", "wheelchair": "no"}}, {"type": "node", "id": 5804847954, "lat": 40.7202866, "lon": -74.0055156}, {"type": "node", "id": 5804847955, "lat": 40.7199779, "lon": -74.0053446}, {"type": "node", "id": 5804847957, "lat": 40.7203181, "lon": -74.0061171}, {"type": "node", "id": 5804847960, "lat": 40.7203332, "lon": -74.0054065}, {"type": "node", "id": 5804847961, "lat": 40.7199957, "lon": -74.0052855}, {"type": "node", "id": 5901578387, "lat": 40.7226051, "lon": -74.0028245, "tags": {"addr:postcode": "10013", "name": "Loadsmart Inc", "office": "company", "opening_hours": "Mo-Fr 09:00-18:00", "phone": "+1 646-887-6278", "website": "https://www.loadsmart.com"}}, {"type": "node", "id": 5903115786, "lat": 40.7222091, "lon": -74.0036238, "tags": {"addr:city": "New York", "addr:housenumber": "55", "addr:postcode": "10013", "addr:street": "Grand Street", "amenity": "restaurant", "contact:email": "info@papatzul.com", "contact:website": "https://papatzul.com/#", "cuisine": "mexican", "name": "Papatzu Mexican Restaurant", "opening_hours": "Mo-Su 12:00-23:00", "wheelchair": "no"}}, {"type": "node", "id": 6174373286, "lat": 40.7224336, "lon": -74.0034695, "tags": {"amenity": "cafe", "name": "Sanctuary T", "wheelchair": "no"}}, {"type": "node", "id": 6342778286, "lat": 40.7224501, "lon": -74.0048185, "tags": {"addr:housenumber": "15", "addr:street": "Thompson Street", "amenity": "bar", "name": "Jimmy at The James", "wheelchair": "yes"}}, {"type": "node", "id": 6622267485, "lat": 40.7252195, "lon": -74.0037768, "tags": {"amenity": "restaurant", "name": "The Woo"}}, {"type": "node", "id": 7195064985, "lat": 40.72461, "lon": -74.0030234, "tags": {"addr:housenumber": "75", "addr:postcode": "10012", "addr:street": "Thompson Street", "amenity": "restaurant", "contact:facebook": "piccolacucinany", "contact:instagram": "piccolacucinany", "contact:twitter": "PCucinaNYC", "cuisine": "sicilian;italian", "delivery": "yes", "drink:wine": "served", "email": "info@piccolacucinagroup.com", "level": "0", "name": "Piccola Cuccina Estiatorio", "opening_hours": "Mo-Th 17:30-23:00; Fr 17:30-00:00; Sa 11:30-00:00; Su 11:30-23:00", "phone": "+1 646-781-9183", "reservation": "yes", "takeaway": "yes", "website": "https://www.piccolacucinagroup.com/en/piccola-cucina-estiatorio-soho-nyc"}}, {"type": "node", "id": 8304498276, "lat": 40.7202445, "lon": -74.0052647}, {"type": "node", "id": 8304498355, "lat": 40.7219871, "lon": -74.0062887}, {"type": "node", "id": 8648214218, "lat": 40.7211682, "lon": -74.0085684, "tags": {"amenity": "cafe", "name": "Interlude"}}, {"type": "node", "id": 9174977864, "lat": 40.7216296, "lon": -74.0047353, "tags": {"addr:city": "New York", "addr:housenumber": "383", "addr:postcode": "10013", "addr:state": "NY", "addr:street": "Canal Street", "amenity": "restaurant", "cuisine": "pizza", "delivery": "yes", "name": "$1.50 Fresh Pizza", "opening_hours": "Mo-Su 10:00-04:30", "payment:cash": "only", "phone": "+1 212-966-1110", "website": "https://www.150freshpizza.com/"}}, {"type": "node", "id": 9411604725, "lat": 40.7219313, "lon": -74.0039657, "tags": {"addr:city": "New York", "addr:country": "US", "addr:housenumber": "323", "addr:postcode": "10013", "addr:state": "NY", "addr:street": "West Broadway", "amenity": "restaurant", "cocktails": "yes", "contact:instagram": "https://www.instagram.com/mamo_nyc", "cuisine": "italian", "drink:wine": "served", "email": "info@mamonyc.com", "name": "MAMO", "opening_hours": "Mo 12:00-15:30, 17:30-22:00; Tu 12:00-15:30, 17:30-22:30; We, Th 12:00-15:30, 17:30-23:00; Fr 12:00-15:30, 17:30-23:30; Sa 11:30-16:00, 17:30-23:30; Su 11:30-16:00, 17:30-22:00", "outdoor_seating": "yes", "phone": "+1 646-964-4641", "reservation": "yes", "website": "https://www.mamonyc.com"}}, {"type": "node", "id": 9535119733, "lat": 40.7236733, "lon": -74.0038719, "tags": {"addr:housenumber": "519", "addr:postcode": "10013", "addr:street": "Broome Street", "amenity": "restaurant", "contact:email": "mishkasoho@mishkasoho.com", "contact:facebook": "Mishka-Restaurant-Soho-106731477822260", "contact:instagram": "mishkasoho_", "contact:phone": "+1 646-590-1498", "contact:website": "https://www.mishkasoho.com", "cuisine": "eastern_european", "delivery": "yes", "drink:tea": "yes", "level": "0", "name": "Mishka Soho", "opening_hours": "Mo-Th, Su 12:00-22:00; Fr 10:00-22:00; Sa 10:00-01:00", "outdoor_seating": "yes", "reservation": "yes", "takeaway": "yes"}}, {"type": "node", "id": 9934396018, "lat": 40.7236281, "lon": -74.0028707, "tags": {"addr:housenumber": "376", "addr:postcode": "10012", "addr:street": "West Broadway", "amenity": "restaurant", "name": "Cipriani Downtown NYC", "opening_hours": "Mo-Su 12:00-00:00"}}, {"type": "node", "id": 10090538380, "lat": 40.7221836, "lon": -74.0035553, "tags": {"amenity": "bar", "contact:facebook": "https://www.facebook.com/toadhallgrand/", "name": "Toad Hall", "sport": "billiards"}}, {"type": "node", "id": 10090538383, "lat": 40.7211027, "lon": -74.0039693, "tags": {"amenity": "cafe", "contact:facebook": "matchaful", "name": "Matchaful", "website": "https://www.bematchaful.com/"}}, {"type": "node", "id": 10101193964, "lat": 40.7223568, "lon": -74.0062251, "tags": {"barrier": "kerb", "kerb": "lowered", "tactile_paving": "yes", "wheelchair": "yes"}}, {"type": "node", "id": 10101193965, "lat": 40.7223441, "lon": -74.0057912, "tags": {"barrier": "kerb", "kerb": "lowered", "tactile_paving": "no", "wheelchair": "yes"}}, {"type": "node", "id": 10101193966, "lat": 40.7218487, "lon": -74.0055077, "tags": {"barrier": "kerb", "kerb": "lowered", "tactile_paving": "yes", "wheelchair": "yes"}}, {"type": "node", "id": 10101193967, "lat": 40.722133, "lon": -74.0054934, "tags": {"barrier": "kerb", "kerb": "lowered", "tactile_paving": "yes", "wheelchair": "yes"}}, {"type": "node", "id": 10101193968, "lat": 40.7217841, "lon": -74.0054809, "tags": {"barrier": "kerb", "kerb": "lowered", "tactile_paving": "yes", "wheelchair": "yes"}}, {"type": "node", "id": 10101226877, "lat": 40.7237077, "lon": -74.009632, "tags": {"addr:city": "New York", "addr:housenumber": "458", "addr:postcode": "10013", "addr:state": "NY", "addr:street": "Greenwich Street", "amenity": "bar", "name": "North Bar"}}, {"type": "node", "id": 10853807646, "lat": 40.7244067, "lon": -74.0068385}, {"type": "node", "id": 11210299208, "lat": 40.7253658, "lon": -74.004903, "tags": {"addr:housenumber": "155", "addr:postcode": "10013", "addr:street": "Avenue of the Americas", "contact:email": "hello@propublica.org", "contact:facebook": "propublica", "contact:mastodon": "https://newsie.social/@ProPublica", "contact:twitter": "propublica", "fax": "+1 212-785-2634", "level": "12", "name": "ProPublica", "office": "association", "phone": "+1 212-514-5250", "website": "https://www.propublica.org/", "wikidata": "Q1817856", "wikipedia": "en:ProPublica"}}, {"type": "node", "id": 11310917664, "lat": 40.7225716, "lon": -74.0060655}, {"type": "node", "id": 11310917667, "lat": 40.7225282, "lon": -74.006003}, {"type": "node", "id": 11310917668, "lat": 40.7224995, "lon": -74.0059616}, {"type": "node", "id": 11310960973, "lat": 40.7223079, "lon": -74.0057844}, {"type": "node", "id": 11310960974, "lat": 40.722349, "lon": -74.0057878}, {"type": "node", "id": 11310960975, "lat": 40.7223149, "lon": -74.0057931}, {"type": "node", "id": 11310960976, "lat": 40.7223277, "lon": -74.0057976}, {"type": "node", "id": 11310960977, "lat": 40.7223395, "lon": -74.0057944}, {"type": "node", "id": 11310960978, "lat": 40.7221271, "lon": -74.0054956}, {"type": "node", "id": 11310960979, "lat": 40.7221189, "lon": -74.0055026}, {"type": "node", "id": 11310960980, "lat": 40.7221168, "lon": -74.0055146}, {"type": "node", "id": 11310960981, "lat": 40.7222037, "lon": -74.0054664}, {"type": "node", "id": 11310960982, "lat": 40.7222379, "lon": -74.0054799}, {"type": "node", "id": 11310960983, "lat": 40.722231, "lon": -74.0054728}, {"type": "node", "id": 11310960984, "lat": 40.722223, "lon": -74.0054683}, {"type": "node", "id": 11310960985, "lat": 40.722214, "lon": -74.0054656}, {"type": "node", "id": 11310960986, "lat": 40.7229468, "lon": -74.0051935}, {"type": "node", "id": 11310960987, "lat": 40.7229678, "lon": -74.0052461}, {"type": "node", "id": 11310960988, "lat": 40.7229661, "lon": -74.0052626}, {"type": "node", "id": 11310960989, "lat": 40.7229684, "lon": -74.005255}, {"type": "node", "id": 11310960990, "lat": 40.722959, "lon": -74.0051995}, {"type": "node", "id": 11310960991, "lat": 40.7229564, "lon": -74.0051944}, {"type": "node", "id": 11310960992, "lat": 40.7229519, "lon": -74.0051924}, {"type": "node", "id": 11310961020, "lat": 40.7229635, "lon": -74.0052232, "tags": {"barrier": "kerb", "kerb": "lowered", "tactile_paving": "yes", "wheelchair": "yes"}}, {"type": "node", "id": 11310961021, "lat": 40.7229354, "lon": -74.0051981, "tags": {"barrier": "kerb", "kerb": "lowered", "tactile_paving": "yes", "wheelchair": "yes"}}, {"type": "node", "id": 11310961022, "lat": 40.7229517, "lon": -74.005277, "tags": {"barrier": "kerb", "kerb": "lowered", "tactile_paving": "yes", "wheelchair": "yes"}}, {"type": "node", "id": 11310961145, "lat": 40.7226583, "lon": -74.0055254}, {"type": "node", "id": 11310961159, "lat": 40.7228044, "lon": -74.0054016}, {"type": "node", "id": 11310961190, "lat": 40.7228927, "lon": -74.0053269}, {"type": "node", "id": 11310961198, "lat": 40.7221276, "lon": -74.005535, "tags": {"barrier": "kerb", "kerb": "lowered", "tactile_paving": "yes", "wheelchair": "yes"}}, {"type": "node", "id": 11310961206, "lat": 40.7221221, "lon": -74.0055275}, {"type": "node", "id": 11310961224, "lat": 40.7226018, "lon": -74.0061091}, {"type": "node", "id": 11311088097, "lat": 40.7222859, "lon": -74.0061193}, {"type": "node", "id": 11311088098, "lat": 40.7223331, "lon": -74.0061307}, {"type": "node", "id": 11311088099, "lat": 40.7223178, "lon": -74.0061213}, {"type": "node", "id": 11311088100, "lat": 40.7223288, "lon": -74.0061247}, {"type": "node", "id": 11311088101, "lat": 40.7223239, "lon": -74.0061217}, {"type": "node", "id": 11311088102, "lat": 40.7223599, "lon": -74.0062157}, {"type": "node", "id": 11311088103, "lat": 40.7223614, "lon": -74.0062046}, {"type": "node", "id": 11311088104, "lat": 40.7223614, "lon": -74.0061941}, {"type": "node", "id": 11311088105, "lat": 40.7223533, "lon": -74.0062334}, {"type": "node", "id": 11311088106, "lat": 40.7223189, "lon": -74.0062595}, {"type": "node", "id": 11311088107, "lat": 40.7223314, "lon": -74.0062552}, {"type": "node", "id": 11311088108, "lat": 40.7223424, "lon": -74.0062487}, {"type": "node", "id": 11311088109, "lat": 40.7223499, "lon": -74.0062412}, {"type": "node", "id": 11311088110, "lat": 40.7222662, "lon": -74.0062687}, {"type": "node", "id": 11311088111, "lat": 40.7222535, "lon": -74.0062632}, {"type": "node", "id": 11311088112, "lat": 40.7222611, "lon": -74.0062684}, {"type": "node", "id": 11311088113, "lat": 40.722257, "lon": -74.0062662}, {"type": "node", "id": 11311088116, "lat": 40.721974, "lon": -74.0063145}, {"type": "node", "id": 11311088117, "lat": 40.7219685, "lon": -74.0063201}, {"type": "node", "id": 11311088118, "lat": 40.721893, "lon": -74.0063325}, {"type": "node", "id": 11311088120, "lat": 40.7218633, "lon": -74.0063043}, {"type": "node", "id": 11311088121, "lat": 40.7218829, "lon": -74.0063322}, {"type": "node", "id": 11311088122, "lat": 40.7218743, "lon": -74.0063266}, {"type": "node", "id": 11311088123, "lat": 40.7218681, "lon": -74.0063162}, {"type": "node", "id": 11311088124, "lat": 40.7218122, "lon": -74.0054584}, {"type": "node", "id": 11311088125, "lat": 40.721785, "lon": -74.0054659}, {"type": "node", "id": 11311088126, "lat": 40.7217874, "lon": -74.0054555}, {"type": "node", "id": 11311088127, "lat": 40.7218042, "lon": -74.0054511}, {"type": "node", "id": 11311088128, "lat": 40.7217965, "lon": -74.0054493}, {"type": "node", "id": 11311088129, "lat": 40.7217911, "lon": -74.0054509}, {"type": "node", "id": 11311088130, "lat": 40.721912, "lon": -74.0063294, "tags": {"barrier": "kerb", "kerb": "lowered", "tactile_paving": "yes", "wheelchair": "yes"}}, {"type": "node", "id": 11311088132, "lat": 40.7218619, "lon": -74.0062975, "tags": {"barrier": "kerb", "kerb": "lowered", "tactile_paving": "yes", "wheelchair": "yes"}}, {"type": "node", "id": 11317570687, "lat": 40.7225028, "lon": -74.0051432}, {"type": "node", "id": 11317570688, "lat": 40.7222433, "lon": -74.0052506}, {"type": "node", "id": 11317570689, "lat": 40.7222265, "lon": -74.0052524}, {"type": "node", "id": 11317570690, "lat": 40.7222161, "lon": -74.0052481}, {"type": "node", "id": 11317570691, "lat": 40.7222045, "lon": -74.0052346}, {"type": "node", "id": 11317570692, "lat": 40.7221018, "lon": -74.005088}, {"type": "node", "id": 11317570693, "lat": 40.7220964, "lon": -74.0050723}, {"type": "node", "id": 11317570694, "lat": 40.7220957, "lon": -74.0050552}, {"type": "node", "id": 11317570695, "lat": 40.7221011, "lon": -74.0050402}, {"type": "node", "id": 11317570696, "lat": 40.722108, "lon": -74.0050268}, {"type": "node", "id": 11317570697, "lat": 40.7221208, "lon": -74.0050152}, {"type": "node", "id": 11317570698, "lat": 40.7223557, "lon": -74.0048152}, {"type": "node", "id": 11317570699, "lat": 40.7223659, "lon": -74.0048374}, {"type": "node", "id": 11317570709, "lat": 40.7222011, "lon": -74.0052298, "tags": {"barrier": "kerb", "kerb": "lowered", "tactile_paving": "yes", "wheelchair": "yes"}}, {"type": "node", "id": 11317570710, "lat": 40.7224895, "lon": -74.0051119}, {"type": "node", "id": 11492801286, "lat": 40.720455, "lon": -74.0053104, "tags": {"barrier": "kerb", "kerb": "lowered", "tactile_paving": "yes", "wheelchair": "yes"}}, {"type": "node", "id": 11492801294, "lat": 40.7204484, "lon": -74.0052757, "tags": {"barrier": "kerb", "kerb": "lowered", "tactile_paving": "yes", "wheelchair": "yes"}}, {"type": "node", "id": 11493357418, "lat": 40.7202896, "lon": -74.0054845}, {"type": "node", "id": 11493357419, "lat": 40.7202999, "lon": -74.005453}, {"type": "node", "id": 11493357420, "lat": 40.7203144, "lon": -74.0054284}, {"type": "node", "id": 11493357421, "lat": 40.7203456, "lon": -74.0061075}, {"type": "node", "id": 11493357422, "lat": 40.7203457, "lon": -74.0061202}, {"type": "node", "id": 11493357423, "lat": 40.720325, "lon": -74.0061302}, {"type": "node", "id": 11493357424, "lat": 40.7203318, "lon": -74.006136}, {"type": "node", "id": 11493357425, "lat": 40.7203385, "lon": -74.0061364}, {"type": "node", "id": 11493357426, "lat": 40.7203434, "lon": -74.0061308}, {"type": "node", "id": 11493357427, "lat": 40.7202795, "lon": -74.0052641}, {"type": "node", "id": 11493357428, "lat": 40.7203534, "lon": -74.0052688}, {"type": "node", "id": 11493357429, "lat": 40.7204772, "lon": -74.0052862}, {"type": "node", "id": 11493357430, "lat": 40.7204668, "lon": -74.0053023}, {"type": "node", "id": 11493357431, "lat": 40.7204731, "lon": -74.0052968}, {"type": "node", "id": 11493357432, "lat": 40.7204761, "lon": -74.0052921}, {"type": "node", "id": 11493357433, "lat": 40.7204748, "lon": -74.0052803}, {"type": "node", "id": 11493357434, "lat": 40.7204677, "lon": -74.0052767}, {"type": "node", "id": 11493357441, "lat": 40.7202968, "lon": -74.0056167, "tags": {"barrier": "kerb", "kerb": "lowered", "tactile_paving": "yes", "wheelchair": "yes"}}, {"type": "node", "id": 11493357451, "lat": 40.7201466, "lon": -74.0057278, "tags": {"barrier": "kerb", "kerb": "lowered", "tactile_paving": "yes", "wheelchair": "yes"}}, {"type": "node", "id": 11493357457, "lat": 40.7200574, "lon": -74.0055251, "tags": {"barrier": "kerb", "kerb": "lowered", "tactile_paving": "yes", "wheelchair": "yes"}}, {"type": "node", "id": 11493357459, "lat": 40.7199711, "lon": -74.0053252, "tags": {"barrier": "kerb", "kerb": "lowered", "tactile_paving": "yes", "wheelchair": "yes"}}, {"type": "node", "id": 11493357460, "lat": 40.7199689, "lon": -74.0053108}, {"type": "node", "id": 11493357461, "lat": 40.7199856, "lon": -74.0052874}, {"type": "node", "id": 11493357462, "lat": 40.7199751, "lon": -74.0052939, "tags": {"barrier": "kerb", "kerb": "lowered", "tactile_paving": "yes", "wheelchair": "yes"}}, {"type": "node", "id": 11493357463, "lat": 40.7199712, "lon": -74.0052996}, {"type": "node", "id": 11493357464, "lat": 40.7199796, "lon": -74.0052902}, {"type": "node", "id": 11493402621, "lat": 40.7202889, "lon": -74.0055381}, {"type": "node", "id": 11725744791, "lat": 40.7233442, "lon": -74.0065729, "tags": {"addr:city": "New York", "addr:housenumber": "75", "addr:postcode": "10013", "addr:state": "NY", "addr:street": "Varick Street", "amenity": "cafe", "cuisine": "coffee_shop", "name": "drip coffee makers", "outdoor_seating": "no", "phone": "+1-917-704-6742", "website": "https://www.dripcoffeenyc.com/"}}, {"type": "node", "id": 11739055904, "lat": 40.7255235, "lon": -74.0053247, "tags": {"addr:housenumber": "246", "addr:postcode": "10013", "addr:street": "Spring Street", "amenity": "restaurant", "cocktails": "yes", "contact:email": "Zac@vestrynyc.com", "contact:facebook": "vestrynyc", "contact:instagram": "vestrynyc", "cuisine": "seafood", "name": "Vestry", "opening_hours": "Mo-Sa 17:00-24:00", "opening_hours:kitchen": "Mo-Th 17:00-22:00; Fr,Sa 17:00-22:30", "phone": "+1 212-784-1350", "reservation": "yes", "reservation:website": "https://resy.com/cities/ny/vestry", "website": "https://www.vestrynyc.com/"}}, {"type": "node", "id": 11897338093, "lat": 40.7225399, "lon": -74.0038369, "tags": {"amenity": "restaurant", "name": "Restaurante F\u00e9lix"}}, {"type": "node", "id": 11897345667, "lat": 40.7229261, "lon": -74.0046413, "tags": {"amenity": "restaurant", "cuisine": "sushi", "indoor_seating": "yes", "name": "Kintsugi", "outdoor_seating": "no"}}, {"type": "node", "id": 11897354380, "lat": 40.7228856, "lon": -74.0045762, "tags": {"amenity": "cafe", "indoor_seating": "yes", "name": "Now or Never", "outdoor_seating": "yes"}}, {"type": "node", "id": 12097569302, "lat": 40.7216106, "lon": -74.004245, "tags": {"addr:city": "New York", "addr:housenumber": "301", "addr:postcode": "10013", "addr:street": "West Broadway", "amenity": "restaurant", "cuisine": "coffee_shop", "name": "Lucia Alimentari", "opening_hours": "Mo-Su 07:00-22:00"}}, {"type": "node", "id": 12259319359, "lat": 40.7220958, "lon": -74.0042287, "tags": {"addr:city": "New York", "addr:housenumber": "320", "addr:postcode": "10013", "addr:state": "NY", "addr:street": "West Broadway", "amenity": "restaurant", "name": "Soho Diner", "opening_hours": "Mo-Su 07:00+", "phone": "+1 212-965-3011", "website": "https://www.sohodinernyc.com/"}}, {"type": "node", "id": 12397456372, "lat": 40.7234191, "lon": -74.0054559, "tags": {"name": "DigitalOcean LLC", "office": "company", "website": "https://www.digitalocean.com/"}}, {"type": "node", "id": 12517077499, "lat": 40.724465, "lon": -74.0046338}, {"type": "node", "id": 12517077500, "lat": 40.7254518, "lon": -74.0044815}, {"type": "node", "id": 12605085818, "lat": 40.7246281, "lon": -74.0050184, "tags": {"alt_name": "Chelsea Vocational School", "amenity": "school", "fax": "+1-212-941-7934", "grades": "9-12", "mascot": "Lions", "name": "Chelsea Career and Techincal High School", "phone": "+1-212-925-1080", "ref:nycdoe": "M615", "website": "https://www.chelseacte.org", "wikidata": "Q5090099"}}, {"type": "way", "id": 108153676, "nodes": [1241260209, 11310960988, 11310960989, 11310960987, 11310961020, 11310960990, 11310960991, 11310960992, 11310960986, 11310961021, 11310960982, 11310960983, 11310960984, 11310960985, 11310960981, 10101193967, 11310960978, 11310960979, 11310960980, 1241260208, 11310961206, 11310961198, 11310960973, 11310960975, 11310960976, 11310960977, 10101193965, 11310960974, 1241260186, 11310961145, 11310961159, 11310961190, 11310961022, 1241260209], "tags": {"addr:city": "New York", "addr:postcode": "10012", "addr:state": "NY", "check_date": "2023-11-03", "dog": "leashed", "gnis:feature_id": "2082960", "leisure": "park", "name": "Duarte Square", "official_name": "Juan Pablo Duarte Square", "opening_hours": "Mo-Su 06:00-01:00", "operator": "New York City Department of Parks and Recreation", "operator:short": "NYC Parks", "operator:type": "government", "operator:wikidata": "Q1894232", "smoking": "no", "start_date": "1945", "website": "https://www.nycgovparks.org/parks/duarte-square", "wheelchair": "yes", "wikidata": "Q14706247", "wikipedia": "en:Duarte Square"}}, {"type": "way", "id": 239982768, "nodes": [2477507993, 2477507989, 2477507994, 11310917668, 11310917667, 11310917664, 11310961224, 2477507996, 2477507993], "tags": {"addr:city": "New York", "addr:postcode": "10012", "addr:state": "NY", "check_date": "2023-11-03", "leisure": "park", "name": "LentSpace", "operator": "Lower Manhattan Cultural Council", "operator:type": "private_non_profit", "wikidata": "Q6523273", "wikipedia": "en:LentSpace"}}, {"type": "way", "id": 239988106, "nodes": [2477560547, 12517077500, 2477560537, 2477560551, 12517077499, 2477560549, 2477560547], "tags": {"gnis:feature_id": "2500758", "leisure": "park", "name": "Spring Street Park", "website": "https://www.nycgovparks.org/parks/soho-square", "wikidata": "Q28209401"}}, {"type": "way", "id": 247865132, "nodes": [2547224143, 2547224153, 2547224178, 2547224174, 2547224143], "tags": {"addr:city": "New York", "addr:housenumber": "512", "addr:postcode": "10013", "addr:street": "Broome Street", "amenity": "restaurant", "building": "yes", "cuisine": "greek", "height": "5.2", "name": "Pi Bakerie", "nycdoitt:bin": "1007340", "opening_hours": "Mo-Su 07:00-21:00", "phone": "+1-212-226-2701", "website": "https://pibakerie.com"}}, {"type": "way", "id": 270791455, "nodes": [2757780163, 2757780164, 2757780165, 2757780166, 2757780167, 2757780168, 2757780169, 2757780170, 2757780171, 2757780172, 2757780163], "tags": {"addr:city": "New York", "leisure": "park", "name": "Freeman Plaza West"}}, {"type": "way", "id": 329041506, "nodes": [3358631412, 3358631413, 3358631414, 3358631415, 3358631416, 3358631417, 3358631424, 3358631423, 3358631418, 3358631419, 3358631420, 3358631421, 3358631422, 3358631412], "tags": {"leisure": "park", "name": "Freeman Plaza East"}}, {"type": "way", "id": 329041537, "nodes": [3358631687, 10853807646, 3358631688, 3358631689, 3358631690, 3358631691, 3358631692, 3358631893, 3358631894, 3358631687], "tags": {"leisure": "park", "name": "Freeman Plaza North"}}, {"type": "way", "id": 449139914, "nodes": [4461051681, 4461051682, 4461051683, 4461051684, 4461051681], "tags": {"leisure": "park", "name": "Urban Park"}}, {"type": "way", "id": 497484756, "nodes": [4890419524, 11311088132, 11311088120, 11311088123, 11311088122, 11311088121, 11311088118, 11311088130, 11311088117, 11311088116, 8304498355, 4890418801, 11311088111, 11311088113, 11311088112, 11311088110, 11311088106, 11311088107, 11311088108, 11311088109, 11311088105, 10101193964, 11311088102, 11311088103, 11311088104, 4890419523, 11311088098, 11311088100, 11311088101, 11311088099, 11311088097, 10101193966, 11311088124, 11311088127, 11311088128, 11311088129, 11311088126, 11311088125, 10101193968, 4890418810, 4890419524], "tags": {"addr:city": "New York", "addr:postcode": "10012", "addr:state": "NY", "check_date": "2023-11-03", "leisure": "park", "name": "Albert Capsouto Park", "operator": "New York City Department of Parks and Recreation", "operator:short": "NYC Parks", "operator:type": "government", "operator:wikidata": "Q1894232", "start_date": "2009-11-01", "website": "https://www.nycgovparks.org/parks/capsouto-park", "wikidata": "Q2582732", "wikipedia": "en:Albert Capsouto Park"}}, {"type": "way", "id": 613509792, "nodes": [11493357462, 11493357464, 11493357461, 5804847961, 8304498276, 11493357427, 11493357428, 11492801294, 11493357434, 11493357433, 11493357429, 11493357432, 11493357431, 11493357430, 11492801286, 5804847960, 11493357420, 11493357419, 11493357418, 5804847954, 11493402621, 11493357441, 11493357421, 11493357422, 11493357426, 11493357425, 11493357424, 11493357423, 5804847957, 11493357451, 11493357457, 5804847955, 11493357459, 11493357460, 11493357463, 11493357462], "tags": {"addr:city": "New York", "addr:state": "NY", "dog": "leashed", "ele": "3", "gnis:feature_id": "2500760", "leisure": "park", "name": "Tribeca Park", "opening_hours": "Mo-Su 06:00-01:00", "operator": "New York City Department of Parks and Recreation", "operator:short": "NYC Parks", "operator:type": "government", "operator:wikidata": "Q1894232", "smoking": "no", "source": "bing", "start_date": "1810", "website": "https://www.nycgovparks.org/parks/tribeca-park", "wikidata": "Q49572010"}}, {"type": "way", "id": 1221100069, "nodes": [2562444074, 11317570710, 11317570687, 11317570688, 11317570689, 11317570690, 11317570691, 11317570709, 11317570692, 11317570693, 11317570694, 11317570695, 11317570696, 11317570697, 11317570698, 11317570699, 2562444073, 2562444074], "tags": {"addr:city": "New York", "addr:postcode": "10013", "addr:state": "NY", "addr:street": "Thompson Street", "leisure": "park", "name": "Grand Canal Court", "opening_hours": "closed", "operator": "New York City Department of Parks and Recreation", "operator:short": "NYC Parks", "operator:type": "government", "operator:wikidata": "Q1894232"}}]}