{"version": 0.6, "generator": "Overpass API 0.7.62.8 e802775f", "osm3s": {"timestamp_osm_base": "2025-12-01T15:59:15Z", "copyright": "The data included in this document is from www.openstreetmap.org. The data is made available under ODbL."}, "elements": [{"type": "node", "id": 402743563, "lat": 40.748491, "lon": -73.9865012}, {"type": "node", "id": 402743567, "lat": 40.7479255, "lon": -73.9851602}, {"type": "node", "id": 402743571, "lat": 40.7483931, "lon": -73.9848166}, {"type": "node", "id": 402743573, "lat": 40.7489585, "lon": -73.9861574}, {"type": "node", "id": 662894338, "lat": 40.7522171, "lon": -73.9911323, "tags": {"addr:city": "New York", "addr:housenumber": "225", "addr:postcode": "10001", "addr:state": "NY", "addr:street": "West 35th Street", "air_conditioning": "yes", "amenity": "cafe", "capacity": "10", "check_date": "2024-04-27", "contact:facebook": "https://www.facebook.com/bestbagelnyc", "contact:instagram": "https://www.instagram.com/bestbagelnyc", "cuisine": "bagel", "email": "bestbagel@gmail.com", "internet_access": "no", "name": "Best Bagel & Coffee", "opening_hours": "Mo-Fr 06:00-16:00; Sa-Su 07:00-16:00", "outdoor_seating": "no", "payment:credit_cards": "yes", "payment:debit_cards": "yes", "phone": "+1 212-564-4409", "smoking": "no", "survey:date": "2022-05-11", "takeaway": "yes", "website": "https://www.bestbagelandcoffee.com", "website:menu": "https://www.bestbagelandcoffee.com/menu", "wheelchair": "no"}}, {"type": "node", "id": 883235940, "lat": 40.7481846, "lon": -73.985687, "tags": {"addr:city": "New York", "addr:country": "US", "addr:housenumber": "350", "addr:postcode": "10118", "addr:state": "NY", "addr:street": "5th Avenue", "addr:unit": "6", "amenity": "cafe", "branch": "Empire State Building Reserve", "brand": "Starbucks", "brand:wikidata": "Q37158", "cuisine": "coffee_shop", "drink:coffee": "yes", "drink:soy_milk": "yes", "internet_access": "wlan", "internet_access:fee": "no", "level": "0", "name": "Starbucks", "official_name": "Starbucks Coffee", "opening_hours": "Mo-Fr 06:30-18:00", "outdoor_seating": "no", "phone": "+1 212-564-9141", "takeaway": "yes", "toilets": "yes", "toilets:access": "yes", "toilets:wheelchair": "yes", "website": "https://www.starbucks.com/store-locator/store/7549/34th-st-empire-state-building-350-fifth-avenue-new-york-ny-101180110-us", "wheelchair": "yes"}}, {"type": "node", "id": 1025399714, "lat": 40.7511609, "lon": -73.9913864}, {"type": "node", "id": 1025399781, "lat": 40.750686, "lon": -73.9917334}, {"type": "node", "id": 2027071449, "lat": 40.7480023, "lon": -73.9858823, "tags": {"addr:city": "New York", "addr:housenumber": "6", "addr:postcode": "10001", "addr:state": "NY", "addr:street": "West 33rd Street", "amenity": "pub", "name": "Legends", "opening_hours": "Mo-Su 11:00-23:00", "phone": "+1-212-967-7792", "theme": "sports_bar", "website": "https://www.legends33.com"}}, {"type": "node", "id": 2081537413, "lat": 40.7474363, "lon": -73.9850203, "tags": {"addr:city": "New York", "addr:country": "US", "addr:housenumber": "525", "addr:postcode": "10016", "addr:state": "NY", "addr:street": "5th Avenue", "amenity": "restaurant", "brand": "Bonchon Chicken", "brand:wikidata": "Q4941248", "check_date": "2025-06-17", "cuisine": "chicken;korean;sushi", "name": "Bonchon Chicken"}}, {"type": "node", "id": 2081539634, "lat": 40.7471688, "lon": -73.9852137, "tags": {"addr:city": "New York", "addr:country": "US", "addr:housenumber": "319", "addr:postcode": "10016", "addr:state": "NY", "addr:street": "5th Avenue", "amenity": "restaurant", "cuisine": "chicken;korean", "name": "LOVE Korean BBQ", "phone": "+1-646-669-8147", "website": "https://lovekoreanbbq.com/"}}, {"type": "node", "id": 2479458329, "lat": 40.7499004, "lon": -73.985695, "tags": {"addr:city": "New York", "addr:housenumber": "35", "addr:postcode": "10001", "addr:street": "West 35th Street", "amenity": "restaurant", "cocktails": "yes", "cuisine": "japanese", "drink:beer": "yes", "drink:liquor": "yes", "drink:wine": "yes", "name": "Hakata TonTon", "opening_hours": "Tu-Th 18:00-21:30, Fr 18:00-22:00, Sa 17:30-22:00, Su 17:30-21:30", "phone": "+1-917-261-6536", "website": "https://www.hakatatonton.net/"}}, {"type": "node", "id": 2629370016, "lat": 40.7484233, "lon": -73.9882257}, {"type": "node", "id": 2703449228, "lat": 40.7483872, "lon": -73.990094, "tags": {"addr:city": "New York", "addr:housenumber": "119", "addr:postcode": "10001", "addr:state": "NY", "addr:street": "West 31st Street", "amenity": "university", "check_date": "2025-10-16", "name": "CUNY School of Professional Studies", "operator": "City University of New York"}}, {"type": "node", "id": 2703449252, "lat": 40.7483929, "lon": -73.9906659, "tags": {"addr:city": "New York", "addr:housenumber": "132", "addr:postcode": "10001", "addr:state": "NY", "addr:street": "West 31st Street", "amenity": "restaurant", "contact:facebook": "http://www.facebook.com/penn6nyc", "cuisine": "american", "diet:gluten_free": "yes", "name": "Pennsylvania 6", "opening_hours": "Mo-Fr 11:30-24:00; Sa-Su 10:00-24:00", "outdoor_seating": "yes", "payments": "MasterCard\u00a0\u00a0Amex\u00a0\u00a0Cash\u00a0\u00a0Visa\u00a0\u00a0Discover", "phone": "+1-212-727-3666", "reservation": "yes", "website": "https://pennsylvania6nyc.com"}}, {"type": "node", "id": 2703449330, "lat": 40.7482027, "lon": -73.9887195, "tags": {"addr:housenumber": "888", "addr:postcode": "10001", "addr:street": "6th Avenue", "amenity": "restaurant", "cuisine": "noodle", "name": "Yong Kang Street"}}, {"type": "node", "id": 2703449561, "lat": 40.74747, "lon": -73.9888573}, {"type": "node", "id": 2703449572, "lat": 40.7475228, "lon": -73.9889826}, {"type": "node", "id": 2703449586, "lat": 40.7476271, "lon": -73.9889069}, {"type": "node", "id": 2703449593, "lat": 40.7476756, "lon": -73.9888713}, {"type": "node", "id": 2709306713, "lat": 40.7475091, "lon": -73.9860606, "tags": {"addr:housenumber": "5", "addr:postcode": "10001", "addr:street": "West 32nd Street", "amenity": "restaurant", "branch": "Manhattan, NY", "brand": "BCD Tofu House", "brand:wikidata": "Q125537897", "cuisine": "korean", "delivery": "yes", "level": "0", "name": "BCD Tofu House", "opening_hours": "Su-Th 10:30-01:00; Fr-Sa 10:30-05:00", "outdoor_seating": "no", "phone": "+1 212-967-1900", "takeaway": "yes", "website": "https://www.bcdtofuhouse.com"}}, {"type": "node", "id": 2709307464, "lat": 40.7485145, "lon": -73.9864839}, {"type": "node", "id": 2709307499, "lat": 40.748689, "lon": -73.9863554}, {"type": "node", "id": 2709307502, "lat": 40.7487301, "lon": -73.9863252}, {"type": "node", "id": 2709430332, "lat": 40.7506371, "lon": -73.9916167}, {"type": "node", "id": 2709430371, "lat": 40.751112, "lon": -73.9912699}, {"type": "node", "id": 2709702288, "lat": 40.7498635, "lon": -73.9897361, "tags": {"addr:housenumber": "133", "addr:postcode": "10001", "addr:street": "West 33rd Street", "amenity": "pub", "name": "Feile", "outdoor_seating": "sidewalk;street"}}, {"type": "node", "id": 2709702410, "lat": 40.7496978, "lon": -73.9871027, "tags": {"addr:housenumber": "47", "addr:postcode": "10001", "addr:street": "West 34th Street", "amenity": "university", "branch": "Manhattan Campus", "name": "Mercy University"}}, {"type": "node", "id": 2709702837, "lat": 40.7499353, "lon": -73.9899486}, {"type": "node", "id": 2709702848, "lat": 40.7499682, "lon": -73.9900268}, {"type": "node", "id": 2709702867, "lat": 40.7500707, "lon": -73.9898501}, {"type": "node", "id": 2709702876, "lat": 40.7501036, "lon": -73.9899284}, {"type": "node", "id": 2709703354, "lat": 40.7516361, "lon": -73.9860101}, {"type": "node", "id": 2709703381, "lat": 40.7517097, "lon": -73.986184}, {"type": "node", "id": 2709703404, "lat": 40.7517559, "lon": -73.9859225}, {"type": "node", "id": 2709703408, "lat": 40.7517636, "lon": -73.9859409}, {"type": "node", "id": 2709703417, "lat": 40.7517783, "lon": -73.9859302}, {"type": "node", "id": 2709703445, "lat": 40.7518441, "lon": -73.9860858}, {"type": "node", "id": 3068326556, "lat": 40.750773, "lon": -73.9864091, "tags": {"addr:city": "New York", "addr:housenumber": "72", "addr:postcode": "10018", "addr:street": "West 36th Street", "amenity": "restaurant", "check_date": "2025-05-19", "cuisine": "steak", "name": "Keens Steakhouse", "website": "https://www.keens.com/", "wikidata": "Q6382920"}}, {"type": "node", "id": 3262342840, "lat": 40.7505177, "lon": -73.9876147}, {"type": "node", "id": 3262342841, "lat": 40.7505161, "lon": -73.9876262}, {"type": "node", "id": 3262342842, "lat": 40.7504961, "lon": -73.9876324}, {"type": "node", "id": 3262342849, "lat": 40.7505047, "lon": -73.9876353}, {"type": "node", "id": 3451116498, "lat": 40.7504317, "lon": -73.9897503, "tags": {"amenity": "cafe", "brand": "Foot Locker", "brand:wikidata": "Q63335", "name": "Moka & Co"}}, {"type": "node", "id": 3463814923, "lat": 40.7477981, "lon": -73.9872728, "tags": {"addr:city": "New York", "addr:housenumber": "34", "addr:postcode": "10001", "addr:state": "NY", "addr:street": "West 32nd Street", "amenity": "restaurant", "cuisine": "korean", "name": "Seoul Garden", "opening_hours": "Su-Th 11:00-24:00, Fr-Sa 11:00-02:00", "phone": "+1 212-736-9002", "source": "business card survey"}}, {"type": "node", "id": 3501487382, "lat": 40.7518998, "lon": -73.987756, "tags": {"addr:city": "New York", "addr:floor": "5", "addr:postcode": "10018", "addr:state": "NY", "addr:street": "Broadway", "name": "NICE Actimize", "office": "company", "wikidata": "Q4676831", "wikipedia": "en:Actimize"}}, {"type": "node", "id": 3507260979, "lat": 40.7516741, "lon": -73.9898634, "tags": {"addr:city": "New York", "addr:housenumber": "463", "addr:postcode": "10018", "addr:state": "NY", "addr:street": "7th Avenue", "air_conditioning": "yes", "amenity": "restaurant", "cuisine": "american;diner", "diet:vegan": "yes", "diet:vegetarian": "yes", "drink:coffee": "yes", "drink:tea": "yes", "indoor_seating": "yes", "name": "Andrews NYC Diner", "opening_hours": "Mo-Th 06:00-22:00; Fr 06:00-23:00; Sa, Su 07:00-23:00", "outdoor_seating": "yes", "payment:credit_cards": "yes", "payment:debit_cards": "yes", "phone": "+1-212-695-1962", "reservation": "yes", "smoking": "no", "takeaway": "yes", "website": "https://andrewsny.com/", "wheelchair": "yes"}}, {"type": "node", "id": 3833309814, "lat": 40.7489061, "lon": -73.9881357}, {"type": "node", "id": 3833309816, "lat": 40.7485498, "lon": -73.9885569}, {"type": "node", "id": 3833309823, "lat": 40.7483915, "lon": -73.9882705, "tags": {"barrier": "kerb", "kerb": "lowered", "tactile_paving": "yes", "wheelchair": "yes"}}, {"type": "node", "id": 3838644237, "lat": 40.7499498, "lon": -73.989938}, {"type": "node", "id": 3838644240, "lat": 40.7499651, "lon": -73.9899269}, {"type": "node", "id": 3838644242, "lat": 40.7499805, "lon": -73.9899157}, {"type": "node", "id": 3857343071, "lat": 40.7504425, "lon": -73.9874385, "tags": {"barrier": "kerb", "kerb": "lowered", "tactile_paving": "yes", "wheelchair": "yes"}}, {"type": "node", "id": 3982236000, "lat": 40.7484275, "lon": -73.9868832, "tags": {"addr:city": "New York", "addr:housenumber": "36", "addr:postcode": "10001", "addr:state": "NY", "addr:street": "West 33rd Street", "amenity": "pub", "email": "info@jackdemseys.com", "facebook": "jackdemseysny", "happy_hours": "Mo-Fr 16:00-20:00", "name": "Jack Demsey's", "opening_hours:covid19": "11:30-23:00", "phone": "+1 212-629-9899", "twitter": "jackdemseysnyc", "website": "https://jackdemseys.com/"}}, {"type": "node", "id": 4146376405, "lat": 40.7478213, "lon": -73.9878356, "tags": {"addr:city": "New York", "addr:housenumber": "1250", "addr:postcode": "10001", "addr:state": "NY", "addr:street": "Broadway", "amenity": "restaurant", "capacity": "300", "cocktails": "yes", "contact:email": "info@gaonnurinyc.com", "contact:facebook": "GAONNURINYC", "contact:instagram": "gaonnurinyc", "contact:phone": "+1 212-971-9045", "contact:website": "https://www.gaonnurinyc.com/", "cuisine": "korean", "drink:soju": "yes", "drink:wine": "yes", "level": "38", "name": "Gaonnuri", "name:ko": "\uac00\uc628\ub204\ub9ac", "opening_hours": "Mo-Th 17:30-23:30; Fr, Sa 17:00-24:00; Su 16:00-22:00", "reservation": "yes", "wheelchair": "yes"}}, {"type": "node", "id": 4186110812, "lat": 40.7476228, "lon": -73.9887459}, {"type": "node", "id": 4193555491, "lat": 40.7501714, "lon": -73.9863439, "tags": {"addr:housenumber": "55", "addr:postcode": "10018", "addr:street": "West 35th Street", "amenity": "restaurant", "cuisine": "korean", "name": "Cho Dang Gol", "opening_hours": "Mo-Th 12:00-15:00,17:00-21:30, Fr-Su 12:00-21:30", "phone": "+1-212-695-8222", "website": "https://chodanggolnyc.com"}}, {"type": "node", "id": 4198113799, "lat": 40.7515794, "lon": -73.9858142, "tags": {"addr:city": "New York", "addr:housenumber": "59", "addr:postcode": "10018", "addr:state": "NY", "addr:street": "West 37th Street", "amenity": "restaurant", "contact:instagram": "https://www.instagram.com/cafechina/", "cuisine": "chinese", "name": "Cafe China", "name:zh-Hant": "\u50be\u57ce", "opening_hours": "Su-We 11:30-22:30; Th-Sa 11:30-23:00", "phone": "+12122132810", "smoking": "outside", "takeaway": "yes", "website": "http://www.cafechinanyc.com/"}}, {"type": "node", "id": 4441702689, "lat": 40.7480793, "lon": -73.9892846, "tags": {"addr:city": "New York", "addr:housenumber": "875", "addr:postcode": "10001", "addr:state": "NY", "addr:street": "6th Avenue", "amenity": "cafe", "branch": "31st & 6th", "brand": "Starbucks", "brand:wikidata": "Q37158", "cuisine": "coffee_shop", "internet_access": "wlan", "name": "Starbucks", "official_name": "Starbucks Coffee", "opening_hours": "Mo-Th 05:30-22:00; Fr 05:30-22:30; Sa 06:00-21:30; Su 06:30-21:30", "phone": "+1 212-629-6540", "takeaway": "yes", "website": "https://www.starbucks.com/store-locator/store/14380/31st-6th-875-sixth-ave-new-york-ny-100013507-us"}}, {"type": "node", "id": 4503167568, "lat": 40.7474399, "lon": -73.9864528, "tags": {"addr:city": "New York", "addr:housenumber": "12", "addr:postcode": "10001", "addr:state": "NY", "addr:street": "West 32nd Street", "amenity": "restaurant", "contact:facebook": "https://www.facebook.com/pages/Woorjip/101885859904987", "cuisine": "korean", "delivery": "no", "drink:beer": "yes", "email": "info@woorijip32.com", "fax": "+1 212-244-4726", "level": "0", "name": "Woorijip", "opening_hours": "Mo-We 09:30-21:00; Fr-Su 09:30-22:00", "phone": "+1 212-244-1115", "self_service": "yes", "smoking": "no", "takeaway": "yes", "website": "http://woorijip32.com/"}}, {"type": "node", "id": 4714345894, "lat": 40.7476739, "lon": -73.986996, "tags": {"addr:housenumber": "28", "addr:postcode": "10001", "addr:street": "West 32nd Street", "amenity": "restaurant", "cuisine": "japanese", "drink:sake": "yes", "drink:soju": "yes", "level": "0", "name": "Hana Michi", "opening_hours": "Tu 12:00-23:00; We-Fr 12:00-24:00; Sa 14:00-02:00; Su 14:00-22:30"}}, {"type": "node", "id": 4846658821, "lat": 40.7520894, "lon": -73.9900673, "tags": {"amenity": "cafe", "name": "The Bread Factory Cafe", "wheelchair": "yes"}}, {"type": "node", "id": 4867303121, "lat": 40.7502806, "lon": -73.9904398, "tags": {"amenity": "bar", "brand": "Hooters", "brand:wikidata": "Q1025921", "cuisine": "burger", "name": "Bourbon & Branch", "name:en": "Hooters NYC"}}, {"type": "node", "id": 4875112182, "lat": 40.7474989, "lon": -73.9869456, "tags": {"addr:housenumber": "22", "addr:level": "6", "addr:postcode": "10001", "addr:street": "West 32nd Street", "amenity": "bar", "contact:email": "reservations@karaokecitynyc.com", "contact:facebook": "karaokecitynyc", "contact:instagram": "KARAOKECITYNYC", "contact:phone": "+1 646-791-8318", "contact:website": "http://www.karaokecitynyc.com/", "name": "Karaoke City", "opening_hours": "13:00-04:00", "reservation": "yes"}}, {"type": "node", "id": 4875126273, "lat": 40.7469708, "lon": -73.9853055, "tags": {"addr:floor": "2", "addr:housenumber": "315", "addr:street": "5th Avenue", "amenity": "cafe", "name": "Ginseng Museum Cafe", "opening_hours": "Su-We 17:00-02:00; Th 17:00-03:00; Fr-Sa 17:00-04:00"}}, {"type": "node", "id": 4875134692, "lat": 40.7472064, "lon": -73.986396, "tags": {"access": "yes", "addr:floor": "17", "addr:housenumber": "6", "addr:postcode": "10001", "addr:street": "West 32nd Street", "amenity": "bar", "cocktails": "yes", "contact:email": "cloudsocialnyc@gmail.com", "contact:facebook": "https://www.facebook.com/617005171742589", "contact:instagram": "https://www.instagram.com/cloudsocialnyc/", "contact:phone": "+1-212-904-1092", "contact:twitter": "https://www.twitter.com/CloudSocialNYC", "contact:website": "https://cloudsocialnyc.com", "description": "rooftop bar of the Nyma Hotel", "drink:beer": "draught", "drink:liquor": "yes", "drink:wine": "yes", "happy_hours": "15:00-19:00", "location": "roof", "name": "Cloud Social", "opening_hours": "Mo-Su 15:00-24:00", "outdoor_seating": "only", "reservation": "yes", "smoking": "yes", "toilets": "yes", "toilets:unisex": "yes", "wheelchair": "yes"}}, {"type": "node", "id": 4947761822, "lat": 40.7470756, "lon": -73.9850776, "tags": {"addr:housenumber": "1", "addr:street": "East 32nd Street", "amenity": "restaurant", "name": "Kang Ho Dong Baekjeong"}}, {"type": "node", "id": 5189146499, "lat": 40.7483977, "lon": -73.9855536, "tags": {"addr:city": "New York", "addr:housenumber": "350", "addr:postcode": "10118", "addr:state": "NY", "addr:street": "5th Avenue", "amenity": "restaurant", "cuisine": "sushi", "delivery": "yes", "name": "Sushi teria", "opening_hours": "Mo-Fr 11:00-09:00"}}, {"type": "node", "id": 5190413290, "lat": 40.7488461, "lon": -73.9859864, "tags": {"addr:city": "New York", "addr:housenumber": "350", "addr:postcode": "10118", "addr:state": "NY", "addr:street": "5th Avenue", "addr:unit": "34", "fax": "+1-212-736-1300", "name": "Human Rights Watch", "office": "ngo", "phone": "+1-212-216-1832", "website": "https://www.hrw.org/", "wikidata": "Q187052", "wikipedia": "en:Human Rights Watch"}}, {"type": "node", "id": 5190422779, "lat": 40.748323, "lon": -73.9855181, "tags": {"addr:city": "New York", "addr:housenumber": "350", "addr:postcode": "10001", "addr:state": "NY", "addr:street": "5th Avenue", "name": "Acronym", "office": "marketing", "phone": "+1-212-691-7051", "website": "acronym.com"}}, {"type": "node", "id": 5190434702, "lat": 40.7488378, "lon": -73.987297, "tags": {"addr:city": "New York", "addr:housenumber": "49", "addr:postcode": "10001", "addr:state": "NY", "addr:street": "West 33rd Street", "name": "Campus Midtown ESL & TOEFL", "office": "educational_institution", "phone": "+1-646-861-0006"}}, {"type": "node", "id": 5190646501, "lat": 40.7483489, "lon": -73.9855516, "tags": {"addr:city": "New York", "addr:housenumber": "350", "addr:postcode": "10016", "addr:state": "NY", "addr:street": "5th Avenue", "addr:unit": "#5300", "description": "literary agent", "fax": "+1-212-687-9109", "name": "Peter Lampack Agency", "office": "company", "phone": "+1-212-687-9106", "website": "https://www.peterlampackagency.com/"}}, {"type": "node", "id": 5190720806, "lat": 40.7485816, "lon": -73.9863247, "tags": {"addr:city": "New York", "addr:postcode": "10001", "addr:state": "NY", "addr:street": "West 33rd Street", "amenity": "cafe", "cuisine": "coffee_shop", "name": "Kawande Martin Cafe", "name:it": "Kawande Martin"}}, {"type": "node", "id": 5190742036, "lat": 40.7482195, "lon": -73.9864149, "tags": {"addr:city": "New York", "addr:housenumber": "20", "addr:postcode": "10001", "addr:state": "NY", "addr:street": "West 33rd Street", "amenity": "restaurant", "bar": "yes", "cocktails": "yes", "cuisine": "chicken", "description": "Spacious restaurant with a focus on chicken dishes and decor harkening to the Harlem Renaissance.", "diet:vegan": "yes", "diet:vegetarian": "yes", "drink:beer": "yes", "drink:liquor": "yes", "drink:wine": "yes", "name": "Turntable Chicken Jazz", "phone": "+1-212-714-9700", "reservation": "yes", "takeaway": "yes", "toilets": "yes", "toilets:unisex": "yes", "toilets:wheelchair": "yes", "website": "https://turntablenyc.com/"}}, {"type": "node", "id": 5215527122, "lat": 40.7512626, "lon": -73.9848169, "tags": {"amenity": "bar", "name": "Top of the strand"}}, {"type": "node", "id": 5235625504, "lat": 40.7510407, "lon": -73.9914743}, {"type": "node", "id": 5235625505, "lat": 40.7509666, "lon": -73.9915283}, {"type": "node", "id": 5242327895, "lat": 40.7496997, "lon": -73.9857683, "tags": {"amenity": "restaurant", "cocktails": "yes", "cuisine": "korean", "drink:beer": "draught", "drink:wine": "yes", "happy_hours": "Mo-Fr 16:00-18:00", "name": "Barn Joo 35", "opening_hours": "Mo-We 12:00-21:00; Th-Sa 12:00-22:00; Su 12:00-21:00", "outdoor_seating": "sidewalk;street", "phone": "+1-212-564-4430", "website": "https://www.barnjoo.com"}}, {"type": "node", "id": 5242330303, "lat": 40.747407, "lon": -73.9863928, "tags": {"addr:housenumber": "10", "addr:postcode": "10001", "addr:street": "West 32nd Street", "amenity": "restaurant", "contact:email": "info@misskoreabbq.com", "contact:facebook": "miss KOREA BBQ", "contact:instagram": "misskoreabbq", "contact:phone": "+1 212-594-4963", "contact:twitter": "misskoreabbq", "contact:website": "https://www.misskoreabbq.com", "cuisine": "korean", "delivery": "10:00-21:00", "drink:beer": "yes", "drink:sake": "yes", "drink:soju": "yes", "level": "0;1;2", "name": "missKOREA BBQ", "opening_hours": "10:00-21:00", "reservation": "yes", "takeaway": "yes"}}, {"type": "node", "id": 5242331829, "lat": 40.7475599, "lon": -73.9869049, "tags": {"addr:city": "New York", "addr:housenumber": "22", "addr:postcode": "10001", "addr:state": "NY", "addr:street": "West 32nd Street", "amenity": "restaurant", "cocktails": "yes", "contact:email": "jongrobbq@gmail.com", "contact:facebook": "jongrobbqny", "contact:instagram": "jongrobbq_nyc", "contact:phone": "+1 212-473-2233", "contact:website": "http://www.jongrobbqny.com/", "cuisine": "korean", "delivery": "yes", "drink:beer": "yes", "drink:soju": "yes", "level": "1", "name": "Jongro BBQ", "opening_hours": "Mo-Th, Su 11:30-24:00; Fr, Sa 11:30-01:00", "opening_hours:covid19": "12:00-22:00", "reservation": "yes", "takeaway": "yes"}}, {"type": "node", "id": 5393321622, "lat": 40.7477356, "lon": -73.9863789, "tags": {"addr:housenumber": "15", "addr:postcode": "10001", "addr:street": "West 32nd Street", "amenity": "bar", "cocktails": "yes", "cuisine": "korean", "drink:beer": "draught; bottled", "drink:soju": "yes", "level": "1", "name": "Pocha 32", "opening_hours": "Su-Th 17:00-02:00; Fr, Sa 17:00-03:00", "payment:visa": "no", "phone": "+1 212-279-1876"}}, {"type": "node", "id": 5393341922, "lat": 40.7476232, "lon": -73.9861377, "tags": {"addr:housenumber": "9", "addr:postcode": "10001", "addr:street": "West 32nd Street", "amenity": "restaurant", "branch": "NY", "cuisine": "korean", "delivery": "07:30-22:30", "email": "contact@gammeeok.com", "level": "1", "name": "Gammeeok", "opening_hours": "24/7", "opening_hours:covid19": "09:00-22:00", "phone": "+1 212-868-1180", "takeaway": "yes", "website": "https://www.gammeeok.com"}}, {"type": "node", "id": 5395641129, "lat": 40.7482961, "lon": -73.9884959, "tags": {"addr:housenumber": "1271", "addr:street": "Broadway", "amenity": "restaurant", "bar": "yes", "cocktails": "yes", "cuisine": "american;breakfast", "diet:gluten_free": "yes", "diet:vegetarian": "yes", "drink:beer": "draught", "drink:liquor": "yes", "drink:wine": "yes", "happy_hours": "Mo-Fr 15:00-18:00", "name": "The Harold", "opening_hours": "Mo-We, Su 08:00-22:00; Th-Sa 08:00-23:00", "phone": "+1-212-686-1888", "website": "https://www.theharoldnyc.com/"}}, {"type": "node", "id": 5398461822, "lat": 40.7470115, "lon": -73.985841, "tags": {"addr:city": "New York", "addr:housenumber": "312", "addr:postcode": "10001", "addr:state": "NY", "addr:street": "5th Avenue", "amenity": "restaurant", "cuisine": "korean;chinese", "email": "plumpyduck@joomakbanjum.com", "level": "0", "name": "Joomak Banjum", "opening_hours": "Tu-Th 17:00-21:00; Fr, Sa 17:00-21:30", "phone": "+1 212-268-7888", "reservation": "yes", "website": "https://www.joomakbanjum.com/"}}, {"type": "node", "id": 5612407421, "lat": 40.7481126, "lon": -73.9911219, "tags": {"amenity": "bar", "name": "Deweys pub"}}, {"type": "node", "id": 5815748399, "lat": 40.7499291, "lon": -73.9898974, "tags": {"addr:housenumber": "133", "addr:postcode": "10001", "addr:street": "West 33rd Street", "amenity": "pub", "branch": "Flagship", "cocktails": "yes", "drink:beer": "yes", "drink:liquor": "yes", "drink:wine": "yes", "name": "Stout NYC", "opening_hours": "Th-Su 11:30-01:45; Mo-We 11:30-23:45", "outdoor_seating": "sidewalk;street", "phone": "+1-212-629-6191", "reservation": "yes", "toilets": "yes", "website": "http://msg.stoutnyc.com/"}}, {"type": "node", "id": 5816276400, "lat": 40.7518903, "lon": -73.9883479, "tags": {"addr:housenumber": "135", "addr:street": "West 36th Street", "level": "12", "name": "Spy Tec", "office": "company", "phone": "+1-877-212-7400", "website": "https://spytecinc.com/"}}, {"type": "node", "id": 5816276401, "lat": 40.7518625, "lon": -73.9890435, "tags": {"addr:housenumber": "152", "addr:street": "West 36th Street", "amenity": "restaurant", "cuisine": "french;sandwich;salad", "delivery": "yes", "diet:vegetarian": "yes", "drink:coffee": "yes", "drink:tea": "yes", "email": "info@macaroncafe.com", "name": "Macaron Caf\u00e9", "opening_hours": "Mo-Fr 07:00-19:30; Sa 09:00-19:00", "payment:contactless": "yes", "payment:debit_cards": "yes", "phone": "+1-212-564-3525", "takeaway": "yes", "website": "https://macaroncafe.com/", "wheelchair": "yes"}}, {"type": "node", "id": 5816276453, "lat": 40.751597, "lon": -73.9883856, "tags": {"addr:housenumber": "130", "addr:street": "West 36th Street", "amenity": "restaurant", "delivery": "yes", "name": "Chopstick House", "opening_hours": "Mo-Fr 10:30-23:30; Sa, Su 11:30-23:00", "phone": "+1-212-868-8090", "takeaway": "yes", "website": "https://gochopstickhouse.com/"}}, {"type": "node", "id": 5889475672, "lat": 40.7481643, "lon": -73.9862577, "tags": {"addr:housenumber": "18", "addr:postcode": "10001", "addr:street": "West 33rd Street", "amenity": "pub", "cuisine": "pub", "name": "Sir John's NY", "opening_hours": "Mo-We 11:00-22:00", "phone": "+1-646-308-1336"}}, {"type": "node", "id": 6064400688, "lat": 40.7480981, "lon": -73.9874846, "tags": {"addr:housenumber": "43", "addr:street": "West 32nd Street", "amenity": "restaurant", "branch": "Lab", "brand": "UDON", "brand:wikidata": "Q115679798", "cocktails": "yes", "contact:instagram": "udonlab_nyc", "contact:phone": "+1 646-838-5338", "contact:website": "http://udonlab.com", "cuisine": "japanese", "drink:beer": "draught; bottled", "drink:sake": "yes", "drink:soju": "yes", "drink:wine": "served", "level": "0", "name": "UDON", "opening_hours": "Su-Th 11:00-23:00; Fr, Sa 11:00-02:00"}}, {"type": "node", "id": 6064439285, "lat": 40.7477457, "lon": -73.9871706, "tags": {"addr:city": "New York", "addr:housenumber": "32", "addr:postcode": "10001", "addr:state": "NY", "addr:street": "West 32nd Street", "amenity": "restaurant", "capacity": "140", "cocktails": "yes", "contact:facebook": "https://www.facebook.com/thekunjip/", "contact:instagram": "https://www.instagram.com/thekunjipnyc/", "cuisine": "korean", "drink:beer": "yes", "drink:soju": "yes", "drink:wine": "yes", "level": "0;1", "name": "The Kunjip", "name:ko": "\ub354\ud070\uc9d1", "opening_hours": "Su 00:00-03:00,06:30-03:00; Mo,Tu 06:30-03:00; We 06:30-24:00; Th-Sa 00:00-24:00", "payment:american_express": "yes", "payment:cash": "yes", "payment:mastercard": "yes", "payment:visa": "yes", "phone": "+1 212-564-8238", "reservation": "yes", "toilets": "yes", "website": "https://www.kunjip.com", "wheelchair": "yes"}}, {"type": "node", "id": 6064439585, "lat": 40.7477885, "lon": -73.9867366, "tags": {"addr:housenumber": "23", "addr:postcode": "10001", "addr:street": "West 32nd Street", "amenity": "restaurant", "contact:facebook": "https://www.facebook.com/pages/New-Wonjo/1488813761190378", "cuisine": "korean", "delivery": "yes", "drink:tea": "yes", "drink:wine": "yes", "email": "newwonjo@gmail.com", "fax": "+1 212-695-2084", "level": "0;1", "name": "New Wonjo", "name:ko": "\ub274\uc6d0\uc870", "opening_hours": "24/7", "phone": "+1 212-695-5815", "reservation": "yes", "takeaway": "yes", "toilets": "yes", "website": "https://newwonjo.com/", "wheelchair": "limited"}}, {"type": "node", "id": 6224277833, "lat": 40.7485247, "lon": -73.9885674, "tags": {"barrier": "kerb", "kerb": "lowered", "tactile_paving": "yes", "wheelchair": "yes"}}, {"type": "node", "id": 6224277838, "lat": 40.7483975, "lon": -73.9882375, "tags": {"barrier": "kerb", "kerb": "lowered", "tactile_paving": "yes", "wheelchair": "yes"}}, {"type": "node", "id": 6224277858, "lat": 40.7483939, "lon": -73.988246}, {"type": "node", "id": 6224277865, "lat": 40.7489994, "lon": -73.9881387}, {"type": "node", "id": 6224277881, "lat": 40.7489853, "lon": -73.9881298}, {"type": "node", "id": 6225226697, "lat": 40.7504957, "lon": -73.9875816}, {"type": "node", "id": 6225226703, "lat": 40.7505049, "lon": -73.9875848}, {"type": "node", "id": 6225226704, "lat": 40.7504851, "lon": -73.9875899}, {"type": "node", "id": 6225226710, "lat": 40.750483, "lon": -73.9876012}, {"type": "node", "id": 6228150877, "lat": 40.748044, "lon": -73.9873353, "tags": {"addr:housenumber": "39", "addr:street": "West 32nd Street", "amenity": "cafe", "branch": "Korean Town", "brand": "caff\u00e9 bene", "brand:wikidata": "Q5017149", "cuisine": "dessert", "delivery": "yes", "drink": "espresso", "drink:coffee": "yes", "drink:tea": "yes", "level": "0", "name": "caff\u00e9 bene", "opening_hours": "09:00-21:00", "phone": "+1 917-475-1432", "takeaway": "yes"}}, {"type": "node", "id": 6231238816, "lat": 40.7473548, "lon": -73.9862282, "tags": {"addr:housenumber": "6", "addr:postcode": "10001", "addr:street": "West 32nd Street", "amenity": "cafe", "branch": "32nd & 5th", "brand": "Paris Baguette", "brand:wikidata": "Q62605260", "delivery": "yes", "level": "0", "name": "Paris Baguette", "opening_hours": "Su-Th 07:00-22:00; Fr, Sa 07:00-23:00", "phone": "+1 212-244-0404", "shop": "bakery", "takeaway": "yes"}}, {"type": "node", "id": 6231480917, "lat": 40.74687, "lon": -73.9864707, "tags": {"addr:housenumber": "5", "addr:postcode": "10001", "addr:street": "West 31st Street", "amenity": "pub", "cocktails": "yes", "contact:email": "info@osamil.com", "contact:facebook": "osamilnyc", "contact:instagram": "osamilnyc", "contact:pinterest": "osamil", "contact:twitter": "OsamilNYC", "cuisine": "korean;gastropub", "drink:beer": "yes", "drink:soju": "yes", "drink:wine": "yes", "happy_hours": "16:00-19:00", "name": "Osamil", "name:ko": "\uc624\uc0bc\uc77c", "opening_hours": "Mo-Th 16:00-02:00; Fr 16:00-03:00; Sa 11:00-02:00; Su 11:00-23:00", "opening_hours:covid19": "Tu-Th 17:00-23:00; Fr, Sa 17:00-24:00", "phone": "+1 212-300-4713", "reservation": "yes", "takeaway:covid19": "Tu-Sa 17:00-24:00", "website": "https://www.osamil.com"}}, {"type": "node", "id": 6233604762, "lat": 40.7476372, "lon": -73.98878, "tags": {"access": "yes", "addr:housenumber": "54", "addr:street": "West 31st Street", "door": "hinged", "entrance": "main", "level": "0", "wheelchair": "yes"}}, {"type": "node", "id": 6233604763, "lat": 40.7476264, "lon": -73.9887544, "tags": {"door": "hinged", "entrance": "yes", "level": "0"}}, {"type": "node", "id": 6233604764, "lat": 40.7476727, "lon": -73.9888645, "tags": {"door": "hinged", "entrance": "yes", "level": "0"}}, {"type": "node", "id": 6234654089, "lat": 40.7477867, "lon": -73.9874231, "tags": {"addr:city": "New York", "addr:housenumber": "38", "addr:postcode": "10001", "addr:state": "NY", "addr:street": "West 32nd Street", "amenity": "bar", "cocktails": "yes", "contact:instagram": "https://www.instagram.com/5barkaraoke", "drink:beer": "yes", "drink:soju": "yes", "drink:wine": "yes", "happy_hours": "Su-Th 14:00-20:00", "karaoke": "yes", "level": "4", "name": "5 Bar Karaoke Lounge", "opening_hours": "Su-Th 14:00-03:00; Fr,Sa 14:00-04:00", "phone": "+1 212-594-6644", "website": "https://www.5barkaraoke.com"}}, {"type": "node", "id": 6259767847, "lat": 40.7474567, "lon": -73.9865203, "tags": {"addr:housenumber": "12", "addr:postcode": "10001", "addr:street": "West 32nd Street", "amenity": "cafe", "branch": "Koreatown", "brand": "Gong Cha", "brand:wikidata": "Q5581670", "brand:zh": "\u8ca2\u8336", "cuisine": "bubble_tea", "int_name": "Gong Cha", "level": "0", "name": "Gong Cha", "name:zh": "\u8ca2\u8336", "opening_hours": "10:30-21:30", "phone": "+1 646-998-4362", "takeaway": "yes", "website": "http://www.gongchausa.com/new-york-koreatown-nyc/"}}, {"type": "node", "id": 6348576200, "lat": 40.7500481, "lon": -73.9847324, "tags": {"addr:housenumber": "16", "addr:postcode": "10018", "addr:street": "West 36th Street", "alt_name": "CH 36", "amenity": "restaurant", "branch": "36th Street", "brand": "Clinton Hall", "capacity": "273", "cocktails": "yes", "cuisine": "new_american", "delivery": "yes", "drink:beer": "yes", "drink:wine": "yes", "email": "info@clintonhallny.com", "happy_hours": "Mo-Fr 16:00-19:00", "name": "Clinton Hall 36", "opening_hours": "Mo-We 12:00-01:00; Th-Sa 12:00-02:00; Su 12:00-12:00", "phone": "+1-212-695-0036", "reservation": "yes", "takeaway": "yes", "toilets": "yes", "toilets:access": "customers", "website": "https://clintonhallny.com/36th-street/"}}, {"type": "node", "id": 6394873173, "lat": 40.7499088, "lon": -73.9844632, "tags": {"addr:city": "New York", "addr:housenumber": "8", "addr:postcode": "10018", "addr:state": "NY", "addr:street": "West 36th Street", "amenity": "restaurant", "cocktails": "yes", "cuisine": "korean;barbecue", "drink:beer": "yes", "drink:liquor": "yes", "drink:wine": "yes", "name": "Yoon Haeundae Galbi", "opening_hours": "Mo-Su 11:34-14:30,17:00-23:00", "phone": "+1-212-244-5345", "reservation": "recommended", "start_date": "1964", "toilets": "yes", "toilets:unisex": "yes", "toilets:wheelchair": "yes", "website": "https://yoon-nyc.com/"}}, {"type": "node", "id": 6424147876, "lat": 40.7475798, "lon": -73.9861702, "tags": {"addr:housenumber": "9", "addr:postcode": "10001", "addr:street": "West 32nd Street", "amenity": "restaurant", "cuisine": "korean", "level": "0", "name": "Five Senses", "opening_hours": "Mo-Th 11:00-21:00; Fr-Su 11:00-22:00", "phone": "+1 212-441-0005", "website": "fivesensesnyc.com"}}, {"type": "node", "id": 6507019906, "lat": 40.7518367, "lon": -73.9902569, "tags": {"addr:city": "New York", "addr:housenumber": "462", "addr:postcode": "10018", "addr:state": "NY", "addr:street": "7th Avenue", "amenity": "cafe", "branch": "35th & 7th", "brand": "Starbucks", "brand:wikidata": "Q37158", "check_date": "2019-05-28", "cuisine": "coffee_shop", "name": "Starbucks", "official_name": "Starbucks Coffee", "phone": "+1 212-279-6432", "ref": "11433", "takeaway": "yes", "website": "https://www.starbucks.com/store-locator/store/11433/35th-7th-462-7th-avenue-new-york-ny-100187606-us", "wheelchair": "yes"}}, {"type": "node", "id": 6597932385, "lat": 40.7522458, "lon": -73.9853353, "tags": {"amenity": "bar", "name": "refinery rooftop"}}, {"type": "node", "id": 6943977885, "lat": 40.7503902, "lon": -73.9867656, "tags": {"addr:housenumber": "71", "addr:postcode": "10001", "addr:street": "West 35th Street", "amenity": "bar", "cocktails": "yes", "cuisine": "snack", "drink:beer": "yes", "drink:liquor": "yes", "drink:wine": "yes", "name": "Monarch Rooftop", "opening_hours": "Mo-Th 14:00-02:00, Fr-Sa 14:00-04:00, Su 14:00-01:00", "outdoor_seating": "roof", "phone": "+1-212-630-9993", "website": "https://www.monarchrooftop.com"}}, {"type": "node", "id": 7047832885, "lat": 40.7519614, "lon": -73.9847937, "tags": {"addr:postcode": "10018", "amenity": "bar", "name": "Spyglass Rooftop"}}, {"type": "node", "id": 7079145390, "lat": 40.747835, "lon": -73.986847, "tags": {"addr:housenumber": "25", "addr:postcode": "10001", "addr:street": "West 32nd Street", "amenity": "restaurant", "contact:facebook": "https://www.facebook.com/bbqchickenktown", "contact:instagram": "https://www.instagram.com/bbqktownnyc", "cuisine": "korean;chimaek", "delivery": "yes", "drink:beer": "yes", "email": "gm@bbqktown.com", "name": "BB.Q Olive Chicken", "opening_hours": "Mo-Th 11:00-23:00; Fr, Sa 11:00-24:00", "payment:american_express": "yes", "payment:discover_card": "yes", "payment:mastercard": "yes", "payment:visa": "yes", "phone": "+1 212-967-8093", "takeaway": "yes", "website": "http://bbqktownnyc.com"}}, {"type": "node", "id": 7125928685, "lat": 40.7483305, "lon": -73.9905021, "tags": {"addr:city": "New York", "addr:housenumber": "132", "addr:postcode": "10002", "addr:state": "NY", "addr:street": "West 31st Street", "amenity": "restaurant", "branch": "Herald Square", "contact:facebook": "https://www.facebook.com/friedmansny", "contact:instagram": "https://www.instagram.com/friedmansnyc", "cuisine": "american", "delivery": "yes", "name": "Friedman\u2019s", "opening_hours": "08:30-21:00", "outdoor_seating": "no", "phone": "+1 212-971-9400", "reservation": "no", "takeaway": "yes", "website": "https://www.friedmansrestaurant.com/location/herald-square-friedmans-restaurant", "website:booking": "https://www.opentable.com/r/friedmans-31st-st-new-york", "website:menu": "https://www.friedmansrestaurant.com/herald-square-menus"}}, {"type": "node", "id": 7368466282, "lat": 40.7482654, "lon": -73.9884306, "tags": {"addr:city": "New York", "addr:housenumber": "1271", "addr:postcode": "10001", "addr:state": "NY", "addr:street": "Broadway", "amenity": "cafe", "contact:facebook": "https://www.facebook.com/biaosugar.usa/", "cuisine": "chinese", "name": "Biao Sugar", "name:zh": "\u9ed1\u7cd6\u5f6a", "takeaway": "yes"}}, {"type": "node", "id": 7700401461, "lat": 40.7490376, "lon": -73.9902532, "tags": {"addr:street": "West 32nd Street", "amenity": "restaurant", "cuisine": "indian", "diet:vegan": "no", "diet:vegetarian": "yes", "name": "Rowdy Rooster Indian Fried Chicken"}}, {"type": "node", "id": 8355860496, "lat": 40.7483096, "lon": -73.9904415, "tags": {"addr:city": "New York", "addr:housenumber": "132", "addr:postcode": "10002", "addr:state": "NY", "addr:street": "West 31st Street", "amenity": "restaurant", "branch": "Midtown", "contact:facebook": "https://www.facebook.com/ichiranny/", "cuisine": "ramen", "delivery": "no", "description": "Classic Tonkotsu Ramen Shop", "description:en": "Classic Tonkotsu Ramen Shop", "description:ja": "\u5929\u7136\u3068\u3093\u3053\u3064\u30e9\u30fc\u30e1\u30f3\u5c02\u9580\u5e97", "name": "Ichiran", "name:en": "Ichiran", "name:ja": "\u4e00\u862d", "opening_hours": "Mo-Th 11:00-22:00; Fr-Su 11:00-23:00", "outdoor_seating": "no", "payment:cash": "yes", "payment:contactless": "yes", "payment:credit_cards": "yes", "payment:debit_cards": "yes", "phone": "+1-212-465-0701", "reservation": "no", "takeaway": "yes", "website": "https://www.ichiranusa.com/location/ichiran-midtown/", "website:menu": "https://www.ichiranusa.com/menu/"}}, {"type": "node", "id": 8789533323, "lat": 40.751418, "lon": -73.9906297, "tags": {"addr:door": "409", "addr:housenumber": "450", "addr:street": "7th Avenue", "name": "David Resnick & Associates, P.C.", "office": "lawyer", "website": "https://www.injuryclaimnyclaw.com/"}}, {"type": "node", "id": 8791888444, "lat": 40.7476872, "lon": -73.9864866, "tags": {"addr:housenumber": "17", "addr:street": "West 32nd Street", "amenity": "cafe", "cuisine": "ice_cream;korean", "email": "hello@bygracestreet.com", "indoor_seating": "yes", "name": "Grace Street", "opening_hours": "Su-Th 11:00-23:00; Fr, Sa 11:00-23:30", "outdoor_seating": "no", "phone": "+1 917-745-2125", "takeaway": "yes", "website": "https://www.bygracestreet.com"}}, {"type": "node", "id": 9035676817, "lat": 40.7476635, "lon": -73.9864189, "tags": {"addr:housenumber": "15", "addr:postcode": "10001", "addr:street": "West 32nd Street", "amenity": "cafe", "contact:email": "teamakersnyc@gmail.com", "contact:instagram": "teamakersnyc", "contact:phone": "+1 212-695-7575", "contact:website": "https://www.teamakersnyc.com", "drink:coffee": "no", "drink:tea": "yes", "food": "no", "level": "0", "name": "Tea Makers", "opening_hours": "Su-We 11:00-21:00; Th-Sa 11:00-22:00", "takeaway": "only", "wheelchair": "yes"}}, {"type": "node", "id": 9091328243, "lat": 40.7486013, "lon": -73.9867586, "tags": {"addr:city": "New York", "addr:housenumber": "33", "addr:postcode": "10001", "addr:state": "NY", "addr:street": "West 33rd Street", "amenity": "restaurant", "cuisine": "chinese", "delivery": "yes", "fax": "+1-646-649-3516", "happy_hours": "Mo-Fr 15:00-17:00", "name": "Dim Sum Palace", "opening_hours": "Mo-Fr 11:00-22:30; Sa-Su 10:30-22:30", "phone": "+1-646-649-3607", "takeaway": "yes", "website": "https://www.dimsumpalace.com/"}}, {"type": "node", "id": 9092875648, "lat": 40.746876, "lon": -73.9845761, "tags": {"addr:city": "New York", "addr:housenumber": "11", "addr:postcode": "10016", "addr:state": "NY", "addr:street": "East 32nd Street", "amenity": "restaurant", "cuisine": "korean", "name": "Bangia", "opening_hours": "Su-Th 18:00-01:00; Fr-Sa 18:00-03:30", "phone": "+1-212-679-6790", "website": "https://www.bangianyc.com/"}}, {"type": "node", "id": 9228265907, "lat": 40.7507114, "lon": -73.9868695, "tags": {"addr:housenumber": "968", "addr:postcode": "10018", "addr:street": "6th Avenue", "amenity": "cafe", "name": "Brasserie Toast Cafe"}}, {"type": "node", "id": 9235536634, "lat": 40.7504377, "lon": -73.9907795, "tags": {"addr:city": "New York", "addr:housenumber": "425", "addr:postcode": "10001", "addr:state": "NY", "addr:street": "7th Avenue", "amenity": "restaurant", "check_date": "2024-07-18", "cuisine": "pizza", "name": "Rosa's Pizza", "phone": "+16469983044"}}, {"type": "node", "id": 9253544617, "lat": 40.751653, "lon": -73.9903779, "tags": {"addr:city": "New York", "addr:housenumber": "460", "addr:postcode": "10001", "addr:state": "NY", "addr:street": "7th Avenue", "amenity": "restaurant", "cuisine": "pizza", "name": "99\u00a2 Delicious Pizza", "opening_hours": "Mo-Su 09:00-04:00", "phone": "+1 917-261-4052", "website": "https://www.99centdeliciouspizzamenu.com/"}}, {"type": "node", "id": 9508244826, "lat": 40.747815, "lon": -73.9867152, "tags": {"addr:city": "New York", "addr:housenumber": "32", "addr:postcode": "10001", "addr:state": "NY", "addr:street": "West 32nd Street", "addr:unit": "Floor 3", "amenity": "restaurant", "contact:email": "info@anytimenyc.com", "contact:facebook": "AnytimeNYC", "contact:instagram": "anytimenyc", "contact:phone": "+1 646-669-7733", "contact:website": "https://www.anytimenyc.com/", "cuisine": "korean", "delivery": "yes", "level": "2", "name": "Anytime NYC", "takeaway": "yes"}}, {"type": "node", "id": 9644541103, "lat": 40.7479431, "lon": -73.987102, "tags": {"addr:housenumber": "33", "addr:postcode": "10001", "addr:street": "West 32nd Street", "amenity": "cafe", "brand": "machi machi", "brand:en": "machi machi", "brand:wikidata": "Q114828290", "brand:zh": "\u9ea5\u5409", "contact:instagram": "machimachi_us", "contact:website": "https://machimachi.us", "cuisine": "bubble_tea", "delivery": "yes", "level": "0", "name": "Machi machi", "opening_hours": "Su-Th 11:00-22:00; Fr, Sa 11:00-23:00", "takeaway": "yes"}}, {"type": "node", "id": 9644541105, "lat": 40.7480141, "lon": -73.9872738, "tags": {"addr:housenumber": "37", "addr:postcode": "10001", "addr:street": "West 32nd Street", "amenity": "restaurant", "contact:email": "info@antoyabbq.com", "contact:facebook": "Antoyabbq", "contact:instagram": "antoyqbbq", "contact:phone": "+1 215-695-3131", "contact:website": "https://antoyabbq.com", "cuisine": "korean", "delivery": "yes", "level": "0", "name": "Antoya Korean BBQ", "opening_hours": "Su-Th 11:30-22:45; Fr, Sa 11:30-02:45", "reservation": "yes", "takeaway": "yes"}}, {"type": "node", "id": 9644596253, "lat": 40.7473128, "lon": -73.9861372, "tags": {"amenity": "restaurant", "cuisine": "korean;gimbap;sushi", "delivery": "no", "level": "0", "name": "E-MO", "opening_hours": "Mo-Sa 09:00-19:00", "payment:cash": "only", "phone": "+1 212-594-1466", "takeaway": "only"}}, {"type": "node", "id": 9644596254, "lat": 40.7472762, "lon": -73.9861356, "tags": {"addr:housenumber": "2", "addr:postcode": "10001", "addr:street": "West 32nd Street", "amenity": "restaurant", "contact:instagram": "hongchencheonnyc", "contact:phone": "+1 212-695-7272", "cuisine": "korean", "delivery": "yes", "level": "1", "name": "Hong Chun Cheon Dak Galbi", "opening_hours": "11:30-21:30", "takeaway": "yes"}}, {"type": "node", "id": 9644596255, "lat": 40.7472788, "lon": -73.9860623, "tags": {"addr:housenumber": "2", "addr:postcode": "10001", "addr:street": "West 32nd Street", "amenity": "restaurant", "cuisine": "japanese;ramen", "delivery": "yes", "email": "kushikushiyaki@gmail.com", "level": "0", "name": "Kushi Kushi Yaki", "opening_hours": "Su-Th 12:00-21:30; Th-Sa 12:00-23:00", "phone": "+1 212-279-3075", "reservation": "yes", "takeaway": "yes", "website": "https://www.kushikushiyaki.com"}}, {"type": "node", "id": 9644596256, "lat": 40.7472957, "lon": -73.9860976, "tags": {"amenity": "restaurant", "contact:facebook": "KokuRamenNYC", "contact:instagram": "kokuramennyc", "contact:phone": "+1 212-643-8488", "contact:website": "https://www.koku-ramen.com", "cuisine": "japanese;ramen", "delivery": "yes", "diet:vegan": "yes", "level": "0", "name": "Koku Ramen", "opening_hours": "11:30-19:30", "takeaway": "yes"}}, {"type": "node", "id": 9644596257, "lat": 40.747333, "lon": -73.9864401, "tags": {"addr:housenumber": "10", "addr:postcode": "10001", "addr:street": "West 32nd Street", "amenity": "restaurant", "cocktails": "yes", "cuisine": "korean", "delivery": "Su-We 17:00-24:00; Th-Sa 17:00-01:00", "email": "info@muinyny.com", "level": "4", "name": "MUI", "opening_hours": "Su-We 15:00-02:00; Th-Sa 17:00-04:00", "phone": "+1 212-244-1900", "reservation": "yes", "website": "https://www.nymui.com"}}, {"type": "node", "id": 9644596258, "lat": 40.7473223, "lon": -73.9861681, "tags": {"addr:housenumber": "2", "addr:postcode": "10001", "addr:street": "West 32nd Street", "amenity": "restaurant", "branch": "Manhattan", "check_date": "2025-06-22", "contact:instagram": "abikocurry", "contact:phone": "+1 212-695-0888", "contact:website": "https://www.abiko-curry.com", "cuisine": "japanese", "delivery": "yes", "drink:beer": "yes", "level": "0", "name": "Abiko Curry", "opening_hours": "11:00-21:00", "payment:cash": "yes", "payment:credit_cards": "yes", "payment:debit_cards": "yes", "takeaway": "yes"}}, {"type": "node", "id": 9644617681, "lat": 40.7476554, "lon": -73.9870454, "tags": {"addr:housenumber": "28", "addr:postcode": "10001", "addr:street": "West 32nd Street", "amenity": "restaurant", "cocktails": "yes", "cuisine": "korean;gastropub", "drink:soju": "yes", "facebook": "itaewonnyc32", "level": "1", "name": "Itaewon Pocha", "opening_hours": "Tu-Th 17:00-02:00; Fr, Sa 17:00-04:00; Su 14:00-02:00", "phone": "+1 212-967-2228", "reservation": "yes", "website": "http://www.itaewongastropub.com"}}, {"type": "node", "id": 9838678804, "lat": 40.751969, "lon": -73.9896709, "tags": {"amenity": "restaurant", "cuisine": "greek", "name": "Greek from Greece"}}, {"type": "node", "id": 9838737047, "lat": 40.7520011, "lon": -73.9906484, "tags": {"addr:housenumber": "213", "addr:street": "West 35th Street", "amenity": "restaurant", "branch": "Midtown West", "cuisine": "sandwich", "delivery": "yes", "email": "info@cutlets.co", "level": "0", "name": "Cutlets", "opening_hours": "Mo-Fr 09:00-21:00", "phone": "+1 212-518-6091", "takeaway": "yes", "website": "https://www.cutlets.co/location/midtown-west/"}}, {"type": "node", "id": 9864762117, "lat": 40.7479801, "lon": -73.9900333, "tags": {"addr:city": "New York", "addr:housenumber": "855", "addr:postcode": "10001", "addr:state": "NY", "addr:street": "6th Avenue", "brand": "Nike", "brand:wikidata": "Q483915", "name": "Nike New York Headquarters", "office": "company", "start_date": "2017", "website": "https://jobs.nike.com/nyc"}}, {"type": "node", "id": 9929832547, "lat": 40.7483523, "lon": -73.9855953, "tags": {"addr:city": "New York", "addr:housenumber": "350", "addr:postcode": "10118", "addr:state": "NY", "addr:street": "5th Avenue", "addr:unit": "Suite 6705", "brand": "Morgan & Morgan", "brand:wikidata": "Q111597979", "name": "Morgan & Morgan", "office": "lawyer", "opening_hours": "24/7", "phone": "+1-212-738-6299", "website": "https://www.forthepeople.com/new-york/"}}, {"type": "node", "id": 9951145664, "lat": 40.7520118, "lon": -73.9912601, "tags": {"addr:housenumber": "224", "addr:street": "West 35th Street", "amenity": "restaurant", "contact:facebook": "sticktomypot", "contact:instagram": "sticktomypot_potstickers", "cuisine": "dumpling", "delivery": "yes", "level": "0", "name": "Stick To My Pot Potstickers", "opening_hours": "Mo-Fr 11:00-20:00; Sa, Su 11:00-19:00", "phone": "+1 646-882-2003", "takeaway": "yes", "website": "https://www.sticktomypot.com/"}}, {"type": "node", "id": 10099252092, "lat": 40.7483318, "lon": -73.98533, "tags": {"addr:city": "New York", "addr:housenumber": "350", "addr:postcode": "10118", "addr:state": "NY", "addr:street": "5th Avenue", "addr:unit": "Suite 6705", "brand": "Morgan & Morgan", "brand:wikidata": "Q111597979", "name": "Morgan & Morgan", "office": "lawyer", "opening_hours": "24/7", "phone": "+1-212-738-6299", "website": "https://www.forthepeople.com/new-york/"}}, {"type": "node", "id": 10258510451, "lat": 40.7505305, "lon": -73.9876825, "tags": {"barrier": "kerb", "kerb": "lowered", "tactile_paving": "yes", "wheelchair": "yes"}}, {"type": "node", "id": 10258552717, "lat": 40.750036, "lon": -73.9878089}, {"type": "node", "id": 10258552719, "lat": 40.7504616, "lon": -73.9877138}, {"type": "node", "id": 10258552788, "lat": 40.7505052, "lon": -73.987705}, {"type": "node", "id": 10258552789, "lat": 40.7505154, "lon": -73.9877002}, {"type": "node", "id": 10258552790, "lat": 40.7505246, "lon": -73.9876919}, {"type": "node", "id": 10258552791, "lat": 40.750534, "lon": -73.9876715}, {"type": "node", "id": 10258552792, "lat": 40.7505369, "lon": -73.9876524}, {"type": "node", "id": 10258552793, "lat": 40.7505334, "lon": -73.9876286}, {"type": "node", "id": 10258552794, "lat": 40.7504584, "lon": -73.9874537}, {"type": "node", "id": 10258552795, "lat": 40.7504329, "lon": -73.9874357}, {"type": "node", "id": 10258552796, "lat": 40.750423, "lon": -73.9874364}, {"type": "node", "id": 10258552797, "lat": 40.7504115, "lon": -73.9874421}, {"type": "node", "id": 10258552798, "lat": 40.7499797, "lon": -73.9877685}, {"type": "node", "id": 10258552799, "lat": 40.7499751, "lon": -73.9877788}, {"type": "node", "id": 10258552800, "lat": 40.7499753, "lon": -73.9877907}, {"type": "node", "id": 10258552801, "lat": 40.7499785, "lon": -73.9878034}, {"type": "node", "id": 10258552802, "lat": 40.7499857, "lon": -73.9878126}, {"type": "node", "id": 10258552803, "lat": 40.7500007, "lon": -73.9878143}, {"type": "node", "id": 10258552804, "lat": 40.7502438, "lon": -73.9877625}, {"type": "node", "id": 10258552805, "lat": 40.7504506, "lon": -73.9874436}, {"type": "node", "id": 10258552862, "lat": 40.7499767, "lon": -73.9877961, "tags": {"barrier": "kerb", "kerb": "raised", "tactile_paving": "no", "wheelchair": "no"}}, {"type": "node", "id": 10261412756, "lat": 40.7485656, "lon": -73.9885451}, {"type": "node", "id": 10261412757, "lat": 40.748938, "lon": -73.9882695}, {"type": "node", "id": 10261412771, "lat": 40.7489596, "lon": -73.9881264}, {"type": "node", "id": 10261412772, "lat": 40.7490082, "lon": -73.9881531}, {"type": "node", "id": 10261412773, "lat": 40.7490138, "lon": -73.9881716}, {"type": "node", "id": 10261412774, "lat": 40.7490158, "lon": -73.9881882}, {"type": "node", "id": 10261412775, "lat": 40.7490078, "lon": -73.9882149}, {"type": "node", "id": 10261412776, "lat": 40.7490135, "lon": -73.9882026}, {"type": "node", "id": 10261412803, "lat": 40.7489728, "lon": -73.9881272}, {"type": "node", "id": 10261412804, "lat": 40.7483919, "lon": -73.9882558}, {"type": "node", "id": 10261412805, "lat": 40.7484134, "lon": -73.9882282}, {"type": "node", "id": 10261412806, "lat": 40.7485158, "lon": -73.9885618}, {"type": "node", "id": 10261412807, "lat": 40.7485318, "lon": -73.9885679}, {"type": "node", "id": 10261412865, "lat": 40.748507, "lon": -73.9885494}, {"type": "node", "id": 10261412867, "lat": 40.7485389, "lon": -73.9885643}, {"type": "node", "id": 10261412887, "lat": 40.7483947, "lon": -73.9882815}, {"type": "node", "id": 10261412892, "lat": 40.7484043, "lon": -73.9882316}, {"type": "node", "id": 10694203546, "lat": 40.7470064, "lon": -73.9853791, "tags": {"addr:city": "New York", "addr:floor": "2", "addr:housenumber": "315", "addr:postcode": "10016", "addr:state": "NY", "addr:street": "5th Avenue", "amenity": "restaurant", "cuisine": "korean", "name": "Soju Haus", "phone": "+1-212-213-2177", "website": "https://www.sojuhaus.com/"}}, {"type": "node", "id": 10796001208, "lat": 40.7470406, "lon": -73.9859223, "tags": {"addr:city": "New York", "addr:floor": "2", "addr:housenumber": "312", "addr:postcode": "10001", "addr:state": "NY", "addr:street": "5th Avenue", "amenity": "restaurant", "branch": "Manhattan", "cuisine": "korean", "name": "Gopchang Story BBQ", "opening_hours": "Mo-Th 16:00-01:00; Fr,Sa 12:00-15:00,17:00-03:00; Su 12:00-15:00,17:00-01:00", "phone": "+1-646-371-9469", "reservation": "yes", "website": "https://www.gopchangbbq.com/"}}, {"type": "node", "id": 10828734041, "lat": 40.7484569, "lon": -73.9879549, "tags": {"addr:city": "New York", "addr:housenumber": "1262", "addr:postcode": "10001", "addr:state": "NY", "addr:street": "Broadway", "amenity": "restaurant", "contact:email": "info@bldiner.com", "contact:facebook": "bnldiner", "contact:instagram": "bnldiner", "name": "B&L Diner", "opening_hours": "Mo-Su 07:00-23:30", "phone": "+1 646-838-9020", "website": "https://www.bldiner.com/"}}, {"type": "node", "id": 10828734042, "lat": 40.748382, "lon": -73.9878429, "tags": {"addr:city": "New York", "addr:housenumber": "49", "addr:postcode": "10001", "addr:state": "NY", "addr:street": "West 32nd Street", "amenity": "cafe", "cuisine": "coffee_shop", "name": "Early Edition Espresso Bar", "opening_hours": "Mo-Su 06:30-22:30", "website": "https://earlyeditionnyc.com/"}}, {"type": "node", "id": 10908810996, "lat": 40.7482511, "lon": -73.9864775, "tags": {"addr:housenumber": "24", "addr:postcode": "10001", "addr:street": "West 33rd Street", "amenity": "restaurant", "cuisine": "chinese;dumpling", "name": "Nan Xiang Xiao Long Bao", "opening_hours": "Mo-Su 11:00-22:00", "phone": "+1-212-970-3888", "takeaway": "yes", "website": "https://nanxiangxiaolongbao.com"}}, {"type": "node", "id": 10908811003, "lat": 40.7483804, "lon": -73.9867781, "tags": {"addr:housenumber": "32", "addr:postcode": "10001", "addr:street": "West 33rd Street", "alt_name": "Rib Number 7", "amenity": "restaurant", "cocktails": "yes", "cuisine": "korean;barbecue", "drink:beer": "yes", "drink:liquor": "yes", "drink:wine": "yes", "name": "Rib No. 7", "phone": "+1-212-381-0802", "website": "https://www.ribno7.com"}}, {"type": "node", "id": 10908978405, "lat": 40.7485457, "lon": -73.9871672, "tags": {"alt_name": "Hutaoli Music Restaurant and Bar", "amenity": "restaurant", "bar": "yes", "cocktails": "yes", "drink:beer": "yes", "drink:wine": "yes", "name": "Hutaoli", "opening_hours": "Mo-Th 11:00-24:00, Fr-Sa 11:00-01:00, Su 11:00-24:00"}}, {"type": "node", "id": 10908978406, "lat": 40.7487358, "lon": -73.9870637, "tags": {"amenity": "restaurant", "bar": "yes", "cocktails": "yes", "cuisine": "japanese;izakaya", "drink:beer": "draught", "drink:liquor": "yes", "drink:sake": "yes", "name": "Ai Ki Ya", "opening_hours": "Tu-Su 16:00-24:00", "website": "https://www.aikiyanyc.com"}}, {"type": "node", "id": 10908978408, "lat": 40.7487194, "lon": -73.9870261, "tags": {"fax": "+1-212-244-1015", "name": "Active Staffing Services", "office": "company", "phone": "+1-212-244-6444", "website": "https://www.activestaffing.com"}}, {"type": "node", "id": 10908978409, "lat": 40.7483075, "lon": -73.9866107, "tags": {"addr:housenumber": "28", "addr:postcode": "10001", "addr:street": "West 33rd Street", "amenity": "restaurant", "bar": "yes", "cocktails": "yes", "cuisine": "korean", "drink:liquor": "yes", "name": "Seoul Salon", "opening_hours": "Tu-Th 17:00-24:00; Fr-Sa 17:00-01:00", "website": "https://seoulsalon.nyc"}}, {"type": "node", "id": 10911526106, "lat": 40.7477192, "lon": -73.989028, "tags": {"addr:housenumber": "874", "addr:postcode": "10001", "addr:street": "West 31st Street", "amenity": "cafe", "name": "Gregory\u2019s coffee", "opening_hours": "Mo-Fr 06:30-19:00; Su,Sa 07:00-19:00"}}, {"type": "node", "id": 10963961481, "lat": 40.7501089, "lon": -73.9861942, "tags": {"amenity": "restaurant", "cuisine": "korean", "name": "Hyodonggak"}}, {"type": "node", "id": 10963961483, "lat": 40.7501321, "lon": -73.9862499, "tags": {"addr:housenumber": "53", "addr:postcode": "10018", "addr:street": "West 35th Street", "alt_name": "Hanbat", "amenity": "restaurant", "cuisine": "korean", "name": "Han Bat"}}, {"type": "node", "id": 11157794983, "lat": 40.7517217, "lon": -73.987791, "tags": {"addr:city": "New York", "addr:housenumber": "1359", "addr:postcode": "10018", "addr:state": "NY", "addr:street": "Broadway, Suites 106", "amenity": "cafe", "branch": "Pickup - Broadway btwn 36th &", "brand": "Starbucks", "brand:wikidata": "Q37158", "cuisine": "coffee_shop", "name": "Starbucks", "official_name": "Starbucks Coffee", "phone": "+1 929-924-5003", "ref": "1030963", "takeaway": "yes", "website": "https://www.starbucks.com/store-locator/store/1030963/pickup-broadway-btwn-36th-1359-broadway-suites-106-c-04-new-york-ny-10018710"}}, {"type": "node", "id": 11175097912, "lat": 40.7487471, "lon": -73.9857722, "tags": {"addr:housenumber": "14", "addr:postcode": "10001", "addr:street": "West 34th Street", "brand": "AT&T", "brand:wikidata": "Q35476", "name": "AT&T", "office": "telecommunication", "shop": "telecommunication"}}, {"type": "node", "id": 11308423815, "lat": 40.7498599, "lon": -73.9874941, "tags": {"addr:city": "New York", "addr:housenumber": "53", "addr:postcode": "10001", "addr:state": "NY", "addr:street": "West 34th Street", "amenity": "cafe", "branch": "Herald Square", "name": "Capital One Caf\u00e9", "opening_hours": "Mo-Fr 07:30-19:00; Sa, Su 09:00-18:00", "phone": "+1 332-266-6875", "website": "https://www.capitalone.com/local/herald-square/"}}, {"type": "node", "id": 11513000277, "lat": 40.7506769, "lon": -73.9917117}, {"type": "node", "id": 11513000280, "lat": 40.7511515, "lon": -73.9913641}, {"type": "node", "id": 11513000282, "lat": 40.7506466, "lon": -73.9916393}, {"type": "node", "id": 11513000283, "lat": 40.7511214, "lon": -73.9912922}, {"type": "node", "id": 11746463843, "lat": 40.7521719, "lon": -73.9872338, "tags": {"addr:city": "New York", "addr:housenumber": "109", "addr:postcode": "10018", "addr:state": "NY", "addr:street": "West 37th Street", "amenity": "restaurant", "cuisine": "korean", "name": "ONGI", "opening_hours": "Mo-Su 11:00-21:00", "phone": "+16466091738", "website": "https://www.on-gi.com", "website:orders": "https://ongi-863993.square.site/"}}, {"type": "node", "id": 11860537157, "lat": 40.7479234, "lon": -73.987814, "tags": {"addr:city": "New York", "addr:housenumber": "1250", "addr:postcode": "10001", "addr:state": "NY", "addr:street": "Broadway", "addr:unit": "1FL", "amenity": "restaurant", "cuisine": "asian;dessert", "name": "Nana's Green Tea", "opening_hours": "Fr-Su 11:00-21:00, Mo-Th 11:00-20:00", "takeaway": "yes", "website": "https://www.nanasgreenteaus.com/"}}, {"type": "node", "id": 11884796769, "lat": 40.7520357, "lon": -73.9858812, "tags": {"addr:housenumber": "1012", "addr:street": "6th Avenue", "amenity": "restaurant", "cuisine": "pizza", "name": "Pizza Town"}}, {"type": "node", "id": 11961070864, "lat": 40.7478282, "lon": -73.9875784, "tags": {"air_conditioning": "yes", "contact:linkedin": "https://www.linkedin.com/company/prometric/", "contact:twitter": "https://www.twitter.com/prometricglobal", "education": "centre", "level": "25", "name": "Prometric Lab 4253", "office": "educational_institution", "opening_hours": "Mo-Fr 07:00-17:00", "operator": "Prometric", "phone": "+1-646-6900303", "ref": "4253", "supervised": "yes", "toilets": "yes", "website": "https://www.prometric.com/", "wheelchair": "yes"}}, {"type": "node", "id": 12102851138, "lat": 40.7514912, "lon": -73.9862834, "tags": {"addr:city": "New York", "addr:housenumber": "990", "addr:postcode": "10018", "addr:state": "NY", "addr:street": "6th Avenue", "amenity": "cafe", "brand": "Paris Baguette", "brand:wikidata": "Q62605260", "name": "Paris Baguette", "opening_hours": "Mo-Su 06:00-23:00", "phone": "+1 631-651-0404", "shop": "bakery", "website": "https://www.parisbaguette.com/"}}, {"type": "node", "id": 12170467433, "lat": 40.7497845, "lon": -73.9854176, "tags": {"alt_name": "The Playwright", "amenity": "pub", "cocktails": "yes", "cuisine": "pub", "drink:beer": "draught", "drink:liquor": "yes", "drink:wine": "yes", "happy_hours": "Mo-Fr 16:00-20:00", "name": "Playwright Irish Pub", "opening_hours": "Mo-Su 11:00-04:00", "outdoor_seating": "sidewalk", "phone": "+1-212-268-8868", "website": "https://www.playwrightirishpubnyc.com"}}, {"type": "node", "id": 12170467434, "lat": 40.7498622, "lon": -73.9856035, "tags": {"amenity": "restaurant", "bar": "yes", "cocktails": "yes", "cuisine": "american;pizza", "drink:beer": "draught", "drink:liquor": "yes", "drink:wine": "yes", "happy_hours": "Mo-Su 16:00-20:00", "name": "The Liberty", "opening_hours": "Mo-Fr 11:00-24:00+, Sa-Su 10:00-24:00+", "outdoor_seating": "sidewalk", "phone": "+1-212-967-4000", "website": "https://www.thelibertynyc.com"}}, {"type": "node", "id": 12189238901, "lat": 40.7507736, "lon": -73.9914958, "tags": {"addr:postcode": "10119", "addr:street": "Plaza 33", "amenity": "restaurant", "cuisine": "italian_pizza", "internet_access": "wlan", "name": "Roberta's", "opening_hours": "Mo-Su 11:00-22:00", "website": "http://robertaspizza.com"}}, {"type": "node", "id": 12383161574, "lat": 40.7506271, "lon": -73.9880621, "tags": {"addr:city": "New York", "addr:housenumber": "151", "addr:postcode": "10001", "addr:state": "NY", "addr:street": "West 34th Street", "amenity": "restaurant", "cuisine": "italian", "level": "6", "name": "Stella 34 Trattoria", "website": "https://www.patinagroup.com/stella-34/"}}, {"type": "node", "id": 12469112391, "lat": 40.7500475, "lon": -73.9860309, "tags": {"addr:city": "New York", "addr:housenumber": "41", "addr:postcode": "10001", "addr:state": "NY", "addr:street": "West 35th Street", "amenity": "cafe", "cuisine": "bakery;coffee_shop", "name": "Angelina Bakery & Pizza", "phone": "+1-646-864-0111", "website": "https://angelinabakery.com/"}}, {"type": "node", "id": 12548036253, "lat": 40.7516443, "lon": -73.9859621, "tags": {"addr:city": "New York", "addr:housenumber": "63", "addr:postcode": "10018", "addr:state": "NY", "addr:street": "West 37th Street", "amenity": "restaurant", "certification": "diet:kosher", "certification:certifier": "ou kosher", "certification:rating": "ou;ou-m", "cuisine": "burger;sandwich;salad", "diet:kosher": "yes", "name": "Smash House", "opening_hours": "Mo-Th 11:00-23:00; Su 12:30-23:00", "phone": "+1-347-937-6274", "website": "https://www.smashhouseburgers.com/locations/new-york/manhattan-37th-st/"}}, {"type": "node", "id": 12604039968, "lat": 40.7471726, "lon": -73.9871962, "tags": {"amenity": "restaurant", "bar": "yes", "cuisine": "sushi;korean", "drink:beer": "yes", "drink:liquor": "yes", "drink:wine": "yes", "happy_hours": "Mo-Sa 16:30-18:30", "name": "K Sushi & Bar", "opening_hours": "Mo-Fr 12:00-14:30,16:30-22:30; Sa 16:30-22:30", "phone": "+1-212-933-0638", "website": "https://www.ksushiandbar.com"}}, {"type": "node", "id": 12662597101, "lat": 40.7500629, "lon": -73.9861062, "tags": {"addr:postcode": "10001", "amenity": "restaurant", "contact:facebook": "blacktapnyc", "contact:instagram": "blacktap", "contact:twitter": "blacktapnyc", "cuisine": "american;burger", "email": "events@blacktapnyc.com", "name": "Black Tap", "opening_hours": "Mo-Th 11:30-23:30; Fr 11:30-00:00; Sa 11:00-00:00; Su 10:00-22:00", "website": "https://blacktap.com/location/35th/", "website:menu": "https://blacktap.com/restaurant-menu/herald-square-menu/"}}, {"type": "node", "id": 12662597204, "lat": 40.7469733, "lon": -73.9853512, "tags": {"addr:housenumber": "315 3FL", "addr:postcode": "10016", "addr:street": "5th Avenue", "amenity": "restaurant", "contact:instagram": "nubiani.nyc", "cuisine": "korean", "email": "info@nubianinyc.com", "name": "Nubiani", "opening_hours": "Mo-We 12:00-23:00; Th 12:00-00:00; Fr-Sa 12:00-01:00; Su 12:00-23:00", "phone": "+1-917-623-0807", "website": "https://www.nubianinyc.com/", "website:menu": "https://www.nubianinyc.com/menu"}}, {"type": "node", "id": 12849983985, "lat": 40.7501812, "lon": -73.9844621, "tags": {"amenity": "restaurant", "check_date": "2025-05-19", "cuisine": "asian"}}, {"type": "node", "id": 12849984712, "lat": 40.750229, "lon": -73.984535, "tags": {"addr:housenumber": "13", "addr:street": "West 36th Street", "amenity": "restaurant", "check_date": "2025-05-19", "contact:facebook": "https://www.facebook.com/tonchinnyc/", "contact:instagram": "https://www.instagram.com/tonchinnewyork", "cuisine": "japanese", "name": "Tonchin New York", "opening_hours": "11:30-22:00", "phone": "+1 646-692-9912", "website": "https://www.tonchinus.com/"}}, {"type": "node", "id": 12849984713, "lat": 40.750816, "lon": -73.9859024, "tags": {"addr:housenumber": "53", "addr:street": "West 36th Street", "amenity": "bar", "check_date": "2025-05-19", "name": "The Keg Room", "opening_hours": "Mo,Su 12:00-01:00; Tu-Sa 12:00-03:00", "website": "https://www.thekegroom.nyc/"}}, {"type": "node", "id": 12908269982, "lat": 40.7520674, "lon": -73.9850554, "tags": {"amenity": "restaurant", "cuisine": "japanese_fusion", "drink:liquor": "yes", "drink:sake": "yes", "drink:wine": "yes", "happy_hours": "Mo-Su 12:15-14:30, 17:15--18:30", "name": "Class on 38th", "opening_hours": "Mo-Su 12:15-14:30, 17:15-21:00", "phone": "+1-929-292-0691", "website": "https://www.classon38th.com"}}, {"type": "node", "id": 12908269983, "lat": 40.7511, "lon": -73.9852329, "tags": {"addr:housenumber": "40", "addr:postcode": "10018", "addr:street": "West 37th Street", "amenity": "restaurant", "catering": "yes", "cuisine": "sushi", "delivery": "yes", "drink:beer": "yes", "drink:liquor": "yes", "drink:wine": "yes", "name": "Watami Sushi", "opening_hours": "Mo-Sa 11:00-22:00, Su 15:00-22:00", "phone": "+1-646-375-0869", "takeaway": "yes", "website": "https://watamisushi37west.com"}}, {"type": "node", "id": 13007235601, "lat": 40.7483043, "lon": -73.9860187, "tags": {"addr:housenumber": "350", "addr:postcode": "10118", "addr:street": "West 33rd Street", "amenity": "restaurant", "name": "STATE Grill and Bar"}}, {"type": "way", "id": 34633854, "nodes": [402743563, 402743567, 402743571, 402743573, 2709307502, 2709307499, 2709307464, 402743563], "tags": {"addr:city": "New York", "addr:housenumber": "350", "addr:postcode": "10118", "addr:state": "NY", "addr:street": "5th Avenue", "architect": "Shreve, Lamb & Harmon", "architect:wikidata": "Q5188433", "building": "office", "building:architecture": "art_deco", "building:colour": "beige", "building:levels": "102", "building:use": "office", "check_date": "2021-04-21", "construction_date": "1930-1931", "ele": "15", "gnis:feature_id": "949654", "height": "443.2", "heritage": "2", "heritage:operator": "nrhp", "landmark": "12", "name": "Empire State Building", "name:en": "Empire State Building", "name:es": "Edificio Empire State", "name:he": "\u05d1\u05e0\u05d9\u05d9\u05df \u05d0\u05de\u05e4\u05d9\u05d9\u05e8 \u05e1\u05d8\u05d9\u05d9\u05d8", "name:hi": "\u090f\u092e\u094d\u092a\u093e\u092f\u0930 \u0938\u094d\u091f\u0947\u091f \u092c\u093f\u0932\u094d\u0921\u093f\u0902\u0917", "name:ko": "\uc5e0\ud30c\uc774\uc5b4 \uc2a4\ud14c\uc774\ud2b8 \ube4c\ub529", "name:ru": "\u042d\u043c\u043f\u0430\u0439\u0440-\u0421\u0442\u0435\u0439\u0442-\u0411\u0438\u043b\u0434\u0438\u043d\u0433", "name:uk": "\u0415\u043c\u043f\u0430\u0439\u0440-\u0421\u0442\u0435\u0439\u0442-\u0411\u0456\u043b\u0434\u0456\u043d\u0433", "name:zh": "\u5e1d\u56fd\u5927\u53a6", "nycdoitt:bin": "1015862", "office": "yes", "opening_hours": "Mo-Su 08:00-02:00", "phone": "+1-212-736-3100", "start_date": "1931", "tourism": "attraction", "website": "https://www.esbnyc.com/explore", "wheelchair": "yes", "wikidata": "Q9188", "wikimedia_commons": "Category:Empire State Building", "wikipedia": "en:Empire State Building"}}, {"type": "way", "id": 265301773, "nodes": [2709702837, 2709702848, 2709702876, 2709702867, 3838644242, 3838644240, 3838644237, 2709702837], "tags": {"addr:housenumber": "137", "addr:postcode": "10001", "addr:street": "West 33rd Street", "amenity": "pub", "building": "yes", "building:levels": "2", "height": "4.3", "name": "The Celtic Rail", "nycdoitt:bin": "1015197", "outdoor_seating": "yes"}}, {"type": "way", "id": 265302122, "nodes": [2709703408, 2709703404, 2709703354, 2709703381, 2709703445, 2709703417, 2709703408], "tags": {"addr:city": "New York", "addr:housenumber": "1000", "addr:postcode": "10018", "addr:state": "NY", "addr:street": "6th Avenue", "addr:unit": "404", "building": "yes", "building:levels": "4", "height": "16.0", "name": "PrimeXchange", "nycdoitt:bin": "1080732", "office": "yes"}}, {"type": "way", "id": 319773435, "nodes": [6225226710, 6225226704, 6225226697, 6225226703, 3262342840, 3262342841, 3262342849, 3262342842, 6225226710], "tags": {"addr:city": "New York", "addr:housenumber": "102", "addr:postcode": "10001", "addr:state": "NY", "addr:street": "West 35th Street", "amenity": "restaurant", "branch": "Herald Square", "building": "yes", "cuisine": "dessert", "name": "Wafels & Dinges", "opening_hours": "09:00-22:00", "phone": "+1 646-257-2592", "website": "https://dinges.nyc/", "wheelchair": "yes"}}, {"type": "way", "id": 665897391, "nodes": [4186110812, 2703449561, 2703449572, 2703449586, 2703449593, 6233604764, 6233604762, 6233604763, 4186110812], "tags": {"addr:city": "New York", "addr:housenumber": "54", "addr:postcode": "10001", "addr:street": "West 31st Street", "amenity": "bar", "cocktails": "yes", "contact:facebook": "http://www.facebook.com/oreillyspubnyc", "cuisine": "pub", "drink:beer": "yes", "drink:liquor": "yes", "drink:wine": "yes", "email": "info@oreillyspubnyc.com", "fax": "+1 212-689-5788", "name": "O'Reilly's Pub", "opening_hours": "11:00-02:00", "opening_hours:kitchen": "11:00-23:30", "outdoor_seating": "roof", "phone": "+1 212-684-4244", "toilets": "yes", "website": "https://www.oreillyspubnyc.com", "wheelchair": "limited"}}, {"type": "way", "id": 1121582607, "nodes": [10258552719, 10258552788, 10258552789, 10258552790, 10258510451, 10258552791, 10258552792, 10258552793, 10258552794, 10258552805, 3857343071, 10258552795, 10258552796, 10258552797, 10258552798, 10258552799, 10258552800, 10258552862, 10258552801, 10258552802, 10258552803, 10258552717, 10258552804, 10258552719], "tags": {"access": "yes", "addr:city": "New York", "addr:postcode": "10001", "addr:state": "NY", "addr:street": "6th Avenue", "leisure": "park", "name": "Herald Square", "name:etymology:wikidata": "Q126871596", "operator": "New York City Department of Parks and Recreation", "operator:short": "NYC Parks", "operator:type": "government", "operator:wikidata": "Q1894232", "website": "https://www.nycgovparks.org/parks/herald-square/", "wikidata": "Q109982", "wikipedia": "en:Herald Square"}}, {"type": "way", "id": 1121932385, "nodes": [10261412756, 3833309816, 10261412867, 10261412807, 6224277833, 10261412806, 10261412865, 10261412887, 3833309823, 10261412804, 6224277858, 6224277838, 10261412892, 10261412805, 2629370016, 3833309814, 10261412771, 10261412803, 6224277881, 6224277865, 10261412772, 10261412773, 10261412774, 10261412776, 10261412775, 10261412757, 10261412756], "tags": {"addr:city": "New York", "addr:postcode": "10001", "addr:state": "NY", "addr:street": "6th Avenue", "leisure": "park", "name": "Greeley Square Park", "operator": "New York City Department of Parks and Recreation", "operator:short": "NYC Parks", "operator:type": "government", "operator:wikidata": "Q1894232"}}, {"type": "way", "id": 1239280962, "nodes": [1025399781, 11513000277, 11513000282, 2709430332, 2709430371, 11513000283, 11513000280, 1025399714, 5235625504, 5235625505, 1025399781], "tags": {"leisure": "park", "name": "Pearson Park", "operator": "Vornado Realty Trust", "operator:type": "private"}}]}