{"version": 0.6, "generator": "Overpass API 0.7.62.8 e802775f", "osm3s": {"timestamp_osm_base": "2025-12-01T17:23:13Z", "copyright": "The data included in this document is from www.openstreetmap.org. The data is made available under ODbL."}, "elements": [{"type": "node", "id": 357579911, "lat": 40.6921005, "lon": -73.9310161}, {"type": "node", "id": 357637277, "lat": 40.6923946, "lon": -73.930322}, {"type": "node", "id": 2565070775, "lat": 40.6924111, "lon": -73.9275164, "tags": {"addr:city": "Brooklyn", "addr:housenumber": "1186", "addr:postcode": "11221", "addr:state": "NY", "addr:street": "Broadway", "amenity": "bar", "atm": "yes", "capacity": "74", "contact:facebook": "https://www.facebook.com/wondervillenyc/", "contact:instagram": "https://instagram.com/wondervillenyc", "contact:twitter": "https://twitter.com/wondervillenyc", "cuisine": "empanada", "drink:beer": "yes", "drink:liquor": "yes", "drink:wine": "yes", "email": "hello@wonderville.nyc", "happy_hours": "Mo-Su 18:00-21:00", "leisure": "amusement_arcade", "name": "Wonderville", "opening_hours": "Mo-Th 17:00-02:00; Fr 17:00-04:00; Sa 14:00-04:00; Su 14:00-02:00", "operator": "Death by Audio Arcade", "outdoor_seating": "backyard; sidewalk", "payment:cash": "yes", "payment:visa": "yes", "toilets": "yes", "toilets:access": "permissive", "toilets:unisex": "yes", "toilets:wheelchair": "yes", "website": "https://wonderville.nyc/", "wheelchair": "yes"}}, {"type": "node", "id": 2567902066, "lat": 40.6924716, "lon": -73.9296482}, {"type": "node", "id": 2567902128, "lat": 40.6926284, "lon": -73.9296793}, {"type": "node", "id": 2567906055, "lat": 40.6937282, "lon": -73.9298594, "tags": {"addr:housenumber": "1114", "addr:postcode": "11221", "addr:street": "DeKalb Avenue", "alt_name": "Secretpour", "amenity": "bar", "check_date": "2022-06-04", "happy_hours": "Mo-Su 16:00-20:00", "name": "Secret Pour", "opening_hours": "Mo-Su 16:00-04:00", "phone": "+1-718-484-0548", "sport": "billiards", "toilets": "yes", "toilets:unisex": "yes", "website": "https://www.secretpour.com/"}}, {"type": "node", "id": 2568566978, "lat": 40.6947263, "lon": -73.9309868, "tags": {"addr:city": "Brooklyn", "addr:housenumber": "1071", "addr:postcode": "11221", "addr:state": "NY", "addr:street": "Broadway", "amenity": "bar", "cocktails": "yes", "contact:facebook": "https://www.facebook.com/marcosonbroadway/", "drink:beer": "draught", "drink:liquor": "yes", "drink:wine": "yes", "name": "Marco's", "not:brand:wikidata": "Q6757382", "opening_hours": "Mo-Fr 16:00-04:00; Sa-Su 14:00-16:00", "outdoor_seating": "garden", "toilets": "yes"}}, {"type": "node", "id": 2568566984, "lat": 40.694457, "lon": -73.93051, "tags": {"addr:city": "Brooklyn", "addr:housenumber": "1089", "addr:postcode": "11221", "addr:state": "NY", "addr:street": "Broadway", "amenity": "bar", "name": "Lone Wolf", "phone": "+1-718-455-2028", "sport": "billiards"}}, {"type": "node", "id": 2778782305, "lat": 40.6908696, "lon": -73.9330778}, {"type": "node", "id": 2778782313, "lat": 40.6909984, "lon": -73.9318143}, {"type": "node", "id": 2778782324, "lat": 40.6911389, "lon": -73.9331255}, {"type": "node", "id": 2778782326, "lat": 40.6911901, "lon": -73.9329372}, {"type": "node", "id": 2778782333, "lat": 40.6914567, "lon": -73.9329845}, {"type": "node", "id": 2778782334, "lat": 40.6914999, "lon": -73.9325615}, {"type": "node", "id": 2778782358, "lat": 40.6919182, "lon": -73.9326358}, {"type": "node", "id": 2778782359, "lat": 40.6919851, "lon": -73.9319805}, {"type": "node", "id": 3141118234, "lat": 40.6939032, "lon": -73.9289412}, {"type": "node", "id": 3141118235, "lat": 40.6941691, "lon": -73.9286938}, {"type": "node", "id": 3141118236, "lat": 40.6938194, "lon": -73.928042}, {"type": "node", "id": 3141118237, "lat": 40.6935377, "lon": -73.928321}, {"type": "node", "id": 5163771762, "lat": 40.6931574, "lon": -73.9281943, "tags": {"addr:housenumber": "1157", "addr:street": "Broadway", "amenity": "restaurant", "cuisine": "chinese", "name": "China Garden"}}, {"type": "node", "id": 5163776190, "lat": 40.6936921, "lon": -73.9297143, "tags": {"addr:housenumber": "1120", "addr:street": "Broadway", "amenity": "cafe", "cuisine": "bagel;pastry;sandwich", "delivery": "yes", "drink:coffee": "yes", "drink:tea": "yes", "name": "BK Bagel", "opening_hours": "Mo-Fr 07:00-19:00; Sa, Su 07:00-18:00", "phone": "+1-718-443-2323", "takeaway": "yes", "toilets": "yes", "website": "https://bkbagels.co/", "wheelchair": "no"}}, {"type": "node", "id": 5163874203, "lat": 40.6933294, "lon": -73.9290619, "tags": {"addr:housenumber": "1142", "addr:street": "Broadway", "amenity": "restaurant", "atm": "yes", "cuisine": "pizza", "name": "Cucina Traditional Pizza House", "toilets": "yes"}}, {"type": "node", "id": 5163876845, "lat": 40.6921888, "lon": -73.9265577, "tags": {"addr:housenumber": "1207", "addr:street": "Broadway", "amenity": "cafe", "name": "Hearts Cafe"}}, {"type": "node", "id": 6590061294, "lat": 40.6955322, "lon": -73.9320225, "tags": {"addr:housenumber": "6", "addr:street": "Suydam Street", "amenity": "bar", "lgbtq": "welcome", "live_music": "yes", "name": "Ornithology Jazz Club", "opening_hours": "Mo-Sa 18:00-02:00; Su 13:00-02:00", "phone": "+1-917-231-4766", "website": "https://www.ornithologyjazzclub.com/"}}, {"type": "node", "id": 10047602539, "lat": 40.6924128, "lon": -73.9310954, "tags": {"addr:city": "Brooklyn", "addr:housenumber": "50", "addr:postcode": "11221", "addr:state": "NY", "addr:street": "Malcolm X Boulevard", "amenity": "cafe", "branch": "Provided", "check_date": "2025-05-06", "cuisine": "donut;breakfast", "delivery": "yes", "name": "Fat Doughnut", "opening_hours": "Thu-Tue 08:00-16:00", "outdoor_seating": "no", "payment:cash": "yes", "payment:contactless": "yes", "payment:credit_cards": "yes", "payment:debit_cards": "yes", "payment:mastercard": "yes", "payment:visa": "yes", "phone": "+1-929-210-0483", "website": "https://fat-doughnut.com/", "wheelchair": "yes"}}, {"type": "node", "id": 10107359899, "lat": 40.6911256, "lon": -73.9308138}, {"type": "node", "id": 10107359900, "lat": 40.6911179, "lon": -73.9309035}, {"type": "node", "id": 10107359901, "lat": 40.6910135, "lon": -73.9318171}, {"type": "node", "id": 10107359902, "lat": 40.6914927, "lon": -73.9319073}, {"type": "node", "id": 10107359903, "lat": 40.6915205, "lon": -73.9319604}, {"type": "node", "id": 10107359904, "lat": 40.6915867, "lon": -73.9319111}, {"type": "node", "id": 10107451170, "lat": 40.6911785, "lon": -73.9330718}, {"type": "node", "id": 11396442169, "lat": 40.6936478, "lon": -73.9290485, "tags": {"addr:postcode": "11221", "amenity": "cafe", "cuisine": "coffee_shop;tea", "name": "Lalin's", "opening_hours": "Mo-Fr 08:00-16:00; Sa-Su 09:00-17:00"}}, {"type": "node", "id": 11631440523, "lat": 40.6953937, "lon": -73.9321876, "tags": {"amenity": "restaurant", "lgbtq": "welcome", "live_music": "yes", "name": "Cafe Ornithology", "opening_hours": "Mo-Sa 13:00-23:00", "phone": "+1-917-231-4766", "website": "https://www.ornithologyjazzclub.com/new-page"}}, {"type": "node", "id": 11934154219, "lat": 40.6945038, "lon": -73.9305705, "tags": {"addr:city": "Brooklyn", "addr:housenumber": "1087", "addr:postcode": "11221", "addr:state": "NY", "addr:street": "Broadway", "amenity": "bar", "name": "Mai Tai's Bar and Kitchen", "sport": "billiards"}}, {"type": "node", "id": 11934154220, "lat": 40.6946047, "lon": -73.9307712, "tags": {"addr:city": "Brooklyn", "addr:housenumber": "1079", "addr:postcode": "11221", "addr:street": "Broadway", "amenity": "restaurant", "cuisine": "pizza;pasta", "name": "Santa Panza", "website": "https://www.santapanza.com/"}}, {"type": "node", "id": 12327643947, "lat": 40.6930462, "lon": -73.9286832, "tags": {"addr:housenumber": "1154", "addr:postcode": "11221", "addr:street": "Broadway", "amenity": "cafe", "name": "Bonjour Brooklyn", "opening_hours": "Tu-Fr 07:30-18:30, Sa 08:00-18:30, Su 09:00-17:00", "phone": "+1-718-443-2200", "shop": "bakery", "website": "https://www.bonjourbrooklyn.com"}}, {"type": "node", "id": 13255753054, "lat": 40.6926766, "lon": -73.9302425}, {"type": "node", "id": 13255753066, "lat": 40.6926946, "lon": -73.9300853}, {"type": "node", "id": 13255753075, "lat": 40.6926615, "lon": -73.9303751}, {"type": "node", "id": 13255753076, "lat": 40.6927385, "lon": -73.9297013}, {"type": "way", "id": 272982300, "nodes": [2778782358, 2778782334, 2778782333, 2778782326, 10107451170, 2778782324, 2778782305, 2778782313, 10107359901, 10107359902, 10107359903, 10107359904, 2778782359, 2778782358], "tags": {"ele": "17", "gnis:feature_id": "2377151", "leisure": "park", "name": "Jesse Owens Playground", "website": "https://www.nycgovparks.org/parks/jesse-owens-playground/", "wikidata": "Q49507615"}}, {"type": "way", "id": 308824949, "nodes": [3141118234, 3141118235, 3141118236, 3141118237, 3141118234], "tags": {"leisure": "park"}}, {"type": "way", "id": 1104542901, "nodes": [10107359903, 10107359902, 10107359901, 10107359900, 10107359899, 357579911, 2778782359, 10107359904, 10107359903], "tags": {"alt_name": "The Jesse Owens School", "amenity": "school", "check_date": "2025-05-04", "name": "Public School 26"}}, {"type": "way", "id": 1444680293, "nodes": [2567902066, 2567902128, 13255753076, 13255753066, 13255753054, 13255753075, 357637277, 2567902066], "tags": {"ele": "17", "gnis:feature_id": "2377150", "leisure": "park", "name": "Lafayette Playground", "ref:nycparks": "B023", "website": "https://www.nycgovparks.org/parks/lafayette-playground_lafayette-ave", "wikidata": "Q49512759"}}]}