{"version": 0.6, "generator": "Overpass API 0.7.62.8 e802775f", "osm3s": {"timestamp_osm_base": "2025-12-01T03:49:55Z", "copyright": "The data included in this document is from www.openstreetmap.org. The data is made available under ODbL."}, "elements": [{"type": "node", "id": 357650779, "lat": 40.7607295, "lon": -73.9644111}, {"type": "node", "id": 2423037502, "lat": 40.761405, "lon": -73.9678672, "tags": {"amenity": "cafe", "brand": "Starbucks", "brand:wikidata": "Q37158", "check_date": "2017-05-28", "cuisine": "coffee_shop", "internet_access": "wlan", "name": "Starbucks", "official_name": "Starbucks Coffee", "opening_hours": "Mo-Fr 05:00-21:00, Su 06:30-21:00, Sa 06:30-21:00, PH 07:00-19:00", "takeaway": "yes"}}, {"type": "node", "id": 2597860936, "lat": 40.7607479, "lon": -73.9706036, "tags": {"addr:city": "New York", "addr:housenumber": "109", "addr:postcode": "10022", "addr:street": "East 56th Street", "amenity": "cafe", "branch": "East 56th Street", "cuisine": "coffee_shop", "internet_access": "yes", "name": "Ninth Street Espresso", "opening_hours": "Mo-Fr 07:00-19:00; Sa, Su 08:00-14:00", "phone": "+1 646-559-4793", "website": "https://www.ninthstreetespresso.com/midtown"}}, {"type": "node", "id": 2711002336, "lat": 40.7598649, "lon": -73.9654975}, {"type": "node", "id": 2711002346, "lat": 40.7598931, "lon": -73.9655642}, {"type": "node", "id": 2711002351, "lat": 40.7599022, "lon": -73.9655576}, {"type": "node", "id": 2711002445, "lat": 40.760104, "lon": -73.9653227}, {"type": "node", "id": 2711002465, "lat": 40.7601322, "lon": -73.9653894}, {"type": "node", "id": 2717901952, "lat": 40.7608452, "lon": -73.964686}, {"type": "node", "id": 2717901965, "lat": 40.761089, "lon": -73.9645093}, {"type": "node", "id": 2717901993, "lat": 40.7612076, "lon": -73.9644211}, {"type": "node", "id": 2717902020, "lat": 40.7612577, "lon": -73.9643857}, {"type": "node", "id": 2717902046, "lat": 40.7613262, "lon": -73.9643361}, {"type": "node", "id": 2718042362, "lat": 40.7637327, "lon": -73.9676111, "tags": {"addr:housenumber": "133", "addr:postcode": "10065", "addr:street": "East 61st Street", "amenity": "restaurant", "check_date": "2025-07-05", "cuisine": "italian", "name": "Il Postino", "outdoor_seating": "yes", "phone": "+1-212-688-0033", "website": "https://ilpostinonyc.com/"}}, {"type": "node", "id": 2718042711, "lat": 40.7645135, "lon": -73.9675529}, {"type": "node", "id": 2718042715, "lat": 40.7645559, "lon": -73.9676539}, {"type": "node", "id": 2718042739, "lat": 40.7646511, "lon": -73.9674531}, {"type": "node", "id": 2718042740, "lat": 40.7646659, "lon": -73.9675122}, {"type": "node", "id": 2718042741, "lat": 40.7646735, "lon": -73.9675067}, {"type": "node", "id": 2718042745, "lat": 40.7646858, "lon": -73.9675596}, {"type": "node", "id": 2718050718, "lat": 40.7650653, "lon": -73.965936, "tags": {"addr:housenumber": "835", "addr:postcode": "10065", "addr:street": "Lexington Avenue", "amenity": "restaurant", "branch": "Upper East Side", "brand": "Loco Coco", "cuisine": "smoothie", "delivery": "yes", "diet:vegan": "only", "email": "hello@coco-loco.com", "level": "0", "name": "Loco Coco", "opening_hours": "Mo-Fr 09:00-20:00; Sa, Su 09:00-19:00", "phone": "+1 212-888-9900", "takeaway": "yes"}}, {"type": "node", "id": 2718064489, "lat": 40.761438, "lon": -73.9639675, "tags": {"addr:city": "New York", "addr:housenumber": "1145", "addr:postcode": "10065", "addr:state": "NY", "addr:street": "2nd Avenue", "amenity": "bar", "brewery": "various", "min_age": "21", "name": "City Hops", "opening_hours": "Mo-Su 12:00-00:00"}}, {"type": "node", "id": 2718064490, "lat": 40.7616106, "lon": -73.9638442, "tags": {"addr:city": "New York", "addr:housenumber": "1149A", "addr:postcode": "10065", "addr:state": "NY", "addr:street": "2nd Avenue", "amenity": "bar", "description": "Wine Bar", "name": "Vero Social"}}, {"type": "node", "id": 2718064492, "lat": 40.7616548, "lon": -73.9638109, "tags": {"addr:housenumber": "1151", "addr:postcode": "10065", "addr:street": "2nd Avenue", "amenity": "cafe", "cuisine": "asian;bubble_tea;juice;smoothie", "name": "Hawa"}}, {"type": "node", "id": 2975790643, "lat": 40.7610242, "lon": -73.9697542, "tags": {"addr:city": "New York", "addr:housenumber": "122", "addr:postcode": "10022", "addr:street": "East 57th Street", "amenity": "restaurant", "cuisine": "diner", "delivery": "yes", "diet:gluten_free": "yes", "drink:coffee": "yes", "name": "Palace Restaurant", "opening_hours": "Mo-Su 06:00-21:30", "phone": "+1 212-319-8989", "takeaway": "yes", "website": "https://www.palacerestaurantmidtown.com"}}, {"type": "node", "id": 2977035158, "lat": 40.7605307, "lon": -73.969238, "tags": {"addr:city": "New York", "addr:housenumber": "687", "addr:postcode": "10022", "addr:street": "Lexington Avenue", "amenity": "restaurant", "name": "The Fitz", "website": "https://www.fitzpatrickhotels.com/fitzpatrick-manhattan-the-fitz.shtml", "wheelchair": "yes"}}, {"type": "node", "id": 3057117017, "lat": 40.760572, "lon": -73.9687188, "tags": {"addr:city": "New York", "addr:housenumber": "140", "addr:postcode": "10022", "addr:street": "East 57th Street", "amenity": "cafe", "brand": "Juan Valdez Caf\u00e9", "brand:wikidata": "Q6301102", "cuisine": "coffee_shop", "internet_access": "wlan", "name": "Juan Valdez Caf\u00e9", "opening_hours": "Mo-Fr 07:00-20:00; Sa 08:00-20:00; Su 08:30-19:00", "phone": "+1 917-289-0981", "shop": "coffee", "takeaway": "yes", "website": "https://www.juanvaldezcafe.com/", "wheelchair": "yes"}}, {"type": "node", "id": 3057117020, "lat": 40.7605921, "lon": -73.9687706, "tags": {"addr:city": "New York", "addr:country": "US", "addr:housenumber": "140", "addr:postcode": "10022", "addr:state": "NY", "addr:street": "East 57th Street", "alt_name": "UN Mission Colombia", "country": "CO", "diplomatic": "embassy", "email": "colombia@colombiaun.org", "embassy": "mission", "fax": "+1-212-371-2813", "level": "5", "name": "Permanent Mission of Colombia to the United Nations", "office": "diplomatic", "official_name": "Permanent Mission of the Republic of Colombia to the United Nations", "phone": "+1-212-355-7776", "target": "UN", "website": "http://www.colombiaun.org/"}}, {"type": "node", "id": 3569401894, "lat": 40.7643725, "lon": -73.9642919, "tags": {"addr:housenumber": "1081", "addr:street": "3rd Avenue", "amenity": "restaurant", "check_date": "2025-01-30", "cuisine": "pizza", "diet:vegan": "yes", "diet:vegetarian": "yes", "level": "0", "name": "Tony's"}}, {"type": "node", "id": 3569402510, "lat": 40.7613657, "lon": -73.9643085}, {"type": "node", "id": 3908413579, "lat": 40.7622952, "lon": -73.9706708, "tags": {"name": "Council on Foreign Relations", "name:de": "Rat f\u00fcr ausw\u00e4rtige Beziehungen", "name:en": "Council on Foreign Relations", "office": "ngo", "short_name": "CFR", "website": "https://www.cfr.org/"}}, {"type": "node", "id": 4284788108, "lat": 40.7650017, "lon": -73.9659528, "tags": {"addr:housenumber": "833", "addr:postcode": "10065", "addr:street": "Lexington Avenue", "amenity": "restaurant", "branch": "Upper East Side", "check_date": "2024-02-27", "cuisine": "international", "delivery": "yes", "diet:gluten_free": "yes", "diet:vegan": "only", "level": "0", "name": "Le Botaniste", "opening_hours": "Mo-Su 11:00-21:00", "organic": "only", "phone": "+1 917-262-0766", "takeaway": "yes", "website": "https://lebotaniste.us/", "wheelchair": "yes"}}, {"type": "node", "id": 4352204390, "lat": 40.7618022, "lon": -73.9649381, "tags": {"addr:housenumber": "225", "addr:street": "East 60th Street", "amenity": "restaurant", "email": "info@serendipity3.com", "name": "Serendipity 3", "opening_hours": "Mo-Th, Su 11:30-24:00; Fr, Sa 11:30-01:00", "payment:american_express": "yes", "payment:discover_card": "yes", "payment:mastercard": "yes", "payment:visa": "yes", "phone": "+1 212-838-3531", "reservation": "yes", "website": "https://serendipity3.com/", "wikidata": "Q564516", "wikipedia": "en:Serendipity 3"}}, {"type": "node", "id": 4353160594, "lat": 40.7600052, "lon": -73.9665174, "tags": {"addr:street": "225 E 60th Street", "amenity": "restaurant", "name": "Serendipity 3", "website": "https://serendipity3.com", "wheelchair": "yes"}}, {"type": "node", "id": 4586571779, "lat": 40.7605883, "lon": -73.9701339, "tags": {"addr:city": "New York", "addr:housenumber": "125", "addr:postcode": "10022", "addr:street": "East 56th Street", "name": "Eduard Zaytsev Real Estate", "office": "estate_agent"}}, {"type": "node", "id": 4818137923, "lat": 40.7638732, "lon": -73.9665249, "tags": {"addr:housenumber": "134 1/2", "addr:postcode": "10062", "addr:street": "East 62nd Street", "amenity": "cafe", "branch": "Upper East", "email": "62ndstreet@birchcoffee.com", "name": "Birch Coffee", "opening_hours": "Mo-Su 07:30-16:00", "phone": "+1 212-686-1444", "website": "https://shop.birchcoffee.com/pages/visit"}}, {"type": "node", "id": 5006681582, "lat": 40.7631938, "lon": -73.9669656, "tags": {"addr:city": "New York", "addr:housenumber": "150", "addr:postcode": "10065", "addr:state": "NY", "addr:street": "East 61st Street", "email": "plasticsdoc10@yahoo.com", "name": "Allure Plastic Surgery", "office": "company", "opening_hours": "Mo-Fr 06:00-20:00", "phone": "+1-212-661-2563", "website": "https://www.newyorkplasticsurgeryallure.com/"}}, {"type": "node", "id": 5090752521, "lat": 40.7635568, "lon": -73.9670208, "tags": {"addr:housenumber": "785", "addr:postcode": "10065", "addr:street": "Lexington Avenue", "amenity": "restaurant", "cuisine": "chinese;sushi", "delivery": "yes", "diet:gluten_free": "yes", "facebook": "LilliandLoo", "name": "Lilli and Loo", "opening_hours": "Mo-Fr 11:00-22:00; Sa, Su 12:00-22:00", "phone": "+1 212-421-7800", "takeaway": "yes", "website": "https://lilliandloonyc.com/"}}, {"type": "node", "id": 5126143714, "lat": 40.7608201, "lon": -73.9706096, "tags": {"addr:city": "New York", "addr:housenumber": "109", "addr:postcode": "10022", "addr:state": "NY", "addr:street": "East 56th Street", "amenity": "restaurant", "cuisine": "steak_house;modern", "name": "Reserve Cut", "opening_hours": "Su 17:00-22:00; Mo-Th 17:00-22:30", "outdoor_seating": "no", "phone": "+1-212-242-4600", "website": "http://reservecut.com"}}, {"type": "node", "id": 5793095927, "lat": 40.7634155, "lon": -73.9654893, "tags": {"amenity": "cafe", "name": "Upper East Caf\u00e9"}}, {"type": "node", "id": 6216923972, "lat": 40.7637974, "lon": -73.9668355, "tags": {"addr:housenumber": "795", "addr:postcode": "10065", "addr:street": "Lexington Avenue", "amenity": "restaurant", "branch": "Lexington", "cuisine": "japanese;fish;sushi", "delivery": "yes", "drink:beer": "yes", "drink:sake": "yes", "drink:wine": "yes", "facebook": "Ajisai-NY-137666386411907", "fax": "+1 212-355-0889", "level": "0", "name": "Ajisai", "opening_hours": "Mo-Sa 11:00-22:00; Su 12:00-23:00", "phone": "+1 212-355-0888", "takeaway": "yes", "website": "https://ajisainy.com/lexington/index.html"}}, {"type": "node", "id": 6216923973, "lat": 40.7636984, "lon": -73.9669147, "tags": {"addr:housenumber": "791", "addr:postcode": "10065", "addr:street": "Lexington Avenue", "amenity": "restaurant", "cocktails": "yes", "contact:email": "info@augustny.com", "contact:instagram": "august_nyc", "contact:phone": "+1 212-935-1433", "contact:twitter": "augustrestony", "contact:website": "https://www.augustny.com", "cuisine": "american", "delivery": "yes", "level": "0", "name": "August", "opening_hours": "Mo-Fr 11:30-22:30; Sa 11:00-22:30; Su 11:00-18:00", "outdoor_seating": "yes", "reservation": "yes", "takeaway": "yes"}}, {"type": "node", "id": 6216927488, "lat": 40.7633888, "lon": -73.9667985, "tags": {"addr:housenumber": "145", "addr:street": "East 61st Street", "amenity": "restaurant", "cuisine": "mexican", "name": "Gina Mexicana", "wheelchair": "yes"}}, {"type": "node", "id": 6217350509, "lat": 40.7638269, "lon": -73.966756, "tags": {"addr:housenumber": "797", "addr:street": "Lexington Avenue", "level": "1", "name": "Clairvoyant Crystal Energy", "office": "consulting", "phone": "+1 917-724-4834"}}, {"type": "node", "id": 6217351141, "lat": 40.7642222, "lon": -73.9665468, "tags": {"addr:housenumber": "807", "addr:postcode": "10065", "addr:street": "Lexington Avenue", "amenity": "restaurant", "cuisine": "korean", "delivery": "yes", "level": "0", "name": "Korean Express", "phone": "+1 212-755-0123", "takeaway": "yes"}}, {"type": "node", "id": 6403171915, "lat": 40.7620986, "lon": -73.9655434, "tags": {"addr:housenumber": "205", "addr:street": "East 60th Street", "name": "Robert A Seigel", "office": "lawyer", "phone": "+1-212-750-1000"}}, {"type": "node", "id": 6403172123, "lat": 40.761859, "lon": -73.9656837, "tags": {"addr:housenumber": "206", "addr:street": "East 60th Street", "amenity": "restaurant", "branch": "60th Street", "changing_table": "yes", "changing_table:location": "unisex_toilet;wheelchair_toilet", "cocktails": "yes", "contact:email": "info@patsyspizzerianyc.com", "contact:facebook": "patsyspizzeria60th", "contact:instagram": "patsyspizzeria60th", "contact:phone": "+1 212-688-9707", "contact:website": "https://www.patsyspizzerianyc.com/patsys-60th", "cuisine": "pizza", "delivery": "yes", "drink:beer": "bottled", "drink:wine": "served", "level": "0;1", "name": "Patsy's Pizzaria", "opening_hours": "Su-Th 11:30-22:00; Fr, Sa 11:30-23:30", "reservation": "yes", "takeaway": "yes", "toilets": "yes", "wheelchair": "limited"}}, {"type": "node", "id": 6789471481, "lat": 40.7646846, "lon": -73.9665681, "tags": {"addr:city": "New York", "addr:housenumber": "822", "addr:postcode": "10065", "addr:state": "NY", "addr:street": "Lexington Avenue", "amenity": "cafe", "branch": "63rd & Lexington", "brand": "Starbucks", "brand:wikidata": "Q37158", "cuisine": "coffee_shop", "delivery": "yes", "internet_access": "wlan", "internet_access:fee": "no", "level": "0", "name": "Starbucks", "official_name": "Starbucks Coffee", "opening_hours": "Mo-Sa 05:30-21:00; Su 06:00-20:00", "phone": "+1 212-572-0984", "takeaway": "yes", "website": "https://www.starbucks.com/store-locator/store/116566/63rd-lexington-822-ave-new-york-ny-100657304-us", "wheelchair": "yes"}}, {"type": "node", "id": 6957573557, "lat": 40.7618779, "lon": -73.9682651, "tags": {"addr:housenumber": "731", "addr:street": "Lexington Avenue", "name": "Bloomberg LP", "office": "company", "website": "https://www.bloomberg.com/"}}, {"type": "node", "id": 7040598185, "lat": 40.7643995, "lon": -73.969084, "tags": {"amenity": "cafe", "name": "Sant Ambroeus"}}, {"type": "node", "id": 7089475612, "lat": 40.760572, "lon": -73.9665084, "tags": {"addr:housenumber": "208", "addr:postcode": "10022", "addr:street": "East 58th Street", "amenity": "pub", "bar": "yes", "cocktails": "yes", "contact:facebook": "https://www.facebook.com/BloomsTavern", "contact:instagram": "http://instagram.com/bloomstavern", "cuisine": "american", "delivery": "yes", "drink:beer": "draught", "drink:wine": "yes", "email": "bloomstavern@gmail.com", "name": "Bloom's Tavern", "opening_hours": "11:00-02:00", "opening_hours:kitchen": "11:00-23:30", "phone": "+1 212-308-9400", "takeaway": "yes", "theme": "irish", "website": "https://bloomsnyc.com/"}}, {"type": "node", "id": 7093547285, "lat": 40.7613327, "lon": -73.9675293, "tags": {"amenity": "restaurant", "name": "H", "name:en": "Hutong dim sum"}}, {"type": "node", "id": 7788530058, "lat": 40.7607173, "lon": -73.964462, "tags": {"barrier": "kerb", "kerb": "lowered", "tactile_paving": "no"}}, {"type": "node", "id": 7788530065, "lat": 40.7612562, "lon": -73.9640544, "tags": {"barrier": "kerb", "kerb": "lowered", "tactile_paving": "yes", "wheelchair": "yes"}}, {"type": "node", "id": 8638470025, "lat": 40.7627893, "lon": -73.9659429, "tags": {"addr:housenumber": "1028", "addr:postcode": "10065", "addr:street": "3rd Avenue", "amenity": "restaurant", "cuisine": "italian", "drink:wine": "served", "facebook": "isleofcapriny", "instagram": "isleofcaprinyc", "name": "Isle of Capri", "opening_hours": "Mo-Sa 12:00-22:00", "outdoor_seating": "yes", "phone": "+1 212-758-1902", "reservation": "recommended", "start_date": "1955", "takeaway": "yes", "website": "https://www.isleofcapriny.com"}}, {"type": "node", "id": 8638490154, "lat": 40.7627899, "lon": -73.9653786, "tags": {"addr:housenumber": "201", "addr:postcode": "10065", "addr:street": "East 61st Street", "amenity": "restaurant", "cuisine": "italian", "facebook": "Scalinatella-Restaurant-117498701601602", "level": "0", "name": "Scalinatella Ristorante", "opening_hours": "Mo-Sa 12:00-14:30, 17:00-23:00; Su 17:00-22:00", "phone": "+1 212-207-8280", "takeaway": "yes"}}, {"type": "node", "id": 9392834430, "lat": 40.7633492, "lon": -73.9685858, "tags": {"addr:city": "New York", "addr:housenumber": "115", "addr:postcode": "10022", "addr:state": "NY", "addr:street": "East 60th Street", "amenity": "restaurant", "cuisine": "mediterranean", "diet:dairy_free": "yes", "diet:gluten_free": "yes", "diet:nut_free": "yes", "diet:vegan": "yes", "diet:vegetarian": "yes", "name": "Amali", "phone": "+1-212-339-8363", "website": "https://www.amalinyc.com"}}, {"type": "node", "id": 9581299655, "lat": 40.7619777, "lon": -73.9672689, "tags": {"amenity": "restaurant", "branch": "New York", "contact:email": "daikanyamanewyork@gmail.com", "contact:fax": "+1 917-262-0265", "contact:instagram": "Daikanyamanyc", "contact:phone": "+1 212-837-1853", "contact:website": "https://www.dkyama.com/copy-of-newton-boston", "cuisine": "japanese", "delivery": "yes", "name": "Daikanyama", "opening_hours": "12:00-19:00", "reservation": "yes", "takeaway": "yes"}}, {"type": "node", "id": 9581299658, "lat": 40.7619879, "lon": -73.9659672, "tags": {"addr:housenumber": "200", "addr:street": "East 60th Street", "amenity": "restaurant", "branch": "Midtown", "cocktails": "yes", "contact:email": "info@anassataverna.com", "contact:facebook": "anassanyc", "contact:instagram": "anassataverna", "contact:phone": "+1 212-371-5200", "contact:website": "https://manhattan.anassataverna.com", "cuisine": "greek", "delivery": "yes", "drink:wine": "served", "level": "0;1", "name": "Anassa Taverna", "opening_hours": "Su, Mo 11:30-22:30; Tu-Th 11:30-23:00; Fr, Sa 11:30-23:30", "reservation": "yes", "takeaway": "yes"}}, {"type": "node", "id": 9586083803, "lat": 40.7636101, "lon": -73.9669772, "tags": {"addr:housenumber": "787", "addr:postcode": "10065", "addr:street": "Lexington Avenue", "amenity": "restaurant", "branch": "New York", "cuisine": "sandwich", "email": "customerservice@boarsheadcafe.com", "level": "0", "name": "Boar's Head Cafe", "opening_hours": "Mo-Fr 08:00-17:00", "phone": "+1 646-682-7688", "website": "https://boarsheadcafe.com"}}, {"type": "node", "id": 9586083804, "lat": 40.7639375, "lon": -73.9667072, "tags": {"addr:city": "New York", "addr:housenumber": "801", "addr:postcode": "10065", "addr:state": "NY", "addr:street": "Lexington Avenue", "amenity": "cafe", "brand": "Joe & The Juice", "brand:wikidata": "Q26221514", "cuisine": "coffee_shop", "level": "0", "name": "Joe & The Juice", "opening_hours": "07:00-20:00", "takeaway": "yes", "website": "https://orders.joejuice.com/store/483ae26f-230d-4ca0-9278-109c45bfc3c0"}}, {"type": "node", "id": 9586584588, "lat": 40.7651445, "lon": -73.9658755, "tags": {"addr:housenumber": "839", "addr:postcode": "10065", "addr:street": "Lexington Avenue", "amenity": "restaurant", "check_date": "2024-02-27", "cuisine": "diner", "delivery": "yes", "diet:vegetarian": "yes", "level": "0", "name": "Eat Here Now", "opening_hours": "Mo-Sa 07:00-21:00; Su 07:00-19:00", "takeaway": "yes", "website": "http://www.eatherenownewyork.com"}}, {"type": "node", "id": 9586659413, "lat": 40.7651701, "lon": -73.9657768, "tags": {"addr:housenumber": "156", "addr:postcode": "10065", "addr:street": "East 64th Street", "amenity": "cafe", "branch": "Chapter II", "brand": "Alice's Tea Cup", "cuisine": "tea", "delivery": "yes", "name": "Alice's Tea Cup", "opening_hours": "Mo-Fr 11:00-18:00; Sa, Su 10:00-18:00", "phone": "+1 212-486-9200", "reservation": "yes", "takeaway": "yes", "website": "https://www.alicesteacup.com/location/alices-tea-cup-chapter-2/"}}, {"type": "node", "id": 9586659414, "lat": 40.7651273, "lon": -73.9656648, "tags": {"addr:housenumber": "160", "addr:postcode": "10065", "addr:street": "East 64th Street", "amenity": "restaurant", "cocktails": "yes", "cuisine": "french", "delivery": "yes", "drink:wine": "served", "level": "0;1", "name": "JoJo", "opening_hours": "We, Th, Fr 17:00-21:30; Sa, Su 12:00-15:00, 17:00-21:30", "operator": "Jean-Georges Vongerichten", "organic": "yes", "phone": "+1 212-223-5656", "reservation": "yes", "takeaway": "yes", "website": "https://www.jojorestaurantnyc.com", "wheelchair": "no"}}, {"type": "node", "id": 10116145746, "lat": 40.7623728, "lon": -73.9694312, "tags": {"addr:city": "New York", "addr:housenumber": "110", "addr:postcode": "10022", "addr:state": "NY", "addr:street": "East 59th Street", "description": "Franchise Lawyer NY", "level": "23", "name": "Rosen Karol Salis, PLLC", "office": "lawyer", "opening_hours": "Mo-Fr 09:00-18:00", "phone": "+1-212-644-6644", "website": "https://www.richardrosenlaw.com/"}}, {"type": "node", "id": 10982264361, "lat": 40.7638169, "lon": -73.9646685, "tags": {"amenity": "cafe", "name": "Black Press Coffee"}}, {"type": "node", "id": 10982324243, "lat": 40.7601469, "lon": -73.9655086, "tags": {"addr:housenumber": "240", "addr:street": "East 58th Street", "amenity": "restaurant", "cuisine": "steak", "level": "0;1", "name": "Club A Steakhouse", "opening_hours": "Tu-Su 17:00-21:00", "outdoor_seating": "no", "phone": "+1-212-688-4190", "self_service": "no", "website": "https://clubasteakhouse.com/", "website:menu": "https://clubasteakhouse.com/menus/"}}, {"type": "node", "id": 10982325313, "lat": 40.7599784, "lon": -73.9650692, "tags": {"addr:housenumber": "250", "addr:street": "East 58th Street", "amenity": "restaurant", "check_date": "2024-09-25", "cuisine": "diner", "level": "0", "name": "Moonstruck Eatery", "toilets": "customers"}}, {"type": "node", "id": 10982332452, "lat": 40.760267, "lon": -73.965753, "tags": {"addr:housenumber": "232", "addr:street": "East 58th Street", "amenity": "restaurant", "cuisine": "indian", "level": "0", "name": "Chola Coastal Indian Cuisine"}}, {"type": "node", "id": 11293344177, "lat": 40.7607684, "lon": -73.9683086, "tags": {"addr:housenumber": "151", "addr:postcode": "10022", "addr:street": "East 57th Street", "amenity": "bar", "contact:email": "info@sidedoornyc.com", "contact:facebook": "SideDoorNYC", "contact:instagram": "sidedoornyc", "cuisine": "gastropub", "fax": "+1 646-422-7163", "happy_hours": "11:30-20:00", "name": "Side Door", "opening_hours": "Mo-We, Sa 11:30-01:00; Th, Fr 11:30-02:00; Su 11:30-24:00", "phone": "+1 646-422-7660", "website": "https://www.sidedoornyc.com/"}}, {"type": "node", "id": 11293344181, "lat": 40.760815, "lon": -73.9683972, "tags": {"addr:housenumber": "149", "addr:postcode": "10022", "addr:street": "East 57th Street", "amenity": "restaurant", "contact:instagram": "adarenyc", "cuisine": "american", "name": "Adare", "opening_hours": "Mo-Sa 17:00-22:30", "phone": "+1 212-477-7070", "reservation": "yes", "reservation:website": "https://www.opentable.com/r/adare-new-york", "website": "http://adarenyc.com/"}}, {"type": "node", "id": 11340800585, "lat": 40.7609828, "lon": -73.9706939, "tags": {"addr:city": "New York", "addr:floor": "9", "addr:housenumber": "445", "addr:postcode": "10022", "addr:state": "NY", "addr:street": "Park Avenue", "name": "Leo Fraser Attorney at Law", "office": "lawyer", "opening_hours": "Mo-Fr 08:00-16:00", "payment:cards": "yes", "payment:cash": "yes", "phone": "+1-646-402-6636", "website": "https://leofraserlaw.com"}}, {"type": "node", "id": 11717251420, "lat": 40.75999, "lon": -73.9705353, "tags": {"amenity": "school", "name": "Sahra & William M Lese Religious School", "religion": "jewish"}}, {"type": "node", "id": 12544932851, "lat": 40.7640978, "lon": -73.9645088, "tags": {"addr:housenumber": "1077", "addr:street": "3rd Avenue", "amenity": "cafe", "brand": "Starbucks", "brand:wikidata": "Q37158", "check_date": "2025-01-30", "cuisine": "coffee_shop", "level": "0", "name": "Starbucks", "official_name": "Starbucks Coffee", "takeaway": "yes", "wheelchair": "yes"}}, {"type": "node", "id": 12605004886, "lat": 40.7649306, "lon": -73.9691763, "tags": {"addr:housenumber": "52", "addr:postcode": "10065", "addr:street": "East 62nd Street", "amenity": "school", "mascot": "Panthers", "name": "Browning School"}}, {"type": "node", "id": 12643554149, "lat": 40.7643541, "lon": -73.9668078, "tags": {"amenity": "restaurant", "cuisine": "italian", "name": "Il Gradino"}}, {"type": "node", "id": 12676888846, "lat": 40.7606166, "lon": -73.9666293, "tags": {"amenity": "restaurant", "bar": "yes", "cuisine": "chinese", "drink:beer": "yes", "drink:wine": "yes", "name": "Land of Plenty", "opening_hours": "Mo-Th 11:00-21:30, Fr 11:00-22:00, Sa 12:00-22:00, Su 12:00-21:30", "phone": "+1-212-308-8788", "takeaway": "yes"}}, {"type": "node", "id": 12847274801, "lat": 40.7613326, "lon": -73.9693689, "tags": {"name": "Moroccanoil", "office": "company", "wikidata": "Q23731014"}}, {"type": "node", "id": 12879187798, "lat": 40.7640945, "lon": -73.9703849, "tags": {"alt_name": "Philippe Chow", "amenity": "restaurant", "bar": "yes", "branch": "Philippe Chow Uptown", "craft": "caterer", "cuisine": "chinese", "drink:beer": "yes", "drink:liquor": "yes", "drink:wine": "yes", "name": "Philippe", "opening_hours": "Mo-Th 12:00-14:30, 17:00-22:30; Fr 12:00-14:30, 17:00-23:00; Sa 15:00-23:00; Su 15:00-22:30", "phone": "+1-212-644-8885", "website": "https://www.philippechow.com/location/philippe-chow-uptown"}}, {"type": "node", "id": 12899700808, "lat": 40.7612315, "lon": -73.9640433}, {"type": "node", "id": 12899700816, "lat": 40.7612484, "lon": -73.9640452}, {"type": "node", "id": 12899700817, "lat": 40.76124, "lon": -73.9640413}, {"type": "node", "id": 12899700818, "lat": 40.7607116, "lon": -73.9644447}, {"type": "node", "id": 12899700819, "lat": 40.7607179, "lon": -73.9644186}, {"type": "node", "id": 12899700820, "lat": 40.7607124, "lon": -73.9644317}, {"type": "node", "id": 12899700821, "lat": 40.7608189, "lon": -73.9647043}, {"type": "node", "id": 12899700822, "lat": 40.7608343, "lon": -73.9646936}, {"type": "node", "id": 12981463706, "lat": 40.7635622, "lon": -73.9677376, "tags": {"addr:city": "New York", "addr:housenumber": "132", "addr:postcode": "10065", "addr:state": "NY", "addr:street": "East 61st Street", "amenity": "restaurant", "check_date": "2025-07-05", "cuisine": "indian", "name": "Javitri", "opening_hours": "Tu-Th 11:30-15:00,17:00-22:30; Fr 11:30-15:00,17:00-23:00; Sa 11:30-23:00; Su 11:30-22:30", "phone": "+1-212-206-7575", "website": "https://www.javitrinyc.com/"}}, {"type": "node", "id": 12995859806, "lat": 40.763845, "lon": -73.9703726, "tags": {"addr:housenumber": "26", "addr:street": "East 60th Street", "amenity": "cafe", "cuisine": "french", "name": "Caf\u00e9 Bilboquet", "opening_hours": "Mo-Fr 07:00-20:00; Sa-Su 08:00-20:00", "phone": "+1-646-869-8660", "website": "https://cafebilboquet.com/"}}, {"type": "node", "id": 12995859902, "lat": 40.7638779, "lon": -73.9704399, "tags": {"addr:housenumber": "22", "addr:street": "East 60th Street", "amenity": "restaurant", "cuisine": "fine_dining;french", "internet_access": "wlan", "name": "Le Bilboquet", "opening_hours": "Mo-Fr 12:00-22:30; Sa 12:00-16:00, 18:00-22:30; Su 11:00-22:00", "phone": "+1-212-751-3036", "website": "https://lebilboquetny.com/"}}, {"type": "node", "id": 13025870768, "lat": 40.7605509, "lon": -73.9675411, "tags": {"addr:housenumber": "954", "addr:postcode": "10022", "addr:street": "3rd Avenue", "amenity": "cafe", "cuisine": "breakfast;sandwich;pastry", "drink:coffee": "yes", "drink:espresso": "yes", "name": "Dan Jones Coffee Bar", "opening_hours": "Mo-Sa 07:00-18:00, Su 08:00-18:00", "phone": "+1-201-488-9872", "website": "https://www.danjonescoffee.com"}}, {"type": "way", "id": 265430681, "nodes": [2711002336, 2711002346, 2711002351, 2711002465, 2711002445, 2711002336], "tags": {"addr:city": "New York", "addr:country": "US", "addr:housenumber": "244", "addr:postcode": "10022", "addr:state": "NY", "addr:street": "East 58th Street", "alt_name": "UN Mission Gabon", "building": "yes", "country": "GA", "diplomatic": "embassy", "email": "info@gabonunmission.com", "embassy": "mission", "fax": "+1-917-675-7485", "height": "20.8", "name": "Permanent Mission of Gabon to the United Nations", "nycdoitt:bin": "1038606", "office": "diplomatic", "official_name": "Permanent Mission of the Gabonese Republic to the United Nations", "phone": "+1-212-686-9720", "target": "UN"}}, {"type": "way", "id": 266236213, "nodes": [2718042711, 2718042715, 2718042745, 2718042740, 2718042741, 2718042739, 2718042711], "tags": {"addr:housenumber": "121", "addr:postcode": "10065", "addr:street": "East 62nd Street", "building": "yes", "consulate": "yes", "country": "BG", "diplomatic": "consulate", "height": "12.9", "name": "Consul General of the Republic of Bulgaria", "nycdoitt:bin": "1042028", "office": "diplomatic", "website": "https://www.mfa.bg/embassies/usagc"}}, {"type": "way", "id": 351201923, "nodes": [3569402510, 7788530065, 12899700816, 12899700817, 12899700808, 357650779, 12899700819, 12899700820, 12899700818, 7788530058, 12899700821, 12899700822, 2717901952, 2717901965, 2717901993, 2717902020, 2717902046, 3569402510], "tags": {"access": "yes", "addr:city": "New York", "addr:housenumber": "254", "addr:postcode": "10022", "addr:state": "NY", "addr:street": "East 60th Street", "check_date": "2025-06-09", "dog": "leashed", "ele": "19", "gnis:feature_id": "2500967", "leisure": "park", "name": "Tramway Plaza", "opening_hours": "sunrise-sunset", "operator": "New York City Department of Parks and Recreation", "operator:short": "NYC Parks", "operator:type": "government", "operator:wikidata": "Q1894232", "website": "https://www.nycgovparks.org/parks/tramway-plaza", "wikidata": "Q49571718"}}]}