{"version": 0.6, "generator": "Overpass API 0.7.62.8 e802775f", "osm3s": {"timestamp_osm_base": "2025-12-01T17:23:13Z", "copyright": "The data included in this document is from www.openstreetmap.org. The data is made available under ODbL."}, "elements": [{"type": "node", "id": 42422056, "lat": 40.7074082, "lon": -74.0076881}, {"type": "node", "id": 272194598, "lat": 40.7095497, "lon": -74.0116948}, {"type": "node", "id": 272194601, "lat": 40.7088871, "lon": -74.0109134, "tags": {"barrier": "kerb", "kerb": "lowered", "tactile_paving": "yes", "wheelchair": "yes"}}, {"type": "node", "id": 272194602, "lat": 40.7091543, "lon": -74.010684}, {"type": "node", "id": 673008458, "lat": 40.7090692, "lon": -74.0048048}, {"type": "node", "id": 673008459, "lat": 40.7089468, "lon": -74.0049863}, {"type": "node", "id": 673008460, "lat": 40.7090186, "lon": -74.0051531}, {"type": "node", "id": 673008461, "lat": 40.7090533, "lon": -74.0051993}, {"type": "node", "id": 673008464, "lat": 40.7092216, "lon": -74.0050281}, {"type": "node", "id": 673008465, "lat": 40.7090815, "lon": -74.0052375}, {"type": "node", "id": 673008466, "lat": 40.7091487, "lon": -74.0052375}, {"type": "node", "id": 895891344, "lat": 40.7127049, "lon": -74.0077176}, {"type": "node", "id": 895891352, "lat": 40.7130579, "lon": -74.00744}, {"type": "node", "id": 895891366, "lat": 40.7132618, "lon": -74.0078876}, {"type": "node", "id": 895891374, "lat": 40.7129286, "lon": -74.0082185}, {"type": "node", "id": 895891414, "lat": 40.7130621, "lon": -74.0080426}, {"type": "node", "id": 1241256442, "lat": 40.7132873, "lon": -74.0035841}, {"type": "node", "id": 1241256515, "lat": 40.7128683, "lon": -74.0041295}, {"type": "node", "id": 1241256529, "lat": 40.7128135, "lon": -74.0040288}, {"type": "node", "id": 1241256531, "lat": 40.7133409, "lon": -74.0036829}, {"type": "node", "id": 1253168806, "lat": 40.7112421, "lon": -74.0055329}, {"type": "node", "id": 1253168807, "lat": 40.7109415, "lon": -74.0060493}, {"type": "node", "id": 1695926392, "lat": 40.7088707, "lon": -74.0081885}, {"type": "node", "id": 1695926394, "lat": 40.7089315, "lon": -74.0081266}, {"type": "node", "id": 2011782281, "lat": 40.7082349, "lon": -74.0076153, "tags": {"addr:city": "New York", "addr:housenumber": "90", "addr:postcode": "10038", "addr:state": "NY", "addr:street": "William Street", "amenity": "cafe", "branch": "90 William Street", "cuisine": "coffee_shop", "delivery": "yes", "indoor_seating": "yes", "level": "0", "name": "BlueSpoon Coffee Co", "opening_hours": "Mo-Fr 07:00-16:00; Sa 08:00-15:00; Su off", "outdoor_seating": "yes", "phone": "+1 212-809-8880", "takeaway": "yes", "wheelchair": "yes"}}, {"type": "node", "id": 2047269475, "lat": 40.7101916, "lon": -74.0079702, "tags": {"addr:city": "New York", "addr:housenumber": "130", "addr:postcode": "10038", "addr:state": "NY", "addr:street": "Fulton Street", "amenity": "cafe", "branch": "Nassau & Fulton", "brand": "Starbucks", "brand:wikidata": "Q37158", "cuisine": "coffee_shop", "diet:vegan": "yes", "drink:soy_milk": "yes", "indoor_seating": "yes", "internet_access": "wlan", "internet_access:fee": "yes", "name": "Starbucks", "official_name": "Starbucks Coffee", "opening_hours": "Mo-Sa 06:00-19:00; Su 06:00-18:30", "outdoor_seating": "no", "phone": "+1 212-962-0439", "takeaway": "yes", "website": "https://www.starbucks.com/store-locator/store/10655/nassau-fulton-130-fulton-street-new-york-ny-100382504-us", "wheelchair": "yes"}}, {"type": "node", "id": 2183010570, "lat": 40.7079524, "lon": -74.0078296, "tags": {"addr:housenumber": "84", "addr:street": "William Street", "air_conditioning": "yes", "amenity": "restaurant", "check_date": "2024-06-27", "cuisine": "sushi", "indoor_seating": "yes", "name": "Blue Ribbon Sushi Bar & Grill", "outdoor_seating": "no", "payment:cash": "yes", "payment:credit_cards": "yes", "reservation": "yes", "smoking": "no"}}, {"type": "node", "id": 2183039959, "lat": 40.7089962, "lon": -74.0090796, "tags": {"addr:city": "New York", "addr:housenumber": "53", "addr:postcode": "10038", "addr:state": "NY", "addr:street": "Nassau Street", "amenity": "restaurant", "check_date:opening_hours": "2023-08-31", "cuisine": "indian", "indoor_seating": "yes", "name": "Raj's Indian Kitchen", "opening_hours:signed": "no", "outdoor_seating": "no", "phone": "+1-646-559-2322"}}, {"type": "node", "id": 2242203980, "lat": 40.7128441, "lon": -74.0039129}, {"type": "node", "id": 2275856089, "lat": 40.7087251, "lon": -74.0103625, "tags": {"addr:housenumber": "140", "addr:street": "Broadway", "name": "Brown Brothers Harriman & Trust", "office": "company", "wheelchair": "yes"}}, {"type": "node", "id": 2348991691, "lat": 40.7135488, "lon": -74.0065782}, {"type": "node", "id": 2723681314, "lat": 40.7634515, "lon": -73.9533888}, {"type": "node", "id": 2723681421, "lat": 40.7642939, "lon": -73.9553918}, {"type": "node", "id": 2723681444, "lat": 40.764515, "lon": -73.9524874}, {"type": "node", "id": 2723681449, "lat": 40.7645699, "lon": -73.953371}, {"type": "node", "id": 2723681460, "lat": 40.7646243, "lon": -73.9527512}, {"type": "node", "id": 2723681462, "lat": 40.7646301, "lon": -73.9561894}, {"type": "node", "id": 2723681463, "lat": 40.7646327, "lon": -73.9535214}, {"type": "node", "id": 2723681464, "lat": 40.7646361, "lon": -73.9536338}, {"type": "node", "id": 2723681478, "lat": 40.7648093, "lon": -73.953198}, {"type": "node", "id": 2723681482, "lat": 40.7648764, "lon": -73.956012}, {"type": "node", "id": 2723681493, "lat": 40.7650482, "lon": -73.9564046}, {"type": "node", "id": 2723681504, "lat": 40.7650544, "lon": -73.9533404}, {"type": "node", "id": 2723681505, "lat": 40.7650584, "lon": -73.955263}, {"type": "node", "id": 2723681506, "lat": 40.7652765, "lon": -73.9562402}, {"type": "node", "id": 2723681591, "lat": 40.7654029, "lon": -73.9545964}, {"type": "node", "id": 2723681620, "lat": 40.7655331, "lon": -73.9549102}, {"type": "node", "id": 2723681669, "lat": 40.7657781, "lon": -73.9554867}, {"type": "node", "id": 2723681696, "lat": 40.7659767, "lon": -73.9566706}, {"type": "node", "id": 2723681712, "lat": 40.7662068, "lon": -73.9565026}, {"type": "node", "id": 2723697657, "lat": 40.7649928, "lon": -73.9531679}, {"type": "node", "id": 2723697672, "lat": 40.7654742, "lon": -73.95282}, {"type": "node", "id": 2723697680, "lat": 40.7656919, "lon": -73.9543697}, {"type": "node", "id": 2808066365, "lat": 40.7129439, "lon": -74.0082063}, {"type": "node", "id": 2808066366, "lat": 40.7129822, "lon": -74.0081761}, {"type": "node", "id": 2808066371, "lat": 40.7130313, "lon": -74.0081374}, {"type": "node", "id": 2808066376, "lat": 40.7130857, "lon": -74.0080946}, {"type": "node", "id": 2808066385, "lat": 40.7132016, "lon": -74.0077548}, {"type": "node", "id": 2821289715, "lat": 40.7129231, "lon": -74.0071139, "tags": {"barrier": "gate"}}, {"type": "node", "id": 2821326392, "lat": 40.7116433, "lon": -74.0066898, "tags": {"addr:city": "New York", "addr:housenumber": "38", "addr:postcode": "10038", "addr:state": "NY", "addr:street": "Park Row", "addr:unit": "4", "amenity": "cafe", "branch": "Park Row at Beekman St", "brand": "Starbucks", "brand:wikidata": "Q37158", "cuisine": "coffee_shop", "internet_access": "wlan", "name": "Starbucks", "official_name": "Starbucks Coffee", "opening_hours": "Mo-Fr 05:30-20:30; Sa 06:30-20:30; Su 07:30-19:30", "phone": "+1 212-608-8073", "ref": "12020", "takeaway": "yes", "website": "https://www.starbucks.com/store-locator/store/12020/park-row-at-beekman-st-38-park-row-4-new-york-ny-100381551-us"}}, {"type": "node", "id": 2823452295, "lat": 40.7117623, "lon": -74.0091837}, {"type": "node", "id": 2823452297, "lat": 40.7118727, "lon": -74.0094127}, {"type": "node", "id": 2823452401, "lat": 40.7119937, "lon": -74.0089911}, {"type": "node", "id": 2823452403, "lat": 40.7120003, "lon": -74.0090057}, {"type": "node", "id": 2823452409, "lat": 40.7120645, "lon": -74.0092531}, {"type": "node", "id": 2823452411, "lat": 40.7121042, "lon": -74.0092201}, {"type": "node", "id": 2824696370, "lat": 40.7112884, "lon": -74.0102748, "tags": {"addr:housenumber": "41", "addr:postcode": "10007", "addr:street": "Church Street", "amenity": "cafe", "name": "\u00c9picerie Boulud", "name:en": "\u00c9picerie Boulud"}}, {"type": "node", "id": 2824697561, "lat": 40.7089682, "lon": -74.0081766}, {"type": "node", "id": 2824697572, "lat": 40.7090436, "lon": -74.0082939}, {"type": "node", "id": 2824697586, "lat": 40.7090885, "lon": -74.0083437}, {"type": "node", "id": 2824697587, "lat": 40.7090941, "lon": -74.00795}, {"type": "node", "id": 2824697588, "lat": 40.7091329, "lon": -74.0080059}, {"type": "node", "id": 2824697701, "lat": 40.7092123, "lon": -74.0081188}, {"type": "node", "id": 2824697702, "lat": 40.7092472, "lon": -74.0081831}, {"type": "node", "id": 2825064871, "lat": 40.7092434, "lon": -74.0078826, "tags": {"addr:city": "New York", "addr:housenumber": "45", "addr:postcode": "10038", "addr:state": "NY", "addr:street": "John Street", "air_conditioning": "yes", "amenity": "cafe", "bar": "no", "branch": "Financial District", "cuisine": "coffee;sandwich;pastry", "delivery": "yes", "diet:gluten_free": "yes", "drive_through": "no", "email": "info@suitednyc.com", "indoor_seating": "yes", "level": "0", "name": "Suited", "opening_hours": "Mo-Fr 07:30-18:00; Sa-Su 08:30-17:00", "outdoor_seating": "yes", "payment:apple_pay": "yes", "payment:cash": "yes", "payment:credit_cards": "yes", "payment:debit_cards": "yes", "reservation": "no", "smoking": "no", "takeaway": "yes", "toilets": "yes", "website": "https://www.suitednyc.com"}}, {"type": "node", "id": 2825065151, "lat": 40.710292, "lon": -74.0058129}, {"type": "node", "id": 2825065164, "lat": 40.7103793, "lon": -74.00595}, {"type": "node", "id": 2825071779, "lat": 40.7079433, "lon": -74.0041839}, {"type": "node", "id": 2825072203, "lat": 40.7082119, "lon": -74.0036161}, {"type": "node", "id": 2825233358, "lat": 40.7110928, "lon": -74.0062054}, {"type": "node", "id": 2825233367, "lat": 40.7112117, "lon": -74.0059094}, {"type": "node", "id": 2825233369, "lat": 40.7112177, "lon": -74.0060191}, {"type": "node", "id": 2825233380, "lat": 40.7113814, "lon": -74.0056686}, {"type": "node", "id": 2825366438, "lat": 40.7126701, "lon": -74.0043185}, {"type": "node", "id": 2897265318, "lat": 40.709679, "lon": -74.0083821, "tags": {"addr:housenumber": "71", "addr:postcode": "10038", "addr:street": "Nassau Street", "amenity": "cafe", "cuisine": "sandwich", "delivery": "yes", "indoor_seating": "yes", "name": "d Elici", "opening_hours": "Mo-Fr 07:00-16:00; Sa 07:30-16:00", "outdoor_seating": "no", "phone": "+1 212-587-5740", "takeaway": "yes", "website": "http://delicinyc.com", "wheelchair": "yes"}}, {"type": "node", "id": 2897270433, "lat": 40.7102382, "lon": -74.0106426, "tags": {"addr:housenumber": "22", "addr:street": "Cortlandt Street", "amenity": "cafe", "brand": "The Coffee Bean & Tea Leaf", "brand:wikidata": "Q1141384", "cuisine": "coffee_shop", "name": "The Coffee Bean & Tea Leaf", "takeaway": "yes"}}, {"type": "node", "id": 2897876736, "lat": 40.70932, "lon": -74.008734, "tags": {"addr:city": "New York", "addr:housenumber": "59", "addr:postcode": "10038", "addr:state": "NY", "addr:street": "Nassau Street", "amenity": "restaurant", "cuisine": "sushi;ramen", "name": "Otani", "name:en": "Otani", "name:ja": "\u5927\u8c37", "opening_hours": "Mo-Th 11:00-22:00;Fr-Sa 11:00-10:30;Su 12:00-22:00", "phone": "+1-212-732-9250", "wheelchair": "no"}}, {"type": "node", "id": 2897876738, "lat": 40.7099489, "lon": -74.0100671, "tags": {"addr:housenumber": "173", "addr:street": "Broadway", "air_conditioning": "yes", "amenity": "restaurant", "check_date": "2024-06-27", "cuisine": "japanese", "delivery": "yes", "name": "Bento Sushi", "opening_hours": "Mo-Fr 10:30-19:00; Sa 11:00-18:00; Su off", "outdoor_seating": "no", "payment:cash": "yes", "payment:credit_cards": "yes", "smoking": "no", "takeaway": "yes", "wheelchair": "yes"}}, {"type": "node", "id": 2962264522, "lat": 40.7081727, "lon": -74.0036988}, {"type": "node", "id": 2962522498, "lat": 40.7087066, "lon": -74.0069715, "tags": {"addr:city": "New York", "addr:housenumber": "110", "addr:postcode": "10038", "addr:street": "William Street", "name": "Stack Exchange NYC", "office": "company"}}, {"type": "node", "id": 2997301176, "lat": 40.7652759, "lon": -73.9557813}, {"type": "node", "id": 2997301177, "lat": 40.7658484, "lon": -73.9564403}, {"type": "node", "id": 3637093539, "lat": 40.7120307, "lon": -74.0097553, "tags": {"addr:city": "New York", "addr:housenumber": "26", "addr:street": "Vesey Street", "amenity": "restaurant", "atm": "yes", "cuisine": "pizza", "indoor_seating": "yes", "internet_access": "wlan", "name": "Stage Door Deli", "outdoor_seating": "no", "phone": "+1-212-791-5252", "wheelchair": "yes"}}, {"type": "node", "id": 3736086995, "lat": 40.7104786, "lon": -74.0058462}, {"type": "node", "id": 3736086997, "lat": 40.7105454, "lon": -74.0059176}, {"type": "node", "id": 3736086998, "lat": 40.7105658, "lon": -74.0058852}, {"type": "node", "id": 3738928726, "lat": 40.7074061, "lon": -74.0076691}, {"type": "node", "id": 3738928727, "lat": 40.7074061, "lon": -74.0076781}, {"type": "node", "id": 3738928728, "lat": 40.7074171, "lon": -74.0076584}, {"type": "node", "id": 3738928730, "lat": 40.7074235, "lon": -74.0076606}, {"type": "node", "id": 3738928737, "lat": 40.7074852, "lon": -74.0078074}, {"type": "node", "id": 3738928739, "lat": 40.7075285, "lon": -74.0077351}, {"type": "node", "id": 3748367336, "lat": 40.7091507, "lon": -74.008281}, {"type": "node", "id": 3784213874, "lat": 40.7081693, "lon": -74.0051431, "tags": {"addr:city": "New York", "addr:housenumber": "28", "addr:postcode": "10038", "addr:street": "Cliff Street", "amenity": "pub", "name": "Ryan Maguire\u2019s", "website": "https://ryanmaguiresalehouse.com/", "wheelchair": "no"}}, {"type": "node", "id": 3809526483, "lat": 40.711811, "lon": -74.0091432}, {"type": "node", "id": 3809526488, "lat": 40.711924, "lon": -74.0090492}, {"type": "node", "id": 3938479922, "lat": 40.712179, "lon": -74.008181, "tags": {"amenity": "cafe", "brand": "Starbucks", "brand:wikidata": "Q37158", "check_date": "2019-11-02", "cuisine": "coffee_shop", "name": "Starbucks", "official_name": "Starbucks Coffee", "takeaway": "yes", "wheelchair": "yes"}}, {"type": "node", "id": 3941994114, "lat": 40.7092551, "lon": -74.0069986, "tags": {"addr:housenumber": "123", "addr:street": "William Street", "government": "social_security", "name": "Social Security Administration", "office": "government", "operator": "Social Security Administration", "operator:short": "SSA", "operator:wikidata": "Q2824618"}}, {"type": "node", "id": 3942249545, "lat": 40.7122331, "lon": -74.0057398, "tags": {"barrier": "gate"}}, {"type": "node", "id": 4140525190, "lat": 40.7097774, "lon": -74.0089148, "tags": {"addr:housenumber": "20", "addr:street": "John Street", "air_conditioning": "yes", "amenity": "restaurant", "bar": "no", "capacity": "16", "cuisine": "thai", "delivery": "yes", "highchair": "no", "indoor_seating": "yes", "microbrewery": "no", "name": "Aroy Dee Thai Kitchen", "opening_hours": "Mo-Su 11:00-21:15", "outdoor_seating": "no", "phone": "+1-212-528-9922", "smoking": "no", "takeaway": "yes", "toilets": "no", "website": "http://www.aroydeethaikitchen.com", "wheelchair": "no"}}, {"type": "node", "id": 4143863428, "lat": 40.7118045, "lon": -74.007671}, {"type": "node", "id": 4143863429, "lat": 40.7120511, "lon": -74.0078112}, {"type": "node", "id": 4143863430, "lat": 40.7119484, "lon": -74.0078125}, {"type": "node", "id": 4143863431, "lat": 40.7118406, "lon": -74.0077409}, {"type": "node", "id": 4143863432, "lat": 40.7118613, "lon": -74.0077619}, {"type": "node", "id": 4143863434, "lat": 40.7138147, "lon": -74.0057529}, {"type": "node", "id": 4143863435, "lat": 40.7118008, "lon": -74.0074803}, {"type": "node", "id": 4143863437, "lat": 40.713796, "lon": -74.005798}, {"type": "node", "id": 4143863438, "lat": 40.7119881, "lon": -74.0078218}, {"type": "node", "id": 4143863439, "lat": 40.711791, "lon": -74.0075887}, {"type": "node", "id": 4143863440, "lat": 40.7121662, "lon": -74.0077516}, {"type": "node", "id": 4143863442, "lat": 40.7119057, "lon": -74.0077911}, {"type": "node", "id": 4143863443, "lat": 40.7117902, "lon": -74.0075444}, {"type": "node", "id": 4143863444, "lat": 40.7133929, "lon": -74.0049077}, {"type": "node", "id": 4143863445, "lat": 40.7134559, "lon": -74.0049641}, {"type": "node", "id": 4143863446, "lat": 40.7139746, "lon": -74.0061814}, {"type": "node", "id": 4143863447, "lat": 40.712109, "lon": -74.0077897}, {"type": "node", "id": 4143863448, "lat": 40.7131395, "lon": -74.0043588}, {"type": "node", "id": 4143863449, "lat": 40.7123209, "lon": -74.0053793}, {"type": "node", "id": 4230862989, "lat": 40.7079924, "lon": -74.0063203, "tags": {"addr:city": "New York", "addr:housenumber": "90", "addr:postcode": "10038", "addr:state": "NY", "addr:street": "John Street", "name": "90 John Street", "office": "company", "toilets:wheelchair": "no", "wheelchair": "yes"}}, {"type": "node", "id": 4387094640, "lat": 40.7081144, "lon": -74.0065237, "tags": {"addr:city": "New York", "addr:housenumber": "90", "addr:postcode": "10038", "addr:street": "John Street", "amenity": "pub", "name": "Stout NYC - FiDi", "opening_hours": "Mo-Tu 11:30-02:00; We-Sa 11:30-04:00; Su 11:30-02:00", "opening_hours:url": "http://www.fidi.stoutnyc.com/faq.php", "operator": "Stout NYC", "phone": "+12122409122", "wheelchair": "no"}}, {"type": "node", "id": 4402057799, "lat": 40.7121142, "lon": -74.0098166, "tags": {"addr:city": "New York", "addr:housenumber": "30", "addr:postcode": "10007", "addr:state": "NY", "addr:street": "Vesey Street", "contact:phone": "+1 212-267-2500", "contact:website": "http://www.braschlegal.com/", "name": "Braschlegal", "office": "lawyer"}}, {"type": "node", "id": 4680481185, "lat": 40.7081387, "lon": -74.010378, "tags": {"addr:city": "New York", "addr:floor": "31", "addr:housenumber": "120", "addr:postcode": "10271", "addr:state": "NY", "addr:street": "Broadway", "addr:unit": "31st Floor", "air_conditioning": "yes", "fax": "+1-212-720-3488", "government": "yes", "name": "New York City Department of City Planning", "office": "government", "operator": "City of New York", "operator:type": "government", "operator:wikidata": "Q3112559", "operator:wikipedia": "en:City of New York", "phone": "+1-212-720-3300", "website": "https://www1.nyc.gov/site/planning/index.page", "wikidata": "Q8354830", "wikipedia": "en:New York City Department of City Planning"}}, {"type": "node", "id": 4849652021, "lat": 40.7112644, "lon": -74.0066645, "tags": {"addr:city": "New York", "addr:housenumber": "5", "addr:street": "Beekman Street", "amenity": "restaurant", "indoor_seating": "yes", "name": "Le Gratin", "outdoor_seating": "no"}}, {"type": "node", "id": 4872760421, "lat": 40.7090684, "lon": -74.0057404, "tags": {"addr:housenumber": "88", "addr:postcode": "10038", "addr:street": "Fulton Street", "amenity": "restaurant", "cuisine": "russian", "name": "Matryoshka", "opening_hours": "Mo-Su 11:30-22:30", "phone": "+1 212-766-8600", "reservation": "yes", "website": "http://www.wallstreetbath.com/restaurant"}}, {"type": "node", "id": 4878838751, "lat": 40.7118822, "lon": -74.0077781}, {"type": "node", "id": 4900466360, "lat": 40.7125347, "lon": -74.0049248}, {"type": "node", "id": 4900466368, "lat": 40.7092784, "lon": -74.0050697}, {"type": "node", "id": 4900466379, "lat": 40.7111702, "lon": -74.0044727}, {"type": "node", "id": 4900466385, "lat": 40.7113734, "lon": -74.004433}, {"type": "node", "id": 4900466392, "lat": 40.7107004, "lon": -74.0038381}, {"type": "node", "id": 4900466407, "lat": 40.7126132, "lon": -74.0048205}, {"type": "node", "id": 4900466410, "lat": 40.7091702, "lon": -74.0052179}, {"type": "node", "id": 4900466418, "lat": 40.7108775, "lon": -74.0037344}, {"type": "node", "id": 4900467934, "lat": 40.7092765, "lon": -74.0051024}, {"type": "node", "id": 4927169621, "lat": 40.7089459, "lon": -74.0054867, "tags": {"addr:housenumber": "76", "addr:postcode": "10038", "addr:street": "Fulton Street", "amenity": "restaurant", "check_date": "2024-02-10", "cuisine": "caribbean", "level": "0", "name": "Sophie's Cuban Cuisine", "opening_hours": "Mo-Fr 10:30-21:00; Sa-Su 12:00-20:30", "phone": "+1-212-608-6769", "website": "https://www.sophiescuban.com/location/fulton-street/"}}, {"type": "node", "id": 4937245524, "lat": 40.7090349, "lon": -74.0046918, "tags": {"addr:housenumber": "77", "addr:postcode": "10038", "addr:street": "Fulton Street", "amenity": "restaurant", "cuisine": "irish", "name": "T.J. Byrnes", "opening_hours": "Mo-Su 11:00-04:00", "phone": "+12124064551", "wheelchair": "yes"}}, {"type": "node", "id": 4937245525, "lat": 40.7088587, "lon": -74.0040288, "tags": {"addr:housenumber": "80", "addr:postcode": "10038", "addr:street": "Beekman Street", "alt_name": "Squire Coffee Shop", "amenity": "restaurant", "cuisine": "diner", "delivery": "yes", "drink:beer": "yes", "drink:coffee": "yes", "drink:wine": "yes", "fax": "+1-212-285-2602", "name": "Squires Diner", "opening_hours": "Mo-Su 06:00-21:00", "outdoor_seating": "yes", "phone": "+1-212-285-2600", "website": "https://squiresdiner.com"}}, {"type": "node", "id": 4985377331, "lat": 40.7078105, "lon": -74.0057581, "tags": {"addr:city": "New York", "addr:housenumber": "111", "addr:postcode": "10038", "addr:state": "NY", "addr:street": "John Street", "name": "Transportation Alternatives", "office": "ngo"}}, {"type": "node", "id": 5126272537, "lat": 40.7130523, "lon": -74.0096369, "tags": {"addr:postcode": "10007", "amenity": "cafe", "brand": "Aroma Espresso Bar", "brand:wikidata": "Q2909872", "cuisine": "coffee_shop", "name": "Aroma Espresso Bar", "name:en": "Aroma Espresso Bar", "takeaway": "yes"}}, {"type": "node", "id": 5135848733, "lat": 40.7078716, "lon": -74.0102438, "tags": {"addr:city": "New York", "addr:housenumber": "120", "addr:postcode": "10271", "addr:state": "NY", "addr:street": "Broadway", "amenity": "restaurant", "bar": "yes", "indoor_seating": "yes", "name": "The Capital Grille", "opening_hours": "Mo-Fr 11:30-10:00, Sa 05:00-10:00, Su closed", "outdoor_seating": "no", "phone": "+1-212-374-1811", "reservation": "yes", "website": "https://www.thecapitalgrille.com/home", "wheelchair": "limited"}}, {"type": "node", "id": 5178500822, "lat": 40.7108198, "lon": -74.0069468, "tags": {"addr:city": "New York", "addr:housenumber": "118", "addr:postcode": "10038", "addr:street": "Nassau Street", "amenity": "bar", "indoor_seating": "yes", "name": "Nassau Bar", "outdoor_seating": "no", "wheelchair": "yes"}}, {"type": "node", "id": 5334051621, "lat": 40.7087364, "lon": -74.0069962, "tags": {"addr:housenumber": "110", "addr:street": "William Street", "amenity": "cafe", "name": "Voyager Espresso"}}, {"type": "node", "id": 5383989328, "lat": 40.7091871, "lon": -74.0088819, "tags": {"addr:housenumber": "59", "addr:postcode": "10038", "addr:street": "Nassau Street", "air_conditioning": "no", "amenity": "restaurant", "bar": "no", "check_date": "2024-06-27", "cuisine": "italian", "delivery": "yes", "dish": "pizza", "highchair": "yes", "name": "Friendly Gourmet Pizza", "opening_hours": "Mo-Fr 06:30-18:00", "outdoor_seating": "yes", "payment:cash": "yes", "payment:credit_cards": "yes", "phone": "+1 212-791-1800", "takeaway": "yes", "website": "https://www.friendlypizzeria.com", "wheelchair": "yes"}}, {"type": "node", "id": 5383989329, "lat": 40.7110282, "lon": -74.0095711, "tags": {"addr:housenumber": "160", "addr:street": "Fulton Street", "amenity": "restaurant", "name": "Nobu Nobu"}}, {"type": "node", "id": 5383989510, "lat": 40.7102149, "lon": -74.0075111, "tags": {"addr:housenumber": "129", "addr:street": "Fulton Street", "name": "Coalition for the Homeless", "office": "ngo"}}, {"type": "node", "id": 5400495618, "lat": 40.7127376, "lon": -74.0085794, "tags": {"addr:housenumber": "22", "addr:street": "Park Place", "addr:zip": "10007", "amenity": "restaurant", "cuisine": "breakfast", "name": "B & Co", "seats": "yes", "toilets": "yes"}}, {"type": "node", "id": 5401978050, "lat": 40.7098472, "lon": -74.0080033, "tags": {"amenity": "restaurant", "check_date": "2023-10-12", "cuisine": "thai", "happy_hours": "Mo-Su 16:00-19:00", "name": "Imm"}}, {"type": "node", "id": 5520006583, "lat": 40.7133542, "lon": -74.0058606}, {"type": "node", "id": 5520006584, "lat": 40.7133097, "lon": -74.0058963}, {"type": "node", "id": 5520006585, "lat": 40.7133941, "lon": -74.0060793}, {"type": "node", "id": 5520006586, "lat": 40.713517, "lon": -74.0059807}, {"type": "node", "id": 5520006587, "lat": 40.7135193, "lon": -74.0059858}, {"type": "node", "id": 5520006588, "lat": 40.713647, "lon": -74.0058835}, {"type": "node", "id": 5520006589, "lat": 40.7136447, "lon": -74.0058785}, {"type": "node", "id": 5520006590, "lat": 40.7137599, "lon": -74.0057863}, {"type": "node", "id": 5520006591, "lat": 40.7136746, "lon": -74.0056009}, {"type": "node", "id": 5520006592, "lat": 40.7136339, "lon": -74.0056335}, {"type": "node", "id": 5520006593, "lat": 40.713581, "lon": -74.0055185}, {"type": "node", "id": 5520006594, "lat": 40.7136201, "lon": -74.0054872}, {"type": "node", "id": 5520006595, "lat": 40.7135389, "lon": -74.0053109}, {"type": "node", "id": 5520006596, "lat": 40.713499, "lon": -74.0053428}, {"type": "node", "id": 5520006597, "lat": 40.7134459, "lon": -74.0052273}, {"type": "node", "id": 5520006598, "lat": 40.7134899, "lon": -74.005192}, {"type": "node", "id": 5520006599, "lat": 40.7134041, "lon": -74.0050055}, {"type": "node", "id": 5520006600, "lat": 40.7132851, "lon": -74.0051008}, {"type": "node", "id": 5520006601, "lat": 40.7132821, "lon": -74.0050944}, {"type": "node", "id": 5520006603, "lat": 40.713155, "lon": -74.0051963}, {"type": "node", "id": 5520006604, "lat": 40.7131572, "lon": -74.0052012}, {"type": "node", "id": 5520006605, "lat": 40.713038, "lon": -74.0052969}, {"type": "node", "id": 5520006606, "lat": 40.713123, "lon": -74.0054812}, {"type": "node", "id": 5520006607, "lat": 40.7131631, "lon": -74.005449}, {"type": "node", "id": 5520006608, "lat": 40.7132141, "lon": -74.0055596}, {"type": "node", "id": 5520006609, "lat": 40.713103, "lon": -74.0056487}, {"type": "node", "id": 5520006610, "lat": 40.7131882, "lon": -74.0058334}, {"type": "node", "id": 5520006611, "lat": 40.7133002, "lon": -74.0057435}, {"type": "node", "id": 5520006612, "lat": 40.7135817, "lon": -74.0054039, "tags": {"entrance": "main"}}, {"type": "node", "id": 5561000664, "lat": 40.7086517, "lon": -74.010158, "tags": {"addr:city": "New York", "addr:housenumber": "140", "addr:postcode": "10004", "addr:state": "NY", "addr:street": "Broadway", "addr:unit": "Suite 46", "contact:facebook": "https://www.facebook.com/LevoritzLawGroup/", "name": "The Levoritz Law Firm", "office": "lawyer", "phone": "+1-929-207-6637", "website": "https://levoritzlaw.com/"}}, {"type": "node", "id": 5799510957, "lat": 40.7109248, "lon": -74.0078117, "tags": {"addr:city": "New York", "addr:housenumber": "17", "addr:postcode": "10038", "addr:street": "Ann Street", "amenity": "restaurant", "cuisine": "italian", "indoor_seating": "yes", "name": "Sandwich House", "outdoor_seating": "no", "phone": "+1-212-566-6886", "wheelchair": "yes"}}, {"type": "node", "id": 5799511379, "lat": 40.7109559, "lon": -74.0078671, "tags": {"addr:city": "New York", "addr:housenumber": "15", "addr:postcode": "10038", "addr:street": "Ann Street", "amenity": "restaurant", "name": "Omar's Mediterranean Cuisine"}}, {"type": "node", "id": 5801870934, "lat": 40.7078151, "lon": -74.0086882, "tags": {"addr:housenumber": "28", "addr:street": "Liberty Street", "amenity": "bar", "cocktails": "yes", "contact:instagram": "manhatta_nyc", "drink:beer": "draught; bottled", "drink:wine": "served", "email": "info@manhattarestaurant.com", "level": "59", "name": "Manhatta", "phone": "+1 212-230-5788", "reservation": "yes", "website": "https://www.manhattarestaurant.com", "wheelchair": "limited"}}, {"type": "node", "id": 5978556725, "lat": 40.7090861, "lon": -74.0070176, "tags": {"amenity": "cafe", "name": "Open Kitchen", "wheelchair": "yes"}}, {"type": "node", "id": 5978556730, "lat": 40.7078356, "lon": -74.006959, "tags": {"addr:housenumber": "15", "addr:street": "Gold Street", "amenity": "restaurant", "cuisine": "italian", "indoor_seating": "yes", "name": "Felice", "outdoor_seating": "yes", "wheelchair": "yes"}}, {"type": "node", "id": 5978556732, "lat": 40.711246, "lon": -74.0063142, "tags": {"addr:city": "New York", "addr:housenumber": "140", "addr:postcode": "10038", "addr:state": "NY", "addr:street": "Nassau Street", "amenity": "cafe", "name": "Variety Coffee", "phone": "+1-212-267-0207", "website": "https://varietycoffeeroasters.com/"}}, {"type": "node", "id": 5978556771, "lat": 40.71016, "lon": -74.0057517, "tags": {"addr:city": "New York", "addr:housenumber": "164", "addr:postcode": "10038", "addr:street": "William Street", "amenity": "restaurant", "cuisine": "pizza", "indoor_seating": "yes", "name": "Rosella\u2019s Pizza", "opening_hours": "Mo-Sa 10:00-21:30; Su 11:00-21:30", "outdoor_seating": "no", "phone": "+1 212 619 8260", "website": "https://www.rosellaspizzany.com/"}}, {"type": "node", "id": 5978556807, "lat": 40.7102157, "lon": -74.0057019, "tags": {"addr:city": "New York", "addr:housenumber": "166", "addr:street": "William Street", "amenity": "cafe", "name": "Dante\u2019s", "website": "http://www.dantesnyc.com/"}}, {"type": "node", "id": 5978557687, "lat": 40.7093091, "lon": -74.0068103, "tags": {"amenity": "cafe", "cuisine": "japanese", "name": "BentOn Cafe", "wheelchair": "yes"}}, {"type": "node", "id": 5978557699, "lat": 40.7102896, "lon": -74.0069766, "tags": {"addr:housenumber": "46", "addr:street": "Ann Street", "amenity": "bar", "name": "Ainsworth", "wheelchair": "yes"}}, {"type": "node", "id": 5978558001, "lat": 40.7083708, "lon": -74.0074301, "tags": {"addr:city": "New York", "addr:housenumber": "100", "addr:postcode": "10038", "addr:state": "NY", "addr:street": "William Street", "amenity": "cafe", "branch": "100 William Street", "brand": "Starbucks", "brand:wikidata": "Q37158", "cuisine": "coffee_shop", "name": "Starbucks", "official_name": "Starbucks Coffee", "phone": "+1 212-509-9709", "ref": "16844", "takeaway": "yes", "toilets:wheelchair": "no", "website": "https://www.starbucks.com/store-locator/store/16844/100-william-street-100-william-street-new-york-ny-100384512-us", "wheelchair": "yes"}}, {"type": "node", "id": 5978558886, "lat": 40.7082492, "lon": -74.0101892, "tags": {"amenity": "cafe", "name": "Manon Cafe"}}, {"type": "node", "id": 5978745697, "lat": 40.7093537, "lon": -74.008, "tags": {"amenity": "restaurant", "cuisine": "mediterranean", "indoor_seating": "yes", "name": "Nish Nush", "outdoor_seating": "yes"}}, {"type": "node", "id": 5978745715, "lat": 40.7091806, "lon": -74.004849, "tags": {"addr:housenumber": "66", "addr:street": "Gold Street", "amenity": "restaurant", "branch": "Fulton", "cuisine": "pizza", "delivery": "yes", "drink:beer": "yes", "drink:wine": "yes", "email": "info@kestepizzeria.com", "name": "Kest\u00e9 Pizza e Vino", "opening_hours": "Mo-Th 11:30-15:30, 04:30-22:00; Fr, Sa 11:30-23:00; Su 11:30-22:00", "phone": "+1 212-9693-9030", "reservation": "yes", "website": "https://kestepizzeria.com/en/keste-fulton/", "wheelchair": "yes"}}, {"type": "node", "id": 5978795186, "lat": 40.7108219, "lon": -74.0076301, "tags": {"addr:city": "New York", "addr:housenumber": "21", "addr:street": "Ann Street", "amenity": "restaurant", "bar": "yes", "catering": "yes", "cuisine": "italian", "diet:gluten_free": "yes", "diet:vegan": "yes", "diet:vegetarian": "yes", "drink:beer": "yes", "drink:wine": "yes", "indoor_seating": "yes", "name": "Da Claudio", "opening_hours": "Mo-Th 11:30-15:00, 17:00-22:00; Fr-Sa 17:00-23:00; Su 17:00-22:00", "outdoor_seating": "yes", "takeaway": "yes", "website": "https://www.daclaudionyc.com/", "wheelchair": "yes"}}, {"type": "node", "id": 5980089186, "lat": 40.709609, "lon": -74.0093344, "tags": {"addr:city": "New York", "addr:housenumber": "9", "addr:postcode": "10038", "addr:state": "NY", "addr:street": "Maiden Lane", "air_conditioning": "yes", "amenity": "restaurant", "check_date": "2024-06-27", "cuisine": "coffee_shop;cafe;sandwich", "description": "Has at least 1 wall outlet to charge phone", "drive_through": "no", "highchair": "no", "indoor_seating": "yes", "internet_access": "yes", "internet_access:fee": "no", "name": "La Parisienne", "opening_hours": "Mo-Fr 07:30-19:30; Sa-Su 08:00-17:00", "outdoor_seating": "yes", "payment:cash": "yes", "payment:credit_cards": "yes", "reservation": "yes", "smoking": "no", "takeaway": "yes", "wheelchair": "yes"}}, {"type": "node", "id": 6074315900, "lat": 40.7108654, "lon": -74.0059234, "tags": {"addr:city": "New York", "addr:housenumber": "8", "addr:postcode": "10038", "addr:street": "Spruce Street", "amenity": "cafe", "branch": "Financial District", "drink:coffee": "yes", "drink:tea": "yes", "email": "8sprucest@birchcoffee.com", "name": "Birch Coffee", "opening_hours": "Mo-Su 07:00-20:00", "phone": "+1 212-686-1444", "website": "http://birchcoffee.com/locations/wall-street/"}}, {"type": "node", "id": 6150654567, "lat": 40.7118402, "lon": -74.0059383}, {"type": "node", "id": 6150654568, "lat": 40.7118616, "lon": -74.005907}, {"type": "node", "id": 6150654569, "lat": 40.7119434, "lon": -74.0053073}, {"type": "node", "id": 6150654570, "lat": 40.7119284, "lon": -74.0052258}, {"type": "node", "id": 6150654571, "lat": 40.7118666, "lon": -74.0051957}, {"type": "node", "id": 6150654572, "lat": 40.7115938, "lon": -74.0056974}, {"type": "node", "id": 6179753683, "lat": 40.7078003, "lon": -74.0077463, "tags": {"addr:housenumber": "75", "addr:postcode": "10038", "addr:street": "Maiden Lane", "air_conditioning": "yes", "amenity": "restaurant", "bar": "no", "branch": "Financial District", "brand": "Ta\u00efm", "check_date": "2024-06-27", "cuisine": "mediterranean", "delivery": "yes", "diet:vegan": "yes", "diet:vegetarian": "yes", "dish": "falafel", "highchair": "yes", "indoor_seating": "yes", "level": "0", "name": "Ta\u00efm", "opening_hours": "11:00-20:30", "outdoor_seating": "no", "payment:cash": "yes", "payment:credit_cards": "yes", "phone": "+1 212-226-1248", "takeaway": "yes", "website": "https://taimfalafel.com/", "wheelchair": "yes"}}, {"type": "node", "id": 6179821278, "lat": 40.7099202, "lon": -74.0091218, "tags": {"addr:housenumber": "12", "addr:postcode": "10038", "addr:street": "John Street", "amenity": "cafe", "brand": "CoCo", "brand:wikidata": "Q65084369", "cuisine": "bubble_tea", "indoor_seating": "yes", "name": "CoCo Fresh Tea & Juice", "opening_hours": "Mo-Fr 10:00-22:00; Sa, Su 10:00-21:00", "outdoor_seating": "no", "phone": "+1-212-349-1800", "seats": "8", "short_name": "CoCo", "takeaway": "yes", "website": "http://en.coco-tea.com/store-locator/store/359", "wheelchair": "yes"}}, {"type": "node", "id": 6262915538, "lat": 40.7079013, "lon": -74.0080225, "tags": {"barrier": "kerb", "kerb": "lowered", "tactile_paving": "yes", "wheelchair": "yes"}}, {"type": "node", "id": 6262915540, "lat": 40.7077381, "lon": -74.0081847}, {"type": "node", "id": 6262915542, "lat": 40.7078946, "lon": -74.0080527}, {"type": "node", "id": 6262915546, "lat": 40.7078904, "lon": -74.0079978}, {"type": "node", "id": 6262915550, "lat": 40.707762, "lon": -74.0081828, "tags": {"barrier": "kerb", "kerb": "raised", "tactile_paving": "no"}}, {"type": "node", "id": 6264476981, "lat": 40.7105042, "lon": -74.0091441, "tags": {"addr:housenumber": "200", "addr:postcode": "10038", "addr:street": "Fulton Street", "air_conditioning": "yes", "amenity": "cafe", "branch": "Fulton Center", "brand": "Gong Cha", "brand:wikidata": "Q5581670", "brand:zh": "\u8ca2\u8336", "cuisine": "bubble_tea", "int_name": "Gong Cha", "level": "0", "name": "Gong Cha", "name:zh": "\u8ca2\u8336", "opening_hours": "10:30-21:30", "takeaway": "yes", "toilets:wheelchair": "no", "website": "http://www.gongchausa.com/NY-Fulton-Center/", "wheelchair": "yes"}}, {"type": "node", "id": 6268489254, "lat": 40.7082737, "lon": -74.010834, "tags": {"addr:city": "New York", "addr:housenumber": "120", "addr:postcode": "10271", "addr:state": "NY", "addr:street": "Broadway", "addr:unit": "6th Fl.", "air_conditioning": "yes", "name": "Handel Architects", "office": "architect", "opening_hours": "Mo-Fr 09:00-18:00", "website": "https://handelarchitects.com"}}, {"type": "node", "id": 6408432085, "lat": 40.7119425, "lon": -74.0085786, "tags": {"addr:city": "New York", "addr:housenumber": "225", "addr:postcode": "10007", "addr:state": "NY", "addr:street": "Broadway", "addr:unit": "37th Floor", "name": "Law Offices of Bruce D Katz & Associates", "office": "lawyer", "opening_hours": "Mo-Fr 09:00-17:00", "phone": "+1-212-233-3434", "website": "https://brucedkatzlaw.com/"}}, {"type": "node", "id": 6566728787, "lat": 40.7098464, "lon": -74.0090195, "tags": {"amenity": "restaurant", "indoor_seating": "yes", "name": "Go! Go! Curry", "outdoor_seating": "no"}}, {"type": "node", "id": 6566940485, "lat": 40.7091007, "lon": -74.0091471, "tags": {"amenity": "restaurant", "check_date:opening_hours": "2023-08-16", "indoor_seating": "yes", "name": "Kati Roll Company", "opening_hours:signed": "no", "outdoor_seating": "yes"}}, {"type": "node", "id": 6762730394, "lat": 40.7131141, "lon": -74.0043484}, {"type": "node", "id": 6762730395, "lat": 40.7131222, "lon": -74.0043472}, {"type": "node", "id": 7138157354, "lat": 40.70773, "lon": -74.0081776, "tags": {"barrier": "kerb", "kerb": "lowered", "tactile_paving": "yes"}}, {"type": "node", "id": 7281331968, "lat": 40.7124569, "lon": -74.0050536}, {"type": "node", "id": 7373386553, "lat": 40.7129115, "lon": -74.0045395}, {"type": "node", "id": 7373386555, "lat": 40.7126796, "lon": -74.0047422}, {"type": "node", "id": 7477081378, "lat": 40.7108094, "lon": -74.0050856}, {"type": "node", "id": 7477081383, "lat": 40.7104325, "lon": -74.0055085}, {"type": "node", "id": 7477097785, "lat": 40.7107336, "lon": -74.0052148}, {"type": "node", "id": 8112276466, "lat": 40.7095422, "lon": -74.0074153, "tags": {"addr:city": "New York", "addr:housenumber": "15", "addr:postcode": "10038", "addr:state": "NY", "addr:street": "Dutch Street", "addr:unit": "A", "amenity": "school", "name": "Downtown Little School", "website": "https://www.downtownlittleschool.org/"}}, {"type": "node", "id": 8262309110, "lat": 40.7124104, "lon": -74.0075447}, {"type": "node", "id": 8262309111, "lat": 40.7124808, "lon": -74.007483}, {"type": "node", "id": 8262309115, "lat": 40.7119101, "lon": -74.007036}, {"type": "node", "id": 8262309116, "lat": 40.7118227, "lon": -74.007718}, {"type": "node", "id": 8262309153, "lat": 40.7124347, "lon": -74.0075236}, {"type": "node", "id": 8262309166, "lat": 40.7124599, "lon": -74.0075012}, {"type": "node", "id": 8262309182, "lat": 40.7119177, "lon": -74.007002}, {"type": "node", "id": 8262309190, "lat": 40.7119551, "lon": -74.0068531}, {"type": "node", "id": 8262309192, "lat": 40.7128475, "lon": -74.0071796}, {"type": "node", "id": 8262309208, "lat": 40.712221, "lon": -74.0057864}, {"type": "node", "id": 8262309245, "lat": 40.7129453, "lon": -74.0045109}, {"type": "node", "id": 8262309324, "lat": 40.7131947, "lon": -74.0044829}, {"type": "node", "id": 8262309719, "lat": 40.7090323, "lon": -74.0048041}, {"type": "node", "id": 8262309720, "lat": 40.7089509, "lon": -74.0050673}, {"type": "node", "id": 8262309745, "lat": 40.7097692, "lon": -74.004862, "tags": {"barrier": "kerb", "kerb": "lowered", "tactile_paving": "yes", "wheelchair": "yes"}}, {"type": "node", "id": 8262309747, "lat": 40.7101995, "lon": -74.0043695, "tags": {"barrier": "kerb", "kerb": "lowered", "tactile_paving": "yes", "wheelchair": "yes"}}, {"type": "node", "id": 8262936617, "lat": 40.7095801, "lon": -74.0116553, "tags": {"barrier": "kerb", "kerb": "lowered", "tactile_paving": "yes", "wheelchair": "yes"}}, {"type": "node", "id": 8262936618, "lat": 40.7093169, "lon": -74.0118366, "tags": {"barrier": "kerb", "kerb": "lowered", "tactile_paving": "yes", "wheelchair": "yes"}}, {"type": "node", "id": 8281893493, "lat": 40.7103113, "lon": -74.0043085}, {"type": "node", "id": 8281893494, "lat": 40.7102985, "lon": -74.0042953}, {"type": "node", "id": 8281893495, "lat": 40.710292, "lon": -74.0042704}, {"type": "node", "id": 8281893496, "lat": 40.7102923, "lon": -74.0042571}, {"type": "node", "id": 8281893497, "lat": 40.7103002, "lon": -74.0042315}, {"type": "node", "id": 8281893498, "lat": 40.7103222, "lon": -74.0042045}, {"type": "node", "id": 8281893499, "lat": 40.7105114, "lon": -74.0039956}, {"type": "node", "id": 8281893500, "lat": 40.7105977, "lon": -74.0039105}, {"type": "node", "id": 8281893501, "lat": 40.7106706, "lon": -74.0038562}, {"type": "node", "id": 8281893503, "lat": 40.7110872, "lon": -74.004466}, {"type": "node", "id": 8281893504, "lat": 40.7111012, "lon": -74.0044473}, {"type": "node", "id": 8281893505, "lat": 40.7111316, "lon": -74.0044621}, {"type": "node", "id": 8281893506, "lat": 40.7112087, "lon": -74.004476}, {"type": "node", "id": 8281893507, "lat": 40.7112611, "lon": -74.0044754}, {"type": "node", "id": 8281893508, "lat": 40.7113041, "lon": -74.0044691}, {"type": "node", "id": 8281893510, "lat": 40.711491, "lon": -74.0046189}, {"type": "node", "id": 8281893511, "lat": 40.7118593, "lon": -74.0051843}, {"type": "node", "id": 8281922017, "lat": 40.7119388, "lon": -74.0052632}, {"type": "node", "id": 8281922018, "lat": 40.711942, "lon": -74.0053478}, {"type": "node", "id": 8281922023, "lat": 40.7118283, "lon": -74.0059377}, {"type": "node", "id": 8281922024, "lat": 40.7118146, "lon": -74.0059304}, {"type": "node", "id": 8281922025, "lat": 40.7117216, "lon": -74.0058311, "tags": {"barrier": "kerb", "kerb": "lowered", "tactile_paving": "no", "wheelchair": "yes"}}, {"type": "node", "id": 8281922038, "lat": 40.7113422, "lon": -74.0044524}, {"type": "node", "id": 8281922042, "lat": 40.711003, "lon": -74.0037764}, {"type": "node", "id": 8281922043, "lat": 40.7109489, "lon": -74.003716}, {"type": "node", "id": 8281922096, "lat": 40.7116774, "lon": -74.0057832, "tags": {"barrier": "kerb", "kerb": "lowered", "tactile_paving": "yes", "wheelchair": "yes"}}, {"type": "node", "id": 8281922098, "lat": 40.7118501, "lon": -74.0059319, "tags": {"barrier": "kerb", "kerb": "lowered", "tactile_paving": "yes", "wheelchair": "yes"}}, {"type": "node", "id": 8333736462, "lat": 40.7126108, "lon": -74.008134, "tags": {"amenity": "bar", "name": "Five & Dime"}}, {"type": "node", "id": 8333740850, "lat": 40.7100736, "lon": -74.0055035, "tags": {"amenity": "restaurant", "indoor_seating": "yes", "name": "Cater to You", "outdoor_seating": "no"}}, {"type": "node", "id": 8669186117, "lat": 40.7087191, "lon": -74.0053207, "tags": {"amenity": "restaurant", "cuisine": "pizza", "name": "Justino\u2019s"}}, {"type": "node", "id": 8791888441, "lat": 40.7124137, "lon": -74.0104582, "tags": {"addr:housenumber": "90", "addr:postcode": "10008", "addr:street": "Church Street", "name": "Ester Digital", "office": "it", "opening_hours": "Mo-Fr 10:00-18:00", "website": "https://ester.co"}}, {"type": "node", "id": 8806749196, "lat": 40.7098346, "lon": -74.0091022, "tags": {"addr:city": "New York", "addr:housenumber": "12", "addr:postcode": "10038", "addr:street": "John Street", "contact:website": "https://cleaningexec.com/", "email": "support@cleaningexec.com", "name": "Cleaning Exec Cleaning Services", "office": "company", "phone": "+1-212-457-8699"}}, {"type": "node", "id": 9149294696, "lat": 40.7095464, "lon": -74.0092712, "tags": {"air_conditioning": "yes", "amenity": "restaurant", "bar": "yes", "check_date": "2024-06-27", "cuisine": "american", "indoor_seating": "yes", "name": "The Malt House", "outdoor_seating": "yes", "payment:cash": "yes", "payment:credit_cards": "yes", "reservation": "yes", "takeaway": "yes", "wheelchair": "yes"}}, {"type": "node", "id": 9286572691, "lat": 40.7095655, "lon": -74.0082984, "tags": {"addr:city": "New York", "addr:housenumber": "72", "addr:postcode": "10038", "addr:state": "NY", "addr:street": "Nassau Street", "amenity": "restaurant", "cuisine": "pizza", "indoor_seating": "no", "name": "2 Bros Pizza", "opening_hours": "Mo-We 10:30-01:00; Th-Sa 10:30-03:00; Su 10:30-19:30", "outdoor_seating": "no", "phone": "+1 917-699-7689", "takeaway": "only", "website": "https://www.twobrospizzaofnewyork.com/"}}, {"type": "node", "id": 9364517394, "lat": 40.7122452, "lon": -74.0056891}, {"type": "node", "id": 9364517405, "lat": 40.7118587, "lon": -74.0059197}, {"type": "node", "id": 9364519628, "lat": 40.7119127, "lon": -74.0051906}, {"type": "node", "id": 9364519629, "lat": 40.7118949, "lon": -74.0051572}, {"type": "node", "id": 9364519631, "lat": 40.7118761, "lon": -74.0051811}, {"type": "node", "id": 9368526986, "lat": 40.7119267, "lon": -74.0069662}, {"type": "node", "id": 9368527001, "lat": 40.7119445, "lon": -74.0068939}, {"type": "node", "id": 9368527037, "lat": 40.7117945, "lon": -74.0076313}, {"type": "node", "id": 9368527038, "lat": 40.7117944, "lon": -74.0075129}, {"type": "node", "id": 9368527040, "lat": 40.7121033, "lon": -74.0062575}, {"type": "node", "id": 9368527053, "lat": 40.7119643, "lon": -74.0068158}, {"type": "node", "id": 9368527055, "lat": 40.7121141, "lon": -74.0062171, "tags": {"barrier": "gate"}}, {"type": "node", "id": 9368527057, "lat": 40.7121994, "lon": -74.0058719}, {"type": "node", "id": 9368527059, "lat": 40.712124, "lon": -74.0061762}, {"type": "node", "id": 9368527060, "lat": 40.7127499, "lon": -74.0072578}, {"type": "node", "id": 9368527070, "lat": 40.7130583, "lon": -74.0069967}, {"type": "node", "id": 9368527105, "lat": 40.7131324, "lon": -74.0043508}, {"type": "node", "id": 9368823867, "lat": 40.7130583, "lon": -74.0052806}, {"type": "node", "id": 9368823877, "lat": 40.7132573, "lon": -74.0046171}, {"type": "node", "id": 9368823879, "lat": 40.71342, "lon": -74.0049667}, {"type": "node", "id": 9368823880, "lat": 40.7134487, "lon": -74.0049567}, {"type": "node", "id": 9368823881, "lat": 40.7134337, "lon": -74.0049569}, {"type": "node", "id": 9368823882, "lat": 40.7134076, "lon": -74.0049401, "tags": {"barrier": "gate"}}, {"type": "node", "id": 9368823891, "lat": 40.71322, "lon": -74.0051442, "tags": {"entrance": "yes"}}, {"type": "node", "id": 9368823989, "lat": 40.7135227, "lon": -74.0066014}, {"type": "node", "id": 9368824069, "lat": 40.712296, "lon": -74.0054812}, {"type": "node", "id": 9368824118, "lat": 40.7131464, "lon": -74.0069218}, {"type": "node", "id": 9368824154, "lat": 40.7134486, "lon": -74.0066645}, {"type": "node", "id": 9369042307, "lat": 40.7128882, "lon": -74.0071442}, {"type": "node", "id": 9369042334, "lat": 40.7138097, "lon": -74.0057849}, {"type": "node", "id": 9369042335, "lat": 40.7138164, "lon": -74.005775}, {"type": "node", "id": 9369042336, "lat": 40.7138176, "lon": -74.005763}, {"type": "node", "id": 9369042338, "lat": 40.7138073, "lon": -74.0058232, "tags": {"barrier": "gate"}}, {"type": "node", "id": 9369042345, "lat": 40.7135943, "lon": -74.0055079, "tags": {"entrance": "main"}}, {"type": "node", "id": 9369042352, "lat": 40.7135138, "lon": -74.005331, "tags": {"entrance": "main"}}, {"type": "node", "id": 9373577231, "lat": 40.7139677, "lon": -74.0062324}, {"type": "node", "id": 9373577232, "lat": 40.7139746, "lon": -74.0062227}, {"type": "node", "id": 9373577233, "lat": 40.7139781, "lon": -74.0061995}, {"type": "node", "id": 9373577234, "lat": 40.7139779, "lon": -74.0062111}, {"type": "node", "id": 9373577240, "lat": 40.7136131, "lon": -74.0054721}, {"type": "node", "id": 9373577242, "lat": 40.7135494, "lon": -74.0053336}, {"type": "node", "id": 9373577252, "lat": 40.7135249, "lon": -74.0053221}, {"type": "node", "id": 9373577262, "lat": 40.7136063, "lon": -74.0054982}, {"type": "node", "id": 9373577265, "lat": 40.7135712, "lon": -74.0065608}, {"type": "node", "id": 9373577271, "lat": 40.713819, "lon": -74.0058483}, {"type": "node", "id": 9373577272, "lat": 40.7137217, "lon": -74.0055484}, {"type": "node", "id": 9373577277, "lat": 40.7136183, "lon": -74.0055998}, {"type": "node", "id": 9373577278, "lat": 40.7134628, "lon": -74.0052641}, {"type": "node", "id": 9373577282, "lat": 40.7135481, "lon": -74.0051669}, {"type": "node", "id": 9373577284, "lat": 40.7136237, "lon": -74.0056114}, {"type": "node", "id": 9373577300, "lat": 40.7136831, "lon": -74.0058478}, {"type": "node", "id": 9373577301, "lat": 40.7134544, "lon": -74.0052459}, {"type": "node", "id": 9373577319, "lat": 40.7132464, "lon": -74.005123}, {"type": "node", "id": 9373577320, "lat": 40.7134412, "lon": -74.0049547}, {"type": "node", "id": 9373577321, "lat": 40.7131957, "lon": -74.0051636}, {"type": "node", "id": 9373577336, "lat": 40.7131389, "lon": -74.0057265}, {"type": "node", "id": 9373577339, "lat": 40.7131461, "lon": -74.0057422}, {"type": "node", "id": 9373577343, "lat": 40.7135567, "lon": -74.0059558}, {"type": "node", "id": 9373577357, "lat": 40.7131533, "lon": -74.0057577}, {"type": "node", "id": 9373577358, "lat": 40.7135847, "lon": -74.0059334, "tags": {"entrance": "yes"}}, {"type": "node", "id": 9374424913, "lat": 40.7129565, "lon": -74.007085}, {"type": "node", "id": 9377509609, "lat": 40.7128534, "lon": -74.004102}, {"type": "node", "id": 9377509610, "lat": 40.7133259, "lon": -74.0036553}, {"type": "node", "id": 9377535320, "lat": 40.7128404, "lon": -74.0033635}, {"type": "node", "id": 9377535322, "lat": 40.7131951, "lon": -74.0035801}, {"type": "node", "id": 9377535331, "lat": 40.7130986, "lon": -74.0038702}, {"type": "node", "id": 9377535332, "lat": 40.7130326, "lon": -74.0037365}, {"type": "node", "id": 9377535333, "lat": 40.7130634, "lon": -74.0039034}, {"type": "node", "id": 9377535334, "lat": 40.7129963, "lon": -74.0037677}, {"type": "node", "id": 9377535336, "lat": 40.7129605, "lon": -74.0038008}, {"type": "node", "id": 9377535337, "lat": 40.7127836, "lon": -74.0034158}, {"type": "node", "id": 9377535338, "lat": 40.7130683, "lon": -74.0037009}, {"type": "node", "id": 9377535339, "lat": 40.7131329, "lon": -74.0038378}, {"type": "node", "id": 9377535340, "lat": 40.7130218, "lon": -74.0039429}, {"type": "node", "id": 9377535341, "lat": 40.7128942, "lon": -74.0033152}, {"type": "node", "id": 9389819398, "lat": 40.7135394, "lon": -74.0034946}, {"type": "node", "id": 9389819399, "lat": 40.7133984, "lon": -74.0032366}, {"type": "node", "id": 9389819400, "lat": 40.7133897, "lon": -74.0032449}, {"type": "node", "id": 9389819401, "lat": 40.7130536, "lon": -74.0032058}, {"type": "node", "id": 9389819402, "lat": 40.7130454, "lon": -74.0031906}, {"type": "node", "id": 9389819403, "lat": 40.7129524, "lon": -74.0032775}, {"type": "node", "id": 9389819404, "lat": 40.7129464, "lon": -74.0032663}, {"type": "node", "id": 9389819405, "lat": 40.7127339, "lon": -74.003465}, {"type": "node", "id": 9389819406, "lat": 40.7127408, "lon": -74.0034779}, {"type": "node", "id": 9389819407, "lat": 40.7126511, "lon": -74.0035618}, {"type": "node", "id": 9389819408, "lat": 40.7126601, "lon": -74.0035786}, {"type": "node", "id": 9389819409, "lat": 40.7125368, "lon": -74.0040432}, {"type": "node", "id": 9389819410, "lat": 40.712525, "lon": -74.0040546}, {"type": "node", "id": 9389819411, "lat": 40.7126011, "lon": -74.0041931, "tags": {"description": "all 4,5,6,<6>,J,Z trains", "level": "0", "railway": "subway_entrance", "wheelchair": "no"}}, {"type": "node", "id": 9390090944, "lat": 40.7130151, "lon": -74.0037505}, {"type": "node", "id": 9390091290, "lat": 40.7130957, "lon": -74.0039145}, {"type": "node", "id": 9390091291, "lat": 40.7131465, "lon": -74.0038666}, {"type": "node", "id": 9390091292, "lat": 40.7130346, "lon": -74.0039724}, {"type": "node", "id": 9532192860, "lat": 40.7076262, "lon": -74.0040041}, {"type": "node", "id": 9711419117, "lat": 40.709544, "lon": -74.0085841, "tags": {"amenity": "cafe", "name": "Healthy Green Juice Bar"}}, {"type": "node", "id": 9733053717, "lat": 40.709698, "lon": -74.009548, "tags": {"addr:housenumber": "3", "addr:street": "Maiden Lane", "air_conditioning": "yes", "amenity": "restaurant", "check_date": "2024-06-27", "cuisine": "vietnamese;rice_noodle", "delivery": "yes", "highchair": "no", "indoor_seating": "yes", "name": "Pho Maiden Lane", "opening_hours": "Mo-Sa 10:00-20:00; Su 10:00-18:00", "outdoor_seating": "no", "payment:cash": "yes", "payment:credit_cards": "yes", "phone": "+1 646-449-0247", "rice_noodle": "pho", "smoking": "no", "takeaway": "yes", "toilets": "no", "wheelchair": "yes"}}, {"type": "node", "id": 9979362720, "lat": 40.7112177, "lon": -74.0055762}, {"type": "node", "id": 9979362721, "lat": 40.7110896, "lon": -74.0058034}, {"type": "node", "id": 10290401161, "lat": 40.7095787, "lon": -74.0116227}, {"type": "node", "id": 10290401162, "lat": 40.7095701, "lon": -74.0116785}, {"type": "node", "id": 10290401163, "lat": 40.7095774, "lon": -74.0116677}, {"type": "node", "id": 10290401164, "lat": 40.7095813, "lon": -74.0116439}, {"type": "node", "id": 10290401165, "lat": 40.7095809, "lon": -74.0116333}, {"type": "node", "id": 10290401166, "lat": 40.7090991, "lon": -74.0106835}, {"type": "node", "id": 10290401167, "lat": 40.7091134, "lon": -74.0106746, "tags": {"barrier": "kerb", "kerb": "lowered", "tactile_paving": "yes", "wheelchair": "yes"}}, {"type": "node", "id": 10290401168, "lat": 40.7091447, "lon": -74.0106724}, {"type": "node", "id": 10290401169, "lat": 40.7091335, "lon": -74.0106682}, {"type": "node", "id": 10290401170, "lat": 40.7091235, "lon": -74.0106687}, {"type": "node", "id": 10290401171, "lat": 40.7088955, "lon": -74.0108539}, {"type": "node", "id": 10290401172, "lat": 40.7088822, "lon": -74.010898}, {"type": "node", "id": 10290401173, "lat": 40.7088815, "lon": -74.0108829}, {"type": "node", "id": 10290401174, "lat": 40.708886, "lon": -74.0108684}, {"type": "node", "id": 10290401177, "lat": 40.7093397, "lon": -74.0118364}, {"type": "node", "id": 10290401178, "lat": 40.7093013, "lon": -74.011824}, {"type": "node", "id": 10290401179, "lat": 40.7093269, "lon": -74.0118396}, {"type": "node", "id": 10290401180, "lat": 40.7093085, "lon": -74.011833}, {"type": "node", "id": 10290401193, "lat": 40.7091564, "lon": -74.0106886, "tags": {"barrier": "kerb", "kerb": "lowered", "tactile_paving": "yes", "wheelchair": "yes"}}, {"type": "node", "id": 10290401197, "lat": 40.7088913, "lon": -74.0108603, "tags": {"barrier": "kerb", "kerb": "lowered", "tactile_paving": "yes", "wheelchair": "yes"}}, {"type": "node", "id": 10297381513, "lat": 40.711855, "lon": -74.0059274}, {"type": "node", "id": 10309622472, "lat": 40.7080581, "lon": -74.0035888, "tags": {"barrier": "kerb", "kerb": "lowered", "tactile_paving": "yes", "wheelchair": "yes"}}, {"type": "node", "id": 10309622483, "lat": 40.7076156, "lon": -74.0040242, "tags": {"barrier": "kerb", "kerb": "lowered", "tactile_paving": "yes", "wheelchair": "yes"}}, {"type": "node", "id": 10311946331, "lat": 40.707622, "lon": -74.004073, "tags": {"barrier": "kerb", "kerb": "lowered", "tactile_paving": "yes", "wheelchair": "yes"}}, {"type": "node", "id": 10619086494, "lat": 40.7130439, "lon": -74.01008, "tags": {"addr:city": "New York", "addr:housenumber": "75", "addr:postcode": "10007", "addr:state": "NY", "addr:street": "Barclay Street", "amenity": "restaurant", "contact:instagram": "https://instagram.com/itotribeca", "cuisine": "sushi", "email": "info@itotribeca.com", "name": "Ito", "opening_hours": "Tu-Sa 18:00-20:45", "reservation": "recommended", "website": "https://itotribeca.com/", "website:booking": "https://itotribeca.com/#reservations"}}, {"type": "node", "id": 10707548033, "lat": 40.7101656, "lon": -74.0055087, "tags": {"amenity": "restaurant", "indoor_seating": "yes", "name": "Exquisite Cafe", "outdoor_seating": "no"}}, {"type": "node", "id": 10766665245, "lat": 40.7660026, "lon": -73.9541594}, {"type": "node", "id": 10766665246, "lat": 40.7659606, "lon": -73.954054}, {"type": "node", "id": 10766665247, "lat": 40.7659901, "lon": -73.9540251}, {"type": "node", "id": 10766665248, "lat": 40.765898, "lon": -73.9537896}, {"type": "node", "id": 10766665249, "lat": 40.7657718, "lon": -73.9538622}, {"type": "node", "id": 10766665250, "lat": 40.7656728, "lon": -73.953652}, {"type": "node", "id": 10766665251, "lat": 40.7657939, "lon": -73.9535608}, {"type": "node", "id": 10766665252, "lat": 40.7655401, "lon": -73.9529575}, {"type": "node", "id": 10766665253, "lat": 40.7645933, "lon": -73.9535341}, {"type": "node", "id": 10766665254, "lat": 40.7637121, "lon": -73.9540456}, {"type": "node", "id": 10766665255, "lat": 40.7640452, "lon": -73.9547853}, {"type": "node", "id": 10766665256, "lat": 40.7656128, "lon": -73.9566134}, {"type": "node", "id": 10766665257, "lat": 40.7658858, "lon": -73.9565076}, {"type": "node", "id": 10766665260, "lat": 40.7649321, "lon": -73.9553899}, {"type": "node", "id": 10766665261, "lat": 40.7102216, "lon": -74.0043825}, {"type": "node", "id": 10766665263, "lat": 40.7104075, "lon": -74.0055539}, {"type": "node", "id": 11033251598, "lat": 40.7118912, "lon": -74.0051616}, {"type": "node", "id": 11033251601, "lat": 40.7118817, "lon": -74.0051735}, {"type": "node", "id": 11033251602, "lat": 40.7118865, "lon": -74.0051675}, {"type": "node", "id": 11084144532, "lat": 40.7097477, "lon": -74.0088749, "tags": {"amenity": "restaurant", "cuisine": "ramen", "indoor_seating": "yes", "name": "Kuu Ramen", "opening_hours": "Mo-Su 11:30-21:30", "outdoor_seating": "no"}}, {"type": "node", "id": 11084146197, "lat": 40.7094717, "lon": -74.0085899, "tags": {"addr:city": "New York", "addr:housenumber": "67", "addr:postcode": "10038", "addr:state": "NY", "addr:street": "Nassau Street", "amenity": "restaurant", "check_date:opening_hours": "2023-08-02", "cuisine": "sushi", "indoor_seating": "yes", "name": "Sushi & Co", "opening_hours:signed": "no", "outdoor_seating": "no", "phone": "+1-646-799-9911", "website": "https://www.sushinco.com/"}}, {"type": "node", "id": 11084164914, "lat": 40.7098633, "lon": -74.0086893, "tags": {"amenity": "bar", "name": "The Irish American", "sport": "billiards"}}, {"type": "node", "id": 11084168882, "lat": 40.7092141, "lon": -74.0088431, "tags": {"amenity": "cafe", "cuisine": "coffee_shop", "indoor_seating": "yes", "name": "Simpl Coffee Shop", "opening_hours": "Mo-Su 07:00-19:00", "outdoor_seating": "no"}}, {"type": "node", "id": 11119847161, "lat": 40.7096711, "lon": -74.0087599, "tags": {"addr:city": "New York", "addr:housenumber": "24", "addr:postcode": "10038", "addr:state": "NY", "addr:street": "John Street", "amenity": "cafe", "cuisine": "coffee_shop", "name": "Tutto Calcio Espresso Bar", "opening_hours": "Mo-Su 07:00-20:00", "outdoor_seating": "no", "phone": "+1-212-389-0254", "website": "https://www.instagram.com/tuttocalcioespressobar"}}, {"type": "node", "id": 11119879312, "lat": 40.7094844, "lon": -74.008186, "tags": {"amenity": "cafe", "brand": "Matto Espresso", "brand:wikidata": "Q122209496", "cuisine": "coffee_shop", "indoor_seating": "no", "name": "Matto Espresso", "outdoor_seating": "no", "takeaway": "only"}}, {"type": "node", "id": 11157811380, "lat": 40.7113229, "lon": -74.0067467, "tags": {"amenity": "restaurant", "indoor_seating": "yes", "name": "Temple Room", "outdoor_seating": "no"}}, {"type": "node", "id": 11175682842, "lat": 40.7128293, "lon": -74.0093508, "tags": {"amenity": "restaurant", "indoor_seating": "yes", "name": "Cut by Wolfgang Puck", "outdoor_seating": "yes"}}, {"type": "node", "id": 11222032513, "lat": 40.7094131, "lon": -74.0067312, "tags": {"addr:city": "New York", "addr:housenumber": "123", "addr:postcode": "10038", "addr:state": "NY", "addr:street": "William Street", "amenity": "restaurant", "branch": "State Department", "cuisine": "chinese;dumplings", "indoor_seating": "yes", "name": "Dim Sum Palace", "opening_hours": "10:00-03:00", "outdoor_seating": "no", "phone": "+1-212-901-9760", "website": "https://dimsumpalace.com/contact-8/"}}, {"type": "node", "id": 11222032518, "lat": 40.7110207, "lon": -74.0054391, "tags": {"addr:city": "New York", "addr:housenumber": "12", "addr:postcode": "10038", "addr:state": "NY", "addr:street": "Spruce Street", "amenity": "school", "grades": "K-8", "name": "Spruce Street School", "operator": "New York City Department of Education", "operator:short": "NYC Public Schools", "operator:type": "public", "operator:wikidata": "Q408230", "ref": "PS 397", "religion": "none", "website": "https://www.sprucestreetnyc.org/"}}, {"type": "node", "id": 11223060596, "lat": 40.7080354, "lon": -74.0105959, "tags": {"amenity": "cafe", "indoor_seating": "yes", "name": "Ashby's", "outdoor_seating": "no"}}, {"type": "node", "id": 11255887063, "lat": 40.7100277, "lon": -74.0071166, "tags": {"amenity": "bar", "indoor_seating": "yes", "name": "Blue Haven", "outdoor_seating": "no"}}, {"type": "node", "id": 11327964529, "lat": 40.7080183, "lon": -74.0036265}, {"type": "node", "id": 11327964537, "lat": 40.708112, "lon": -74.0035358}, {"type": "node", "id": 11327964538, "lat": 40.708081, "lon": -74.0035671}, {"type": "node", "id": 11327973804, "lat": 40.707898, "lon": -74.0042812}, {"type": "node", "id": 11327973805, "lat": 40.707907, "lon": -74.0042619}, {"type": "node", "id": 11327973808, "lat": 40.7076323, "lon": -74.0040843}, {"type": "node", "id": 11327973809, "lat": 40.707615, "lon": -74.0040603}, {"type": "node", "id": 11327973810, "lat": 40.7076121, "lon": -74.0040423}, {"type": "node", "id": 11327973811, "lat": 40.707696, "lon": -74.003938}, {"type": "node", "id": 11342975264, "lat": 40.7079164, "lon": -74.0042408}, {"type": "node", "id": 11342975267, "lat": 40.7079327, "lon": -74.0042062}, {"type": "node", "id": 11345152478, "lat": 40.7089383, "lon": -74.0050137}, {"type": "node", "id": 11345152479, "lat": 40.7089412, "lon": -74.0050454}, {"type": "node", "id": 11345152480, "lat": 40.7089374, "lon": -74.0050268, "tags": {"barrier": "gate"}}, {"type": "node", "id": 11345152481, "lat": 40.7090733, "lon": -74.0052296}, {"type": "node", "id": 11345152482, "lat": 40.709096, "lon": -74.0052469}, {"type": "node", "id": 11345152483, "lat": 40.7091128, "lon": -74.0052514}, {"type": "node", "id": 11345152484, "lat": 40.7091275, "lon": -74.0052495}, {"type": "node", "id": 11345152485, "lat": 40.7092188, "lon": -74.0051697}, {"type": "node", "id": 11345152486, "lat": 40.7090507, "lon": -74.0048044, "tags": {"barrier": "gate"}}, {"type": "node", "id": 11345152489, "lat": 40.7092523, "lon": -74.0050295}, {"type": "node", "id": 11345152490, "lat": 40.7091397, "lon": -74.0052426, "tags": {"barrier": "gate"}}, {"type": "node", "id": 11345152516, "lat": 40.7091568, "lon": -74.0052307}, {"type": "node", "id": 11345152517, "lat": 40.7090632, "lon": -74.0048047}, {"type": "node", "id": 11345152518, "lat": 40.7090399, "lon": -74.0048042}, {"type": "node", "id": 11345152592, "lat": 40.7089409, "lon": -74.005004}, {"type": "node", "id": 11345710656, "lat": 40.70821, "lon": -74.0036201}, {"type": "node", "id": 11347777627, "lat": 40.7102937, "lon": -74.0042479, "tags": {"barrier": "kerb", "kerb": "lowered", "tactile_paving": "yes", "wheelchair": "yes"}}, {"type": "node", "id": 11347777630, "lat": 40.7102941, "lon": -74.004284, "tags": {"barrier": "kerb", "kerb": "lowered", "tactile_paving": "yes", "wheelchair": "yes"}}, {"type": "node", "id": 11347850238, "lat": 40.7101847, "lon": -74.0043758}, {"type": "node", "id": 11347850239, "lat": 40.7108418, "lon": -74.0050229}, {"type": "node", "id": 11347850240, "lat": 40.7097808, "lon": -74.0048334}, {"type": "node", "id": 11347850241, "lat": 40.7097809, "lon": -74.0048942}, {"type": "node", "id": 11347850242, "lat": 40.7097692, "lon": -74.0048675}, {"type": "node", "id": 11347850243, "lat": 40.7097724, "lon": -74.0048798}, {"type": "node", "id": 11347850244, "lat": 40.7097725, "lon": -74.0048451}, {"type": "node", "id": 11347850245, "lat": 40.7097692, "lon": -74.0048552}, {"type": "node", "id": 11347850246, "lat": 40.7102042, "lon": -74.0043693}, {"type": "node", "id": 11347850247, "lat": 40.7101929, "lon": -74.0043696}, {"type": "node", "id": 11347850248, "lat": 40.7102134, "lon": -74.004375}, {"type": "node", "id": 11347850276, "lat": 40.711023, "lon": -74.0050565, "tags": {"barrier": "kerb", "kerb": "lowered", "tactile_paving": "yes", "wheelchair": "yes"}}, {"type": "node", "id": 11347850279, "lat": 40.7103597, "lon": -74.0055036, "tags": {"barrier": "kerb", "kerb": "lowered", "tactile_paving": "yes", "wheelchair": "yes"}}, {"type": "node", "id": 11347850309, "lat": 40.7108185, "lon": -74.0050681}, {"type": "node", "id": 11349101704, "lat": 40.7105901, "lon": -74.0058459}, {"type": "node", "id": 11349101705, "lat": 40.7104234, "lon": -74.0056752}, {"type": "node", "id": 11349101706, "lat": 40.7102751, "lon": -74.0057863}, {"type": "node", "id": 11349101707, "lat": 40.7103746, "lon": -74.0056833}, {"type": "node", "id": 11349101708, "lat": 40.7103856, "lon": -74.0056751}, {"type": "node", "id": 11349101709, "lat": 40.7104098, "lon": -74.005669}, {"type": "node", "id": 11349101710, "lat": 40.7103977, "lon": -74.0056694}, {"type": "node", "id": 11349101711, "lat": 40.7104192, "lon": -74.0056733, "tags": {"barrier": "kerb", "kerb": "lowered", "tactile_paving": "yes", "wheelchair": "yes"}}, {"type": "node", "id": 11349101712, "lat": 40.7103884, "lon": -74.0056738, "tags": {"barrier": "kerb", "kerb": "lowered", "tactile_paving": "yes", "wheelchair": "yes"}}, {"type": "node", "id": 11349101718, "lat": 40.710365, "lon": -74.0059273}, {"type": "node", "id": 11349101749, "lat": 40.7105135, "lon": -74.0058835, "tags": {"entrance": "yes"}}, {"type": "node", "id": 11349101752, "lat": 40.7105273, "lon": -74.0058982}, {"type": "node", "id": 11349101757, "lat": 40.7104632, "lon": -74.0058623, "tags": {"entrance": "yes"}}, {"type": "node", "id": 11349101767, "lat": 40.7111808, "lon": -74.0059787}, {"type": "node", "id": 11349101768, "lat": 40.7112192, "lon": -74.0059181}, {"type": "node", "id": 11349150969, "lat": 40.7112064, "lon": -74.0059381}, {"type": "node", "id": 11349150970, "lat": 40.7111877, "lon": -74.0059862}, {"type": "node", "id": 11349150974, "lat": 40.7110823, "lon": -74.0061945}, {"type": "node", "id": 11349150986, "lat": 40.7109569, "lon": -74.0060238}, {"type": "node", "id": 11349150988, "lat": 40.7109983, "lon": -74.005955}, {"type": "node", "id": 11349150995, "lat": 40.7110408, "lon": -74.0058844}, {"type": "node", "id": 11349150997, "lat": 40.7110821, "lon": -74.0058159}, {"type": "node", "id": 11349151030, "lat": 40.7111924, "lon": -74.0059603}, {"type": "node", "id": 11349151037, "lat": 40.7113632, "lon": -74.0056495}, {"type": "node", "id": 11349151044, "lat": 40.7113072, "lon": -74.0055956}, {"type": "node", "id": 11349151053, "lat": 40.7112875, "lon": -74.0055767}, {"type": "node", "id": 11349151074, "lat": 40.7111147, "lon": -74.0057589}, {"type": "node", "id": 11349151076, "lat": 40.7111562, "lon": -74.0056854}, {"type": "node", "id": 11349151080, "lat": 40.7109739, "lon": -74.0060827}, {"type": "node", "id": 11349151081, "lat": 40.7112631, "lon": -74.0055531}, {"type": "node", "id": 11349151082, "lat": 40.7113262, "lon": -74.0056147}, {"type": "node", "id": 11349151083, "lat": 40.7110396, "lon": -74.0061507}, {"type": "node", "id": 11349509501, "lat": 40.7115775, "lon": -74.0056364}, {"type": "node", "id": 11349509502, "lat": 40.7115889, "lon": -74.0056851}, {"type": "node", "id": 11349509503, "lat": 40.7115837, "lon": -74.0056478}, {"type": "node", "id": 11349528489, "lat": 40.7117691, "lon": -74.0050458}, {"type": "node", "id": 11349528545, "lat": 40.7114589, "lon": -74.0045682}, {"type": "node", "id": 11349528555, "lat": 40.7114115, "lon": -74.004492, "tags": {"barrier": "gate"}}, {"type": "node", "id": 11349528566, "lat": 40.7114034, "lon": -74.0044013}, {"type": "node", "id": 11349528567, "lat": 40.7109719, "lon": -74.0037324}, {"type": "node", "id": 11349528568, "lat": 40.7109187, "lon": -74.0037137}, {"type": "node", "id": 11349528618, "lat": 40.7107244, "lon": -74.0038771}, {"type": "node", "id": 11349528619, "lat": 40.7110289, "lon": -74.0044047}, {"type": "node", "id": 11349528666, "lat": 40.7109803, "lon": -74.0037434}, {"type": "node", "id": 11349528697, "lat": 40.7109555, "lon": -74.0037207, "tags": {"barrier": "kerb", "kerb": "lowered", "tactile_paving": "yes", "wheelchair": "yes"}}, {"type": "node", "id": 11349528698, "lat": 40.7109343, "lon": -74.0037149, "tags": {"barrier": "kerb", "kerb": "lowered", "tactile_paving": "yes", "wheelchair": "yes"}}, {"type": "node", "id": 11349528726, "lat": 40.7108919, "lon": -74.0041674}, {"type": "node", "id": 11349528760, "lat": 40.7105846, "lon": -74.0039235}, {"type": "node", "id": 11349528761, "lat": 40.7116651, "lon": -74.0057706}, {"type": "node", "id": 11349528768, "lat": 40.711384, "lon": -74.0043711}, {"type": "node", "id": 11349528772, "lat": 40.7107057, "lon": -74.0038467}, {"type": "node", "id": 11349528773, "lat": 40.710888, "lon": -74.0037291}, {"type": "node", "id": 11349528775, "lat": 40.7107145, "lon": -74.0038611}, {"type": "node", "id": 11350133524, "lat": 40.7098385, "lon": -74.004768}, {"type": "node", "id": 11350190890, "lat": 40.7077506, "lon": -74.0081875}, {"type": "node", "id": 11350190891, "lat": 40.7077225, "lon": -74.0081688}, {"type": "node", "id": 11350190892, "lat": 40.7074101, "lon": -74.0076615}, {"type": "node", "id": 11350190895, "lat": 40.7078994, "lon": -74.0080431}, {"type": "node", "id": 11350190896, "lat": 40.7079018, "lon": -74.0080317}, {"type": "node", "id": 11350190897, "lat": 40.707899, "lon": -74.0080102}, {"type": "node", "id": 11350190898, "lat": 40.7076832, "lon": -74.008109}, {"type": "node", "id": 11350190899, "lat": 40.7076351, "lon": -74.0078123}, {"type": "node", "id": 11350190900, "lat": 40.7077089, "lon": -74.0078978}, {"type": "node", "id": 11350190901, "lat": 40.7076735, "lon": -74.0078737}, {"type": "node", "id": 11350190902, "lat": 40.7076817, "lon": -74.0078528}, {"type": "node", "id": 11350190903, "lat": 40.7077171, "lon": -74.0078769}, {"type": "node", "id": 11365172080, "lat": 40.7092483, "lon": -74.0081689}, {"type": "node", "id": 11365172083, "lat": 40.7092333, "lon": -74.0081469, "tags": {"barrier": "gate"}}, {"type": "node", "id": 11365172084, "lat": 40.7092183, "lon": -74.0081272}, {"type": "node", "id": 11365172106, "lat": 40.7091251, "lon": -74.0079946, "tags": {"barrier": "gate"}}, {"type": "node", "id": 11365172108, "lat": 40.7091172, "lon": -74.0079833}, {"type": "node", "id": 11365172113, "lat": 40.7089031, "lon": -74.0082439}, {"type": "node", "id": 11369424991, "lat": 40.7078206, "lon": -74.0042238, "tags": {"barrier": "kerb", "kerb": "raised", "tactile_paving": "no", "wheelchair": "no"}}, {"type": "node", "id": 11419656042, "lat": 40.7658356, "lon": -73.9556231, "tags": {"amenity": "parking_entrance"}}, {"type": "node", "id": 11461129537, "lat": 40.712736, "lon": -74.0077871}, {"type": "node", "id": 11461129575, "lat": 40.7127124, "lon": -74.0077343}, {"type": "node", "id": 11629287173, "lat": 40.709189, "lon": -74.0078111, "tags": {"addr:city": "New York", "addr:housenumber": "45", "addr:postcode": "10038", "addr:state": "NY", "addr:street": "John Street", "amenity": "bar", "min_age": "21", "name": "Zizi's Wine Bar", "opening_hours": "Mo-Su 3:00-23:00"}}, {"type": "node", "id": 11659815869, "lat": 40.7109261, "lon": -74.0103462, "tags": {"addr:city": "New York", "addr:housenumber": "22", "addr:postcode": "10007", "addr:state": "NY", "addr:street": "Dey Street", "air_conditioning": "yes", "amenity": "cafe", "branch": "195 Broadway", "brand": "Starbucks", "brand:wikidata": "Q37158", "cuisine": "coffee_shop", "name": "Starbucks", "official_name": "Starbucks Coffee", "opening_hours": "Mo-Fr 05:30-19:30; Sa,Su 07:00-18:00", "outdoor_seating": "no", "phone": "+1 212-385-1104", "ref": "16209", "takeaway": "yes", "website": "https://www.starbucks.com/store-locator/store/16209/195-broadway-22-dey-street-new-york-ny-100073100-us"}}, {"type": "node", "id": 11875156397, "lat": 40.7110673, "lon": -74.0065073, "tags": {"amenity": "restaurant", "cuisine": "bagel", "indoor_seating": "yes", "name": "Bagel Market"}}, {"type": "node", "id": 12050009362, "lat": 40.7086274, "lon": -74.010127, "tags": {"addr:city": "New York", "addr:housenumber": "140", "addr:postcode": "10005", "addr:state": "NY", "addr:street": "Broadway", "addr:unit": "46th Floor, PMB 300", "name": "NYC Injury Attorneys P.C.", "office": "lawyer", "opening_hours": "24/7", "phone": "+1-646-452-3663", "website": "https://nyc-injury-attorneys.com"}}, {"type": "node", "id": 12290540026, "lat": 40.7119725, "lon": -74.0085844, "tags": {"description": "Welcome to CineVerse Network, a platform for innovative entertainment experiences. We are committed to connecting the global user and creators through technological innovation and diverse content, and creating a diverse and interactive digital entertainme", "image": "https://www.cvn.top/wp-content/uploads/2024/10/535150d3-d0a8-4f5c-a7ca-c2e8facab801.png", "name": "CineVerse Network Company, Limited", "office": "yes", "website": "https://www.cvn.top/"}}, {"type": "node", "id": 12480002393, "lat": 40.7087658, "lon": -74.0083225, "tags": {"addr:city": "New York", "addr:housenumber": "59", "addr:postcode": "10038", "addr:state": "NY", "addr:street": "Maiden Lane", "addr:unit": "6th floor", "contact:facebook": "https://www.facebook.com/ParkerWaichmanLLP/", "contact:instagram": "https://www.instagram.com/parkerwaichman/", "contact:linkedin": "https://www.linkedin.com/company/parker-waichman-llp", "contact:pinterest": "https://www.pinterest.com/parkerwaichman/", "contact:twitter": "https://x.com/parkerwaichman", "language:en": "yes", "name": "Parker Waichman LLP, Personal Injury Accident Attorneys", "office": "lawyer", "opening_hours": "24/7", "phone": "+1-212-267-6700", "website": "https://www.yourlawyer.com/new-york-city-personal-injury/", "year_of_construction": "1993"}}, {"type": "node", "id": 12871399676, "lat": 40.7122805, "lon": -74.0055445, "tags": {"barrier": "gate"}}, {"type": "node", "id": 12953116649, "lat": 40.710146, "lon": -74.0063384, "tags": {"addr:city": "New York", "addr:housenumber": "161", "addr:postcode": "10038", "addr:state": "NY", "addr:street": "William Street", "name": "Office of the Registrar", "office": "university", "operator": "Pace University", "operator:type": "ngo", "operator:wikidata": "Q556098", "website": "https://www.pace.edu/registrar"}}, {"type": "node", "id": 12953116650, "lat": 40.7101375, "lon": -74.0063203, "tags": {"addr:city": "New York", "addr:housenumber": "161", "addr:postcode": "10038", "addr:state": "NY", "addr:street": "William Street", "addr:unit": "8th Floor", "email": "studentaccounts@pace.edu", "name": "Student Accounts", "office": "university", "opening_hours": "Mo-Fr 09:00-17:00; Sa,Su,PH off", "operator": "Pace University", "operator:type": "ngo", "operator:wikidata": "Q556098", "website": "https://www.pace.edu/student-accounts"}}, {"type": "node", "id": 12953116651, "lat": 40.710129, "lon": -74.0063022, "tags": {"addr:city": "New York", "addr:housenumber": "161", "addr:postcode": "10038", "addr:state": "NY", "addr:street": "William Street", "addr:unit": "8th Floor", "branch": "New York City", "fax": "+1-212-346-1750", "name": "Office of Financial Aid", "office": "university", "opening_hours": "Mo-Fr 09:00-17:00; Sa,Su,PH off", "operator": "Pace University", "operator:type": "ngo", "operator:wikidata": "Q556098", "phone": "+1-877-672-1830", "website": "https://www.pace.edu/financial-aid"}}, {"type": "node", "id": 12953116652, "lat": 40.7101205, "lon": -74.0062841, "tags": {"addr:city": "New York", "addr:housenumber": "161", "addr:postcode": "10038", "addr:state": "NY", "addr:street": "William Street", "addr:unit": "10th Floor", "branch": "New York City", "email": "SASNYC@pace.edu", "fax": "+1-914-989-8047", "name": "Office of Student Accessibility Services", "office": "university", "operator": "Pace University", "operator:type": "ngo", "operator:wikidata": "Q556098", "phone": "+1-212-346-1199", "website": "https://www.pace.edu/student-accessibility-services"}}, {"type": "node", "id": 12953116653, "lat": 40.7101121, "lon": -74.006266, "tags": {"addr:city": "New York", "addr:housenumber": "161", "addr:postcode": "10038", "addr:state": "NY", "addr:street": "William Street", "name": "Entrepreneurship Lab", "office": "university", "operator": "Pace University", "operator:type": "ngo", "operator:wikidata": "Q556098"}}, {"type": "node", "id": 12953116655, "lat": 40.7100951, "lon": -74.0062298, "tags": {"addr:city": "New York", "addr:housenumber": "161", "addr:postcode": "10038", "addr:state": "NY", "addr:street": "William Street", "addr:unit": "21st Floor", "email": "wilsoncenter@pace.edu", "fax": "+1-914-989-8038", "name": "Helene and Grant Wilson Center for Social Entrepreneurship", "office": "university", "operator": "Pace University", "operator:type": "ngo", "operator:wikidata": "Q556098", "phone": "+1-212-346-1028", "website": "https://www.pace.edu/wilson-center"}}, {"type": "node", "id": 12953116656, "lat": 40.7117301, "lon": -74.0061848, "tags": {"addr:city": "New York", "addr:housenumber": "41", "addr:postcode": "10038", "addr:state": "NY", "addr:street": "Park Row", "addr:unit": "Suite 905", "branch": "New York City", "email": "aandersen2@pace.edu", "name": "Office of Sexual and Interpersonal Wellness", "office": "university", "operator": "Pace University", "operator:type": "ngo", "operator:wikidata": "Q556098", "phone": "+1-212-346-1931", "website": "https://www.pace.edu/sexual-wellness"}}, {"type": "node", "id": 12953116657, "lat": 40.7100866, "lon": -74.0062117, "tags": {"addr:city": "New York", "addr:housenumber": "161", "addr:postcode": "10038", "addr:state": "NY", "addr:street": "William Street", "name": "Office of Government and Community Relations", "office": "university", "operator": "Pace University", "operator:type": "ngo", "operator:wikidata": "Q556098"}}, {"type": "node", "id": 12953116658, "lat": 40.7100782, "lon": -74.0061936, "tags": {"addr:city": "New York", "addr:housenumber": "161", "addr:postcode": "10038", "addr:state": "NY", "addr:street": "William Street", "name": "University Counsel", "office": "university", "operator": "Pace University", "operator:type": "ngo", "operator:wikidata": "Q556098"}}, {"type": "node", "id": 12953116659, "lat": 40.7100697, "lon": -74.0061755, "tags": {"addr:city": "New York", "addr:housenumber": "161", "addr:postcode": "10038", "addr:state": "NY", "addr:street": "William Street", "addr:unit": "Room 412", "branch": "New York City", "email": "nycopycenter@pace.edu", "name": "Document Services", "office": "university", "opening_hours": "Mo-Th 08:00-18:00; Fr 08:00-17:00; Sa,Su,PH off", "operator": "Pace University", "operator:type": "ngo", "operator:wikidata": "Q556098", "phone": "+1-212-346-1251", "website": "https://www.pace.edu/finance-and-administration/employee-resources/document-services"}}, {"type": "node", "id": 12965535575, "lat": 40.7081048, "lon": -74.0104126, "tags": {"addr:city": "New York", "addr:floor": "31", "addr:housenumber": "120", "addr:postcode": "10271", "addr:state": "NY", "addr:street": "Broadway", "addr:unit": "31st Floor", "air_conditioning": "yes", "branch": "Manhattan", "fax": "+1-212-720-3488", "government": "yes", "name": "New York City Department of City Planning", "office": "government", "operator": "New York City Department of City Planning", "operator:type": "government", "operator:wikidata": "Q8354830", "phone": "+1-212-720-3480", "website": "https://www1.nyc.gov/site/planning/index.page", "wikipedia": "en:New York City Department of City Planning"}}, {"type": "node", "id": 13128155401, "lat": 40.7090937, "lon": -74.0071689, "tags": {"addr:housenumber": "123", "addr:postcode": "10038-3804", "addr:street": "William Street", "level": "2", "name": "NYS Department of State - Division of Licensing Services", "office": "government", "opening_hours": "Mo-Fr 09:00-16:30"}}, {"type": "way", "id": 25026338, "nodes": [272194598, 10290401177, 10290401179, 8262936618, 10290401180, 10290401178, 272194601, 10290401172, 10290401173, 10290401174, 10290401197, 10290401171, 10290401166, 10290401167, 10290401170, 10290401169, 10290401168, 272194602, 10290401193, 10290401161, 10290401165, 10290401164, 8262936617, 10290401163, 10290401162, 272194598], "tags": {"leisure": "park", "name": "Zuccotti Park", "name:etymology:wikidata": "Q9012427", "name:ko": "\uc988\uce74\ud2f0 \uacf5\uc6d0", "old_name": "Liberty Plaza Park", "wikidata": "Q227659", "wikipedia": "en:Zuccotti Park"}}, {"type": "way", "id": 53189828, "nodes": [673008464, 673008458, 11345152517, 11345152486, 11345152518, 8262309719, 673008459, 11345152592, 11345152478, 11345152480, 11345152479, 8262309720, 673008460, 673008461, 11345152481, 673008465, 11345152482, 11345152483, 11345152484, 11345152490, 673008466, 11345152516, 4900466410, 11345152485, 4900467934, 4900466368, 11345152489, 673008464], "tags": {"addr:city": "New York", "addr:housenumber": "77", "addr:postcode": "10038", "addr:state": "NY", "addr:street": "Fulton Street", "leisure": "park", "name": "DeLury Square", "operator": "New York City Department of Parks and Recreation", "operator:short": "NYC Parks", "operator:type": "government", "operator:wikidata": "Q1894232", "smoking": "no", "website": "https://www.nycgovparks.org/parks/delury-square-park", "wikidata": "Q49508232"}}, {"type": "way", "id": 109447376, "nodes": [6262915542, 6262915550, 11350190890, 6262915540, 7138157354, 11350190891, 11350190898, 3738928737, 42422056, 3738928727, 3738928726, 11350190892, 3738928728, 3738928730, 3738928739, 11350190899, 6262915546, 11350190897, 6262915538, 11350190896, 11350190895, 6262915542], "tags": {"addr:city": "New York", "addr:postcode": "10038", "addr:state": "NY", "check_date": "2023-11-14", "ele": "5", "gnis:feature_id": "2058391", "leisure": "park", "name": "Louise Nevelson Plaza", "name:etymology:wikidata": "Q7531", "start_date": "1978", "wikidata": "Q49519601"}}, {"type": "way", "id": 277904719, "nodes": [2823452401, 3809526488, 3809526483, 2823452295, 2823452297, 2823452409, 2823452411, 2823452403, 2823452401], "tags": {"addr:city": "New York", "addr:housenumber": "14", "addr:postcode": "10007", "addr:state": "NY", "addr:street": "Vesey Street", "building": "yes", "height": "26.6", "historic": "yes", "name": "New York County Lawyers Association", "nycdoitt:bin": "1001233", "office": "association", "wikidata": "Q8772027", "wikipedia": "en:New York County Lawyers' Association Building"}}, {"type": "way", "id": 277904770, "nodes": [2808066376, 895891414, 895891366, 2808066385, 895891352, 895891344, 11461129575, 11461129537, 895891374, 2808066365, 2808066366, 2808066371, 2808066376], "tags": {"addr:city": "New York", "addr:housenumber": "250", "addr:postcode": "10007", "addr:state": "NY", "addr:street": "Broadway", "architect": "Emery Roth & Sons", "architect:wikidata": "Q18672430", "building": "yes", "government": "legislative", "nycdoitt:bin": "1001408", "office": "government", "smoking": "no", "start_date": "1964"}}, {"type": "way", "id": 292727035, "nodes": [2825233358, 11349150974, 11349151083, 11349151080, 1253168807, 11349150986, 11349150988, 11349150995, 11349150997, 9979362721, 11349151074, 11349151076, 9979362720, 1253168806, 11349151081, 11349151053, 11349151044, 11349151082, 11349151037, 2825233380, 2825233367, 11349101768, 11349150969, 11349151030, 11349101767, 11349150970, 2825233369, 2825233358], "tags": {"access": "yes", "leisure": "park", "ownership": "private"}}, {"type": "way", "id": 375369088, "nodes": [2824697588, 2824697561, 11365172113, 1695926392, 1695926394, 2824697587, 11365172108, 11365172106, 2824697588], "tags": {"leisure": "park", "opening_hours": "sunrise-sunset"}}, {"type": "way", "id": 375369089, "nodes": [2824697701, 11365172084, 11365172083, 11365172080, 2824697702, 3748367336, 2824697586, 2824697572, 2824697701], "tags": {"leisure": "park", "opening_hours": "sunrise-sunset"}}, {"type": "way", "id": 413055246, "nodes": [4143863442, 4143863430, 4143863438, 4143863429, 4143863447, 4143863440, 8262309110, 8262309153, 8262309166, 8262309111, 9368527060, 8262309192, 9369042307, 2821289715, 9374424913, 9368527070, 9368824118, 9368824154, 9368823989, 2348991691, 9373577265, 9373577231, 9373577232, 9373577234, 9373577233, 4143863446, 9373577271, 9369042338, 4143863437, 9369042334, 9369042335, 9369042336, 4143863434, 9373577272, 9373577282, 4143863445, 9368823880, 9373577320, 9368823881, 9368823879, 9368823882, 4143863444, 9368823877, 8262309324, 4143863448, 9368527105, 6762730395, 6762730394, 8262309245, 7373386553, 7373386555, 4900466407, 4900466360, 7281331968, 4143863449, 9368824069, 12871399676, 9364517394, 3942249545, 8262309208, 9368527057, 9368527059, 9368527055, 9368527040, 9368527053, 8262309190, 9368527001, 9368526986, 8262309182, 8262309115, 4143863435, 9368527038, 4143863443, 4143863439, 9368527037, 4143863428, 8262309116, 4143863431, 4143863432, 4878838751, 4143863442], "tags": {"addr:city": "New York", "addr:postcode": "10007", "addr:state": "NY", "leisure": "park", "name": "City Hall Park", "name:el": "\u03a0\u03ac\u03c1\u03ba\u03bf \u0394\u03b7\u03bc\u03b1\u03c1\u03c7\u03b5\u03af\u03bf\u03c5", "name:etymology:wikidata": "Q1065206", "smoking": "no", "website": "https://www.nycgovparks.org/parks/city-hall-park", "wikidata": "Q34817857"}}, {"type": "way", "id": 498671779, "nodes": [4900466379, 8281893505, 8281893504, 8281893503, 11349528619, 11349528726, 11349528618, 11349528775, 11349528772, 4900466392, 4900466418, 11349528773, 11349528568, 11349528698, 8281922043, 11349528697, 11349528567, 11349528666, 8281922042, 11349528768, 11349528566, 4900466385, 8281922038, 8281893508, 8281893507, 8281893506, 4900466379], "tags": {"addr:city": "New York", "addr:postcode": "10038", "addr:state": "NY", "addr:street": "Frankfort Street", "description": "A small public city park under an elevated ramp to the Brooklyn Bridge. Mostly paved, with a number of trees, planted areas, and benches. ", "leisure": "park", "material": "concrete", "name": "Drumgoole Plaza", "name:etymology:wikidata": "Q6226072", "operator": "New York City Department of Parks and Recreation", "operator:short": "NYC Parks", "operator:type": "government", "operator:wikidata": "Q1894232", "wheelchair": "yes", "wikidata": "Q5309158", "wikipedia": "en:Drumgoole Plaza"}}, {"type": "way", "id": 575213948, "nodes": [5520006583, 5520006584, 5520006585, 5520006586, 5520006587, 9373577343, 9373577358, 5520006588, 5520006589, 9373577300, 5520006590, 5520006591, 5520006592, 9373577284, 9373577277, 5520006593, 9369042345, 9373577262, 5520006594, 9373577240, 5520006612, 9373577242, 5520006595, 9373577252, 9369042352, 5520006596, 9373577278, 9373577301, 5520006597, 5520006598, 5520006599, 5520006600, 5520006601, 9373577319, 9368823891, 9373577321, 5520006603, 5520006604, 9368823867, 5520006605, 5520006606, 5520006607, 5520006608, 5520006609, 9373577336, 9373577339, 9373577357, 5520006610, 5520006611, 5520006583], "tags": {"addr:city": "New York", "addr:housenumber": "52", "addr:postcode": "10007", "addr:state": "NY", "addr:street": "Chambers Street", "air_conditioning": "yes", "alt_name": "Old New York County Courthouse", "building": "yes", "building:colour": "#F4ECBB", "government": "education", "height": "25", "name": "Tweed Courthouse", "name:en": "Tweed Courthouse", "nycdoitt:bin": "1079146", "office": "government", "operator": "New York City Department of Citywide Administrative Services", "operator:type": "government", "operator:wikidata": "Q7013158", "polling_station": "yes", "roof:colour": "light_gray", "smoking": "no", "start_date": "1881", "website": "https://www1.nyc.gov/site/dcas/business/dcasmanagedbuildings/tweed-courthouse.page", "wheelchair": "yes", "wikidata": "Q1105773", "wikipedia": "en:Tweed Courthouse"}}, {"type": "way", "id": 890862859, "nodes": [11327973804, 11369424991, 11327973808, 10311946331, 11327973809, 11327973810, 10309622483, 9532192860, 11327973811, 11327964529, 10309622472, 11327964538, 11327964537, 2825072203, 11345710656, 2962264522, 2825071779, 11342975267, 11342975264, 11327973805, 11327973804], "tags": {"addr:city": "New York", "addr:housenumber": "49", "addr:postcode": "10038", "addr:state": "NY", "addr:street": "Fulton Street", "check_date": "2023-11-05", "leisure": "park", "name": "Pearl Street Playground", "name:etymology:wikidata": "Q2356321", "operator": "New York City Department of Parks and Recreation", "operator:short": "NYC Parks", "operator:type": "government", "operator:wikidata": "Q1894232", "website": "https://www.nycgovparks.org/parks/pearl-st-playground"}}, {"type": "way", "id": 891074473, "nodes": [6150654567, 8281922023, 8281922024, 8281922025, 8281922096, 11349528761, 6150654572, 11349509502, 11349509503, 11349509501, 11347850276, 8281893493, 8281893494, 11347777630, 8281893495, 8281893496, 11347777627, 8281893497, 8281893498, 8281893499, 11349528760, 8281893500, 8281893501, 4900466392, 11349528772, 11349528775, 11349528618, 11349528726, 11349528619, 8281893503, 8281893504, 8281893505, 4900466379, 8281893506, 8281893507, 8281893508, 8281922038, 4900466385, 11349528555, 11349528545, 8281893510, 11349528489, 8281893511, 6150654571, 9364519631, 11033251601, 11033251602, 11033251598, 9364519629, 9364519628, 6150654570, 8281922017, 6150654569, 8281922018, 6150654568, 9364517405, 10297381513, 8281922098, 6150654567], "tags": {"addr:city": "New York", "addr:housenumber": "1", "addr:postcode": "10038", "addr:state": "NY", "addr:street": "Pace Plaza", "amenity": "university", "name": "Pace University", "website": "https://www.pace.edu/", "wikidata": "Q556098", "wikipedia": "en:Pace University"}}, {"type": "way", "id": 891074490, "nodes": [3736086998, 3736086997, 11349101752, 11349101749, 3736086995, 11349101757, 2825065164, 11349101718, 2825065151, 11349101706, 11349101707, 11349101708, 11349101712, 11349101710, 11349101709, 11349101711, 11349101705, 11349101704, 3736086998], "tags": {"addr:city": "New York", "addr:postcode": "10038", "addr:state": "NY", "leisure": "park"}}, {"type": "way", "id": 1017512882, "nodes": [2825366438, 9389819411, 9389819410, 9389819409, 9389819408, 9389819407, 9389819406, 9389819405, 9377535337, 9377535320, 9377535341, 9389819404, 9389819403, 9389819402, 9389819401, 9389819400, 9389819399, 9389819398, 1241256531, 9390091291, 9390091290, 9390091292, 1241256515, 2825366438]}, {"type": "way", "id": 1017512883, "nodes": [9377509609, 1241256529, 2242203980, 9377535336, 9377535334, 9390090944, 9377535332, 9377535338, 9377535322, 1241256442, 9377509610, 9377535339, 9377535331, 9377535333, 9377535340, 9377509609]}, {"type": "way", "id": 1157729509, "nodes": [10766665245, 10766665246, 10766665247, 10766665248, 10766665249, 10766665250, 10766665251, 10766665252, 2723697672, 2723697657, 2723681504, 2723681464, 10766665253, 2723681463, 2723681449, 2723681478, 2723681460, 2723681444, 2723681314, 10766665254, 10766665255, 2723681421, 2723681462, 2723681482, 2723681493, 2723681506, 10766665260, 2723681505, 2997301176, 10766665256, 2997301177, 10766665257, 2723681696, 2723681712, 11419656042, 2723681669, 2723681620, 2723681591, 2723697680, 10766665245], "tags": {"addr:city": "New York", "addr:housenumber": "1300", "addr:postcode": "10021", "addr:state": "NY", "addr:street": "York Avenue", "amenity": "university", "check_date": "2024-08-06", "name": "Weill Medical College of Cornell University", "website": "https://medicine.weill.cornell.edu/about-us/contact-us/maps-directions"}}, {"type": "way", "id": 1157729510, "nodes": [11347850239, 10766665261, 11347850248, 11347850246, 8262309747, 11347850247, 11347850238, 11350133524, 11347850240, 11347850244, 11347850245, 8262309745, 11347850242, 11347850243, 11347850241, 11347850279, 10766665263, 7477081383, 7477097785, 7477081378, 11347850309, 11347850239], "tags": {"addr:city": "New York", "addr:housenumber": "1300", "addr:postcode": "10021", "addr:state": "NY", "addr:street": "York Avenue", "amenity": "university", "name": "Weill Medical College of Cornell University", "website": "https://medicine.weill.cornell.edu/about-us/contact-us/maps-directions"}}, {"type": "way", "id": 1223670554, "nodes": [11350190900, 11350190901, 11350190902, 11350190903, 11350190900], "tags": {"building": "yes", "office": "security"}}, {"type": "relation", "id": 13625437, "members": [{"type": "way", "ref": 1017512882, "role": "outer"}, {"type": "way", "ref": 1017512883, "role": "inner"}], "tags": {"addr:city": "New York", "addr:housenumber": "1", "addr:postcode": "10007", "addr:state": "NY", "addr:street": "Centre Street", "air_conditioning": "yes", "architect": "William M. Kendall", "architect:wikidata": "Q17183207", "architect:wikipedia": "en:William M. Kendall", "building": "yes", "building:levels": "40", "building:use": "government", "government": "administrative", "height": "180", "heritage": "2", "heritage:operator": "nrhp", "heritage:website": "https://www.nps.gov/subjects/nationalregister/index.htm", "name": "David N. Dinkins Manhattan Municipal Building", "nrhp:inscription_date": "1972-10-18", "nycdoitt:bin": "1001394", "office": "government", "old_name": "Manhattan Municipal Building", "operator": "New York City Department of Citywide Administrative Services", "smoking": "no", "start_date": "1914", "type": "multipolygon", "website": "https://www1.nyc.gov/site/dcas/business/dcasmanagedbuildings/david-n-dinkins-manhattan-municipal-building.page", "wikidata": "Q1156778", "wikipedia": "en:Manhattan Municipal Building"}}, {"type": "relation", "id": 15652630, "members": [{"type": "way", "ref": 1157729510, "role": "outer"}, {"type": "way", "ref": 1157729509, "role": "outer"}], "tags": {"amenity": "university", "name": "Weill Medical College of Cornell University", "short_name": "WCM", "type": "multipolygon", "website": "https://weill.cornell.edu/", "wikidata": "Q3567094", "wikipedia": "en:Weill Cornell Medicine"}}]}