{"version": 0.6, "generator": "Overpass API 0.7.62.8 e802775f", "osm3s": {"timestamp_osm_base": "2025-12-01T16:29:58Z", "copyright": "The data included in this document is from www.openstreetmap.org. The data is made available under ODbL."}, "elements": [{"type": "node", "id": 357647499, "lat": 40.7491667, "lon": -73.8913889, "tags": {"amenity": "school", "ele": "18", "gnis:feature_id": "2487057", "name": "Plaza College"}}, {"type": "node", "id": 2017706123, "lat": 40.7464154, "lon": -73.8916397, "tags": {"amenity": "restaurant", "cuisine": "vietnamese", "name": "Thai Son"}}, {"type": "node", "id": 2017706361, "lat": 40.746521, "lon": -73.8916022, "tags": {"amenity": "restaurant", "cuisine": "asian", "name": "Chung Ki Wa"}}, {"type": "node", "id": 2017706920, "lat": 40.7458336, "lon": -73.8901305, "tags": {"amenity": "bar", "name": "Prince"}}, {"type": "node", "id": 2569997970, "lat": 40.7491395, "lon": -73.8912438, "tags": {"addr:city": "Jackson Heights", "addr:housenumber": "74-19", "addr:postcode": "11372", "addr:state": "NY", "addr:street": "37th Avenue", "amenity": "restaurant", "cuisine": "indian;chinese;fusion", "diet:halal": "yes", "name": "Sagar Chinese", "opening_hours:covid19": "off", "phone": "+1-718-505-1002;+1-718-505-1071", "website": "https://sagarchinese.com/locations/jackson-heights/"}}, {"type": "node", "id": 2569998640, "lat": 40.7493019, "lon": -73.8897095, "tags": {"addr:housenumber": "76-03", "addr:postcode": "11372", "addr:street": "37th Avenue", "amenity": "restaurant", "name": "Lhasa Fast Food", "old_name": "Al-Araf Halal Fried Chicken & Frozen Food"}}, {"type": "node", "id": 2570169385, "lat": 40.7472673, "lon": -73.8922696, "tags": {"addr:city": "Jackson Heights", "addr:housenumber": "73-01", "addr:postcode": "11372", "addr:state": "NY", "addr:street": "37th Road", "amenity": "restaurant", "check_date": "2025-04-18", "cuisine": "bangladeshi;indian;pakistani", "diet:halal": "yes", "level": "0;1", "name": "Kabab King", "opening_hours": "24/7", "phone": "+1 718-457-5857", "website": "https://kababking.com/"}}, {"type": "node", "id": 2570171077, "lat": 40.7488947, "lon": -73.8912562, "tags": {"addr:housenumber": "74-14", "addr:postcode": "11372", "addr:street": "37th Avenue", "amenity": "restaurant", "cuisine": "himalayan", "name": "Mustang Thakali Kitchen"}}, {"type": "node", "id": 2715249072, "lat": 40.7493119, "lon": -73.8896388, "tags": {"addr:city": "Jackson Heights", "addr:housenumber": "76-05", "addr:postcode": "11372", "addr:state": "NY", "addr:street": "37th Avenue", "amenity": "restaurant", "capacity": "43", "cuisine": "american", "delivery": "no", "name": "Swim Two Birds", "phone": "+1-347-843-9922", "smoking": "no", "website": "https://swimtwobirds.nyc/", "wheelchair": "yes"}}, {"type": "node", "id": 2715249669, "lat": 40.7491583, "lon": -73.8889582}, {"type": "node", "id": 2715249670, "lat": 40.7492462, "lon": -73.8881217}, {"type": "node", "id": 2715249671, "lat": 40.7484383, "lon": -73.8879716}, {"type": "node", "id": 2715249672, "lat": 40.748346, "lon": -73.8888}, {"type": "node", "id": 2845163399, "lat": 40.7466957, "lon": -73.8940539, "tags": {"addr:city": "Jackson Heights", "addr:housenumber": "71-21", "addr:postcode": "11372", "addr:state": "NY", "addr:street": "Roosevelt Avenue", "check_date": "2025-04-28", "name": "New Immigrant Community Empowerment (NICE)", "office": "association", "website": "https://www.nynice.org/"}}, {"type": "node", "id": 2845168390, "lat": 40.7476505, "lon": -73.8934125}, {"type": "node", "id": 2845168391, "lat": 40.7476509, "lon": -73.8934111}, {"type": "node", "id": 2845168394, "lat": 40.7476609, "lon": -73.8933774}, {"type": "node", "id": 2845168395, "lat": 40.7476819, "lon": -73.8933557}, {"type": "node", "id": 2845168398, "lat": 40.7477289, "lon": -73.8935975}, {"type": "node", "id": 2845168705, "lat": 40.7477932, "lon": -73.8936098}, {"type": "node", "id": 2845168706, "lat": 40.7478009, "lon": -73.8933621}, {"type": "node", "id": 2846314559, "lat": 40.7459079, "lon": -73.8899424, "tags": {"addr:city": "Elmhurst", "addr:housenumber": "75-16", "addr:postcode": "11373", "addr:state": "NY", "addr:street": "Broadway", "amenity": "restaurant", "cuisine": "tibetan", "name": "Taste Of Himalaya"}}, {"type": "node", "id": 2846314566, "lat": 40.7458059, "lon": -73.889704, "tags": {"addr:housenumber": "75-24", "addr:postcode": "11373", "addr:street": "Broadway", "name": "Law Office Of Omrani & Taub, PC", "office": "lawyer", "phone": "+1 212 529 7848"}}, {"type": "node", "id": 2846354142, "lat": 40.748994, "lon": -73.8903591, "tags": {"addr:housenumber": "75-16", "addr:postcode": "11372", "addr:street": "37th Avenue", "brand": "H&R Block", "brand:wikidata": "Q5627799", "name": "H&R Block", "office": "tax_advisor"}}, {"type": "node", "id": 2846354178, "lat": 40.7469399, "lon": -73.889421, "tags": {"addr:city": "Jackson Heights", "addr:housenumber": "76-02", "addr:postcode": "11373", "addr:state": "NY", "addr:street": "Roosevelt Avenue", "amenity": "restaurant", "cuisine": "colombian", "email": "losarrierosrestaurantny@gmail.com", "name": "Los Arrieros", "phone": "+1-718-898-3359", "website": "https://www.losarrierosrestaurantnyc.com"}}, {"type": "node", "id": 2846354186, "lat": 40.7456788, "lon": -73.8887322, "tags": {"addr:housenumber": "76-11", "addr:postcode": "11373", "addr:street": "Broadway", "name": "Rocamar", "office": "estate_agent"}}, {"type": "node", "id": 2846354510, "lat": 40.7489601, "lon": -73.8907354, "tags": {"addr:housenumber": "75-02", "addr:postcode": "11372", "addr:street": "37th Avenue", "amenity": "cafe", "name": "Ricky's Cafe"}}, {"type": "node", "id": 2846354511, "lat": 40.7489962, "lon": -73.8903366, "tags": {"addr:housenumber": "75-18", "addr:postcode": "11372", "addr:street": "37th Avenue", "amenity": "restaurant", "cuisine": "indian", "name": "Samudra South Indian Restaurant"}}, {"type": "node", "id": 3260474407, "lat": 40.7456127, "lon": -73.8892048}, {"type": "node", "id": 3260474408, "lat": 40.74551, "lon": -73.8891866}, {"type": "node", "id": 3260474409, "lat": 40.7455183, "lon": -73.8889905}, {"type": "node", "id": 3695530688, "lat": 40.7487688, "lon": -73.8924472, "tags": {"addr:city": "Jackson Heights", "addr:housenumber": "73-06", "addr:postcode": "11372", "addr:state": "NY", "addr:street": "37th Avenue", "amenity": "restaurant", "check_date:opening_hours": "2023-12-31", "cuisine": "regional;bengali", "name": "Abdullah Sweets", "opening_hours:signed": "no"}}, {"type": "node", "id": 3788904568, "lat": 40.7447779, "lon": -73.8874166}, {"type": "node", "id": 3788904584, "lat": 40.7448653, "lon": -73.8874354}, {"type": "node", "id": 3788904586, "lat": 40.7450272, "lon": -73.887815}, {"type": "node", "id": 3788904590, "lat": 40.7449271, "lon": -73.8875802}, {"type": "node", "id": 3788904602, "lat": 40.744742, "lon": -73.8877539}, {"type": "node", "id": 4477543066, "lat": 40.7472989, "lon": -73.8915779}, {"type": "node", "id": 4510189273, "lat": 40.7480762, "lon": -73.8935588, "tags": {"addr:city": "Jackson Heights", "addr:housenumber": "37-21", "addr:postcode": "11372", "addr:state": "NY", "addr:street": "72nd Street", "name": "Mamun's Tutorial", "office": "company", "phone": "+1-718-507-2113", "website": "https://www.mamuntutorial.com/"}}, {"type": "node", "id": 4528128545, "lat": 40.7464395, "lon": -73.893856, "tags": {"addr:city": "Jackson Heights", "addr:housenumber": "71-28", "addr:postcode": "11372", "addr:state": "NY", "addr:street": "Roosevelt Avenue", "amenity": "restaurant", "check_date": "2025-04-28", "cuisine": "japanese;sushi", "name": "Izakaya Fuku", "opening_hours": "Mo-Fr 12:00-22:00", "phone": "+1-718-255-1120", "website": "https://www.fukunyc.com/"}}, {"type": "node", "id": 5425890900, "lat": 40.7458115, "lon": -73.89048, "tags": {"addr:housenumber": "40-38", "addr:street": "75th Street", "amenity": "school", "email": "yadhiritarodriguez01@gmail.com", "name": "ACE Institute of Technology", "phone": "+1-347-806-3919", "website": "https://www.acecareer.edu"}}, {"type": "node", "id": 5449714621, "lat": 40.7469232, "lon": -73.8884857, "tags": {"amenity": "restaurant", "name": "Arepa Lady"}}, {"type": "node", "id": 5658796960, "lat": 40.7470294, "lon": -73.8908243, "tags": {"addr:city": "Jackson Heights", "addr:housenumber": "74-15", "addr:state": "NY", "addr:street": "Roosevelt Avenue", "amenity": "restaurant", "cuisine": "tibetan;nepalese", "name": "Nepali Bhanchha Ghar"}}, {"type": "node", "id": 5687589453, "lat": 40.7460619, "lon": -73.88966, "tags": {"addr:housenumber": "75-19", "addr:street": "Broadway", "level": "1", "name": "Rojas Insurance", "office": "financial", "phone": "+1-718-651-5648"}}, {"type": "node", "id": 5687589463, "lat": 40.7460305, "lon": -73.8895815, "tags": {"addr:housenumber": "75-21", "addr:street": "Broadway", "name": "Abogados", "office": "lawyer"}}, {"type": "node", "id": 5687593715, "lat": 40.7461279, "lon": -73.8897965, "tags": {"addr:housenumber": "75-15", "addr:street": "Broadway", "amenity": "bar", "name": "Alfonso's Bar"}}, {"type": "node", "id": 5687594861, "lat": 40.746075, "lon": -73.8896943, "tags": {"addr:city": "Elmhurst", "addr:housenumber": "75-19", "addr:state": "NY", "addr:street": "Broadway", "amenity": "restaurant", "cuisine": "thai", "name": "Sabay", "phone": "+1-718-424-9054"}}, {"type": "node", "id": 5687606526, "lat": 40.7453695, "lon": -73.8887732, "tags": {"addr:housenumber": "76-12", "addr:street": "41st Avenue", "name": "The Law Firm of Ryan J. Walsh & Associates", "office": "lawyer", "phone": "+1-718-793-2488"}}, {"type": "node", "id": 6328326725, "lat": 40.7455985, "lon": -73.8900098, "tags": {"addr:housenumber": "40-47", "addr:street": "75th Street", "level": "1", "name": "Law Offices", "office": "lawyer", "phone": "+1-347-448-8530;+1-718-505-1010"}}, {"type": "node", "id": 6328329852, "lat": 40.7456821, "lon": -73.8904449, "tags": {"addr:housenumber": "40-42", "addr:street": "75th Street", "amenity": "school", "name": "CCBD School of New York"}}, {"type": "node", "id": 6328329854, "lat": 40.7457441, "lon": -73.8900563, "tags": {"addr:housenumber": "40-41", "addr:street": "75th Street", "level": "0", "name": "Redrovan Law Group, P.C.", "office": "lawyer", "phone": "+1-516-323-6900"}}, {"type": "node", "id": 6328329925, "lat": 40.7456839, "lon": -73.8900518, "tags": {"addr:housenumber": "40-43", "addr:street": "75th Street", "level": "0", "name": "Law Office of Michael Gasi Esq. and Associates, P.C.", "office": "lawyer", "phone": "+1-718-255-0881"}}, {"type": "node", "id": 6337147661, "lat": 40.7481933, "lon": -73.8928547, "tags": {"addr:city": "Jackson Heights", "addr:country": "US", "addr:housenumber": "3722", "addr:postcode": "11372", "addr:state": "NY", "addr:street": "73rd Street", "addr:unit": "#2G", "fax": "+1 718-899-0002", "name": "The Best Hope Realty Inc", "office": "estate_agent", "phone": "+1 718-685-2000"}}, {"type": "node", "id": 6614983874, "lat": 40.7472109, "lon": -73.8922969}, {"type": "node", "id": 6945365370, "lat": 40.74726, "lon": -73.8920529, "tags": {"addr:city": "Jackson Heights", "addr:housenumber": "73-07", "addr:postcode": "11372", "addr:state": "NY", "addr:street": "37th Road", "amenity": "restaurant", "check_date": "2025-04-18", "cuisine": "bangladeshi", "diet:halal": "yes", "name": "Ittadi Garden & Grill", "opening_hours": "Mo-Su 07:00-02:00", "phone": "+1 718-429-5555", "website": "https://ittadigardengrill.shop", "website:menu": "https://ittadigardengrill.shop/menu"}}, {"type": "node", "id": 7230975167, "lat": 40.7457153, "lon": -73.8894824, "tags": {"addr:housenumber": "75-32", "addr:street": "Broadway", "amenity": "restaurant", "cuisine": "korean", "name": "Haewoondae", "phone": "+1 718 397 5834"}}, {"type": "node", "id": 7590538298, "lat": 40.7471606, "lon": -73.8922869}, {"type": "node", "id": 7916951160, "lat": 40.7471975, "lon": -73.8893592, "tags": {"addr:housenumber": "76-03", "addr:street": "Roosevelt Avenue", "amenity": "bar", "name": "Queens El California Bar"}}, {"type": "node", "id": 7916951161, "lat": 40.7472094, "lon": -73.8892423, "tags": {"addr:housenumber": "76-07", "addr:street": "Roosevelt Avenue", "amenity": "bar", "name": "Queens Romantico Bar"}}, {"type": "node", "id": 7916951164, "lat": 40.7472154, "lon": -73.8891774, "tags": {"addr:housenumber": "76-09", "addr:street": "Roosevelt Avenue", "name": "Queens Cepeda Car Insurance", "office": "insurance", "phone": "+1-718-565-8585"}}, {"type": "node", "id": 7917128898, "lat": 40.7473316, "lon": -73.8883634, "tags": {"addr:housenumber": "77-05", "addr:street": "Roosevelt Avenue", "government": "transportation", "office": "government", "operator": "New York City Transit Authority"}}, {"type": "node", "id": 7917128905, "lat": 40.7457029, "lon": -73.8887946, "tags": {"addr:city": "Elmhurst", "addr:housenumber": "76-09A", "addr:state": "NY", "addr:street": "Broadway", "amenity": "cafe", "name": "Kiwi Lime", "outdoor_seating": "no", "phone": "+1 718 433 9788"}}, {"type": "node", "id": 7917128907, "lat": 40.7468267, "lon": -73.8884901, "tags": {"amenity": "bar", "level": "1", "name": "Olympia Billiards Snooker Bar"}}, {"type": "node", "id": 8113635563, "lat": 40.7471805, "lon": -73.8915549}, {"type": "node", "id": 8547587546, "lat": 40.7486242, "lon": -73.8880085}, {"type": "node", "id": 8547587547, "lat": 40.7486652, "lon": -73.8880158}, {"type": "node", "id": 8547587548, "lat": 40.7483791, "lon": -73.8885027}, {"type": "node", "id": 9966728419, "lat": 40.7475496, "lon": -73.8939144, "tags": {"addr:city": "Jackson Heights", "addr:housenumber": "37-38", "addr:postcode": "11372", "addr:state": "NY", "addr:street": "72nd Street", "amenity": "restaurant", "cuisine": "nepali", "name": "Tawa Roti Dhaulagiri Food", "opening_hours": "Mo-Su 09:00-01:15", "phone": "+1 718-457-7766"}}, {"type": "node", "id": 9966728717, "lat": 40.7472116, "lon": -73.8908958, "tags": {"addr:housenumber": "74-14", "addr:postcode": "11372", "addr:street": "37th Road", "amenity": "restaurant", "name": "Angel Indian Restaurant", "opening_hours": "Mo-Su 11:30-22:00", "website": "https://angelindianny.com/"}}, {"type": "node", "id": 10739428288, "lat": 40.7478809, "lon": -73.89177, "tags": {"amenity": "restaurant", "cuisine": "indian", "name": "Jackson Diner"}}, {"type": "node", "id": 10822923414, "lat": 40.7463834, "lon": -73.8910581, "tags": {"addr:housenumber": "7410", "addr:postcode": "11373", "addr:state": "NY", "addr:street": "Broadway", "amenity": "restaurant", "cuisine": "indian", "level": "0", "name": "Khalil Biryani House"}}, {"type": "node", "id": 10968363058, "lat": 40.7460415, "lon": -73.890507, "tags": {"addr:housenumber": "40-36", "addr:street": "75th Street", "amenity": "cafe", "check_date": "2023-06-10", "cuisine": "bubble_tea", "internet_access": "wlan", "internet_access:fee": "no", "name": "Bobba Hubba", "payment:mastercard": "yes", "payment:visa": "yes", "phone": "+1 212-365-8269", "website": "https://bubbahubba.com"}}, {"type": "node", "id": 10984684917, "lat": 40.7488836, "lon": -73.8911833, "tags": {"addr:housenumber": "74-16", "addr:street": "37th Avenue", "amenity": "restaurant", "check_date": "2023-06-18", "cuisine": "asian", "name": "Asian Fusion & Grill", "opening_hours": "12:00-22:00", "phone": "+1 718-507-8800"}}, {"type": "node", "id": 11034754905, "lat": 40.7487649, "lon": -73.8916822, "tags": {"addr:housenumber": "37-04", "addr:postcode": "11372", "addr:street": "74th Street", "amenity": "restaurant", "cuisine": "indian", "name": "Merit Kebab"}}, {"type": "node", "id": 12299680838, "lat": 40.7470898, "lon": -73.890311, "tags": {"amenity": "cafe", "brand": "Starbucks", "brand:wikidata": "Q37158", "cuisine": "coffee_shop", "name": "Starbucks", "official_name": "Starbucks Coffee", "takeaway": "yes"}}, {"type": "node", "id": 12344492530, "lat": 40.7471098, "lon": -73.8921508}, {"type": "node", "id": 12410425770, "lat": 40.7468965, "lon": -73.8897348, "tags": {"amenity": "bar", "name": "75 Blue Bar"}}, {"type": "node", "id": 12410425772, "lat": 40.7471699, "lon": -73.8897247, "tags": {"amenity": "restaurant", "name": "Laly\u2019s"}}, {"type": "node", "id": 12410425777, "lat": 40.7468937, "lon": -73.8898018, "tags": {"amenity": "bar", "name": "Scorpion"}}, {"type": "node", "id": 12755490210, "lat": 40.7464358, "lon": -73.8937486, "tags": {"addr:city": "Jackson Heights", "addr:housenumber": "7132", "addr:postcode": "11372", "addr:state": "NY", "addr:street": "Roosevelt Avenue", "amenity": "cafe", "bar": "yes", "cuisine": "coffee_shop;cafe;wine;nepalese", "internet_access": "wlan", "internet_access:fee": "no", "level": "0", "name": "Cafe Catmandoo", "outdoor_seating": "no", "toilets": "yes", "website": "https://www.instagram.com/cafecatmandoo/?hl=en"}}, {"type": "node", "id": 12760709327, "lat": 40.7476177, "lon": -73.893979, "tags": {"addr:city": "Jackson Heights", "addr:housenumber": "70-64", "addr:postcode": "11372", "addr:state": "NY", "addr:street": "Broadway", "amenity": "restaurant", "check_date": "2025-04-24", "cuisine": "indian;bengali;pakistani", "diet:halal": "yes", "name": "Kababish", "opening_hours": "Mo-Su 09:00-05:00", "phone": "+1 718-565-5131", "website": "https://www.kababish.com/"}}, {"type": "node", "id": 12760709332, "lat": 40.7470781, "lon": -73.8919987, "tags": {"amenity": "restaurant", "cuisine": "indian"}}, {"type": "node", "id": 12760709334, "lat": 40.7471616, "lon": -73.8913416, "tags": {"amenity": "restaurant", "cuisine": "asian;tibetan", "level": "1", "name": "Phayul", "payment:cash": "yes"}}, {"type": "node", "id": 12760709338, "lat": 40.7472201, "lon": -73.8908385, "tags": {"amenity": "restaurant", "cuisine": "nepalese", "name": "Nepali Momo"}}, {"type": "node", "id": 12760709342, "lat": 40.7473599, "lon": -73.8912146, "tags": {"amenity": "restaurant", "cuisine": "asian;tibetan;nepalese", "level": "0", "name": "Phayul II"}}, {"type": "node", "id": 12795813521, "lat": 40.7468001, "lon": -73.8938207, "tags": {"addr:city": "Jackson Heights", "addr:housenumber": "37-66", "addr:postcode": "11372", "addr:state": "NY", "addr:street": "72nd Street", "addr:unit": "3 Fl", "check_date": "2025-04-28", "description": "Taxes, accounting, and immigration services", "email": "info@itradeincs.com", "fax": "+1 718-744-9786", "name": "iTrade Inc.", "office": "accountant", "phone": "+1 917-856-8809", "website": "https://itradeincs.com/"}}, {"type": "node", "id": 12795813522, "lat": 40.7467855, "lon": -73.8937997, "tags": {"addr:city": "Jackson Heights", "addr:housenumber": "37-66", "addr:postcode": "11372", "addr:state": "NY", "addr:street": "72nd Street", "addr:unit": "3 Fl", "check_date": "2025-04-28", "email": "info@faridahmedlaw.com", "name": "Farid Ahmed", "office": "lawyer", "opening_hours": "24/7", "phone": "+1 718-637-1111", "website": "https://faridahmedlaw.com/"}}, {"type": "node", "id": 12795813524, "lat": 40.7464226, "lon": -73.8940206, "tags": {"addr:city": "Jackson Heights", "addr:housenumber": "71-22", "addr:postcode": "11372", "addr:state": "NY", "addr:street": "Roosevelt Avenue", "amenity": "restaurant", "check_date": "2025-04-28", "cuisine": "chicken", "name": "UFC", "opening_hours": "Mo-Th 11:00-21:30; Fr-Sa 11:00-22:00; Su 12:00-21:00", "phone": "+1 718-205-6662", "website": "https://www.ufchicken.com/", "website:menu": "https://www.ufchicken.com/menu"}}, {"type": "node", "id": 12795813525, "lat": 40.7464403, "lon": -73.8939113, "tags": {"addr:city": "Jackson Heights", "addr:housenumber": "71-26", "addr:postcode": "11372", "addr:state": "NY", "addr:street": "Roosevelt Avenue", "amenity": "restaurant", "check_date": "2025-04-28", "cuisine": "asian;chinese;japanese", "name": "East 21", "opening_hours": "Mo 11:00-23:00; Tu off; We-Su 11:00-23:00", "phone": "+1 718-639-3535", "website:menu": "https://www.east21ny.com/egfrtkti/restaurant/order-online"}}, {"type": "node", "id": 12795813526, "lat": 40.7464484, "lon": -73.893806, "tags": {"addr:city": "Jackson Heights", "addr:housenumber": "71-30", "addr:postcode": "11372", "addr:state": "NY", "addr:street": "Roosevelt Avenue", "amenity": "restaurant", "check_date": "2025-04-28", "cuisine": "thai", "name": "Playground", "opening_hours": "Mo-Su 15:00-23:45", "phone": "+1 718-779-7912", "website": "https://play-ground-thai-restaurant.res-menu.com/", "website:menu": "https://play-ground-thai-restaurant.res-menu.com/menu"}}, {"type": "node", "id": 12795845519, "lat": 40.7474908, "lon": -73.8939336, "tags": {"addr:city": "Jackson Heights", "addr:housenumber": "37-42", "addr:postcode": "11372", "addr:state": "NY", "addr:street": "72nd Street", "addr:unit": "2 Fl", "check_date": "2025-04-28", "email": "info@ssbrokerageinc.com", "name": "S.S. Brokerage", "office": "financial_advisor", "phone": "+1 646-727-7772", "website": "https://ssbrokerageinc.com/"}}, {"type": "node", "id": 12795845520, "lat": 40.7473353, "lon": -73.8939207, "tags": {"addr:city": "Jackson Heights", "addr:housenumber": "37-48", "addr:postcode": "11372", "addr:state": "NY", "addr:street": "72nd Street", "check_date": "2025-04-28", "name": "Legal Network International, LLC", "office": "lawyer", "phone": "+1 917-722-1408", "website": "https://legalnetworkusa.com/"}}, {"type": "node", "id": 12795858204, "lat": 40.7468196, "lon": -73.8928274, "tags": {"amenity": "restaurant"}}, {"type": "node", "id": 12795866899, "lat": 40.7473319, "lon": -73.8934746, "tags": {"addr:city": "Jackson Heights", "addr:housenumber": "37-51", "addr:postcode": "11372", "addr:state": "NY", "addr:street": "72nd Street", "name": "Certified Public Accountant", "office": "accountant", "phone": "+1 718-426-7881"}}, {"type": "node", "id": 12795879505, "lat": 40.747274, "lon": -73.8935516, "tags": {"addr:city": "Jackson Heights", "addr:housenumber": "37-53", "addr:postcode": "11372", "addr:state": "NY", "addr:street": "72nd Street", "name": "Debenath Accounting Inc.", "office": "accountant", "phone": "+1 917-285-5489"}}, {"type": "node", "id": 12795879508, "lat": 40.7472668, "lon": -73.8935378, "tags": {"addr:city": "Jackson Heights", "addr:housenumber": "37-53", "addr:postcode": "11372", "addr:state": "NY", "addr:street": "72nd Street", "addr:unit": "B", "email": "impactcons@outlook.com", "name": "Impact Consulting Services", "office": "accountant", "phone": "+1 917-497-1673", "website": "https://www.impactcons.com/"}}, {"type": "node", "id": 12795879510, "lat": 40.7472181, "lon": -73.893527, "tags": {"addr:city": "Jackson Heights", "addr:housenumber": "37-55", "addr:postcode": "11372", "addr:state": "NY", "addr:street": "72nd Street", "name": "Hasan Tax & Accounting Inc.", "office": "accountant", "phone": "+1 929-305-7544"}}, {"type": "node", "id": 13048429405, "lat": 40.7454983, "lon": -73.8891573}, {"type": "node", "id": 13048429429, "lat": 40.7455416, "lon": -73.8889963}, {"type": "node", "id": 13048429445, "lat": 40.7456145, "lon": -73.8891814}, {"type": "node", "id": 13286214049, "lat": 40.7473643, "lon": -73.8894912, "tags": {"addr:city": "Jackson Heights", "addr:housenumber": "3763", "addr:postcode": "11372", "addr:state": "NY", "addr:street": "76th Street", "amenity": "restaurant", "name": "Laliguras Bistro", "website": "https://www.clover.com/online-ordering/laliguras-restaurant-inc-queens"}}, {"type": "way", "id": 265922494, "nodes": [2715249669, 2715249670, 8547587547, 8547587546, 2715249671, 8547587548, 2715249672, 2715249669], "tags": {"alt_name": "Public School 69 Queens;P.S. 69Q", "amenity": "school", "ele": "18", "gnis:feature_id": "961810", "name": "Public School 69", "official_name": "The School Of Cultural and Performing Arts", "operator": "New York City Department of Education", "operator:short": "NYC Public Schools", "operator:type": "public", "operator:wikidata": "Q408230", "operator:wikipedia": "en:New York City Department of Education", "ref": "Q69", "short_name": "P.S. 69", "website": "https://www.ps69q.com/"}}, {"type": "way", "id": 280400647, "nodes": [2845168390, 2845168398, 2845168705, 2845168706, 2845168395, 2845168394, 2845168391, 2845168390], "tags": {"addr:city": "Jackson Heights", "addr:housenumber": "72-09", "addr:postcode": "11372", "addr:state": "NY", "addr:street": "Broadway", "amenity": "restaurant", "building": "yes", "cuisine": "indian;nepali;pakistani;bengali", "email": "info@deraeats.com", "height": "4.5", "name": "Dera", "nycdoitt:bin": "4029776", "opening_hours": "Mo-Th 10:00-12:00; Fr-Su 10:00-01:00", "phone": "+1 718-898-3372", "website": "https://deraeats.com/"}}, {"type": "way", "id": 319612956, "nodes": [3260474407, 13048429445, 13048429429, 3260474409, 13048429405, 3260474408, 3260474407], "tags": {"leisure": "park", "name": "Vietnam Veterans Triangle", "operator": "New York City Department of Parks and Recreation", "operator:short": "NYC Parks", "operator:type": "government", "operator:wikidata": "Q1894232", "source": "Bing, NYC", "wikidata": "Q49575129"}}, {"type": "way", "id": 375529007, "nodes": [3788904584, 3788904568, 3788904602, 3788904586, 3788904590, 3788904584], "tags": {"leisure": "park", "name": "O'Connor's Tail", "website": "https://www.nycgovparks.org/parks/oconners-tail/"}}, {"type": "way", "id": 871033912, "nodes": [6614983874, 4477543066, 8113635563, 12344492530, 7590538298, 6614983874], "tags": {"leisure": "park", "name": "Diversity Plaza"}}]}