{"version": 0.6, "generator": "Overpass API 0.7.62.8 e802775f", "osm3s": {"timestamp_osm_base": "2025-12-01T03:49:55Z", "copyright": "The data included in this document is from www.openstreetmap.org. The data is made available under ODbL."}, "elements": [{"type": "node", "id": 269458734, "lat": 40.7511643, "lon": -73.9936021}, {"type": "node", "id": 662894338, "lat": 40.7522171, "lon": -73.9911323, "tags": {"addr:city": "New York", "addr:housenumber": "225", "addr:postcode": "10001", "addr:state": "NY", "addr:street": "West 35th Street", "air_conditioning": "yes", "amenity": "cafe", "capacity": "10", "check_date": "2024-04-27", "contact:facebook": "https://www.facebook.com/bestbagelnyc", "contact:instagram": "https://www.instagram.com/bestbagelnyc", "cuisine": "bagel", "email": "bestbagel@gmail.com", "internet_access": "no", "name": "Best Bagel & Coffee", "opening_hours": "Mo-Fr 06:00-16:00; Sa-Su 07:00-16:00", "outdoor_seating": "no", "payment:credit_cards": "yes", "payment:debit_cards": "yes", "phone": "+1 212-564-4409", "smoking": "no", "survey:date": "2022-05-11", "takeaway": "yes", "website": "https://www.bestbagelandcoffee.com", "website:menu": "https://www.bestbagelandcoffee.com/menu", "wheelchair": "no"}}, {"type": "node", "id": 663102624, "lat": 40.7499443, "lon": -73.9943348, "tags": {"addr:housenumber": "254", "addr:postcode": "10001", "addr:street": "West 31st Street", "amenity": "pub", "branch": "Penn Station", "cuisine": "irish;gastropub", "kitchen_hours": "Mo 11:30-23:00; Tu-Fr 11:30-24:00; Sa 16:00-24:00; Su 16:00-21:00", "name": "T\u00edr na n\u00d3g", "opening_hours": "Mo-Sa 11:00-02:00; Su 12:00-01:00", "phone": "+1 212-630-0249", "theme": "irish", "website": "https://www.tirnanognyc.com/penn_station/home"}}, {"type": "node", "id": 663104998, "lat": 40.7524435, "lon": -73.9935503, "tags": {"addr:floor": "G", "addr:housenumber": "481", "addr:postcode": "10001", "addr:street": "8th Avenue", "air_conditioning": "yes", "amenity": "restaurant", "bar": "no", "check_date": "2023-04-08", "cocktails": "yes", "cuisine": "diner", "delivery": "no", "drink:beer": "yes", "drink:coffee": "yes", "drink:wine": "yes", "email": "info@ticktockdinerny.com", "facebook": "ticktockdinernyc", "highchair": "yes", "instagram": "ticktockdiner", "level": "0", "microbrewery": "no", "name": "Tick Tock Diner", "opening_hours": "We-Su 00:00-00:00; Mo, Tu 06:00-22:00", "outdoor_seating": "no", "payment:american_express": "yes", "payment:credit_cards": "yes", "payment:discover_card": "yes", "payment:mastercard": "yes", "payment:visa": "yes", "phone": "+1 212-268-8444", "reservation": "yes", "seats": "280", "start_date": "1997", "takeaway": "yes", "website": "https://www.ticktockdinerny.com", "wheelchair": "no"}}, {"type": "node", "id": 663116698, "lat": 40.7528389, "lon": -73.993253, "tags": {"amenity": "pub", "name": "Cooper's Tavern"}}, {"type": "node", "id": 1025399714, "lat": 40.7511609, "lon": -73.9913864}, {"type": "node", "id": 1025399781, "lat": 40.750686, "lon": -73.9917334}, {"type": "node", "id": 1514352926, "lat": 40.7505755, "lon": -73.9927027}, {"type": "node", "id": 1514352949, "lat": 40.7502639, "lon": -73.9941512}, {"type": "node", "id": 1514352954, "lat": 40.7507739, "lon": -73.9926697}, {"type": "node", "id": 1514352956, "lat": 40.7502778, "lon": -73.9942695}, {"type": "node", "id": 1514352957, "lat": 40.7499658, "lon": -73.9929785}, {"type": "node", "id": 1514352960, "lat": 40.7499393, "lon": -73.9933898}, {"type": "node", "id": 1514352962, "lat": 40.7502619, "lon": -73.9942614}, {"type": "node", "id": 1514352963, "lat": 40.7499923, "lon": -73.99379}, {"type": "node", "id": 1514352965, "lat": 40.7504083, "lon": -73.9926039}, {"type": "node", "id": 1514352976, "lat": 40.7511242, "lon": -73.9937966}, {"type": "node", "id": 1514352978, "lat": 40.7505002, "lon": -73.9926989}, {"type": "node", "id": 1514352985, "lat": 40.7499368, "lon": -73.9934809}, {"type": "node", "id": 1514352989, "lat": 40.7504152, "lon": -73.9943169}, {"type": "node", "id": 1514352992, "lat": 40.749915, "lon": -73.9931276}, {"type": "node", "id": 1514352994, "lat": 40.750562, "lon": -73.9944193}, {"type": "node", "id": 1514352996, "lat": 40.7507748, "lon": -73.9927794}, {"type": "node", "id": 1514352998, "lat": 40.7503177, "lon": -73.9926797}, {"type": "node", "id": 1514353006, "lat": 40.7510539, "lon": -73.9931809}, {"type": "node", "id": 1514353009, "lat": 40.7510771, "lon": -73.993276}, {"type": "node", "id": 1514353012, "lat": 40.7500514, "lon": -73.9929144}, {"type": "node", "id": 1514353015, "lat": 40.7504139, "lon": -73.9926503}, {"type": "node", "id": 1514353017, "lat": 40.750624, "lon": -73.9926101}, {"type": "node", "id": 1514353021, "lat": 40.7510924, "lon": -73.9935322}, {"type": "node", "id": 1514353041, "lat": 40.750128, "lon": -73.9940308}, {"type": "node", "id": 1514353048, "lat": 40.7505244, "lon": -73.9943324}, {"type": "node", "id": 1514353051, "lat": 40.7500331, "lon": -73.9930406}, {"type": "node", "id": 1514353053, "lat": 40.7502061, "lon": -73.9927467}, {"type": "node", "id": 1514353055, "lat": 40.75003, "lon": -73.9938791}, {"type": "node", "id": 1514353058, "lat": 40.7500756, "lon": -73.9939597}, {"type": "node", "id": 1514353060, "lat": 40.7510948, "lon": -73.9938845}, {"type": "node", "id": 1514353062, "lat": 40.7510909, "lon": -73.9933748, "tags": {"entrance": "yes", "name": "Entrance D"}}, {"type": "node", "id": 1514353064, "lat": 40.7501084, "lon": -73.992839}, {"type": "node", "id": 1514353066, "lat": 40.749946, "lon": -73.9935996}, {"type": "node", "id": 1514353072, "lat": 40.7511133, "lon": -73.9940187}, {"type": "node", "id": 1514353074, "lat": 40.7500114, "lon": -73.9930874}, {"type": "node", "id": 1514353075, "lat": 40.750499, "lon": -73.9925924}, {"type": "node", "id": 1514353079, "lat": 40.7498726, "lon": -73.9933246}, {"type": "node", "id": 1514353085, "lat": 40.7509357, "lon": -73.9929368}, {"type": "node", "id": 1514353087, "lat": 40.7510233, "lon": -73.9930953}, {"type": "node", "id": 1514353088, "lat": 40.7504515, "lon": -73.9943249}, {"type": "node", "id": 1514353089, "lat": 40.7499644, "lon": -73.9936968}, {"type": "node", "id": 1514353091, "lat": 40.749994, "lon": -73.9931313}, {"type": "node", "id": 1514353098, "lat": 40.7510947, "lon": -73.9934669}, {"type": "node", "id": 1514353100, "lat": 40.7500254, "lon": -73.9928862}, {"type": "node", "id": 1514353102, "lat": 40.7502535, "lon": -73.9927148}, {"type": "node", "id": 1514353104, "lat": 40.7509807, "lon": -73.9930074}, {"type": "node", "id": 1514353108, "lat": 40.7501882, "lon": -73.9940933}, {"type": "node", "id": 1514353109, "lat": 40.7508158, "lon": -73.9928093}, {"type": "node", "id": 1514353110, "lat": 40.7510766, "lon": -73.993927}, {"type": "node", "id": 1514413383, "lat": 40.7512531, "lon": -73.9920428}, {"type": "node", "id": 1514413384, "lat": 40.7512844, "lon": -73.9920199}, {"type": "node", "id": 1514413399, "lat": 40.7515881, "lon": -73.9928415}, {"type": "node", "id": 1514413400, "lat": 40.7516193, "lon": -73.9928187}, {"type": "node", "id": 1707825812, "lat": 40.7537214, "lon": -73.995808, "tags": {"amenity": "restaurant", "cuisine": "steak_house", "name": "Uncle Jack's"}}, {"type": "node", "id": 1707825813, "lat": 40.7542567, "lon": -73.9954338, "tags": {"addr:housenumber": "456", "addr:postcode": "10018", "addr:street": "9th Avenue", "amenity": "restaurant", "branch": "9th Avenue", "cuisine": "italian", "delivery": "yes", "facebook": "sergimmosalumeriaNYC", "instagram": "sergimmo", "name": "Sergimmo Slumeria", "takeaway": "yes", "twitter": "sergimmo", "website": "https://www.sergimmo.com/9thavenue"}}, {"type": "node", "id": 1707825815, "lat": 40.7543769, "lon": -73.9953394, "tags": {"addr:housenumber": "460", "addr:street": "9th Avenue", "air_conditioning": "yes", "amenity": "restaurant", "bar": "yes", "check_date": "2024-08-11", "cuisine": "thai", "delivery": "yes", "drink:beer": "yes", "drink:sake": "yes", "drink:wine": "yes", "fax": "+1-212-971-8539", "highchair": "yes", "internet_access": "wlan", "internet_access:fee": "customers", "name": "Zoob Zib Thai Authentic Noodle Bar", "opening_hours": "Mo-Sa 11:30-21:30; Su 12:00-21:30", "outdoor_seating": "no", "payment:cash": "yes", "payment:contactless": "yes", "payment:credit_cards": "yes", "payment:debit_cards": "yes", "phone": "+1-212-971-8530", "smoking": "no", "takeaway": "yes", "toilets": "yes", "website": "https://www.zoobzibnyc.com/"}}, {"type": "node", "id": 1707825816, "lat": 40.7533878, "lon": -73.9967808, "tags": {"addr:housenumber": "402", "addr:street": "West 34th Street", "amenity": "restaurant", "cocktails": "yes", "cuisine": "american;burger;soup;salad;omelette;sandwich;breakfast", "delivery": "yes", "diet:vegan": "limited", "diet:vegetarian": "yes", "drink:beer": "yes", "drink:coffee": "served", "drink:wine": "yes", "name": "Skylight Diner", "opening_hours": "24/7", "payment:cash": "yes", "payment:credit_cards": "yes", "payment:debit_cards": "yes", "phone": "+1-212-244-0395", "takeaway": "yes", "toilets:wheelchair": "no", "website": "https://skylightdinernyc.com/", "wheelchair": "yes"}}, {"type": "node", "id": 1707825817, "lat": 40.753864, "lon": -73.9956804, "tags": {"addr:housenumber": "440", "addr:postcode": "10001", "addr:street": "9th Avenue", "amenity": "restaurant", "cuisine": "pub;american", "delivery": "yes", "email": "nicole@hudsonstation.com", "happy_hours": "Mo-Fr 17:00-21:00", "instagram": "hudsonstation", "name": "Hudson Station Bar and Grill", "opening_hours": "Mo-Sa 12:00-04:00; Su 12:00-00:00", "opening_hours:kitchen": "12:00-23:00", "phone": "+1 212-244-4406", "reservation": "yes", "website": "https://www.hudsonstation.com"}}, {"type": "node", "id": 1707825820, "lat": 40.7532964, "lon": -73.9966423, "tags": {"amenity": "restaurant", "cuisine": "asian", "name": "Golden City"}}, {"type": "node", "id": 1707825822, "lat": 40.7544373, "lon": -73.9953011, "tags": {"addr:housenumber": "462", "addr:postcode": "10018", "addr:street": "9th Avenue", "amenity": "cafe", "cuisine": "sushi;japanese", "delivery": "yes", "email": "sushistarny@gmail.com", "name": "Sushi Star", "opening_hours": "Mo-Fr 10:30-19:00", "phone": "+1 212-279-1010", "takeaway": "yes", "website": "https://www.sushistar.com"}}, {"type": "node", "id": 1707825823, "lat": 40.754189, "lon": -73.9954886, "tags": {"addr:housenumber": "454", "addr:postcode": "10018", "addr:street": "9th Avenue", "amenity": "cafe", "check_date": "2025-05-20", "cuisine": "coffee_shop", "email": "info@starstruckcoffee.org", "internet_access": "yes", "internet_access:fee": "no", "level": "0", "name": "Starstruck Coffee", "opening_hours": "Mo-Su 06:00-23:00", "phone": "+1 3479125500"}}, {"type": "node", "id": 1707825824, "lat": 40.7531379, "lon": -73.9967415, "tags": {"addr:city": "New York", "addr:housenumber": "421", "addr:postcode": "10001", "addr:street": "9th Avenue", "amenity": "bar", "name": "Twins"}}, {"type": "node", "id": 2351558467, "lat": 40.7546155, "lon": -73.9949991, "tags": {"amenity": "restaurant", "name": "Bombay Tandoori"}}, {"type": "node", "id": 2377128194, "lat": 40.74969, "lon": -73.99502, "tags": {"addr:city": "New York", "addr:country": "US", "addr:housenumber": "402", "addr:postcode": "10001", "addr:state": "NY", "addr:street": "8th Avenue", "amenity": "pub", "microbrewery": "no", "name": "The Molly Wee Pub", "takeaway": "yes", "website": "http://themollywee.com/", "wheelchair": "yes"}}, {"type": "node", "id": 2407444755, "lat": 40.7505364, "lon": -73.995675, "tags": {"addr:city": "New York", "addr:housenumber": "320", "addr:postcode": "10001", "addr:street": "West 31st Street", "amenity": "university", "name": "Touro College", "operator:type": "private", "website": "https://www.touro.edu/", "wikidata": "Q7669715", "wikipedia": "en:TCI College of Technology"}}, {"type": "node", "id": 2407447000, "lat": 40.749979, "lon": -73.9953383, "tags": {"addr:city": "New York", "addr:housenumber": "409", "addr:postcode": "10001", "addr:street": "8th Avenue", "amenity": "restaurant", "check_date": "2024-03-11", "cuisine": "thai;japanese", "delivery": "yes", "name": "Pad Thai", "opening_hours": "Mo-Fr 11:00-22:30; Sa, Su 12:00-22:30", "payment:american_express": "yes", "payment:cash": "yes", "payment:discover_card": "yes", "payment:mastercard": "yes", "payment:visa": "yes", "phone": "+1 212 268-2752", "takeaway": "yes", "website": "https://www.padthai8thave.com/"}}, {"type": "node", "id": 2407447001, "lat": 40.750033, "lon": -73.995284, "tags": {"addr:city": "New York", "addr:housenumber": "409", "addr:postcode": "10001", "addr:state": "NY", "addr:street": "8th Avenue", "amenity": "restaurant", "cuisine": "peruvian;chicken", "drive_in": "no", "microbrewery": "no", "name": "Pio Pio Riko", "outdoor_seating": "no", "smoking": "no", "takeaway": "yes", "website": "https://www.piopio.com/", "wheelchair": "yes"}}, {"type": "node", "id": 2407447314, "lat": 40.7499096, "lon": -73.99538, "tags": {"addr:city": "New York", "addr:housenumber": "407", "addr:postcode": "10001", "addr:street": "8th Avenue", "amenity": "bar", "check_date": "2024-03-11", "name": "Tempest Bar", "phone": "+1 212-643-1502", "website": "www.tempestbarnyc.com"}}, {"type": "node", "id": 2491359318, "lat": 40.7544471, "lon": -73.9906058, "tags": {"addr:city": "New York", "addr:country": "US", "addr:housenumber": "273", "addr:postcode": "10018", "addr:state": "NY", "addr:street": "West 38th Street", "amenity": "restaurant", "contact:phone": "+1 212-730-5555", "contact:website": "https://gogocurryamerica.com/", "cuisine": "japanese", "delivery": "yes", "name": "Go! Go! Curry!", "opening_hours": "Mo-Fr 11:00-20:00;Sa-Su 12:00-20:00", "takeaway": "yes"}}, {"type": "node", "id": 2709402733, "lat": 40.7542281, "lon": -73.9952785}, {"type": "node", "id": 2709402741, "lat": 40.7542565, "lon": -73.9953454}, {"type": "node", "id": 2709402745, "lat": 40.7542633, "lon": -73.9953615}, {"type": "node", "id": 2709402748, "lat": 40.7542901, "lon": -73.9952327}, {"type": "node", "id": 2709402749, "lat": 40.754295, "lon": -73.9954362}, {"type": "node", "id": 2709402768, "lat": 40.7543571, "lon": -73.9953907}, {"type": "node", "id": 2709430332, "lat": 40.7506371, "lon": -73.9916167}, {"type": "node", "id": 2709430371, "lat": 40.751112, "lon": -73.9912699}, {"type": "node", "id": 2709430388, "lat": 40.7514256, "lon": -73.9933833}, {"type": "node", "id": 2709430390, "lat": 40.7514934, "lon": -73.9935482}, {"type": "node", "id": 2709430392, "lat": 40.7515077, "lon": -73.9935379}, {"type": "node", "id": 2709430394, "lat": 40.7515085, "lon": -73.993324}, {"type": "node", "id": 2709430401, "lat": 40.7515347, "lon": -73.9935287}, {"type": "node", "id": 2709430410, "lat": 40.7515792, "lon": -73.9934961}, {"type": "node", "id": 2709430444, "lat": 40.7517516, "lon": -73.9931388}, {"type": "node", "id": 2709430459, "lat": 40.751825, "lon": -73.9933161}, {"type": "node", "id": 2709430470, "lat": 40.7518573, "lon": -73.9932659}, {"type": "node", "id": 2709430472, "lat": 40.7518613, "lon": -73.9932755}, {"type": "node", "id": 2709430478, "lat": 40.7518849, "lon": -73.9932494}, {"type": "node", "id": 2709430480, "lat": 40.7518878, "lon": -73.9932564}, {"type": "node", "id": 2709430486, "lat": 40.7518977, "lon": -73.9932402}, {"type": "node", "id": 2709479288, "lat": 40.753643, "lon": -73.9921669, "tags": {"addr:housenumber": "520", "addr:postcode": "10018", "addr:street": "8th Avenue", "amenity": "pub", "cocktails": "yes", "cuisine": "pub;british;american", "drink:beer": "yes", "drink:liquor": "yes", "email": "info@houndstoothpub.com", "facebook": "houndstoothpub", "happy_hours": "Mo-Su 12:00-19:00", "instagram": "houndstoothpub", "name": "The Houndstooth Pub", "opening_hours": "Mo-Fr 11:00-01:00; Sa,Su 12:00-02:00", "opening_hours:covid19": "Mo, Tu 12:00-21:00; We-Fr 12:00-22:00", "phone": "+1 212-643-0034", "reservation": "yes", "toilets": "yes", "twitter": "houndstoothnyc", "website": "https://www.houndstoothpub.com/", "wheelchair": "yes"}}, {"type": "node", "id": 2709629969, "lat": 40.7547832, "lon": -73.9913539, "tags": {"addr:housenumber": "572", "addr:postcode": "10018", "addr:street": "8th Avenue", "amenity": "cafe", "name": "Grace Cafe"}}, {"type": "node", "id": 2709702837, "lat": 40.7499353, "lon": -73.9899486}, {"type": "node", "id": 2709702848, "lat": 40.7499682, "lon": -73.9900268}, {"type": "node", "id": 2709702867, "lat": 40.7500707, "lon": -73.9898501}, {"type": "node", "id": 2709702876, "lat": 40.7501036, "lon": -73.9899284}, {"type": "node", "id": 2790840192, "lat": 40.7523552, "lon": -73.9901323, "tags": {"addr:housenumber": "202", "addr:street": "West 36th Street", "amenity": "pub", "cuisine": "irish;american;sandwich;salad;steak;burger;seafood", "drink:beer": "yes", "drink:coffee": "yes", "email": "info@pignwhistleon36th.com", "name": "Pig 'N' Whistle On 36th", "opening_hours": "Mo-Su 11:00-04:00", "phone": "+1-212-239-4820", "reservation": "yes", "takeaway": "yes", "toilets": "yes", "website": "https://pignwhistleon36th.com/", "wheelchair": "yes"}}, {"type": "node", "id": 2870201889, "lat": 40.7498806, "lon": -73.9932583}, {"type": "node", "id": 2870201890, "lat": 40.7498957, "lon": -73.9931907}, {"type": "node", "id": 2870201891, "lat": 40.7499889, "lon": -73.9929348}, {"type": "node", "id": 2870201894, "lat": 40.7504623, "lon": -73.9925931}, {"type": "node", "id": 2870201899, "lat": 40.750667, "lon": -73.9926177}, {"type": "node", "id": 2870202801, "lat": 40.7507445, "lon": -73.9926499}, {"type": "node", "id": 2946299764, "lat": 40.7533516, "lon": -73.9957959, "tags": {"addr:housenumber": "365", "addr:postcode": "10001", "addr:street": "West 34th Street", "amenity": "cafe", "cuisine": "bagel", "drink:coffee": "yes", "drink:tea": "yes", "name": "34th Bagels & More", "opening_hours": "Mo-Su 06:00-17:00", "payment:american_express": "yes", "payment:cash": "yes", "payment:contactless": "yes", "payment:discover_card": "yes", "payment:mastercard": "yes", "payment:visa": "yes", "phone": "+1-347-691-6172", "toilets": "no"}}, {"type": "node", "id": 2959400324, "lat": 40.754632, "lon": -73.9919761, "tags": {"addr:city": "New York", "addr:housenumber": "555", "addr:postcode": "10018", "addr:street": "8th Avenue", "description": "First Aid CPR AED Training", "name": "Frontline Health", "note": "America Heart Association First Aid CPR AED Training Site", "office": "educational_institution", "phone": "+1 212 983 5389", "website": "https://www.frontlinehealth.com/", "wheelchair": "yes"}}, {"type": "node", "id": 3179745213, "lat": 40.7504102, "lon": -73.9928259, "tags": {"addr:city": "New York", "addr:country": "US", "addr:housenumber": "2", "addr:postcode": "10121", "addr:state": "NY", "addr:street": "Penn Plaza", "amenity": "cafe", "brand": "Tim Hortons", "brand:wikidata": "Q175106", "cuisine": "coffee_shop", "fixme:atp": "no ATP match, check if still exists", "layer": "-1", "name": "Tim Hortons", "operator": "Restaurant Brands International Inc.", "phone": "+1 212-630-0320", "takeaway": "yes", "website": "https://www.timhortons.com/"}}, {"type": "node", "id": 3262342837, "lat": 40.7511312, "lon": -73.9937713}, {"type": "node", "id": 3262342838, "lat": 40.7511596, "lon": -73.9936372}, {"type": "node", "id": 3262342839, "lat": 40.7511518, "lon": -73.9936802}, {"type": "node", "id": 3507260979, "lat": 40.7516741, "lon": -73.9898634, "tags": {"addr:city": "New York", "addr:housenumber": "463", "addr:postcode": "10018", "addr:state": "NY", "addr:street": "7th Avenue", "air_conditioning": "yes", "amenity": "restaurant", "cuisine": "american;diner", "diet:vegan": "yes", "diet:vegetarian": "yes", "drink:coffee": "yes", "drink:tea": "yes", "indoor_seating": "yes", "name": "Andrews NYC Diner", "opening_hours": "Mo-Th 06:00-22:00; Fr 06:00-23:00; Sa, Su 07:00-23:00", "outdoor_seating": "yes", "payment:credit_cards": "yes", "payment:debit_cards": "yes", "phone": "+1-212-695-1962", "reservation": "yes", "smoking": "no", "takeaway": "yes", "website": "https://andrewsny.com/", "wheelchair": "yes"}}, {"type": "node", "id": 3526528960, "lat": 40.7543853, "lon": -73.9921719, "tags": {"addr:city": "New York", "addr:housenumber": "543", "addr:postcode": "10018", "addr:state": "NY", "addr:street": "8th Avenue", "amenity": "bar", "name": "Distinguished Wakamba Lounge", "phone": "+1-212-564-2042"}}, {"type": "node", "id": 3809000945, "lat": 40.7522079, "lon": -73.9939403, "tags": {"name": "License Express", "office": "yes"}}, {"type": "node", "id": 3822484904, "lat": 40.7540893, "lon": -73.9904351, "tags": {"addr:city": "New York", "addr:housenumber": "246", "addr:postcode": "10018", "addr:state": "NY", "addr:street": "West 38th Street", "amenity": "bar", "contact:phone": "+1 212 221 1822", "contact:website": "http://www.districttaphouse.com/", "name": "District Tap House"}}, {"type": "node", "id": 3838644237, "lat": 40.7499498, "lon": -73.989938}, {"type": "node", "id": 3838644240, "lat": 40.7499651, "lon": -73.9899269}, {"type": "node", "id": 3838644242, "lat": 40.7499805, "lon": -73.9899157}, {"type": "node", "id": 3913349457, "lat": 40.7518317, "lon": -73.993081}, {"type": "node", "id": 4070145709, "lat": 40.753427, "lon": -73.9959744, "tags": {"addr:housenumber": "371", "addr:postcode": "10001", "addr:street": "West 34th Street", "amenity": "restaurant", "cuisine": "indian", "delivery": "yes", "name": "Patiala Indian Grill", "outdoor_seating": "sidewalk", "phone": "+1-212-564 8255", "takeaway": "yes", "website": "https://patialany.com/"}}, {"type": "node", "id": 4842467840, "lat": 40.7536984, "lon": -73.9921149, "tags": {"addr:city": "New York", "addr:housenumber": "820", "addr:postcode": "10018", "addr:state": "NY", "addr:street": "8th Avenue", "amenity": "restaurant", "cuisine": "international", "description": "Counter for hot and cold healthy fresh salads and grains with various meat add-ons available.", "name": "Roast Kitchen", "opening_hours": "Mo-Fr 11:00-22:00; Sa-Su 11:00-20:00", "smoking": "no", "takeaway": "yes", "website": "http://www.roast-kitchen.com/"}}, {"type": "node", "id": 4846658821, "lat": 40.7520894, "lon": -73.9900673, "tags": {"amenity": "cafe", "name": "The Bread Factory Cafe", "wheelchair": "yes"}}, {"type": "node", "id": 4867303121, "lat": 40.7502806, "lon": -73.9904398, "tags": {"amenity": "bar", "brand": "Hooters", "brand:wikidata": "Q1025921", "cuisine": "burger", "name": "Bourbon & Branch", "name:en": "Hooters NYC"}}, {"type": "node", "id": 5087640510, "lat": 40.7511412, "lon": -73.9937317, "tags": {"entrance": "yes", "level": "0"}}, {"type": "node", "id": 5087643578, "lat": 40.7538643, "lon": -73.9919513, "tags": {"addr:housenumber": "520", "addr:street": "8th Avenue", "amenity": "bar", "check_date": "2024-01-27", "name": "Houndstooth Pub"}}, {"type": "node", "id": 5235625504, "lat": 40.7510407, "lon": -73.9914743}, {"type": "node", "id": 5235625505, "lat": 40.7509666, "lon": -73.9915283}, {"type": "node", "id": 5389558576, "lat": 40.752472, "lon": -73.9915895, "tags": {"name": "Butterfly Fabrics NYC", "office": "company", "website": "https://butterflyfabricsnyc.com"}}, {"type": "node", "id": 5419491621, "lat": 40.7503235, "lon": -73.9918003, "tags": {"addr:city": "New York", "addr:housenumber": "2", "addr:postcode": "10121", "addr:state": "NY", "addr:street": "Pennsylvania Plaza", "amenity": "restaurant", "diet:vegan": "yes", "name": "Cinnamon snail", "opening_hours": "Mo-Su 11:00-21:00", "outdoor_seating": "yes", "website": "http://www.thepennsy.nyc/the-cinnamon-snail/"}}, {"type": "node", "id": 5483625196, "lat": 40.754263, "lon": -73.990254, "tags": {"addr:housenumber": "245", "addr:postcode": "10018", "addr:street": "West 38th Street", "amenity": "pub", "bar": "yes", "branch": "Midtown West", "catering": "yes", "cuisine": "burger", "delivery": "yes", "drink:beer": "draught", "drink:liquor": "yes", "drink:wine": "yes", "happy_hours": "Mo-Fr 15:00-18:00", "name": "Black Iron Burger", "opening_hours": "Mo-Fr 11:00-24:00, Sa-Su 12:00-24:00", "phone": "+1-646-476-3116", "takeaway": "yes", "website": "https://www.blackironburger.com/location/black-iron-burger-midtown-west/"}}, {"type": "node", "id": 5812449043, "lat": 40.7522795, "lon": -73.9920051, "tags": {"addr:city": "New York", "addr:housenumber": "248", "addr:state": "NY", "addr:street": "West 35th Street", "description": "Fractured Atlas is a non-profit technology company that provides business tools for artists.", "level": "9", "name": "Fractured Atlas", "office": "ngo", "opening_hours": "Mo-Th 09:00-18:00; Fr 09:00-14:00", "phone": "+1-888-692-7878", "toilets:unisex": "yes", "toilets:wheelchair": "yes", "website": "https://fracturedatlas.org/", "wheelchair": "yes"}}, {"type": "node", "id": 5812464935, "lat": 40.7521357, "lon": -73.9915345, "tags": {"addr:housenumber": "234", "addr:postcode": "10001", "addr:street": "West 35th Street", "amenity": "cafe", "branch": "35th Street", "contact:facebook": "https://www.facebook.com/pages/Madman-Espresso-Coffee-Shop/1486372934925938", "contact:instagram": "https://instagram.com/madmanespresso/", "contact:twitter": "https://twitter.com/MadmanEspresso", "cuisine": "coffee_shop", "drink:coffee": "yes", "drink:espresso": "yes", "email": "info@madmanespresso.com", "name": "Madman Espresso", "opening_hours": "Mo-Fr 07:30-18:00; Sa, Su 08:30-16:00", "website": "https://www.madmanespresso.com", "wheelchair": "limited"}}, {"type": "node", "id": 5812466172, "lat": 40.7524255, "lon": -73.9915348, "tags": {"addr:housenumber": "437", "addr:street": "West 35th Street", "amenity": "restaurant", "brunch": "Sa-Su 11:30-15:00", "cocktails": "yes", "diet:vegan": "limited", "diet:vegetarian": "yes", "drink:beer": "yes", "drink:liquor": "yes", "drink:wine": "yes", "happy_hours": "Mo-Su 16:00-19:00", "name": "Juniper Bar", "opening_hours": "Mo-Sa 11:30-02:00; Su 11:30-00:00", "payment:debit_cards": "yes", "phone": "+1-212-967-2511", "reservation": "yes", "takeaway": "yes", "toilets": "yes", "toilets:wheelchair": "yes", "website": "https://juniperbarnyc.com/", "wheelchair": "yes"}}, {"type": "node", "id": 5812743217, "lat": 40.7522208, "lon": -73.9918556, "tags": {"addr:housenumber": "240", "addr:street": "West 35th Street", "amenity": "pub", "brunch": "Su 11:00-15:00", "cuisine": "irish", "drink:beer": "yes", "drink:coffee": "yes", "email": "info@jackdoylesnyc.com", "happy_hours": "yes", "name": "Jack Doyle's", "opening_hours": "Mo-Su 08:00-04:00", "phone": "+1-212-268-1255", "reservation": "yes", "takeaway": "yes", "theme": "irish", "toilets": "yes", "website": "https://jackdoylesnyc.com/", "wheelchair": "yes"}}, {"type": "node", "id": 5815748399, "lat": 40.7499291, "lon": -73.9898974, "tags": {"addr:housenumber": "133", "addr:postcode": "10001", "addr:street": "West 33rd Street", "amenity": "pub", "branch": "Flagship", "cocktails": "yes", "drink:beer": "yes", "drink:liquor": "yes", "drink:wine": "yes", "name": "Stout NYC", "opening_hours": "Th-Su 11:30-01:45; Mo-We 11:30-23:45", "outdoor_seating": "sidewalk;street", "phone": "+1-212-629-6191", "reservation": "yes", "toilets": "yes", "website": "http://msg.stoutnyc.com/"}}, {"type": "node", "id": 5816354728, "lat": 40.7525209, "lon": -73.9899817, "tags": {"addr:housenumber": "207", "addr:street": "West 36th Street", "amenity": "restaurant", "cuisine": "steak", "drink:beer": "yes", "drink:coffee": "yes", "drink:liquor": "yes", "drink:wine": "yes", "email": "info@delmonicoskitchen.com", "name": "Delmonico's Kitchen", "opening_hours": "Sa 17:00-22:00; Su 17:00-21:00", "phone": "+1-212-695-5220", "reservation": "recommended", "takeaway": "yes", "website": "https://delmonicoskitchen.com/", "wheelchair": "yes"}}, {"type": "node", "id": 5816354729, "lat": 40.7536244, "lon": -73.9913698, "tags": {"addr:housenumber": "252", "addr:street": "West 37th Street", "amenity": "bar", "check_date": "2024-01-27", "cocktails": "yes", "drink:beer": "yes", "drink:liquor": "yes", "drink:wine": "yes", "email": "jacqueline@districtsocialnyc.com", "name": "District Social", "opening_hours": "Mo-We, Sa 11:30-02:00; Th, Fr 11:30-04:00; Su 12:00-02:00", "phone": "+1-212-994-9599", "reservation": "yes", "toilets": "yes", "website": "https://districtsocialnyc.com/"}}, {"type": "node", "id": 5816447409, "lat": 40.7539106, "lon": -73.991226, "tags": {"addr:housenumber": "247", "addr:street": "West 37th Street", "amenity": "bar", "check_date": "2024-01-27", "cocktails": "yes", "drink:beer": "yes", "drink:liquor": "yes", "drink:wine": "yes", "email": "info@stitchnyc.com", "fax": "+1-212-852-4815", "happy_hours": "yes", "name": "Stitch Bar & Lounge", "opening_hours": "Mo-Fr 11:00-02:00; Sa 17:00-00:00", "payment:debit_cards": "yes", "phone": "+1-212-852-4826", "reservation": "yes", "toilets": "yes", "website": "https://stitchnyc.com/", "wheelchair": "yes"}}, {"type": "node", "id": 5816447410, "lat": 40.7540751, "lon": -73.9916562, "tags": {"addr:housenumber": "265", "addr:street": "West 37th Street", "amenity": "restaurant", "cuisine": "latin_american;ecuadorian", "name": "El Sabroso", "opening_hours": "Mo-Sa 07:00-17:00", "payment:cash": "only", "phone": "+1-212-284-1118", "takeaway": "yes", "wheelchair": "yes"}}, {"type": "node", "id": 5816447411, "lat": 40.7547857, "lon": -73.9921429, "tags": {"addr:housenumber": "302", "addr:street": "West 38th Street", "amenity": "restaurant", "cuisine": "mediterranean;tapas", "delivery": "yes", "drink:coffee": "yes", "drink:tea": "yes", "drink:wine": "yes", "email": "venisalvicafe@gmail.com", "name": "Venisalvi Cafe", "opening_hours": "Mo-Fr 08:00-23:00; Sa, Su 10:00-23:00", "phone": "+1-347-839-8559", "reservation": "yes", "takeaway": "yes", "website": "https://venisalvi.com/"}}, {"type": "node", "id": 5832407897, "lat": 40.754807, "lon": -73.9950154, "tags": {"addr:housenumber": "472", "addr:street": "9th Avenue", "amenity": "restaurant", "craft": "caterer", "cuisine": "thai", "delivery": "yes", "delivery:fee": "no", "delivery:min_payment": "10", "diet:vegetarian": "yes", "drink:coffee": "yes", "drink:tea": "yes", "email": "thaiselect@gmail.com", "fax": "+1-212-695-9909", "happy_hours": "Mo-Fr 16:30-19:00; Sa-Su 11:30-19:00", "name": "Thai Select", "opening_hours": "Mo-Fr 11:30-22:15; Sa 13:00-22:15; Su 13:00-21:30", "payment:american_express": "yes", "payment:cash": "yes", "payment:mastercard": "yes", "payment:visa": "yes", "phone": "+1-212-695-9920", "reservation": "yes", "takeaway": "yes", "website": "https://thaiselectny.com/", "wheelchair": "yes"}}, {"type": "node", "id": 6157219531, "lat": 40.7531008, "lon": -73.9930272, "tags": {"addr:housenumber": "505", "addr:street": "8th Avenue", "amenity": "bar", "name": "Tailor Public House", "phone": "+1-646-494-4900", "wheelchair": "limited"}}, {"type": "node", "id": 6178461392, "lat": 40.7503146, "lon": -73.9917756, "tags": {"addr:city": "New York", "addr:housenumber": "2", "addr:postcode": "10121", "addr:state": "NY", "addr:street": "Pennsylvania Plaza", "amenity": "restaurant", "name": "The Little Beet", "opening_hours": "Mo-Su 11:00-21:00", "outdoor_seating": "yes", "website": "http://www.thepennsy.nyc/the-little-beet/"}}, {"type": "node", "id": 6178461393, "lat": 40.7502973, "lon": -73.991726, "tags": {"addr:city": "New York", "addr:housenumber": "2", "addr:postcode": "10121", "addr:state": "NY", "addr:street": "Pennsylvania Plaza", "amenity": "restaurant", "cuisine": "steak;sandwich", "name": "Pat LaFrieda Meat Purveyors", "opening_hours": "Mo-Su 11:00-21:00", "outdoor_seating": "yes", "takeaway": "yes", "website": "http://www.thepennsy.nyc/pat-lafrieda/"}}, {"type": "node", "id": 6178461394, "lat": 40.7503212, "lon": -73.9917437, "tags": {"addr:city": "New York", "addr:housenumber": "2", "addr:postcode": "10121", "addr:state": "NY", "addr:street": "Pennsylvania Plaza", "amenity": "bar", "brewery": "yes", "name": "The Pennsy Bar", "opening_hours": "Mo-Su 11:00-02:00", "website": "http://www.thepennsy.nyc/pennsy-bar-nyc/"}}, {"type": "node", "id": 6178461399, "lat": 40.7503054, "lon": -73.9917525, "tags": {"addr:city": "New York", "addr:housenumber": "2", "addr:postcode": "10121", "addr:state": "NY", "addr:street": "Pennsylvania Plaza", "amenity": "restaurant", "cuisine": "pizza", "name": "Ribalta", "opening_hours": "Mo-Su 11:00-21:00", "outdoor_seating": "yes", "takeaway": "yes", "website": "http://www.thepennsy.nyc/ribalta/"}}, {"type": "node", "id": 6178461400, "lat": 40.7503324, "lon": -73.9918249, "tags": {"addr:city": "New York", "addr:housenumber": "2", "addr:postcode": "10121", "addr:state": "NY", "addr:street": "Pennsylvania Plaza", "amenity": "restaurant", "cuisine": "sushi", "name": "Sabi Sushi", "opening_hours": "Mo-Su 11:00-21:00", "outdoor_seating": "yes", "takeaway": "yes", "website": "http://www.thepennsy.nyc/sabi-sushi/"}}, {"type": "node", "id": 6507019904, "lat": 40.7506665, "lon": -73.9915474, "tags": {"amenity": "restaurant", "name": "Lenwich"}}, {"type": "node", "id": 6507019906, "lat": 40.7518367, "lon": -73.9902569, "tags": {"addr:city": "New York", "addr:housenumber": "462", "addr:postcode": "10018", "addr:state": "NY", "addr:street": "7th Avenue", "amenity": "cafe", "branch": "35th & 7th", "brand": "Starbucks", "brand:wikidata": "Q37158", "check_date": "2019-05-28", "cuisine": "coffee_shop", "name": "Starbucks", "official_name": "Starbucks Coffee", "phone": "+1 212-279-6432", "ref": "11433", "takeaway": "yes", "website": "https://www.starbucks.com/store-locator/store/11433/35th-7th-462-7th-avenue-new-york-ny-100187606-us", "wheelchair": "yes"}}, {"type": "node", "id": 6666722028, "lat": 40.754399, "lon": -73.993352, "tags": {"addr:city": "New York", "addr:housenumber": "320", "addr:postcode": "10018", "addr:state": "NY", "addr:street": "West 37th Street", "amenity": "cafe", "description": "A movement incubator for working class and marginalized communities to build unity across historic lines of division at home and abroad.", "email": "info@peoplesforum.org", "facebook": "peoplesforumNYC", "instagram": "peoplesforumnyc", "internet_access": "wlan", "lgbtq": "welcome", "name": "The People's Forum", "opening_hours": "Tu-Th 11:00-21:00; Fr-Sa 10:00-22:00", "operator": "The People's Forum", "phone": "+1 347-695-1095", "twitter": "PeoplesForumNYC", "website": "https://peoplesforum.org", "wheelchair": "yes"}}, {"type": "node", "id": 6680695923, "lat": 40.7526738, "lon": -73.9950505, "tags": {"addr:city": "New York", "addr:housenumber": "330", "addr:postcode": "10001", "addr:state": "NY", "addr:street": "West 34th Street", "amenity": "cafe", "branch": "34th St. bwtn 8th & 9th Avenue", "brand": "Starbucks", "brand:wikidata": "Q37158", "cuisine": "coffee_shop", "internet_access": "wlan", "internet_access:fee": "no", "name": "Starbucks", "official_name": "Starbucks Coffee", "opening_hours": "Mo-Fr 05:30-19:30; Sa 07:00-20:30; Su 07:00-20:00", "phone": "+1 917-576-1959", "takeaway": "yes", "toilets:wheelchair": "no", "website": "https://www.starbucks.com/store-locator/store/1025251/34th-st-btwn8th-9th-ave-330-west-34th-st-new-york-ny100012406-us", "wheelchair": "yes"}}, {"type": "node", "id": 7087207951, "lat": 40.7537597, "lon": -73.9935174, "tags": {"addr:housenumber": "318", "addr:postcode": "10018", "addr:street": "West 36th Street", "amenity": "restaurant", "cuisine": "thai", "delivery": "yes", "fax": "+1 212-868-3699", "name": "Abaya Thai", "opening_hours": "Mo-Fr 11:15-22:15; Su 11:30-22:30", "payment:american_express": "yes", "payment:mastercard": "yes", "payment:visa": "yes", "phone": "+1 212-868-3399", "takeaway": "yes", "website": "http://abayathainyc.com"}}, {"type": "node", "id": 7951223515, "lat": 40.7536287, "lon": -73.9912381, "tags": {"addr:housenumber": "252", "addr:street": "West 37th Street", "amenity": "restaurant", "cuisine": "asian", "name": "Gogi"}}, {"type": "node", "id": 7951223520, "lat": 40.7546559, "lon": -73.9912359, "tags": {"addr:housenumber": "570", "addr:street": "8th Avenue", "amenity": "restaurant", "cuisine": "japanese", "name": "Sakura Of Japan"}}, {"type": "node", "id": 7951223521, "lat": 40.7542417, "lon": -73.9917234, "tags": {"addr:housenumber": "550", "addr:street": "8th Avenue", "amenity": "restaurant", "cuisine": "pizza", "name": "Pizzacafe"}}, {"type": "node", "id": 7951223526, "lat": 40.7546364, "lon": -73.9911871, "tags": {"addr:housenumber": "273", "addr:postcode": "10018", "addr:street": "West 38th Street", "amenity": "restaurant", "branch": "Times Square", "cuisine": "japanese", "delivery": "yes", "level": "0", "name": "Go! Go! Curry!", "opening_hours": "11:00-20:00", "phone": "+1 212-730-5555", "takeaway": "yes"}}, {"type": "node", "id": 8262309023, "lat": 40.7508206, "lon": -73.9942574}, {"type": "node", "id": 8289799740, "lat": 40.7515183, "lon": -73.9949349, "tags": {"addr:housenumber": "383", "addr:postcode": "10001", "addr:state": "NY", "addr:street": "West 31st Street", "addr:unit": "048", "amenity": "cafe", "branch": "Moynihan Train Hall;Moynihan Train Station- 8th Avenue", "brand": "Starbucks", "brand:wikidata": "Q37158", "cuisine": "coffee_shop", "name": "Starbucks", "note": "Concourse Retail Space", "official_name": "Starbucks Coffee", "opening_hours": "Mo-Fr 05:00-23:00; Sa,Su 06:00-22:00", "payment:credit_cards": "yes", "phone": "+1-646-385-3293", "ref": "1029732", "takeaway": "yes", "website": "https://www.starbucks.com/store-locator/store/1029732/moynihan-train-station-8th-av-moynihan-train-hall-383-west-31st-st-concourse-ret", "wheelchair": "yes"}}, {"type": "node", "id": 8669140491, "lat": 40.7526793, "lon": -73.992874, "tags": {"addr:city": "New York", "addr:housenumber": "494", "addr:postcode": "10001", "addr:state": "NY", "addr:street": "8th Avenue", "air_conditioning": "yes", "amenity": "cafe", "bar": "no", "branch": "35th & 8th", "brand": "Starbucks", "brand:wikidata": "Q37158", "capacity": "0", "check_date": "2022-09-05", "cuisine": "coffee_shop", "highchair": "no", "internet_access": "wlan", "internet_access:fee": "no", "level": "0", "name": "Starbucks", "official_name": "Starbucks Coffee", "opening_hours": "Mo-Fr 05:30-19:00", "outdoor_seating": "no", "payment:american_express": "yes", "payment:cash": "yes", "payment:credit_cards": "yes", "payment:debit_cards": "yes", "payment:mastercard": "yes", "payment:visa": "yes", "phone": "+1 212-947-3860", "reservation": "no", "smoking": "no", "takeaway": "yes", "website": "https://www.starbucks.com/store-locator/store/16813/35th-8th-494-eighth-ave-new-york-ny-100012519-us", "wheelchair": "limited"}}, {"type": "node", "id": 8669227466, "lat": 40.7534341, "lon": -73.9928127, "tags": {"addr:housenumber": "519", "addr:postcode": "10018", "addr:street": "8th Avenue", "amenity": "cafe", "check_date": "2024-06-09", "delivery": "yes", "name": "Essen", "opening_hours": "Mo-Fr 06:00-18:00; Sa,Su 07:00-16:00", "phone": "+1 212-290-1515", "takeaway": "yes"}}, {"type": "node", "id": 8678847687, "lat": 40.7537404, "lon": -73.9934233, "tags": {"addr:housenumber": "316", "addr:postcode": "10018", "addr:street": "West 36th Street", "amenity": "restaurant", "cuisine": "chinese", "delivery": "yes", "fax": "+1 646-964-5026", "level": "0", "name": "Taste Kitchen", "opening_hours": "Mo-Fr 12:00-21:00", "phone": "+1 646-666-0531", "takeaway": "yes", "website": "https://www.tastekitchennewyork.com"}}, {"type": "node", "id": 8789533323, "lat": 40.751418, "lon": -73.9906297, "tags": {"addr:door": "409", "addr:housenumber": "450", "addr:street": "7th Avenue", "name": "David Resnick & Associates, P.C.", "office": "lawyer", "website": "https://www.injuryclaimnyclaw.com/"}}, {"type": "node", "id": 9235536634, "lat": 40.7504377, "lon": -73.9907795, "tags": {"addr:city": "New York", "addr:housenumber": "425", "addr:postcode": "10001", "addr:state": "NY", "addr:street": "7th Avenue", "amenity": "restaurant", "check_date": "2024-07-18", "cuisine": "pizza", "name": "Rosa's Pizza", "phone": "+16469983044"}}, {"type": "node", "id": 9253544617, "lat": 40.751653, "lon": -73.9903779, "tags": {"addr:city": "New York", "addr:housenumber": "460", "addr:postcode": "10001", "addr:state": "NY", "addr:street": "7th Avenue", "amenity": "restaurant", "cuisine": "pizza", "name": "99\u00a2 Delicious Pizza", "opening_hours": "Mo-Su 09:00-04:00", "phone": "+1 917-261-4052", "website": "https://www.99centdeliciouspizzamenu.com/"}}, {"type": "node", "id": 9413881793, "lat": 40.7508797, "lon": -73.9928685}, {"type": "node", "id": 9413881794, "lat": 40.7507062, "lon": -73.9926309}, {"type": "node", "id": 9413881795, "lat": 40.7501567, "lon": -73.9927885}, {"type": "node", "id": 9413881796, "lat": 40.7500807, "lon": -73.9928709}, {"type": "node", "id": 9413881797, "lat": 40.7501334, "lon": -73.9928123}, {"type": "node", "id": 9413881798, "lat": 40.750182, "lon": -73.9927658}, {"type": "node", "id": 9413881799, "lat": 40.7503637, "lon": -73.9926626}, {"type": "node", "id": 9413881800, "lat": 40.7502851, "lon": -73.9926967}, {"type": "node", "id": 9413881801, "lat": 40.7502299, "lon": -73.9927295}, {"type": "node", "id": 9413881802, "lat": 40.7500063, "lon": -73.9929093}, {"type": "node", "id": 9413881803, "lat": 40.7503661, "lon": -73.9943035}, {"type": "node", "id": 9413881804, "lat": 40.7503206, "lon": -73.9942876}, {"type": "node", "id": 9413881805, "lat": 40.7505014, "lon": -73.9943323}, {"type": "node", "id": 9413881806, "lat": 40.7506336, "lon": -73.9943679}, {"type": "node", "id": 9413881807, "lat": 40.7510433, "lon": -73.9940674}, {"type": "node", "id": 9413881808, "lat": 40.7508866, "lon": -73.994208}, {"type": "node", "id": 9413881809, "lat": 40.7509454, "lon": -73.9941618}, {"type": "node", "id": 9413881810, "lat": 40.7509943, "lon": -73.9941161}, {"type": "node", "id": 9413881811, "lat": 40.7507752, "lon": -73.9942884}, {"type": "node", "id": 9413881812, "lat": 40.750728, "lon": -73.9943175}, {"type": "node", "id": 9413881813, "lat": 40.7506802, "lon": -73.9943438}, {"type": "node", "id": 9413881816, "lat": 40.7511111, "lon": -73.9938405}, {"type": "node", "id": 9413881873, "lat": 40.7511293, "lon": -73.9937781}, {"type": "node", "id": 9413881876, "lat": 40.7511618, "lon": -73.9936205}, {"type": "node", "id": 9413881877, "lat": 40.7503989, "lon": -73.9943125}, {"type": "node", "id": 9413881887, "lat": 40.7503404, "lon": -73.9942946, "tags": {"entrance": "yes", "level": "0"}}, {"type": "node", "id": 9414461036, "lat": 40.7498872, "lon": -73.9932285}, {"type": "node", "id": 9414461048, "lat": 40.7500113, "lon": -73.9938348, "tags": {"entrance": "yes"}}, {"type": "node", "id": 9414461049, "lat": 40.7502243, "lon": -73.9941209, "tags": {"entrance": "yes", "name": "Entrance A"}}, {"type": "node", "id": 9414461051, "lat": 40.7504783, "lon": -73.9943289, "tags": {"entrance": "yes", "name": "Entrance B"}}, {"type": "node", "id": 9414461053, "lat": 40.7511008, "lon": -73.9938683, "tags": {"entrance": "yes", "name": "Entrance C"}}, {"type": "node", "id": 9414461099, "lat": 40.7507326, "lon": -73.992644}, {"type": "node", "id": 9419005603, "lat": 40.7498949, "lon": -73.9931941}, {"type": "node", "id": 9419131122, "lat": 40.750701, "lon": -73.9926292}, {"type": "node", "id": 9421121494, "lat": 40.7518447, "lon": -73.993275}, {"type": "node", "id": 9421121495, "lat": 40.7518532, "lon": -73.9932957}, {"type": "node", "id": 9421121496, "lat": 40.7515109, "lon": -73.9935457}, {"type": "node", "id": 9658251141, "lat": 40.7525226, "lon": -73.9924763, "tags": {"addr:city": "New York", "addr:housenumber": "260", "addr:postcode": "10001", "addr:state": "NY", "addr:street": "West 35th Street", "amenity": "cafe", "bar": "no", "check_date": "2024-09-28", "cuisine": "bagel", "internet_access": "no", "name": "Liberty Bagels Midtown", "opening_hours": "Mo-Fr 06:00-17:00; Sa-Su 07:00-17:00", "outdoor_seating": "no", "payment:debit_cards": "yes", "payment:mastercard": "yes", "payment:visa": "yes", "phone": "+12122791124", "takeaway": "yes", "website": "https://libertybagels.com/", "wheelchair": "yes"}}, {"type": "node", "id": 9838737047, "lat": 40.7520011, "lon": -73.9906484, "tags": {"addr:housenumber": "213", "addr:street": "West 35th Street", "amenity": "restaurant", "branch": "Midtown West", "cuisine": "sandwich", "delivery": "yes", "email": "info@cutlets.co", "level": "0", "name": "Cutlets", "opening_hours": "Mo-Fr 09:00-21:00", "phone": "+1 212-518-6091", "takeaway": "yes", "website": "https://www.cutlets.co/location/midtown-west/"}}, {"type": "node", "id": 9902816729, "lat": 40.7513655, "lon": -73.9922668, "tags": {"addr:city": "New York", "addr:housenumber": "1", "addr:postcode": "10119", "addr:state": "NY", "addr:street": "Pennsylvania Plaza", "amenity": "restaurant", "cuisine": "american", "level": "1", "level:ref": "2", "name": "The Landing", "opening_hours": "Mo-Fr 11:00-20:30", "website": "https://www.thelanding.nyc"}}, {"type": "node", "id": 9951145664, "lat": 40.7520118, "lon": -73.9912601, "tags": {"addr:housenumber": "224", "addr:street": "West 35th Street", "amenity": "restaurant", "contact:facebook": "sticktomypot", "contact:instagram": "sticktomypot_potstickers", "cuisine": "dumpling", "delivery": "yes", "level": "0", "name": "Stick To My Pot Potstickers", "opening_hours": "Mo-Fr 11:00-20:00; Sa, Su 11:00-19:00", "phone": "+1 646-882-2003", "takeaway": "yes", "website": "https://www.sticktomypot.com/"}}, {"type": "node", "id": 10000660264, "lat": 40.7512364, "lon": -73.9957425, "tags": {"air_conditioning": "yes", "baby_feeding": "no", "check_date": "2023-04-07", "internet_access": "wlan", "internet_access:fee": "no", "level": "0", "name": "Amtrak Ticketing & Baggage Customer Service", "office": "ticket", "operator": "Amtrak", "payment:american_express": "yes", "payment:credit_cards": "yes", "payment:discover_card": "yes", "payment:mastercard": "yes", "payment:visa": "yes", "smoking": "no", "wheelchair": "yes"}}, {"type": "node", "id": 10000660265, "lat": 40.7516167, "lon": -73.9954738, "tags": {"check_date": "2025-07-14", "name": "MTA Long Island Rail Road Ticketing Customer Service", "office": "yes"}}, {"type": "node", "id": 10000660266, "lat": 40.7514513, "lon": -73.9955788, "tags": {"air_conditioning": "yes", "amenity": "cafe", "bar": "no", "brand": "Blue Bottle Coffee", "brand:en": "Blue Bottle Coffee", "brand:ja": "\u30d6\u30eb\u30fc\u30dc\u30c8\u30eb\u30b3\u30fc\u30d2\u30fc", "brand:wikidata": "Q4928917", "check_date": "2025-06-23", "cuisine": "coffee_shop", "delivery": "no", "internet_access": "no", "level": "0", "name": "Blue Bottle Coffee", "name:en": "Blue Bottle Coffee", "name:ja": "\u30d6\u30eb\u30fc\u30dc\u30c8\u30eb\u30b3\u30fc\u30d2\u30fc", "outdoor_seating": "no", "payment:american_express": "yes", "payment:credit_cards": "yes", "payment:discover_card": "yes", "payment:mastercard": "yes", "payment:visa": "yes", "smoking": "no", "takeaway": "only", "wheelchair": "yes"}}, {"type": "node", "id": 10000660272, "lat": 40.7517188, "lon": -73.9957296, "tags": {"air_conditioning": "yes", "amenity": "bar", "brewery": "yes", "check_date": "2025-06-23", "indoor_seating": "yes", "internet_access": "no", "level": "0", "microbrewery": "no", "name": "The Irish Exit", "old_name": "The Bar", "outdoor_seating": "no", "payment:american_express": "yes", "payment:credit_cards": "yes", "payment:discover_card": "yes", "payment:mastercard": "yes", "payment:visa": "yes", "smoking": "no", "theme": "irish", "wheelchair": "limited"}}, {"type": "node", "id": 10706451719, "lat": 40.7519906, "lon": -73.9939889, "tags": {"addr:city": "New York", "addr:floor": "19", "addr:housenumber": "5", "addr:postcode": "10001", "addr:state": "NY", "addr:street": "Pennsylvania Plaza", "contact:facebook": "GlugethandPierguidi", "contact:linkedin": "https://www.linkedin.com/company/glugeth-pierguidi-p-c/", "name": "Glugeth & Pierguidi, P.C.", "office": "lawyer", "opening_hours": "Mo-Fr 08:30-18:00", "phone": "+1-212-256-9255", "website": "https://www.njnylawyers.com/"}}, {"type": "node", "id": 10884425202, "lat": 40.7538903, "lon": -73.9961681, "tags": {"addr:housenumber": "441", "addr:street": "9th Avenue", "amenity": "cafe", "name": "In Common NYC Cafe", "outdoor_seating": "no", "phone": "+16463703099", "website": "https://www.incommonnyc.com/"}}, {"type": "node", "id": 10963340357, "lat": 40.7510055, "lon": -73.9951268, "tags": {"air_conditioning": "yes", "amenity": "cafe", "check_date": "2023-06-08", "check_date:opening_hours": "2023-10-26", "diet:vegan": "yes", "diet:vegetarian": "yes", "name": "Birch Coffee", "opening_hours:signed": "no", "payment:credit_cards": "yes", "payment:debit_cards": "yes", "wheelchair": "yes"}}, {"type": "node", "id": 11112080406, "lat": 40.7546091, "lon": -73.9919826, "tags": {"addr:city": "New York", "addr:housenumber": "555", "addr:postcode": "10018", "addr:state": "NY", "addr:street": "8th Avenue", "amenity": "restaurant", "cuisine": "asian", "name": "Bites of Xian", "phone": "+1-212-884-1222", "website": "https://www.bitesofxian.com/"}}, {"type": "node", "id": 11235399919, "lat": 40.7518074, "lon": -73.9917459, "tags": {"addr:city": "New York", "addr:country": "US", "addr:housenumber": "225", "addr:postcode": "10122", "addr:state": "NY", "addr:street": "West 34th Street", "contact:website": "https://leidar.com/offices/new-york/", "name": "Leidar", "office": "company"}}, {"type": "node", "id": 11336219461, "lat": 40.7526493, "lon": -73.99501, "tags": {"addr:floor": "10", "addr:housenumber": "330", "addr:street": "West 34th Street", "check_date": "2023-11-09", "level": "9", "name": "Vimeo", "office": "company"}}, {"type": "node", "id": 11439926257, "lat": 40.7514539, "lon": -73.9928208, "tags": {"addr:city": "New York", "addr:housenumber": "1", "addr:postcode": "10119", "addr:state": "NY", "addr:street": "Pennsylvania Plaza", "addr:unit": "Suite 2400", "air_conditioning": "yes", "brand": "Jacobs", "brand:wikidata": "Q3157622", "brand:wikipedia": "en:Jacobs Solutions", "fax": "+1-646-908-6551", "level": "23", "level:ref": "24", "name": "Jacobs", "office": "engineer", "phone": "+1-646-908-6550", "website": "https://www.jacobs.com/locations/north-america/new-york-11821", "wheelchair": "yes"}}, {"type": "node", "id": 11513000277, "lat": 40.7506769, "lon": -73.9917117}, {"type": "node", "id": 11513000280, "lat": 40.7511515, "lon": -73.9913641}, {"type": "node", "id": 11513000282, "lat": 40.7506466, "lon": -73.9916393}, {"type": "node", "id": 11513000283, "lat": 40.7511214, "lon": -73.9912922}, {"type": "node", "id": 11513000415, "lat": 40.7515395, "lon": -73.9926284}, {"type": "node", "id": 11513000418, "lat": 40.7515845, "lon": -73.9927356}, {"type": "node", "id": 11513000425, "lat": 40.7516108, "lon": -73.9927984, "tags": {"entrance": "yes"}}, {"type": "node", "id": 11513000461, "lat": 40.7518435, "lon": -73.9931095}, {"type": "node", "id": 11775761069, "lat": 40.7532429, "lon": -73.9922559, "tags": {"addr:housenumber": "270", "addr:street": "West 36th Street", "amenity": "restaurant", "cuisine": "pizza", "name": "Dude\u2019s Pizza"}}, {"type": "node", "id": 11865529110, "lat": 40.7505083, "lon": -73.9933551, "tags": {"addr:city": "New York", "addr:postcode": "10001", "addr:state": "NY", "amenity": "cafe", "branch": "Penn Station - Amtrak", "brand": "Starbucks", "brand:wikidata": "Q37158", "cuisine": "coffee_shop", "level": "-1", "name": "Starbucks", "official_name": "Starbucks Coffee", "phone": "+1 646-477-8909", "ref": "1023114", "takeaway": "yes", "website": "https://www.starbucks.com/store-locator/store/1023114/penn-station-amtrak-starbucks-pennsylvania-station-amtrak-main-course-"}}, {"type": "node", "id": 11968161061, "lat": 40.7538327, "lon": -73.9925095, "tags": {"amenity": "cafe", "check_date": "2024-06-09", "contact:facebook": "https://www.facebook.com/VanillaGorillaCafe/", "contact:instagram": "https://www.instagram.com/VanillaGorillaCafe", "contact:website": "https://www.vanillagorillacafe.com/", "contact:yelp": "https://www.yelp.com/search?find_desc=vanilla+gorilla+cafe&find_loc=Midtown+West%2C+Manhattan%2C+NY", "cuisine": "coffee_shop;sandwich;pastrino", "email": "hithere@vanillagorillacafe.com", "name": "Vanilla Gorilla Cafe"}}, {"type": "node", "id": 11968161063, "lat": 40.753801, "lon": -73.9936143, "tags": {"addr:housenumber": "320", "addr:street": "West 36th Street", "amenity": "restaurant", "check_date": "2025-05-19", "contact:phone": "+1 646-386-0090", "cuisine": "burger", "name": "Burgerology"}}, {"type": "node", "id": 12189238901, "lat": 40.7507736, "lon": -73.9914958, "tags": {"addr:postcode": "10119", "addr:street": "Plaza 33", "amenity": "restaurant", "cuisine": "italian_pizza", "internet_access": "wlan", "name": "Roberta's", "opening_hours": "Mo-Su 11:00-22:00", "website": "http://robertaspizza.com"}}, {"type": "node", "id": 12323976457, "lat": 40.7507899, "lon": -73.9932561, "tags": {"addr:city": "New York", "addr:housenumber": "2", "addr:postcode": "10121", "addr:state": "NY", "addr:street": "Penn Plaza", "amenity": "restaurant", "cuisine": "tacos", "level": "-1", "name": "Mas Tacos", "phone": "+1-646-370-1941"}}, {"type": "node", "id": 12641798631, "lat": 40.7521341, "lon": -73.9963008, "tags": {"addr:city": "New York", "addr:housenumber": "380", "addr:postcode": "10001", "addr:state": "NY", "addr:street": "West 33rd Street", "branch": "Farley Building", "brand": "Meta", "brand:wikidata": "Q380", "name": "Meta", "office": "it"}}, {"type": "node", "id": 12738172134, "lat": 40.7536159, "lon": -73.9914901, "tags": {"addr:housenumber": "252", "addr:street": "West 37th Street", "amenity": "restaurant", "check_date": "2025-04-08", "cuisine": "indian", "name": "Chatti", "phone": "+1 646-598-9393", "website": "https://thechatti.com"}}, {"type": "node", "id": 12899719580, "lat": 40.7528993, "lon": -73.996922, "tags": {"amenity": "cafe", "name": "Corner Eats"}}, {"type": "node", "id": 12947494289, "lat": 40.7516891, "lon": -73.9954367, "tags": {"amenity": "cafe", "changing_table": "no", "check_date": "2025-07-14", "check_date:diet:vegan": "2025-07-14", "check_date:diet:vegetarian": "2025-07-14", "cuisine": "matcha", "diet:vegan": "yes", "diet:vegetarian": "yes", "indoor_seating": "no", "level": "0", "name": "Cha Cha Matcha", "outdoor_seating": "no", "payment:credit_cards": "yes", "payment:debit_cards": "yes", "takeaway": "only", "wheelchair": "yes"}}, {"type": "node", "id": 12947498610, "lat": 40.7518394, "lon": -73.9958965, "tags": {"amenity": "restaurant", "check_date": "2025-06-23", "cuisine": "mexican", "level": "0", "name": "The Corner Deli;La Esquina", "name:en": "The Corner Deli", "name:es": "La Esquina"}}, {"type": "node", "id": 12947498611, "lat": 40.751735, "lon": -73.9955332, "tags": {"amenity": "restaurant", "check_date": "2025-06-23", "cuisine": "sushi", "level": "0", "name": "Yono Sushi", "official_name": "Yono Sushi by Bonst"}}, {"type": "node", "id": 12947534830, "lat": 40.7509088, "lon": -73.995416, "tags": {"check_date": "2025-06-23", "government": "transportation", "level": "0", "name": "TSA PreCheck by Clear", "network": "TSA PreCheck", "network:wikidata": "Q53728092", "office": "government", "operator": "Clear", "operator:wikidata": "Q25245477"}}, {"type": "node", "id": 13190469612, "lat": 40.7510663, "lon": -73.9919203, "tags": {"addr:city": "New York", "addr:housenumber": "1", "addr:postcode": "10119", "addr:state": "NY", "addr:street": "Pennsylvania Plaza", "addr:unit": "630", "name": "GFT", "office": "engineer", "phone": "+1-212-967-9833", "website": "https://www.gftinc.com/", "wikidata": "Q5521425"}}, {"type": "way", "id": 138141251, "nodes": [1514352994, 1514353048, 9413881805, 9414461051, 1514353088, 1514352989, 9413881877, 9413881803, 9413881887, 9413881804, 1514352956, 1514352962, 1514352949, 9414461049, 1514353108, 1514353041, 1514353058, 1514353055, 9414461048, 1514352963, 1514353089, 1514353066, 1514352985, 1514352960, 1514353079, 2870201889, 9414461036, 9419005603, 2870201890, 1514352992, 1514353091, 1514353074, 1514353051, 1514352957, 2870201891, 9413881802, 1514353100, 1514353012, 9413881796, 1514353064, 9413881797, 9413881795, 9413881798, 1514353053, 9413881801, 1514353102, 9413881800, 1514352998, 9413881799, 1514353015, 1514352965, 2870201894, 1514353075, 1514352978, 1514352926, 1514353017, 2870201899, 9419131122, 9413881794, 9414461099, 2870202801, 1514352954, 1514352996, 1514353109, 9413881793, 1514353085, 1514353104, 1514353087, 1514353006, 1514353009, 1514353062, 1514353098, 1514353021, 269458734, 9413881876, 3262342838, 3262342839, 5087640510, 3262342837, 9413881873, 1514352976, 9413881816, 9414461053, 1514353060, 1514353110, 1514353072, 9413881807, 9413881810, 9413881809, 9413881808, 8262309023, 9413881811, 9413881812, 9413881813, 9413881806, 1514352994], "tags": {"addr:city": "New York", "addr:housenumber": "4", "addr:postcode": "10001", "addr:state": "NY", "addr:street": "Pennsylvania Plaza", "alt_name": "The Garden", "building": "yes", "ele": "11", "gnis:feature_id": "956262", "leisure": "stadium", "name": "Madison Square Garden", "name:en": "Madison Square Garden", "name:ja": "\u30de\u30c7\u30a3\u30bd\u30f3\u30fb\u30b9\u30af\u30a8\u30a2\u30fb\u30ac\u30fc\u30c7\u30f3", "name:ru": "\u041c\u0435\u0434\u0438\u0441\u043e\u043d-\u0441\u043a\u0432\u0435\u0440-\u0433\u0430\u0440\u0434\u0435\u043d", "name:uk": "\u041c\u0435\u0434\u0456\u0441\u043e\u043d-\u0441\u043a\u0432\u0435\u0440-\u0433\u0430\u0440\u0434\u0435\u043d", "name:zh": "\u9ea6\u8fea\u900a\u5e7f\u573a\u82b1\u56ed", "phone": "+1-212-465-6741", "short_name": "MSG", "sport": "multi", "start_date": "1968", "team": "New York Rangers", "team_2": "New York Knicks", "tourism": "attraction", "website": "http://www.thegarden.com/", "wheelchair": "limited", "wikidata": "Q186125", "wikipedia": "en:Madison Square Garden"}}, {"type": "way", "id": 265273018, "nodes": [2709402733, 2709402741, 2709402745, 2709402749, 2709402768, 2709402748, 2709402733], "tags": {"addr:housenumber": "458", "addr:postcode": "10018", "addr:street": "9th Avenue", "amenity": "bar", "building": "yes", "cocktails": "yes", "cuisine": "pizza;snack", "description": "Bar featuring a \"rage room\" where patrons smash things with bats", "drink:beer": "draught", "drink:liquor": "yes", "drink:wine": "yes", "email": "info@wreckingclub.com", "facebook": "BreakBarNYC", "height": "5.0", "instagram": "TheBreakBar", "name": "Break Bar", "nycdoitt:bin": "1082252", "opening_hours": "Mo-Th 3:15-23:00; Fr-Su 1:15-23:00", "outdoor_seating": "yes", "phone": "+1 212-933-0929", "sport": "rage_room", "twitter": "thebreakbar", "website": "https://www.breakbarnyc.com"}}, {"type": "way", "id": 265277034, "nodes": [2709430388, 2709430390, 2709430392, 9421121496, 2709430401, 2709430410, 2709430394, 2709430388], "tags": {"addr:city": "New York", "addr:housenumber": "1", "addr:postcode": "10119", "addr:state": "NY", "addr:street": "Pennsylvania Plaza", "amenity": "pub", "building": "yes", "height": "8.9", "name": "Local", "nycdoitt:bin": "1088971"}}, {"type": "way", "id": 265277039, "nodes": [3913349457, 2709430444, 2709430459, 9421121495, 9421121494, 2709430470, 2709430472, 2709430480, 2709430478, 2709430486, 11513000461, 3913349457], "tags": {"addr:city": "New York", "addr:housenumber": "1", "addr:postcode": "10119", "addr:state": "NY", "addr:street": "Pennsylvania Plaza", "amenity": "restaurant", "building": "yes", "cuisine": "mexican", "height": "4.4", "name": "Avenida", "nycdoitt:bin": "1088970"}}, {"type": "way", "id": 265301773, "nodes": [2709702837, 2709702848, 2709702876, 2709702867, 3838644242, 3838644240, 3838644237, 2709702837], "tags": {"addr:housenumber": "137", "addr:postcode": "10001", "addr:street": "West 33rd Street", "amenity": "pub", "building": "yes", "building:levels": "2", "height": "4.3", "name": "The Celtic Rail", "nycdoitt:bin": "1015197", "outdoor_seating": "yes"}}, {"type": "way", "id": 283101840, "nodes": [1514413399, 1514413400, 11513000425, 11513000418, 11513000415, 1514413384, 1514413383, 1514413399], "tags": {"addr:city": "Queens", "addr:postcode": "11101", "addr:state": "NY", "addr:street": "31-10 Thomson Ave", "amenity": "university", "building:colour": "#4D4A46", "building:material": "glass", "height": "219", "name": "Laguardia Community College", "roof:material": "concrete", "roof:shape": "flat"}}, {"type": "way", "id": 1239280962, "nodes": [1025399781, 11513000277, 11513000282, 2709430332, 2709430371, 11513000283, 11513000280, 1025399714, 5235625504, 5235625505, 1025399781], "tags": {"leisure": "park", "name": "Pearson Park", "operator": "Vornado Realty Trust", "operator:type": "private"}}]}