{"version": 0.6, "generator": "Overpass API 0.7.62.8 e802775f", "osm3s": {"timestamp_osm_base": "2025-12-01T17:20:12Z", "copyright": "The data included in this document is from www.openstreetmap.org. The data is made available under ODbL."}, "elements": [{"type": "node", "id": 2565029491, "lat": 40.6993818, "lon": -73.9239056, "tags": {"addr:housenumber": "1386", "addr:postcode": "11221", "addr:street": "DeKalb Avenue", "amenity": "restaurant", "cuisine": "mexican", "delivery": "yes", "drink:coffee": "yes", "name": "Mi Cholita Bella", "opening_hours": "Mo-Su 10:00-22:30", "phone": "+1-717-684-6833", "takeaway": "yes", "toilets": "yes", "toilets:access": "customers"}}, {"type": "node", "id": 2568592551, "lat": 40.6977826, "lon": -73.9270746, "tags": {"addr:city": "Brooklyn", "addr:housenumber": "1258", "addr:postcode": "11221", "addr:state": "NY", "addr:street": "Myrtle Avenue", "amenity": "bar", "brewery": "yes", "name": "Christophers Palace", "opening_hours": "Mo-Sa 18:00-04:00; Su 18:00-00:00", "operator": "Christophers Palace"}}, {"type": "node", "id": 2568592584, "lat": 40.6977941, "lon": -73.9269769, "tags": {"addr:city": "Brooklyn", "addr:housenumber": "1260", "addr:postcode": "11221", "addr:state": "NY", "addr:street": "Myrtle Avenue", "amenity": "bar", "brewery": "yes", "check_date": "2025-02-05", "cocktails": "served", "drink:beer": "yes", "drink:liquor": "yes", "happy_hours": "Mo-Su 18:00-22:00", "lgbtq": "primary", "name": "Mood Ring", "opening_hours": "Mo-Tu 17:00-02:00; We-Fr 17:00-04:00", "operator": "Mood Ring", "payment:credit_cards": "yes", "payment:debit_cards": "yes", "phone": "+1-917-818-1738", "toilets": "yes", "website": "http://moodringnyc.com/"}}, {"type": "node", "id": 2568656694, "lat": 40.7000219, "lon": -73.9294579, "tags": {"addr:city": "Brooklyn", "addr:housenumber": "143", "addr:postcode": "11206", "addr:state": "NY", "addr:street": "Troutman Street", "amenity": "bar", "cocktails": "yes", "description": "Happy hour bar, DJ lounge, birthday party space.", "drink:beer": "yes", "drink:liquor": "yes", "drink:wine": "yes", "email": "keybarreservation@gmail.com", "internet_access": "wlan", "internet_access:fee": "no", "name": "Keybar", "opening_hours": "Mo-Th 18:00-02:00; Fr-Sa 18:00-04:00; Su 18:00-24:00", "phone": "+1 212-478-3021", "toilets": "yes", "toilets:unisex": "yes", "toilets:wheelchair": "yes", "website": "https://www.keybar.com/"}}, {"type": "node", "id": 3141134037, "lat": 40.697654, "lon": -73.92842}, {"type": "node", "id": 3141134038, "lat": 40.6975706, "lon": -73.9283503}, {"type": "node", "id": 3141134039, "lat": 40.697654, "lon": -73.9282242}, {"type": "node", "id": 3141134040, "lat": 40.6976743, "lon": -73.9282309}, {"type": "node", "id": 4175143393, "lat": 40.6980883, "lon": -73.9266189, "tags": {"addr:housenumber": "1298", "addr:street": "Myrtle Avenue", "amenity": "bar", "name": "Gotham City Lounge"}}, {"type": "node", "id": 4424297323, "lat": 40.7002919, "lon": -73.9256805, "tags": {"addr:city": "Brooklyn", "addr:country": "US", "addr:housenumber": "187", "addr:postcode": "11221", "addr:state": "NY", "addr:street": "Suydam Street", "amenity": "restaurant", "cuisine": "mexican;burrito;quesadilla;tacos", "delivery": "yes", "diet:vegetarian": "yes", "drink:coffee": "yes", "email": "socaspon@gmail.com", "name": "Taqueria Sofia", "opening_hours": "11:00-22:00; Mo off", "outdoor_seating": "yes", "payment:credit_cards": "yes", "phone": "+1 347-407-8893", "takeaway": "yes", "website": "https://sofiamexicanrestaurantny.com/"}}, {"type": "node", "id": 5163881891, "lat": 40.6978363, "lon": -73.9250215, "tags": {"addr:housenumber": "214", "addr:street": "Central Avenue", "amenity": "restaurant", "name": "Nuevo Caribe Restaurant"}}, {"type": "node", "id": 5163882225, "lat": 40.698167, "lon": -73.9255588, "tags": {"addr:housenumber": "1307", "addr:street": "Myrtle Avenue", "amenity": "restaurant", "check_date": "2025-02-05", "cuisine": "pizza;appetizer;salad;burger", "delivery": "Mo-Su 17:00-04:30", "diet:vegetarian": "yes", "indoor_seating": "no", "name": "OMG Pizza", "opening_hours": "24/7", "outdoor_seating": "no", "payment:credit_cards": "yes", "payment:debit_cards": "yes", "phone": "+1-718-455-4550", "takeaway": "only", "website": "http://omgpizzabrooklyn.com/"}}, {"type": "node", "id": 5420325030, "lat": 40.7005262, "lon": -73.9258167, "tags": {"addr:housenumber": "140", "addr:street": "Wilson Avenue", "amenity": "pub", "cocktails": "yes", "cuisine": "chicken;burger", "delivery": "Mo-Su 18:00-00:00", "drink:beer": "yes", "drink:liquor": "yes", "drink:wine": "yes", "happy_hours": "yes", "name": "Alphaville", "opening_hours": "Mo-Su 18:00-04:00", "opening_hours:kitchen": "Mo-Su 17:00-03:00", "payment:cash": "only", "phone": "+1-347-508-5006", "toilets": "yes", "website": "https://www.alphavillebk.com/"}}, {"type": "node", "id": 5724014011, "lat": 40.6972937, "lon": -73.9240859, "tags": {"addr:housenumber": "238", "addr:street": "Central Avenue", "amenity": "bar", "cocktails": "yes", "drink:kava": "yes", "email": "info@houseofkava.com", "name": "House of Kava", "opening_hours": "Mo-Su 14:00-02:00", "outdoor_seating": "yes", "phone": "+1-347-405-8228", "toilets": "yes", "website": "https://houseofkava.com/"}}, {"type": "node", "id": 5732810775, "lat": 40.6994635, "lon": -73.9300282, "tags": {"addr:city": "Brooklyn", "addr:housenumber": "109", "addr:postcode": "11221", "addr:state": "NY", "addr:street": "Troutman Street", "amenity": "cafe", "cuisine": "health_food;breakfast", "diet:vegan": "yes", "drink:coffee": "no", "drink:juice": "yes", "drink:tea": "yes", "name": "Ambrosia Elixirs", "opening_hours": "Tu-Su 11:00-22:00", "operator": "Ambrosia Elixirs", "outdoor_seating": "yes", "phone": "+1-347-365-3662", "shop": "herbalist", "website": "https://ambrosiaelixirs.co/"}}, {"type": "node", "id": 5743448065, "lat": 40.6963535, "lon": -73.9299985, "tags": {"addr:housenumber": "538", "addr:postcode": "11221", "addr:street": "Hart Street", "alt_name": "Grilled Cheese Alley", "amenity": "bar", "cuisine": "sandwich;snack", "description": "causual cocktail bar with snacks after 19:00, live music and DJs downstairs", "diet:vegan": "yes", "diet:vegetarian": "yes", "drink:beer": "bottled", "drink:liquor": "yes", "drink:wine": "yes", "happy_hours": "Mo-Su 17:00-21:00", "live_music": "yes", "name": "Hart Bar", "opening_hours": "Mo-Th 17:00-02:00; Fr-Sa 17:00-04:00; Su 17:00-02:00", "opening_hours:kitchen": "Mo-Th 19:00-01:00; Fr-Sa 07:00-02:00; Su 19:00-01:00", "outdoor_seating": "yes", "phone": "+1-929-433-7368", "toilets": "yes", "toilets:unisex": "yes", "website": "https://www.hartbarnyc.com"}}, {"type": "node", "id": 5743854459, "lat": 40.697545, "lon": -73.9290349, "tags": {"addr:housenumber": "1224", "addr:street": "Myrtle Avenue", "amenity": "restaurant", "cuisine": "mexican;american", "delivery": "yes", "drink:beer": "yes", "name": "Zefe's", "opening_hours": "Mo-Su 12:00-24:00", "phone": "+1-718-919-8561", "takeaway": "yes"}}, {"type": "node", "id": 6125142356, "lat": 40.6978906, "lon": -73.9279963, "tags": {"name": "The Tax Professionals", "office": "tax_advisor", "phone": "+1-718-384-4724", "service:notary": "yes"}}, {"type": "node", "id": 6125305149, "lat": 40.7003011, "lon": -73.9293438, "tags": {"addr:city": "Brooklyn", "addr:housenumber": "108", "addr:state": "NY", "addr:street": "Central Avenue", "amenity": "cafe", "cuisine": "coffee_shop;sandwich", "drink:coffee": "yes", "drink:tea": "yes", "name": "Cilantro Club", "takeaway": "yes", "website": "https://joincilantro.club/", "wheelchair": "no"}}, {"type": "node", "id": 6125305150, "lat": 40.6997913, "lon": -73.9284386, "tags": {"amenity": "bar", "cocktails": "yes", "cuisine": "pizza", "drink:beer": "draught", "drink:liquor": "yes", "drink:wine": "yes", "happy_hours": "Mo-Su 12:00-20:00", "name": "Rosie Pizza Bar", "opening_hours": "Mo-Th 12:00-02:00; Fr-Sa 12:00-16:00; Su 12:00-24:00", "outdoor_seating": "street", "phone": "+1-718-440-4369", "takeaway": "yes", "toilets": "yes", "website": "https://www.rosiepizzabar.com", "wheelchair": "no"}}, {"type": "node", "id": 6127292210, "lat": 40.6990158, "lon": -73.928397, "tags": {"addr:housenumber": "1018", "addr:street": "Willoughby Avenue", "email": "aerotax@hotmail.com", "fax": "+1-718-360-4738", "name": "Aerotax", "office": "accountant", "phone": "+1-718-233-3388", "reservation": "recommended", "website": "https://aerotax.net/"}}, {"type": "node", "id": 6127296735, "lat": 40.6998856, "lon": -73.9280748, "tags": {"addr:housenumber": "127", "addr:postcode": "11221", "addr:street": "Central Avenue", "amenity": "cafe", "cuisine": "pastry;salad;sandwich", "drink:coffee": "yes", "email": "bulldogcakes@yahoo.com", "name": "Bushwick Bakery", "opening_hours": "Mo-Th, Su 07:00-17:00; Fr, Sa 07:00-18:00", "phone": "+1-917-460-5994", "shop": "bakery", "website": "https://bushwick-bakery.com/"}}, {"type": "node", "id": 6127400954, "lat": 40.700436, "lon": -73.9249689, "tags": {"addr:housenumber": "151", "addr:street": "Wilson Avenue", "amenity": "restaurant", "craft": "caterer", "cuisine": "cuban", "delivery": "yes", "diet:vegetarian": "yes", "drink:coffee": "yes", "email": "milliescubancafe@gmail.com", "name": "Millie\u2019s Cuban Caf\u00e9", "opening_hours": "Mo-Fr 08:00-21:00; Sa, Su 10:00-22:00", "outdoor_seating": "yes", "payment:debit_cards": "yes", "phone": "+1-347-425-8253", "reservation": "yes", "takeaway": "yes", "toilets": "yes", "website": "https://milliescubancafe.com/", "wheelchair": "yes"}}, {"type": "node", "id": 6127401069, "lat": 40.7003984, "lon": -73.9255802, "tags": {"addr:housenumber": "191", "addr:street": "Suydam Street", "amenity": "bar", "drink:coffee": "yes", "drink:kava": "yes", "drink:kombucha": "yes", "drink:tea": "yes", "name": "Brooklyn Kava", "opening_hours": "Mo-Su 11:00-02:00", "phone": "+1-718-484-2330", "toilets": "yes", "website": "https://brooklynkava.com/"}}, {"type": "node", "id": 6127401335, "lat": 40.7004609, "lon": -73.9255609, "tags": {"addr:housenumber": "146", "addr:street": "Wilson Avenue", "amenity": "restaurant", "cuisine": "mexican;tacos", "delivery": "yes", "name": "Tres Marias", "opening_hours": "Mo-Su 11:00-21:30", "phone": "+1-718-417-1015", "takeaway": "yes"}}, {"type": "node", "id": 6127449695, "lat": 40.7000438, "lon": -73.9242916, "tags": {"addr:housenumber": "165", "addr:street": "Wilson Avenue", "amenity": "restaurant", "cuisine": "sandwich", "delivery": "yes", "drink:coffee": "yes", "email": "wheelhousebk@gmail.com", "name": "The Wheelhouse", "opening_hours": "Mo-Th, Su 11:30-22:30; Fr, Sa 11:30-23:30", "phone": "+1-718-483-9970", "takeaway": "yes", "website": "https://wheelhousebrooklyn.com/"}}, {"type": "node", "id": 6127452092, "lat": 40.7002211, "lon": -73.9246127, "tags": {"addr:housenumber": "161", "addr:street": "Wilson Avenue", "amenity": "restaurant", "cuisine": "mexican", "delivery": "yes", "drink:coffee": "yes", "name": "El Sol De Cholula", "opening_hours": "Su-Th 10:30-22:30; Fr,Sa 10:30-23:30", "phone": "+1-917-340-3901", "takeaway": "yes"}}, {"type": "node", "id": 6625066709, "lat": 40.6993104, "lon": -73.9239735, "tags": {"addr:housenumber": "1386", "addr:postcode": "11221", "addr:street": "DeKalb Avenue", "name": "Caribbean Tax Center", "office": "tax_advisor", "phone": "+1-347-876-3389"}}, {"type": "node", "id": 7253478734, "lat": 40.697458, "lon": -73.9295895, "tags": {"name": "Fisher Stone Law", "office": "lawyer", "phone": "+1-212-256-1877", "website": "https://fisherstonelaw.com"}}, {"type": "node", "id": 10964551705, "lat": 40.6991816, "lon": -73.9268037, "tags": {"addr:housenumber": "159", "addr:postcode": "11221", "addr:street": "Central Avenue", "amenity": "restaurant", "cuisine": "international", "name": "Maite", "phone": "+1-718-366-3090", "website": "http://maitebushwick.com"}}, {"type": "way", "id": 308825565, "nodes": [3141134037, 3141134038, 3141134039, 3141134040, 3141134037], "tags": {"amenity": "restaurant", "building": "yes", "cuisine": "po_boy", "name": "Orleans"}}]}