{"version": 0.6, "generator": "Overpass API 0.7.62.8 e802775f", "osm3s": {"timestamp_osm_base": "2025-12-01T16:06:30Z", "copyright": "The data included in this document is from www.openstreetmap.org. The data is made available under ODbL."}, "elements": [{"type": "node", "id": 357619291, "lat": 40.6258333, "lon": -73.9758333, "tags": {"amenity": "school", "ele": "13", "gnis:feature_id": "2081884", "name": "Bas Melech School for Girls"}}, {"type": "node", "id": 357619599, "lat": 40.6238889, "lon": -73.9788889, "tags": {"amenity": "school", "ele": "13", "gnis:feature_id": "2082187", "name": "Mesivta Lev Torah"}}, {"type": "node", "id": 2557828466, "lat": 40.6227594, "lon": -73.9787894}, {"type": "node", "id": 2557828491, "lat": 40.6228385, "lon": -73.9785736}, {"type": "node", "id": 2715857854, "lat": 40.6225735, "lon": -73.9789808}, {"type": "node", "id": 2715857861, "lat": 40.6231785, "lon": -73.978742}, {"type": "node", "id": 5229539586, "lat": 40.6268998, "lon": -73.9762242, "tags": {"addr:housenumber": "1081", "addr:street": "McDonald Avenue", "amenity": "cafe", "name": "The Little Things", "opening_hours": "Mo-Fr 06:00-17:00"}}, {"type": "node", "id": 6641859396, "lat": 40.6259074, "lon": -73.9758539, "tags": {"addr:housenumber": "106", "addr:postcode": "11230", "addr:street": "Avenue I", "name": "A. Morginshteren", "office": "lawyer", "opening_hours": "Mo-Fr 11:00-17:00", "phone": "+1-718-252-0174"}}, {"type": "node", "id": 11196055134, "lat": 40.6227676, "lon": -73.9787267}, {"type": "node", "id": 11196055135, "lat": 40.6227786, "lon": -73.9787455}, {"type": "node", "id": 11196062837, "lat": 40.6229912, "lon": -73.9784153}, {"type": "node", "id": 11196062838, "lat": 40.6227396, "lon": -73.9787555}, {"type": "node", "id": 11196062839, "lat": 40.6228901, "lon": -73.9786595}, {"type": "node", "id": 11196062840, "lat": 40.6228526, "lon": -73.9786675}, {"type": "node", "id": 11196062843, "lat": 40.6228638, "lon": -73.9786859}, {"type": "node", "id": 11196062846, "lat": 40.6226962, "lon": -73.9792529}, {"type": "node", "id": 12078552355, "lat": 40.6272909, "lon": -73.97528, "tags": {"addr:housenumber": "129", "addr:postcode": "11230", "addr:street": "Elmwood Avenue", "alt_name": "The Friedman Family Campus", "amenity": "school", "name": "The Cheder", "religion": "jewish"}}, {"type": "way", "id": 265988124, "nodes": [2715857861, 11196062837, 2557828491, 11196062839, 11196062843, 11196062840, 11196055135, 11196055134, 11196062838, 2557828466, 2715857854, 11196062846, 2715857861], "tags": {"amenity": "school", "name": "Public School 121"}}]}