{"version": 0.6, "generator": "Overpass API 0.7.62.8 e802775f", "osm3s": {"timestamp_osm_base": "2025-12-01T15:48:56Z", "copyright": "The data included in this document is from www.openstreetmap.org. The data is made available under ODbL."}, "elements": [{"type": "node", "id": 1602291340, "lat": 40.7172455, "lon": -74.0091989}, {"type": "node", "id": 1602291342, "lat": 40.7172149, "lon": -74.0096259}, {"type": "node", "id": 1602291349, "lat": 40.7170363, "lon": -74.0092444}, {"type": "node", "id": 1602291353, "lat": 40.7172931, "lon": -74.0095834}, {"type": "node", "id": 2287566536, "lat": 40.7183392, "lon": -74.0070204}, {"type": "node", "id": 2287566540, "lat": 40.7188507, "lon": -74.0067064}, {"type": "node", "id": 2287566541, "lat": 40.7189321, "lon": -74.0068511}, {"type": "node", "id": 2482618660, "lat": 40.7191271, "lon": -74.0101564, "tags": {"addr:city": "New York", "addr:housenumber": "363", "addr:postcode": "10013", "addr:street": "Greenwich Street", "amenity": "restaurant", "cuisine": "steak", "name": "American Cut", "phone": "+1 212 226-4736", "website": "https://www.americancutsteakhouse.com/"}}, {"type": "node", "id": 2562442598, "lat": 40.7213965, "lon": -74.0043967, "tags": {"addr:city": "New York", "addr:housenumber": "375", "addr:postcode": "10013", "addr:street": "Canal Street", "amenity": "restaurant", "cuisine": "italian_pizza", "name": "Lucia Pizza", "opening_hours": "Mo-Su 11:00-22:00", "phone": "+1 917 965-2900"}}, {"type": "node", "id": 2563930242, "lat": 40.7185032, "lon": -74.0048891, "tags": {"addr:housenumber": "275", "addr:postcode": "10013", "addr:street": "Church Street", "amenity": "restaurant", "contact:website": "http://www.damikele.com/", "cuisine": "italian", "height": "16.3", "name": "Da Mikele", "nycdoitt:bin": "1001926", "opening_hours": "Mo-Th 12:00-23:00; Fr, Sa 12:00-00:00; Su 12:00-22:30", "payment:cash": "yes", "payment:credit_cards": "yes", "phone": "+1-212-925-8800", "reservation": "yes", "takeaway": "yes", "website": "http://luzzosgroup.com/about-us-damikele", "wheelchair": "yes"}}, {"type": "node", "id": 2565698836, "lat": 40.7193052, "lon": -74.0100953, "tags": {"addr:city": "New York", "addr:housenumber": "369", "addr:postcode": "10013", "addr:state": "NY", "addr:street": "Greenwich Street", "amenity": "restaurant", "delivery": "yes", "indoor_seating": "yes", "name": "Benvenuto Cafe Tribeca", "opening_hours": "24/7", "outdoor_seating": "yes", "phone": "+1-212-219-2373", "website": "https://www.benvenutocafe.com/"}}, {"type": "node", "id": 2565702295, "lat": 40.7201805, "lon": -74.009907, "tags": {"addr:housenumber": "71", "addr:postcode": "10013", "addr:street": "North Moore Street", "amenity": "restaurant", "indoor_seating": "yes", "name": "Yves", "outdoor_seating": "yes"}}, {"type": "node", "id": 2565708091, "lat": 40.7210007, "lon": -74.0044453, "tags": {"addr:city": "New York", "addr:housenumber": "378", "addr:street": "Canal Street", "amenity": "cafe", "indoor_seating": "yes", "name": "Caff\u00e9 Bene", "outdoor_seating": "no"}}, {"type": "node", "id": 2565708098, "lat": 40.719282, "lon": -74.0059677, "tags": {"addr:city": "New York", "addr:housenumber": "1", "addr:postcode": "10013", "addr:state": "NY", "addr:street": "White Street", "amenity": "restaurant", "name": "One White Street", "website": "https://www.onewhitestreetnyc.com/"}}, {"type": "node", "id": 2565708108, "lat": 40.7198226, "lon": -74.0084234, "tags": {"addr:housenumber": "120", "addr:postcode": "10013", "addr:street": "Hudson Street", "amenity": "restaurant", "indoor_seating": "yes", "internet_access": "wlan", "name": "Bubby's", "opening_hours": "Su-Th 08:00-23:00; Fr-Sa 08:00-22:00", "outdoor_seating": "yes", "phone": "+1 212 219 0666", "website": "http://bubbys.com/tribeca/"}}, {"type": "node", "id": 2565708226, "lat": 40.72064, "lon": -74.00497, "tags": {"addr:housenumber": "1", "addr:postcode": "10013", "addr:street": "Lispenard Street", "amenity": "pub", "building:levels": "3", "contact:phone": "+1 212 2269943", "contact:website": "http://nancywhiskeypub.com/", "name": "Nancy's Whiskey Pub"}}, {"type": "node", "id": 2565708227, "lat": 40.7207599, "lon": -74.0048947, "tags": {"addr:housenumber": "281", "addr:postcode": "10013", "addr:street": "West Broadway", "amenity": "restaurant", "building:levels": "2", "contact:facebook": "https://www.facebook.com/pages/Pepolino-Restaurant/121762131167356", "contact:instagram": "https://www.instagram.com/pepolinorestaurant", "cuisine": "italian", "name": "Pepolino", "opening_hours": "Su-Th 12:00-23:00; Fr, Sa 12:00-24:00", "phone": "+1 212-966-9983", "reservation": "yes", "website": "https://www.pepolino.com"}}, {"type": "node", "id": 2892641901, "lat": 40.719376, "lon": -74.006475, "tags": {"amenity": "restaurant", "cuisine": "american", "delivery": "yes", "internet_access": "wlan", "name": "Butterfly", "outdoor_seating": "no", "smoking": "no", "takeaway": "yes"}}, {"type": "node", "id": 2897876739, "lat": 40.7184521, "lon": -74.0049427, "tags": {"addr:housenumber": "273", "addr:street": "Church Street", "amenity": "pub", "name": "Souths", "official_name": "Souths Bar and Restaurant"}}, {"type": "node", "id": 2897876740, "lat": 40.7182651, "lon": -74.007295, "tags": {"addr:city": "New York", "addr:housenumber": "180", "addr:postcode": "10013", "addr:state": "NY", "addr:street": "West Broadway", "amenity": "cafe", "brand": "Starbucks", "brand:wikidata": "Q37158", "cuisine": "coffee_shop", "indoor_seating": "yes", "internet_access": "wlan", "internet_access:fee": "no", "name": "Starbucks", "official_name": "Starbucks Coffee", "opening_hours": "Mo-Fr 05:30-19:00; Sa,Su 06:00-19:30", "outdoor_seating": "no", "ref": "1045015", "takeaway": "yes"}}, {"type": "node", "id": 2897876741, "lat": 40.718446, "lon": -74.007236, "tags": {"addr:housenumber": "33", "addr:street": "Leonard Street", "amenity": "restaurant", "brewery": "various", "cuisine": "american", "delivery": "yes", "indoor_seating": "yes", "internet_access": "wlan", "internet_access:fee": "no", "name": "Square Diner", "opening_hours": "Mo-Fr 06:00-21:00; Sa, Su 07:30-16:00", "outdoor_seating": "yes", "payment:cash": "only", "phone": "+1-212-925-7188", "takeaway": "yes", "toilets": "yes", "website": "https://squaredinernewyorkcity.com/", "wheelchair": "no"}}, {"type": "node", "id": 4015736091, "lat": 40.719225, "lon": -74.0066966, "tags": {"amenity": "cafe", "cuisine": "sandwich", "indoor_seating": "yes", "name": "Gotan", "outdoor_seating": "yes", "website": "https://www.gotannyc.com/"}}, {"type": "node", "id": 4184497397, "lat": 40.7199472, "lon": -74.007213, "tags": {"addr:housenumber": "25", "addr:street": "North Moore Street", "amenity": "bar", "indoor_seating": "yes", "name": "Brandy Library", "outdoor_seating": "yes", "phone": "+1 212 2265545", "website": "https://www.brandylibrary.com/"}}, {"type": "node", "id": 4184564889, "lat": 40.7197094, "lon": -74.0070516, "tags": {"addr:housenumber": "16", "addr:street": "North Moore Street", "amenity": "restaurant", "cuisine": "burger", "indoor_seating": "yes", "name": "Walker's", "outdoor_seating": "yes", "phone": "+1 212 9410142"}}, {"type": "node", "id": 4326134893, "lat": 40.7211681, "lon": -74.0097607, "tags": {"addr:city": "New York", "addr:housenumber": "409", "addr:street": "Greenwich Street", "amenity": "restaurant", "name": "Wolfgang's Steakhouse"}}, {"type": "node", "id": 4739202153, "lat": 40.7199242, "lon": -74.0099897, "tags": {"addr:city": "New York", "amenity": "restaurant", "indoor_seating": "yes", "name": "Locande Verde", "outdoor_seating": "yes"}}, {"type": "node", "id": 4739221813, "lat": 40.7204523, "lon": -74.0087431, "tags": {"addr:city": "Tribeca", "addr:street": "Beach Street", "amenity": "restaurant", "cuisine": "pizza", "name": "Locande"}}, {"type": "node", "id": 4848257932, "lat": 40.7188968, "lon": -74.0063291, "tags": {"addr:housenumber": "211", "addr:street": "West Broadway", "amenity": "restaurant", "brewery": "yes", "craft": "caterer", "cuisine": "american;coffee", "email": "info@DistilledNY.com", "name": "Distilled", "name:en": "Distilled", "opening_hours": "Mo-We 16:00-00:00; Th, Fr 16:00-02:00; Sa 11:00-02:00; Su 11:00-23:00", "outdoor_seating": "yes", "payment:cash": "yes", "payment:credit_cards": "yes", "payment:debit_cards": "yes", "phone": "+1-646-809-9490", "reservation": "yes", "takeaway": "yes", "toilets": "yes", "website": "https://www.distilledny.com/"}}, {"type": "node", "id": 4848257933, "lat": 40.7188835, "lon": -74.0101049, "tags": {"addr:city": "New York", "amenity": "cafe", "name": "Chanson le Salon", "name:en": "Chanson le Salon"}}, {"type": "node", "id": 4848258525, "lat": 40.719227, "lon": -74.0065567, "tags": {"amenity": "restaurant", "name": "Terra", "name:en": "Terra"}}, {"type": "node", "id": 4890418801, "lat": 40.7222331, "lon": -74.0062452}, {"type": "node", "id": 4890418810, "lat": 40.7217847, "lon": -74.0055001}, {"type": "node", "id": 4890419523, "lat": 40.7223591, "lon": -74.0061831}, {"type": "node", "id": 4890419524, "lat": 40.7218601, "lon": -74.0062895}, {"type": "node", "id": 5163985624, "lat": 40.716972, "lon": -74.0078817, "tags": {"addr:city": "New York", "addr:housenumber": "145", "addr:postcode": "10013", "addr:state": "NY", "addr:street": "West Broadway", "amenity": "restaurant", "indoor_seating": "yes", "name": "The Odeon", "outdoor_seating": "yes", "website": "https://theodeonrestaurant.com"}}, {"type": "node", "id": 5163989224, "lat": 40.7192673, "lon": -74.0060718, "tags": {"addr:housenumber": "227", "addr:street": "West Broadway", "amenity": "cafe", "delivery": "yes", "email": "cafeclementinenyc@gmail.com", "fax": "+1-212-965-9844", "name": "Cafe Clementine", "opening_hours": "Mo-Fr 08:00-18:00", "payment:american_express": "yes", "payment:cash": "yes", "payment:mastercard": "yes", "payment:visa": "yes", "phone": "+1-212-965-0909", "takeaway": "yes", "website": "https://cafeclementine.com/"}}, {"type": "node", "id": 5164012821, "lat": 40.7206703, "lon": -74.0048609, "tags": {"amenity": "restaurant", "cuisine": "japanese", "name": "Tataki"}}, {"type": "node", "id": 5227511227, "lat": 40.7189298, "lon": -74.0045309, "tags": {"addr:city": "New York", "addr:housenumber": "34", "addr:postcode": "10013", "addr:state": "NY", "addr:street": "White Street", "amenity": "restaurant", "cuisine": "italian", "name": "Petrarca Cucina e Vino"}}, {"type": "node", "id": 5227527424, "lat": 40.7198938, "lon": -74.0038297, "tags": {"addr:city": "New York", "addr:housenumber": "319", "addr:postcode": "10013", "addr:state": "NY", "addr:street": "Church Street", "air_conditioning": "yes", "amenity": "cafe", "bar": "no", "brand": "La Colombe Coffee Roasters", "brand:wikidata": "Q23461663", "check_date": "2023-02-23", "cuisine": "coffee_shop", "internet_access": "no", "name": "La Colombe Coffee Roasters", "opening_hours": "07:30-18:30", "outdoor_seating": "no", "payment:american_express": "yes", "payment:credit_cards": "yes", "payment:discover_card": "yes", "payment:mastercard": "yes", "payment:visa": "yes", "short_name": "La Colombe", "takeaway": "yes", "wheelchair": "no"}}, {"type": "node", "id": 5403606223, "lat": 40.7167151, "lon": -74.0089922, "tags": {"addr:housenumber": "30", "addr:street": "Hudson Street", "amenity": "restaurant", "cuisine": "japanese", "name": "Brushstroke", "opening_hours": "Mo-Th 17:30-22:30; Fr, Sa 17:30-23:00", "phone": "+1-212-791-3771", "website": "https://davidbouley.com/", "wikidata": "Q4949688"}}, {"type": "node", "id": 5415649562, "lat": 40.719848, "lon": -74.0049417, "tags": {"amenity": "cafe", "brand": "Starbucks", "brand:wikidata": "Q37158", "contact:website": "https://www.starbucks.com/store-locator/store/1007714/6th-ave-at-walker-street-32-avenue-of-the-americas-new-york-ny-100132473-us", "cuisine": "coffee_shop", "name": "Starbucks", "official_name": "Starbucks Coffee", "takeaway": "yes"}}, {"type": "node", "id": 5593000021, "lat": 40.7198176, "lon": -74.0055821, "tags": {"addr:housenumber": "249", "addr:street": "West Broadway", "amenity": "bar", "brewery": "various", "name": "Anotheroom", "opening_hours": "Mo, We, Th 17:00-02:00; Tu, Su 16:00-02:00; Fr, Sa 17:00-04:00", "payment:cash": "yes", "payment:credit_cards": "yes", "phone": "+1-212-226-1418", "toilets": "yes", "website": "https://anotheroom.business.site/", "wheelchair": "yes"}}, {"type": "node", "id": 5593004899, "lat": 40.7197629, "lon": -74.005662, "tags": {"addr:housenumber": "247", "addr:street": "West Broadway", "amenity": "bar", "brewery": "various", "name": "Tribeca Tavern", "opening_hours": "Su 12:00-04:00; Mo-Sa 11:00-04:00", "payment:cash": "yes", "payment:credit_cards": "yes", "phone": "+1-212-941-7671", "sport": "yes", "toilets": "yes", "wheelchair": "yes"}}, {"type": "node", "id": 5593016867, "lat": 40.7195759, "lon": -74.0058025, "tags": {"addr:housenumber": "239", "addr:street": "West Broadway", "amenity": "restaurant", "brewery": "various", "cuisine": "french", "email": "info@batardtribeca.com", "name": "B\u00e2tard", "opening_hours": "Mo-We 17:30-22:00; Th-Sa 17:30-22:30", "organic": "yes", "payment:cash": "yes", "payment:credit_cards": "yes", "payment:debit_cards": "yes", "phone": "+1-212-219-2777", "reservation": "recommended", "toilets": "yes", "toilets:wheelchair": "yes", "website": "http://www.batardtribeca.com/", "wheelchair": "yes", "wikidata": "Q5173371"}}, {"type": "node", "id": 5593041648, "lat": 40.7187167, "lon": -74.0060375, "tags": {"addr:housenumber": "114", "addr:street": "Franklin Street", "amenity": "restaurant", "phone": "+1-212-274-8100", "website": "https://www.tuttoilgiorno.com/"}}, {"type": "node", "id": 5804847954, "lat": 40.7202866, "lon": -74.0055156}, {"type": "node", "id": 5804847955, "lat": 40.7199779, "lon": -74.0053446}, {"type": "node", "id": 5804847957, "lat": 40.7203181, "lon": -74.0061171}, {"type": "node", "id": 5804847960, "lat": 40.7203332, "lon": -74.0054065}, {"type": "node", "id": 5804847961, "lat": 40.7199957, "lon": -74.0052855}, {"type": "node", "id": 6042067487, "lat": 40.7183373, "lon": -74.0070241}, {"type": "node", "id": 6042067488, "lat": 40.7183463, "lon": -74.0070374}, {"type": "node", "id": 6174369085, "lat": 40.7168221, "lon": -74.0080094, "tags": {"addr:full": "135 West Broadway, New York, NY 10013", "amenity": "restaurant", "name": "Tiny\u2019s and The Bar Upstairs"}}, {"type": "node", "id": 6252179316, "lat": 40.7201178, "lon": -74.0036225, "tags": {"addr:housenumber": "325", "addr:postcode": "10003", "addr:street": "Church Street", "amenity": "restaurant", "branch": "Tribeca", "cocktails": "yes", "cuisine": "italian", "delivery": "yes", "dish": "pizza", "drink:beer": "yes", "drink:coffee": "yes", "drink:wine": "yes", "fax": "+1 212-226-2447", "name": "Saluggi's", "opening_hours": "Mo-Th 11:00-22:00; Fr, Sa 11:00-23:00; Su 12:00-22:00", "phone": "+1 212-226-7900", "takeaway": "yes", "website": "http://www.saluggis.com/saluggis-tribeca-the-original"}}, {"type": "node", "id": 6258099099, "lat": 40.7193126, "lon": -74.0042535, "tags": {"addr:housenumber": "31", "addr:street": "Walker Street", "alt_name": "Anejo Tribeca", "amenity": "restaurant", "indoor_seating": "yes", "name": "A\u00f1ejo Tribeca", "outdoor_seating": "yes", "short_name": "A\u00f1ejo"}}, {"type": "node", "id": 6769036965, "lat": 40.7182859, "lon": -74.01025, "tags": {"addr:city": "New York", "addr:housenumber": "339", "addr:street": "Greenwich Street", "amenity": "restaurant", "indoor_seating": "yes", "name": "Sarabeth's", "outdoor_seating": "yes", "phone": "+1 212 966 0421", "website": "https://sarabethsrestaurants.com/locations/tribeca/"}}, {"type": "node", "id": 7700142886, "lat": 40.7184168, "lon": -74.0102722, "tags": {"amenity": "restaurant", "name": "Vcafe"}}, {"type": "node", "id": 7700168785, "lat": 40.7186643, "lon": -74.0102017, "tags": {"addr:housenumber": "323", "addr:street": "Greenwich Street", "amenity": "restaurant", "cuisine": "italian", "indoor_seating": "yes", "name": "Zona Tribeca", "outdoor_seating": "yes"}}, {"type": "node", "id": 8304498276, "lat": 40.7202445, "lon": -74.0052647}, {"type": "node", "id": 8304498355, "lat": 40.7219871, "lon": -74.0062887}, {"type": "node", "id": 8304498484, "lat": 40.7172911, "lon": -74.0096089}, {"type": "node", "id": 8304498485, "lat": 40.7172691, "lon": -74.0096453}, {"type": "node", "id": 8312361633, "lat": 40.7189434, "lon": -74.0068112}, {"type": "node", "id": 8312361634, "lat": 40.7189468, "lon": -74.0068351}, {"type": "node", "id": 8312361635, "lat": 40.7189416, "lon": -74.0068461}, {"type": "node", "id": 8312361636, "lat": 40.7188897, "lon": -74.0067099}, {"type": "node", "id": 8312361637, "lat": 40.7188806, "lon": -74.0067022}, {"type": "node", "id": 8312361638, "lat": 40.7188639, "lon": -74.0067014, "tags": {"barrier": "kerb", "kerb": "lowered", "tactile_paving": "yes", "wheelchair": "yes"}}, {"type": "node", "id": 8333740840, "lat": 40.7200227, "lon": -74.0034996, "tags": {"amenity": "restaurant", "name": "HUMBLE FISH"}}, {"type": "node", "id": 8333740841, "lat": 40.7197223, "lon": -74.0039458, "tags": {"amenity": "restaurant", "indoor_seating": "yes", "name": "Antique Garage", "outdoor_seating": "yes"}}, {"type": "node", "id": 8333740842, "lat": 40.719643, "lon": -74.0040209, "tags": {"amenity": "restaurant", "name": "Macao"}}, {"type": "node", "id": 8644312117, "lat": 40.7172806, "lon": -74.0063049, "tags": {"amenity": "college", "name": "New York Law School"}}, {"type": "node", "id": 8644312717, "lat": 40.719358, "lon": -74.0049418, "tags": {"amenity": "restaurant", "name": "Jack\u2019s Stir Brew Coffee", "not:brand:wikidata": "Q6110826"}}, {"type": "node", "id": 8648127018, "lat": 40.7191453, "lon": -74.0089504, "tags": {"amenity": "restaurant", "indoor_seating": "yes", "name": "Tamarind", "outdoor_seating": "yes"}}, {"type": "node", "id": 8648127118, "lat": 40.7185511, "lon": -74.0090368, "tags": {"amenity": "bar", "name": "Puffy\u2019s Tavern"}}, {"type": "node", "id": 8648175817, "lat": 40.7208602, "lon": -74.0098439, "tags": {"addr:housenumber": "399", "addr:street": "Greenwich Street", "amenity": "bar", "name": "Greenwich st. Tavern"}}, {"type": "node", "id": 8648214218, "lat": 40.7211682, "lon": -74.0085684, "tags": {"amenity": "cafe", "name": "Interlude"}}, {"type": "node", "id": 8769344318, "lat": 40.7169431, "lon": -74.0083198, "tags": {"amenity": "restaurant", "check_date": "2023-11-06", "happy_hours": "Mo-Fr 15:00-18:00", "indoor_seating": "yes", "name": "Edward\u2019s", "opening_hours": "Mo-Fr 11:00-22:00; Sa,Su 10:30-22:00", "outdoor_seating": "yes"}}, {"type": "node", "id": 8851156980, "lat": 40.719582, "lon": -74.0084712, "tags": {"addr:city": "New York", "addr:housenumber": "112", "addr:postcode": "10013", "addr:state": "NY", "addr:street": "Hudson Street", "amenity": "cafe", "cuisine": "coffee_shop", "indoor_seating": "yes", "name": "Cafe Atelier", "opening_hours": "Mo-Fr 07:00-18:00; Sa 08:00-18:00; Su 08:00-16:00", "outdoor_seating": "yes", "phone": "+1-646-895-0133", "website": "https://www.cafeateliershop.com", "wheelchair": "yes"}}, {"type": "node", "id": 8883795717, "lat": 40.7167711, "lon": -74.0074582, "tags": {"addr:housenumber": "66", "addr:street": "Thomas Street", "amenity": "bar", "name": "buddha-bar"}}, {"type": "node", "id": 9174977864, "lat": 40.7216296, "lon": -74.0047353, "tags": {"addr:city": "New York", "addr:housenumber": "383", "addr:postcode": "10013", "addr:state": "NY", "addr:street": "Canal Street", "amenity": "restaurant", "cuisine": "pizza", "delivery": "yes", "name": "$1.50 Fresh Pizza", "opening_hours": "Mo-Su 10:00-04:30", "payment:cash": "only", "phone": "+1 212-966-1110", "website": "https://www.150freshpizza.com/"}}, {"type": "node", "id": 9411604725, "lat": 40.7219313, "lon": -74.0039657, "tags": {"addr:city": "New York", "addr:country": "US", "addr:housenumber": "323", "addr:postcode": "10013", "addr:state": "NY", "addr:street": "West Broadway", "amenity": "restaurant", "cocktails": "yes", "contact:instagram": "https://www.instagram.com/mamo_nyc", "cuisine": "italian", "drink:wine": "served", "email": "info@mamonyc.com", "name": "MAMO", "opening_hours": "Mo 12:00-15:30, 17:30-22:00; Tu 12:00-15:30, 17:30-22:30; We, Th 12:00-15:30, 17:30-23:00; Fr 12:00-15:30, 17:30-23:30; Sa 11:30-16:00, 17:30-23:30; Su 11:30-16:00, 17:30-22:00", "outdoor_seating": "yes", "phone": "+1 646-964-4641", "reservation": "yes", "website": "https://www.mamonyc.com"}}, {"type": "node", "id": 10077663950, "lat": 40.7192738, "lon": -74.0048357, "tags": {"addr:city": "New York", "addr:housenumber": "2", "addr:postcode": "10013", "addr:state": "NY", "addr:street": "6th Avenue", "addr:unit": "Cellar Level", "amenity": "bar", "description": "The subterranean jazz club, with its vaulted ceilings and exposed brick walls, was modeled after the bo\u00eetes of Paris. The venue consists of two cocktail bars, open dining space & a stage for live performances.", "email": "info@thedjangonyc.com", "min_age": "18", "name": "The Django", "opening_hours": "Mo-Su 19:00-2:00", "phone": "+1-212-519-6649", "website": "https://www.thedjangonyc.com/"}}, {"type": "node", "id": 10090538383, "lat": 40.7211027, "lon": -74.0039693, "tags": {"amenity": "cafe", "contact:facebook": "matchaful", "name": "Matchaful", "website": "https://www.bematchaful.com/"}}, {"type": "node", "id": 10101193964, "lat": 40.7223568, "lon": -74.0062251, "tags": {"barrier": "kerb", "kerb": "lowered", "tactile_paving": "yes", "wheelchair": "yes"}}, {"type": "node", "id": 10101193966, "lat": 40.7218487, "lon": -74.0055077, "tags": {"barrier": "kerb", "kerb": "lowered", "tactile_paving": "yes", "wheelchair": "yes"}}, {"type": "node", "id": 10101193968, "lat": 40.7217841, "lon": -74.0054809, "tags": {"barrier": "kerb", "kerb": "lowered", "tactile_paving": "yes", "wheelchair": "yes"}}, {"type": "node", "id": 11308790021, "lat": 40.7189463, "lon": -74.0068216, "tags": {"barrier": "kerb", "kerb": "lowered", "tactile_paving": "yes", "wheelchair": "yes"}}, {"type": "node", "id": 11308790027, "lat": 40.7188937, "lon": -74.006716, "tags": {"barrier": "kerb", "kerb": "lowered", "tactile_paving": "yes", "wheelchair": "yes"}}, {"type": "node", "id": 11308790029, "lat": 40.7189373, "lon": -74.0068483, "tags": {"barrier": "kerb", "kerb": "lowered", "tactile_paving": "yes", "wheelchair": "yes"}}, {"type": "node", "id": 11308790043, "lat": 40.7188716, "lon": -74.0067001}, {"type": "node", "id": 11308790064, "lat": 40.718343, "lon": -74.0070371}, {"type": "node", "id": 11308790065, "lat": 40.7183403, "lon": -74.007031, "tags": {"barrier": "kerb", "kerb": "raised", "tactile_paving": "no", "wheelchair": "no"}}, {"type": "node", "id": 11311088097, "lat": 40.7222859, "lon": -74.0061193}, {"type": "node", "id": 11311088098, "lat": 40.7223331, "lon": -74.0061307}, {"type": "node", "id": 11311088099, "lat": 40.7223178, "lon": -74.0061213}, {"type": "node", "id": 11311088100, "lat": 40.7223288, "lon": -74.0061247}, {"type": "node", "id": 11311088101, "lat": 40.7223239, "lon": -74.0061217}, {"type": "node", "id": 11311088102, "lat": 40.7223599, "lon": -74.0062157}, {"type": "node", "id": 11311088103, "lat": 40.7223614, "lon": -74.0062046}, {"type": "node", "id": 11311088104, "lat": 40.7223614, "lon": -74.0061941}, {"type": "node", "id": 11311088105, "lat": 40.7223533, "lon": -74.0062334}, {"type": "node", "id": 11311088106, "lat": 40.7223189, "lon": -74.0062595}, {"type": "node", "id": 11311088107, "lat": 40.7223314, "lon": -74.0062552}, {"type": "node", "id": 11311088108, "lat": 40.7223424, "lon": -74.0062487}, {"type": "node", "id": 11311088109, "lat": 40.7223499, "lon": -74.0062412}, {"type": "node", "id": 11311088110, "lat": 40.7222662, "lon": -74.0062687}, {"type": "node", "id": 11311088111, "lat": 40.7222535, "lon": -74.0062632}, {"type": "node", "id": 11311088112, "lat": 40.7222611, "lon": -74.0062684}, {"type": "node", "id": 11311088113, "lat": 40.722257, "lon": -74.0062662}, {"type": "node", "id": 11311088116, "lat": 40.721974, "lon": -74.0063145}, {"type": "node", "id": 11311088117, "lat": 40.7219685, "lon": -74.0063201}, {"type": "node", "id": 11311088118, "lat": 40.721893, "lon": -74.0063325}, {"type": "node", "id": 11311088120, "lat": 40.7218633, "lon": -74.0063043}, {"type": "node", "id": 11311088121, "lat": 40.7218829, "lon": -74.0063322}, {"type": "node", "id": 11311088122, "lat": 40.7218743, "lon": -74.0063266}, {"type": "node", "id": 11311088123, "lat": 40.7218681, "lon": -74.0063162}, {"type": "node", "id": 11311088124, "lat": 40.7218122, "lon": -74.0054584}, {"type": "node", "id": 11311088125, "lat": 40.721785, "lon": -74.0054659}, {"type": "node", "id": 11311088126, "lat": 40.7217874, "lon": -74.0054555}, {"type": "node", "id": 11311088127, "lat": 40.7218042, "lon": -74.0054511}, {"type": "node", "id": 11311088128, "lat": 40.7217965, "lon": -74.0054493}, {"type": "node", "id": 11311088129, "lat": 40.7217911, "lon": -74.0054509}, {"type": "node", "id": 11311088130, "lat": 40.721912, "lon": -74.0063294, "tags": {"barrier": "kerb", "kerb": "lowered", "tactile_paving": "yes", "wheelchair": "yes"}}, {"type": "node", "id": 11311088132, "lat": 40.7218619, "lon": -74.0062975, "tags": {"barrier": "kerb", "kerb": "lowered", "tactile_paving": "yes", "wheelchair": "yes"}}, {"type": "node", "id": 11322693546, "lat": 40.7172013, "lon": -74.0091636}, {"type": "node", "id": 11322693547, "lat": 40.7172402, "lon": -74.0091816}, {"type": "node", "id": 11322693548, "lat": 40.7172163, "lon": -74.0091629}, {"type": "node", "id": 11322693549, "lat": 40.7172304, "lon": -74.0091695}, {"type": "node", "id": 11322693550, "lat": 40.7170569, "lon": -74.0091843}, {"type": "node", "id": 11322693551, "lat": 40.7170457, "lon": -74.0091926}, {"type": "node", "id": 11322693552, "lat": 40.7170369, "lon": -74.0092033}, {"type": "node", "id": 11322693553, "lat": 40.7170321, "lon": -74.0092278}, {"type": "node", "id": 11322693554, "lat": 40.7170323, "lon": -74.0092151}, {"type": "node", "id": 11322693555, "lat": 40.7172402, "lon": -74.0096514}, {"type": "node", "id": 11322693556, "lat": 40.7172268, "lon": -74.0096439}, {"type": "node", "id": 11322693557, "lat": 40.7172813, "lon": -74.0096314}, {"type": "node", "id": 11322693558, "lat": 40.7172554, "lon": -74.0096506}, {"type": "node", "id": 11322693559, "lat": 40.7170322, "lon": -74.00922, "tags": {"barrier": "kerb", "kerb": "lowered", "tactile_paving": "yes", "wheelchair": "yes"}}, {"type": "node", "id": 11322693560, "lat": 40.7170399, "lon": -74.0091997, "tags": {"barrier": "kerb", "kerb": "lowered", "tactile_paving": "yes", "wheelchair": "yes"}}, {"type": "node", "id": 11322693561, "lat": 40.7172438, "lon": -74.0091932, "tags": {"barrier": "kerb", "kerb": "lowered", "tactile_paving": "yes", "wheelchair": "yes"}}, {"type": "node", "id": 11322693562, "lat": 40.7172254, "lon": -74.0091654, "tags": {"barrier": "kerb", "kerb": "lowered", "tactile_paving": "yes", "wheelchair": "yes"}}, {"type": "node", "id": 11322939856, "lat": 40.7170408, "lon": -74.009254}, {"type": "node", "id": 11329721731, "lat": 40.7175462, "lon": -74.0104404, "tags": {"amenity": "cafe", "name": "Cafe Clementine"}}, {"type": "node", "id": 11329730736, "lat": 40.7192654, "lon": -74.0095941, "tags": {"amenity": "restaurant", "name": "Thalassa"}}, {"type": "node", "id": 11329752942, "lat": 40.71886, "lon": -74.0099987, "tags": {"amenity": "restaurant", "indoor_seating": "yes", "name": "Terrior", "outdoor_seating": "yes"}}, {"type": "node", "id": 11329762787, "lat": 40.7187884, "lon": -74.0090911, "tags": {"amenity": "restaurant", "indoor_seating": "yes", "name": "Jungsik", "outdoor_seating": "no"}}, {"type": "node", "id": 11329779866, "lat": 40.7200957, "lon": -74.0087665, "tags": {"amenity": "restaurant", "indoor_seating": "yes", "name": "Mr. Chow", "outdoor_seating": "yes"}}, {"type": "node", "id": 11329790146, "lat": 40.7199616, "lon": -74.0074412, "tags": {"name": "TriBeCa Community School", "office": "educational_institution"}}, {"type": "node", "id": 11329790733, "lat": 40.7167674, "lon": -74.0084565, "tags": {"amenity": "restaurant", "cuisine": "sushi", "name": "Sushi of Gari"}}, {"type": "node", "id": 11329800632, "lat": 40.7195801, "lon": -74.0070314, "tags": {"amenity": "restaurant", "indoor_seating": "yes", "name": "Osteria Carlina", "outdoor_seating": "yes"}}, {"type": "node", "id": 11329802009, "lat": 40.7168416, "lon": -74.0086416, "tags": {"addr:housenumber": "157", "addr:street": "Duane Street", "amenity": "restaurant", "check_date": "2023-11-06", "happy_hours": "Mo-Fri 16:30-18:00; Sa-Su 11:00-16:30", "indoor_seating": "yes", "name": "Khe-Yo", "outdoor_seating": "yes"}}, {"type": "node", "id": 11329818008, "lat": 40.7178071, "lon": -74.0072067, "tags": {"name": "New York Design Architects", "office": "architect"}}, {"type": "node", "id": 11329824069, "lat": 40.7192537, "lon": -74.0071168, "tags": {"addr:housenumber": "140", "addr:postcode": "10013", "addr:street": "Franklin Street", "name": "Douglas Elliman Real Estate", "office": "estate_agent"}}, {"type": "node", "id": 11329825459, "lat": 40.7168913, "lon": -74.0083619, "tags": {"amenity": "restaurant", "check_date:opening_hours": "2023-11-06", "cuisine": "italian", "indoor_seating": "yes", "name": "Max Italian Restaurant", "opening_hours:signed": "no", "outdoor_seating": "yes"}}, {"type": "node", "id": 11332230969, "lat": 40.7196471, "lon": -74.0057569, "tags": {"amenity": "restaurant", "cuisine": "french", "name": "Frenchette"}}, {"type": "node", "id": 11492801286, "lat": 40.720455, "lon": -74.0053104, "tags": {"barrier": "kerb", "kerb": "lowered", "tactile_paving": "yes", "wheelchair": "yes"}}, {"type": "node", "id": 11492801294, "lat": 40.7204484, "lon": -74.0052757, "tags": {"barrier": "kerb", "kerb": "lowered", "tactile_paving": "yes", "wheelchair": "yes"}}, {"type": "node", "id": 11493357418, "lat": 40.7202896, "lon": -74.0054845}, {"type": "node", "id": 11493357419, "lat": 40.7202999, "lon": -74.005453}, {"type": "node", "id": 11493357420, "lat": 40.7203144, "lon": -74.0054284}, {"type": "node", "id": 11493357421, "lat": 40.7203456, "lon": -74.0061075}, {"type": "node", "id": 11493357422, "lat": 40.7203457, "lon": -74.0061202}, {"type": "node", "id": 11493357423, "lat": 40.720325, "lon": -74.0061302}, {"type": "node", "id": 11493357424, "lat": 40.7203318, "lon": -74.006136}, {"type": "node", "id": 11493357425, "lat": 40.7203385, "lon": -74.0061364}, {"type": "node", "id": 11493357426, "lat": 40.7203434, "lon": -74.0061308}, {"type": "node", "id": 11493357427, "lat": 40.7202795, "lon": -74.0052641}, {"type": "node", "id": 11493357428, "lat": 40.7203534, "lon": -74.0052688}, {"type": "node", "id": 11493357429, "lat": 40.7204772, "lon": -74.0052862}, {"type": "node", "id": 11493357430, "lat": 40.7204668, "lon": -74.0053023}, {"type": "node", "id": 11493357431, "lat": 40.7204731, "lon": -74.0052968}, {"type": "node", "id": 11493357432, "lat": 40.7204761, "lon": -74.0052921}, {"type": "node", "id": 11493357433, "lat": 40.7204748, "lon": -74.0052803}, {"type": "node", "id": 11493357434, "lat": 40.7204677, "lon": -74.0052767}, {"type": "node", "id": 11493357441, "lat": 40.7202968, "lon": -74.0056167, "tags": {"barrier": "kerb", "kerb": "lowered", "tactile_paving": "yes", "wheelchair": "yes"}}, {"type": "node", "id": 11493357451, "lat": 40.7201466, "lon": -74.0057278, "tags": {"barrier": "kerb", "kerb": "lowered", "tactile_paving": "yes", "wheelchair": "yes"}}, {"type": "node", "id": 11493357457, "lat": 40.7200574, "lon": -74.0055251, "tags": {"barrier": "kerb", "kerb": "lowered", "tactile_paving": "yes", "wheelchair": "yes"}}, {"type": "node", "id": 11493357459, "lat": 40.7199711, "lon": -74.0053252, "tags": {"barrier": "kerb", "kerb": "lowered", "tactile_paving": "yes", "wheelchair": "yes"}}, {"type": "node", "id": 11493357460, "lat": 40.7199689, "lon": -74.0053108}, {"type": "node", "id": 11493357461, "lat": 40.7199856, "lon": -74.0052874}, {"type": "node", "id": 11493357462, "lat": 40.7199751, "lon": -74.0052939, "tags": {"barrier": "kerb", "kerb": "lowered", "tactile_paving": "yes", "wheelchair": "yes"}}, {"type": "node", "id": 11493357463, "lat": 40.7199712, "lon": -74.0052996}, {"type": "node", "id": 11493357464, "lat": 40.7199796, "lon": -74.0052902}, {"type": "node", "id": 11493402621, "lat": 40.7202889, "lon": -74.0055381}, {"type": "node", "id": 12097569302, "lat": 40.7216106, "lon": -74.004245, "tags": {"addr:city": "New York", "addr:housenumber": "301", "addr:postcode": "10013", "addr:street": "West Broadway", "amenity": "restaurant", "cuisine": "coffee_shop", "name": "Lucia Alimentari", "opening_hours": "Mo-Su 07:00-22:00"}}, {"type": "node", "id": 12207203839, "lat": 40.7176962, "lon": -74.0104084, "tags": {"addr:housenumber": "329", "addr:postcode": "10013", "addr:street": "Greenwich Street", "amenity": "bar", "name": "Muse Paintbar"}}, {"type": "node", "id": 13078664901, "lat": 40.7185633, "lon": -74.004808, "tags": {"addr:housenumber": "277", "addr:postcode": "10013", "addr:street": "Church Street", "amenity": "bar", "cuisine": "japanese", "name": "Sake Bar Shigure", "opening_hours": "Mo-Sa 12:00-01:00", "phone": "+1 212-965-0200"}}, {"type": "node", "id": 13322266754, "lat": 40.7174977, "lon": -74.0100469, "tags": {"alt_name": "Ring Ding Bar", "amenity": "cafe", "catering": "yes", "disused:website": "https://duaneparkpatisserie.com/", "drink:wine": "yes", "name": "Duane Park Patisserie", "opening_hours": "Mo-Th 08:00-18:00, Fr-Sa 08:00-20:00, Su 08:00-17:00", "phone": "+1-212-274-8447", "shop": "pastry", "website": "https://www.ringdingbar.com/"}}, {"type": "node", "id": 13324633698, "lat": 40.7175026, "lon": -74.0101435, "tags": {"amenity": "restaurant", "cocktails": "yes", "cuisine": "asian", "diet:vegan": "yes", "drink:beer": "yes", "drink:wine": "yes", "name": "Wok in Duane", "opening_hours": "Mo-Th 11:00-22:00, Fr 11:00-23:00, Sa 12:00-23:00, Su 12:00-22:00", "phone": "+1-212-207-0066", "website": "https://wokinduane.com/"}}, {"type": "way", "id": 147035202, "nodes": [1602291340, 11322693561, 11322693547, 11322693549, 11322693562, 11322693548, 11322693546, 11322693550, 11322693551, 11322693560, 11322693552, 11322693554, 11322693559, 11322693553, 1602291349, 11322939856, 1602291342, 11322693556, 11322693555, 11322693558, 8304498485, 11322693557, 8304498484, 1602291353, 1602291340], "tags": {"dog": "leashed", "ele": "5", "gnis:feature_id": "2060143", "leisure": "park", "name": "Duane Park", "name:etymology:wikidata": "Q339274", "opening_hours": "Mo-Su 06:00-01:00", "operator": "New York City Department of Parks and Recreation", "operator:short": "NYC Parks", "operator:type": "government", "operator:wikidata": "Q1894232", "smoking": "no", "website": "https://www.nycgovparks.org/parks/duane-park", "wikidata": "Q3950666", "wikipedia": "en:Duane Park"}}, {"type": "way", "id": 219612698, "nodes": [2287566541, 11308790029, 8312361635, 8312361634, 11308790021, 8312361633, 11308790027, 8312361636, 8312361637, 11308790043, 8312361638, 2287566540, 2287566536, 6042067487, 11308790065, 11308790064, 6042067488, 2287566541], "tags": {"addr:city": "New York", "addr:postcode": "10013", "addr:state": "NY", "leisure": "park", "name": "Finn Square", "operator": "New York City Department of Parks and Recreation", "operator:short": "NYC Parks", "operator:type": "government", "operator:wikidata": "Q1894232", "website": "https://www.nycgovparks.org/parks/greenstreet-mz30/history", "wikidata": "Q49489072"}}, {"type": "way", "id": 497484756, "nodes": [4890419524, 11311088132, 11311088120, 11311088123, 11311088122, 11311088121, 11311088118, 11311088130, 11311088117, 11311088116, 8304498355, 4890418801, 11311088111, 11311088113, 11311088112, 11311088110, 11311088106, 11311088107, 11311088108, 11311088109, 11311088105, 10101193964, 11311088102, 11311088103, 11311088104, 4890419523, 11311088098, 11311088100, 11311088101, 11311088099, 11311088097, 10101193966, 11311088124, 11311088127, 11311088128, 11311088129, 11311088126, 11311088125, 10101193968, 4890418810, 4890419524], "tags": {"addr:city": "New York", "addr:postcode": "10012", "addr:state": "NY", "check_date": "2023-11-03", "leisure": "park", "name": "Albert Capsouto Park", "operator": "New York City Department of Parks and Recreation", "operator:short": "NYC Parks", "operator:type": "government", "operator:wikidata": "Q1894232", "start_date": "2009-11-01", "website": "https://www.nycgovparks.org/parks/capsouto-park", "wikidata": "Q2582732", "wikipedia": "en:Albert Capsouto Park"}}, {"type": "way", "id": 613509792, "nodes": [11493357462, 11493357464, 11493357461, 5804847961, 8304498276, 11493357427, 11493357428, 11492801294, 11493357434, 11493357433, 11493357429, 11493357432, 11493357431, 11493357430, 11492801286, 5804847960, 11493357420, 11493357419, 11493357418, 5804847954, 11493402621, 11493357441, 11493357421, 11493357422, 11493357426, 11493357425, 11493357424, 11493357423, 5804847957, 11493357451, 11493357457, 5804847955, 11493357459, 11493357460, 11493357463, 11493357462], "tags": {"addr:city": "New York", "addr:state": "NY", "dog": "leashed", "ele": "3", "gnis:feature_id": "2500760", "leisure": "park", "name": "Tribeca Park", "opening_hours": "Mo-Su 06:00-01:00", "operator": "New York City Department of Parks and Recreation", "operator:short": "NYC Parks", "operator:type": "government", "operator:wikidata": "Q1894232", "smoking": "no", "source": "bing", "start_date": "1810", "website": "https://www.nycgovparks.org/parks/tribeca-park", "wikidata": "Q49572010"}}]}