{"version": 0.6, "generator": "Overpass API 0.7.62.8 e802775f", "osm3s": {"timestamp_osm_base": "2025-12-01T15:40:45Z", "copyright": "The data included in this document is from www.openstreetmap.org. The data is made available under ODbL."}, "elements": [{"type": "node", "id": 357578424, "lat": 40.7442685, "lon": -74.0004172, "tags": {"amenity": "school", "check_date": "2024-04-28", "ele": "6", "gnis:feature_id": "961248", "name": "Public School 11"}}, {"type": "node", "id": 357621498, "lat": 40.7441667, "lon": -74.0005556, "tags": {"amenity": "school", "ele": "6", "gnis:feature_id": "2083920", "name": "Middle School 260"}}, {"type": "node", "id": 1241329531, "lat": 40.7469974, "lon": -73.9956547}, {"type": "node", "id": 1241329532, "lat": 40.7472345, "lon": -73.993548}, {"type": "node", "id": 1241329534, "lat": 40.747833, "lon": -73.9964099}, {"type": "node", "id": 1241329535, "lat": 40.7482947, "lon": -73.9960749}, {"type": "node", "id": 1241329536, "lat": 40.7473981, "lon": -73.9953673}, {"type": "node", "id": 1241329538, "lat": 40.7461235, "lon": -73.9943645}, {"type": "node", "id": 2334601455, "lat": 40.744378, "lon": -73.9988791, "tags": {"addr:city": "New York", "addr:country": "US", "addr:housenumber": "232", "addr:postcode": "10011", "addr:state": "NY", "addr:street": "8th Avenue", "amenity": "restaurant", "cuisine": "thai", "drive_in": "no", "internet_access": "no", "internet_access:fee": "no", "microbrewery": "no", "name": "M-Thai", "outdoor_seating": "no", "phone": "+1 212 229-9799", "smoking": "no", "takeaway": "yes", "website": "www.M-Thainyc.com", "wheelchair": "yes", "wifi": "no"}}, {"type": "node", "id": 2366519596, "lat": 40.7462866, "lon": -74.0012226, "tags": {"amenity": "restaurant", "check_date": "2024-04-26", "cocktails": "yes", "cuisine": "diner", "drink:beer": "bottled", "drink:liquor": "yes", "drink:wine": "yes", "fax": "+1-212-691-5405", "name": "Chelsea Square Restaurant", "opening_hours": "24/7", "phone": "+1-212-691-5400", "toilets": "yes", "toilets:access": "customers", "toilets:unisex": "no", "toilets:wheelchair": "no", "wheelchair": "yes"}}, {"type": "node", "id": 2377128136, "lat": 40.7461544, "lon": -73.9975859, "tags": {"addr:city": "New York", "addr:country": "US", "addr:housenumber": "286", "addr:postcode": "10001", "addr:state": "NY", "addr:street": "8th Avenue", "amenity": "cafe", "cuisine": "coffee_shop", "name": "Brooklyn Bagel & Coffee Company", "opening_hours": "Mo-Fr 06:30-22:00; Sa-Su 07:00-22:00", "website": "https://bkbagel.com/"}}, {"type": "node", "id": 2377128148, "lat": 40.7439702, "lon": -73.9997102, "tags": {"addr:city": "New York", "addr:country": "US", "addr:housenumber": "211", "addr:postcode": "10011", "addr:state": "NY", "addr:street": "8th Avenue", "amenity": "cafe", "email": "info@stkildacoffee.com", "level": "0", "name": "St Kilda Coffee", "opening_hours": "Mo-Fr 07:00-20:00; Sa,Su 08:00-20:00", "website": "https://www.stkildacoffee.com/"}}, {"type": "node", "id": 2377128169, "lat": 40.7432349, "lon": -73.9997149, "tags": {"addr:city": "New York", "addr:country": "US", "addr:housenumber": "196", "addr:postcode": "10011", "addr:state": "NY", "addr:street": "8th Avenue", "amenity": "restaurant", "bar": "yes", "cuisine": "italian", "email": "lasagna6@gmail.com", "level": "0", "name": "Lasagna Ristorante", "outdoor_seating": "yes", "phone": "+1-212-242-4551", "website": "https://lasagnarestaurantchelsea.com", "wheelchair": "yes"}}, {"type": "node", "id": 2377128172, "lat": 40.7447814, "lon": -73.9985854, "tags": {"addr:city": "New York", "addr:country": "US", "addr:housenumber": "500", "addr:postcode": "10011", "addr:state": "NY", "addr:street": "6th Avenue", "amenity": "cafe", "cuisine": "bagel", "name": "Zucker's", "old_name": "Murray's Bagels", "shop": "bakery"}}, {"type": "node", "id": 2377128179, "lat": 40.7446356, "lon": -73.9986916, "tags": {"addr:city": "New York", "addr:country": "US", "addr:housenumber": "236", "addr:postcode": "10011", "addr:state": "NY", "addr:street": "8th Avenue", "amenity": "restaurant", "name": "Dim Sum Chelsea", "old_name": "Spice"}}, {"type": "node", "id": 2377128182, "lat": 40.7451876, "lon": -73.9988416, "tags": {"addr:city": "New York", "addr:housenumber": "300", "addr:postcode": "10011", "addr:state": "NY", "addr:street": "West 23rd Street", "amenity": "cafe", "branch": "West 23rd and 8th", "brand": "Starbucks", "brand:wikidata": "Q37158", "cuisine": "coffee_shop", "diet:vegan": "yes", "drink:soy_milk": "yes", "internet_access": "wlan", "name": "Starbucks", "official_name": "Starbucks Coffee", "opening_hours": "Mo-Th 05:30-23:00; Fr 05:30-24:00; Sa 06:00-24:00; Su 06:00-23:00", "phone": "+1 646-638-1571", "ref": "13905", "takeaway": "yes", "website": "https://www.starbucks.com/store-locator/store/13905/west-23rd-and-8th-300-w-23rd-st-new-york-ny-100112210-us", "wheelchair": "yes"}}, {"type": "node", "id": 2377128183, "lat": 40.7462136, "lon": -73.9975429, "tags": {"addr:city": "New York", "addr:country": "US", "addr:housenumber": "288", "addr:postcode": "10011", "addr:state": "NY", "addr:street": "8th Avenue", "amenity": "restaurant", "cuisine": "pizza", "name": "$1 Pizza", "old_name": "Subway", "was:amenity": "fast_food"}}, {"type": "node", "id": 2377128186, "lat": 40.7434448, "lon": -73.9995835, "tags": {"addr:city": "New York", "addr:country": "US", "addr:housenumber": "198", "addr:postcode": "10011", "addr:state": "NY", "addr:street": "8th Avenue", "amenity": "restaurant", "cuisine": "mexican", "delivery": "yes", "email": "info@temerarionyc.com", "level": "0", "name": "Temerarion", "old_name": "Tello Ristorante", "phone": "+1-212-645-2100", "takeaway": "yes", "website": "https://www.temerarionyc.com"}}, {"type": "node", "id": 2407891431, "lat": 40.7457288, "lon": -73.998418, "tags": {"addr:city": "New York", "addr:housenumber": "273", "addr:postcode": "10001", "addr:street": "8th Avenue", "amenity": "restaurant", "name": "The Pho 2", "old_name": "Pita Pan Cafe"}}, {"type": "node", "id": 2408375729, "lat": 40.7456072, "lon": -73.9987643, "tags": {"addr:city": "New York", "addr:country": "US", "addr:housenumber": "261", "addr:state": "NY", "addr:street": "8th Avenue", "amenity": "restaurant", "branch": "Chelsea", "brand": "Dallas BBQ", "brand:wikidata": "Q122209839", "check_date": "2024-04-26", "cuisine": "barbecue", "name": "Dallas BBQ", "opening_hours": "Su-Th 11:30-23:00; Fr,Sa 11:30-24:00; ", "phone": "+1-212-462-0001", "website": "https://www.dallasbbq.com/chelsea"}}, {"type": "node", "id": 2409935351, "lat": 40.7460875, "lon": -74.0013739, "tags": {"addr:city": "New York", "addr:housenumber": "206", "addr:postcode": "10011", "addr:street": "9th Avenue", "amenity": "restaurant", "cuisine": "vietnamese", "name": "Chelsea Cottage's Viet Grill", "phone": "+1-212-366-4881;+1-212-366-4882"}}, {"type": "node", "id": 2409935353, "lat": 40.7460286, "lon": -74.0014102, "tags": {"addr:city": "New York", "addr:country": "US", "addr:housenumber": "204", "addr:state": "NY", "addr:street": "9th Avenue", "amenity": "restaurant", "cuisine": "pizza", "name": "Famous Original Ray's Pizza", "phone": "+1-212-243-1129", "website": "famousoriginalrayschelsea.com"}}, {"type": "node", "id": 2409946228, "lat": 40.7441477, "lon": -73.9961776, "tags": {"addr:city": "New York", "addr:country": "US", "addr:housenumber": "206", "addr:state": "NY", "addr:street": "West 23rd Street", "amenity": "pub", "check_date": "2024-04-26", "name": "Jake's Saloon", "website": "www.jakessaloonnyc.com"}}, {"type": "node", "id": 2409946234, "lat": 40.7458946, "lon": -74.0014911, "tags": {"addr:city": "New York", "addr:housenumber": "200", "addr:street": "9th Avenue", "amenity": "restaurant", "name": "The Meatball Company", "opening_hours": "Mo,Su 00:00-02:00,12:00-24:00; Tu-Sa 00:00-04:00,12:00-24:00", "phone": "+1 212-257-4363", "website": "https://www.themeatballshop.com/locations/#chelsea"}}, {"type": "node", "id": 2501879029, "lat": 40.7459975, "lon": -73.9996248}, {"type": "node", "id": 2516877509, "lat": 40.7473898, "lon": -74.0004115, "tags": {"addr:city": "New York", "addr:housenumber": "240", "addr:postcode": "10001", "addr:street": "9th Avenue", "amenity": "restaurant", "cocktails": "yes", "contact:instagram": "http://instagram.com/txikitonyc", "contact:twitter": "https://twitter.com/TxikitoNYC", "cuisine": "basque", "drink:beer": "yes", "drink:wine": "yes", "email": "info@txikitonyc.com", "internet_access": "wlan", "name": "Txikito", "opening_hours": "Mo-Sa 17:30-23:00; Su 05:30-22:30", "phone": "+1 212-242-4730", "reservation": "yes", "website": "https://www.txikitonyc.com/"}}, {"type": "node", "id": 2562375149, "lat": 40.7373434, "lon": -73.9866417}, {"type": "node", "id": 2562375154, "lat": 40.7373879, "lon": -73.986746}, {"type": "node", "id": 2562375200, "lat": 40.7376517, "lon": -73.9864143}, {"type": "node", "id": 2562375208, "lat": 40.7376962, "lon": -73.9865186}, {"type": "node", "id": 2631535154, "lat": 40.7478835, "lon": -73.998975}, {"type": "node", "id": 2631535155, "lat": 40.7475759, "lon": -73.998273}, {"type": "node", "id": 2631535156, "lat": 40.7471166, "lon": -73.9986089}, {"type": "node", "id": 2631535157, "lat": 40.7471463, "lon": -73.9986808}, {"type": "node", "id": 2631535158, "lat": 40.7473416, "lon": -73.9985407}, {"type": "node", "id": 2631535159, "lat": 40.7473925, "lon": -73.9985039}, {"type": "node", "id": 2631535160, "lat": 40.7474234, "lon": -73.9985792}, {"type": "node", "id": 2631535161, "lat": 40.7476541, "lon": -73.9991428}, {"type": "node", "id": 2702838486, "lat": 40.7417521, "lon": -74.0029233}, {"type": "node", "id": 2702838547, "lat": 40.7418831, "lon": -74.0032364}, {"type": "node", "id": 2702838559, "lat": 40.741901, "lon": -74.0028157}, {"type": "node", "id": 2702838564, "lat": 40.7419091, "lon": -74.0028351}, {"type": "node", "id": 2702838604, "lat": 40.7419677, "lon": -74.0027926}, {"type": "node", "id": 2702838629, "lat": 40.7419991, "lon": -74.0031143}, {"type": "node", "id": 2702838635, "lat": 40.7420114, "lon": -74.0031436}, {"type": "node", "id": 2702838687, "lat": 40.7420783, "lon": -74.003057}, {"type": "node", "id": 2703020624, "lat": 40.7445639, "lon": -73.9992418, "tags": {"addr:housenumber": "231", "addr:postcode": "10011", "addr:street": "8th Avenue", "amenity": "cafe", "bar": "yes", "check_date": "2024-04-28", "name": "Fellini Coffee"}}, {"type": "node", "id": 2703020810, "lat": 40.7438613, "lon": -74.0006645}, {"type": "node", "id": 2703020812, "lat": 40.743863, "lon": -74.0006632}, {"type": "node", "id": 2703020836, "lat": 40.7439061, "lon": -74.0007706}, {"type": "node", "id": 2703020911, "lat": 40.7440153, "lon": -74.0010296}, {"type": "node", "id": 2703020915, "lat": 40.7440325, "lon": -74.0005397}, {"type": "node", "id": 2703020939, "lat": 40.7440616, "lon": -74.0011395}, {"type": "node", "id": 2703020975, "lat": 40.7441197, "lon": -74.0004761}, {"type": "node", "id": 2703021020, "lat": 40.744173, "lon": -74.001057}, {"type": "node", "id": 2703021025, "lat": 40.7441714, "lon": -74.0004384}, {"type": "node", "id": 2703021053, "lat": 40.7442114, "lon": -74.0004092}, {"type": "node", "id": 2703021105, "lat": 40.7443014, "lon": -74.0003436}, {"type": "node", "id": 2703021127, "lat": 40.7443414, "lon": -74.0004384}, {"type": "node", "id": 2703021187, "lat": 40.744459, "lon": -74.0007173}, {"type": "node", "id": 2703021221, "lat": 40.7445015, "lon": -74.000818}, {"type": "node", "id": 2703021334, "lat": 40.7446448, "lon": -74.0015374}, {"type": "node", "id": 2703021380, "lat": 40.7447067, "lon": -74.0014901}, {"type": "node", "id": 2703021431, "lat": 40.7447699, "lon": -74.0014456}, {"type": "node", "id": 2703059127, "lat": 40.7419847, "lon": -73.9954658}, {"type": "node", "id": 2703059157, "lat": 40.742076, "lon": -73.9956825}, {"type": "node", "id": 2703059246, "lat": 40.7421843, "lon": -73.9953205}, {"type": "node", "id": 2703059300, "lat": 40.7422385, "lon": -73.9949898}, {"type": "node", "id": 2703059345, "lat": 40.7422756, "lon": -73.9955372}, {"type": "node", "id": 2703059407, "lat": 40.7423716, "lon": -73.995304}, {"type": "node", "id": 2703059430, "lat": 40.7424435, "lon": -73.9948396}, {"type": "node", "id": 2703059448, "lat": 40.7424974, "lon": -73.9948002}, {"type": "node", "id": 2703059463, "lat": 40.7425407, "lon": -73.9949026}, {"type": "node", "id": 2703059470, "lat": 40.7425986, "lon": -73.9950393}, {"type": "node", "id": 2703059473, "lat": 40.7426035, "lon": -73.9951342}, {"type": "node", "id": 2703059477, "lat": 40.7426305, "lon": -73.9951144}, {"type": "node", "id": 2703083220, "lat": 40.7438586, "lon": -73.9946656, "tags": {"addr:housenumber": "163", "addr:postcode": "10011", "addr:street": "West 23rd Street", "amenity": "restaurant", "atm": "yes", "check_date": "2024-04-26", "cuisine": "diner", "delivery": "yes", "drink:beer": "yes", "drink:wine": "yes", "email": "malibudinernyc163@gmail.com", "name": "Malibu Diner", "phone": "+1 212-691-1369", "website": "https://malibudinernyc.nyc/"}}, {"type": "node", "id": 2703092686, "lat": 40.7450671, "lon": -73.9983943, "tags": {"addr:housenumber": "254", "addr:postcode": "10011", "addr:street": "8th Avenue", "amenity": "restaurant", "check_date": "2024-04-26", "name": "Fle-Fle Grill", "old_name": "Crumbcake Cafe", "opening_hours": "Mo-Su 11:00-22:00", "website": "https://fleflegrill.com/"}}, {"type": "node", "id": 2703092691, "lat": 40.74506, "lon": -73.9983358, "tags": {"addr:housenumber": "268", "addr:postcode": "10011", "addr:street": "West 23rd Street", "amenity": "restaurant", "cuisine": "pizza", "name": "Lions & Tigers & Squares Detroit Pizza"}}, {"type": "node", "id": 2703104212, "lat": 40.7473052, "lon": -73.9967923, "tags": {"addr:city": "New York", "addr:housenumber": "322", "addr:postcode": "10001", "addr:state": "NY", "addr:street": "8th Avenue", "addr:unit": "802", "description": "Affirmative professional mental health services for the lesbian, gay, bisexual, and transgender communities.", "email": "info@ihitherapy.org", "name": "Institute for Human Identity Therapy Center", "office": "therapist", "opening_hours": "Mo-Th 10:00-21:00; Fr 12:00-19:00", "phone": "+1 212-243-2830", "website": "https://www.ihitherapy.org"}}, {"type": "node", "id": 2703104327, "lat": 40.7463777, "lon": -73.9949636}, {"type": "node", "id": 2703104389, "lat": 40.7466301, "lon": -73.9947798}, {"type": "node", "id": 2703115801, "lat": 40.7459146, "lon": -73.9997026}, {"type": "node", "id": 2703115811, "lat": 40.7459501, "lon": -73.9997857}, {"type": "node", "id": 2703115823, "lat": 40.7459964, "lon": -73.9997635}, {"type": "node", "id": 2703115826, "lat": 40.7460043, "lon": -73.9996407}, {"type": "node", "id": 2703115828, "lat": 40.7460081, "lon": -73.999629}, {"type": "node", "id": 2703115829, "lat": 40.746011, "lon": -73.9996357}, {"type": "node", "id": 2703115831, "lat": 40.7460141, "lon": -73.9998048}, {"type": "node", "id": 2703115835, "lat": 40.7460185, "lon": -73.9996213}, {"type": "node", "id": 2703115837, "lat": 40.7460197, "lon": -73.9998006}, {"type": "node", "id": 2703115839, "lat": 40.7460232, "lon": -73.9996322}, {"type": "node", "id": 2703115858, "lat": 40.7461109, "lon": -73.9995675}, {"type": "node", "id": 2703115867, "lat": 40.7461689, "lon": -74.00015}, {"type": "node", "id": 2703115873, "lat": 40.7463138, "lon": -74.0000431}, {"type": "node", "id": 2703169719, "lat": 40.74735, "lon": -74.000974, "tags": {"addr:housenumber": "229", "addr:postcode": "10001", "addr:street": "9th Avenue", "amenity": "restaurant", "contact:facebook": "https://www.facebook.com/grandsichuan/", "cuisine": "chinese", "delivery": "yes", "name": "Grand Sichuan", "opening_hours": "Mo-Su 11:30-23:00", "phone": "+1 212-620-5200", "takeaway": "yes", "toilets": "yes", "website": "http://www.grand-sichuan.com"}}, {"type": "node", "id": 2703201683, "lat": 40.7471685, "lon": -73.9986662}, {"type": "node", "id": 2703201695, "lat": 40.7473236, "lon": -73.9985538}, {"type": "node", "id": 2703228174, "lat": 40.748592, "lon": -74.0001305}, {"type": "node", "id": 2703228175, "lat": 40.7485929, "lon": -74.0000725}, {"type": "node", "id": 2703228176, "lat": 40.7486018, "lon": -74.0002068}, {"type": "node", "id": 2703228177, "lat": 40.7486029, "lon": -74.0001308}, {"type": "node", "id": 2703228178, "lat": 40.7486038, "lon": -74.0000728}, {"type": "node", "id": 2703228179, "lat": 40.7486051, "lon": -73.9999924}, {"type": "node", "id": 2703228180, "lat": 40.7489011, "lon": -74.0007371}, {"type": "node", "id": 2703228181, "lat": 40.7489092, "lon": -74.0002151}, {"type": "node", "id": 2703228186, "lat": 40.7489605, "lon": -74.0007532}, {"type": "node", "id": 2703228188, "lat": 40.7489607, "lon": -74.0007387}, {"type": "node", "id": 2703228190, "lat": 40.7489638, "lon": -74.000002}, {"type": "node", "id": 2703228192, "lat": 40.748964, "lon": -73.9999903}, {"type": "node", "id": 2703228194, "lat": 40.7490021, "lon": -74.0007543}, {"type": "node", "id": 2703228196, "lat": 40.7490023, "lon": -74.0007398}, {"type": "node", "id": 2703228198, "lat": 40.7490114, "lon": -73.9999916}, {"type": "node", "id": 2703228200, "lat": 40.7490155, "lon": -73.9997298}, {"type": "node", "id": 2703228202, "lat": 40.7490628, "lon": -74.0007414}, {"type": "node", "id": 2703228204, "lat": 40.7490668, "lon": -74.0004847}, {"type": "node", "id": 2703228211, "lat": 40.7491484, "lon": -74.0004869}, {"type": "node", "id": 2703228213, "lat": 40.7491526, "lon": -74.0002225}, {"type": "node", "id": 2703228215, "lat": 40.7491559, "lon": -74.0000072}, {"type": "node", "id": 2703228217, "lat": 40.7491602, "lon": -73.9997337}, {"type": "node", "id": 2703228242, "lat": 40.7492813, "lon": -74.0002259}, {"type": "node", "id": 2703228244, "lat": 40.7492825, "lon": -74.0001447}, {"type": "node", "id": 2703228246, "lat": 40.7492834, "lon": -74.0000897}, {"type": "node", "id": 2703228247, "lat": 40.7492846, "lon": -74.0000106}, {"type": "node", "id": 2703228250, "lat": 40.7492927, "lon": -74.000145}, {"type": "node", "id": 2703228252, "lat": 40.7492935, "lon": -74.00009}, {"type": "node", "id": 2703242507, "lat": 40.7471473, "lon": -74.0005212, "tags": {"amenity": "restaurant", "name": "Shukette", "old_name": "Co.", "smoking": "no"}}, {"type": "node", "id": 2703242521, "lat": 40.7473252, "lon": -74.000383, "tags": {"amenity": "cafe", "branch": "Chelsea", "name": "Sullivan Street Bakery", "opening_hours": "Mo-Su 08:00-19:00", "operator": "Jim Lahey", "phone": "+1-212-929-5900", "shop": "bakery", "website": "https://www.sullivanstreetbakery.com/"}}, {"type": "node", "id": 2704040472, "lat": 40.7368544, "lon": -73.9833585}, {"type": "node", "id": 2704040473, "lat": 40.7368611, "lon": -73.9832954}, {"type": "node", "id": 2704040476, "lat": 40.7368747, "lon": -73.9832855}, {"type": "node", "id": 2704040477, "lat": 40.7368798, "lon": -73.9833399}, {"type": "node", "id": 2704040479, "lat": 40.7369213, "lon": -73.9832513}, {"type": "node", "id": 2704040482, "lat": 40.7369311, "lon": -73.9835406}, {"type": "node", "id": 2704040483, "lat": 40.7369569, "lon": -73.9835217}, {"type": "node", "id": 2704040486, "lat": 40.736977, "lon": -73.9835696}, {"type": "node", "id": 2704040487, "lat": 40.7369844, "lon": -73.9835642}, {"type": "node", "id": 2704040489, "lat": 40.7370102, "lon": -73.9831861}, {"type": "node", "id": 2704040493, "lat": 40.7370592, "lon": -73.9831502}, {"type": "node", "id": 2704040516, "lat": 40.7371747, "lon": -73.9834247}, {"type": "node", "id": 2704093189, "lat": 40.7374469, "lon": -73.9787527}, {"type": "node", "id": 2704093192, "lat": 40.7374139, "lon": -73.9783931}, {"type": "node", "id": 2704093195, "lat": 40.7375362, "lon": -73.9786879}, {"type": "node", "id": 2704093203, "lat": 40.737449, "lon": -73.9783677}, {"type": "node", "id": 2704093205, "lat": 40.737704, "lon": -73.9786949}, {"type": "node", "id": 2704093207, "lat": 40.7377224, "lon": -73.9786816}, {"type": "node", "id": 2704093210, "lat": 40.7377916, "lon": -73.9789492}, {"type": "node", "id": 2704093211, "lat": 40.7375487, "lon": -73.978263}, {"type": "node", "id": 2704093212, "lat": 40.7376099, "lon": -73.9791456}, {"type": "node", "id": 2704093229, "lat": 40.7378123, "lon": -73.9789992}, {"type": "node", "id": 2704096873, "lat": 40.7385267, "lon": -73.982055}, {"type": "node", "id": 2704096891, "lat": 40.7385798, "lon": -73.982016}, {"type": "node", "id": 2704096893, "lat": 40.7385914, "lon": -73.9822069}, {"type": "node", "id": 2704096932, "lat": 40.7386893, "lon": -73.9824368}, {"type": "node", "id": 2704096933, "lat": 40.7386901, "lon": -73.9819352}, {"type": "node", "id": 2704096939, "lat": 40.7387385, "lon": -73.9819002}, {"type": "node", "id": 2704096946, "lat": 40.7387559, "lon": -73.9825933}, {"type": "node", "id": 2704096958, "lat": 40.7388745, "lon": -73.982507}, {"type": "node", "id": 2704096965, "lat": 40.738914, "lon": -73.9822732}, {"type": "node", "id": 2704096969, "lat": 40.7389334, "lon": -73.982464}, {"type": "node", "id": 2704096972, "lat": 40.7389801, "lon": -73.98243}, {"type": "node", "id": 3792532817, "lat": 40.7458278, "lon": -74.0015707, "tags": {"amenity": "cafe", "cuisine": "coffee_shop", "internet_access": "wlan", "internet_access:fee": "no", "name": "FIKA 9th Avenue", "opening_hours": "Mo-Fr 07:00-19:00; Sa-Su 09:00-19:00", "phone": "+1-646-590-3275", "website": "https://www.fikanyc.com/"}}, {"type": "node", "id": 4076729410, "lat": 40.7385511, "lon": -73.9820371}, {"type": "node", "id": 4076729416, "lat": 40.7386653, "lon": -73.9819534}, {"type": "node", "id": 4236711150, "lat": 40.7450974, "lon": -73.9947013, "tags": {"addr:city": "New York", "addr:housenumber": "257", "addr:postcode": "10001", "addr:state": "NY", "addr:street": "7th Avenue", "amenity": "restaurant", "cuisine": "italian", "delivery": "yes", "level": "1", "name": "Bella Napoli", "phone": "+1 212-675-4050", "takeaway": "yes", "website": "http://bellanapoli.com/7ave/7-avenue.html"}}, {"type": "node", "id": 4396465094, "lat": 40.7443392, "lon": -73.9987769, "tags": {"addr:postcode": "10011", "amenity": "restaurant", "cuisine": "asian", "name": "Momofuku Nishi", "name:en": "Momofuku Nishi", "website": "https://nishi.momofuku.com/"}}, {"type": "node", "id": 4481455792, "lat": 40.7469873, "lon": -73.9969959, "tags": {"amenity": "cafe", "name": "Bean&Bean Coffee", "name:en": "Bean&Bean Coffee", "wheelchair": "yes"}}, {"type": "node", "id": 4555387711, "lat": 40.7443011, "lon": -74.0009642}, {"type": "node", "id": 4555387712, "lat": 40.7443755, "lon": -74.0011379}, {"type": "node", "id": 4555387713, "lat": 40.7444608, "lon": -74.001166}, {"type": "node", "id": 4555387714, "lat": 40.7446195, "lon": -74.0015552}, {"type": "node", "id": 4757312021, "lat": 40.7443091, "lon": -73.9966612, "tags": {"addr:housenumber": "220", "addr:postcode": "10011", "addr:street": "West 23rd Street", "amenity": "cafe", "cuisine": "donut", "name": "Doughnut Plant", "opening_hours": "Mo-We, Su 07:00-22:00; Th-Sa 07:00-00:00"}}, {"type": "node", "id": 4850904721, "lat": 40.7479759, "lon": -74.0005778, "tags": {"addr:housenumber": "401", "addr:street": "West 25th Street", "amenity": "restaurant", "check_date": "2024-03-11", "name": "Citizens of Chelsea"}}, {"type": "node", "id": 5087641962, "lat": 40.7468774, "lon": -73.9970849, "tags": {"addr:housenumber": "316", "addr:street": "8th Avenue", "amenity": "bar", "name": "the Chelsea Bell", "wheelchair": "limited"}}, {"type": "node", "id": 5400496979, "lat": 40.7452899, "lon": -73.9988852, "tags": {"addr:housenumber": "300", "addr:street": "West 23rd Street", "amenity": "restaurant", "check_date": "2024-04-26", "cuisine": "sushi", "name": "Asuka Sushi", "opening_hours": "Su-Th 11:00-22:30; Fr-Sa 11:00-22:00", "phone": "+1-212-727-0888", "website": "https://www.asukasushiny.com/", "wheelchair": "yes"}}, {"type": "node", "id": 6069788562, "lat": 40.7477412, "lon": -73.9986362}, {"type": "node", "id": 6069788563, "lat": 40.7478092, "lon": -73.9987976, "tags": {"access": "yes", "barrier": "gate"}}, {"type": "node", "id": 6069788565, "lat": 40.747687, "lon": -73.9985381}, {"type": "node", "id": 6069788572, "lat": 40.7474716, "lon": -73.9986952}, {"type": "node", "id": 6069788573, "lat": 40.7475159, "lon": -73.9988018}, {"type": "node", "id": 6069788574, "lat": 40.7476651, "lon": -73.9984832, "tags": {"access": "yes", "barrier": "gate"}}, {"type": "node", "id": 6069788576, "lat": 40.7477005, "lon": -73.998538}, {"type": "node", "id": 6069788577, "lat": 40.7471363, "lon": -73.9986567, "tags": {"access": "yes", "barrier": "gate"}}, {"type": "node", "id": 6069788578, "lat": 40.7475823, "lon": -73.9989616}, {"type": "node", "id": 6139645147, "lat": 40.7461064, "lon": -74.0008419, "tags": {"amenity": "restaurant", "bar": "yes", "check_date": "2024-04-26", "cocktails": "yes", "cuisine": "mexican", "delivery": "yes", "drink:beer": "draught", "drink:liquor": "yes", "drink:wine": "yes", "happy_hours": "Mo-Fr 15:00-19:00", "name": "Tequila Chito's", "opening_hours": "Mo,Tu 16:00-23:00; We 16:00-24:00; Th 15:00-24:00; Fr 15:00-01:00; Sa 16:00-01:00; Su 16:00-23:00", "phone": "+1-212-463-0535", "wheelchair": "yes"}}, {"type": "node", "id": 6250176401, "lat": 40.745206, "lon": -73.9946116, "tags": {"addr:housenumber": "261", "addr:postcode": "10001", "addr:street": "7th Avenue", "amenity": "cafe", "branch": "Chelsea", "contact:facebook": "https://www.facebook.com/Variety-Coffee-Roasters-2000912436802356/", "cuisine": "coffee_shop", "drink:coffee": "yes", "drink:espresso": "yes", "drink:tea": "yes", "name": "Variety Coffee Roasters", "opening_hours": "Mo-Su 07:00-21:00", "phone": "+1 917-409-0106", "website": "https://varietycoffeeroasters.com", "wheelchair": "no"}}, {"type": "node", "id": 6259730842, "lat": 40.7438479, "lon": -73.9954656, "tags": {"addr:housenumber": "170", "addr:postcode": "10011", "addr:street": "West 23rd Street", "amenity": "cafe", "branch": "Chelsea", "check_date": "2024-04-26", "name": "ViVi Bubble Tea", "opening_hours": "Mo-Th, Su 10:00-22:00; Fr 10:00-23:00; Sa 10:00-22:30", "payment:credit_cards": "yes", "phone": "+1 212-366-0688", "website": "https://www.vivibubbletea.com/location_content.php?l=2", "wheelchair": "yes"}}, {"type": "node", "id": 6398111372, "lat": 40.7445405, "lon": -73.998373, "tags": {"addr:housenumber": "275", "addr:street": "West 22nd Street", "amenity": "bar", "cocktails": "yes", "drink:beer": "yes", "drink:liquor": "yes", "drink:wine": "yes", "lgbtq": "primary", "name": "Barracuda Bar", "opening_hours": "Mo-Su 16:00-04:00", "phone": "+1-212-645-8613", "toilets": "yes"}}, {"type": "node", "id": 7105939411, "lat": 40.7461686, "lon": -74.0001493, "tags": {"camera:type": "dome", "man_made": "surveillance", "surveillance:type": "camera"}}, {"type": "node", "id": 7680594079, "lat": 40.7436917, "lon": -73.9999031, "tags": {"addr:housenumber": "201", "addr:postcode": "10011", "addr:street": "8th Avenue", "amenity": "restaurant", "level": "0", "name": "Dish Restaurant", "outdoor_seating": "yes", "phone": "+1-212-352-9800"}}, {"type": "node", "id": 7680594082, "lat": 40.7435443, "lon": -73.9995047, "tags": {"addr:housenumber": "200", "addr:postcode": "10011", "addr:street": "8th Avenue", "amenity": "restaurant", "level": "0", "name": "el coco"}}, {"type": "node", "id": 7680594083, "lat": 40.7434956, "lon": -73.9995423, "tags": {"addr:housenumber": "200", "addr:postcode": "10011", "addr:street": "8th Avenue", "amenity": "restaurant", "cuisine": "asian", "level": "0", "name": "Charm's", "opening_hours": "Mo-Th 11:30-16:00, 17:00-22:30; Fr 11:30-16:00, 17:00-23:00; Sa 12:30-23:00; Su 12:30-22:30", "phone": "+1-646-590-8994", "website": "https://www.charmsnyc.com"}}, {"type": "node", "id": 8062644086, "lat": 40.7472473, "lon": -73.9967689, "tags": {"addr:city": "New York", "addr:housenumber": "322", "addr:postcode": "10001", "addr:state": "NY", "addr:street": "8th Avenue", "addr:unit": "5", "name": "Sam Schwartz", "office": "company", "phone": "+1 212 598 9010", "website": "https://www.samschwartz.com"}}, {"type": "node", "id": 8262309010, "lat": 40.7489485, "lon": -74.0000016}, {"type": "node", "id": 9054229226, "lat": 40.7378054, "lon": -73.9789393}, {"type": "node", "id": 9569739936, "lat": 40.745998, "lon": -73.9996259}, {"type": "node", "id": 9569739940, "lat": 40.7459591, "lon": -73.9996608}, {"type": "node", "id": 9845565310, "lat": 40.7436499, "lon": -73.9999237, "tags": {"addr:city": "New York", "addr:housenumber": "199", "addr:postcode": "10011", "addr:state": "NY", "addr:street": "8th Avenue", "amenity": "restaurant", "contact:facebook": "https://www.facebook.com/willownewyork/", "cuisine": "bistro;american", "delivery": "yes", "diet:kosher": "yes", "diet:vegan": "only", "diet:vegetarian": "yes", "name": "Willow Vegan Bistro", "opening_hours": "Mo-Th 11:30-21:30; Fr-Sa 11:30-22:30; Su 11:30-21:30", "phone": "+1-212-929-2889", "takeaway": "yes", "website": "https://willownewyork.com/", "website:menu": "https://willownewyork.com/menu/", "wikidata": "Q136351186"}}, {"type": "node", "id": 9922905117, "lat": 40.7440139, "lon": -73.9950453, "tags": {"addr:city": "New York", "addr:housenumber": "165", "addr:postcode": "10011", "addr:state": "NY", "addr:street": "West 23rd Street", "amenity": "restaurant", "check_date": "2024-04-26", "cuisine": "chinese", "name": "Excellent Dumpling House", "name:zh": "\u4e09\u516d\u4e5d", "opening_hours": "11:00-21:45", "phone": "+1-212-989-8885", "website": "https://excellentdumpling.nyc/"}}, {"type": "node", "id": 10589487715, "lat": 40.7374386, "lon": -73.9783426}, {"type": "node", "id": 10589538446, "lat": 40.7387525, "lon": -73.98189}, {"type": "node", "id": 10873983898, "lat": 40.7434197, "lon": -73.9963738, "tags": {"addr:city": "New York", "addr:housenumber": "206", "addr:postcode": "10011", "addr:state": "NY", "addr:street": "West 22nd Street", "amenity": "pub", "name": "The Cooper Still", "website": "https://www.thecopperstillnyc.com/"}}, {"type": "node", "id": 11088424818, "lat": 40.7462748, "lon": -73.9975223, "tags": {"addr:city": "New York", "addr:housenumber": "290", "addr:postcode": "10001", "addr:state": "NY", "addr:street": "8th Avenue", "amenity": "restaurant", "cuisine": "mediterranean", "delivery": "yes", "diet:kosher": "yes", "diet:vegan": "only", "diet:vegetarian": "yes", "name": "Anixi Mediterranean Vegan Restaurant", "opening_hours": "Mo-Th 16:30-22:00; Fr 16:30-22:30; Sa 11:30-22:30; Su 11:30-22:00", "phone": "+1-646-410-0946", "takeaway": "yes", "website": "https://www.anixinyc.com/", "website:menu": "https://www.anixinyc.com/menu/", "wikidata": "Q136351042"}}, {"type": "node", "id": 11345588157, "lat": 40.7474506, "lon": -73.9966833, "tags": {"amenity": "restaurant", "cuisine": "ramen", "name": "Kame", "website": "https://www.kamenyc.com/"}}, {"type": "node", "id": 11842298772, "lat": 40.7470428, "lon": -73.9964446, "tags": {"amenity": "restaurant", "name": "Hey Yuet"}}, {"type": "node", "id": 11844522999, "lat": 40.7452301, "lon": -73.9978783, "tags": {"amenity": "bar", "check_date": "2024-04-26", "name": "Trailer Park Lounge"}}, {"type": "node", "id": 11873180748, "lat": 40.7439868, "lon": -73.9949708, "tags": {"amenity": "restaurant", "name": "Malibu Diner"}}, {"type": "node", "id": 11892515469, "lat": 40.7450228, "lon": -73.99825, "tags": {"addr:housenumber": "268", "addr:street": "West 23rd Street", "amenity": "restaurant", "cuisine": "pizza", "name": "Lions & Tigers & Squares Detroit Pizza"}}, {"type": "node", "id": 12307257374, "lat": 40.7451722, "lon": -73.9976887, "tags": {"addr:state": "NY", "amenity": "restaurant", "diet:vegan": "only", "name": "Urban Vegan Kitchen"}}, {"type": "node", "id": 12616827011, "lat": 40.7455565, "lon": -73.9964516, "tags": {"amenity": "school", "mascot": "Falcons", "mascot:name": "Mikey the Falcon", "name": "High School of Fashion Industries"}}, {"type": "node", "id": 13070933044, "lat": 40.7459665, "lon": -74.0014557, "tags": {"amenity": "bar", "name": "The Canuck"}}, {"type": "way", "id": 108159980, "nodes": [1241329531, 1241329536, 1241329534, 1241329535, 1241329532, 1241329538, 2703104327, 2703104389, 1241329531], "tags": {"addr:city": "New York", "addr:state": "NY", "amenity": "university", "ele": "8", "gnis:feature_id": "2083029", "mascot": "Tigers", "name": "Fashion Institute of Technology", "operator": "State University of New York", "operator:type": "government", "operator:wikidata": "Q1140241", "phone": "+1-212-217-7999", "polling_station": "yes", "religion": "none", "short_name": "FIT", "source": "bing & campus map", "website": "https://www.fitnyc.edu", "wikidata": "Q844999", "wikipedia": "en:Fashion Institute of Technology"}}, {"type": "way", "id": 249657372, "nodes": [2562375149, 2562375154, 2562375208, 2562375200, 2562375149], "tags": {"addr:housenumber": "17", "addr:postcode": "10003", "addr:street": "Gramercy Park South", "building": "yes", "height": "22.8", "nycdoitt:bin": "1017937"}}, {"type": "way", "id": 257671578, "nodes": [2631535154, 6069788563, 6069788562, 6069788576, 6069788565, 6069788574, 2631535155, 2631535156, 6069788577, 2631535157, 2703201683, 2703201695, 2631535158, 2631535159, 2631535160, 6069788572, 6069788573, 6069788578, 2631535161, 2631535154], "tags": {"ele": "7", "leisure": "park", "name": "Penn South Playground", "operator": "New York City Department of Parks and Recreation", "operator:short": "NYC Parks", "operator:type": "government", "operator:wikidata": "Q1894232", "website": "https://www.nycgovparks.org/parks/penn-south-playground/", "wikidata": "Q34855143"}}, {"type": "way", "id": 264625629, "nodes": [2702838486, 2702838547, 2702838635, 2702838629, 2702838687, 2702838604, 2702838564, 2702838559, 2702838486], "tags": {"addr:housenumber": "335", "addr:postcode": "10011", "addr:street": "West 16th Street", "building": "yes", "building:colour": "#DFCAAF", "building:levels": "5", "building:material": "brick", "building:part": "yes", "height": "22.6", "nycdoitt:bin": "1013048", "roof:material": "concrete", "roof:shape": "flat"}}, {"type": "way", "id": 264646541, "nodes": [2703059448, 2703059430, 2703059300, 2703059407, 2703059473, 2703059477, 2703059470, 2703059463, 2703059448], "tags": {"building": "yes", "height": "46.6", "nycdoitt:bin": "1014771"}}, {"type": "way", "id": 264646543, "nodes": [2703059127, 2703059157, 2703059345, 2703059246, 2703059127], "tags": {"addr:housenumber": "136", "addr:postcode": "10011", "addr:street": "West 21st Street", "building": "yes", "height": "45.5", "nycdoitt:bin": "1014758"}}, {"type": "way", "id": 264651626, "nodes": [2703115828, 2703115829, 2703115826, 9569739936, 2501879029, 9569739940, 2703115801, 2703115811, 2703115823, 2703115831, 2703115837, 7105939411, 2703115867, 2703115873, 2703115858, 2703115839, 2703115835, 2703115828], "tags": {"addr:city": "New York", "addr:housenumber": "333", "addr:postcode": "10011", "addr:state": "NY", "addr:street": "West 23rd Street", "amenity": "cinema", "building": "college", "check_date": "2024-04-26", "height": "10.8", "name": "SVA Theater", "nycdoitt:bin": "1078542", "screen": "2", "source": "Local Knowledge;local_knowledge", "website": "https://www.svatheatre.com/", "wikidata": "Q45101554"}}, {"type": "way", "id": 264667014, "nodes": [2703228246, 2703228247, 2703228215, 2703228217, 2703228200, 2703228198, 2703228192, 2703228190, 8262309010, 2703228179, 2703228178, 2703228175, 2703228174, 2703228177, 2703228176, 2703228181, 2703228180, 2703228188, 2703228186, 2703228194, 2703228196, 2703228202, 2703228204, 2703228211, 2703228213, 2703228242, 2703228244, 2703228250, 2703228252, 2703228246], "tags": {"addr:housenumber": "281", "addr:postcode": "10001", "addr:street": "9th Avenue", "amenity": "school", "building": "school", "height": "18.9", "name": "Public School 33", "nycdoitt:bin": "1012829"}}, {"type": "way", "id": 264754109, "nodes": [2704040473, 2704040477, 2704040472, 2704040482, 2704040483, 2704040486, 2704040487, 2704040516, 2704040493, 2704040489, 2704040479, 2704040476, 2704040473], "tags": {"addr:housenumber": "214", "addr:postcode": "10010", "addr:street": "East 21st Street", "building": "yes", "height": "37.0", "nycdoitt:bin": "1019626"}}, {"type": "way", "id": 264760109, "nodes": [2704093229, 2704093210, 9054229226, 2704093205, 2704093207, 2704093211, 10589487715, 2704093203, 2704093192, 2704093195, 2704093189, 2704093212, 2704093229], "tags": {"addr:housenumber": "340", "addr:postcode": "10010", "addr:street": "East 24th Street", "building": "dormitory", "height": "42.2", "nycdoitt:bin": "1020597", "operator": "School of Visual Arts"}}, {"type": "way", "id": 459797785, "nodes": [4555387711, 4555387712, 4555387713, 4555387714, 2703021334, 2703021380, 2703021431, 2703021221, 2703021187, 2703021127, 2703021105, 2703021053, 2703021025, 2703020975, 2703020915, 2703020812, 2703020810, 2703020836, 2703020911, 2703020939, 2703021020, 4555387711], "tags": {"amenity": "school"}}, {"type": "way", "id": 753146654, "nodes": [2704096972, 2704096965, 10589538446, 2704096939, 2704096933, 4076729416, 2704096891, 4076729410, 2704096873, 2704096893, 2704096932, 2704096946, 2704096958, 2704096969, 2704096972]}, {"type": "relation", "id": 15402496, "members": [{"type": "way", "ref": 753146654, "role": "outer"}, {"type": "way", "ref": 264760109, "role": "outer"}, {"type": "way", "ref": 264754109, "role": "outer"}, {"type": "way", "ref": 249657372, "role": "outer"}, {"type": "way", "ref": 264646543, "role": "outer"}, {"type": "way", "ref": 264646541, "role": "outer"}, {"type": "way", "ref": 264625629, "role": "outer"}, {"type": "way", "ref": 264651626, "role": "outer"}], "tags": {"addr:housenumber": "209", "addr:postcode": "10010", "addr:street": "East 23rd Street", "alt_name": "SVA", "amenity": "university", "fax": "+1-212-725-3587", "name": "School of Visual Arts", "phone": "+1-212-592-2000", "short_name": "SVA", "type": "multipolygon", "website": "https://sva.edu", "wikidata": "Q1279835", "wikipedia": "en:School of Visual Arts"}}]}