{"version": 0.6, "generator": "Overpass API 0.7.62.8 e802775f", "osm3s": {"timestamp_osm_base": "2025-12-01T16:59:42Z", "copyright": "The data included in this document is from www.openstreetmap.org. The data is made available under ODbL."}, "elements": [{"type": "node", "id": 42424937, "lat": 40.8105617, "lon": -73.967223, "tags": {"highway": "motorway_junction", "noref": "yes"}}, {"type": "node", "id": 42441403, "lat": 40.8162646, "lon": -73.9615293}, {"type": "node", "id": 42441407, "lat": 40.8162461, "lon": -73.9614782}, {"type": "node", "id": 42441412, "lat": 40.816222, "lon": -73.9614252}, {"type": "node", "id": 42441415, "lat": 40.8161962, "lon": -73.9613877}, {"type": "node", "id": 42441417, "lat": 40.8161681, "lon": -73.9613545}, {"type": "node", "id": 42441419, "lat": 40.8161374, "lon": -73.9613306}, {"type": "node", "id": 42458473, "lat": 40.8036231, "lon": -73.9722212}, {"type": "node", "id": 61249177, "lat": 40.8016951, "lon": -73.9735819}, {"type": "node", "id": 61249178, "lat": 40.8023444, "lon": -73.9731319}, {"type": "node", "id": 61249179, "lat": 40.8045999, "lon": -73.9714929}, {"type": "node", "id": 61249181, "lat": 40.8063472, "lon": -73.9701252}, {"type": "node", "id": 61249182, "lat": 40.8072829, "lon": -73.9694072}, {"type": "node", "id": 61249184, "lat": 40.8086614, "lon": -73.9684344}, {"type": "node", "id": 61257626, "lat": 40.809158, "lon": -73.9681085}, {"type": "node", "id": 357620593, "lat": 40.8016979, "lon": -73.9702671, "tags": {"addr:floor": "3rd Floor", "addr:housenumber": "331", "addr:street": "Riverside Drive", "amenity": "school", "ele": "33", "email": "info@ambuddhist.org", "gnis:feature_id": "2083382", "name": "American Buddhist Study Center", "name:1951-2000": "American Buddhist Academy", "name:2000-": "American Buddhist Study Center", "phone": "+1-212-864-7424", "source:name": "https://web.archive.org/web/20191024141133id_/ambuddhist.org/about#comp-j3yhquq1imgimage", "website": "https://www.ambuddhist.org"}}, {"type": "node", "id": 595436258, "lat": 40.8126128, "lon": -73.9654746}, {"type": "node", "id": 595436261, "lat": 40.8133193, "lon": -73.9648631}, {"type": "node", "id": 625883727, "lat": 40.7961331, "lon": -73.9750609}, {"type": "node", "id": 625884281, "lat": 40.8010765, "lon": -73.9738763}, {"type": "node", "id": 625884289, "lat": 40.8006283, "lon": -73.9741584}, {"type": "node", "id": 625884294, "lat": 40.8000584, "lon": -73.9744791}, {"type": "node", "id": 625884299, "lat": 40.7994631, "lon": -73.9746907}, {"type": "node", "id": 625884302, "lat": 40.799061, "lon": -73.9748409}, {"type": "node", "id": 625884307, "lat": 40.7988785, "lon": -73.9746768}, {"type": "node", "id": 625884311, "lat": 40.798717, "lon": -73.9746432}, {"type": "node", "id": 625884313, "lat": 40.7986643, "lon": -73.9746454}, {"type": "node", "id": 625884326, "lat": 40.7985684, "lon": -73.9746772}, {"type": "node", "id": 625884331, "lat": 40.7981691, "lon": -73.9749158}, {"type": "node", "id": 625884334, "lat": 40.7979393, "lon": -73.9750767}, {"type": "node", "id": 625884337, "lat": 40.7976979, "lon": -73.9752286}, {"type": "node", "id": 625884342, "lat": 40.7974196, "lon": -73.9753795}, {"type": "node", "id": 625884347, "lat": 40.7972133, "lon": -73.9754739}, {"type": "node", "id": 625884352, "lat": 40.7969615, "lon": -73.9755598}, {"type": "node", "id": 625884354, "lat": 40.7967985, "lon": -73.9755914}, {"type": "node", "id": 625884358, "lat": 40.7965823, "lon": -73.9755587}, {"type": "node", "id": 625884364, "lat": 40.7963686, "lon": -73.9754632}, {"type": "node", "id": 625884369, "lat": 40.7962596, "lon": -73.9753297}, {"type": "node", "id": 625884371, "lat": 40.7961818, "lon": -73.9751735}, {"type": "node", "id": 1147215107, "lat": 40.8128553, "lon": -73.9629822}, {"type": "node", "id": 1147215134, "lat": 40.81301, "lon": -73.9628841}, {"type": "node", "id": 1289223589, "lat": 40.8017171, "lon": -73.9684304}, {"type": "node", "id": 1289223592, "lat": 40.8021993, "lon": -73.9680806}, {"type": "node", "id": 1289223594, "lat": 40.8022034, "lon": -73.9680757}, {"type": "node", "id": 1289223597, "lat": 40.8016019, "lon": -73.968098}, {"type": "node", "id": 1332863754, "lat": 40.8015627, "lon": -73.9735078}, {"type": "node", "id": 1705982023, "lat": 40.8162727, "lon": -73.9616846}, {"type": "node", "id": 1705982067, "lat": 40.8162739, "lon": -73.9615857}, {"type": "node", "id": 1705982125, "lat": 40.8162759, "lon": -73.961641}, {"type": "node", "id": 1705982127, "lat": 40.8139876, "lon": -73.9623085}, {"type": "node", "id": 1705982137, "lat": 40.8139095, "lon": -73.9623366}, {"type": "node", "id": 1705982150, "lat": 40.8162661, "lon": -73.9617266}, {"type": "node", "id": 1825848790, "lat": 40.7993268, "lon": -73.9687523, "tags": {"addr:city": "New York", "addr:country": "US", "addr:housenumber": "2701", "addr:postcode": "10025", "addr:state": "NY", "addr:street": "Broadway", "amenity": "restaurant", "check_date": "2025-01-21", "cuisine": "indian", "delivery": "yes", "name": "Kesari"}}, {"type": "node", "id": 1825848800, "lat": 40.7970144, "lon": -73.969726, "tags": {"addr:city": "New York", "addr:country": "US", "addr:housenumber": "2636", "addr:postcode": "10025", "addr:state": "NY", "addr:street": "Broadway", "amenity": "restaurant", "cuisine": "indian", "fax": "+1-212-865-4111", "name": "Manhattan Valley", "opening_hours": "Mo-Su 11:15-22:15", "phone": "+1-212-222-9222", "website": "https://www.manhattanvalleyny.com/"}}, {"type": "node", "id": 1825848802, "lat": 40.7974417, "lon": -73.9701456, "tags": {"addr:city": "New York", "addr:housenumber": "2641", "addr:postcode": "10025", "addr:state": "NY", "addr:street": "Broadway", "amenity": "restaurant", "cuisine": "diner", "delivery": "yes", "name": "Metro Diner", "not:brand:wikidata": "Q104870732", "opening_hours": "Mo-Su 8:30-21:30", "phone": "+1-212-866-0800", "takeaway": "yes", "website": "https://www.metrodiner.nyc"}}, {"type": "node", "id": 1825848804, "lat": 40.7975736, "lon": -73.9693077, "tags": {"addr:city": "New York", "addr:country": "US", "addr:housenumber": "2656", "addr:postcode": "10025", "addr:state": "NY", "addr:street": "Broadway", "amenity": "restaurant", "cuisine": "vietnamese", "name": "Just Pho You", "phone": "+1-646+822+5178", "website": "https://justphoyounyc.com"}}, {"type": "node", "id": 1889208625, "lat": 40.8016081, "lon": -73.9736367}, {"type": "node", "id": 1913191317, "lat": 40.7987385, "lon": -73.9673316, "tags": {"addr:city": "New York", "addr:housenumber": "201", "addr:postcode": "10025", "addr:state": "NY", "addr:street": "West 103rd Street", "amenity": "restaurant", "cuisine": "italian", "name": "Bosino", "phone": "+16467558770", "website": "https://bosinonyc.com"}}, {"type": "node", "id": 2312065757, "lat": 40.8011187, "lon": -73.9682057, "tags": {"addr:city": "New York", "addr:country": "US", "addr:housenumber": "2751", "addr:postcode": "10025", "addr:state": "NY", "addr:street": "Broadway", "amenity": "restaurant", "cuisine": "american", "delivery": "no", "email": "info@smokejazz.com", "name": "Smoke Jazz & Supper Club", "opening_hours": "We-Su 17:00-24:00", "outdoor_seating": "no", "phone": "+1-212-864-6662", "smoking": "no", "takeaway": "no", "website": "https://www.smokejazz.com/", "wikidata": "Q15278253"}}, {"type": "node", "id": 2329798527, "lat": 40.7963145, "lon": -73.9754086}, {"type": "node", "id": 2329798535, "lat": 40.7964215, "lon": -73.9754998}, {"type": "node", "id": 2329798542, "lat": 40.7964889, "lon": -73.9755321}, {"type": "node", "id": 2329798582, "lat": 40.7966654, "lon": -73.9755782}, {"type": "node", "id": 2329798598, "lat": 40.7967347, "lon": -73.9755891}, {"type": "node", "id": 2329798608, "lat": 40.796884, "lon": -73.9755788}, {"type": "node", "id": 2329798616, "lat": 40.7970897, "lon": -73.9755208}, {"type": "node", "id": 2329798663, "lat": 40.7983548, "lon": -73.9747827}, {"type": "node", "id": 2329798667, "lat": 40.7984202, "lon": -73.9747434}, {"type": "node", "id": 2329798673, "lat": 40.7984963, "lon": -73.9747051}, {"type": "node", "id": 2329798681, "lat": 40.7987747, "lon": -73.9746457}, {"type": "node", "id": 2329798685, "lat": 40.7988308, "lon": -73.9746595}, {"type": "node", "id": 2329798687, "lat": 40.7989241, "lon": -73.9747029}, {"type": "node", "id": 2329798689, "lat": 40.7989687, "lon": -73.9747411}, {"type": "node", "id": 2329798691, "lat": 40.7990167, "lon": -73.9747883}, {"type": "node", "id": 2384892236, "lat": 40.8008613, "lon": -73.9682637, "tags": {"addr:city": "New York", "addr:country": "US", "addr:housenumber": "2745", "addr:postcode": "10025", "addr:state": "NY", "addr:street": "Broadway", "amenity": "restaurant", "name": "The Ellington", "phone": "+1-212-281-3011", "website": "https://www.theellingtonny.com"}}, {"type": "node", "id": 2384892242, "lat": 40.800303, "lon": -73.9683394, "tags": {"addr:city": "New York", "addr:housenumber": "2731", "addr:postcode": "10025", "addr:state": "NY", "addr:street": "Broadway", "amenity": "bar", "brewery": "various", "check_date": "2024-03-26", "internet_access": "wlan", "internet_access:fee": "customers", "name": "Tap a Keg", "opening_hours": "Mo-Su 12:00-04:00", "payment:cash": "yes", "payment:credit_cards": "yes", "payment:debit_cards": "yes", "phone": "+1-212-749-1734"}}, {"type": "node", "id": 2384892243, "lat": 40.800492, "lon": -73.9682823, "tags": {"addr:city": "New York", "addr:country": "US", "addr:housenumber": "2737", "addr:postcode": "10025", "addr:state": "NY", "addr:street": "Broadway", "amenity": "restaurant", "branch": "West 105", "name": "Serafina", "opening_hours": "Mo-Fr 11:30-23:00; Sa 10:30-23:00; Su 10:30-22:00", "phone": "+1 212 301 0664", "website": "https://serafinawest105.com"}}, {"type": "node", "id": 2535746178, "lat": 40.7987331, "lon": -73.9672189, "tags": {"addr:city": "New York", "addr:country": "US", "addr:housenumber": "886", "addr:postcode": "10025", "addr:state": "NY", "addr:street": "Amsterdam Avenue", "amenity": "restaurant", "cuisine": "sardinian", "name": "Arco Cafe", "opening_hours": "Mo-Su 12:30-21:30"}}, {"type": "node", "id": 2535746180, "lat": 40.7999569, "lon": -73.9663012, "tags": {"addr:city": "New York", "addr:country": "US", "addr:housenumber": "920", "addr:postcode": "10025", "addr:state": "NY", "addr:street": "Amsterdam Avenue", "amenity": "restaurant", "cuisine": "chinese", "name": "The Tang", "opening_hours": "Mo-Th 11:00-15:30,17:00-21:30; Fr 11:00-15:30,17:00-21:45; Sa 11:00-21:45; Su 11:00-21:30", "phone": "+1-646-596-7970", "website": "https://www.thetangnyc.com"}}, {"type": "node", "id": 2535746193, "lat": 40.7988031, "lon": -73.9671681, "tags": {"addr:city": "New York", "addr:country": "US", "addr:housenumber": "890", "addr:postcode": "10025", "addr:state": "NY", "addr:street": "Amsterdam Avenue", "amenity": "restaurant", "cuisine": "chinese", "name": "New Kam Lai", "phone": "+1-212-749-8388", "takeaway": "yes", "website": "http://www.newkamlai.com/"}}, {"type": "node", "id": 2535746194, "lat": 40.7974215, "lon": -73.9681317, "tags": {"addr:city": "New York", "addr:country": "US", "addr:housenumber": "842", "addr:postcode": "10025", "addr:state": "NY", "addr:street": "Amsterdam Avenue", "amenity": "restaurant", "cuisine": "mexican", "name": "Noche Mexicana", "website": "https://www.noche-mexicana.com"}}, {"type": "node", "id": 2535746198, "lat": 40.8006621, "lon": -73.9657815, "tags": {"addr:city": "New York", "addr:country": "US", "addr:housenumber": "936", "addr:postcode": "10025", "addr:state": "NY", "addr:street": "Amsterdam Avenue", "amenity": "restaurant", "cuisine": "mexican", "name": "Calaveras Corner", "opening_hours": "Mo-We 12:00-24:00; Th 12:00-02:00; Fr 12:00-03:30; Sa 11:00-03:00; Su 11:00-24:00", "phone": "+1-551-291-2258", "website": "https://calaverascorner.com"}}, {"type": "node", "id": 2761444458, "lat": 40.7978913, "lon": -73.9690987, "tags": {"addr:city": "New York", "addr:housenumber": "2662", "addr:postcode": "10025", "addr:state": "NY", "addr:street": "Broadway", "amenity": "bar", "name": "Broadway Dive", "phone": "+1-212-865-2662", "website": "https://dive101.divebarnyc.com/"}}, {"type": "node", "id": 2761464888, "lat": 40.7977664, "lon": -73.9698654, "tags": {"addr:city": "New York", "addr:housenumber": "2651", "addr:postcode": "10025", "addr:state": "NY", "addr:street": "Broadway", "amenity": "restaurant", "cuisine": "chinese;peruvian", "name": "Flor De Mayo", "opening_hours": "Su-Th 12:00-22:30; Fr-Sa 12:00-23:00", "phone": "+1-212-663-5520", "website": "https://www.flordemayo.com"}}, {"type": "node", "id": 2761499679, "lat": 40.798239, "lon": -73.9695036, "tags": {"addr:city": "New York", "addr:housenumber": "2667", "addr:postcode": "10025", "addr:state": "NY", "addr:street": "Broadway", "amenity": "cafe", "check_date": "2025-06-26", "cuisine": "bubble_tea", "name": "Boba Whale", "outdoor_seating": "no"}}, {"type": "node", "id": 2761499681, "lat": 40.7983365, "lon": -73.9694327, "tags": {"addr:housenumber": "2671", "addr:postcode": "10025", "addr:street": "Broadway", "amenity": "restaurant", "cuisine": "pizza", "name": "Sal & Carmine Pizza"}}, {"type": "node", "id": 2761520411, "lat": 40.799428, "lon": -73.9687022, "tags": {"addr:city": "New York", "addr:housenumber": "2705", "addr:postcode": "10025", "addr:state": "NY", "addr:street": "Broadway", "amenity": "restaurant", "cuisine": "chinese", "name": "Ollie's", "opening_hours": "Mo-Su 11:30-22:00", "phone": "+1-212-932-3300", "website": "https://ollieseats.com/ollies-noodle-shop-grille"}}, {"type": "node", "id": 2761520412, "lat": 40.7995109, "lon": -73.968661, "tags": {"addr:city": "New York", "addr:housenumber": "2707", "addr:postcode": "10025", "addr:state": "NY", "addr:street": "Broadway", "amenity": "restaurant", "check_date": "2024-12-31", "cuisine": "cajun", "diet:halal": "yes", "name": "Cajun Halal Platters", "phone": "+1-646-707-3147"}}, {"type": "node", "id": 2761520418, "lat": 40.7997453, "lon": -73.9685447, "tags": {"addr:city": "New York", "addr:housenumber": "2715", "addr:postcode": "10025", "addr:state": "NY", "addr:street": "Broadway", "amenity": "restaurant", "cuisine": "falafel", "name": "Zurna", "website": "https://zurnanyc.com"}}, {"type": "node", "id": 2761533833, "lat": 40.8000965, "lon": -73.9683967, "tags": {"addr:housenumber": "2723", "addr:postcode": "10025", "addr:street": "Broadway", "amenity": "restaurant", "cuisine": "french", "name": "Caf\u00e9 du Soleil", "opening_hours": "Mo-We 16:00-22:00; Th-Fr 11:00-23:00; Sa 09:00-23:00; Su 09:00-22:00", "phone": "+1-212-316-5000", "website": "https://www.cafedusoleilny.com"}}, {"type": "node", "id": 2761564518, "lat": 40.8012195, "lon": -73.9681803, "tags": {"addr:city": "New York", "addr:housenumber": "2753", "addr:postcode": "10025", "addr:state": "NY", "addr:street": "Broadway", "amenity": "restaurant", "cuisine": "pizza", "name": "Traviata Pizza II", "opening_hours": "Mo-Su 10:00-22:00", "phone": "+1-646-449-0366"}}, {"type": "node", "id": 2761564519, "lat": 40.8009462, "lon": -73.9676253, "tags": {"addr:housenumber": "2756", "addr:postcode": "10025", "addr:street": "Broadway", "amenity": "bar", "check_date": "2025-01-19", "name": "Columns Wine Bar", "phone": "+1-646-396-3346", "website": "https://www.columnswinebar.com"}}, {"type": "node", "id": 2761570753, "lat": 40.7993785, "lon": -73.9661104}, {"type": "node", "id": 2761570756, "lat": 40.7994318, "lon": -73.9662397}, {"type": "node", "id": 2761570760, "lat": 40.7995694, "lon": -73.9659742}, {"type": "node", "id": 2761663411, "lat": 40.8007904, "lon": -73.9656898, "tags": {"addr:city": "New York", "addr:housenumber": "940", "addr:postcode": "10025", "addr:state": "NY", "addr:street": "Amsterdam Avenue", "amenity": "restaurant", "cuisine": "japanese", "name": "Mizu Hibachi", "opening_hours": "Mo-Th 11:30-22:00; Fr 11:30-22:30; Sa 12:00-22:30; Su 12:00-22:00", "phone": "+1-917-675-6338", "website": "https://www.mizu940.com"}}, {"type": "node", "id": 2761663412, "lat": 40.8008545, "lon": -73.9656397, "tags": {"addr:city": "New York", "addr:housenumber": "942", "addr:postcode": "10025", "addr:state": "NY", "addr:street": "Amsterdam Avenue", "amenity": "restaurant", "contact:instagram": "https://www.instagram.com/banhnyc/", "cuisine": "vietnamese", "email": "banhvny@gmail.com", "name": "B\u00e1nh Shop House", "opening_hours": "Mo off; Tu-Th 16:00-21:00; Fr-Su 12:00-21:00", "website": "https://banhny.com"}}, {"type": "node", "id": 2848586054, "lat": 40.7972702, "lon": -73.9695337, "tags": {"addr:city": "New York", "addr:housenumber": "2642", "addr:postcode": "10025", "addr:street": "Broadway", "amenity": "restaurant", "cuisine": "chinese", "name": "Moon Kee", "opening_hours": "Mo-Fr 11:00-22:30; Sa-Su 12:00-10:30", "phone": "+1-646-438-9283", "website": "https://moonkeerestaurant.com"}}, {"type": "node", "id": 4487461845, "lat": 40.7983688, "lon": -73.9694092, "tags": {"addr:city": "New York", "addr:housenumber": "2673", "addr:postcode": "10025", "addr:state": "NY", "addr:street": "Broadway", "amenity": "restaurant", "cuisine": "japanese", "name": "Sushi W", "opening_hours": "Mo-Su 12:00-14:00, 17:00-22:00", "website": "https://www.sushiwny.com"}}, {"type": "node", "id": 4688127189, "lat": 40.801341, "lon": -73.965277, "tags": {"addr:housenumber": "960", "addr:postcode": "10025", "addr:street": "Amsterdam Avenue", "amenity": "restaurant", "cuisine": "thai", "name": "Thai Market", "opening_hours": "Su-Th 12:00-22:00; Fr-Sa 12:00-23:00", "phone": "+1-212-280-4575", "website": "https://thaimarketny.net/"}}, {"type": "node", "id": 4850904724, "lat": 40.8001351, "lon": -73.9677641, "tags": {"addr:housenumber": "2730", "addr:street": "Broadway", "amenity": "cafe", "name": "Plowshares Coffee Roasters"}}, {"type": "node", "id": 5399779853, "lat": 40.7969719, "lon": -73.9697524, "tags": {"addr:city": "New York", "addr:housenumber": "2634", "addr:postcode": "10025", "addr:state": "NY", "addr:street": "Broadway", "amenity": "restaurant", "cuisine": "japanese", "name": "Naruto Ramen", "phone": "+1-212-222-0229", "website": "https://narutoramenex.com/upper-west-side/"}}, {"type": "node", "id": 5400495619, "lat": 40.8014191, "lon": -73.9652121, "tags": {"addr:housenumber": "964", "addr:street": "Amsterdam Avenue", "amenity": "restaurant", "cuisine": "japanese", "name": "Suma Sushi", "phone": "+1-212-280-5858"}}, {"type": "node", "id": 5857708822, "lat": 40.7972108, "lon": -73.9695811, "tags": {"addr:housenumber": "2640", "addr:postcode": "10025", "addr:street": "Broadway", "air_conditioning": "yes", "amenity": "restaurant", "cuisine": "pizza", "delivery": "yes", "diet:vegetarian": "yes", "name": "Cheesy Pizza", "opening_hours": "Su-Th 10:00-02:00, Fr,Sa 10:00-03:00", "phone": "+1 212-662-6312", "smoking": "no", "takeaway": "yes", "website": "https://www.cheesypizzabroadway.com"}}, {"type": "node", "id": 6223570377, "lat": 40.816125, "lon": -73.96109}, {"type": "node", "id": 6223570379, "lat": 40.8160958, "lon": -73.9613056}, {"type": "node", "id": 6412865213, "lat": 40.8019345, "lon": -73.9682733}, {"type": "node", "id": 6412865233, "lat": 40.8018422, "lon": -73.968074}, {"type": "node", "id": 6412865246, "lat": 40.8021793, "lon": -73.9680204}, {"type": "node", "id": 6804416805, "lat": 40.8016449, "lon": -73.9682468}, {"type": "node", "id": 6883897052, "lat": 40.8005402, "lon": -73.9715493, "tags": {"barrier": "kerb", "kerb": "lowered"}}, {"type": "node", "id": 6883897071, "lat": 40.8004008, "lon": -73.971452, "tags": {"barrier": "kerb", "kerb": "lowered"}}, {"type": "node", "id": 6883897084, "lat": 40.8006719, "lon": -73.9716707, "tags": {"barrier": "kerb", "kerb": "lowered"}}, {"type": "node", "id": 6887003346, "lat": 40.7987442, "lon": -73.9735328}, {"type": "node", "id": 6900903302, "lat": 40.8021526, "lon": -73.9679916}, {"type": "node", "id": 6900903309, "lat": 40.8022076, "lon": -73.9680528}, {"type": "node", "id": 6900903311, "lat": 40.801944, "lon": -73.9680193}, {"type": "node", "id": 6900903313, "lat": 40.8021449, "lon": -73.9679932}, {"type": "node", "id": 6900903320, "lat": 40.8022082, "lon": -73.9680599}, {"type": "node", "id": 6900903321, "lat": 40.8019443, "lon": -73.9680499}, {"type": "node", "id": 6900903322, "lat": 40.8019441, "lon": -73.9680612}, {"type": "node", "id": 6900903323, "lat": 40.8020962, "lon": -73.9680026}, {"type": "node", "id": 6900903330, "lat": 40.8022078, "lon": -73.9680647}, {"type": "node", "id": 6900903331, "lat": 40.8019439, "lon": -73.9680705}, {"type": "node", "id": 6900903333, "lat": 40.8020209, "lon": -73.9680137}, {"type": "node", "id": 6900903342, "lat": 40.8022027, "lon": -73.9680457}, {"type": "node", "id": 6900903350, "lat": 40.802206, "lon": -73.9680701}, {"type": "node", "id": 6900903362, "lat": 40.8019327, "lon": -73.9680657}, {"type": "node", "id": 6900903371, "lat": 40.8019205, "lon": -73.9680657}, {"type": "node", "id": 6912871497, "lat": 40.7994916, "lon": -73.9728904, "tags": {"barrier": "kerb"}}, {"type": "node", "id": 6996564320, "lat": 40.7997746, "lon": -73.9728448}, {"type": "node", "id": 6996564321, "lat": 40.7968275, "lon": -73.97425}, {"type": "node", "id": 6996564323, "lat": 40.8047133, "lon": -73.9687599}, {"type": "node", "id": 6996564325, "lat": 40.8094211, "lon": -73.9655494}, {"type": "node", "id": 6996564332, "lat": 40.7986637, "lon": -73.9738007}, {"type": "node", "id": 6996564333, "lat": 40.7963372, "lon": -73.9747091}, {"type": "node", "id": 6996564335, "lat": 40.8008888, "lon": -73.9714836}, {"type": "node", "id": 6996564336, "lat": 40.7978691, "lon": -73.974214}, {"type": "node", "id": 6996564337, "lat": 40.8083024, "lon": -73.9666089}, {"type": "node", "id": 6996564346, "lat": 40.7979128, "lon": -73.9742028}, {"type": "node", "id": 6996564349, "lat": 40.8005411, "lon": -73.9718326}, {"type": "node", "id": 6996564350, "lat": 40.7970755, "lon": -73.9741979}, {"type": "node", "id": 6996564360, "lat": 40.7995321, "lon": -73.9730801}, {"type": "node", "id": 6996564361, "lat": 40.796785, "lon": -73.974274}, {"type": "node", "id": 6996564363, "lat": 40.8044908, "lon": -73.9688986}, {"type": "node", "id": 6996564365, "lat": 40.8091369, "lon": -73.9657549}, {"type": "node", "id": 6996564372, "lat": 40.7984937, "lon": -73.9739205}, {"type": "node", "id": 6996564373, "lat": 40.7962456, "lon": -73.9748464}, {"type": "node", "id": 6996564375, "lat": 40.8008304, "lon": -73.971527}, {"type": "node", "id": 6996564376, "lat": 40.797813, "lon": -73.9742277}, {"type": "node", "id": 6996564377, "lat": 40.8081588, "lon": -73.9667425}, {"type": "node", "id": 6996574386, "lat": 40.8002927, "lon": -73.97221}, {"type": "node", "id": 6996574389, "lat": 40.800467, "lon": -73.97194}, {"type": "node", "id": 6996574390, "lat": 40.7970309, "lon": -73.974199}, {"type": "node", "id": 6996574403, "lat": 40.7993009, "lon": -73.9732857}, {"type": "node", "id": 6996574404, "lat": 40.7966801, "lon": -73.9743565}, {"type": "node", "id": 6996574406, "lat": 40.8037723, "lon": -73.9693779}, {"type": "node", "id": 6996574408, "lat": 40.8089754, "lon": -73.9658713, "tags": {"barrier": "kerb", "kerb": "lowered"}}, {"type": "node", "id": 6996574416, "lat": 40.79835, "lon": -73.9740176}, {"type": "node", "id": 6996574417, "lat": 40.7961768, "lon": -73.9749599}, {"type": "node", "id": 6996574419, "lat": 40.800761, "lon": -73.971581}, {"type": "node", "id": 6996574420, "lat": 40.7977649, "lon": -73.9742374}, {"type": "node", "id": 6996574422, "lat": 40.8075375, "lon": -73.9671934}, {"type": "node", "id": 6996574430, "lat": 40.8002287, "lon": -73.9723026}, {"type": "node", "id": 6996574432, "lat": 40.8003538, "lon": -73.9721109}, {"type": "node", "id": 6996574433, "lat": 40.7969617, "lon": -73.9742059}, {"type": "node", "id": 6996574435, "lat": 40.808562, "lon": -73.9663106}, {"type": "node", "id": 6996574445, "lat": 40.7990803, "lon": -73.9734644}, {"type": "node", "id": 6996574446, "lat": 40.7965765, "lon": -73.9744485}, {"type": "node", "id": 6996574448, "lat": 40.8025324, "lon": -73.9702802}, {"type": "node", "id": 6996574450, "lat": 40.8088594, "lon": -73.9659707}, {"type": "node", "id": 6996574457, "lat": 40.7981707, "lon": -73.974113}, {"type": "node", "id": 6996574458, "lat": 40.7972973, "lon": -73.9742188}, {"type": "node", "id": 6996574460, "lat": 40.8007061, "lon": -73.9716314}, {"type": "node", "id": 6996574461, "lat": 40.797672, "lon": -73.9742475}, {"type": "node", "id": 6996574463, "lat": 40.8070173, "lon": -73.96753}, {"type": "node", "id": 6996574466, "lat": 40.7979082, "lon": -73.9740232}, {"type": "node", "id": 6996574472, "lat": 40.800023, "lon": -73.972567}, {"type": "node", "id": 6996574474, "lat": 40.8001429, "lon": -73.9724197}, {"type": "node", "id": 6996574475, "lat": 40.7969009, "lon": -73.974221}, {"type": "node", "id": 6996574477, "lat": 40.8064166, "lon": -73.967865}, {"type": "node", "id": 6996574486, "lat": 40.7988577, "lon": -73.9736562}, {"type": "node", "id": 6996574487, "lat": 40.7964887, "lon": -73.974534}, {"type": "node", "id": 6996574489, "lat": 40.8011697, "lon": -73.9712803, "tags": {"barrier": "kerb"}}, {"type": "node", "id": 6996574490, "lat": 40.8084268, "lon": -73.966472}, {"type": "node", "id": 6996574497, "lat": 40.7980528, "lon": -73.9741589}, {"type": "node", "id": 6996574500, "lat": 40.8006433, "lon": -73.9717035}, {"type": "node", "id": 6996574501, "lat": 40.7975428, "lon": -73.9742488}, {"type": "node", "id": 6996574503, "lat": 40.8060277, "lon": -73.9680742}, {"type": "node", "id": 6996574515, "lat": 40.7999638, "lon": -73.9726305}, {"type": "node", "id": 6996574516, "lat": 40.7968664, "lon": -73.9742339}, {"type": "node", "id": 6996574518, "lat": 40.8051414, "lon": -73.9685317}, {"type": "node", "id": 6996574520, "lat": 40.8108606, "lon": -73.964492, "tags": {"barrier": "kerb", "kerb": "lowered", "tactile_paving": "yes"}}, {"type": "node", "id": 6996574528, "lat": 40.7987766, "lon": -73.9737259}, {"type": "node", "id": 6996574529, "lat": 40.7964084, "lon": -73.9746198}, {"type": "node", "id": 6996574531, "lat": 40.8010361, "lon": -73.971377, "tags": {"barrier": "kerb"}}, {"type": "node", "id": 6996574532, "lat": 40.798273, "lon": -73.9740614}, {"type": "node", "id": 6996574533, "lat": 40.8083496, "lon": -73.9665613}, {"type": "node", "id": 6996574541, "lat": 40.7979827, "lon": -73.974181}, {"type": "node", "id": 6996574544, "lat": 40.8005931, "lon": -73.9717598}, {"type": "node", "id": 6996574545, "lat": 40.7971243, "lon": -73.9742014}, {"type": "node", "id": 6996574547, "lat": 40.805747, "lon": -73.9682183}, {"type": "node", "id": 7040362186, "lat": 40.8002094, "lon": -73.9656338, "tags": {"addr:city": "New York", "addr:housenumber": "935", "addr:postcode": "10025", "addr:state": "NY", "addr:street": "Amsterdam Avenue", "amenity": "restaurant", "check_date": "2024-10-06", "contact:email": "info@nybratfactory.com", "contact:facebook": "https://www.facebook.com/nybratfactory/", "contact:instagram": "https://www.instagram.com/nybratfactory", "contact:twitter": "https://twitter.com/nybratfactory", "cuisine": "indian", "email": "anardelivery@gmail.com", "name": "Anar", "opening_hours": "Mo-Su 11:30-14:45,17:00-21:45", "phone": "+1 -212-366-9888", "website": "https://www.anaronline.com"}}, {"type": "node", "id": 7041983091, "lat": 40.8000987, "lon": -73.9657163, "tags": {"addr:housenumber": "931", "addr:street": "Amsterdam Avenue", "amenity": "restaurant", "check_date": "2024-10-06", "cuisine": "thai", "delivery": "yes", "name": "Living Thai", "opening_hours": "Mo-Su 12:00-22:30", "phone": "+1 212-222-2600", "reservation": "yes", "takeaway": "yes", "website": "http://livingthai.net"}}, {"type": "node", "id": 7094126612, "lat": 40.7984981, "lon": -73.9686236, "tags": {"addr:housenumber": "2680", "addr:postcode": "10025", "addr:street": "Broadway", "air_conditioning": "no", "amenity": "cafe", "check_date": "2024-08-03", "cuisine": "coffee_shop", "description": "Family-owned, cozy and hip coffee shop with a European vibe.", "diet:vegan": "no", "diet:vegetarian": "yes", "indoor_seating": "yes", "name": "Picky Barista", "note": "One of a small coffeehouse chain formerly called Peaky Barista. This location updated signage in July 2024 to the new name.", "opening_hours": "Mo-Fr 07:00-19:00; Sa, Su 08:00-19:00", "outdoor_seating": "no", "phone": "+1-646-684-3037", "smoking": "no", "website": "https://pickybarista.com", "wheelchair": "limited"}}, {"type": "node", "id": 7159068915, "lat": 40.8008066, "lon": -73.9651977, "tags": {"addr:city": "New York", "addr:country": "US", "addr:housenumber": "951", "addr:postcode": "10025", "addr:state": "NY", "addr:street": "Amsterdam Avenue", "amenity": "bar", "cocktails": "yes", "name": "Nobody Told Me"}}, {"type": "node", "id": 7159068916, "lat": 40.8008723, "lon": -73.9651512, "tags": {"addr:city": "New York", "addr:country": "US", "addr:housenumber": "953", "addr:postcode": "10025", "addr:state": "NY", "addr:street": "Amsterdam Avenue", "addr:unit": "1", "amenity": "restaurant", "check_date:opening_hours": "2025-07-25", "name": "Tropical Sensation", "opening_hours": "Su-Th 10:00-23:00; Fr-Sa 10:00-00:00", "opening_hours:signed": "no"}}, {"type": "node", "id": 7159068917, "lat": 40.800689, "lon": -73.9652812, "tags": {"addr:city": "New York", "addr:country": "US", "addr:housenumber": "947", "addr:postcode": "10025", "addr:state": "NY", "addr:street": "Amsterdam Avenue", "amenity": "restaurant", "cuisine": "ethiopian", "name": "Awash", "opening_hours": "12:45-22:30", "phone": "+1 212-961-1416"}}, {"type": "node", "id": 7159151800, "lat": 40.7975001, "lon": -73.9680762, "tags": {"addr:city": "New York", "addr:country": "US", "addr:housenumber": "844", "addr:postcode": "10025", "addr:state": "NY", "addr:street": "Amsterdam Avenue", "alt_name": "Raenu Continental Thai Restaurant", "amenity": "restaurant", "cuisine": "thai", "name": "Raenu Thai", "opening_hours": "Mo-Sa 11:30-22:15; Su 12:00-22:15", "phone": "+1-646-998-5414"}}, {"type": "node", "id": 7616688923, "lat": 40.815956, "lon": -73.9606076}, {"type": "node", "id": 7732551647, "lat": 40.8113466, "lon": -73.9641392}, {"type": "node", "id": 7732551648, "lat": 40.8114776, "lon": -73.9640666}, {"type": "node", "id": 7732551649, "lat": 40.8114307, "lon": -73.9639582}, {"type": "node", "id": 7732551650, "lat": 40.8114228, "lon": -73.9639553}, {"type": "node", "id": 7732551651, "lat": 40.8114205, "lon": -73.9639477}, {"type": "node", "id": 7732551652, "lat": 40.8114247, "lon": -73.9639376}, {"type": "node", "id": 7732551653, "lat": 40.812254, "lon": -73.9633271}, {"type": "node", "id": 7732551654, "lat": 40.8122743, "lon": -73.9633551}, {"type": "node", "id": 7732551655, "lat": 40.81228, "lon": -73.963462}, {"type": "node", "id": 7732551656, "lat": 40.8123518, "lon": -73.9633566}, {"type": "node", "id": 7732551657, "lat": 40.8124221, "lon": -73.9632798}, {"type": "node", "id": 7732551658, "lat": 40.8124519, "lon": -73.9632514}, {"type": "node", "id": 7732551659, "lat": 40.8125564, "lon": -73.963164}, {"type": "node", "id": 7732551661, "lat": 40.8134542, "lon": -73.9625616}, {"type": "node", "id": 7732551662, "lat": 40.8136689, "lon": -73.9624172}, {"type": "node", "id": 7732551663, "lat": 40.8139748, "lon": -73.9619872}, {"type": "node", "id": 7732551664, "lat": 40.8139562, "lon": -73.9620134}, {"type": "node", "id": 7732551665, "lat": 40.8139573, "lon": -73.9620565}, {"type": "node", "id": 7732551666, "lat": 40.8140148, "lon": -73.9622978}, {"type": "node", "id": 7732571797, "lat": 40.8087133, "lon": -73.9661271}, {"type": "node", "id": 7732571798, "lat": 40.8087914, "lon": -73.9660377, "tags": {"barrier": "kerb", "kerb": "lowered"}}, {"type": "node", "id": 7732571799, "lat": 40.8098964, "lon": -73.9652099}, {"type": "node", "id": 7732571800, "lat": 40.8101005, "lon": -73.9650591}, {"type": "node", "id": 7732571802, "lat": 40.8092325, "lon": -73.9656841}, {"type": "node", "id": 7732571820, "lat": 40.8160206, "lon": -73.9612831}, {"type": "node", "id": 7732571825, "lat": 40.8160562, "lon": -73.9612913}, {"type": "node", "id": 7732571886, "lat": 40.8175566, "lon": -73.9611354}, {"type": "node", "id": 7732571887, "lat": 40.8175624, "lon": -73.961102}, {"type": "node", "id": 7732571918, "lat": 40.8175715, "lon": -73.9610682}, {"type": "node", "id": 7732571919, "lat": 40.8175861, "lon": -73.9610387}, {"type": "node", "id": 7732571920, "lat": 40.8175876, "lon": -73.9610286}, {"type": "node", "id": 7732571921, "lat": 40.8175822, "lon": -73.9610052}, {"type": "node", "id": 7732571922, "lat": 40.8175638, "lon": -73.9609594}, {"type": "node", "id": 7732571923, "lat": 40.8175384, "lon": -73.9609096}, {"type": "node", "id": 7732571924, "lat": 40.8175176, "lon": -73.9608751}, {"type": "node", "id": 7732571925, "lat": 40.8175022, "lon": -73.9608639}, {"type": "node", "id": 7732571926, "lat": 40.8168223, "lon": -73.9613609}, {"type": "node", "id": 7732571927, "lat": 40.8167321, "lon": -73.9614356}, {"type": "node", "id": 7732571928, "lat": 40.8166738, "lon": -73.9614963}, {"type": "node", "id": 7732571929, "lat": 40.8166208, "lon": -73.9615547}, {"type": "node", "id": 7732571930, "lat": 40.8165607, "lon": -73.9616364}, {"type": "node", "id": 7732571931, "lat": 40.8165169, "lon": -73.9617125}, {"type": "node", "id": 7732571932, "lat": 40.8165538, "lon": -73.9618508}, {"type": "node", "id": 7732571933, "lat": 40.8164538, "lon": -73.9618955}, {"type": "node", "id": 7732571934, "lat": 40.8136098, "lon": -73.9624528}, {"type": "node", "id": 7732571935, "lat": 40.813744, "lon": -73.9623918}, {"type": "node", "id": 7732571937, "lat": 40.8157881, "lon": -73.963005}, {"type": "node", "id": 7732571939, "lat": 40.8140512, "lon": -73.9619276}, {"type": "node", "id": 7732571940, "lat": 40.8141994, "lon": -73.9618199}, {"type": "node", "id": 7732571944, "lat": 40.8122714, "lon": -73.9633393}, {"type": "node", "id": 7732571945, "lat": 40.8122608, "lon": -73.9633307}, {"type": "node", "id": 7732571953, "lat": 40.8122374, "lon": -73.9634297}, {"type": "node", "id": 7732571954, "lat": 40.8122567, "lon": -73.9633898}, {"type": "node", "id": 7732571955, "lat": 40.8134159, "lon": -73.9625887}, {"type": "node", "id": 7732571956, "lat": 40.8124749, "lon": -73.9632302}, {"type": "node", "id": 7732571957, "lat": 40.8123049, "lon": -73.9634209}, {"type": "node", "id": 7732571958, "lat": 40.8123242, "lon": -73.9633989}, {"type": "node", "id": 7732571959, "lat": 40.8123831, "lon": -73.963319}, {"type": "node", "id": 7732571960, "lat": 40.8162387, "lon": -73.9605465}, {"type": "node", "id": 7732571961, "lat": 40.8164308, "lon": -73.9605663}, {"type": "node", "id": 7732571962, "lat": 40.8167834, "lon": -73.9607353}, {"type": "node", "id": 7732571963, "lat": 40.8168614, "lon": -73.9607863}, {"type": "node", "id": 7732571964, "lat": 40.816691, "lon": -73.9611105}, {"type": "node", "id": 7732571965, "lat": 40.8166742, "lon": -73.9610815}, {"type": "node", "id": 7732571966, "lat": 40.81655, "lon": -73.9611637}, {"type": "node", "id": 7732571967, "lat": 40.8163067, "lon": -73.9611325}, {"type": "node", "id": 7732571968, "lat": 40.8161913, "lon": -73.9611029}, {"type": "node", "id": 7732571969, "lat": 40.8160353, "lon": -73.9610721}, {"type": "node", "id": 7732571979, "lat": 40.8138354, "lon": -73.9623618}, {"type": "node", "id": 7732571993, "lat": 40.8144175, "lon": -73.9616612}, {"type": "node", "id": 7732571994, "lat": 40.8147899, "lon": -73.9613928}, {"type": "node", "id": 7732572000, "lat": 40.8166885, "lon": -73.960674}, {"type": "node", "id": 7732572001, "lat": 40.8165788, "lon": -73.9606111}, {"type": "node", "id": 7732572002, "lat": 40.8165136, "lon": -73.9605841}, {"type": "node", "id": 7732572003, "lat": 40.8163415, "lon": -73.9605532}, {"type": "node", "id": 7732572004, "lat": 40.8154961, "lon": -73.9608684}, {"type": "node", "id": 7732572005, "lat": 40.815791, "lon": -73.9606815}, {"type": "node", "id": 7732572006, "lat": 40.815682, "lon": -73.9607411}, {"type": "node", "id": 7732572007, "lat": 40.8155817, "lon": -73.9608131}, {"type": "node", "id": 7732572009, "lat": 40.8160582, "lon": -73.9605791}, {"type": "node", "id": 7732572010, "lat": 40.8162708, "lon": -73.9605453}, {"type": "node", "id": 7732572011, "lat": 40.8161764, "lon": -73.9605544}, {"type": "node", "id": 7732572012, "lat": 40.8161369, "lon": -73.9605586}, {"type": "node", "id": 7732572013, "lat": 40.816947, "lon": -73.9608261}, {"type": "node", "id": 7732572014, "lat": 40.8170381, "lon": -73.9608519}, {"type": "node", "id": 7732572015, "lat": 40.8164395, "lon": -73.9611699}, {"type": "node", "id": 7732572016, "lat": 40.8163774, "lon": -73.9611565}, {"type": "node", "id": 7732572017, "lat": 40.8165171, "lon": -73.9611709}, {"type": "node", "id": 7732572018, "lat": 40.8164682, "lon": -73.9611722}, {"type": "node", "id": 7732572019, "lat": 40.8170425, "lon": -73.9608685}, {"type": "node", "id": 7732572020, "lat": 40.8168648, "lon": -73.9609892}, {"type": "node", "id": 7732572021, "lat": 40.8162566, "lon": -73.9617622}, {"type": "node", "id": 7732654806, "lat": 40.8146712, "lon": -73.9637849}, {"type": "node", "id": 7732654807, "lat": 40.814209, "lon": -73.9641013}, {"type": "node", "id": 7732654808, "lat": 40.8135831, "lon": -73.9645761}, {"type": "node", "id": 7732654809, "lat": 40.8139197, "lon": -73.9643025}, {"type": "node", "id": 7732654813, "lat": 40.8172536, "lon": -73.9616025}, {"type": "node", "id": 7732654814, "lat": 40.8173853, "lon": -73.9614317}, {"type": "node", "id": 7732654821, "lat": 40.8170826, "lon": -73.9617919}, {"type": "node", "id": 7732654822, "lat": 40.8169307, "lon": -73.9619618}, {"type": "node", "id": 7732654823, "lat": 40.8164346, "lon": -73.9624754}, {"type": "node", "id": 7732654824, "lat": 40.8168006, "lon": -73.9620963}, {"type": "node", "id": 7732654825, "lat": 40.8159317, "lon": -73.962901}, {"type": "node", "id": 7732654826, "lat": 40.8162658, "lon": -73.9626362}, {"type": "node", "id": 7732654830, "lat": 40.8165796, "lon": -73.9623388}, {"type": "node", "id": 7732654831, "lat": 40.816105, "lon": -73.9627705}, {"type": "node", "id": 7732654832, "lat": 40.8163285, "lon": -73.9625791}, {"type": "node", "id": 7732654833, "lat": 40.8173388, "lon": -73.961501}, {"type": "node", "id": 7732654834, "lat": 40.8175116, "lon": -73.9612334}, {"type": "node", "id": 7732654835, "lat": 40.8174582, "lon": -73.961322}, {"type": "node", "id": 7785782253, "lat": 40.8113214, "lon": -73.9641561}, {"type": "node", "id": 7785782265, "lat": 40.8058977, "lon": -73.968141}, {"type": "node", "id": 7785881389, "lat": 40.8083302, "lon": -73.966579}, {"type": "node", "id": 7785881399, "lat": 40.8082407, "lon": -73.9666697}, {"type": "node", "id": 7785881400, "lat": 40.802468, "lon": -73.9703275}, {"type": "node", "id": 7785881409, "lat": 40.806355, "lon": -73.9678981}, {"type": "node", "id": 7908594136, "lat": 40.8102204, "lon": -73.9674444}, {"type": "node", "id": 7908594142, "lat": 40.8104025, "lon": -73.9673276}, {"type": "node", "id": 7908637443, "lat": 40.8084961, "lon": -73.9685451}, {"type": "node", "id": 7908637444, "lat": 40.807448, "lon": -73.9692847}, {"type": "node", "id": 7908637446, "lat": 40.8088247, "lon": -73.9683259}, {"type": "node", "id": 7908637447, "lat": 40.807603, "lon": -73.9691739}, {"type": "node", "id": 7908637449, "lat": 40.808985, "lon": -73.9682222}, {"type": "node", "id": 7908637450, "lat": 40.807764, "lon": -73.9690573}, {"type": "node", "id": 7908637459, "lat": 40.8114331, "lon": -73.9664764}, {"type": "node", "id": 7908637462, "lat": 40.80801, "lon": -73.96888}, {"type": "node", "id": 7908637465, "lat": 40.8081712, "lon": -73.9687668}, {"type": "node", "id": 7908637468, "lat": 40.8083335, "lon": -73.9686553}, {"type": "node", "id": 7908637469, "lat": 40.8071195, "lon": -73.969531}, {"type": "node", "id": 7908669907, "lat": 40.8055248, "lon": -73.9707711}, {"type": "node", "id": 7908669908, "lat": 40.8033025, "lon": -73.9724512}, {"type": "node", "id": 7908669909, "lat": 40.8041087, "lon": -73.9718653}, {"type": "node", "id": 7908669911, "lat": 40.8057018, "lon": -73.9706318}, {"type": "node", "id": 7908669912, "lat": 40.8031247, "lon": -73.9725778}, {"type": "node", "id": 7908669913, "lat": 40.8037655, "lon": -73.9721185}, {"type": "node", "id": 7908669915, "lat": 40.8058525, "lon": -73.9705157}, {"type": "node", "id": 7908669916, "lat": 40.8029658, "lon": -73.9726931}, {"type": "node", "id": 7908669917, "lat": 40.8042693, "lon": -73.9717441}, {"type": "node", "id": 7908669919, "lat": 40.8059965, "lon": -73.9704032}, {"type": "node", "id": 7908669920, "lat": 40.8028086, "lon": -73.9728057}, {"type": "node", "id": 7908669921, "lat": 40.8044437, "lon": -73.9716114}, {"type": "node", "id": 7908669922, "lat": 40.8061625, "lon": -73.9702701}, {"type": "node", "id": 7908669923, "lat": 40.8026473, "lon": -73.9729207}, {"type": "node", "id": 7908669924, "lat": 40.8047495, "lon": -73.9713776}, {"type": "node", "id": 7908669925, "lat": 40.8064855, "lon": -73.9700184}, {"type": "node", "id": 7908669926, "lat": 40.8025017, "lon": -73.9730248}, {"type": "node", "id": 7908669927, "lat": 40.804906, "lon": -73.9712585}, {"type": "node", "id": 7908669928, "lat": 40.8066458, "lon": -73.9698948}, {"type": "node", "id": 7908669929, "lat": 40.8021832, "lon": -73.9732459}, {"type": "node", "id": 7908669930, "lat": 40.8050658, "lon": -73.9711329}, {"type": "node", "id": 7908669931, "lat": 40.8068017, "lon": -73.969772}, {"type": "node", "id": 7908669932, "lat": 40.8020083, "lon": -73.9733681}, {"type": "node", "id": 7908669933, "lat": 40.8052144, "lon": -73.9710166}, {"type": "node", "id": 7908669934, "lat": 40.8069577, "lon": -73.9696529}, {"type": "node", "id": 7908669935, "lat": 40.8018572, "lon": -73.9734719}, {"type": "node", "id": 7908669936, "lat": 40.8053784, "lon": -73.9708867}, {"type": "node", "id": 7908669937, "lat": 40.8034662, "lon": -73.9723351}, {"type": "node", "id": 7908669938, "lat": 40.803944, "lon": -73.9719866}, {"type": "node", "id": 8438585854, "lat": 40.8007289, "lon": -73.9657309, "tags": {"addr:city": "New York", "addr:housenumber": "938", "addr:postcode": "10025", "addr:state": "NY", "addr:street": "Amsterdam Avenue", "amenity": "bar", "name": "Dive 106", "phone": "+1-917-965-2840"}}, {"type": "node", "id": 9459180036, "lat": 40.8012053, "lon": -73.9649165, "tags": {"addr:city": "New York", "addr:housenumber": "963", "addr:postcode": "10025", "addr:state": "NY", "addr:street": "Amsterdam Avenue", "amenity": "restaurant", "check_date:opening_hours": "2025-07-25", "cuisine": "mediterranean", "name": "Zaad", "opening_hours:signed": "no", "phone": "+1-646-861-2061", "website": "https://zaadrestaurants.com"}}, {"type": "node", "id": 9496920117, "lat": 40.800798, "lon": -73.967649, "tags": {"addr:city": "New York", "addr:housenumber": "2750", "addr:postcode": "10025", "addr:state": "NY", "addr:street": "Broadway", "amenity": "restaurant", "cuisine": "pizza", "name": "Mama\u2019s TOO!", "phone": "+1-212-510-7256"}}, {"type": "node", "id": 9654088076, "lat": 40.8001788, "lon": -73.96613, "tags": {"addr:city": "New York", "addr:housenumber": "928", "addr:postcode": "10025", "addr:state": "NY", "addr:street": "Amsterdam Avenue", "amenity": "restaurant", "check_date": "2024-04-20", "cuisine": "chinese", "name": "Spice Lamb", "phone": "+1-646-984-8768"}}, {"type": "node", "id": 10054994715, "lat": 40.8128401, "lon": -73.9629514}, {"type": "node", "id": 10055027117, "lat": 40.812937, "lon": -73.9629304}, {"type": "node", "id": 11377004190, "lat": 40.801089, "lon": -73.970955}, {"type": "node", "id": 11377030655, "lat": 40.8022433, "lon": -73.9701027}, {"type": "node", "id": 11377030656, "lat": 40.8023232, "lon": -73.970045}, {"type": "node", "id": 11380668226, "lat": 40.8022603, "lon": -73.9700905, "tags": {"barrier": "kerb", "kerb": "raised"}}, {"type": "node", "id": 11411008768, "lat": 40.7981602, "lon": -73.9695635, "tags": {"addr:city": "NewYork", "addr:housenumber": "2661", "addr:postcode": "10025", "addr:state": "NY", "addr:street": "Broadway", "amenity": "cafe", "cuisine": "coffee_shop", "name": "Zelma's Caffe", "outdoor_seating": "yes", "phone": "+1-646-370-3851"}}, {"type": "node", "id": 11411614762, "lat": 40.8009562, "lon": -73.9673468, "tags": {"addr:city": "New York", "addr:housenumber": "248", "addr:postcode": "10025", "addr:state": "NY", "addr:street": "West 106th Street", "amenity": "restaurant", "cuisine": "korean", "name": "Koko Wings", "phone": "+1-212-932-7722", "website": "https://www.kokowingsnyc.com/"}}, {"type": "node", "id": 11411614763, "lat": 40.8009166, "lon": -73.967373, "tags": {"addr:city": "New York", "addr:floor": "2", "addr:housenumber": "248", "addr:postcode": "10025", "addr:state": "NY", "addr:street": "West 106th Street", "name": "Easy Tax Service", "office": "tax_advisor", "phone": "+1-212-865-9118", "website": "http://www.easytaxnyc.com"}}, {"type": "node", "id": 11415713816, "lat": 40.799003, "lon": -73.9670061, "tags": {"addr:city": "New York", "addr:housenumber": "8796", "addr:postcode": "10025", "addr:state": "NY", "addr:street": "Amsterdam Avenue", "alt_name": "Liberty Tax Service", "brand": "Liberty Tax", "brand:wikidata": "Q6541978", "name": "Liberty Tax", "office": "tax_advisor", "phone": "+1-212-932-1040", "website": "https://www.libertytax.com/income-tax-preparation-locations/16452"}}, {"type": "node", "id": 11415714612, "lat": 40.8013901, "lon": -73.965234, "tags": {"addr:city": "New York", "addr:housenumber": "964", "addr:postcode": "10025", "addr:state": "NY", "addr:street": "Amsterdam Avenue", "amenity": "restaurant", "cuisine": "mexican", "name": "Pancho's Antojitos Mexicano", "opening_hours": "Mo-Su 08:00-20:00", "phone": "+1-212-316-5400", "website": "https://panchos-mexicano.edan.io"}}, {"type": "node", "id": 11421707495, "lat": 40.8000199, "lon": -73.9657774, "tags": {"addr:city": "New York", "addr:housenumber": "939", "addr:postcode": "10025", "addr:state": "NY", "addr:street": "Amsterdam Avenue", "amenity": "restaurant", "check_date": "2025-07-25", "check_date:opening_hours": "2025-07-25", "cuisine": "chinese", "name": "Mala Town", "opening_hours": "Mo-Su 11:30-21:30", "phone": "+1-212-531-1130"}}, {"type": "node", "id": 11448213482, "lat": 40.7977903, "lon": -73.9678718, "tags": {"addr:city": "New York", "addr:housenumber": "854", "addr:postcode": "10025", "addr:state": "NY", "addr:street": "Amsterdam Avenue", "addr:unit": "1", "amenity": "restaurant", "name": "The Grand Feast", "opening_hours": "Mo 15:00-23:00; Tu-Fr 11:00-23:00; Sa-Su 09:00-23:00", "phone": "+1-917-409-0772", "website": "https://www.thegrandfeast.nyc"}}, {"type": "node", "id": 11632352915, "lat": 40.7982092, "lon": -73.9688522, "tags": {"addr:city": "New York", "addr:housenumber": "2672", "addr:postcode": "10025", "addr:state": "NY", "addr:street": "Broadway", "amenity": "restaurant", "check_date": "2025-11-14", "cuisine": "greek", "name": "Telio", "phone": "+1-212-933-0988", "website": "https://www.nycteliorestaurant.com/"}}, {"type": "node", "id": 11722131071, "lat": 40.7995695, "lon": -73.9665766, "tags": {"addr:city": "New York", "addr:housenumber": "908", "addr:postcode": "10025", "addr:state": "NY", "addr:street": "Amsterdam Avenue", "amenity": "taxi", "name": "New App Car & Limo", "office": "taxi", "phone": "+1-212-222-7999"}}, {"type": "node", "id": 11819926415, "lat": 40.797248, "lon": -73.9694633, "tags": {"addr:city": "New York", "addr:floor": "2", "addr:housenumber": "2642", "addr:postcode": "10025", "addr:state": "NY", "addr:street": "Broadway", "amenity": "taxi", "name": "Carmel Car & Limo", "office": "taxi", "phone": "+1-212-666-6666"}}, {"type": "node", "id": 11830021557, "lat": 40.799033, "lon": -73.9661803}, {"type": "node", "id": 11830021564, "lat": 40.799302, "lon": -73.9659846}, {"type": "node", "id": 11830021565, "lat": 40.7995096, "lon": -73.9658344}, {"type": "node", "id": 11849916437, "lat": 40.7966757, "lon": -73.9740941}, {"type": "node", "id": 11849916438, "lat": 40.7966443, "lon": -73.974019}, {"type": "node", "id": 11849916439, "lat": 40.7967031, "lon": -73.9739573}, {"type": "node", "id": 11849916440, "lat": 40.796762, "lon": -73.973901}, {"type": "node", "id": 11849916441, "lat": 40.7968123, "lon": -73.9738608}, {"type": "node", "id": 11849916442, "lat": 40.7968737, "lon": -73.9738185}, {"type": "node", "id": 11849916443, "lat": 40.7969499, "lon": -73.9737709}, {"type": "node", "id": 11849916444, "lat": 40.7970047, "lon": -73.9737347}, {"type": "node", "id": 11849916445, "lat": 40.797059, "lon": -73.9737045}, {"type": "node", "id": 11849916446, "lat": 40.7971306, "lon": -73.973677}, {"type": "node", "id": 11849916447, "lat": 40.7971945, "lon": -73.9736569}, {"type": "node", "id": 11849916448, "lat": 40.797296, "lon": -73.9736274}, {"type": "node", "id": 11849916449, "lat": 40.797391, "lon": -73.973604}, {"type": "node", "id": 11849916450, "lat": 40.7974709, "lon": -73.9735885}, {"type": "node", "id": 11849916451, "lat": 40.7975786, "lon": -73.973563}, {"type": "node", "id": 11849916452, "lat": 40.7976466, "lon": -73.9735496}, {"type": "node", "id": 11849916453, "lat": 40.7977065, "lon": -73.9735362}, {"type": "node", "id": 11849916454, "lat": 40.7978222, "lon": -73.9735108}, {"type": "node", "id": 11849916455, "lat": 40.7978933, "lon": -73.9734973}, {"type": "node", "id": 11849916456, "lat": 40.7979665, "lon": -73.9734799}, {"type": "node", "id": 11849916457, "lat": 40.7980315, "lon": -73.9734625}, {"type": "node", "id": 11849916458, "lat": 40.798131, "lon": -73.9734397}, {"type": "node", "id": 11849916459, "lat": 40.7981574, "lon": -73.9734276}, {"type": "node", "id": 11849916460, "lat": 40.7982457, "lon": -73.9733927}, {"type": "node", "id": 11849916461, "lat": 40.7983148, "lon": -73.9733565}, {"type": "node", "id": 11849916462, "lat": 40.7983744, "lon": -73.9733243}, {"type": "node", "id": 11849916463, "lat": 40.7984389, "lon": -73.9732841}, {"type": "node", "id": 11849916464, "lat": 40.7984958, "lon": -73.9732506}, {"type": "node", "id": 11849916465, "lat": 40.7985635, "lon": -73.9732036}, {"type": "node", "id": 11849916466, "lat": 40.7986692, "lon": -73.9731208}, {"type": "node", "id": 11849916467, "lat": 40.7987343, "lon": -73.9730427}, {"type": "node", "id": 11849916468, "lat": 40.7988087, "lon": -73.9729542}, {"type": "node", "id": 11849934469, "lat": 40.7988424, "lon": -73.9729141}, {"type": "node", "id": 11849934470, "lat": 40.798898, "lon": -73.9728487}, {"type": "node", "id": 11849934471, "lat": 40.7989485, "lon": -73.9727911}, {"type": "node", "id": 11849934472, "lat": 40.799004, "lon": -73.9727317}, {"type": "node", "id": 11849934473, "lat": 40.799071, "lon": -73.9726552}, {"type": "node", "id": 11849934474, "lat": 40.799152, "lon": -73.972558}, {"type": "node", "id": 11849934475, "lat": 40.7992023, "lon": -73.972496}, {"type": "node", "id": 11849934476, "lat": 40.7992555, "lon": -73.9724333}, {"type": "node", "id": 11849934477, "lat": 40.799309, "lon": -73.9723742}, {"type": "node", "id": 11849934478, "lat": 40.7993527, "lon": -73.9723258}, {"type": "node", "id": 11849934479, "lat": 40.7993957, "lon": -73.9722782}, {"type": "node", "id": 11849934480, "lat": 40.7994665, "lon": -73.9721998}, {"type": "node", "id": 11849934481, "lat": 40.7995201, "lon": -73.9721409}, {"type": "node", "id": 11849934482, "lat": 40.799572, "lon": -73.972083}, {"type": "node", "id": 11849934483, "lat": 40.799628, "lon": -73.9720229}, {"type": "node", "id": 11849934484, "lat": 40.7996795, "lon": -73.9719733}, {"type": "node", "id": 11849934485, "lat": 40.7997448, "lon": -73.9719183}, {"type": "node", "id": 11849934486, "lat": 40.7998176, "lon": -73.9718653}, {"type": "node", "id": 11849934487, "lat": 40.7998887, "lon": -73.9718175}, {"type": "node", "id": 11849934488, "lat": 40.7999597, "lon": -73.9717706}, {"type": "node", "id": 11849934489, "lat": 40.8000257, "lon": -73.9717183}, {"type": "node", "id": 11849934490, "lat": 40.8000866, "lon": -73.9716714}, {"type": "node", "id": 11849934491, "lat": 40.8001739, "lon": -73.9716056}, {"type": "node", "id": 11849934492, "lat": 40.8002836, "lon": -73.9715282}, {"type": "node", "id": 11849934493, "lat": 40.8003536, "lon": -73.9714799}, {"type": "node", "id": 11849934494, "lat": 40.8004468, "lon": -73.9714142}, {"type": "node", "id": 11849934498, "lat": 40.8007726, "lon": -73.9711745}, {"type": "node", "id": 11849934499, "lat": 40.8008548, "lon": -73.9711188}, {"type": "node", "id": 11849934500, "lat": 40.8008985, "lon": -73.9711188}, {"type": "node", "id": 11849934501, "lat": 40.8009168, "lon": -73.9711503}, {"type": "node", "id": 11849934502, "lat": 40.8009197, "lon": -73.971185}, {"type": "node", "id": 11849934503, "lat": 40.8008802, "lon": -73.9712232}, {"type": "node", "id": 11849934504, "lat": 40.8008315, "lon": -73.9712587}, {"type": "node", "id": 11849934505, "lat": 40.800764, "lon": -73.9713151}, {"type": "node", "id": 11849934506, "lat": 40.8006985, "lon": -73.9713721}, {"type": "node", "id": 11849934507, "lat": 40.800636, "lon": -73.9714344}, {"type": "node", "id": 11849934508, "lat": 40.8006063, "lon": -73.9714628}, {"type": "node", "id": 11849934509, "lat": 40.8005739, "lon": -73.9714956}, {"type": "node", "id": 11849934510, "lat": 40.800552, "lon": -73.9715238}, {"type": "node", "id": 11849934511, "lat": 40.8005145, "lon": -73.9715902}, {"type": "node", "id": 11849934512, "lat": 40.80045, "lon": -73.9716894}, {"type": "node", "id": 11849934513, "lat": 40.8004272, "lon": -73.9717297}, {"type": "node", "id": 11849934514, "lat": 40.8003845, "lon": -73.9717934}, {"type": "node", "id": 11849934515, "lat": 40.8003602, "lon": -73.9718369}, {"type": "node", "id": 11849934516, "lat": 40.8003291, "lon": -73.971888}, {"type": "node", "id": 11849934517, "lat": 40.8002864, "lon": -73.9719484}, {"type": "node", "id": 11849934518, "lat": 40.8002387, "lon": -73.9720188}, {"type": "node", "id": 11849934519, "lat": 40.8001849, "lon": -73.9720952}, {"type": "node", "id": 11849934520, "lat": 40.8001423, "lon": -73.972169}, {"type": "node", "id": 11849934521, "lat": 40.8000969, "lon": -73.9722297}, {"type": "node", "id": 11849934522, "lat": 40.8000558, "lon": -73.972282}, {"type": "node", "id": 11849934523, "lat": 40.8000117, "lon": -73.972339}, {"type": "node", "id": 11849934524, "lat": 40.799964, "lon": -73.9723946}, {"type": "node", "id": 11849934525, "lat": 40.7999193, "lon": -73.9724496}, {"type": "node", "id": 11849934526, "lat": 40.7998761, "lon": -73.9725073}, {"type": "node", "id": 11849934527, "lat": 40.7998162, "lon": -73.972573}, {"type": "node", "id": 11849934528, "lat": 40.7997817, "lon": -73.9726132}, {"type": "node", "id": 11849934529, "lat": 40.7997344, "lon": -73.9726622}, {"type": "node", "id": 11849934530, "lat": 40.7996861, "lon": -73.9727118}, {"type": "node", "id": 11849934531, "lat": 40.7996176, "lon": -73.9727675}, {"type": "node", "id": 11849934532, "lat": 40.7995542, "lon": -73.9728278}, {"type": "node", "id": 11849934533, "lat": 40.799511, "lon": -73.9728667}, {"type": "node", "id": 11849934534, "lat": 40.7994313, "lon": -73.9729456}, {"type": "node", "id": 11849934535, "lat": 40.7993826, "lon": -73.9729865}, {"type": "node", "id": 11849934536, "lat": 40.7993526, "lon": -73.9730153}, {"type": "node", "id": 11849934537, "lat": 40.799309, "lon": -73.9730535}, {"type": "node", "id": 11849934538, "lat": 40.7992648, "lon": -73.9730897}, {"type": "node", "id": 11849934539, "lat": 40.7992024, "lon": -73.9731442}, {"type": "node", "id": 11849934540, "lat": 40.7991313, "lon": -73.9732012}, {"type": "node", "id": 11849934541, "lat": 40.7990526, "lon": -73.9732676}, {"type": "node", "id": 11849934542, "lat": 40.7990064, "lon": -73.9733105}, {"type": "node", "id": 11849934543, "lat": 40.7989619, "lon": -73.9733487}, {"type": "node", "id": 11849934544, "lat": 40.7989193, "lon": -73.9733896}, {"type": "node", "id": 11849934545, "lat": 40.7988091, "lon": -73.9734815}, {"type": "node", "id": 11849934546, "lat": 40.798764, "lon": -73.9735157}, {"type": "node", "id": 11849934547, "lat": 40.7987279, "lon": -73.9735472}, {"type": "node", "id": 11849934548, "lat": 40.7986853, "lon": -73.9735787}, {"type": "node", "id": 11849934549, "lat": 40.7986119, "lon": -73.9736371}, {"type": "node", "id": 11849934550, "lat": 40.7985383, "lon": -73.9736907}, {"type": "node", "id": 11849934551, "lat": 40.7984819, "lon": -73.9737316}, {"type": "node", "id": 11849934552, "lat": 40.7984144, "lon": -73.9737792}, {"type": "node", "id": 11849934553, "lat": 40.798352, "lon": -73.9738181}, {"type": "node", "id": 11849934554, "lat": 40.7983171, "lon": -73.9738426}, {"type": "node", "id": 11849934555, "lat": 40.7982729, "lon": -73.9738715}, {"type": "node", "id": 11849934556, "lat": 40.7981942, "lon": -73.9739104}, {"type": "node", "id": 11849934557, "lat": 40.798144, "lon": -73.9739318}, {"type": "node", "id": 11849934558, "lat": 40.7981156, "lon": -73.9739446}, {"type": "node", "id": 11849934559, "lat": 40.7980658, "lon": -73.9739674}, {"type": "node", "id": 11849934560, "lat": 40.7980145, "lon": -73.9739846}, {"type": "node", "id": 11849934561, "lat": 40.7979688, "lon": -73.9740001}, {"type": "node", "id": 11849934562, "lat": 40.7979292, "lon": -73.9740135}, {"type": "node", "id": 11849934563, "lat": 40.7978581, "lon": -73.9740329}, {"type": "node", "id": 11849934564, "lat": 40.7977896, "lon": -73.974047}, {"type": "node", "id": 11849934565, "lat": 40.7977033, "lon": -73.9740604}, {"type": "node", "id": 11849934566, "lat": 40.7976536, "lon": -73.9740658}, {"type": "node", "id": 11849934567, "lat": 40.7975993, "lon": -73.9740644}, {"type": "node", "id": 11849934568, "lat": 40.7975404, "lon": -73.9740597}, {"type": "node", "id": 11849934569, "lat": 40.7974764, "lon": -73.9740564}, {"type": "node", "id": 11849934570, "lat": 40.797447, "lon": -73.9740524}, {"type": "node", "id": 11849934571, "lat": 40.7973773, "lon": -73.9740443}, {"type": "node", "id": 11849934572, "lat": 40.7973133, "lon": -73.9740369}, {"type": "node", "id": 11849934573, "lat": 40.7972494, "lon": -73.9740249}, {"type": "node", "id": 11849934574, "lat": 40.7971646, "lon": -73.9740081}, {"type": "node", "id": 11849934575, "lat": 40.7971086, "lon": -73.9739954}, {"type": "node", "id": 11849934576, "lat": 40.797037, "lon": -73.973986}, {"type": "node", "id": 11849934577, "lat": 40.7969761, "lon": -73.9739866}, {"type": "node", "id": 11849934578, "lat": 40.7969223, "lon": -73.9739893}, {"type": "node", "id": 11849934579, "lat": 40.7968628, "lon": -73.9739987}, {"type": "node", "id": 11849934580, "lat": 40.7968161, "lon": -73.9740135}, {"type": "node", "id": 11849934581, "lat": 40.7967861, "lon": -73.9740296}, {"type": "node", "id": 11849934582, "lat": 40.796746, "lon": -73.9740477}, {"type": "node", "id": 11849934583, "lat": 40.796712, "lon": -73.9740678}, {"type": "node", "id": 11851716464, "lat": 40.8004138, "lon": -73.9714413}, {"type": "node", "id": 11851716465, "lat": 40.800388, "lon": -73.9714596}, {"type": "node", "id": 11851716466, "lat": 40.7991255, "lon": -73.9725896}, {"type": "node", "id": 11851716467, "lat": 40.7991002, "lon": -73.9726201}, {"type": "node", "id": 11851716468, "lat": 40.7986971, "lon": -73.9730878}, {"type": "node", "id": 11851749169, "lat": 40.7985181, "lon": -73.9732353}, {"type": "node", "id": 11851749170, "lat": 40.7978708, "lon": -73.9735016}, {"type": "node", "id": 11851749171, "lat": 40.797832, "lon": -73.9735089}, {"type": "node", "id": 11851749172, "lat": 40.7966579, "lon": -73.9740516}, {"type": "node", "id": 11853956589, "lat": 40.8011017, "lon": -73.971042}, {"type": "node", "id": 11853956590, "lat": 40.8010793, "lon": -73.9709815}, {"type": "node", "id": 11853956591, "lat": 40.8013441, "lon": -73.9707654}, {"type": "node", "id": 11853956592, "lat": 40.8016073, "lon": -73.9705687}, {"type": "node", "id": 11853956593, "lat": 40.801863, "lon": -73.9703868}, {"type": "node", "id": 11853956594, "lat": 40.8021754, "lon": -73.9701598}, {"type": "node", "id": 11853956595, "lat": 40.8026168, "lon": -73.9698354}, {"type": "node", "id": 11853956596, "lat": 40.8031117, "lon": -73.9694742}, {"type": "node", "id": 11853956597, "lat": 40.8033496, "lon": -73.9693008}, {"type": "node", "id": 11853956598, "lat": 40.8033714, "lon": -73.9692867}, {"type": "node", "id": 11853956599, "lat": 40.8033861, "lon": -73.9692773}, {"type": "node", "id": 11853956600, "lat": 40.803406, "lon": -73.9692727}, {"type": "node", "id": 11853956601, "lat": 40.8034273, "lon": -73.9692706}, {"type": "node", "id": 11853956602, "lat": 40.8034441, "lon": -73.9692747}, {"type": "node", "id": 11853956603, "lat": 40.8034547, "lon": -73.9692841}, {"type": "node", "id": 11853956604, "lat": 40.8034639, "lon": -73.9692961}, {"type": "node", "id": 11853956605, "lat": 40.8034669, "lon": -73.9693123}, {"type": "node", "id": 11853956606, "lat": 40.8034679, "lon": -73.9693304}, {"type": "node", "id": 11853956607, "lat": 40.8034613, "lon": -73.9693438}, {"type": "node", "id": 11853956608, "lat": 40.8032688, "lon": -73.9694841}, {"type": "node", "id": 11853956609, "lat": 40.8029757, "lon": -73.9696962}, {"type": "node", "id": 11853956610, "lat": 40.8027339, "lon": -73.9698787}, {"type": "node", "id": 11853956611, "lat": 40.8025743, "lon": -73.9699895}, {"type": "node", "id": 11853956612, "lat": 40.8023666, "lon": -73.970143}, {"type": "node", "id": 11853956613, "lat": 40.8020248, "lon": -73.970386}, {"type": "node", "id": 11853956614, "lat": 40.8016264, "lon": -73.9706757}, {"type": "node", "id": 11853956615, "lat": 40.8013782, "lon": -73.9708585}, {"type": "node", "id": 11869942660, "lat": 40.8015943, "lon": -73.9681215}, {"type": "node", "id": 11875087761, "lat": 40.7988488, "lon": -73.9657412}, {"type": "node", "id": 11875087762, "lat": 40.7991163, "lon": -73.9655474}, {"type": "node", "id": 11875087763, "lat": 40.7991564, "lon": -73.9664688}, {"type": "node", "id": 11875087765, "lat": 40.7994408, "lon": -73.966261}, {"type": "node", "id": 11877397364, "lat": 40.8004577, "lon": -73.9716776}, {"type": "node", "id": 11882112580, "lat": 40.7992942, "lon": -73.9659662, "tags": {"barrier": "gate"}}, {"type": "node", "id": 11882112581, "lat": 40.7991327, "lon": -73.9655859, "tags": {"barrier": "gate"}}, {"type": "node", "id": 11883021315, "lat": 40.7985405, "lon": -73.9732197}, {"type": "node", "id": 11883021316, "lat": 40.7986517, "lon": -73.9731372}, {"type": "node", "id": 11883021317, "lat": 40.7988107, "lon": -73.9736957, "tags": {"barrier": "kerb", "kerb": "lowered"}}, {"type": "node", "id": 11914257041, "lat": 40.8008779, "lon": -73.9711125}, {"type": "node", "id": 11914257042, "lat": 40.800913, "lon": -73.9712005}, {"type": "node", "id": 11914391038, "lat": 40.8008324, "lon": -73.9711515}, {"type": "node", "id": 11914391039, "lat": 40.800843, "lon": -73.9711313}, {"type": "node", "id": 11914391040, "lat": 40.8008107, "lon": -73.971155}, {"type": "node", "id": 11914391041, "lat": 40.8011238, "lon": -73.9710436}, {"type": "node", "id": 11914391042, "lat": 40.8010838, "lon": -73.9709583}, {"type": "node", "id": 11914391043, "lat": 40.8010906, "lon": -73.9710271}, {"type": "node", "id": 11914391044, "lat": 40.8010795, "lon": -73.9710042}, {"type": "node", "id": 11929367327, "lat": 40.7991124, "lon": -73.9726054}, {"type": "node", "id": 11951420261, "lat": 40.8096557, "lon": -73.9653863}, {"type": "node", "id": 11951420262, "lat": 40.8095594, "lon": -73.9654514}, {"type": "node", "id": 11951420263, "lat": 40.8090003, "lon": -73.9658559}, {"type": "node", "id": 11951420264, "lat": 40.8084929, "lon": -73.966395}, {"type": "node", "id": 11951420265, "lat": 40.8077592, "lon": -73.9670463, "tags": {"barrier": "kerb", "kerb": "lowered"}}, {"type": "node", "id": 11951420266, "lat": 40.8073943, "lon": -73.9672858}, {"type": "node", "id": 11951420267, "lat": 40.8079437, "lon": -73.9669156}, {"type": "node", "id": 11951420268, "lat": 40.8080756, "lon": -73.9668128}, {"type": "node", "id": 11951438169, "lat": 40.8089275, "lon": -73.9659083}, {"type": "node", "id": 11963757024, "lat": 40.8158938, "lon": -73.9606295}, {"type": "node", "id": 11963757025, "lat": 40.8158202, "lon": -73.9606667, "tags": {"barrier": "kerb", "kerb": "lowered", "tactile_paving": "yes"}}, {"type": "node", "id": 11963757026, "lat": 40.816034, "lon": -73.9605858, "tags": {"barrier": "kerb", "kerb": "lowered", "tactile_paving": "yes"}}, {"type": "node", "id": 11963757033, "lat": 40.8160768, "lon": -73.9612988}, {"type": "node", "id": 12151100052, "lat": 40.802308, "lon": -73.970056, "tags": {"barrier": "kerb", "kerb": "raised"}}, {"type": "node", "id": 12801060841, "lat": 40.8023398, "lon": -73.9701621, "tags": {"barrier": "kerb", "kerb": "lowered", "tactile_paving": "yes"}}, {"type": "node", "id": 13268373185, "lat": 40.8101617, "lon": -73.9650135}, {"type": "node", "id": 13268373186, "lat": 40.8099215, "lon": -73.9651914}, {"type": "way", "id": 113723738, "nodes": [1289223589, 6804416805, 11869942660, 1289223597, 6412865233, 6900903371, 6900903362, 6900903331, 6900903322, 6900903321, 6900903311, 6900903333, 6900903323, 6900903313, 6900903302, 6412865246, 6900903342, 6900903309, 6900903320, 6900903330, 6900903350, 1289223594, 1289223592, 6412865213, 1289223589], "tags": {"ele": "33", "gnis:feature_id": "2083440", "leisure": "park", "name": "Straus Park", "name:etymology:wikidata": "Q707974", "operator": "New York City Department of Parks and Recreation", "operator:short": "NYC Parks", "operator:type": "public", "operator:wikidata": "Q1894232", "operator:wikipedia": "en:New York City Department of Parks and Recreation", "source": "bing", "wikidata": "Q7622320", "wikimedia_commons": "Category:Straus Park"}}, {"type": "way", "id": 178575123, "nodes": [7732571933, 7732571932, 7732571931, 7732571930, 7732571929, 7732571928, 7732571927, 7732571926, 7732571925, 7732571924, 7732571923, 7732571922, 7732571921, 7732571920, 7732571919, 7732571918, 7732571887, 7732571886, 7732654834, 7732654835, 7732654814, 7732654833, 7732654813, 7732654821, 7732654822, 7732654824, 7732654830, 7732654823, 7732654832, 7732654826, 7732654831, 7732654825, 7732571937, 7732654806, 7732654807, 7732654809, 7732654808, 595436261, 595436258, 7908637459, 42424937, 7908594142, 7908594136, 61257626, 7908637449, 7908637446, 61249184, 7908637443, 7908637468, 7908637465, 7908637462, 7908637450, 7908637447, 7908637444, 61249182, 7908637469, 7908669934, 7908669931, 7908669928, 7908669925, 61249181, 7908669922, 7908669919, 7908669915, 7908669911, 7908669907, 7908669936, 7908669933, 7908669930, 7908669927, 7908669924, 61249179, 7908669921, 7908669917, 7908669909, 7908669938, 7908669913, 42458473, 7908669937, 7908669908, 7908669912, 7908669916, 7908669920, 7908669923, 7908669926, 61249178, 7908669929, 7908669932, 7908669935, 61249177, 1889208625, 1332863754, 625884281, 625884289, 625884294, 625884299, 625884302, 2329798691, 2329798689, 2329798687, 625884307, 2329798685, 2329798681, 625884311, 625884313, 625884326, 2329798673, 2329798667, 2329798663, 625884331, 625884334, 625884337, 625884342, 625884347, 2329798616, 625884352, 2329798608, 625884354, 2329798598, 2329798582, 625884358, 2329798542, 2329798535, 625884364, 2329798527, 625884369, 625884371, 625883727, 6996574417, 6996564373, 6996564333, 6996574529, 6996574487, 6996574446, 6996574404, 6996564361, 6996564321, 6996574516, 6996574475, 6996574433, 6996574390, 6996564350, 6996574545, 6996574458, 6996574501, 6996574461, 6996574420, 6996564376, 6996564336, 6996564346, 6996574541, 6996574497, 6996574457, 6996574532, 6996574416, 6996564372, 6996564332, 6996574528, 11883021317, 6996574486, 6996574445, 6996574403, 6996564360, 6996564320, 6996574515, 6996574472, 6996574474, 6996574430, 6996574386, 6996574432, 6996574389, 6996564349, 6996574544, 6996574500, 6883897084, 6996574460, 6996574419, 6996564375, 6996564335, 6996574531, 6996574489, 7785881400, 6996574448, 6996574406, 6996564363, 6996564323, 6996574518, 6996574547, 7785782265, 6996574503, 7785881409, 6996574477, 6996574463, 11951420266, 6996574422, 11951420265, 11951420267, 11951420268, 6996564377, 7785881399, 6996564337, 7785881389, 6996574533, 6996574490, 11951420264, 6996574435, 7732571797, 7732571798, 6996574450, 11951438169, 6996574408, 11951420263, 6996564365, 7732571802, 6996564325, 11951420262, 11951420261, 7732571799, 13268373186, 7732571800, 13268373185, 6996574520, 7785782253, 7732551647, 7732551648, 7732551649, 7732551650, 7732551651, 7732551652, 7732551653, 7732571945, 7732571944, 7732551654, 7732571954, 7732571953, 7732551655, 7732571957, 7732571958, 7732551656, 7732571959, 7732551657, 7732551658, 7732571956, 7732551659, 10054994715, 1147215107, 10055027117, 1147215134, 7732571955, 7732551661, 7732571934, 7732551662, 7732571935, 7732571979, 1705982137, 1705982127, 7732551666, 7732551665, 7732551664, 7732551663, 7732571939, 7732571940, 7732571993, 7732571994, 7732572004, 7732572007, 7732572006, 7732572005, 11963757025, 11963757024, 7616688923, 11963757026, 7732572009, 7732572012, 7732572011, 7732571960, 7732572010, 7732572003, 7732571961, 7732572002, 7732572001, 7732572000, 7732571962, 7732571963, 7732572013, 7732572014, 7732572019, 7732572020, 7732571964, 7732571965, 7732571966, 7732572017, 7732572018, 7732572015, 7732572016, 7732571967, 7732571968, 6223570377, 7732571969, 7732571820, 7732571825, 11963757033, 6223570379, 42441419, 42441417, 42441415, 42441412, 42441407, 42441403, 1705982067, 1705982125, 1705982023, 1705982150, 7732572021, 7732571933], "tags": {"is_in:city": "New York", "is_in:state": "NY", "leisure": "park", "name": "Riverside Park", "operator": "New York City Department of Parks and Recreation", "operator:short": "NYC Parks", "operator:type": "government", "operator:wikidata": "Q1894232", "website": "https://www.nycgovparks.org/parks/riverside-park", "wikidata": "Q1339602", "wikipedia": "en:Riverside Park (Manhattan)"}}, {"type": "way", "id": 1276362418, "nodes": [11849916437, 11851749172, 11849916438, 11849916439, 11849916440, 11849916441, 11849916442, 11849916443, 11849916444, 11849916445, 11849916446, 11849916447, 11849916448, 11849916449, 11849916450, 11849916451, 11849916452, 11849916453, 11849916454, 11851749171, 11851749170, 11849916455, 11849916456, 11849916457, 11849916458, 11849916459, 11849916460, 11849916461, 11849916462, 11849916463, 11849916464, 11851749169, 11883021315, 11849916465, 11883021316, 11849916466, 11851716468, 11849916467, 11849916468, 11849934469, 11849934470, 11849934471, 11849934472, 11849934473, 11851716467, 11929367327, 11851716466, 11849934474, 11849934475, 11849934476, 11849934477, 11849934478, 11849934479, 11849934480, 11849934481, 11849934482, 11849934483, 11849934484, 11849934485, 11849934486, 11849934487, 11849934488, 11849934489, 11849934490, 11849934491, 11849934492, 11849934493, 11851716465, 6883897071, 11851716464, 11849934494, 11849934498, 11914391040, 11914391038, 11914391039, 11849934499, 11914257041, 11849934500, 11849934501, 11849934502, 11914257042, 11849934503, 11849934504, 11849934505, 11849934506, 11849934507, 11849934508, 11849934509, 11849934510, 6883897052, 11849934511, 11877397364, 11849934512, 11849934513, 11849934514, 11849934515, 11849934516, 11849934517, 11849934518, 11849934519, 11849934520, 11849934521, 11849934522, 11849934523, 11849934524, 11849934525, 11849934526, 11849934527, 11849934528, 11849934529, 11849934530, 11849934531, 11849934532, 11849934533, 6912871497, 11849934534, 11849934535, 11849934536, 11849934537, 11849934538, 11849934539, 11849934540, 11849934541, 11849934542, 11849934543, 11849934544, 11849934545, 11849934546, 6887003346, 11849934547, 11849934548, 11849934549, 11849934550, 11849934551, 11849934552, 11849934553, 11849934554, 11849934555, 11849934556, 11849934557, 11849934558, 11849934559, 11849934560, 11849934561, 11849934562, 6996574466, 11849934563, 11849934564, 11849934565, 11849934566, 11849934567, 11849934568, 11849934569, 11849934570, 11849934571, 11849934572, 11849934573, 11849934574, 11849934575, 11849934576, 11849934577, 11849934578, 11849934579, 11849934580, 11849934581, 11849934582, 11849934583, 11849916437], "tags": {"leisure": "park"}}, {"type": "way", "id": 1276741631, "nodes": [11853956589, 11914391043, 11914391044, 11853956590, 11914391042, 11377004190, 11853956591, 11853956592, 11853956593, 11853956594, 11377030655, 11380668226, 12151100052, 11377030656, 11853956595, 11853956596, 11853956597, 11853956598, 11853956599, 11853956600, 11853956601, 11853956602, 11853956603, 11853956604, 11853956605, 11853956606, 11853956607, 11853956608, 11853956609, 11853956610, 11853956611, 11853956612, 12801060841, 11853956613, 11853956614, 11853956615, 11914391041, 11853956589], "tags": {"leisure": "park"}}, {"type": "way", "id": 1279201474, "nodes": [11875087761, 11875087762, 11882112581, 11882112580, 11830021564, 11830021565, 2761570760, 2761570753, 2761570756, 11875087765, 11875087763, 11830021557, 11875087761], "tags": {"ele": "33", "gnis:feature_id": "2500842", "leisure": "park", "name": "Bloomingdale Playground", "old_name": "P.S. 145 Playground", "operator": "New York City Department of Parks and Recreation", "operator:short": "NYC Parks", "operator:type": "public", "operator:wikidata": "Q1894232", "operator:wikipedia": "en:New York City Department of Parks and Recreation", "wikidata": "Q34809181"}}]}