{"version": 0.6, "generator": "Overpass API 0.7.62.8 e802775f", "osm3s": {"timestamp_osm_base": "2025-12-01T15:39:43Z", "copyright": "The data included in this document is from www.openstreetmap.org. The data is made available under ODbL."}, "elements": [{"type": "node", "id": 11264932918, "lat": 40.6866129, "lon": -73.8236154, "tags": {"addr:city": "Richmond Hill", "addr:housenumber": "119-15", "addr:state": "NY", "addr:street": "Liberty Avenue", "amenity": "restaurant", "cuisine": "indian", "level": "0", "name": "3M Bar & Grill"}}, {"type": "node", "id": 11264956843, "lat": 40.6865311, "lon": -73.8230444, "tags": {"addr:city": "Richmond Hill", "addr:housenumber": "120-04", "addr:state": "NY", "addr:street": "Liberty Avenue", "amenity": "restaurant", "cuisine": "west_indian;guyanese", "name": "Kaieteur"}}, {"type": "node", "id": 11264956844, "lat": 40.686622, "lon": -73.8227855, "tags": {"addr:housenumber": "120-12", "addr:postcode": "11419", "addr:street": "Liberty Avenue", "amenity": "restaurant", "cuisine": "chinese;indian"}}, {"type": "node", "id": 11264956847, "lat": 40.686556, "lon": -73.8228959, "tags": {"addr:city": "Richmond Hill", "addr:housenumber": "120-08", "addr:state": "NY", "addr:street": "Liberty Avenue", "level": "1", "office": "insurance"}}, {"type": "node", "id": 11264976611, "lat": 40.6861787, "lon": -73.8249014, "tags": {"addr:city": "Richmond Hill", "addr:housenumber": "118-03", "addr:state": "NY", "addr:street": "Liberty Avenue", "amenity": "restaurant", "cuisine": "guyanese;trinidadian;tobagonian", "name": "Tropical Jade 3 Roti Express"}}, {"type": "node", "id": 11264976616, "lat": 40.6859407, "lon": -73.8247169, "tags": {"addr:city": "Richmond Hill", "addr:housenumber": "118-06", "addr:state": "NY", "addr:street": "Liberty Avenue", "amenity": "restaurant", "cuisine": "guyanese;trinidadian", "diet:vegetarian": "yes", "indoor_seating": "yes", "name": "Sonny's Roti Shop", "opening_hours": "Mo-Fr 06:00-22:30; Sa,Su 06:00-22:00", "outdoor_seating": "no"}}, {"type": "node", "id": 11264976624, "lat": 40.6860954, "lon": -73.8257308, "tags": {"office": "lawyer"}}, {"type": "node", "id": 11264976625, "lat": 40.6861022, "lon": -73.8257906, "tags": {"office": "estate_agent"}}, {"type": "node", "id": 11264976629, "lat": 40.685874, "lon": -73.8252086, "tags": {"addr:city": "Richmond Hill", "addr:housenumber": "117-16", "addr:state": "NY", "addr:street": "Liberty Avenue", "amenity": "restaurant", "name": "Spready's"}}, {"type": "node", "id": 12212728898, "lat": 40.6857702, "lon": -73.8259812, "tags": {"amenity": "bar", "name": "New Thriving Restaurant & Bar"}}, {"type": "node", "id": 12212728920, "lat": 40.6859646, "lon": -73.8244321, "tags": {"amenity": "bar", "name": "Brando's Express Restaurant & Bar"}}]}