{"version": 0.6, "generator": "Overpass API 0.7.62.8 e802775f", "osm3s": {"timestamp_osm_base": "2025-12-01T04:05:13Z", "copyright": "The data included in this document is from www.openstreetmap.org. The data is made available under ODbL."}, "elements": [{"type": "node", "id": 5005376222, "lat": 40.6937359, "lon": -73.9027629, "tags": {"addr:housenumber": "1535", "addr:postcode": "11385", "addr:street": "Decatur Street", "amenity": "bar", "craft": "brewery", "internet_access": "wlan", "microbrewery": "yes", "name": "Bridge and Tunnel Brewery", "opening_hours": "Fr 17:00-22:00; Sa, Su 13:00-21:00", "phone": "+13473928593", "toilets": "yes", "toilets:access": "permissive", "toilets:unisex": "yes", "toilets:wheelchair": "yes", "website": "https://www.bridgeandtunnelbrewery.com/"}}, {"type": "node", "id": 5163827478, "lat": 40.6962356, "lon": -73.9048836, "tags": {"addr:housenumber": "985", "addr:street": "Wyckoff Avenue", "amenity": "restaurant", "cuisine": "american;coffee", "delivery": "yes", "name": "Bill's Diner", "opening_hours": "Mo-Su 05:30-14:00", "payment:cash": "yes", "takeaway": "yes", "wheelchair": "limited"}}, {"type": "node", "id": 5163830490, "lat": 40.6962604, "lon": -73.9049682, "tags": {"addr:housenumber": "983", "addr:street": "Wyckoff Avenue", "amenity": "cafe", "name": "C & B Luncheonette", "phone": "+1-718-497-6561"}}, {"type": "node", "id": 5349396115, "lat": 40.6970156, "lon": -73.9062504, "tags": {"addr:city": "Ridgewood", "addr:housenumber": "915", "addr:postcode": "11385", "addr:state": "NY", "addr:street": "Wyckoff Avenue", "amenity": "cafe", "atm": "yes", "contact:facebook": "Trans-Am-Cafe-628194187287321", "diet:vegan": "only", "drink:coffee": "yes", "internet_access": "wlan", "internet_access:fee": "no", "name": "Trans Am Cafe", "opening_hours": "Mo-Su 08:00-19:00", "outdoor_seating": "backyard", "payment:cash": "yes", "payment:debit_cards": "yes", "phone": "+1-718-386-3718", "toilets": "yes", "toilets:access": "permissive", "toilets:number": "2", "toilets:unisex": "yes", "toilets:wheelchair": "yes", "website": "https://seitanshelper.com"}}, {"type": "node", "id": 5349706207, "lat": 40.6977149, "lon": -73.907576, "tags": {"addr:housenumber": "861", "addr:street": "Wyckoff Avenue", "amenity": "restaurant", "cuisine": "spanish;coffee", "delivery": "yes", "name": "La Rubia Restaurant", "payment:cash": "yes", "payment:credit_cards": "yes", "phone": "+1-718-381-9847", "takeaway": "yes", "wheelchair": "no"}}, {"type": "node", "id": 5365021884, "lat": 40.6961093, "lon": -73.9046609, "tags": {"addr:city": "Ridgewood", "addr:housenumber": "991", "addr:postcode": "11385", "addr:state": "NY", "addr:street": "Wyckoff Avenue", "amenity": "bar", "brewery": "yes", "email": "bonusroombar@gmail.com", "name": "Bonus Room", "opening_hours": "Mo-Fr 14:00-04:00; Sa, Su 12:00-04:00", "sport": "billiards", "website": "http://bonusroombar.com"}}, {"type": "node", "id": 5412930800, "lat": 40.6967308, "lon": -73.9006811, "tags": {"addr:housenumber": "1070", "addr:street": "Cypress Avenue", "alt_name": "Buen Sabor", "amenity": "restaurant", "cuisine": "mexican", "delivery": "yes", "diet:vegetarian": "yes", "drink:beer": "yes", "drink:wine": "yes", "name": "El Saborito", "opening_hours": "Mo-Su 10:00-22:00", "payment:credit_cards": "yes", "payment:debit_cards": "yes", "phone": "+1-347-294-4894", "takeaway": "yes", "website": "https://elsaboritorestaurant.com"}}, {"type": "node", "id": 5413551222, "lat": 40.6969362, "lon": -73.9068007, "tags": {"addr:housenumber": "894", "addr:street": "Wyckoff Avenue", "amenity": "bar", "check_date": "2025-10-24", "name": "Luv Story Bar", "phone": "+1-347-927-0982", "website": "https://luv-story.business.site"}}, {"type": "node", "id": 5413562739, "lat": 40.6946223, "lon": -73.9062927, "tags": {"addr:housenumber": "1332", "addr:street": "Halsey Street", "amenity": "pub", "brewery": "various", "cuisine": "burger;sandwich;coffee", "email": "info@madmanhg.com", "internet_access": "wlan", "internet_access:fee": "no", "name": "Doubl\u00e9 BK", "payment:cash": "yes", "payment:credit_cards": "yes", "phone": "+1-914-249-toi9525", "reservation": "yes", "sport": "shuffleboard", "takeaway": "yes", "toilets": "yes", "toilets:unisex": "yes", "website": "https://www.doublebk.com/"}}, {"type": "node", "id": 5564556152, "lat": 40.6982522, "lon": -73.9042753, "tags": {"addr:housenumber": "16-70", "addr:street": "Weirfield Street", "name": "LaserShip", "office": "company", "opening_hours": "Mo-Su 09:00-20:00", "phone": "+1-804-414-2590", "website": "https://lasership.com/"}}, {"type": "node", "id": 5566863363, "lat": 40.6970144, "lon": -73.9063736, "tags": {"addr:housenumber": "913", "addr:street": "Wyckoff Avenue", "amenity": "restaurant", "name": "Palace of Zuly", "opening_hours": "Mo-Su 06:00-04:00", "payment:cash": "yes", "payment:credit_cards": "yes", "phone": "+1-718-366-4555"}}, {"type": "node", "id": 5566992325, "lat": 40.6969014, "lon": -73.9067663, "tags": {"addr:city": "Brooklyn", "addr:housenumber": "896", "addr:postcode": "11237", "addr:state": "NY", "addr:street": "Wyckoff Avenue", "email": "merchaninsurance@gmail.com", "level": "0", "name": "Merchant & Son Brokerage", "office": "financial_advisor", "opening_hours": "Mo-Fr 09:00-18:00;Sa 09:30-13:00", "phone": "+1-347-599-0773", "website": "https://www.merchaninsurance.com/"}}, {"type": "node", "id": 5571309806, "lat": 40.6942837, "lon": -73.9049805, "tags": {"addr:housenumber": "1019", "addr:street": "Irving Avenue", "description": "Full-service film production company offering rentals of lighting, sound, makeup, and camera equipment.", "email": "michelle@broadway-stages.com", "name": "Broadway Stages", "office": "company", "website": "https://www.broadway-stages.com/"}}, {"type": "node", "id": 6854261485, "lat": 40.6962173, "lon": -73.9040269, "tags": {"addr:housenumber": "1616", "addr:street": "George Street", "alt_name": "Evil Twin Taproom", "amenity": "bar", "contact:instagram": "@eviltwinbrewingnyc", "craft": "brewery", "drink:beer": "draught", "drink:coffee": "yes", "drink:espresso": "yes", "drink:wine": "yes", "email": "info@eviltwin.dk", "internet_access": "wlan", "internet_access:fee": "no", "name": "Evil Twin Brewery", "opening_hours": "Mo-We 14:00-22:00; Th 14:00-24:00; Fr 12:00-24:00; Sa 10:00-24:00; Su 10:00-22:00 \"taproom\"||Mo-Fr 07:00-15:00; Sa-Su 08:00-15:00 \"coffee\"", "outdoor_seating": "patio", "phone": "+1-718-366-1850", "toilets": "yes", "toilets:unisex": "yes", "toilets:wheelchair": "yes", "website": "https://eviltwin.nyc", "wheelchair": "yes"}}, {"type": "node", "id": 7063212564, "lat": 40.6977598, "lon": -73.9076283, "tags": {"addr:housenumber": "859", "addr:street": "Wyckoff Avenue", "amenity": "bar", "cocktails": "yes", "delivery": "yes", "drink:beer": "yes", "drink:liquor": "yes", "drink:wine": "yes", "happy_hours": "yes", "name": "Puerto de Manta Restaurant and Bar", "opening_hours": "Th-Su 09:00-04:00; Mo 09:00-23:00; Tu, We 09:00-00:00", "phone": "+1-347-965-6791", "takeaway": "yes", "wheelchair": "yes"}}, {"type": "node", "id": 7098895115, "lat": 40.6978683, "lon": -73.9052427, "tags": {"addr:city": "Ridgewood", "addr:housenumber": "16-47", "addr:postcode": "11385", "addr:state": "NY", "addr:street": "Weirfield Street", "amenity": "bar", "brewery": "yes", "capacity": "370", "contact:facebook": "https://www.facebook.com/pg/tveyenyc", "contact:instagram": "https://www.instagram.com/tveyenyc/", "cuisine": "mexican;nachos", "description": "Bar and music venue.", "drink:liquor": "yes", "internet_access": "wlan", "internet_access:fee": "no", "name": "TV Eye NYC", "opening_hours": "Mo, Su 18:00-02:00; Tu-Sa 18:00-04:00", "toilets": "yes", "toilets:access": "customers", "toilets:unisex": "yes", "toilets:wheelchair": "yes", "wheelchair": "yes"}}, {"type": "node", "id": 10824737763, "lat": 40.6941901, "lon": -73.9022477, "tags": {"addr:housenumber": "1563", "addr:street": "Decatur Street", "alt_name": "Pan NYC", "amenity": "restaurant", "coffee": "yes", "cuisine": "italian;pizza", "delivery": "yes", "diet:vegan": "yes", "fireplace": "yes", "happy_hours": "Th-Mo 16:00-19:00", "internet_access": "wlan", "internet_access:fee": "no", "name": "p\u00e1n", "opening_hours": "Tu, We 09:00-16:00; Mo, Th 09:00-22:00; Fr 09:00-22:30; Sa 11:00-22:30; Su 11:00-22:00", "phone": "+1-718-885-4126", "reservation": "yes", "takeaway": "yes", "toilets": "yes", "toilets:unisex": "yes", "website": "https://pan-nyc.com/"}}, {"type": "node", "id": 11943712729, "lat": 40.6949574, "lon": -73.9032696, "tags": {"addr:city": "Queens", "addr:housenumber": "1050", "addr:postcode": "11385", "addr:state": "NY", "addr:street": "Wyckoff Avenue", "amenity": "restaurant", "name": "Cafe Rum", "phone": "+1-718-304-0747"}}, {"type": "node", "id": 11943712730, "lat": 40.6945503, "lon": -73.9026046, "tags": {"amenity": "cafe", "cuisine": "coffee_shop", "internet_access": "wlan", "internet_access:fee": "customers", "name": "La Raza Cafe"}}, {"type": "node", "id": 12960814166, "lat": 40.6969738, "lon": -73.9062974, "tags": {"addr:city": "Ridgewood", "addr:housenumber": "915", "addr:postcode": "11385", "addr:state": "NY", "addr:street": "Wyckoff Avenue", "amenity": "cafe", "cuisine": "vietnamese", "name": "Nh\u00e0 Minh", "phone": "+1-718-387-7848", "website": "https://www.nhaminhnyc.com/"}}]}