{"version": 0.6, "generator": "Overpass API 0.7.62.8 e802775f", "osm3s": {"timestamp_osm_base": "2025-12-01T04:02:06Z", "copyright": "The data included in this document is from www.openstreetmap.org. The data is made available under ODbL."}, "elements": [{"type": "node", "id": 357586417, "lat": 40.7430624, "lon": -73.9531269, "tags": {"addr:housenumber": "10-08", "addr:postcode": "11101", "addr:street": "49th Avenue", "amenity": "school", "ele": "5", "gnis:feature_id": "963971", "name": "Saint Marys School"}}, {"type": "node", "id": 357628994, "lat": 40.7418238, "lon": -73.9512366}, {"type": "node", "id": 2847083631, "lat": 40.743982, "lon": -73.950228, "tags": {"addr:housenumber": "12-23", "addr:postcode": "11101", "addr:street": "Jackson Avenue", "amenity": "restaurant", "name": "Bierocracy"}}, {"type": "node", "id": 2847084663, "lat": 40.7434309, "lon": -73.9496867}, {"type": "node", "id": 2847084678, "lat": 40.7435014, "lon": -73.9493866}, {"type": "node", "id": 2847084696, "lat": 40.7435805, "lon": -73.9491246}, {"type": "node", "id": 2847084699, "lat": 40.7435833, "lon": -73.9490221}, {"type": "node", "id": 2847084801, "lat": 40.7435865, "lon": -73.9492353}, {"type": "node", "id": 2847084807, "lat": 40.7436013, "lon": -73.9492303}, {"type": "node", "id": 2847084808, "lat": 40.743602, "lon": -73.9491173}, {"type": "node", "id": 2847084811, "lat": 40.7436091, "lon": -73.94935}, {"type": "node", "id": 2847084824, "lat": 40.7436507, "lon": -73.9489992}, {"type": "node", "id": 2847084829, "lat": 40.7436602, "lon": -73.9496088}, {"type": "node", "id": 2847084832, "lat": 40.7436783, "lon": -73.9495083}, {"type": "node", "id": 2847085006, "lat": 40.7438487, "lon": -73.9489319}, {"type": "node", "id": 2847085053, "lat": 40.7439442, "lon": -73.9494179}, {"type": "node", "id": 2847092391, "lat": 40.7418556, "lon": -73.9464638, "tags": {"addr:housenumber": "23-02", "addr:postcode": "11101", "addr:street": "49th Avenue", "name": "NYCHA", "office": "yes"}}, {"type": "node", "id": 2853015999, "lat": 40.7452481, "lon": -73.9475886, "tags": {"addr:housenumber": "21-15", "addr:postcode": "11101", "addr:street": "46th Road", "amenity": "bar", "name": "The Infamous"}}, {"type": "node", "id": 2987791520, "lat": 40.7421388, "lon": -73.9514901}, {"type": "node", "id": 2987791521, "lat": 40.7420657, "lon": -73.9511508}, {"type": "node", "id": 2987791522, "lat": 40.7420169, "lon": -73.9511038}, {"type": "node", "id": 2987791523, "lat": 40.7419051, "lon": -73.9511494}, {"type": "node", "id": 2987791525, "lat": 40.741771, "lon": -73.9513801}, {"type": "node", "id": 2987791526, "lat": 40.7417425, "lon": -73.9515115}, {"type": "node", "id": 2987791527, "lat": 40.7417445, "lon": -73.9516237}, {"type": "node", "id": 2987791528, "lat": 40.7418584, "lon": -73.951187}, {"type": "node", "id": 2987791529, "lat": 40.7417944, "lon": -73.951305}, {"type": "node", "id": 2987791530, "lat": 40.7417558, "lon": -73.9514378}, {"type": "node", "id": 2987791531, "lat": 40.7417395, "lon": -73.9515571}, {"type": "node", "id": 2987791532, "lat": 40.7420494, "lon": -73.9511159}, {"type": "node", "id": 3864972068, "lat": 40.746726, "lon": -73.947598, "tags": {"amenity": "cafe", "name": "LIC Corner Caf\u00e9", "opening_hours": "Mo-Fr 08:00-17:00; Sa, Su 09:00-17:00", "wheelchair": "no"}}, {"type": "node", "id": 3865005275, "lat": 40.743271, "lon": -73.95158, "tags": {"addr:housenumber": "10-93", "addr:postcode": "11101", "addr:street": "Jackson Avenue", "amenity": "cafe", "branch": "Jackson Avenue", "email": "sweetleafLIC@gmail.com", "facebook": "sweetleaf.lic", "instagram": "sweetleafnyc", "name": "Sweetleaf", "opening_hours": "Mo-Fr 07:00-19:00; Sa, Su 08:00-19:00", "phone": "+1 917-832-6726", "start_date": "2008", "twitter": "sweetleafLIC", "website": "https://www.sweetleafcoffee.com/pages/jackson-avenue"}}, {"type": "node", "id": 3865170361, "lat": 40.7427545, "lon": -73.9518864, "tags": {"amenity": "restaurant", "cuisine": "italian", "name": "Manetta's Ristorante"}}, {"type": "node", "id": 4767635212, "lat": 40.7438006, "lon": -73.9514397, "tags": {"addr:housenumber": "47-46", "addr:street": "11th Street", "amenity": "restaurant", "cuisine": "peruvian", "name": "Jora", "phone": "+1-718-392-2033", "website": "https://www.jorany.com/"}}, {"type": "node", "id": 4767635213, "lat": 40.7446342, "lon": -73.9518851, "tags": {"addr:housenumber": "10-39", "addr:street": "47th Road", "amenity": "restaurant", "cuisine": "chinese", "name": "Noodlecraft", "opening_hours": "Mo, We-Fr, Su 12:00-20:00; Th-Sa 12:00-20:30", "phone": "+1 718-392-3555", "takeaway": "yes", "website": "https://www.noodlecraftqueens.com/"}}, {"type": "node", "id": 4768083426, "lat": 40.7445922, "lon": -73.9532693, "tags": {"addr:city": "Long Island City", "addr:housenumber": "47-29", "addr:postcode": "11101", "addr:state": "NY", "addr:street": "Vernon Boulevard", "amenity": "restaurant", "cuisine": "cuban", "name": "Madera Cuban Grill", "phone": "+1-718-606-1236", "website": "http://www.maderacubangrill.com"}}, {"type": "node", "id": 4768308054, "lat": 40.7455378, "lon": -73.9501596, "tags": {"amenity": "cafe", "cuisine": "coffee_shop", "name": "CommuniTea"}}, {"type": "node", "id": 4995779506, "lat": 40.7452856, "lon": -73.9515295, "tags": {"name": "Juice Generation Training Center", "office": "yes"}}, {"type": "node", "id": 4995779508, "lat": 40.7459104, "lon": -73.9528742, "tags": {"amenity": "restaurant", "name": "Manducatis Rustica"}}, {"type": "node", "id": 4995779511, "lat": 40.7464921, "lon": -73.9515404, "tags": {"addr:city": "Long Island City", "addr:housenumber": "10-28", "addr:postcode": "11101", "addr:state": "NY", "addr:street": "46th Avenue", "amenity": "pub", "craft": "brewery", "name": "Fifth Hammer Brewing Company", "website": "https://www.fifthhammerbrewing.com/"}}, {"type": "node", "id": 4995779518, "lat": 40.7459049, "lon": -73.9532104, "tags": {"amenity": "cafe", "name": "Overflow Coffee", "website": "https://www.overflowcoffee.nyc/"}}, {"type": "node", "id": 4995779519, "lat": 40.7457629, "lon": -73.9532491, "tags": {"amenity": "restaurant", "name": "Alobar"}}, {"type": "node", "id": 4995779520, "lat": 40.7456978, "lon": -73.9532648, "tags": {"amenity": "restaurant", "cuisine": "japanese", "name": "Murasaki", "phone": "+1-718-482-7088"}}, {"type": "node", "id": 4995779929, "lat": 40.7449402, "lon": -73.9531923, "tags": {"addr:city": "Long Island City", "addr:housenumber": "47-23", "addr:state": "NY", "addr:street": "Vernon Boulevard", "amenity": "restaurant", "cuisine": "pizza", "indoor_seating": "yes", "name": "Centro Pizza Bar & Italian Kitchen", "opening_hours": "Su-Th 10:00-22:00; Fr,Sa 10:00-23:00", "outdoor_seating": "yes"}}, {"type": "node", "id": 4995781960, "lat": 40.7445894, "lon": -73.9490417, "tags": {"addr:housenumber": "13-27", "addr:street": "Jackson Avenue", "amenity": "restaurant", "indoor_seating": "yes", "name": "Manducatis", "opening_hours": "Mo-Fr 12:00-15:00, 17:00-22:00; Sa 17:00-23:00", "outdoor_seating": "no", "phone": "+1 718-729-4602"}}, {"type": "node", "id": 5096342022, "lat": 40.7424531, "lon": -73.9532705, "tags": {"amenity": "bar", "name": "Jackson's"}}, {"type": "node", "id": 5376571538, "lat": 40.7437417, "lon": -73.9491235, "tags": {"addr:housenumber": "47-40", "addr:postcode": "11101", "addr:street": "21st Street", "government": "public_service", "name": "New York State Department of Environmental Conservation", "office": "government", "phone": "+1-718-482-4900", "website": "https://www.dec.ny.gov/", "wheelchair": "yes"}}, {"type": "node", "id": 5376571539, "lat": 40.7437986, "lon": -73.9493059, "tags": {"addr:housenumber": "47-40", "addr:postcode": "11101", "addr:street": "21st Street", "government": "public_service", "name": "New York State Department of Transportation", "office": "government", "website": "https://www.dot.ny.gov/", "wheelchair": "yes"}}, {"type": "node", "id": 5376571540, "lat": 40.7437843, "lon": -73.9490806, "tags": {"addr:housenumber": "47-40", "addr:postcode": "11101", "addr:street": "21st Street", "government": "public_service", "name": "New York State Department of Environmental Conservation Police", "office": "government", "phone": "+1-718-482-4885", "website": "https://www.dec.ny.gov/about/621.html"}}, {"type": "node", "id": 5440512346, "lat": 40.742341, "lon": -73.9525773, "tags": {"addr:housenumber": "10-46", "addr:postcode": "11101", "addr:street": "Jackson Avenue", "amenity": "restaurant", "cuisine": "japanese", "level": "0", "name": "Sushi of Miso", "opening_hours": "Tu-Sa 11:00-21:15; Su 13:00-21:15", "phone": "+1 718-736-3065", "takeaway": "yes", "website": "https://www.sushiofmisolic.com/"}}, {"type": "node", "id": 6594768414, "lat": 40.7427487, "lon": -73.9527155, "tags": {"amenity": "restaurant", "name": "BANY 10-57", "phone": "+1-718-383-2388", "website": "banyny.com"}}, {"type": "node", "id": 8990769665, "lat": 40.7423244, "lon": -73.9490982, "tags": {"addr:city": "Long Island City", "addr:housenumber": "21-02", "addr:postcode": "11101", "addr:state": "NY", "addr:street": "49th Avenue", "amenity": "cafe", "branch": "21st St & 49th Avenue - LIC", "brand": "Starbucks", "brand:wikidata": "Q37158", "cuisine": "coffee_shop", "name": "Starbucks", "official_name": "Starbucks Coffee", "phone": "+1 718-786-8881", "ref": "1026065", "takeaway": "yes", "website": "https://www.starbucks.com/store-locator/store/1026065/21st-st-49th-ave-lic-21-02-49th-ave-long-island-city-ny-111014521-us"}}, {"type": "node", "id": 10225954379, "lat": 40.7426774, "lon": -73.952036, "tags": {"amenity": "restaurant", "cuisine": "japanese", "name": "Hibino", "takeaway": "yes"}}, {"type": "node", "id": 11660392215, "lat": 40.74232, "lon": -73.9525613, "tags": {"addr:housenumber": "10-50", "addr:postcode": "11101", "addr:street": "Jackson Avenue", "amenity": "restaurant", "cuisine": "japanese", "level": "0", "name": "AJA Dumplings", "opening_hours": "Tu-Sa 11:00-21:00; Su 13:00-21:00", "phone": "+1 718-736-3065", "takeaway": "yes", "website": "https://www.ajadumplings395.com/"}}, {"type": "node", "id": 11881245053, "lat": 40.7431979, "lon": -73.9517035, "tags": {"addr:city": "Long Island City", "addr:housenumber": "10-91", "addr:postcode": "11101", "addr:state": "NY", "addr:street": "Jackson Avenue", "amenity": "restaurant", "cuisine": "thai", "name": "Ros Niyom Thai", "opening_hours": "Mo-Th 04:30-22:00; Fr 04:30-22:30; Sa 04:30-22:30; Su 04:30-22:00", "phone": "+1-718-440-9752", "takeaway": "yes", "website": "https://www.rosniyomnyc.com"}}, {"type": "node", "id": 11920176973, "lat": 40.7448142, "lon": -73.9486449, "tags": {"addr:housenumber": "13-33", "addr:street": "Jackson Avenue", "amenity": "cafe", "name": "Beanstalk Cafe", "opening_hours": "Mo-Su 08:00-16:00"}}, {"type": "way", "id": 280625244, "nodes": [2847084699, 2847084808, 2847084696, 2847084807, 2847084801, 2847084811, 2847084678, 2847084663, 2847084829, 2847084832, 2847085053, 2847085006, 2847084824, 2847084699], "tags": {"addr:housenumber": "47-40", "addr:postcode": "11101", "addr:street": "21st Street", "building": "commercial", "building:levels": "10", "height": "40.6", "name": "Hunter's Point Plaza", "nycdoitt:bin": "4441830", "office": "yes", "roof:shape": "flat", "smoking": "outside"}}, {"type": "way", "id": 295109956, "nodes": [2987791520, 2987791521, 2987791532, 2987791522, 2987791523, 2987791528, 357628994, 2987791529, 2987791525, 2987791530, 2987791526, 2987791531, 2987791527, 2987791520], "tags": {"ele": "4", "gnis:feature_id": "2352598", "leisure": "park", "name": "Notorious LIC Park", "old_name": "Bridge and Tunnel Park", "opening_hours": "Mo-Su 06:00-21:00", "website": "https://www.nycgovparks.org/parks/bridge-and-tunnel-park", "wikidata": "Q34810658"}}]}