{"version": 0.6, "generator": "Overpass API 0.7.62.8 e802775f", "osm3s": {"timestamp_osm_base": "2025-12-01T03:56:57Z", "copyright": "The data included in this document is from www.openstreetmap.org. The data is made available under ODbL."}, "elements": [{"type": "node", "id": 357550827, "lat": 40.6670132, "lon": -73.9527042}, {"type": "node", "id": 2567049306, "lat": 40.6660689, "lon": -73.9507041, "tags": {"addr:housenumber": "895", "addr:postcode": "11225", "addr:street": "Nostrand Avenue", "name": "Bedford & Dean", "office": "estate_agent"}}, {"type": "node", "id": 2567049310, "lat": 40.6658405, "lon": -73.9507308, "tags": {"addr:housenumber": "903", "addr:postcode": "11225", "addr:street": "Nostrand Avenue", "name": "Star Scholars Academy", "office": "tutor", "phone": "+1-718-484-1818", "website": "https://starscholarsny.com/"}}, {"type": "node", "id": 2567052619, "lat": 40.6671517, "lon": -73.9519095}, {"type": "node", "id": 2567052628, "lat": 40.6688759, "lon": -73.9510486, "tags": {"addr:housenumber": "1214", "addr:postcode": "11225", "addr:street": "Union Street", "fax": "+1-929-234-2101", "name": "Heights Realty Advisors", "office": "estate_agent", "phone": "+1-929-234-2100", "service:notary": "yes", "website": "https://www.heights-realty.com"}}, {"type": "node", "id": 2567052938, "lat": 40.6664607, "lon": -73.951934}, {"type": "node", "id": 2567052950, "lat": 40.6664746, "lon": -73.9521945}, {"type": "node", "id": 2567052992, "lat": 40.6665004, "lon": -73.9526771}, {"type": "node", "id": 2567053223, "lat": 40.666517, "lon": -73.9527504}, {"type": "node", "id": 2567053417, "lat": 40.6666487, "lon": -73.9527381}, {"type": "node", "id": 2567053779, "lat": 40.6670449, "lon": -73.9527013}, {"type": "node", "id": 2567053781, "lat": 40.6671768, "lon": -73.952689}, {"type": "node", "id": 2567053830, "lat": 40.6671429, "lon": -73.9517449}, {"type": "node", "id": 2567053832, "lat": 40.6671843, "lon": -73.9525186}, {"type": "node", "id": 2567053833, "lat": 40.6671933, "lon": -73.9526875}, {"type": "node", "id": 2567062166, "lat": 40.6686344, "lon": -73.9532387, "tags": {"amenity": "restaurant", "cuisine": "steak_house", "name": "Patrick Steakhouse", "opening_hours": "Tu-Th 16:00-22:00; Fr-Sa 16:00-24:00; Su 11:00-15:00,16:00-22:00", "phone": "+1-347-789-9976", "website": "https://patricksteakhouse.com"}}, {"type": "node", "id": 2567075696, "lat": 40.6666711, "lon": -73.956004}, {"type": "node", "id": 2567075703, "lat": 40.6666819, "lon": -73.9559999}, {"type": "node", "id": 2567075749, "lat": 40.6667747, "lon": -73.9559654}, {"type": "node", "id": 2567075793, "lat": 40.6668875, "lon": -73.9562872}, {"type": "node", "id": 2567076272, "lat": 40.6673452, "lon": -73.9561168}, {"type": "node", "id": 2567078870, "lat": 40.6689235, "lon": -73.9535307, "tags": {"fax": "+1-347-402-7103", "name": "Kenneth J. Montgomery Attorneys at Law", "office": "lawyer", "phone": "+1-718-403-9261", "website": "https://www.kjmontgomerylaw.com"}}, {"type": "node", "id": 2567078877, "lat": 40.6675221, "lon": -73.9533347, "tags": {"name": "Fields Protective Services", "office": "company", "phone": "+1-718-684-4242"}}, {"type": "node", "id": 2567092080, "lat": 40.6667146, "lon": -73.9567594}, {"type": "node", "id": 2567092093, "lat": 40.667061, "lon": -73.9583945}, {"type": "node", "id": 2567092094, "lat": 40.6667234, "lon": -73.9566408}, {"type": "node", "id": 2567092146, "lat": 40.6673238, "lon": -73.9582996}, {"type": "node", "id": 2567092155, "lat": 40.6673953, "lon": -73.9586438}, {"type": "node", "id": 2567092157, "lat": 40.6674759, "lon": -73.9586147}, {"type": "node", "id": 2567902058, "lat": 40.6702652, "lon": -73.9507326, "tags": {"addr:housenumber": "531", "addr:postcode": "11216", "addr:street": "Eastern Parkway", "amenity": "money_transfer", "atm": "yes", "name": "Pay-o-matic", "office": "financial", "opening_hours": "Mo-Fr 08:00-20:00; Sa 08:00-19:00"}}, {"type": "node", "id": 2567902146, "lat": 40.6704697, "lon": -73.9505869, "tags": {"addr:housenumber": "822", "addr:postcode": "11216", "addr:street": "Nostrand Avenue", "amenity": "bar", "name": "Nostrand Station", "outdoor_seating": "street"}}, {"type": "node", "id": 2943984204, "lat": 40.6664097, "lon": -73.9506618, "tags": {"addr:housenumber": "889", "addr:postcode": "11225", "addr:street": "Nostrand Avenue", "amenity": "restaurant", "cuisine": "mediterranean", "diet:kosher": "yes", "name": "Alenbi Kitchen", "opening_hours": "Mo-Th 18:00-22:00; Sa 20:00-22:00; Su 17:00-22:00", "outdoor_seating": "sidewalk", "phone": "+1-347-529-3739", "website": "https://www.alenbikitchen.com"}}, {"type": "node", "id": 5488313319, "lat": 40.66635, "lon": -73.9593919}, {"type": "node", "id": 6217022250, "lat": 40.6686869, "lon": -73.9532357, "tags": {"addr:city": "Brooklyn", "addr:housenumber": "225", "addr:postcode": "11225", "addr:state": "NY", "addr:street": "Rogers Avenue", "alt_name": "Branch Office", "amenity": "bar", "cocktails": "yes", "drink:beer": "draught", "drink:liquor": "yes", "drink:wine": "yes", "name": "Branch Ofc.", "opening_hours": "Mo-Su 15:00-03:00", "operator": "Branch Ofc.", "outdoor_seating": "garden", "pinball": "yes", "toilets": "yes", "toilets:access": "customers", "website": "https://branchofc.squarespace.com"}}, {"type": "node", "id": 6981389312, "lat": 40.666327, "lon": -73.9593759}, {"type": "node", "id": 6981389318, "lat": 40.6662008, "lon": -73.9587795}, {"type": "node", "id": 6981389319, "lat": 40.6669711, "lon": -73.9591692}, {"type": "node", "id": 7153715108, "lat": 40.6671398, "lon": -73.9516876}, {"type": "node", "id": 7153715109, "lat": 40.6669478, "lon": -73.9517054}, {"type": "node", "id": 9291191721, "lat": 40.6682057, "lon": -73.9510178, "tags": {"addr:housenumber": "1183", "addr:postcode": "11225", "addr:street": "President Street", "amenity": "cafe", "contact:instagram": "@pstreetcafebk", "drink:coffee": "yes", "drink:espresso": "yes", "name": "P-Street Cafe", "opening_hours": "Mo-Fr 06:00-18:30; Sa 09:00-16:00", "phone": "+1-718-954-1150"}}, {"type": "node", "id": 9291191724, "lat": 40.6674407, "lon": -73.9508854, "tags": {"amenity": "restaurant", "atm": "yes", "cuisine": "caribbean", "name": "Vee's Restaurant", "phone": "+1-718-363-3826", "takeaway": "yes"}}, {"type": "node", "id": 9291191735, "lat": 40.6676042, "lon": -73.9508721, "tags": {"addr:city": "Brooklyn", "addr:housenumber": "890", "addr:postcode": "11225", "addr:street": "Nostrand Avenue", "name": "Brooklyn Community Board 9", "office": "government", "phone": "+1-718-778-9279", "website": "https://www.nyc.gov/site/brooklyncb9/index.page", "wikidata": "Q4179453", "wikipedia": "en:Brooklyn Community Board 9"}}, {"type": "node", "id": 9296198365, "lat": 40.6665044, "lon": -73.9527516}, {"type": "node", "id": 9296618930, "lat": 40.6666854, "lon": -73.9563624}, {"type": "node", "id": 9296618931, "lat": 40.667373, "lon": -73.9561065}, {"type": "node", "id": 9296618932, "lat": 40.6673568, "lon": -73.9557821}, {"type": "node", "id": 9296618933, "lat": 40.6671249, "lon": -73.9558017}, {"type": "node", "id": 9296618934, "lat": 40.6671258, "lon": -73.9558347}, {"type": "node", "id": 9296618935, "lat": 40.6670397, "lon": -73.9565234}, {"type": "node", "id": 9296618936, "lat": 40.665877, "lon": -73.9569516}, {"type": "node", "id": 9296618937, "lat": 40.6658349, "lon": -73.9570501}, {"type": "node", "id": 9296618938, "lat": 40.6665221, "lon": -73.9567248}, {"type": "node", "id": 9296618939, "lat": 40.6664575, "lon": -73.9518742}, {"type": "node", "id": 9296618940, "lat": 40.6669501, "lon": -73.9517477}, {"type": "node", "id": 9296618941, "lat": 40.6667887, "lon": -73.9518434}, {"type": "node", "id": 12194824929, "lat": 40.6680993, "lon": -73.9531281, "tags": {"addr:city": "Brooklyn", "addr:housenumber": "1134", "addr:postcode": "11225", "addr:state": "NY", "addr:street": "President Street", "amenity": "bar", "name": "Rodeo", "note": "Natural Wine And Cocktail Bar", "website": "https://www.rodeobrooklyn.com/"}}, {"type": "node", "id": 13296668953, "lat": 40.6670222, "lon": -73.9591509}, {"type": "way", "id": 1007695373, "nodes": [9296618930, 2567075696, 2567075703, 2567075749, 9296618934, 9296618933, 9296618932, 9296618931, 2567076272, 2567075793, 9296618930]}, {"type": "way", "id": 1007695374, "nodes": [2567092080, 2567092094, 9296618935, 2567092157, 2567092155, 2567092146, 2567092093, 2567092080]}, {"type": "way", "id": 1007695375, "nodes": [5488313319, 6981389319, 13296668953, 9296618938, 9296618936, 9296618937, 6981389318, 6981389312, 5488313319]}, {"type": "way", "id": 1007695376, "nodes": [9296198365, 2567052992, 2567052950, 2567052938, 9296618939, 9296618941, 9296618940, 7153715109, 7153715108, 2567053830, 2567052619, 2567053832, 2567053833, 2567053781, 2567053779, 357550827, 2567053417, 2567053223, 9296198365]}, {"type": "relation", "id": 13496980, "members": [{"type": "way", "ref": 1007695373, "role": "outer"}, {"type": "way", "ref": 1007695374, "role": "outer"}, {"type": "way", "ref": 1007695375, "role": "outer"}, {"type": "way", "ref": 1007695376, "role": "outer"}], "tags": {"amenity": "university", "education": "university", "name": "Medgar Evers College", "network": "CUNY", "operator": "The City University of New York", "phone": "+1-718-270-4900", "short_name": "MEC", "type": "multipolygon", "website": "https://www.mec.cuny.edu", "wikidata": "Q6805332", "wikipedia": "en:Medgar Evers College"}}]}