{"version": 0.6, "generator": "Overpass API 0.7.62.8 e802775f", "osm3s": {"timestamp_osm_base": "2025-12-01T15:42:45Z", "copyright": "The data included in this document is from www.openstreetmap.org. The data is made available under ODbL."}, "elements": [{"type": "node", "id": 1817606197, "lat": 40.619043, "lon": -74.0005081}, {"type": "node", "id": 1817770878, "lat": 40.6181356, "lon": -74.0014595}, {"type": "node", "id": 2557016108, "lat": 40.6191191, "lon": -74.001201}, {"type": "node", "id": 2557018673, "lat": 40.6190047, "lon": -74.0010797}, {"type": "node", "id": 2557018687, "lat": 40.6190149, "lon": -74.001028}, {"type": "node", "id": 2557018706, "lat": 40.6190283, "lon": -74.0011189}, {"type": "node", "id": 2557018708, "lat": 40.6190301, "lon": -74.0010533}, {"type": "node", "id": 2557018724, "lat": 40.6190538, "lon": -74.0010924}, {"type": "node", "id": 2557018749, "lat": 40.6190718, "lon": -74.0009691}, {"type": "node", "id": 2557018773, "lat": 40.6190945, "lon": -74.00116}, {"type": "node", "id": 2557018784, "lat": 40.6191046, "lon": -74.0011768}, {"type": "node", "id": 2557018788, "lat": 40.6191071, "lon": -74.0010278}, {"type": "node", "id": 2557018801, "lat": 40.6191194, "lon": -74.001015}, {"type": "node", "id": 2557018837, "lat": 40.6191406, "lon": -74.0012366}, {"type": "node", "id": 2557018890, "lat": 40.6192097, "lon": -74.001165}, {"type": "node", "id": 2557044268, "lat": 40.6184596, "lon": -74.0019956}, {"type": "node", "id": 2557684127, "lat": 40.6221305, "lon": -73.9961809}, {"type": "node", "id": 2715686319, "lat": 40.618364, "lon": -74.0012368}, {"type": "node", "id": 2715686323, "lat": 40.6186832, "lon": -74.0017723}, {"type": "node", "id": 2715686325, "lat": 40.6193726, "lon": -74.0010616}, {"type": "node", "id": 2715686327, "lat": 40.6194782, "lon": -74.0000562}, {"type": "node", "id": 2715686329, "lat": 40.619808, "lon": -74.0006074}, {"type": "node", "id": 4658196123, "lat": 40.6195755, "lon": -73.9987348}, {"type": "node", "id": 4658196124, "lat": 40.619164, "lon": -73.9980589}, {"type": "node", "id": 4658196125, "lat": 40.6187334, "lon": -73.9984981}, {"type": "node", "id": 4658196126, "lat": 40.6189842, "lon": -73.9989204}, {"type": "node", "id": 8548072681, "lat": 40.62212, "lon": -73.9961633}, {"type": "node", "id": 9089581813, "lat": 40.6188702, "lon": -73.9987284}, {"type": "node", "id": 9089589723, "lat": 40.619412, "lon": -73.9984698}, {"type": "node", "id": 9090054244, "lat": 40.6219803, "lon": -73.9963365}, {"type": "node", "id": 9090135968, "lat": 40.6215372, "lon": -73.9955973}, {"type": "node", "id": 9090135969, "lat": 40.6219661, "lon": -73.9951485}, {"type": "node", "id": 9090135971, "lat": 40.6223976, "lon": -73.9958667}, {"type": "node", "id": 9102519746, "lat": 40.6196454, "lon": -74.0007762, "tags": {"barrier": "gate"}}, {"type": "node", "id": 9102527827, "lat": 40.6190606, "lon": -74.0005372, "tags": {"access": "private", "barrier": "gate"}}, {"type": "node", "id": 9102527829, "lat": 40.619543, "lon": -74.0008826}, {"type": "node", "id": 9102527830, "lat": 40.6196368, "lon": -74.0007852}, {"type": "node", "id": 9102527835, "lat": 40.6195233, "lon": -74.0009044}, {"type": "node", "id": 9102527839, "lat": 40.6191166, "lon": -74.0006338}, {"type": "node", "id": 9102527842, "lat": 40.6191312, "lon": -74.0006588}, {"type": "node", "id": 9102527843, "lat": 40.6193004, "lon": -74.0009414}, {"type": "node", "id": 9102527846, "lat": 40.6192853, "lon": -74.0009143}, {"type": "node", "id": 9102527854, "lat": 40.6193071, "lon": -74.0009527}, {"type": "node", "id": 9102532555, "lat": 40.6191241, "lon": -74.0006465}, {"type": "node", "id": 9102532557, "lat": 40.6192928, "lon": -74.000929}, {"type": "node", "id": 9102532565, "lat": 40.6195334, "lon": -74.0008932, "tags": {"barrier": "gate"}}, {"type": "node", "id": 9140884429, "lat": 40.6182881, "lon": -74.0021253, "tags": {"addr:housenumber": "7321", "addr:street": "15th Avenue", "name": "Stars & Stripes Democratic", "office": "political_party"}}, {"type": "node", "id": 9143230736, "lat": 40.6200007, "lon": -73.9990214, "tags": {"addr:housenumber": "1533", "addr:street": "70th Street", "amenity": "restaurant", "cuisine": "pizza;peruvian;chicken", "name": "Ruben's", "phone": "+1-718-331-8821"}}, {"type": "node", "id": 9143230745, "lat": 40.6210094, "lon": -73.9982683, "tags": {"addr:housenumber": "6805", "addr:street": "New Utrecht Avenue", "amenity": "restaurant", "cuisine": "chinese", "name": "China King", "phone": "+1-718-256-1356"}}, {"type": "node", "id": 9143230746, "lat": 40.6209606, "lon": -73.9982988, "tags": {"addr:housenumber": "6807", "addr:street": "New Utrecht Avenue", "amenity": "cafe", "name": "Cafe Mocha", "outdoor_seating": "yes"}}, {"type": "node", "id": 9143230749, "lat": 40.6178746, "lon": -73.9989796, "tags": {"addr:housenumber": "7201", "addr:street": "16th Avenue", "amenity": "restaurant", "name": "Blue Agave", "phone": "+1-718-758-5822"}}, {"type": "node", "id": 9143230750, "lat": 40.6178594, "lon": -73.9995497, "tags": {"addr:housenumber": "7212", "addr:street": "New Utrecht Avenue", "amenity": "restaurant", "cuisine": "pizza", "name": "Mr. Phil's Pizzeria", "phone": "+1-718-234-4106"}}, {"type": "way", "id": 170585676, "nodes": [2715686329, 9102519746, 9102527830, 9102527829, 9102532565, 9102527835, 2715686325, 9102527854, 9102527843, 9102532557, 9102527846, 9102527842, 9102532555, 9102527839, 9102527827, 1817606197, 2715686327, 2715686329], "tags": {"amenity": "school", "name": "Public School 112"}}, {"type": "way", "id": 170609187, "nodes": [2557044268, 1817770878, 2715686319, 2715686323, 2557044268], "tags": {"amenity": "school", "name": "Our Lady of Guadalupe School"}}, {"type": "way", "id": 174023896, "nodes": [9090135969, 9090135971, 8548072681, 2557684127, 9090054244, 9090135968, 9090135969], "tags": {"alt_name": "Junior High School 227 Edward B. Shallow;Intermediate School 227", "amenity": "school", "name": "Edward B. Shallow Junior High School 227", "operator": "New York City Department of Education", "operator:short": "NYC Public Schools", "operator:type": "public", "operator:wikidata": "Q408230", "operator:wikipedia": "en:New York City Department of Education", "ref": "K227", "short_name": "J.H.S. 227", "website": "https://k227.echalksites.com/"}}, {"type": "way", "id": 249002311, "nodes": [2557018837, 2557018890, 2557018801, 2557018788, 2557018749, 2557018687, 2557018708, 2557018673, 2557018706, 2557018724, 2557018773, 2557018784, 2557016108, 2557018837], "tags": {"addr:housenumber": "7201", "addr:postcode": "11228", "addr:street": "15th Avenue", "building": "yes", "building:levels": "3", "denomination": "roman_catholic", "height": "11.7", "name": "Our Lady of Guadalupe Rectory", "nycdoitt:bin": "3158353", "office": "religion", "religion": "christian"}}, {"type": "way", "id": 471659048, "nodes": [4658196123, 9089589723, 4658196124, 4658196125, 9089581813, 4658196126, 4658196123], "tags": {"leisure": "park", "name": "Lieutenant Joseph Petrosino Park", "operator": "New York City Department of Parks and Recreation", "operator:short": "NYC Parks", "operator:type": "government", "operator:wikidata": "Q1894232", "ref": "B099", "website": "https://www.nycgovparks.org/parks/lt-joseph-petrosino-park", "wikidata": "Q18151177", "wikipedia": "en:Lieutenant Joseph Petrosino Park"}}]}