{"version": 0.6, "generator": "Overpass API 0.7.62.8 e802775f", "osm3s": {"timestamp_osm_base": "2025-12-01T17:40:41Z", "copyright": "The data included in this document is from www.openstreetmap.org. The data is made available under ODbL."}, "elements": [{"type": "node", "id": 2131791182, "lat": 40.769058, "lon": -73.9565904, "tags": {"addr:housenumber": "321", "addr:postcode": "10021", "addr:street": "East 73rd Street", "amenity": "restaurant", "catering": "yes", "contact:facebook": "https://www.facebook.com/bsrnewyork/", "cuisine": "czech;brunch", "delivery": "yes", "diet:fish": "yes", "diet:meat": "yes", "drink:beer": "yes", "drink:espresso": "yes", "drink:liquor": "yes", "drink:wine": "yes", "email": "bsrnewyork@gmail.com", "level": "0", "name": "Bohemian Spirit Restaurant", "opening_hours": "Mo 17:00-22:00; Tu-Fr 17:00-23:00; Sa 11:00-15:00, 17:00-23:00; Su 11:00-15:00, 17:00-22:00", "phone": "+1 212-861-1038", "reservation": "yes", "takeaway": "yes", "website": "https://bohemianspiritrestaurant.com/", "wheelchair": "yes"}}, {"type": "node", "id": 2629371828, "lat": 40.7686775, "lon": -73.9556375, "tags": {"addr:housenumber": "1361", "addr:postcode": "10021", "addr:street": "1st Avenue", "amenity": "pub", "check_date": "2024-09-01", "cocktails": "yes", "cuisine": "irish", "drink:beer": "yes", "drink:wine": "yes", "mapillary": "1050176735391038", "name": "Finnegan's Wake Pub", "opening_hours": "11:00-01:00", "outdoor_seating": "yes", "phone": "+1 212-737-3664", "theme": "irish", "website": "https://finneganswakepubnyc.com"}}, {"type": "node", "id": 2723681314, "lat": 40.7634515, "lon": -73.9533888}, {"type": "node", "id": 2723681421, "lat": 40.7642939, "lon": -73.9553918}, {"type": "node", "id": 2723681444, "lat": 40.764515, "lon": -73.9524874}, {"type": "node", "id": 2723681449, "lat": 40.7645699, "lon": -73.953371}, {"type": "node", "id": 2723681460, "lat": 40.7646243, "lon": -73.9527512}, {"type": "node", "id": 2723681462, "lat": 40.7646301, "lon": -73.9561894}, {"type": "node", "id": 2723681463, "lat": 40.7646327, "lon": -73.9535214}, {"type": "node", "id": 2723681464, "lat": 40.7646361, "lon": -73.9536338}, {"type": "node", "id": 2723681478, "lat": 40.7648093, "lon": -73.953198}, {"type": "node", "id": 2723681482, "lat": 40.7648764, "lon": -73.956012}, {"type": "node", "id": 2723681493, "lat": 40.7650482, "lon": -73.9564046}, {"type": "node", "id": 2723681504, "lat": 40.7650544, "lon": -73.9533404}, {"type": "node", "id": 2723681505, "lat": 40.7650584, "lon": -73.955263}, {"type": "node", "id": 2723681506, "lat": 40.7652765, "lon": -73.9562402}, {"type": "node", "id": 2723681591, "lat": 40.7654029, "lon": -73.9545964}, {"type": "node", "id": 2723681620, "lat": 40.7655331, "lon": -73.9549102}, {"type": "node", "id": 2723681669, "lat": 40.7657781, "lon": -73.9554867}, {"type": "node", "id": 2723681696, "lat": 40.7659767, "lon": -73.9566706}, {"type": "node", "id": 2723681712, "lat": 40.7662068, "lon": -73.9565026}, {"type": "node", "id": 2723697657, "lat": 40.7649928, "lon": -73.9531679}, {"type": "node", "id": 2723697672, "lat": 40.7654742, "lon": -73.95282}, {"type": "node", "id": 2723697680, "lat": 40.7656919, "lon": -73.9543697}, {"type": "node", "id": 2723749688, "lat": 40.7663762, "lon": -73.9599027, "tags": {"addr:housenumber": "1296", "addr:postcode": "10065", "addr:street": "2nd Avenue", "amenity": "cafe", "check_date": "2025-01-30", "cuisine": "mediterranean;health_food;juice", "name": "Gotham Green Cafe", "opening_hours": "Mo-Fr 06:00-20:00; Sa 06:00-19:00; Su 06:00-18:00", "outdoor_seating": "sidewalk"}}, {"type": "node", "id": 2723749690, "lat": 40.7664758, "lon": -73.9598292, "tags": {"addr:housenumber": "1304A", "addr:postcode": "10065", "addr:street": "2nd Avenue", "amenity": "restaurant", "catering": "yes", "cuisine": "italian;pizza", "drink:beer": "yes", "drink:espresso": "yes", "drink:wine": "yes", "name": "Donna Margherita", "opening_hours": "Mo-Su 12:00-22:30", "outdoor_seating": "sidewalk", "phone": "+1-212-772-1169", "takeaway": "yes"}}, {"type": "node", "id": 2723755307, "lat": 40.7691688, "lon": -73.957859, "tags": {"addr:housenumber": "1398", "addr:postcode": "10021", "addr:street": "2nd Avenue", "amenity": "restaurant", "check_date": "2023-10-26", "cocktails": "yes", "cuisine": "peruvian", "name": "Mission Ceviche", "outdoor_seating": "yes"}}, {"type": "node", "id": 2723782890, "lat": 40.771213, "lon": -73.9563888, "tags": {"addr:housenumber": "1454", "addr:postcode": "10021", "addr:street": "2nd Avenue", "amenity": "bar", "check_date": "2024-09-01", "cocktails": "yes", "contact:facebook": "https://www.facebook.com/thestumbleinn", "contact:instagram": "https://www.instagram.com/thestumbleinnnyc/", "cuisine": "american", "drink:beer": "draught;bottled", "email": "thestumbleinn@nycbestbars.com", "happy_hours": "12:00-19:00", "name": "Stumble Inn", "opening_hours": "11:30-04:00", "operator": "NYC Best Bars", "phone": "+1 212-650-0561", "website": "http://thestumbleinn.eatdrinkandbemerry.com/"}}, {"type": "node", "id": 2723783212, "lat": 40.770935, "lon": -73.9560829}, {"type": "node", "id": 2723783225, "lat": 40.77097, "lon": -73.9561646}, {"type": "node", "id": 2723783227, "lat": 40.770989, "lon": -73.9561505}, {"type": "node", "id": 2723783234, "lat": 40.7710479, "lon": -73.9561068}, {"type": "node", "id": 2723783236, "lat": 40.7710834, "lon": -73.955973}, {"type": "node", "id": 2723783237, "lat": 40.7711184, "lon": -73.9560546}, {"type": "node", "id": 2723785759, "lat": 40.7707302, "lon": -73.9571771, "tags": {"addr:housenumber": "1439", "addr:postcode": "10021", "addr:street": "2nd Avenue", "amenity": "restaurant", "check_date": "2024-09-01", "cocktails": "yes", "cuisine": "thai", "delivery": "yes", "drink:beer": "yes", "email": "info@thepnewyork.com", "facebook": "THEPNEWYORK", "instagram": "thepnewyork", "name": "THEP", "opening_hours": "Mo-Th 11:30-15:45, 17:00-22:30; Fr 11:30-15:45, 17:00-23:30; Sa 12:00-23:30; Su 12:00-22:30", "outdoor_seating": "yes", "phone": "+1 212-899-9995", "reservation": "yes", "takeaway": "yes", "twitter": "thepnewyork", "website": "https://thepnewyork.com/"}}, {"type": "node", "id": 2723789296, "lat": 40.7700896, "lon": -73.9576457, "tags": {"addr:housenumber": "1417", "addr:postcode": "10021", "addr:street": "2nd Avenue", "amenity": "restaurant", "check_date": "2024-03-13", "contact:facebook": "https://www.facebook.com/a.la.turka.nyc/", "contact:instagram": "https://instagram.com/alaturkarestaurant/", "cuisine": "turkish", "diet:vegetarian": "yes", "email": "info@alaturkany.com", "name": "A La Turka Restaurant", "opening_hours": "11:00-23:00", "phone": "+1 212-744-2424", "reservation": "yes", "website": "https://www.alaturkany.com"}}, {"type": "node", "id": 2723789385, "lat": 40.7702282, "lon": -73.9593847}, {"type": "node", "id": 2723789394, "lat": 40.7702411, "lon": -73.9594378}, {"type": "node", "id": 2723789399, "lat": 40.7702485, "lon": -73.9594324}, {"type": "node", "id": 2723789414, "lat": 40.7702912, "lon": -73.959556}, {"type": "node", "id": 2723789457, "lat": 40.7704129, "lon": -73.9592493}, {"type": "node", "id": 2723789483, "lat": 40.7704609, "lon": -73.9594317}, {"type": "node", "id": 2723789485, "lat": 40.7704665, "lon": -73.95921}, {"type": "node", "id": 2723789497, "lat": 40.7704975, "lon": -73.9592942}, {"type": "node", "id": 2723789507, "lat": 40.7704996, "lon": -73.9591858}, {"type": "node", "id": 2723789520, "lat": 40.7705333, "lon": -73.9593786}, {"type": "node", "id": 2723789562, "lat": 40.770695, "lon": -73.9591495}, {"type": "node", "id": 2723789563, "lat": 40.7706976, "lon": -73.9590407}, {"type": "node", "id": 2723789566, "lat": 40.7707285, "lon": -73.9591249}, {"type": "node", "id": 2723789568, "lat": 40.7707321, "lon": -73.9591222}, {"type": "node", "id": 2723793519, "lat": 40.7684059, "lon": -73.9592728}, {"type": "node", "id": 2723793523, "lat": 40.7684318, "lon": -73.9593345}, {"type": "node", "id": 2723793557, "lat": 40.7684149, "lon": -73.9592662}, {"type": "node", "id": 2723793565, "lat": 40.7684011, "lon": -73.9592764}, {"type": "node", "id": 2723793568, "lat": 40.768427, "lon": -73.959338}, {"type": "node", "id": 2723793573, "lat": 40.7684408, "lon": -73.9593279}, {"type": "node", "id": 2723793581, "lat": 40.7684356, "lon": -73.9592511}, {"type": "node", "id": 2723793595, "lat": 40.7685608, "lon": -73.9591594}, {"type": "node", "id": 2723793603, "lat": 40.7685954, "lon": -73.9596481}, {"type": "node", "id": 2723793608, "lat": 40.7685475, "lon": -73.9592497}, {"type": "node", "id": 2723793613, "lat": 40.7685662, "lon": -73.9596695}, {"type": "node", "id": 2723793639, "lat": 40.7685162, "lon": -73.959192}, {"type": "node", "id": 2723793681, "lat": 40.768634, "lon": -73.9591058}, {"type": "node", "id": 2723793695, "lat": 40.7686601, "lon": -73.959168}, {"type": "node", "id": 2723793708, "lat": 40.7686922, "lon": -73.9599694}, {"type": "node", "id": 2723793720, "lat": 40.7687222, "lon": -73.9595552}, {"type": "node", "id": 2723793732, "lat": 40.7687525, "lon": -73.959533}, {"type": "node", "id": 2723793742, "lat": 40.7687864, "lon": -73.9596136}, {"type": "node", "id": 2723793749, "lat": 40.7684713, "lon": -73.9592249}, {"type": "node", "id": 2723793790, "lat": 40.7688785, "lon": -73.959833}, {"type": "node", "id": 2723793805, "lat": 40.7689074, "lon": -73.9599017}, {"type": "node", "id": 2723793812, "lat": 40.7689557, "lon": -73.9598662}, {"type": "node", "id": 2723793814, "lat": 40.7689589, "lon": -73.9594872}, {"type": "node", "id": 2723793822, "lat": 40.7690241, "lon": -73.9600287}, {"type": "node", "id": 2723793824, "lat": 40.7690423, "lon": -73.9594261}, {"type": "node", "id": 2723793834, "lat": 40.7691222, "lon": -73.9599569}, {"type": "node", "id": 2723793863, "lat": 40.7692316, "lon": -73.9598768}, {"type": "node", "id": 2723793877, "lat": 40.7692701, "lon": -73.9598486}, {"type": "node", "id": 2997301176, "lat": 40.7652759, "lon": -73.9557813}, {"type": "node", "id": 2997301177, "lat": 40.7658484, "lon": -73.9564403}, {"type": "node", "id": 3448866514, "lat": 40.771073, "lon": -73.9593705, "tags": {"addr:housenumber": "1291", "addr:postcode": "10021", "addr:street": "3rd Avenue", "amenity": "pub", "check_date": "2024-06-16", "cocktails": "yes", "cuisine": "american;burger", "drink:beer": "yes", "drink:wine": "yes", "name": "J.G. Melon", "opening_hours": "Mo-We 11:30-03:00; Th-Sa 11:30-04:00; Su 11:30-01:00", "payment:cash": "only", "phone": "+1 212-744-0585", "toilets:wheelchair": "no", "website": "https://jgmelon-nyc.com", "wheelchair": "limited", "wikidata": "Q6104078", "wikipedia": "en:J.G. Melon"}}, {"type": "node", "id": 3792073193, "lat": 40.7711856, "lon": -73.9568688, "tags": {"addr:city": "New York", "addr:housenumber": "1449", "addr:postcode": "10021", "addr:state": "NY", "addr:street": "Second Avenue", "amenity": "cafe", "branch": "Pickup - 76th & Second", "brand": "Starbucks", "brand:wikidata": "Q37158", "check_date": "2024-09-01", "cuisine": "coffee_shop", "name": "Starbucks", "official_name": "Starbucks Coffee", "phone": "+1 212-472-0653", "ref": "15674", "takeaway": "yes", "website": "https://www.starbucks.com/store-locator/store/15674/pickup-76th-second-1449-second-avenue-new-york-ny-100212904-us"}}, {"type": "node", "id": 4470030390, "lat": 40.7704393, "lon": -73.9597626, "tags": {"addr:housenumber": "1271", "addr:postcode": "10021", "addr:street": "3rd Avenue", "amenity": "restaurant", "check_date": "2024-06-16", "cuisine": "diner", "delivery": "yes", "name": "EJ's Luncheonette", "opening_hours": "08:00-22:00", "phone": "+1 212-472-0600", "takeaway": "yes", "website": "https://www.ejsluncheonette.com/", "wikidata": "Q124060519"}}, {"type": "node", "id": 5266896777, "lat": 40.7667816, "lon": -73.9564416, "tags": {"addr:housenumber": "1302", "addr:street": "1st Avenue", "amenity": "cafe", "check_date": "2024-09-22", "name": "Coffee Inn", "opening_hours": "Mo-Fr 06:00-19:00; Sa,Su 06:00-18:00"}}, {"type": "node", "id": 5266897039, "lat": 40.7697735, "lon": -73.9578876, "tags": {"addr:housenumber": "1407", "addr:postcode": "10021", "addr:street": "2nd Avenue", "amenity": "restaurant", "check_date": "2024-09-01", "cocktails": "yes", "cuisine": "persian", "delivery": "yes", "drink:wine": "served", "email": "contact@persepolisnewyork.com", "name": "Persepolis", "opening_hours": "Mo-Th, Su 12:00-23:00; Fr, Sa 12:00-23:30", "phone": "+1 212-535-1100", "reservation": "yes", "website": "https://www.persepolisnewyork.com/"}}, {"type": "node", "id": 5463995361, "lat": 40.7690611, "lon": -73.9564812, "tags": {"addr:city": "New York", "addr:housenumber": "321", "addr:postcode": "10021", "addr:state": "NY", "addr:street": "East 73rd Street", "check_date": "2024-09-01", "consulate": "consulate_general", "contact:email": "newyork@embassy.mzv.cz", "contact:phone": "+1-646-422-3344", "country": "CZ", "diplomatic": "consulate", "name": "Consulate General of the Czech Republic", "name:cs": "Gener\u00e1ln\u00ed konzul\u00e1t \u010cesk\u00e9 republiky", "office": "diplomatic", "opening_hours": "Mo, Tu, Fr 09:30-12:30, Th 09:30-12:30, 14:00-17:00", "target": "US", "website": "https://mzv.gov.cz/consulate.newyork/en/"}}, {"type": "node", "id": 5748057621, "lat": 40.7701167, "lon": -73.9600332, "tags": {"addr:city": "New York", "addr:housenumber": "1265", "addr:postcode": "10021", "addr:state": "NY", "addr:street": "3rd Avenue", "amenity": "restaurant", "branch": "Upper East Side", "brand": "Dallas BBQ", "brand:wikidata": "Q122209839", "check_date": "2024-06-16", "cocktails": "yes", "cuisine": "barbecue", "delivery": "yes", "drink:beer": "draught;bottles", "name": "Dallas BBQ", "opening_hours": "Mo-Th, Su 11:30-23:00; Fr, Sa 11:30-24:00", "outdoor_seating": "yes", "phone": "+1 212-772-9393", "takeaway": "yes", "website": "https://www.dallasbbq.com/upper-east-side/"}}, {"type": "node", "id": 5978556694, "lat": 40.7706984, "lon": -73.9584885, "tags": {"addr:housenumber": "223", "addr:street": "East 74th Street", "amenity": "restaurant", "check_date": "2024-03-13", "level": "0", "name": "Sashimi Express II", "phone": "+1 929-323-5099", "wheelchair": "no"}}, {"type": "node", "id": 6237469173, "lat": 40.7698909, "lon": -73.9577946, "tags": {"addr:housenumber": "1411", "addr:postcode": "10021", "addr:street": "2nd Avenue", "addr:unit": "1", "amenity": "restaurant", "cocktails": "yes", "cuisine": "thai", "delivery": "yes", "drink:beer": "yes", "drink:liquor": "yes", "drink:wine": "yes", "name": "Up Thai", "opening_hours": "Mo-Th 11:30-22:15, Fr 11:30-23:15, Sa 12:00-23:15, Su 12:00-22:15", "payment:american_express": "yes", "payment:cash": "yes", "payment:discover_card": "yes", "payment:mastercard": "yes", "payment:visa": "yes", "phone": "+1-212-256-1199", "reservation": "yes", "seats": "70", "takeaway": "yes", "website": "http://www.upthainyc.com"}}, {"type": "node", "id": 6670244872, "lat": 40.7663291, "lon": -73.9599375, "tags": {"addr:housenumber": "1298", "addr:postcode": "10065", "addr:street": "2nd Avenue", "amenity": "cafe", "check_date": "2025-01-30", "cuisine": "coffee_shop;breakfast;sandwich", "drink:coffee": "yes", "drink:espresso": "yes", "drink:tea": "yes", "name": "Gotham Caf\u00e9", "outdoor_seating": "sidewalk"}}, {"type": "node", "id": 6704527437, "lat": 40.7708948, "lon": -73.9576006, "tags": {"addr:housenumber": "240", "addr:street": "East 75th Street", "amenity": "restaurant", "cuisine": "belgian", "drink:beer": "yes", "drink:wine": "yes", "email": "info@bcafe.com", "facebook": "BCafeNYC", "happy_hours": "Mo 17:00-22:00; Tu-Fr 17:00-19:00; Sa, Su 16:00-18:00", "instagram": "BCafeNYC", "name": "B. Cafe", "opening_hours": "Tu-Fr 17:00-23:00; Sa 10:00-23:00; Su 10:00-22:00; Mo 17:00-22:00", "outdoor_seating": "yes", "payment:american_express": "yes", "payment:mastercard": "yes", "payment:visa": "yes", "phone": "+1 212-249-3300", "reservation": "yes", "reservation:website": "https://www.opentable.com/b-cafe", "seats": "92", "website": "https://bcafe.com/"}}, {"type": "node", "id": 6704581665, "lat": 40.7692931, "lon": -73.9577451, "tags": {"addr:housenumber": "1402", "addr:street": "2nd Avenue", "amenity": "restaurant", "branch": "Uptown", "check_date": "2024-09-01", "cocktails": "yes", "cuisine": "mexican", "drink:beer": "served", "name": "La Esquina", "opening_hours": "Mo-Th, Su 11:00-22:00; Fr, Sa 11:00-23:00", "outdoor_seating": "yes", "phone": "+1 646-861-3356", "website": "https://esquinanyc.com/"}}, {"type": "node", "id": 7013001983, "lat": 40.7693428, "lon": -73.9581971, "tags": {"addr:housenumber": "1395", "addr:street": "2nd Avenue", "amenity": "restaurant", "branch": "Upper East Side", "cocktails": "yes", "contact:email": "ues@javelinatexmex.com", "cuisine": "tex-mex", "delivery": "yes", "happy_hours": "Mo-Fr 16:00-19:00", "name": "Javelina", "opening_hours": "Mo-Fr 16:00-22:00; Sa, Su 12:00-22:00", "phone": "+1 917-261-7011", "reservation": "yes", "website": "https://www.javelinatexmex.com/location/javelina-upper-east-side/", "wheelchair": "yes"}}, {"type": "node", "id": 7013006319, "lat": 40.769443, "lon": -73.958137, "tags": {"addr:housenumber": "1399", "addr:street": "2nd Avenue", "amenity": "cafe", "name": "Krav\u00e9 Cafe and Juice Bar"}}, {"type": "node", "id": 7089435597, "lat": 40.7700616, "lon": -73.9550189, "tags": {"addr:housenumber": "339", "addr:postcode": "10021", "addr:street": "E 75th street", "amenity": "restaurant", "check_date": "2024-01-29", "cuisine": "japanese", "delivery": "yes", "description": "Japanese restaurant based on 19th century with a wide variety of cocktails.", "dish": "ramen", "instagram": "https://www.instagram.com/nr_nyc/", "name": "NR", "opening_hours": "Mo-We 17:00-23:00; Th-Fr 17:00-24:00; Sa 12:00-24:00; Su 12:00-22:00; Jan 1,Jul 4,Dec 25 off", "reservation": "yes", "takeaway": "yes", "website": "http://nr-nyc.com/"}}, {"type": "node", "id": 7099017456, "lat": 40.7710341, "lon": -73.9619458, "tags": {"addr:housenumber": "1020", "addr:postcode": "10021", "addr:street": "Lexington Avenue", "amenity": "bar", "branch": "Lexington", "check_date": "2024-03-14", "cocktails": "yes", "contact:email": "melodyspianobar@gmail.com", "contact:instagram": "melodyspianobar", "drink:beer": "served", "drink:wine": "served", "level": "0", "name": "Melody's Piano Bar", "opening_hours": "Mo-Th 17:00-02:00; Fr, Sa 17:00-04:00", "phone": "+1 646-559-2808", "website": "https://www.melodyspianobar.com/", "wheelchair": "no"}}, {"type": "node", "id": 7477081378, "lat": 40.7108094, "lon": -74.0050856}, {"type": "node", "id": 7477081383, "lat": 40.7104325, "lon": -74.0055085}, {"type": "node", "id": 7477097785, "lat": 40.7107336, "lon": -74.0052148}, {"type": "node", "id": 8262309745, "lat": 40.7097692, "lon": -74.004862, "tags": {"barrier": "kerb", "kerb": "lowered", "tactile_paving": "yes", "wheelchair": "yes"}}, {"type": "node", "id": 8262309747, "lat": 40.7101995, "lon": -74.0043695, "tags": {"barrier": "kerb", "kerb": "lowered", "tactile_paving": "yes", "wheelchair": "yes"}}, {"type": "node", "id": 9015352692, "lat": 40.7696619, "lon": -73.9579847, "tags": {"addr:housenumber": "1403", "addr:street": "2nd Avenue", "amenity": "restaurant", "check_date": "2024-09-01", "cuisine": "sushi", "level": "0", "name": "Sushi Gama Restaurant & Lounge", "opening_hours": "Mo-Fr 12:00-23:00; Sa, Su 12:30-23:00", "outdoor_seating": "yes", "wheelchair": "yes"}}, {"type": "node", "id": 9015415485, "lat": 40.7692773, "lon": -73.9582547, "tags": {"addr:housenumber": "1393", "addr:street": "2nd Avenue", "addr:unit": "A", "amenity": "restaurant", "cuisine": "indian", "delivery": "yes", "level": "0", "name": "Rangoli", "outdoor_seating": "yes", "takeaway": "yes", "website": "http://rangoliNYC.com"}}, {"type": "node", "id": 9015420300, "lat": 40.7707712, "lon": -73.9601195, "tags": {"addr:housenumber": "1278", "addr:postcode": "10021", "addr:street": "3rd Avenue", "amenity": "restaurant", "branch": "Upper East Side", "cocktails": "yes", "cuisine": "seafood", "delivery": "yes", "happy_hours": "Mo-Fr 15:00-18:00", "level": "0", "name": "Seamore's", "opening_hours": "Mo-Th 12:00-22:00; Fr 12:00-23:00; Sa 11:00-23:00; Su 11:00-21:00", "opening_hours:kitchen": "Mo-Th 12:00-22:00; Fr 12:00-22:00; Sa 11:00-22:00; Su 11:00-21:00", "phone": "+1 212-597-9220", "reservation": "yes", "website": "https://www.seamores.com/location/ues/"}}, {"type": "node", "id": 9015420301, "lat": 40.7711935, "lon": -73.9593206, "tags": {"addr:housenumber": "1295", "addr:postcode": "10021", "addr:street": "3rd Avenue", "amenity": "restaurant", "check_date": "2023-12-12", "cuisine": "italian", "delivery": "yes", "drink:wine": "served", "email": "info@mezzalunanyc.com", "facebook": "mezzalunanyc", "instagram": "mezzalunanyc", "name": "Mezzaluna", "opening_hours": "12:00-22:00", "outdoor_seating": "yes", "phone": "+1 212-535-9600", "start_date": "1984", "takeaway": "yes", "website": "https://mezzalunanyc.com"}}, {"type": "node", "id": 9098890025, "lat": 40.768414, "lon": -73.9588952, "tags": {"addr:housenumber": "1353", "addr:street": "2nd Avenue", "amenity": "cafe", "brand": "Matto Espresso", "brand:wikidata": "Q122209496", "check_date": "2025-07-22", "check_date:opening_hours": "2025-07-22", "cuisine": "coffee_shop", "name": "Matto Espresso", "opening_hours:signed": "no", "takeaway": "yes"}}, {"type": "node", "id": 9098921280, "lat": 40.7681673, "lon": -73.9585972, "tags": {"addr:housenumber": "1382", "addr:postcode": "10021", "addr:street": "2nd Avenue", "amenity": "restaurant", "branch": "Upper East Side", "check_date": "2023-11-29", "contact:email": "info@twowheels.nyc", "contact:facebook": "twowheelsnyc", "contact:instagram": "twowheelsnyc", "cuisine": "vietnamese", "delivery": "yes", "level": "0", "name": "Two Wheels", "opening_hours": "11:30-21:30", "phone": "+1 646-360-2308", "takeaway": "yes", "toilets": "no", "website": "https://twowheels.nyc/"}}, {"type": "node", "id": 9173102299, "lat": 40.7711285, "lon": -73.9564384, "tags": {"addr:housenumber": "1452", "addr:street": "2nd Avenue", "amenity": "bar", "check_date": "2024-09-01", "cocktails": "yes", "drink:beer": "yes", "drink:wine": "yes", "happy_hours": "13:00-19:00", "name": "Iggy's", "outdoor_seating": "yes"}}, {"type": "node", "id": 9241590661, "lat": 40.7672671, "lon": -73.9592472, "tags": {"addr:housenumber": "1324", "addr:street": "2nd Avenue", "amenity": "cafe", "check_date": "2024-02-26", "diet:vegetarian": "yes", "name": "Vivi Bubble Tea", "opening_hours": "11:00-21:00", "phone": "+1-646-858-0710"}}, {"type": "node", "id": 9241606465, "lat": 40.7680925, "lon": -73.9591451, "tags": {"addr:housenumber": "1347", "addr:postcode": "10021", "addr:street": "2nd Avenue", "amenity": "restaurant", "check_date": "2023-11-29", "cuisine": "italian", "email": "reservation@ildivo.restaurant", "name": "Il Divo", "outdoor_seating": "yes", "phone": "+1 212-380-8164", "reservation": "yes", "website": "https://ildivo.restaurant/"}}, {"type": "node", "id": 9241607677, "lat": 40.7676579, "lon": -73.9594376, "tags": {"addr:housenumber": "1329", "addr:street": "2nd Avenue", "amenity": "restaurant", "check_date": "2024-06-11", "cuisine": "sushi", "delivery": "yes", "fax": "+1 212-439-1675", "level": "0", "name": "Ko Sushi", "opening_hours": "11:00-22:00", "phone": "+1 212-439-1678", "website": "http://www.newkosushi.com", "wheelchair": "yes"}}, {"type": "node", "id": 9241632888, "lat": 40.7673188, "lon": -73.9592266, "tags": {"addr:housenumber": "1326", "addr:postcode": "10021", "addr:street": "2nd Avenue", "amenity": "restaurant", "diet:vegan": "no", "diet:vegetarian": "yes", "name": "Beach Cafe", "outdoor_seating": "sidewalk", "phone": "+1 212-988-7299", "website": "https://www.thebeachcafe.com/"}}, {"type": "node", "id": 9321723922, "lat": 40.7671717, "lon": -73.9593112, "tags": {"addr:housenumber": "1322", "addr:street": "2nd Avenue", "amenity": "cafe", "check_date": "2024-02-26", "diet:vegan": "yes", "diet:vegetarian": "yes", "name": "le R\u00e9veil", "opening_hours": "Mo-Fr 07:00-20:00; Sa,Su 08:00-20:00"}}, {"type": "node", "id": 9321922522, "lat": 40.770009, "lon": -73.957712, "tags": {"addr:housenumber": "1415", "addr:street": "2nd Avenue", "amenity": "restaurant", "contact:website": "http://www.bigoivenezia.com/", "cuisine": "italian", "delivery": "yes", "dish": "pasta", "dog": "no", "name": "Bigoi Venezia", "opening_hours": "11:00-22:00", "phone": "+1 917-262-0680", "takeaway": "yes", "website": "http://bigovenezia.com", "wheelchair": "limited", "wheelchair:description": "Ring for service ramp"}}, {"type": "node", "id": 9692134308, "lat": 40.7681319, "lon": -73.9611242, "tags": {"addr:city": "New York", "addr:housenumber": "202", "addr:postcode": "10021", "addr:state": "NY", "addr:street": "East 70th Street", "amenity": "restaurant", "branch": "Upper East Side", "check_date": "2024-06-19", "cuisine": "mexican", "name": "Tacos del Este Superior", "opening_hours": "Mo-Su 11:00-23:00", "outdoor_seating": "yes", "phone": "+1-646-726-4302", "website": "https://www.tacombi.com/"}}, {"type": "node", "id": 9772198978, "lat": 40.7678322, "lon": -73.9593373, "tags": {"addr:housenumber": "1331", "addr:street": "2nd Avenue", "amenity": "restaurant", "check_date": "2023-11-29", "cuisine": "italian", "name": "Bottega", "opening_hours": "Mo-Su 12:00-23:00", "phone": "+1 212-288-5282", "website": "https://www.bottegany.com"}}, {"type": "node", "id": 9772198979, "lat": 40.7679733, "lon": -73.9592059, "tags": {"addr:housenumber": "1343", "addr:street": "2nd Avenue", "amenity": "restaurant", "check_date": "2023-11-29", "cuisine": "french", "email": "info@jeanclaudenyc.com", "name": "Jean Claude II", "opening_hours": "Mo-Su 11:00-21:30", "phone": "+1 212-249-3400", "website": "http://www.jeanclaudenyc.com"}}, {"type": "node", "id": 10134167527, "lat": 40.7669856, "lon": -73.9568159, "tags": {"addr:city": "New York", "addr:housenumber": "1317", "addr:postcode": "10021", "addr:state": "NY", "addr:street": "1st Avenue", "amenity": "restaurant", "check_date": "2024-09-22", "cuisine": "american", "name": "Cafe Luka", "phone": "+1-212-585-2205", "website": "https://www.cafelukanyc.com/"}}, {"type": "node", "id": 10755165342, "lat": 40.7690808, "lon": -73.9593979}, {"type": "node", "id": 10766665245, "lat": 40.7660026, "lon": -73.9541594}, {"type": "node", "id": 10766665246, "lat": 40.7659606, "lon": -73.954054}, {"type": "node", "id": 10766665247, "lat": 40.7659901, "lon": -73.9540251}, {"type": "node", "id": 10766665248, "lat": 40.765898, "lon": -73.9537896}, {"type": "node", "id": 10766665249, "lat": 40.7657718, "lon": -73.9538622}, {"type": "node", "id": 10766665250, "lat": 40.7656728, "lon": -73.953652}, {"type": "node", "id": 10766665251, "lat": 40.7657939, "lon": -73.9535608}, {"type": "node", "id": 10766665252, "lat": 40.7655401, "lon": -73.9529575}, {"type": "node", "id": 10766665253, "lat": 40.7645933, "lon": -73.9535341}, {"type": "node", "id": 10766665254, "lat": 40.7637121, "lon": -73.9540456}, {"type": "node", "id": 10766665255, "lat": 40.7640452, "lon": -73.9547853}, {"type": "node", "id": 10766665256, "lat": 40.7656128, "lon": -73.9566134}, {"type": "node", "id": 10766665257, "lat": 40.7658858, "lon": -73.9565076}, {"type": "node", "id": 10766665260, "lat": 40.7649321, "lon": -73.9553899}, {"type": "node", "id": 10766665261, "lat": 40.7102216, "lon": -74.0043825}, {"type": "node", "id": 10766665263, "lat": 40.7104075, "lon": -74.0055539}, {"type": "node", "id": 10982357762, "lat": 40.7669203, "lon": -73.9568853, "tags": {"addr:housenumber": "1315", "addr:street": "1st Avenue", "amenity": "restaurant", "check_date": "2024-09-22", "name": "Texas Rotisserie Grill & BBQ", "phone": "+1 212-396-0700"}}, {"type": "node", "id": 10982600247, "lat": 40.7687464, "lon": -73.9550642, "tags": {"addr:housenumber": "1378", "addr:postcode": "10021", "addr:street": "1st Avenue", "amenity": "restaurant", "contact:facebook": "bombaychowk", "contact:instagram": "bombaychowk", "cuisine": "indian", "delivery": "yes", "diet:gluten_free": "yes", "diet:halal": "yes", "diet:vegan": "yes", "diet:vegetarian": "yes", "drink:beer": "yes", "level": "0", "name": "Bombay Chowk", "opening_hours": "Mo-Su 11:30-15:30, 17:00-22:30", "payment:american_express": "yes", "payment:cash": "yes", "payment:mastercard": "yes", "payment:visa": "yes", "phone": "+1-212-249-4111", "reservation": "yes", "takeaway": "yes", "website": "https://www.bombaychowk.com", "wheelchair": "yes"}}, {"type": "node", "id": 10982600248, "lat": 40.7685162, "lon": -73.9552447, "tags": {"addr:housenumber": "1370", "addr:postcode": "10021", "addr:street": "1st Avenue", "amenity": "cafe", "check_date": "2024-09-01", "cuisine": "bagel", "delivery": "yes", "level": "0", "name": "B&B Bagels", "opening_hours": "Mo-Fr 06:00-18:00; Sa, Su 06:00-17:00", "outdoor_seating": "yes", "phone": "+1 917-262-0878", "takeaway": "yes", "wheelchair": "yes"}}, {"type": "node", "id": 10982600249, "lat": 40.7687965, "lon": -73.9554931, "tags": {"addr:housenumber": "1365", "addr:postcode": "10021", "addr:street": "1st Avenue", "amenity": "restaurant", "check_date": "2024-09-01", "contact:email": "mexiterraneangrill@aol.com", "contact:instagram": "mexiterraneangrill", "cuisine": "mediterranean;mexican", "delivery": "yes", "diet:non-vegetarian": "yes", "diet:vegan": "yes", "diet:vegetarian": "yes", "level": "0", "name": "Mexiterranean Grill", "opening_hours": "10:00-22:00", "phone": "+1 646-609-6400", "takeaway": "yes", "website": "https://www.mexiterraneangrill.com/"}}, {"type": "node", "id": 10982822000, "lat": 40.7706469, "lon": -73.9572778, "tags": {"addr:housenumber": "1435", "addr:postcode": "10021", "addr:street": "2nd Avenue", "amenity": "restaurant", "check_date": "2025-07-22", "check_date:opening_hours": "2025-07-22", "contact:instagram": "tabata_2nd", "cuisine": "japanese", "level": "0", "name": "Tabata Ramen & Yakitori Bar", "opening_hours": "Mo-Su 11:30-22:00", "phone": "+1 646-833-7977", "reservation": "yes", "takeaway": "yes", "website": "https://www.tabatanyc.com/", "wheelchair": "yes"}}, {"type": "node", "id": 10991141052, "lat": 40.7684295, "lon": -73.9550644, "tags": {"addr:housenumber": "401", "addr:postcode": "10021", "addr:street": "East 73rd Street", "amenity": "restaurant", "check_date": "2024-09-01", "cuisine": "sushi", "delivery": "yes", "level": "0", "name": "Sasabune", "opening_hours": "Tu-Fr 12:00-14:00, 17:30-21:30; Sa-Mo17:30-21:30", "phone": "+1 212-249-8583", "reservation": "yes", "takeaway": "yes", "wheelchair": "limited"}}, {"type": "node", "id": 10991141054, "lat": 40.7681351, "lon": -73.9549338, "tags": {"addr:housenumber": "406", "addr:street": "East 73rd Street", "amenity": "restaurant", "branch": "Manhattan", "check_date": "2024-09-01", "contact:email": "admin@odahouse.com", "cuisine": "georgian", "delivery": "yes", "diet:vegan": "yes", "diet:vegetarian": "yes", "name": "Oda House", "opening_hours": "Mo-Th 16:00-22:00; Fr 11:00-23:00; Sa, Su 11:00-22:00", "outdoor_seating": "yes", "phone": "+1 646-998-5152", "reservation": "yes", "reservation:website": "https://www.tbdine.com/book/restaurant/oda-house-upper-east-", "takeaway": "yes", "website": "https://odahouse.com/"}}, {"type": "node", "id": 11076202065, "lat": 40.7693011, "lon": -73.9582398, "tags": {"addr:housenumber": "1393", "addr:street": "2nd Aveunue", "addr:unit": "B", "amenity": "restaurant", "cuisine": "japanese", "level": "0", "name": "Harajuki Ramen"}}, {"type": "node", "id": 11347850238, "lat": 40.7101847, "lon": -74.0043758}, {"type": "node", "id": 11347850239, "lat": 40.7108418, "lon": -74.0050229}, {"type": "node", "id": 11347850240, "lat": 40.7097808, "lon": -74.0048334}, {"type": "node", "id": 11347850241, "lat": 40.7097809, "lon": -74.0048942}, {"type": "node", "id": 11347850242, "lat": 40.7097692, "lon": -74.0048675}, {"type": "node", "id": 11347850243, "lat": 40.7097724, "lon": -74.0048798}, {"type": "node", "id": 11347850244, "lat": 40.7097725, "lon": -74.0048451}, {"type": "node", "id": 11347850245, "lat": 40.7097692, "lon": -74.0048552}, {"type": "node", "id": 11347850246, "lat": 40.7102042, "lon": -74.0043693}, {"type": "node", "id": 11347850247, "lat": 40.7101929, "lon": -74.0043696}, {"type": "node", "id": 11347850248, "lat": 40.7102134, "lon": -74.004375}, {"type": "node", "id": 11347850279, "lat": 40.7103597, "lon": -74.0055036, "tags": {"barrier": "kerb", "kerb": "lowered", "tactile_paving": "yes", "wheelchair": "yes"}}, {"type": "node", "id": 11347850309, "lat": 40.7108185, "lon": -74.0050681}, {"type": "node", "id": 11350133524, "lat": 40.7098385, "lon": -74.004768}, {"type": "node", "id": 11405963743, "lat": 40.7663194, "lon": -73.9562871, "tags": {"amenity": "cafe", "check_date": "2024-02-26", "cuisine": "coffee_shop", "name": "Matto", "name:en": "Matto"}}, {"type": "node", "id": 11405963746, "lat": 40.7662071, "lon": -73.9560456, "tags": {"addr:housenumber": "411", "addr:street": "East 70th Street", "amenity": "restaurant", "catering": "yes", "cuisine": "sushi;japanese", "delivery": "yes", "diet:non-vegetarian": "yes", "diet:vegan": "yes", "diet:vegetarian": "yes", "drink:beer": "yes", "level": "0", "name": "Matsu", "opening_hours": "Mo-Fr 11:00-22:00; Sa-Su 11:30-22:00", "outdoor_seating": "sidewalk", "phone": "+1-212-744-5454", "takeaway": "yes", "website": "https://sushibymatsu.com", "wheelchair": "yes"}}, {"type": "node", "id": 11405963748, "lat": 40.7661341, "lon": -73.9558705, "tags": {"addr:housenumber": "413", "addr:street": "East 70th Street", "amenity": "bar", "check_date": "2024-02-26", "level": "0", "name": "The Hunterian", "wheelchair": "yes"}}, {"type": "node", "id": 11419656042, "lat": 40.7658356, "lon": -73.9556231, "tags": {"amenity": "parking_entrance"}}, {"type": "node", "id": 11429546305, "lat": 40.7688938, "lon": -73.9549878, "tags": {"addr:housenumber": "1382", "addr:street": "1st Avenue", "amenity": "restaurant", "check_date": "2024-03-23", "cuisine": "italian", "level": "0", "name": "Campagnola Restaurant", "wheelchair": "yes"}}, {"type": "node", "id": 11528829823, "lat": 40.7681353, "lon": -73.9563311, "tags": {"addr:housenumber": "355", "addr:street": "East 72nd Street", "check_date": "2024-01-18", "level": "0", "name": "NextStopNY Real Estate", "office": "estate_agent", "wheelchair": "yes"}}, {"type": "node", "id": 11665558672, "lat": 40.766576, "lon": -73.9573829, "tags": {"addr:housenumber": "340", "addr:street": "East 70th Street", "amenity": "cafe", "check_date": "2024-09-01", "cuisine": "coffee_shop", "level": "0", "name": "787 Coffee", "outdoor_seating": "yes", "phone": "+1 917-265-8191", "website": "https://787coffee.com", "wheelchair": "yes"}}, {"type": "node", "id": 11665562923, "lat": 40.7670128, "lon": -73.958463, "tags": {"addr:housenumber": "314", "addr:street": "East 70th Street", "amenity": "restaurant", "bar": "yes", "cuisine": "chinese", "level": "0", "name": "Hui Restaurant & Bar", "phone": "+1-646-869-0396", "wheelchair": "limited"}}, {"type": "node", "id": 11715190679, "lat": 40.7662604, "lon": -73.9573285, "tags": {"addr:housenumber": "1291", "addr:street": "1st Avenue", "amenity": "restaurant", "check_date": "2024-09-01", "level": "0", "name": "The Little Beet", "wheelchair": "yes"}}, {"type": "node", "id": 11731444670, "lat": 40.7707505, "lon": -73.9617952, "tags": {"addr:housenumber": "1007", "addr:street": "Lexington Avenue", "amenity": "restaurant", "check_date": "2024-03-14", "cuisine": "regional", "diet:chicken": "yes", "diet:fish": "yes", "diet:meat": "yes", "level": "0", "name": "Maria Mulata Colombian Restaurant & Bar", "wheelchair": "yes"}}, {"type": "node", "id": 11761723978, "lat": 40.7686535, "lon": -73.955143, "tags": {"addr:housenumber": "1374", "addr:street": "1st Avenue", "amenity": "restaurant", "check_date": "2024-09-22", "cuisine": "italian", "diet:non-vegetarian": "yes", "diet:vegetarian": "yes", "level": "0", "name": "Delizia", "opening_hours": "Mo-Sa 11:00-22:00; Su 12:00-22:00", "payment:cash": "yes", "payment:mastercard": "yes", "payment:visa": "yes", "phone": "+1 212-517-8888", "wheelchair": "yes"}}, {"type": "node", "id": 12150569640, "lat": 40.7663014, "lon": -73.9573166, "tags": {"addr:housenumber": "1293", "addr:street": "1st Avenue", "amenity": "cafe", "check_date": "2024-09-01", "cuisine": "bubble_tea", "level": "0", "name": "Hawa", "wheelchair": "yes"}}, {"type": "node", "id": 12150720897, "lat": 40.7681889, "lon": -73.9554974, "tags": {"addr:housenumber": "1354", "addr:street": "1st Avenue", "amenity": "restaurant", "check_date": "2024-09-01", "cuisine": "italian", "diet:non-vegetarian": "yes", "diet:vegetarian": "yes", "level": "0", "name": "Nino's Ristorante", "opening_hours": "Mo-Fr 12:00-20:45; Sa-Su 15:30-21:00", "phone": "+1 212-988-0002", "wheelchair": "limited"}}, {"type": "node", "id": 13060759052, "lat": 40.7684562, "lon": -73.959236}, {"type": "node", "id": 13060759087, "lat": 40.7688513, "lon": -73.9598529}, {"type": "node", "id": 13060759088, "lat": 40.7687882, "lon": -73.9598992}, {"type": "node", "id": 13060759091, "lat": 40.7687211, "lon": -73.9599483}, {"type": "node", "id": 13060780537, "lat": 40.7690489, "lon": -73.9600106}, {"type": "node", "id": 13060780538, "lat": 40.769096, "lon": -73.9599761}, {"type": "node", "id": 13060780539, "lat": 40.7689067, "lon": -73.9595255}, {"type": "node", "id": 13060780540, "lat": 40.7685867, "lon": -73.959221}, {"type": "way", "id": 266875353, "nodes": [2723783212, 2723783225, 2723783227, 2723783234, 2723783237, 2723783236, 2723783212], "tags": {"addr:housenumber": "330", "addr:postcode": "10021", "addr:street": "East 76th Street", "amenity": "restaurant", "building": "yes", "height": "14.8", "name": "The East Wing", "nycdoitt:bin": "1045155"}}, {"type": "way", "id": 266877325, "nodes": [2723789385, 2723789399, 2723789394, 2723789414, 2723789483, 2723789520, 2723789497, 2723789562, 2723789566, 2723789568, 2723789563, 2723789507, 2723789485, 2723789457, 2723789385], "tags": {"amenity": "school", "building": "yes", "ele": "16", "gnis:feature_id": "2083869", "height": "31.5", "name": "Buckley School", "nycdoitt:bin": "1043987", "wikidata": "Q4983369"}}, {"type": "way", "id": 266877916, "nodes": [2723793565, 2723793568, 2723793523, 2723793573, 2723793608, 13060780540, 2723793695, 2723793681, 2723793595, 2723793639, 2723793749, 13060759052, 2723793581, 2723793557, 2723793519, 2723793565], "tags": {"addr:housenumber": "255", "addr:postcode": "10021", "addr:street": "East 71st Street", "building": "yes", "height": "17.5", "nycdoitt:bin": "1043943"}}, {"type": "way", "id": 1156137374, "nodes": [2723793877, 2723793863, 2723793834, 13060780538, 13060780537, 2723793822, 2723793812, 2723793805, 2723793790, 13060759087, 13060759088, 13060759091, 2723793708, 2723793613, 2723793603, 2723793720, 2723793732, 2723793742, 13060780539, 2723793814, 2723793824, 10755165342, 2723793877]}, {"type": "way", "id": 1157729509, "nodes": [10766665245, 10766665246, 10766665247, 10766665248, 10766665249, 10766665250, 10766665251, 10766665252, 2723697672, 2723697657, 2723681504, 2723681464, 10766665253, 2723681463, 2723681449, 2723681478, 2723681460, 2723681444, 2723681314, 10766665254, 10766665255, 2723681421, 2723681462, 2723681482, 2723681493, 2723681506, 10766665260, 2723681505, 2997301176, 10766665256, 2997301177, 10766665257, 2723681696, 2723681712, 11419656042, 2723681669, 2723681620, 2723681591, 2723697680, 10766665245], "tags": {"addr:city": "New York", "addr:housenumber": "1300", "addr:postcode": "10021", "addr:state": "NY", "addr:street": "York Avenue", "amenity": "university", "check_date": "2024-08-06", "name": "Weill Medical College of Cornell University", "website": "https://medicine.weill.cornell.edu/about-us/contact-us/maps-directions"}}, {"type": "way", "id": 1157729510, "nodes": [11347850239, 10766665261, 11347850248, 11347850246, 8262309747, 11347850247, 11347850238, 11350133524, 11347850240, 11347850244, 11347850245, 8262309745, 11347850242, 11347850243, 11347850241, 11347850279, 10766665263, 7477081383, 7477097785, 7477081378, 11347850309, 11347850239], "tags": {"addr:city": "New York", "addr:housenumber": "1300", "addr:postcode": "10021", "addr:state": "NY", "addr:street": "York Avenue", "amenity": "university", "name": "Weill Medical College of Cornell University", "website": "https://medicine.weill.cornell.edu/about-us/contact-us/maps-directions"}}, {"type": "relation", "id": 15652630, "members": [{"type": "way", "ref": 1157729510, "role": "outer"}, {"type": "way", "ref": 1157729509, "role": "outer"}], "tags": {"amenity": "university", "name": "Weill Medical College of Cornell University", "short_name": "WCM", "type": "multipolygon", "website": "https://weill.cornell.edu/", "wikidata": "Q3567094", "wikipedia": "en:Weill Cornell Medicine"}}, {"type": "relation", "id": 19444640, "members": [{"type": "way", "ref": 1156137374, "role": "outer"}, {"type": "way", "ref": 266877916, "role": "outer"}], "tags": {"amenity": "college", "name": "Marymount Manhattan College", "phone": "+1-212-517-0400", "type": "multipolygon", "website": "https://www.mmm.edu", "wikidata": "Q3296302"}}]}