{"version": 0.6, "generator": "Overpass API 0.7.62.8 e802775f", "osm3s": {"timestamp_osm_base": "2025-12-01T16:54:30Z", "copyright": "The data included in this document is from www.openstreetmap.org. The data is made available under ODbL."}, "elements": [{"type": "node", "id": 484078905, "lat": 40.7120257, "lon": -73.951117, "tags": {"addr:city": "Brooklyn", "addr:housenumber": "388", "addr:postcode": "11211", "addr:state": "NY", "addr:street": "Union Avenue", "amenity": "bar", "branch": "Brooklyn", "check_date": "2024-06-09", "drink:beer": "yes", "happy_hours": "Mo-Th 16:00-19:00; Fr 14:00-19:00", "internet_access": "wlan", "internet_access:fee": "no", "leisure": "amusement_arcade", "name": "Barcade", "opening_hours": "Mo-Th 16:00-04:00; Fr 14:00-04:00; Sa-Su 12:00-04:00", "payment:credit_cards": "yes", "payment:debit_cards": "yes", "phone": "+1 718-302-6464", "toilets": "yes", "toilets:unisex": "no", "website": "https://barcadebrooklyn.com", "wheelchair": "limited", "wikidata": "Q4859813"}}, {"type": "node", "id": 553717756, "lat": 40.7141848, "lon": -73.9517879}, {"type": "node", "id": 621890756, "lat": 40.7141815, "lon": -73.9525882}, {"type": "node", "id": 621890759, "lat": 40.7147932, "lon": -73.9518966}, {"type": "node", "id": 622200245, "lat": 40.7159629, "lon": -73.9514702}, {"type": "node", "id": 622200246, "lat": 40.7156951, "lon": -73.9518016}, {"type": "node", "id": 622200247, "lat": 40.7159217, "lon": -73.95183}, {"type": "node", "id": 1999231230, "lat": 40.7117855, "lon": -73.9514399, "tags": {"addr:housenumber": "379", "addr:postcode": "11211", "addr:street": "Union Avenue", "alt_name": "The West Cafe", "amenity": "cafe", "bar": "yes", "cocktails": "yes", "cuisine": "sandwich", "drink:beer": "draught", "drink:coffee": "yes", "drink:espresso": "yes", "drink:liquor": "yes", "drink:wine": "yes", "happy_hours": "Mo-Su 13:00-20:00", "indoor_seating": "yes", "name": "The West", "outdoor_seating": "yes", "website": "http://thewestbrooklyn.com/"}}, {"type": "node", "id": 1999231233, "lat": 40.7113992, "lon": -73.9510101, "tags": {"addr:housenumber": "366", "addr:postcode": "11211", "addr:street": "Union Avenue", "amenity": "restaurant", "cuisine": "mexican", "name": "Limosneros", "phone": "+1 934-867-9358", "website": "https://limosnerosbk.com"}}, {"type": "node", "id": 2391817471, "lat": 40.7139182, "lon": -73.9495566, "tags": {"addr:city": "Brooklyn", "addr:housenumber": "571", "addr:postcode": "11211", "addr:state": "NY", "addr:street": "Lorimer Street", "amenity": "restaurant", "cuisine": "mexican", "name": "Zona Rosa", "website": "http://www.zonarosabrooklyn.com/"}}, {"type": "node", "id": 2465884892, "lat": 40.7150021, "lon": -73.9516171, "tags": {"addr:housenumber": "484", "addr:postcode": "11211", "addr:street": "Union Avenue", "amenity": "bar", "check_date": "2022-05-21", "cocktails": "yes", "drink:beer": "yes", "drink:wine": "yes", "email": "info@union-pool.com", "name": "Union Pool", "opening_hours": "Mo-Fr 17:00-28:00; Sa, Su 14:00-28:00", "outdoor_seating": "yes", "reservation": "no", "website": "https://www.union-pool.com"}}, {"type": "node", "id": 2838720763, "lat": 40.7126586, "lon": -73.9476185, "tags": {"addr:housenumber": "176", "addr:postcode": "11211", "addr:street": "Ainslie Street", "amenity": "restaurant", "diet:vegan": "yes", "name": "Haymaker's Corner Store", "opening_hours": "Mo-Su 09:00-21:00"}}, {"type": "node", "id": 2838720789, "lat": 40.712008, "lon": -73.9489067, "tags": {"addr:housenumber": "502", "addr:postcode": "11211", "addr:street": "Lorimer Street", "alt_name": "Campbell Cheese & Grocery", "amenity": "cafe", "cuisine": "breakfast;sandwich;pastry", "drink:coffee": "yes", "drink:espresso": "yes", "drink:tea": "yes", "name": "Campbell & Co.", "opening_hours": "Mo-Th 08:00-17:00, Fr-Sa 08:00-18:00, Su 08:00-17:00", "phone": "+1-718-387-2267", "shop": "deli", "website": "https://campbellandco.nyc"}}, {"type": "node", "id": 2838720790, "lat": 40.712518, "lon": -73.9489879, "tags": {"addr:housenumber": "524", "addr:postcode": "11211", "addr:street": "Lorimer Street", "amenity": "restaurant", "bar": "yes", "cuisine": "mediterranean;seafood", "name": "Magdalena", "opening_hours": "Tu-Th 18:00-23:00; Fr 18:00-24:00; Sa-Su 12:00-24:00", "opening_hours:kitchen": "Tu-Th 18:00-22:00; Fr 18:00-22:00; Sa-Su 12:00-22:00", "outdoor_seating": "sidewalk;street", "phone": "+1-347-689-2988", "website": "https://magdalenenyc.com"}}, {"type": "node", "id": 2838720793, "lat": 40.7114237, "lon": -73.9475078, "tags": {"amenity": "restaurant", "cocktails": "yes", "cuisine": "chicken", "drink:beer": "draught", "name": "Mad For Chicken"}}, {"type": "node", "id": 2839657558, "lat": 40.7148601, "lon": -73.9527723}, {"type": "node", "id": 2839657585, "lat": 40.7149611, "lon": -73.9529307}, {"type": "node", "id": 2839657629, "lat": 40.7150967, "lon": -73.9527804}, {"type": "node", "id": 2839657699, "lat": 40.7151711, "lon": -73.9526979}, {"type": "node", "id": 2839657846, "lat": 40.7150701, "lon": -73.9525394}, {"type": "node", "id": 2840742311, "lat": 40.7146231, "lon": -73.9496019, "tags": {"addr:city": "Brooklyn", "addr:country": "US", "addr:housenumber": "593", "addr:postcode": "11211", "addr:state": "NY", "addr:street": "Lorimer Street", "amenity": "restaurant", "cuisine": "steak_house", "name": "Destefano's Steakhouse", "phone": "+17183842836", "start_date": "2007", "website": "https://deesteakhouse.com"}}, {"type": "node", "id": 2842175052, "lat": 40.7143723, "lon": -73.9515018, "tags": {"alt_name": "Republic Capital Small Business Money Centers", "fax": "+1-718-972-5588", "name": "Republic Capital", "office": "financial", "opening_hours": "Mo-Th 09:00-17:00; Fr 09:00-16:00", "phone": "+1-718-599-6234", "website": "https://rcgny.com"}}, {"type": "node", "id": 2842175056, "lat": 40.7139432, "lon": -73.9512486, "tags": {"addr:housenumber": "522", "addr:postcode": "11211", "addr:street": "Metropolitan Avenue", "amenity": "cafe", "cuisine": "mediterranean;sandwich", "drink:coffee": "yes", "name": "Mozaik"}}, {"type": "node", "id": 2842175059, "lat": 40.7131683, "lon": -73.9490971, "tags": {"addr:housenumber": "544", "addr:postcode": "11211", "addr:street": "Lorimer Street", "alt_name": "Sal's Pizza", "amenity": "restaurant", "cuisine": "pizza;italian", "delivery": "yes", "drink:beer": "yes", "drink:wine": "yes", "name": "Sal's Pizzeria", "opening_hours": "Mo-Su 11:00-23:00", "phone": "+1-718-388-6838", "takeaway": "yes", "website": "https://salspizzawilliamsburg.com"}}, {"type": "node", "id": 2842175060, "lat": 40.7132118, "lon": -73.9493567, "tags": {"addr:housenumber": "545", "addr:postcode": "11211", "addr:street": "Lorimer Street", "amenity": "restaurant", "bar": "yes", "cocktails": "yes", "cuisine": "japanese", "drink:beer": "yes", "drink:liquor": "yes", "drink:sake": "yes", "drink:wine": "yes", "happy_hours": "Mo-Fr 18:00-19:00; Sa-Su 17:00-19:00", "name": "Suzume", "opening_hours": "Mo-Th 18:00-22:00; Fr 06:00-23:00; Sa 12:00-23:00; Su 12:00-22:00", "website": "https://www.suzumebk.com"}}, {"type": "node", "id": 2842175065, "lat": 40.7141955, "lon": -73.9495111, "tags": {"addr:city": "Brooklyn", "addr:housenumber": "575", "addr:postcode": "11211", "addr:state": "NY", "addr:street": "Lorimer Street", "amenity": "bar", "min_age": "21", "name": "Jr & Son"}}, {"type": "node", "id": 2842175072, "lat": 40.7140816, "lon": -73.9478315, "tags": {"addr:housenumber": "636", "addr:postcode": "11211", "addr:street": "Metropolitan Avenue", "amenity": "cafe", "cocktails": "yes", "cuisine": "italian", "drink:espresso": "yes", "drink:liquor": "yes", "name": "Pecoraro Latteria", "opening_hours": "Tu-Su 10:30-22:00", "outdoor_seating": "sidewalk", "website": "https://pecoraronyc.com"}}, {"type": "node", "id": 2842202191, "lat": 40.715583, "lon": -73.9495032, "tags": {"addr:city": "Brooklyn", "addr:housenumber": "620", "addr:postcode": "11211", "addr:state": "NY", "addr:street": "Lorimer Street", "amenity": "restaurant", "cuisine": "deli", "name": "Lorimer Market"}}, {"type": "node", "id": 2842522188, "lat": 40.716117, "lon": -73.9514546}, {"type": "node", "id": 2842522191, "lat": 40.7165204, "lon": -73.9528665, "tags": {"addr:city": "Brooklyn", "addr:housenumber": "2", "addr:postcode": "11211", "addr:state": "NY", "addr:street": "Havemeyer Street", "amenity": "bar", "name": "Muchmore's", "phone": "+1 718 576-3222", "website": "https://www.muchmoresnyc.com/"}}, {"type": "node", "id": 2842523561, "lat": 40.7160781, "lon": -73.9515679}, {"type": "node", "id": 2842523564, "lat": 40.7160894, "lon": -73.95145}, {"type": "node", "id": 2842523577, "lat": 40.7161406, "lon": -73.9515782}, {"type": "node", "id": 2842523579, "lat": 40.7161518, "lon": -73.9514604}, {"type": "node", "id": 3805991007, "lat": 40.7139547, "lon": -73.9492036, "tags": {"addr:city": "Brooklyn", "addr:housenumber": "566", "addr:postcode": "11211", "addr:state": "NY", "addr:street": "Lorimer Street", "amenity": "cafe", "cuisine": "coffee_shop", "internet_access": "no", "level": "Ground_Floor", "name": "Bagelsmith", "opening_hours": "08:00-24:00", "outdoor_seating": "yes", "phone": "+1-347-294-0046", "smoking": "no"}}, {"type": "node", "id": 3805991008, "lat": 40.7139985, "lon": -73.9485715, "tags": {"addr:city": "Brooklyn", "addr:housenumber": "612", "addr:postcode": "11211", "addr:state": "NY", "addr:street": "Metropolitan Avenue", "amenity": "bar", "contact:facebook": "https://www.facebook.com/northernbellny", "contact:instagram": "https://www.instagram.com/northernbellnyc/", "contact:phone": "+1 718 388 9040", "contact:twitter": "https://twitter.com/NorthernBellNY", "contact:website": "http://www.northernbellny.com/", "cuisine": "burger;tex-mex", "drink:beer": "draught", "drink:liquor": "yes", "drink:wine": "yes", "name": "Northern Bell", "opening_hours": "Mo-Fr 12:00-02:00; Sa,Su 11:00-03:00", "outdoor_seating": "garden;sidewalk", "smoking": "isolated", "takeaway": "yes"}}, {"type": "node", "id": 3805991015, "lat": 40.7142599, "lon": -73.9495378, "tags": {"addr:city": "Brooklyn", "addr:housenumber": "578", "addr:postcode": "11211", "addr:state": "NY", "addr:street": "Lorimer Street", "amenity": "restaurant", "cuisine": "mediterranean;brunch", "name": "Pomp & Circumstance", "phone": "+1-718-387-4861", "smoking": "no", "takeaway": "yes"}}, {"type": "node", "id": 3806007439, "lat": 40.7139261, "lon": -73.9499959, "tags": {"addr:city": "Brooklyn", "addr:housenumber": "568", "addr:postcode": "11211", "addr:state": "NY", "addr:street": "Metropolitan Avenue", "alt_name": "Sushi Shiro Bar & Grill", "amenity": "restaurant", "cuisine": "sushi;japanese", "delivery": "yes", "drink:beer": "yes", "drink:liquor": "yes", "drink:wine": "yes", "name": "Shiro", "opening_hours": "Mo-Th 11:30-22:30, Fr 11:30-23:30, Sa 12:00-23:30, Su 12:00-22:00", "phone": "+1-646-375-4880", "takeaway": "yes", "website": "http://sushishironyc.com"}}, {"type": "node", "id": 4749896522, "lat": 40.7125574, "lon": -73.9487358, "tags": {"addr:housenumber": "150", "addr:postcode": "11211", "addr:street": "Ainslie Street", "amenity": "restaurant", "cuisine": "japanese;ramen", "name": "Okonomi", "opening_hours": "Mo-Fr 09:00-15:00, 18:00-23:00;Sa-Su 10:00-16:00", "website": "https://www.okonomi.us/"}}, {"type": "node", "id": 4917640691, "lat": 40.7150898, "lon": -73.9525703}, {"type": "node", "id": 5178655527, "lat": 40.716681, "lon": -73.9504137, "tags": {"addr:housenumber": "50", "addr:postcode": "11211", "addr:street": "Withers Street", "amenity": "restaurant", "cocktails": "yes", "cuisine": "peruvian;international", "drink:beer": "draught", "drink:liquor": "yes", "drink:wine": "yes", "fixme": "possibly also open for coffee weekday mornings, confirm", "name": "Llama Inn", "opening_hours": "Mo-We 17:30-22:00; Th-Fr 17:30-23:00; Sa 11:00-14:30,17:30-23:00; Su 11:00-14:30,17:30-22:00", "outdoor_seating": "yes", "phone": "+1-718-387-3434", "website": "https://www.llamainnnyc.com"}}, {"type": "node", "id": 5431114704, "lat": 40.7139355, "lon": -73.952822, "tags": {"addr:housenumber": "486", "addr:postcode": "11211", "addr:street": "Metropolitan Avenue", "amenity": "bar", "cocktails": "yes", "contact:facebook": "https://www.facebook.com/Rocka-Rolla-838004392899971/", "cuisine": "snack", "drink:beer": "draught", "drink:liquor": "yes", "happy_hours": "Mo-Fr 12:00-19:00", "name": "Rocka Rolla", "opening_hours": "Mo-Su 12:00-04:00"}}, {"type": "node", "id": 5497696423, "lat": 40.7114995, "lon": -73.9490739, "tags": {"addr:housenumber": "485", "addr:street": "Lorimer Street", "amenity": "restaurant", "cuisine": "italian", "name": "Forcella", "opening_hours": "Mo-Fr 17:00-04:00; Sa-Su 12:00-04:00", "phone": "+1-718-388-8820", "website": "https://forcellaeatery.com/"}}, {"type": "node", "id": 5594554949, "lat": 40.7114869, "lon": -73.9468057, "tags": {"addr:housenumber": "633", "addr:street": "Grand Street", "amenity": "bar", "happy_hours": "yes", "name": "Lady Jay's", "opening_hours": "Mo-Fr 16:00-04:00, Sa-Su 14:00-04:00", "payment:cash": "yes", "payment:credit_cards": "yes", "phone": "+1-718-387-1029", "toilets": "yes", "wheelchair": "yes"}}, {"type": "node", "id": 5779992387, "lat": 40.7156763, "lon": -73.951755}, {"type": "node", "id": 5779992388, "lat": 40.7159543, "lon": -73.9514407}, {"type": "node", "id": 5779992390, "lat": 40.7159207, "lon": -73.9514293}, {"type": "node", "id": 5779992393, "lat": 40.7159106, "lon": -73.9518376}, {"type": "node", "id": 5779992394, "lat": 40.7156821, "lon": -73.9517817}, {"type": "node", "id": 5779992396, "lat": 40.7159363, "lon": -73.9514292}, {"type": "node", "id": 5962563885, "lat": 40.7156064, "lon": -73.9534877, "tags": {"amenity": "restaurant", "cuisine": "pizza", "name": "Best Pizza", "takeaway": "yes", "wheelchair": "yes"}}, {"type": "node", "id": 6018127885, "lat": 40.7166443, "lon": -73.9512196, "tags": {"amenity": "restaurant", "cuisine": "italian", "name": "Bamonte's", "phone": "+1 718-384-8831", "wikidata": "Q65078393", "wikipedia": "en:Bamonte's"}}, {"type": "node", "id": 6052834496, "lat": 40.7143043, "lon": -73.9514899, "tags": {"amenity": "bar", "cocktails": "yes", "drink:beer": "yes", "drink:liquor": "yes", "drink:wine": "yes", "internet_access": "wlan", "internet_access:fee": "no", "lgbtq": "welcome", "name": "Macri Park", "opening_hours": "Mo-Su 15:00-04:00", "phone": "+1-718-599-4999", "toilets": "yes", "toilets:unisex": "yes", "website": "https://www.macripark.com"}}, {"type": "node", "id": 6331547404, "lat": 40.7148743, "lon": -73.9515998, "tags": {"amenity": "restaurant", "cocktails": "yes", "contact:facebook": "https://www.facebook.com/Chimu-Bistro-Peruvian-Cusine-271466962952871/", "cuisine": "peruvian", "drink:beer": "yes", "drink:liquor": "yes", "drink:wine": "yes", "name": "Chimu", "opening_hours": "Mo,We,Th 16:00-23:00; Fr 16:00-24:00; Sa 12:00-24:00; Su 12:30-23:00", "phone": "+1-718-383-0045"}}, {"type": "node", "id": 6379666403, "lat": 40.7136339, "lon": -73.9494852, "tags": {"addr:housenumber": "559", "addr:street": "Lorimer Street", "amenity": "bar", "brewery": "yes", "description": "Gay and straight locals congregate at this bar with 2 fireplaces, a pool table & a lush outdoor space.", "happy_hours": "yes", "internet_access": "wlan", "internet_access:fee": "no", "lgbtq": "primary", "name": "Metropolitan Bar", "opening_hours": "Mo-Su 15:00-04:00", "outdoor_seating": "patio", "payment:credit_cards": "yes", "payment:debit_cards": "yes", "phone": "+1-718-599-4444", "sport": "billiards", "toilets": "yes", "toilets:unisex": "yes", "toilets:wheelchair": "no"}}, {"type": "node", "id": 7193770269, "lat": 40.7136326, "lon": -73.9525044, "tags": {"access": "yes", "amenity": "bar", "cocktails": "yes", "drink:beer": "draught", "drink:liquor": "yes", "drink:wine": "yes", "level": "0", "operator": "Hotel Indigo"}}, {"type": "node", "id": 8109403685, "lat": 40.7137246, "lon": -73.9494826, "tags": {"addr:city": "Brooklyn", "addr:housenumber": "561", "addr:postcode": "11211", "addr:state": "NY", "addr:street": "Lorimer Street", "amenity": "cafe", "cuisine": "coffee;pastry", "name": "Poetica Coffee"}}, {"type": "node", "id": 8110365548, "lat": 40.7146707, "lon": -73.9516495, "tags": {"amenity": "restaurant", "cuisine": "middle_eastern", "description": "Food truck parked in front of 472 Union Avenue", "diet:halal": "yes", "diet:meat": "yes", "diet:vegan": "yes", "diet:vegetarian": "yes", "name": "Yummy Yummy in my Tummy", "takeaway": "only"}}, {"type": "node", "id": 8111388487, "lat": 40.71419, "lon": -73.9506347, "tags": {"addr:city": "Brooklyn", "addr:housenumber": "549", "addr:postcode": "11211", "addr:state": "NY", "addr:street": "Metropolitan Avenue", "amenity": "restaurant", "bar": "yes", "cuisine": "chinese", "drink:beer": "draught", "drink:liquor": "yes", "drink:wine": "yes", "name": "M Noodle Shop"}}, {"type": "node", "id": 8111388488, "lat": 40.7141926, "lon": -73.9508267, "tags": {"addr:housenumber": "543", "addr:street": "Metropolitan Avenue", "amenity": "cafe", "check_date": "2024-06-23", "cuisine": "coffee_shop", "name": "Brooklyn Roasting Company", "outdoor_seating": "no", "shop": "yes"}}, {"type": "node", "id": 8111388489, "lat": 40.7141935, "lon": -73.9510996, "tags": {"addr:city": "Brooklyn", "addr:housenumber": "533", "addr:postcode": "11211", "addr:state": "NY", "addr:street": "Metropolitan Avenue", "check_date": "2024-06-23", "name": "Capri Jet Realty Corp.", "office": "estate_agent", "phone": "+1 718-388-2188"}}, {"type": "node", "id": 8111388490, "lat": 40.7139473, "lon": -73.9511599, "tags": {"addr:city": "Brooklyn", "addr:housenumber": "524", "addr:postcode": "11211", "addr:state": "NY", "addr:street": "Metropolitan Avenue", "amenity": "restaurant", "cuisine": "indian", "name": "London Tandoori"}}, {"type": "node", "id": 8233048582, "lat": 40.7162149, "lon": -73.9499709}, {"type": "node", "id": 8233048588, "lat": 40.7162256, "lon": -73.9498385}, {"type": "node", "id": 8233048592, "lat": 40.716326, "lon": -73.9498527}, {"type": "node", "id": 9352851045, "lat": 40.7140346, "lon": -73.948298, "tags": {"addr:city": "Brooklyn", "addr:housenumber": "622", "addr:postcode": "11211", "addr:state": "NY", "addr:street": "Metropolitan Avenue", "amenity": "restaurant", "cuisine": "japanese;sushi;ramen", "fax": "+1-718-782-1495", "name": "Fukuyama Sushi & Ramen", "opening_hours": "Mo,We-Su 11:00-25:00,Tu 17:00-25:00", "phone": "+1-718-782-1496", "website:menu": "https://drive.google.com/file/d/1KxwV2bqnuC4bwc8D_ImqsKdXRKsst7Lf/view"}}, {"type": "node", "id": 10968102823, "lat": 40.7114139, "lon": -73.9475953, "tags": {"addr:housenumber": "615", "addr:postcode": "11211", "addr:street": "Grand Street", "amenity": "restaurant", "cuisine": "thai", "name": "Lily Thai", "phone": "+1-718-718-7534", "wheelchair": "no"}}, {"type": "node", "id": 10968102825, "lat": 40.7114109, "lon": -73.9476266, "tags": {"addr:housenumber": "613", "addr:postcode": "11211", "addr:street": "Grand Street", "amenity": "restaurant", "bar": "yes", "cocktails": "yes", "cuisine": "peruvian", "diet:vegan": "yes", "drink:beer": "draught", "drink:liquor": "yes", "name": "La Chacra", "phone": "+1-929-295-8884"}}, {"type": "node", "id": 10968102828, "lat": 40.711399, "lon": -73.9477785, "tags": {"amenity": "bar", "cocktails": "yes", "drink:beer": "draught", "drink:liquor": "yes", "drink:wine": "yes", "name": "Blinky's", "opening_hours": "Mo-Th 16:00-02:00, Fr 16:00-04:00, Sa 14:00-04:00, Su 14:00-02:00", "phone": "+1-334-398-1109", "website": "https://www.blinkysbar.com"}}, {"type": "node", "id": 10968324908, "lat": 40.7139741, "lon": -73.9489283, "tags": {"amenity": "bar", "cuisine": "pizza", "name": "Alligator Lounge", "opening_hours": "Mo-Th 15:00-04:00, Fr 16:00-04:00, Sa-Su 13:00-14:00", "outdoor_seating": "sidewalk", "phone": "+1-718-599-4440", "sport": "billiards", "takeaway": "yes", "website": "https://www.alligatorloungebrooklyn.com"}}, {"type": "node", "id": 10968324911, "lat": 40.7133696, "lon": -73.9513545, "tags": {"amenity": "restaurant", "bar": "yes", "cocktails": "yes", "cuisine": "italian;pizza", "drink:beer": "draught", "drink:liquor": "yes", "drink:wine": "yes", "name": "Montesacro", "opening_hours": "Mo-Th 12:00-15:30,17:00-21:30; Fr 12:00-15:30,17:00-22:00; Sa 11:00-15:30,17:00-22:00; Su 11:00-15:30,17:00-21:30", "outdoor_seating": "sidewalk;street", "phone": "+1-347-916-1062", "website": "https://montesacro.com"}}, {"type": "node", "id": 11407297860, "lat": 40.7124328, "lon": -73.9519688, "tags": {"amenity": "restaurant", "cuisine": "italian;pizza", "name": "Ainslie", "website": "https://ainsliebk.com"}}, {"type": "node", "id": 11854382369, "lat": 40.7117857, "lon": -73.9491299, "tags": {"amenity": "cafe", "name": "Olas Coffee Roasters and Cafe"}}, {"type": "node", "id": 12070736700, "lat": 40.7163681, "lon": -73.949593, "tags": {"addr:housenumber": "646", "addr:postcode": "11211", "addr:street": "Lorimer Street", "amenity": "restaurant", "branch": "Williamsburg", "cuisine": "ukrainian", "name": "Veselka", "opening_hours": "Mo-We 17:00-22:00; Th, Fr 17:00-23:00; Sa 09:00-23:00; Su 09:00-22:00", "outdoor_seating": "yes", "phone": "+1 917-781-4829", "reservation": "no", "website": "https://veselka.com/pages/locations"}}, {"type": "node", "id": 12309958845, "lat": 40.713895, "lon": -73.95174, "tags": {"addr:city": "Brooklyn", "addr:housenumber": "518", "addr:state": "Ny", "addr:street": "Metropolitan Ave", "amenity": "restaurant", "name": "Kelloggs Diner", "opening_hours": "24/7", "website": "https://www.kelloggsdinernyc.com/"}}, {"type": "node", "id": 12998413401, "lat": 40.7155266, "lon": -73.9529936, "tags": {"addr:city": "Brooklyn", "addr:housenumber": "288", "addr:postcode": "11211", "addr:state": "NY", "addr:street": "North 8th Street", "amenity": "bar", "cuisine": "mexican", "level": "11", "name": "El Nico", "opening_hours": "Mo-Th 14:00-22:00; Fr 14:00-01:00; Sa 09:00-01:00; Su 09:00-22:00", "phone": "+1-929-594-2028", "website": "http://penny-hotel.com/elnico"}}, {"type": "way", "id": 48997911, "nodes": [621890756, 553717756, 621890759, 621890756], "tags": {"dog": "yes", "leisure": "park", "name": "Macri Triangle", "opening_hours": "Mo-Su 06:00-01:00", "operator": "New York City Department of Parks and Recreation", "operator:short": "NYC Parks", "operator:type": "government", "operator:wikidata": "Q1894232", "operator:wikipedia": "en:New York City Department of Parks and Recreation", "wikidata": "Q49520521"}}, {"type": "way", "id": 49031717, "nodes": [622200247, 5779992393, 622200246, 5779992394, 5779992387, 5779992390, 5779992396, 5779992388, 622200245, 622200247], "tags": {"leisure": "park", "name": "Mount Carmel Square", "wikidata": "Q49528890"}}, {"type": "way", "id": 279772407, "nodes": [2839657699, 4917640691, 2839657846, 2839657558, 2839657585, 2839657629, 2839657699], "tags": {"addr:city": "Brooklyn", "addr:housenumber": "299", "addr:postcode": "11211", "addr:state": "NY", "addr:street": "North 7th Street", "amenity": "school", "building": "school", "height": "10.0", "name": "Williamsburg Northside Lower School", "nycdoitt:bin": "3062015", "website": "https://www.willnorth.org/"}}, {"type": "way", "id": 280075425, "nodes": [2842523561, 2842523577, 2842523579, 2842522188, 2842523564, 2842523561], "tags": {"addr:housenumber": "1", "addr:postcode": "11211", "addr:street": "Jackson Street", "amenity": "bar", "building": "yes", "cocktails": "yes", "drink:beer": "draught", "drink:liquor": "yes", "drink:wine": "yes", "height": "3.8", "name": "The Exley", "nycdoitt:bin": "3379885", "opening_hours": "Mo-Fr 16:00-24:00; Sa-Su 14:00-24:00", "outdoor_seating": "yes", "phone": "+1-917-909-1652", "website": "https://www.theexley.com"}}, {"type": "way", "id": 885366706, "nodes": [8233048582, 8233048588, 8233048592, 8233048582], "tags": {"ele": "5", "gnis:feature_id": "2377255", "leisure": "park", "name": "Father Giorgio Triangle", "wikidata": "Q49488580"}}]}