{"version": 0.6, "generator": "Overpass API 0.7.62.8 e802775f", "osm3s": {"timestamp_osm_base": "2025-12-01T03:48:54Z", "copyright": "The data included in this document is from www.openstreetmap.org. The data is made available under ODbL."}, "elements": [{"type": "node", "id": 246942723, "lat": 40.7816773, "lon": -73.9880025}, {"type": "node", "id": 246942732, "lat": 40.785419, "lon": -73.9854479}, {"type": "node", "id": 246942733, "lat": 40.7864723, "lon": -73.9847162}, {"type": "node", "id": 430351195, "lat": 40.7844976, "lon": -73.9860918}, {"type": "node", "id": 430354197, "lat": 40.7804705, "lon": -73.9859008}, {"type": "node", "id": 430354198, "lat": 40.7880976, "lon": -73.9835893}, {"type": "node", "id": 430354201, "lat": 40.7895365, "lon": -73.9825815}, {"type": "node", "id": 430354202, "lat": 40.7901461, "lon": -73.9816674}, {"type": "node", "id": 430354203, "lat": 40.7912479, "lon": -73.980947}, {"type": "node", "id": 430354204, "lat": 40.7927162, "lon": -73.979782}, {"type": "node", "id": 430354205, "lat": 40.7932818, "lon": -73.9792504}, {"type": "node", "id": 430354206, "lat": 40.7939236, "lon": -73.9786427}, {"type": "node", "id": 430354207, "lat": 40.7943003, "lon": -73.9781989}, {"type": "node", "id": 430354208, "lat": 40.7943168, "lon": -73.9779891}, {"type": "node", "id": 430354209, "lat": 40.7944525, "lon": -73.977695}, {"type": "node", "id": 430354210, "lat": 40.795638, "lon": -73.9763986}, {"type": "node", "id": 430354211, "lat": 40.7955228, "lon": -73.9762247}, {"type": "node", "id": 430354212, "lat": 40.7952466, "lon": -73.9764734}, {"type": "node", "id": 430354213, "lat": 40.7949166, "lon": -73.9767041}, {"type": "node", "id": 430354214, "lat": 40.7945977, "lon": -73.9768805}, {"type": "node", "id": 430354215, "lat": 40.7940546, "lon": -73.9770706}, {"type": "node", "id": 430354216, "lat": 40.7937415, "lon": -73.9771136}, {"type": "node", "id": 430354217, "lat": 40.7932488, "lon": -73.9771283}, {"type": "node", "id": 430354218, "lat": 40.7930267, "lon": -73.9771375}, {"type": "node", "id": 430354219, "lat": 40.7925634, "lon": -73.9774065}, {"type": "node", "id": 430354220, "lat": 40.7922693, "lon": -73.9777346}, {"type": "node", "id": 430354221, "lat": 40.7919526, "lon": -73.9784642}, {"type": "node", "id": 430354222, "lat": 40.7917603, "lon": -73.9789449}, {"type": "node", "id": 430354223, "lat": 40.7915906, "lon": -73.9791599}, {"type": "node", "id": 430354224, "lat": 40.7914209, "lon": -73.9793578}, {"type": "node", "id": 430354225, "lat": 40.7909854, "lon": -73.9797255}, {"type": "node", "id": 430354226, "lat": 40.7903067, "lon": -73.9801949}, {"type": "node", "id": 430354227, "lat": 40.7896393, "lon": -73.9807152}, {"type": "node", "id": 430354228, "lat": 40.789283, "lon": -73.9809415}, {"type": "node", "id": 430354229, "lat": 40.7888249, "lon": -73.9810998}, {"type": "node", "id": 430354230, "lat": 40.7882562, "lon": -73.9811759}, {"type": "node", "id": 430354234, "lat": 40.7869906, "lon": -73.9813028, "tags": {"barrier": "kerb", "kerb": "lowered"}}, {"type": "node", "id": 430354236, "lat": 40.7864469, "lon": -73.9814019}, {"type": "node", "id": 430354237, "lat": 40.7861692, "lon": -73.9815568, "tags": {"barrier": "kerb", "kerb": "lowered"}}, {"type": "node", "id": 430354238, "lat": 40.7858604, "lon": -73.9818409}, {"type": "node", "id": 430354239, "lat": 40.7854736, "lon": -73.9822405}, {"type": "node", "id": 432734894, "lat": 40.7849775, "lon": -73.9857527}, {"type": "node", "id": 432734895, "lat": 40.781378, "lon": -73.9881472}, {"type": "node", "id": 1329122475, "lat": 40.7810243, "lon": -73.9871678}, {"type": "node", "id": 1332863755, "lat": 40.7928303, "lon": -73.9796748}, {"type": "node", "id": 1993216326, "lat": 40.783395, "lon": -73.9784022, "tags": {"amenity": "restaurant", "check_date": "2023-11-21", "cuisine": "french", "name": "Nice Matin", "outdoor_seating": "yes", "toilets:wheelchair": "no", "website": "https://nicematinnyc.com/", "wheelchair": "yes"}}, {"type": "node", "id": 1994680562, "lat": 40.7849274, "lon": -73.9788012, "tags": {"addr:city": "New York", "addr:country": "US", "addr:housenumber": "2252", "addr:postcode": "10024", "addr:state": "NY", "addr:street": "Broadway", "amenity": "cafe", "branch": "81st & Broadway", "brand": "Starbucks", "brand:wikidata": "Q37158", "cuisine": "coffee_shop", "diet:vegan": "yes", "drink:soy_milk": "yes", "indoor_seating": "yes", "internet_access": "wlan", "name": "Starbucks", "official_name": "Starbucks Coffee", "opening_hours": "Mo 07:00-22:00; Tu-Su 06:00-23:00", "outdoor_seating": "no", "phone": "+1 212-721-1267", "ref": "11483", "takeaway": "yes", "website": "https://www.starbucks.com/store-locator/store/11483/81st-broadway-2252-broadway-new-york-ny-100245805-us", "wheelchair": "yes"}}, {"type": "node", "id": 2029349826, "lat": 40.7943018, "lon": -73.9780886}, {"type": "node", "id": 2029349832, "lat": 40.7943663, "lon": -73.9778348}, {"type": "node", "id": 2029349881, "lat": 40.7955472, "lon": -73.9767202}, {"type": "node", "id": 2029349883, "lat": 40.7955666, "lon": -73.9762573}, {"type": "node", "id": 2029349885, "lat": 40.7955944, "lon": -73.9766508}, {"type": "node", "id": 2029349886, "lat": 40.7955974, "lon": -73.9762905}, {"type": "node", "id": 2029349889, "lat": 40.7956256, "lon": -73.9765555}, {"type": "node", "id": 2029349891, "lat": 40.7956371, "lon": -73.9764846}, {"type": "node", "id": 2041315651, "lat": 40.7818277, "lon": -73.9879357}, {"type": "node", "id": 2041315655, "lat": 40.7873648, "lon": -73.9840943}, {"type": "node", "id": 2041315660, "lat": 40.7853757, "lon": -73.9854782}, {"type": "node", "id": 2041315670, "lat": 40.7832625, "lon": -73.9869408}, {"type": "node", "id": 2041315671, "lat": 40.7815131, "lon": -73.9880798}, {"type": "node", "id": 2041315677, "lat": 40.7887706, "lon": -73.9831259}, {"type": "node", "id": 2041819922, "lat": 40.7859324, "lon": -73.9850878}, {"type": "node", "id": 2047267694, "lat": 40.7813756, "lon": -73.9798992, "tags": {"amenity": "pub", "indoor_seating": "yes", "name": "Amsterdam Ale House", "outdoor_seating": "yes", "toilets:wheelchair": "yes", "website": "http://www.amsterdamalehouse.com/", "wheelchair": "yes"}}, {"type": "node", "id": 2047267734, "lat": 40.7815101, "lon": -73.9782896}, {"type": "node", "id": 2047267745, "lat": 40.7817224, "lon": -73.9787943}, {"type": "node", "id": 2047267748, "lat": 40.7818002, "lon": -73.9780768}, {"type": "node", "id": 2047267749, "lat": 40.7818368, "lon": -73.9790663}, {"type": "node", "id": 2047267750, "lat": 40.7820124, "lon": -73.9785816}, {"type": "node", "id": 2047267752, "lat": 40.7821268, "lon": -73.9788536}, {"type": "node", "id": 2108362680, "lat": 40.7832708, "lon": -73.9779816, "tags": {"addr:city": "New York", "addr:country": "US", "addr:housenumber": "403", "addr:postcode": "10024", "addr:state": "NY", "addr:street": "Amsterdam Avenue", "amenity": "restaurant", "cuisine": "pizza", "name": "Saba's Pizza", "phone": "+1-212-787-1118", "website": "http://www.sabaspizzanyc.com"}}, {"type": "node", "id": 2113159210, "lat": 40.7842712, "lon": -73.9772503, "tags": {"addr:city": "New York", "addr:country": "US", "addr:housenumber": "435", "addr:postcode": "10024", "addr:state": "NY", "addr:street": "Amsterdam Avenue", "amenity": "restaurant", "cuisine": "thai", "name": "Spice", "website": "https://www.spicethainyc.com/"}}, {"type": "node", "id": 2113159211, "lat": 40.7844919, "lon": -73.9771026, "tags": {"addr:city": "New York", "addr:country": "US", "addr:housenumber": "441", "addr:postcode": "10024", "addr:state": "NY", "addr:street": "Amsterdam Avenue", "amenity": "pub", "name": "St. James Gate", "opening_hours": "Mo, Tu, Su 12:00-02:00; We-Sa 12:00-04:00", "website": "http://stjamesgatenyc.com/"}}, {"type": "node", "id": 2113159212, "lat": 40.7844415, "lon": -73.9776143, "tags": {"addr:city": "New York", "addr:country": "US", "addr:housenumber": "434", "addr:postcode": "10024", "addr:state": "NY", "addr:street": "Amsterdam Avenue", "amenity": "restaurant", "cuisine": "malaysian", "name": "WAU", "opening_hours": "Mo-Th 12:00-15:30, 17:00-22:00; Fr 12:00-15:30, 17:00-22:30; Sa 12:00-22:30; Su 12:00-21:30", "phone": "+1-917-261-5926", "website": "https://waunyc.com"}}, {"type": "node", "id": 2125873489, "lat": 40.7827246, "lon": -73.9789347, "tags": {"addr:city": "New York", "addr:housenumber": "380", "addr:postcode": "10024", "addr:state": "NY", "addr:street": "Amsterdam Avenue", "amenity": "restaurant", "contact:facebook": "https://www.facebook.com/jingfongny/", "diet:vegetarian": "yes", "name": "Jing Fong Restaurant", "opening_hours": "Mo-Fr 11:00-15:00,17:00-21:30; Sa 11:00-22:30; Su 11:00-21:30", "phone": "+1 646-678-5511", "website": "https://jingfongny.com", "wheelchair": "limited", "wheelchair:description": "front door is narrow but can be navigated with help from the staff. Also there is outdoor seating."}}, {"type": "node", "id": 2131698464, "lat": 40.7841916, "lon": -73.9773072, "tags": {"addr:city": "New York", "addr:country": "US", "addr:housenumber": "433", "addr:postcode": "10024", "addr:state": "NY", "addr:street": "Amsterdam Avenue", "amenity": "restaurant", "cuisine": "japanese", "name": "Haru Sushi", "opening_hours": "Mo 17:00-23:00; Tu-Fr 17:00-24:00; Sa 12:30-24:00; Su 12:30-23:00", "phone": "+1-212-579-5655", "website": "https://www.harusushi.com/location/newyork_amsterdamave", "wheelchair": "yes"}}, {"type": "node", "id": 2300369399, "lat": 40.7856847, "lon": -73.9767189, "tags": {"addr:city": "New York", "addr:country": "US", "addr:housenumber": "476", "addr:postcode": "10024", "addr:state": "NY", "addr:street": "Amsterdam Avenue", "amenity": "restaurant", "name": "Fred's", "opening_hours": "Mo-Th 17:00-23:00; Fr, Sa 17:00-24:00; Su 17:00-23:00", "toilets": "yes", "toilets:unisex": "yes", "website": "https://www.fredsnyc.com/"}}, {"type": "node", "id": 2301167312, "lat": 40.7865613, "lon": -73.9775754, "tags": {"addr:city": "New York", "addr:housenumber": "2308", "addr:postcode": "10024", "addr:street": "Broadway", "amenity": "bank", "atm": "yes", "brand": "Charles Schwab", "brand:wikidata": "Q1066028", "check_date:opening_hours": "2025-08-04", "name": "Charles Schwab", "office": "financial_advisor", "opening_hours": "Mo-Fr 08:30-17:00", "operator": "Charles Schwab", "website": "https://client.schwab.com/Public/BranchLocator/BranchDetails.aspx?BranchID=1164&strtpnt=New%20York,%2010024"}}, {"type": "node", "id": 2303950107, "lat": 40.7851171, "lon": -73.9766494, "tags": {"addr:city": "New York", "addr:country": "US", "addr:housenumber": "461", "addr:postcode": "10024", "addr:state": "NY", "addr:street": "Amsterdam Avenue", "amenity": "cafe", "check_date": "2023-01-13", "cuisine": "coffee_shop", "name": "Chalait", "opening_hours": "Mo-Fr 07:30-17:00; Sa-Su 08:30-18:00", "payment:mastercard": "yes", "payment:visa": "yes", "website": "https://www.chalait.com/"}}, {"type": "node", "id": 2414094417, "lat": 40.7822907, "lon": -73.9792081, "tags": {"addr:city": "New York", "addr:housenumber": "368", "addr:postcode": "10024", "addr:state": "NY", "addr:street": "Amsterdam Avenue", "amenity": "cafe", "check_date:opening_hours": "2025-08-22", "cuisine": "bagel", "name": "Bagel Talk", "opening_hours:signed": "no", "phone": "+1-212-875-1267", "shop": "bakery", "wheelchair": "no", "wheelchair:description": "large step at front entrance and no other entrance."}}, {"type": "node", "id": 2573952287, "lat": 40.7864161, "lon": -73.9763619, "tags": {"addr:city": "New York", "addr:country": "US", "addr:housenumber": "200", "addr:postcode": "10024", "addr:state": "NY", "addr:street": "West 84th Street", "amenity": "cafe", "contact:twitter": "chaoticgoodcafe", "email": "info@chaoticgoodcafe.com", "name": "Chaotic Good", "opening_hours": "Mo-Th 08:00-22:00; Fr 08:00-23:00; Sa 09:00-23:00; Su 09:00-22:00", "website": "https://www.chaoticgoodcafe.com"}}, {"type": "node", "id": 2592129931, "lat": 40.7837467, "lon": -73.9792925, "tags": {"addr:city": "New York", "addr:country": "US", "addr:housenumber": "225", "addr:postcode": "10024", "addr:state": "NY", "addr:street": "West 79th Street", "amenity": "pub", "email": "info@dublinhousenyc.com", "name": "Dublin House", "website": "http://www.dublinhousenyc.com/", "wheelchair": "no"}}, {"type": "node", "id": 2592130002, "lat": 40.7820656, "lon": -73.9806301, "tags": {"addr:city": "New York", "addr:country": "US", "addr:housenumber": "2170", "addr:postcode": "10023", "addr:state": "NY", "addr:street": "Broadway", "amenity": "restaurant", "cuisine": "chinese", "indoor_seating": "yes", "name": "RedFarm", "outdoor_seating": "yes", "website": "https://redfarmnyc.com/", "wheelchair": "yes"}}, {"type": "node", "id": 2592130004, "lat": 40.782208, "lon": -73.9805845, "tags": {"addr:city": "New York", "addr:country": "US", "addr:housenumber": "2178", "addr:postcode": "10023", "addr:state": "NY", "addr:street": "Broadway", "amenity": "restaurant", "cuisine": "italian", "name": "Serafina", "outdoor_seating": "yes", "website": "http://uws.serafinarestaurant.com/"}}, {"type": "node", "id": 2592130005, "lat": 40.7845848, "lon": -73.9770343, "tags": {"addr:city": "New York", "addr:country": "US", "addr:housenumber": "447", "addr:postcode": "10024", "addr:state": "NY", "addr:street": "Amsterdam Avenue", "amenity": "restaurant", "cuisine": "druze;syrian", "name": "Gazala's", "phone": "+1-212-787-1800", "website": "https://gazalasrestaurant.com"}}, {"type": "node", "id": 2745500634, "lat": 40.7819863, "lon": -73.9813099, "tags": {"addr:city": "New York", "addr:country": "US", "addr:housenumber": "2161", "addr:postcode": "10024", "addr:state": "NY", "addr:street": "Broadway", "amenity": "cafe", "branch": "76th & Broadway", "brand": "Le Pain Quotidien", "brand:wikidata": "Q2046903", "cuisine": "coffee_shop", "name": "Le Pain Quotidien", "opening_hours": "Mo-Su 07:00-18:00", "outdoor_seating": "no", "phone": "+1-332-910-6880", "takeaway": "yes", "website": "https://www.lepainquotidien.com/us/en/locations/3005:%2076th%20&%20broadway/2161-broadway"}}, {"type": "node", "id": 2745500689, "lat": 40.7831711, "lon": -73.980799, "tags": {"addr:city": "New York", "addr:housenumber": "2199", "addr:postcode": "10024", "addr:state": "NY", "addr:street": "Broadway", "amenity": "restaurant", "cuisine": "chinese", "name": "New Cottage Restaurant", "phone": "+1-212-595-7450"}}, {"type": "node", "id": 2745510801, "lat": 40.7815946, "lon": -73.9880405}, {"type": "node", "id": 2745510804, "lat": 40.7816431, "lon": -73.988018}, {"type": "node", "id": 2745527658, "lat": 40.7822863, "lon": -73.9787291, "tags": {"addr:city": "New York", "addr:housenumber": "375", "addr:postcode": "10024", "addr:state": "NY", "addr:street": "Amsterdam Avenue", "amenity": "cafe", "name": "Daily Provisions", "outdoor_seating": "yes"}}, {"type": "node", "id": 2745528103, "lat": 40.7813947, "lon": -73.9780099}, {"type": "node", "id": 2745528123, "lat": 40.7814294, "lon": -73.9777625}, {"type": "node", "id": 2745528145, "lat": 40.7814711, "lon": -73.9781919}, {"type": "node", "id": 2745528148, "lat": 40.7814784, "lon": -73.977906}, {"type": "node", "id": 2745528151, "lat": 40.7814871, "lon": -73.9778997}, {"type": "node", "id": 2745528152, "lat": 40.7814923, "lon": -73.977939}, {"type": "node", "id": 2745528161, "lat": 40.7815026, "lon": -73.9777093}, {"type": "node", "id": 2745528301, "lat": 40.7817856, "lon": -73.9779633}, {"type": "node", "id": 2745528303, "lat": 40.7817906, "lon": -73.9774999}, {"type": "node", "id": 2745528336, "lat": 40.7820212, "lon": -73.9785244}, {"type": "node", "id": 2745528374, "lat": 40.7821741, "lon": -73.9784132}, {"type": "node", "id": 2745535124, "lat": 40.782308, "lon": -73.9781817}, {"type": "node", "id": 2745535132, "lat": 40.7823327, "lon": -73.97824}, {"type": "node", "id": 2745535192, "lat": 40.7824689, "lon": -73.9780636}, {"type": "node", "id": 2745535237, "lat": 40.7825176, "lon": -73.9779588}, {"type": "node", "id": 2745535257, "lat": 40.7825399, "lon": -73.9780115}, {"type": "node", "id": 2745535271, "lat": 40.7825662, "lon": -73.9779232}, {"type": "node", "id": 2745535277, "lat": 40.7825739, "lon": -73.978063}, {"type": "node", "id": 2745535289, "lat": 40.7825936, "lon": -73.9781095}, {"type": "node", "id": 2745535312, "lat": 40.7826182, "lon": -73.977885}, {"type": "node", "id": 2745535330, "lat": 40.7826976, "lon": -73.9778268}, {"type": "node", "id": 2745535346, "lat": 40.7827612, "lon": -73.9777801}, {"type": "node", "id": 2745535352, "lat": 40.7827714, "lon": -73.9778455}, {"type": "node", "id": 2745535355, "lat": 40.7827848, "lon": -73.9778357}, {"type": "node", "id": 2745535358, "lat": 40.7827935, "lon": -73.9778974}, {"type": "node", "id": 2745535361, "lat": 40.7828068, "lon": -73.9778876}, {"type": "node", "id": 2745535364, "lat": 40.782828, "lon": -73.9779376}, {"type": "node", "id": 2745543217, "lat": 40.7835143, "lon": -73.9778183, "tags": {"addr:city": "New York", "addr:country": "US", "addr:housenumber": "411", "addr:postcode": "10024", "addr:state": "NY", "addr:street": "Amsterdam Avenue", "amenity": "restaurant", "cuisine": "indian", "name": "Swagat", "opening_hours": "Mo-Fr 12:00-15:00, 17:00-22:00; Sa-Su 12:00-16:00, 17:00-22:00", "phone": "+1-212-362-1400", "website": "https://www.swagatny.com/"}}, {"type": "node", "id": 2745602443, "lat": 40.7838129, "lon": -73.978072, "tags": {"addr:city": "New York", "addr:country": "US", "addr:housenumber": "416", "addr:postcode": "10024", "addr:state": "NY", "addr:street": "Amsterdam Avenue", "amenity": "restaurant", "name": "La Sir\u00e8ne", "opening_hours": "Mo-Fr 11:30-22:00; Sa 11:00-23:00", "payment:bitcoincash": "yes", "phone": "+1-917-261-5279", "website": "https://lasirenenyc.com/"}}, {"type": "node", "id": 2745620594, "lat": 40.7847359, "lon": -73.9796748, "tags": {"addr:housenumber": "2241", "addr:postcode": "10024", "addr:street": "Broadway", "amenity": "cafe", "name": "Zabar's Cafe", "opening_hours": "Mo-Sa 08:00-17:00; Su 09:00-17:00", "phone": "+1-212-787-2000", "website": "https://www.zabars.com/"}}, {"type": "node", "id": 2758640952, "lat": 40.7852776, "lon": -73.9770179, "tags": {"addr:city": "New York", "addr:country": "US", "addr:housenumber": "460", "addr:postcode": "10024", "addr:state": "NY", "addr:street": "Amsterdam Avenue", "amenity": "restaurant", "contact:website": "https://www.peacefoodnyc.com", "diet:gluten_free": "yes", "diet:vegan": "only", "name": "Peacefood Cafe", "opening_hours": "Mo-Su,PH 11:30-21:00"}}, {"type": "node", "id": 2758640953, "lat": 40.7859091, "lon": -73.9765477, "tags": {"addr:city": "New York", "addr:country": "US", "addr:housenumber": "480", "addr:postcode": "10024", "addr:state": "NY", "addr:street": "Amsterdam Avenue", "amenity": "bar", "name": "Florentin"}}, {"type": "node", "id": 2758641039, "lat": 40.7855283, "lon": -73.9776592}, {"type": "node", "id": 2758641061, "lat": 40.7855716, "lon": -73.9777614}, {"type": "node", "id": 2758641120, "lat": 40.7857181, "lon": -73.9775201}, {"type": "node", "id": 2758641168, "lat": 40.7857614, "lon": -73.9776223}, {"type": "node", "id": 2939154801, "lat": 40.785812, "lon": -73.9781778, "tags": {"addr:city": "New York", "addr:housenumber": "2282", "addr:postcode": "10024", "addr:state": "NY", "addr:street": "Broadway", "amenity": "restaurant", "check_date": "2025-07-27", "cuisine": "diner", "indoor_seating": "yes", "name": "Cafe 82", "outdoor_seating": "yes"}}, {"type": "node", "id": 4775572071, "lat": 40.7853423, "lon": -73.9769585, "tags": {"addr:housenumber": "462", "addr:postcode": "10024", "addr:street": "Amsterdam Avenue", "amenity": "restaurant", "cuisine": "japanese", "name": "Jin Ramen", "name:zh": "Jin Ramen", "opening_hours": "Mo-Su 11:30-15:00,17:00-22:00", "phone": "+1-646-657-0755", "website": "https://uws.jinramen.com"}}, {"type": "node", "id": 5400480690, "lat": 40.7854795, "lon": -73.9768599, "tags": {"addr:city": "New York", "addr:housenumber": "466", "addr:postcode": "10024", "addr:state": "NY", "addr:street": "Amsterdam Avenue", "amenity": "bar", "name": "Craft & Carry", "opening_hours": "Mo-We 12:00-01:00; Th-Sa 12:00-02:00; Su 12:00-01:00", "phone": "+1-917-472-7723", "website": "https://www.craftandcarry.beer/upper-west-side"}}, {"type": "node", "id": 6260632696, "lat": 40.7823302, "lon": -73.9811871, "tags": {"addr:city": "New York", "addr:housenumber": "2173", "addr:postcode": "10024", "addr:state": "NY", "addr:street": "Broadway", "amenity": "cafe", "name": "Mille-Feuille Bakery Cafe", "website": "https://www.millefeuille-nyc.com/"}}, {"type": "node", "id": 6611164591, "lat": 40.7918335, "lon": -73.9787594}, {"type": "node", "id": 6784987781, "lat": 40.783644, "lon": -73.9777252, "tags": {"addr:city": "New York", "addr:housenumber": "417", "addr:postcode": "10024", "addr:state": "NY", "addr:street": "Amsterdam Avenue", "amenity": "cafe", "brand": "Bluestone Lane", "brand:wikidata": "Q130381059", "indoor_seating": "yes", "name": "Bluestone Lane", "opening_hours": "Mo-Su 07:00-17:00", "outdoor_seating": "yes", "phone": "+1-718-374-6858", "website": "https://bluestonelane.com/cafes/upper-west-side-417-amsterdam-ave-new-york/"}}, {"type": "node", "id": 7161597627, "lat": 40.7860372, "lon": -73.9764478, "tags": {"addr:city": "New York", "addr:country": "US", "addr:housenumber": "484", "addr:postcode": "10024", "addr:state": "NY", "addr:street": "Amsterdam Avenue", "amenity": "restaurant", "cuisine": "latin_american", "name": "Flor de Mayo", "opening_hours": "Mo-Th, Su 12:00-22:30; Fr, Sa 12:00-23:00"}}, {"type": "node", "id": 7192228723, "lat": 40.7841802, "lon": -73.9778051, "tags": {"addr:city": "New York", "addr:country": "US", "addr:housenumber": "426", "addr:postcode": "10024", "addr:state": "NY", "addr:street": "Amsterdam Avenue", "amenity": "restaurant", "building": "yes", "cuisine": "seafood", "name": "Luke's Lobster", "opening_hours": "Su-Th 11:00-22:00; Fr-Sa 11:00-23:00", "website": "https://lukeslobster.com/uws"}}, {"type": "node", "id": 7192228727, "lat": 40.7841195, "lon": -73.9778588, "tags": {"addr:housenumber": "424", "addr:street": "Amsterdam Avenue", "amenity": "restaurant", "name": "Caledonia Bar"}}, {"type": "node", "id": 7192228729, "lat": 40.7847131, "lon": -73.9774249, "tags": {"addr:city": "New York", "addr:country": "US", "addr:housenumber": "442", "addr:postcode": "10024", "addr:state": "NY", "addr:street": "Amsterdam Avenue", "amenity": "bar", "name": "The Gin Mill", "opening_hours": "Th-Sa 11:30-04:00; Mo-We, Su 11:30-02:00", "phone": "+1 212-580-9080", "website": "http://theginmill.eatdrinkandbemerry.com"}}, {"type": "node", "id": 7194269383, "lat": 40.7839718, "lon": -73.9774769, "tags": {"addr:city": "New York", "addr:country": "US", "addr:housenumber": "425", "addr:postcode": "10024", "addr:state": "NY", "addr:street": "Amsterdam Avenue", "amenity": "pub", "name": "The Wolfe", "opening_hours": "Mo-We 11:30-01:00, Th 11:30-02:00, Fr 11:30-03:00, Sa 10:00-03:00, Su 10:00-01:00", "phone": "+1-646-876-1004", "website": "https://www.thewolfenyc.com/"}}, {"type": "node", "id": 7194269384, "lat": 40.7840363, "lon": -73.9774282, "tags": {"addr:city": "New York", "addr:country": "US", "addr:housenumber": "427", "addr:postcode": "10024", "addr:state": "NY", "addr:street": "Amsterdam Avenue", "amenity": "restaurant", "cuisine": "japanese", "name": "Momoya", "opening_hours": "Su-Th 12:00-23:00; Fr-Sa 12:00-23:30", "website": "https://momoyanyc.com/"}}, {"type": "node", "id": 7194308185, "lat": 40.78367, "lon": -73.9781784, "tags": {"addr:city": "New York", "addr:country": "US", "addr:housenumber": "412", "addr:postcode": "10024", "addr:state": "NY", "addr:street": "Amsterdam Avenue", "amenity": "cafe", "name": "Sandwell", "opening_hours": "Mo-Su 08:00-19:00", "phone": "+1-212-321-7911", "website": "https://www.getsandwell.com/"}}, {"type": "node", "id": 7194308188, "lat": 40.7843285, "lon": -73.977698, "tags": {"addr:city": "New York", "addr:country": "US", "addr:housenumber": "430", "addr:postcode": "10024", "addr:state": "NY", "addr:street": "Amsterdam Avenue", "amenity": "bar", "name": "Jake's Dilemma", "phone": "+1-212-580-0556", "website": "http://jakesdilemma.eatdrinkandbemerry.com"}}, {"type": "node", "id": 7403303285, "lat": 40.7812599, "lon": -73.980915, "tags": {"addr:city": "New York", "addr:housenumber": "2148A", "addr:postcode": "10023", "addr:state": "NY", "addr:street": "Broadway", "name": "Compass Real Estate", "office": "estate_agent", "phone": "+1-646-609-9890"}}, {"type": "node", "id": 7418114253, "lat": 40.7850269, "lon": -73.9771886, "tags": {"addr:city": "New York", "addr:housenumber": "452", "addr:postcode": "10024", "addr:state": "NY", "addr:street": "Amsterdam Avenue", "amenity": "restaurant", "cuisine": "thai", "delivery": "yes", "name": "Senn Thai Comfort Food", "opening_hours": "Mo-Th 11:30-15:30, 17:00-21:00; Fr-Su 11:30-15:00, 17:00-21:30", "phone": "+1-212-501-7755", "website": "https://www.sennthai.com"}}, {"type": "node", "id": 7418118988, "lat": 40.784963, "lon": -73.9772434, "tags": {"addr:city": "New York", "addr:housenumber": "450", "addr:postcode": "10024", "addr:state": "NY", "addr:street": "Amsterdam Avenue", "amenity": "restaurant", "cuisine": "thai", "delivery": "yes", "name": "Land Thai Kitchen", "phone": "+1-212-501-8121", "website": "https://www.landthaikitchen.com/"}}, {"type": "node", "id": 7418121964, "lat": 40.7849421, "lon": -73.9772607, "tags": {"addr:city": "New York", "addr:housenumber": "450", "addr:postcode": "10024", "addr:state": "NY", "addr:street": "Amsterdam Avenue", "addr:unit": "2", "amenity": "pub", "cuisine": "irish", "name": "The Dead Poet", "theme": "irish", "website": "http://www.thedeadpoet.com/"}}, {"type": "node", "id": 8326281701, "lat": 40.7943396, "lon": -73.9769999}, {"type": "node", "id": 8709392098, "lat": 40.7853877, "lon": -73.9791671, "tags": {"addr:city": "New York", "addr:housenumber": "2263", "addr:postcode": "10024", "addr:street": "Broadway", "amenity": "cafe", "check_date": "2024-09-22", "cuisine": "coffee_shop", "drive_through": "no", "mobile_phone:repair": "yes", "name": "Royal Coffee", "opening_hours": "Mo-Su 07:00-17:00", "outdoor_seating": "no", "phone": "+1-646-905-8006", "website": "https://royalcoffee.us"}}, {"type": "node", "id": 9895618477, "lat": 40.7817351, "lon": -73.9851809, "tags": {"barrier": "kerb", "kerb": "lowered"}}, {"type": "node", "id": 9895633506, "lat": 40.7818735, "lon": -73.9851218, "tags": {"barrier": "kerb", "kerb": "lowered"}}, {"type": "node", "id": 10039645580, "lat": 40.7893489, "lon": -73.9808996}, {"type": "node", "id": 10039645585, "lat": 40.7898925, "lon": -73.9805178}, {"type": "node", "id": 10039645592, "lat": 40.7900759, "lon": -73.9803748}, {"type": "node", "id": 10039653286, "lat": 40.786285, "lon": -73.9814852, "tags": {"barrier": "kerb", "kerb": "lowered"}}, {"type": "node", "id": 10039653287, "lat": 40.7863572, "lon": -73.9814426}, {"type": "node", "id": 10039653299, "lat": 40.7868366, "lon": -73.9813208, "tags": {"barrier": "kerb", "kerb": "lowered"}}, {"type": "node", "id": 10039656210, "lat": 40.7877686, "lon": -73.9812249, "tags": {"barrier": "kerb", "kerb": "lowered"}}, {"type": "node", "id": 10039693561, "lat": 40.7876298, "lon": -73.9812441, "tags": {"barrier": "kerb", "kerb": "lowered"}}, {"type": "node", "id": 10039741673, "lat": 40.7884365, "lon": -73.9812009}, {"type": "node", "id": 10039741679, "lat": 40.7885713, "lon": -73.9811658}, {"type": "node", "id": 10039741697, "lat": 40.789214, "lon": -73.9809654}, {"type": "node", "id": 10039776316, "lat": 40.791351, "lon": -73.979435}, {"type": "node", "id": 10039856114, "lat": 40.7810186, "lon": -73.9854808, "tags": {"barrier": "kerb"}}, {"type": "node", "id": 10039856116, "lat": 40.781164, "lon": -73.9854185, "tags": {"barrier": "kerb"}}, {"type": "node", "id": 10039861889, "lat": 40.7919062, "lon": -73.9785791}, {"type": "node", "id": 10039870527, "lat": 40.7832773, "lon": -73.9845021, "tags": {"barrier": "kerb", "kerb": "lowered"}}, {"type": "node", "id": 10039870528, "lat": 40.7833975, "lon": -73.9844085}, {"type": "node", "id": 10039870529, "lat": 40.7830695, "lon": -73.9846234}, {"type": "node", "id": 10039870530, "lat": 40.7831582, "lon": -73.9845812, "tags": {"barrier": "kerb", "kerb": "lowered"}}, {"type": "node", "id": 10055283981, "lat": 40.7818869, "lon": -73.9878942}, {"type": "node", "id": 10060777166, "lat": 40.7927323, "lon": -73.9773085}, {"type": "node", "id": 10061122333, "lat": 40.7928571, "lon": -73.977236}, {"type": "node", "id": 10160790627, "lat": 40.7807592, "lon": -73.9865256}, {"type": "node", "id": 10160790628, "lat": 40.7807502, "lon": -73.9865298}, {"type": "node", "id": 10160790631, "lat": 40.7808736, "lon": -73.986801}, {"type": "node", "id": 10160790655, "lat": 40.7809748, "lon": -73.9870475}, {"type": "node", "id": 10160790662, "lat": 40.7807911, "lon": -73.9866025}, {"type": "node", "id": 10160790706, "lat": 40.7810167, "lon": -73.9871494}, {"type": "node", "id": 10160791135, "lat": 40.7844549, "lon": -73.983304, "tags": {"barrier": "kerb", "kerb": "lowered"}}, {"type": "node", "id": 10160791151, "lat": 40.7843439, "lon": -73.9834267, "tags": {"barrier": "kerb", "kerb": "lowered"}}, {"type": "node", "id": 10164725172, "lat": 40.784861, "lon": -73.9828781}, {"type": "node", "id": 10164725173, "lat": 40.7851548, "lon": -73.9825756}, {"type": "node", "id": 10164725174, "lat": 40.7835574, "lon": -73.9842538}, {"type": "node", "id": 10164725177, "lat": 40.7828554, "lon": -73.9847176}, {"type": "node", "id": 10164725178, "lat": 40.7824766, "lon": -73.9848723}, {"type": "node", "id": 10164725179, "lat": 40.7821736, "lon": -73.9850021}, {"type": "node", "id": 10164725180, "lat": 40.7805948, "lon": -73.9856666}, {"type": "node", "id": 10164725181, "lat": 40.7804519, "lon": -73.9859018}, {"type": "node", "id": 10164725182, "lat": 40.7805728, "lon": -73.9856429}, {"type": "node", "id": 10164725183, "lat": 40.7804376, "lon": -73.9858761}, {"type": "node", "id": 10164725184, "lat": 40.780421, "lon": -73.9858268}, {"type": "node", "id": 10164725185, "lat": 40.7804157, "lon": -73.9857901}, {"type": "node", "id": 10164725186, "lat": 40.7804228, "lon": -73.985741, "tags": {"barrier": "kerb", "kerb": "lowered"}}, {"type": "node", "id": 10164725187, "lat": 40.780473, "lon": -73.9856819, "tags": {"barrier": "kerb", "kerb": "lowered"}}, {"type": "node", "id": 10164725188, "lat": 40.7804451, "lon": -73.985704}, {"type": "node", "id": 10164725189, "lat": 40.7807395, "lon": -73.9865355}, {"type": "node", "id": 10164740291, "lat": 40.7861012, "lon": -73.9816101}, {"type": "node", "id": 10164740292, "lat": 40.7859982, "lon": -73.9816972}, {"type": "node", "id": 10164740393, "lat": 40.78659, "lon": -73.9813573}, {"type": "node", "id": 10164740403, "lat": 40.7873102, "lon": -73.9812728}, {"type": "node", "id": 10164740486, "lat": 40.7869822, "lon": -73.984363}, {"type": "node", "id": 10164740487, "lat": 40.7885399, "lon": -73.9832848}, {"type": "node", "id": 11005811332, "lat": 40.7839974, "lon": -73.9779504, "tags": {"addr:city": "New York", "addr:housenumber": "420", "addr:postcode": "10024", "addr:state": "NY", "addr:street": "Amsterdam Avenue", "amenity": "cafe", "cuisine": "coffee_shop", "dog": "yes", "name": "Black Lab Cafe", "opening_hours": "Mo-Th 09:00-17:00, Fr-Sa 09:00-21:00, Su 09:00-20:00", "phone": "+16463434089", "website": "https://www.blacklabcafe.com/"}}, {"type": "node", "id": 11170363349, "lat": 40.7835933, "lon": -73.979832, "tags": {"addr:city": "New York", "addr:housenumber": "2218", "addr:postcode": "10024", "addr:state": "NY", "addr:street": "Broadway", "amenity": "cafe", "cuisine": "coffee_shop", "name": "Z\u00fcri Coffee"}}, {"type": "node", "id": 11170449354, "lat": 40.782497, "lon": -73.9785273, "tags": {"addr:city": "New York", "addr:housenumber": "377", "addr:postcode": "10024", "addr:state": "NY", "addr:street": "Amsterdam Avenue", "amenity": "restaurant", "brand": "Tacombi", "brand:wikidata": "Q123165959", "check_date": "2024-03-12", "cuisine": "mexican", "happy_hours": "Mo-Fr 16:00-19:00", "indoor_seating": "yes", "name": "Tacombi", "opening_hours": "Mo-Su 11:00-23:00", "outdoor_seating": "yes", "phone": "+1-646-822-3383", "website": "https://www.tacombi.com/"}}, {"type": "node", "id": 11236746435, "lat": 40.7822176, "lon": -73.9787653, "tags": {"addr:city": "New York", "addr:housenumber": "373", "addr:postcode": "10024", "addr:state": "NY", "addr:street": "Amsterdam Avenue", "air_conditioning": "yes", "amenity": "restaurant", "cuisine": "georgian", "diet:gluten_free": "yes", "diet:lactose_free": "yes", "diet:vegan": "yes", "diet:vegetarian": "yes", "level": "0", "name": "Chama Mama", "opening_hours": "Mo-Th 12:00-21:00; Fr 12:00-22:00; Sa 10:00-22:00; Su 10:00-21:00", "outdoor_seating": "yes", "phone": "+1-917-261-7430", "reservation": "yes", "smoking": "no", "takeaway": "yes", "toilets": "yes", "website": "https://www.chamamama.com/location/chama-mama-uws/"}}, {"type": "node", "id": 11381160102, "lat": 40.7825809, "lon": -73.9763805, "tags": {"addr:city": "New York", "addr:housenumber": "127", "addr:postcode": "10024", "addr:state": "NY", "addr:street": "West 79th Street", "addr:unit": "7F", "name": "Law Office of Martha M. Dwyer", "office": "lawyer", "opening_hours": "Mo-Fr 08:00-18:00", "phone": "+1-212-724-7894", "website": "https://mdwyerlaw.com"}}, {"type": "node", "id": 11479001567, "lat": 40.7813256, "lon": -73.9794012, "tags": {"amenity": "cafe", "brand": "Joe & The Juice", "brand:wikidata": "Q26221514", "cuisine": "coffee_shop", "name": "Joe & The Juice", "takeaway": "yes"}}, {"type": "node", "id": 11541696469, "lat": 40.7840717, "lon": -73.9779024, "tags": {"addr:postcode": "10024", "amenity": "bar", "contact:instagram": "hoptimistbar", "name": "Hoptimist", "opening_hours": "Mo-Th 16:00-24:00, Fr 14:00-02:00, Sa 12:00-02:00, Su 14:00-23:00", "phone": "+1-646-609-1046", "website": "https://www.hoptimistbar.com/"}}, {"type": "node", "id": 11583940162, "lat": 40.7834343, "lon": -73.9794572, "tags": {"addr:city": "New York", "addr:country": "US", "addr:housenumber": "224", "addr:postcode": "10024", "addr:state": "NY", "addr:street": "West 79th Street", "amenity": "cafe", "cuisine": "coffee_shop", "internet_access": "no", "name": "Irving Farm Coffee Roasters", "opening_hours": "Mo-Fr 07:00-22:00; Sa-Su 08:00-22:00", "website": "http://www.irvingfarm.com/locations/upper-west-side-cafe/", "wheelchair": "no"}}, {"type": "node", "id": 11583940164, "lat": 40.7831966, "lon": -73.9789446, "tags": {"addr:city": "New York", "addr:country": "US", "addr:housenumber": "206", "addr:postcode": "10024", "addr:state": "NY", "addr:street": "West 79th Street", "amenity": "restaurant", "cuisine": "italian", "name": "Ciao Paisan", "opening_hours": "Mo-Th 12:00-21:45; Fr-Sa 12:00-22:45; Su 12:00-21:45", "phone": "+1-212-877-3840", "website": "https://www.ciaopaisan.com"}}, {"type": "node", "id": 11583940165, "lat": 40.7832747, "lon": -73.9791292, "tags": {"addr:city": "New York", "addr:housenumber": "212", "addr:postcode": "10024", "addr:state": "NY", "addr:street": "West 79th Street", "amenity": "bar", "name": "Blondies Sports Bar", "phone": "+1-212-362-3311"}}, {"type": "node", "id": 11583954373, "lat": 40.7828731, "lon": -73.9801285, "tags": {"addr:city": "New York", "addr:housenumber": "236", "addr:postcode": "10024", "addr:state": "NY", "addr:street": "West 78th Street", "amenity": "bar", "check_date": "2024-08-03", "name": "New York Comedy Club", "note": "Opened 2024-08-01. Replaces Stand Up NY club that moved to another location a few months earlier", "phone": "+1-973-222-7422", "website": "https://newyorkcomedyclub.com"}}, {"type": "node", "id": 11617087594, "lat": 40.7842543, "lon": -73.9777515, "tags": {"addr:city": "New York", "addr:housenumber": "428", "addr:postcode": "10024", "addr:state": "NY", "addr:street": "Amsterdam Avenue", "amenity": "restaurant", "cuisine": "seafood", "name": "Crave Fishbar", "phone": "+1-646-494-2750", "website": "https://cravefishbar.com"}}, {"type": "node", "id": 11617087595, "lat": 40.7842096, "lon": -73.9777838, "tags": {"addr:city": "New York", "addr:housenumber": "426", "addr:postcode": "10024", "addr:state": "NY", "addr:street": "Amsterdam Avenue", "amenity": "restaurant", "cuisine": "vietnamese", "name": "Two Wheels", "opening_hours": "Mo-Th 11:30-21:30; Fr-Sa 11:30-22:30; Su 11:30-21:30", "phone": "+1-646-429-8661", "website": "https://twowheels.nyc/"}}, {"type": "node", "id": 11622197425, "lat": 40.7849937, "lon": -73.9772104, "tags": {"addr:city": "New York", "addr:housenumber": "452", "addr:postcode": "10024", "addr:state": "NY", "addr:street": "Amsterdam Avenue", "amenity": "restaurant", "cuisine": "chinese", "name": "Vanessa's Dumpling House", "opening_hours": "Mo-Su 12:00-22:00", "phone": "+1-646-559-2887", "website": "https://www.vanessas.com/"}}, {"type": "node", "id": 11627433797, "lat": 40.7836073, "lon": -73.978221, "tags": {"addr:city": "New York", "addr:housenumber": "410", "addr:postcode": "10024", "addr:state": "NY", "addr:street": "Amsterdam Avenue", "amenity": "restaurant", "cuisine": "sushi", "name": "Sushi Nonaka", "opening_hours": "Mo-Th 11:30-16:30, 17:00-22:30; Fr-Sa 11:30-16:30, 17:00-23:00; Su 11:30-16:30, 17:00-22:30", "phone": "+1-646-454-0226", "website": "https://www.sushinonaka.com"}}, {"type": "node", "id": 11627501943, "lat": 40.7835886, "lon": -73.977765, "tags": {"addr:city": "New York", "addr:country": "US", "addr:housenumber": "413", "addr:postcode": "10024", "addr:state": "NY", "addr:street": "Amsterdam Avenue", "air_conditioning": "yes", "amenity": "restaurant", "bar": "no", "branch": "Upper West Side", "check_date": "2024-09-08", "cuisine": "indian", "delivery": "yes", "diet:gluten_free": "yes", "diet:lactose_free": "yes", "diet:vegan": "yes", "diet:vegetarian": "yes", "highchair": "no", "indoor_seating": "yes", "name": "Saravanaa Bhavan", "opening_hours": "12:00-15:00; 17:30-21:30", "outdoor_seating": "yes", "payment:cash": "yes", "payment:contactless": "yes", "payment:credit_cards": "yes", "payment:debit_cards": "yes", "phone": "+1 917-983-0902", "smoking": "no", "takeaway": "yes", "toilets": "yes", "website": "https://www.saravanaabhavan.getsauce.com/", "website:menu": "https://www.beyondmenu.com/21211/manhattan/saravana-bhavan-manhattan-10024.aspx", "wheelchair": "yes"}}, {"type": "node", "id": 11686756833, "lat": 40.7860409, "lon": -73.9780219, "tags": {"addr:city": "New York", "addr:housenumber": "2290", "addr:postcode": "10024", "addr:state": "NY", "addr:street": "Broadway", "amenity": "cafe", "name": "Westville", "opening_hours": "Mo-Fr 11:30-22:00; Sa-Su 10:00-16:00,17:00-21:30", "outdoor_seating": "yes", "phone": "+1-212-677-2933", "website": "https://westvillenyc.com/locations/westville-upperwest/"}}, {"type": "node", "id": 11687176846, "lat": 40.7834563, "lon": -73.9795171, "tags": {"addr:city": "New York", "addr:housenumber": "226", "addr:postcode": "10024", "addr:state": "NY", "addr:street": "West 79th Street", "amenity": "restaurant", "cuisine": "american", "name": "Haven", "phone": "+1-646-609-1059", "website": "https://www.havenuws.com"}}, {"type": "node", "id": 11687176847, "lat": 40.7833931, "lon": -73.9794128, "tags": {"addr:city": "New York", "addr:housenumber": "222", "addr:postcode": "10024", "addr:state": "NY", "addr:street": "West 79th Street", "amenity": "cafe", "cuisine": "dessert", "name": "Mochi Dolci & 222 Speakeasy", "outdoor_seating": "no", "website": "https://mochidolci.com/"}}, {"type": "node", "id": 11687210350, "lat": 40.7840301, "lon": -73.9779134, "tags": {"addr:city": "New York", "addr:housenumber": "422", "addr:postcode": "10024", "addr:state": "NY", "addr:street": "Amsterdam Avenue", "amenity": "restaurant", "cuisine": "chinese", "name": "Joe's Steam Rice Roll", "opening_hours": "Mo-Su 12:00-20:00", "phone": "+1-917-388-3781", "website": "https://orderjoesteamriceroll.com"}}, {"type": "node", "id": 11687215264, "lat": 40.7854066, "lon": -73.9769052, "tags": {"addr:city": "New York", "addr:housenumber": "464", "addr:postcode": "10024", "addr:state": "NY", "addr:street": "Amsterdam Avenue", "amenity": "restaurant", "cuisine": "italian;pizza", "name": "Song'e Napule", "opening_hours": "Mo-Fr 12:00-22:00; Sa,Su 11:00-22:00", "phone": "+1-917-472-7561", "website": "https://songenapule.us/song-e-napule-upper-west-side"}}, {"type": "node", "id": 11687215265, "lat": 40.7855628, "lon": -73.9767913, "tags": {"addr:city": "New York", "addr:housenumber": "468", "addr:postcode": "10024", "addr:state": "NY", "addr:street": "Amsterdam Avenue", "amenity": "bar", "name": "Scarlet Lounge", "opening_hours": "Mo-Th 17:00-24:00; Fr-Sa 17:00-02:00; Su 17:00-23:00", "website": "https://scarletloungenyc.com/"}}, {"type": "node", "id": 11687385083, "lat": 40.7861403, "lon": -73.9763768, "tags": {"addr:city": "New York", "addr:housenumber": "488", "addr:postcode": "10024", "addr:state": "NY", "addr:street": "Amsterdam Avenue", "amenity": "restaurant", "cuisine": "indian", "name": "Alachi Masala", "opening_hours": "Mo-Th 16:00-22:00; Fr 16:00-22:30; Sa 12:00-22:30; Su 12:00-22:00", "phone": "+1212-874-0737", "website": "https://www.alachimasalany.com"}}, {"type": "node", "id": 11730128243, "lat": 40.7839211, "lon": -73.9775152, "tags": {"addr:city": "New York", "addr:country": "US", "addr:housenumber": "423", "addr:postcode": "10024", "addr:state": "NY", "addr:street": "Amsterdam Avenue", "amenity": "restaurant", "name": "Sarabeth's", "phone": "+1-212-496-6280", "website": "https://sarabethsrestaurants.com/locations/upper-west-side/", "wheelchair": "yes"}}, {"type": "node", "id": 11738266640, "lat": 40.783395, "lon": -73.9799783, "tags": {"addr:city": "New York", "addr:housenumber": "2210", "addr:postcode": "10024", "addr:state": "NY", "addr:street": "Broadway", "amenity": "cafe", "email": "customerservice@brunchbroadway.com", "name": "Brunch", "opening_hours": "Mo-Su 09:00-15:30", "outdoor_seating": "no", "website": "https://brunchbroadway.com"}}, {"type": "node", "id": 11746576608, "lat": 40.7835338, "lon": -73.9778072, "tags": {"addr:city": "New York", "addr:housenumber": "411b", "addr:postcode": "10024", "addr:state": "NY", "addr:street": "Amsterdam Avenue", "amenity": "restaurant", "cuisine": "japanese", "name": "One Bite Omakase", "opening_hours": "Mo-Su 17:00-22:00", "opening_hours:kitchen": "Mo-Su 17:00-21:00", "phone": "+12128841583", "website": "https://www.onebiteomakase.com"}}, {"type": "node", "id": 12605079805, "lat": 40.7855888, "lon": -73.9805925, "tags": {"amenity": "school", "ele": "17", "gnis:feature_id": "2083870", "mascot": "Cougars", "name": "Calhoun School", "phone": "+1-212-497-6500", "website": "https://www.calhoun.org/", "wikidata": "Q5019786", "wikipedia": "en:Calhoun School"}}, {"type": "node", "id": 12605177453, "lat": 40.7833011, "lon": -73.9812601, "tags": {"amenity": "school", "ele": "24", "grades": "K-12", "mascot": "Dutchmen", "name": "Collegiate School"}}, {"type": "way", "id": 37003318, "nodes": [10039776316, 430354225, 430354226, 10039645592, 10039645585, 430354227, 10039645580, 430354228, 10039741697, 430354229, 10039741679, 10039741673, 430354230, 10039656210, 10039693561, 10164740403, 430354234, 10039653299, 10164740393, 430354236, 10039653287, 10039653286, 430354237, 10164740291, 10164740292, 430354238, 430354239, 10164725173, 10164725172, 10160791135, 10160791151, 10164725174, 10039870528, 10039870527, 10039870530, 10039870529, 10164725177, 10164725178, 10164725179, 9895633506, 9895618477, 10039856116, 10039856114, 10164725180, 10164725182, 10164725187, 10164725188, 10164725186, 10164725185, 10164725184, 10164725183, 10164725181, 430354197, 10164725189, 10160790628, 10160790627, 10160790662, 10160790631, 10160790655, 10160790706, 1329122475, 432734895, 2041315671, 2745510801, 2745510804, 246942723, 2041315651, 10055283981, 2041315670, 430351195, 432734894, 2041315660, 246942732, 2041819922, 246942733, 10164740486, 2041315655, 430354198, 10164740487, 2041315677, 430354201, 430354202, 430354203]}, {"type": "way", "id": 194212578, "nodes": [2047267748, 2047267750, 2047267752, 2047267749, 2047267745, 2047267734, 2047267748], "tags": {"ele": "26", "gnis:feature_id": "2078976;2500941", "leisure": "park", "name": "Tecumseh Playground", "note": "Closed during school hours during weekdays on the school year."}}, {"type": "way", "id": 269305358, "nodes": [2745528123, 2745528151, 2745528148, 2745528152, 2745528103, 2745528145, 2745528301, 2745528336, 2745528374, 2745528303, 2745528161, 2745528123], "tags": {"addr:housenumber": "160", "addr:postcode": "10024", "addr:street": "West 78th Street", "amenity": "school", "building": "school", "elevation": "26", "gnis:feature_id": "961893", "height": "14.1", "name": "Public School 87", "nycdoitt:bin": "1030196", "wheelchair": "limited"}}, {"type": "way", "id": 269306022, "nodes": [2745535237, 2745535257, 2745535192, 2745535124, 2745535132, 2745535277, 2745535289, 2745535364, 2745535361, 2745535358, 2745535352, 2745535355, 2745535346, 2745535330, 2745535312, 2745535271, 2745535237], "tags": {"addr:city": "New York", "addr:housenumber": "168", "addr:postcode": "10024", "addr:state": "NY", "addr:street": "West 79th Street", "amenity": "school", "building": "school", "height": "20.1", "name": "Rodeph Sholom School", "nycdoitt:bin": "1030266", "type": "school"}}, {"type": "way", "id": 270901671, "nodes": [2758641039, 2758641061, 2758641168, 2758641120, 2758641039], "tags": {"addr:housenumber": "213", "addr:postcode": "10024", "addr:street": "West 82nd Street", "building": "yes", "height": "10.1", "nycdoitt:bin": "1032757", "office": "parish"}}, {"type": "way", "id": 1251822189, "nodes": [430354203, 430354204, 1332863755, 430354205, 430354206, 430354207, 2029349826, 430354208, 2029349832, 430354209, 2029349881, 2029349885, 2029349889, 2029349891, 430354210, 2029349886, 2029349883, 430354211, 430354212, 430354213, 430354214, 8326281701, 430354215, 430354216, 430354217, 430354218, 10061122333, 10060777166, 430354219, 430354220, 430354221, 10039861889, 6611164591, 430354222, 430354223, 430354224, 10039776316]}, {"type": "relation", "id": 17229873, "members": [{"type": "way", "ref": 37003318, "role": "outer"}, {"type": "way", "ref": 1251822189, "role": "outer"}], "tags": {"addr:city": "New York", "addr:postcode": "10024", "addr:state": "NY", "leisure": "park", "name": "Riverside Park", "operator": "New York City Department of Parks and Recreation", "operator:short": "NYC Parks", "operator:type": "government", "operator:wikidata": "Q1894232", "type": "multipolygon", "wikidata": "Q1339602", "wikipedia": "en:Riverside Park (Manhattan)"}}]}